{"type":"FeatureCollection","properties":{"mesh_code":"53387728","source":"PLATEAU秩父市2025","layer":"landuse"},"features":[{"type":"Feature","id":"luse_f5e6f3d6-cc18-461b-8a6b-6e5f2c3b1e00","geometry":{"type":"Polygon","coordinates":[[[138.975,35.94166666666667],[138.975,35.93333333333333],[138.975,35.93333333333333],[138.975,35.94166666666667],[138.975,35.94166666666667]]]},"properties":{"layer":"landuse","class_code":"215","class_label":"道路用地（道路、駅前広場、私有地内に存在する沿道用途の「私道」または、私有地の一部分であるものの公共の通行に供されている土地の部分）"}}]}