{"type":"FeatureCollection","properties":{"mesh_code":"53386798","source":"PLATEAU秩父市2025","layer":"landuse"},"features":[{"type":"Feature","id":"luse_8451883b-fe66-4e69-9fff-1a48aa808155","geometry":{"type":"Polygon","coordinates":[[[138.9793509,35.9104622],[138.9793085,35.9104903],[138.9793047,35.9105162],[138.9793149,35.9105623],[138.9793401,35.9106199],[138.9792415,35.9105552],[138.9791242,35.9104902],[138.979121,35.9104884],[138.9790508,35.9104556],[138.9789968,35.9104242],[138.9789459,35.910385],[138.9789271,35.9103676],[138.9788986,35.9103248],[138.9788895,35.9103003],[138.9788889,35.9102948],[138.9788766,35.9101791],[138.9788421,35.9098531],[138.9788088,35.9096899],[138.9787929,35.9095561],[138.9787864,35.9094411],[138.978786,35.9093026],[138.9787929,35.9091927],[138.9788048,35.9091196],[138.9788259,35.9090517],[138.9788584,35.9089943],[138.9789031,35.9089413],[138.9789525,35.9089026],[138.9790016,35.9088661],[138.9790715,35.9088342],[138.9790718,35.9088341],[138.9791777,35.9088015],[138.979178,35.9088014],[138.9793341,35.9087647],[138.979477,35.9087215],[138.9794773,35.9087214],[138.9796674,35.9086619],[138.9797658,35.9086425],[138.9797661,35.9086424],[138.9799294,35.9086125],[138.9799297,35.9086124],[138.9800616,35.9085847],[138.9801347,35.908578],[138.9801857,35.9085779],[138.9802317,35.9085799],[138.9802688,35.9085872],[138.9803105,35.908601],[138.9803475,35.9086214],[138.9803537,35.9086248],[138.9804242,35.9086813],[138.9804945,35.90875],[138.9805688,35.9088491],[138.9806395,35.908959],[138.980716,35.9090816],[138.9807787,35.9091649],[138.9808263,35.9092281],[138.9808259,35.9092281],[138.9806219,35.9092403],[138.9805653,35.9092353],[138.9805148,35.9092184],[138.9804918,35.9092028],[138.9804644,35.9091778],[138.9804545,35.909153],[138.9804421,35.9090915],[138.9804232,35.9090285],[138.9804184,35.9090123],[138.9803843,35.9089412],[138.9803614,35.9089115],[138.9803398,35.9088984],[138.9802373,35.9088505],[138.9801626,35.9088194],[138.9801449,35.908812],[138.9800842,35.9087904],[138.9799931,35.9087685],[138.9799206,35.9087656],[138.9798713,35.9087653],[138.9798117,35.9087742],[138.9797186,35.9087964],[138.9795,35.9088605],[138.9793044,35.9090341],[138.9791653,35.9092432],[138.9790822,35.9095541],[138.9790596,35.9098628],[138.9790651,35.9098975],[138.9791069,35.9101586],[138.9791396,35.9102135],[138.9792327,35.9103704],[138.9793509,35.9104622]]]},"properties":{"layer":"landuse","class_code":"203","class_label":"山林（樹林地）"}},{"type":"Feature","id":"luse_a40d6935-04e9-4647-95e6-37e187cd157c","geometry":{"type":"Polygon","coordinates":[[[138.9828548,35.9109279],[138.9827828,35.9109363],[138.9827197,35.9109376],[138.982661,35.9109372],[138.9825858,35.910931],[138.9824716,35.9109019],[138.9823632,35.9108633],[138.9822694,35.9108189],[138.9821901,35.9107724],[138.9821194,35.9107275],[138.9821036,35.9107175],[138.9820635,35.9106747],[138.9820149,35.9106059],[138.9819695,35.9105147],[138.9819442,35.9104389],[138.9819276,35.9103668],[138.9819172,35.9102874],[138.9819274,35.910168],[138.9819327,35.9100688],[138.9819313,35.9100015],[138.9819061,35.9099217],[138.9818591,35.9098363],[138.9817859,35.909765],[138.9816844,35.9096917],[138.9815654,35.909627],[138.9814616,35.9095697],[138.9813903,35.9095196],[138.9813241,35.9094469],[138.9812531,35.9093649],[138.9811778,35.9092953],[138.9811389,35.9092614],[138.9811065,35.9092452],[138.9810631,35.9092325],[138.9809015,35.9092589],[138.9808704,35.9092179],[138.9810354,35.9091827],[138.9810746,35.9091795],[138.9811115,35.9091886],[138.9811699,35.9092138],[138.9812412,35.9092603],[138.9812756,35.9093066],[138.981396,35.9094403],[138.9815036,35.9095186],[138.9816116,35.9095884],[138.9817587,35.9096674],[138.9818321,35.9097228],[138.9818879,35.9097852],[138.9819545,35.9098671],[138.9819757,35.9099203],[138.9819854,35.9099681],[138.9819902,35.9099913],[138.9819934,35.910094],[138.9819836,35.9102037],[138.9819757,35.9103179],[138.9819899,35.9104136],[138.9819949,35.9104369],[138.9820173,35.9105186],[138.9820528,35.9105885],[138.9820942,35.910656],[138.9821516,35.9107072],[138.9822496,35.9107681],[138.9823448,35.9108207],[138.9824242,35.9108543],[138.9825038,35.910875],[138.9825819,35.9108943],[138.9826427,35.9109078],[138.9827108,35.9109071],[138.982779,35.9109064],[138.9828749,35.9108906],[138.9830189,35.9108503],[138.983128,35.9108215],[138.9832737,35.910773],[138.9833741,35.9107406],[138.9834338,35.9107127],[138.9835052,35.9106778],[138.9835164,35.9106709],[138.9835843,35.9106286],[138.9837071,35.9105392],[138.9838365,35.9104498],[138.9840022,35.9103698],[138.9841136,35.9103263],[138.9842555,35.9102812],[138.9843162,35.9102648],[138.9844148,35.9102381],[138.984553,35.9102174],[138.984662,35.9102005],[138.9847232,35.9101797],[138.9847887,35.9101519],[138.9848559,35.9101205],[138.9849463,35.9100656],[138.9850603,35.9099885],[138.985161,35.909929],[138.9852763,35.9098637],[138.9853711,35.9098172],[138.985428,35.9097928],[138.985492,35.9097732],[138.9855324,35.9097614],[138.9856308,35.909736],[138.985538,35.9097996],[138.9855001,35.9098181],[138.9853149,35.9099194],[138.9850551,35.9100628],[138.9848932,35.9101561],[138.9848275,35.9101899],[138.9847809,35.9102132],[138.9847241,35.9102316],[138.9846703,35.9102467],[138.9845208,35.9102708],[138.9843616,35.9102962],[138.9842505,35.9103219],[138.9840822,35.9103881],[138.9839488,35.910449],[138.9838371,35.9105156],[138.9837697,35.9105635],[138.9837384,35.9105857],[138.983631,35.9106611],[138.9835324,35.9107295],[138.9834625,35.9107573],[138.9833315,35.9108077],[138.9831379,35.9108687],[138.9830822,35.9108808],[138.9829987,35.9108988],[138.9828548,35.9109279]]]},"properties":{"layer":"landuse","class_code":"204","class_label":"水面（河川水面、湖沼、ため池、用水路、濠、運河水面）"}},{"type":"Feature","id":"luse_1cce1edf-9814-4df7-9b6f-a7cebedff975","geometry":{"type":"Polygon","coordinates":[[[138.9797281,35.9113951],[138.979643,35.9114054],[138.9795951,35.9114111],[138.9794847,35.9113896],[138.9794148,35.9113775],[138.9792354,35.9113284],[138.9792938,35.9112945],[138.9795393,35.9113523],[138.9795399,35.9113524],[138.9796313,35.9113413],[138.9798443,35.9112801],[138.9798942,35.9112146],[138.9799023,35.9111218],[138.9798155,35.9109439],[138.9797719,35.910843],[138.9795466,35.9106143],[138.9793509,35.9104622],[138.9792327,35.9103704],[138.9791396,35.9102135],[138.9791069,35.9101586],[138.9790651,35.9098975],[138.9790596,35.9098628],[138.9790822,35.9095541],[138.9791653,35.9092432],[138.9793044,35.9090341],[138.9795,35.9088605],[138.9797186,35.9087964],[138.9798117,35.9087742],[138.9798713,35.9087653],[138.9799206,35.9087656],[138.9799931,35.9087685],[138.9800842,35.9087904],[138.9801449,35.908812],[138.9801626,35.9088194],[138.9802373,35.9088505],[138.9803398,35.9088984],[138.9803614,35.9089115],[138.9803843,35.9089412],[138.9804184,35.9090123],[138.9804232,35.9090285],[138.9804421,35.9090915],[138.9804545,35.909153],[138.9804644,35.9091778],[138.9804918,35.9092028],[138.9805148,35.9092184],[138.9805653,35.9092353],[138.9806219,35.9092403],[138.9808259,35.9092281],[138.9808263,35.9092281],[138.9808589,35.9092717],[138.9806707,35.9092759],[138.9805967,35.9092719],[138.9805532,35.9092692],[138.9804881,35.9092535],[138.9804564,35.9092331],[138.9804392,35.9092212],[138.9804093,35.9091679],[138.9803914,35.9090792],[138.9803789,35.9090283],[138.9803461,35.908975],[138.9803045,35.9089322],[138.9802252,35.9088809],[138.9801313,35.9088507],[138.9799239,35.9087949],[138.9796225,35.9088734],[138.9793791,35.9090161],[138.9793174,35.9090678],[138.9792695,35.9091357],[138.9792201,35.9092487],[138.9791526,35.9094031],[138.9791142,35.909772],[138.9792026,35.9101777],[138.97921,35.9101895],[138.979352,35.9104147],[138.9796147,35.9106351],[138.9797342,35.9107567],[138.9798366,35.9108609],[138.9798738,35.9109125],[138.979932,35.9109913],[138.9799544,35.9110426],[138.9799717,35.911079],[138.9799709,35.9111167],[138.9799695,35.9111843],[138.9799345,35.9112805],[138.979857,35.9113416],[138.9797281,35.9113951]]]},"properties":{"layer":"landuse","class_code":"204","class_label":"水面（河川水面、湖沼、ため池、用水路、濠、運河水面）"}},{"type":"Feature","id":"luse_544a7cde-d926-405b-85fd-d9aaba8b3665","geometry":{"type":"Polygon","coordinates":[[[138.9801348,35.9112372],[138.9803325,35.9113888],[138.9807352,35.9115586],[138.980874,35.9117361],[138.9808732,35.9118147],[138.9808081,35.9118739],[138.9806878,35.9118826],[138.9805766,35.9118603],[138.9804833,35.9118144],[138.9803435,35.9117323],[138.9801737,35.911712],[138.9799608,35.9116032],[138.979643,35.9114054],[138.9797281,35.9113951],[138.979857,35.9113416],[138.9799345,35.9112805],[138.9799695,35.9111843],[138.9799709,35.9111167],[138.9801348,35.9112372]]]},"properties":{"layer":"landuse","class_code":"205","class_label":"その他自然地（原野・牧野、荒れ地（耕作放棄地等自然的状況のもの）、低湿地、河川敷・河原、海浜、湖岸）"}},{"type":"Feature","id":"luse_7d6d91a3-e34e-49d2-9215-5b9c8d085e98","geometry":{"type":"Polygon","coordinates":[[[138.9791967,35.9113068],[138.9791772,35.9113179],[138.9791638,35.9113258],[138.9790532,35.9113701],[138.9788998,35.9114175],[138.9787296,35.9115036],[138.9786089,35.9115706],[138.9785085,35.9116203],[138.9783449,35.9116726],[138.9782461,35.9117212],[138.9781634,35.9117813],[138.9780907,35.9118415],[138.978046,35.9118915],[138.9780048,35.9119632],[138.9779852,35.9120206],[138.9779783,35.9120709],[138.9779814,35.9121337],[138.977992,35.9122098],[138.9780075,35.9122809],[138.9780116,35.9122924],[138.9780516,35.9124067],[138.9780927,35.9125253],[138.9781325,35.9126396],[138.9781407,35.9127024],[138.9781406,35.912704],[138.9781415,35.9128126],[138.9781414,35.912813],[138.9781273,35.9128795],[138.9780915,35.9129255],[138.9780259,35.9129824],[138.9779307,35.9130258],[138.9778382,35.9130669],[138.9775777,35.9131113],[138.9773713,35.9131649],[138.9772661,35.9132008],[138.977265,35.9132011],[138.9771621,35.9132362],[138.9770149,35.9133122],[138.9769087,35.9133798],[138.976813,35.9134606],[138.9768029,35.9134684],[138.9769502,35.9132391],[138.9774051,35.9129572],[138.9774827,35.9129398],[138.9775758,35.9128807],[138.9776381,35.9128024],[138.9776394,35.9128007],[138.9776744,35.9127349],[138.9777047,35.912678],[138.9777067,35.9126588],[138.977752,35.9122266],[138.9778453,35.9119596],[138.9780621,35.9116745],[138.9780953,35.9116583],[138.9783904,35.9115143],[138.9786527,35.9113828],[138.9789707,35.9112746],[138.979048,35.9112622],[138.9791214,35.9112687],[138.9791967,35.9113068]]]},"properties":{"layer":"landuse","class_code":"205","class_label":"その他自然地（原野・牧野、荒れ地（耕作放棄地等自然的状況のもの）、低湿地、河川敷・河原、海浜、湖岸）"}},{"type":"Feature","id":"luse_209ebe05-c757-418a-bf0b-01615239e365","geometry":{"type":"Polygon","coordinates":[[[138.979444,35.9107997],[138.979481,35.9108768],[138.9794938,35.9109329],[138.9794969,35.9109685],[138.9794979,35.9109812],[138.979492,35.9110313],[138.9794854,35.9110521],[138.979465,35.9110881],[138.9794257,35.911136],[138.9793958,35.9111681],[138.9793087,35.9112427],[138.9793057,35.9112444],[138.979253,35.9112745],[138.9791866,35.9112446],[138.9792237,35.911138],[138.9792705,35.9110634],[138.9793105,35.9109686],[138.9793865,35.9108193],[138.9794204,35.910768],[138.979444,35.9107997]]]},"properties":{"layer":"landuse","class_code":"212","class_label":"商業用地（業務施設、商業施設、宿泊施設、商業系複合施設）"}},{"type":"Feature","id":"luse_da86e999-db83-4560-b22c-b8be010ef0b7","geometry":{"type":"Polygon","coordinates":[[[138.9795466,35.9106143],[138.9797719,35.910843],[138.9798155,35.9109439],[138.9799023,35.9111218],[138.9798942,35.9112146],[138.9798443,35.9112801],[138.9796313,35.9113413],[138.9795399,35.9113524],[138.9795393,35.9113523],[138.9792938,35.9112945],[138.9793306,35.9112733],[138.9793415,35.9112669],[138.9794295,35.9111915],[138.9794618,35.9111568],[138.9795038,35.9111059],[138.9795273,35.9110643],[138.9795358,35.9110376],[138.9795424,35.9109818],[138.979538,35.9109283],[138.9795238,35.9108671],[138.9795238,35.9108668],[138.9794841,35.9107837],[138.9794268,35.910707],[138.9793401,35.9106199],[138.9793149,35.9105623],[138.9793047,35.9105162],[138.9793085,35.9104903],[138.9793509,35.9104622],[138.9795466,35.9106143]]]},"properties":{"layer":"landuse","class_code":"212","class_label":"商業用地（業務施設、商業施設、宿泊施設、商業系複合施設）"}},{"type":"Feature","id":"luse_9f514e4f-4ed4-45a5-b1c9-c40c3d18dec8","geometry":{"type":"Polygon","coordinates":[[[138.9785267,35.909264],[138.9782982,35.9093154],[138.9782461,35.9093027],[138.9781755,35.9092014],[138.9781785,35.9091272],[138.9782075,35.909062],[138.9783341,35.9089957],[138.9785826,35.9089215],[138.9786454,35.9089361],[138.9786629,35.9089482],[138.9787839,35.9090397],[138.9787611,35.9091128],[138.9787487,35.9091894],[138.9787448,35.9092563],[138.9786651,35.909249],[138.9786225,35.9092452],[138.9785267,35.909264]]]},"properties":{"layer":"landuse","class_code":"214","class_label":"公益施設用地（官公庁施設、文教厚生施設、供給処理施設）"}}]}