{"type":"FeatureCollection","properties":{"mesh_code":"53387717","source":"PLATEAU秩父市2025","layer":"landuse"},"features":[{"type":"Feature","id":"luse_721ce7e1-1c79-4af8-b064-28727cedfc11","geometry":{"type":"Polygon","coordinates":[[[138.97077504130436,35.925],[138.9707553,35.9250108],[138.9706486,35.92505],[138.9706412,35.925043],[138.97066070879248,35.925],[138.97098897603914,35.925],[138.9709225,35.9250321],[138.97089468,35.925],[138.97077504130436,35.925]]]},"properties":{"layer":"landuse","class_code":"202","class_label":"畑（畑、樹園地、採草地、養鶏（牛・豚）場）"}},{"type":"Feature","id":"luse_651d8ce5-ba00-446c-affa-5d4b69a2ad6c","geometry":{"type":"Polygon","coordinates":[[[138.97055958038897,35.925],[138.970509,35.9250539],[138.9703542,35.9251976],[138.970341,35.9251143],[138.9702672,35.9250364],[138.97031055734072,35.925],[138.97055958038897,35.925]]]},"properties":{"layer":"landuse","class_code":"202","class_label":"畑（畑、樹園地、採草地、養鶏（牛・豚）場）"}},{"type":"Feature","id":"luse_bbeada01-d6db-43f7-b9c0-da498d247303","geometry":{"type":"Polygon","coordinates":[[[138.9663088,35.9260959],[138.966365,35.9261007],[138.9663948,35.9261109],[138.9663879,35.9263208],[138.9663191,35.926314],[138.9662592,35.9262953],[138.9662208,35.9262804],[138.9662284,35.9261656],[138.9662298,35.9261508],[138.9662284,35.9261293],[138.966252,35.9261074],[138.9662941,35.9260846],[138.9663088,35.9260959]]]},"properties":{"layer":"landuse","class_code":"202","class_label":"畑（畑、樹園地、採草地、養鶏（牛・豚）場）"}},{"type":"Feature","id":"luse_be8af19b-47eb-428c-8c24-bd04b02533fc","geometry":{"type":"Polygon","coordinates":[[[138.9657553,35.9268496],[138.9657338,35.9269451],[138.9656414,35.9269144],[138.9654113,35.9269065],[138.9654141,35.9268676],[138.9654218,35.926833],[138.9654348,35.9267949],[138.9654447,35.9267505],[138.9654478,35.9267099],[138.9654461,35.9266645],[138.9654405,35.9266353],[138.9654322,35.9266108],[138.9654303,35.9266016],[138.9654212,35.9265746],[138.9654069,35.9265495],[138.9653876,35.9265263],[138.9653686,35.9265098],[138.9653465,35.9264946],[138.9653223,35.9264814],[138.9652964,35.9264705],[138.9652632,35.9264604],[138.9652622,35.9264609],[138.9652191,35.9264831],[138.9652551,35.9263966],[138.9652469,35.926392],[138.9653062,35.9262237],[138.9652157,35.9262052],[138.9652308,35.9261637],[138.9652814,35.9260467],[138.9653272,35.9259667],[138.9653922,35.9258709],[138.9654178,35.9258415],[138.9654566,35.925801],[138.9655106,35.9257512],[138.9655551,35.925715],[138.9656648,35.925635],[138.9657371,35.9255847],[138.9658118,35.9255382],[138.9658523,35.9255099],[138.9658789,35.9254885],[138.9659041,35.9254661],[138.9659275,35.9254428],[138.9659495,35.9254182],[138.9659698,35.9253927],[138.9659885,35.9253663],[138.9660546,35.9252917],[138.9661255,35.9252245],[138.9662136,35.925153],[138.9662324,35.9251389],[138.9662734,35.9251126],[138.9663183,35.9250897],[138.9663652,35.9250713],[138.9664144,35.9250572],[138.9664883,35.9250413],[138.9665544,35.9250297],[138.9665547,35.9250297],[138.9665076,35.9251483],[138.9665363,35.9251793],[138.9666067,35.9252025],[138.9666451,35.9252141],[138.9664277,35.9254485],[138.9664653,35.9255828],[138.9664405,35.9256024],[138.9664174,35.9256234],[138.9663955,35.9256456],[138.9663756,35.925669],[138.9663536,35.9256697],[138.9662929,35.9256411],[138.9662742,35.9256323],[138.9662144,35.9255551],[138.9659755,35.9257992],[138.9658249,35.9259634],[138.9657794,35.9261481],[138.9656822,35.9263677],[138.965857,35.9264283],[138.9658687,35.9264323],[138.9658413,35.9264939],[138.9658199,35.9265563],[138.9657977,35.9266309],[138.965782,35.9267118],[138.9657555,35.92683],[138.9657553,35.9268496]]]},"properties":{"layer":"landuse","class_code":"202","class_label":"畑（畑、樹園地、採草地、養鶏（牛・豚）場）"}},{"type":"Feature","id":"luse_38d2fd55-2ff9-46eb-9dd6-660f8eba2e90","geometry":{"type":"Polygon","coordinates":[[[138.965522,35.927598],[138.9654845,35.9276183],[138.9654324,35.9276077],[138.9653591,35.9275799],[138.9653173,35.9275683],[138.9652877,35.9275682],[138.9651531,35.9276014],[138.965087,35.9276044],[138.9650444,35.9275953],[138.9649371,35.9275378],[138.964913,35.9275702],[138.9648873,35.9275914],[138.964769,35.9275588],[138.9647455,35.9275689],[138.9646115,35.9275577],[138.9646147,35.9275011],[138.9646178,35.9274244],[138.964616,35.9273717],[138.9646074,35.9272968],[138.964597,35.9272447],[138.9645632,35.9271251],[138.9645442,35.9270606],[138.9645408,35.9270348],[138.9645421,35.9270049],[138.9645473,35.9269793],[138.9645547,35.9269589],[138.964597,35.9268896],[138.9646848,35.9268442],[138.9647749,35.9267957],[138.9649022,35.926711],[138.9649506,35.9266762],[138.9650035,35.9266429],[138.9650569,35.9266136],[138.9650959,35.9265943],[138.9651804,35.9265485],[138.9652334,35.9265226],[138.9652337,35.9265225],[138.9652515,35.9265187],[138.9652702,35.9265187],[138.9652728,35.9265192],[138.9652865,35.9265219],[138.9653034,35.9265288],[138.9653245,35.9265405],[138.9653469,35.9265575],[138.9653476,35.9265579],[138.9653641,35.9265756],[138.9653785,35.9265984],[138.965391,35.9266245],[138.9653997,35.9266552],[138.9654025,35.9266804],[138.9654032,35.9267097],[138.9654005,35.9267461],[138.9653931,35.9267793],[138.9653915,35.9267863],[138.9653783,35.9268246],[138.9653699,35.9268632],[138.9653667,35.9269066],[138.9653747,35.9270107],[138.9653849,35.9270755],[138.9653883,35.9271968],[138.9653862,35.9272245],[138.9653804,35.9272502],[138.9653762,35.9272604],[138.9653612,35.9272976],[138.9653476,35.9273432],[138.9653469,35.9273481],[138.9653454,35.9273583],[138.9653414,35.927388],[138.9653453,35.9274112],[138.9653542,35.9274336],[138.9653638,35.9274487],[138.9653808,35.9274675],[138.9653909,35.9274757],[138.9654155,35.9274843],[138.9654416,35.927489],[138.9654419,35.927489],[138.96545,35.9274894],[138.9654504,35.9274894],[138.9654615,35.9274899],[138.9654882,35.9274875],[138.9655152,35.9274807],[138.9655379,35.9274703],[138.9655581,35.9274566],[138.9655734,35.9274414],[138.965586,35.9274228],[138.9655942,35.9274027],[138.9655996,35.9273874],[138.9656249,35.9273916],[138.965666,35.9273862],[138.9656839,35.9274744],[138.9655816,35.9275512],[138.965522,35.927598]]]},"properties":{"layer":"landuse","class_code":"202","class_label":"畑（畑、樹園地、採草地、養鶏（牛・豚）場）"}},{"type":"Feature","id":"luse_4b6cf5ca-cfb5-4cb7-8964-5d9d2a69fdd4","geometry":{"type":"Polygon","coordinates":[[[138.96545647221095,35.93333333333333],[138.9654436,35.9333222],[138.9654276,35.9333111],[138.9653545,35.9332577],[138.9653341,35.9332406],[138.9652855,35.9332138],[138.965264,35.9332059],[138.9652484,35.9331994],[138.9651895,35.933185],[138.9651741,35.9331837],[138.9651709,35.933183],[138.9651642,35.9331811],[138.9651236,35.9331642],[138.9650287,35.9331224],[138.9649931,35.9331094],[138.9649056,35.9330816],[138.964886,35.9330764],[138.9648054,35.9330573],[138.9647855,35.9330498],[138.9647053,35.9330171],[138.9646838,35.9330097],[138.9646043,35.9329925],[138.9645946,35.932992],[138.9645628,35.9329864],[138.9645558,35.9329847],[138.9644927,35.9329689],[138.9644477,35.9329271],[138.9644442,35.9329232],[138.9643928,35.9328644],[138.9643775,35.9328497],[138.9643423,35.9328262],[138.964323,35.9328122],[138.9643177,35.9328073],[138.9643077,35.9327969],[138.9642692,35.9327444],[138.9642626,35.9327357],[138.9642359,35.9326823],[138.9642102,35.9326087],[138.9642014,35.9325827],[138.9641809,35.9325102],[138.9641765,35.9324919],[138.9641731,35.932478],[138.9641693,35.9324235],[138.9641711,35.9324129],[138.9641758,35.9323857],[138.9641852,35.9323041],[138.9641877,35.9322734],[138.9641885,35.9322645],[138.9641918,35.9322403],[138.9641981,35.9321927],[138.9642033,35.9321711],[138.9642075,35.932154],[138.9642217,35.9320824],[138.9642239,35.9320547],[138.9642241,35.9320351],[138.9642155,35.93195],[138.9642071,35.9319223],[138.9641858,35.9318454],[138.9641816,35.9318279],[138.9641638,35.9317545],[138.96416,35.931738],[138.964155,35.9317178],[138.9641528,35.9316944],[138.9641543,35.9316762],[138.9641569,35.9316586],[138.9641612,35.9316408],[138.9641716,35.9315562],[138.9641642,35.9315221],[138.9641585,35.9315024],[138.9641319,35.9314288],[138.9641035,35.9313609],[138.9640931,35.9313384],[138.9640726,35.9313069],[138.9640353,35.9312636],[138.9639854,35.9312209],[138.9639769,35.9312136],[138.9639704,35.931208],[138.9639648,35.9312062],[138.9639598,35.9312045],[138.9639589,35.9312039],[138.9639581,35.931202],[138.9639534,35.9311907],[138.9639482,35.9311745],[138.9639174,35.9310983],[138.9639016,35.931074],[138.9638848,35.9310515],[138.9638348,35.9309958],[138.9638184,35.930978],[138.9637536,35.9309162],[138.9637476,35.9309126],[138.9637288,35.9309011],[138.9636562,35.930865],[138.9636519,35.9308614],[138.9636508,35.9308599],[138.9636442,35.9308461],[138.9636353,35.9308202],[138.9635969,35.9307525],[138.9635879,35.9307457],[138.963478,35.9307089],[138.9634349,35.9306908],[138.963397,35.9306739],[138.963351,35.9306498],[138.9633231,35.9306349],[138.9632949,35.9306199],[138.9632612,35.9306136],[138.9632473,35.9306151],[138.9632351,35.9306165],[138.9632122,35.930628],[138.9631971,35.9306369],[138.9631703,35.9306551],[138.9631116,35.9306737],[138.9630957,35.9306736],[138.9630654,35.9306615],[138.9630193,35.930608],[138.9629799,35.9305715],[138.9628919,35.9304523],[138.9628375,35.9303442],[138.9628072,35.930279],[138.9627814,35.93023],[138.9627201,35.9301399],[138.9627003,35.9301039],[138.9626771,35.9300738],[138.9626492,35.9300308],[138.962621,35.9299834],[138.9626019,35.9299655],[138.9625467,35.9299186],[138.9625213,35.9299018],[138.9625,35.929887162807894],[138.9625,35.92960399097345],[138.9625379,35.9295838],[138.9625623,35.9295652],[138.9625844,35.9295451],[138.9626402,35.9294868],[138.9626657,35.9294379],[138.9626994,35.9293787],[138.9627363,35.9293024],[138.9627679,35.9292442],[138.96281,35.9291774],[138.9628518,35.9290991],[138.9628876,35.9290246],[138.9628989,35.9289987],[138.9629049,35.9289857],[138.9629416,35.9289124],[138.9629518,35.9288817],[138.9629674,35.9288155],[138.9629707,35.9287965],[138.9629756,35.9287184],[138.9629758,35.9287],[138.9629685,35.9286476],[138.9629612,35.9285793],[138.9629613,35.9285775],[138.9629621,35.9285738],[138.9629697,35.9285633],[138.9629803,35.9285495],[138.9630083,35.9284988],[138.9630141,35.9284672],[138.9630105,35.9284386],[138.9629948,35.9283907],[138.962981,35.9283664],[138.9629742,35.928356],[138.9629553,35.9283114],[138.9629544,35.9283018],[138.9629441,35.9282596],[138.9629362,35.9282413],[138.9629211,35.9281795],[138.9629027,35.9281384],[138.9628928,35.928126],[138.9628813,35.9281096],[138.9628201,35.9280464],[138.962805,35.9280353],[138.962801,35.9280315],[138.9627917,35.9280199],[138.9627746,35.9279917],[138.9627617,35.9279611],[138.9627564,35.927943],[138.9627425,35.9278821],[138.9627385,35.9278624],[138.9627315,35.9278294],[138.9627069,35.9277679],[138.9626921,35.9277432],[138.9626793,35.9277228],[138.9626665,35.927681],[138.9626658,35.9276682],[138.9626662,35.9276524],[138.9626693,35.9276388],[138.9626774,35.9276182],[138.962685,35.9275996],[138.9626932,35.9275844],[138.9627069,35.9275424],[138.962712,35.9275135],[138.9627139,35.9274946],[138.9627148,35.9274755],[138.9627154,35.9274485],[138.962715,35.927416],[138.9627145,35.9273907],[138.9627153,35.9273507],[138.9627196,35.9273135],[138.9627267,35.9272805],[138.9627354,35.9272432],[138.962752,35.9271732],[138.9627646,35.9271394],[138.9627763,35.9271144],[138.9627876,35.9270882],[138.9627984,35.9270627],[138.9628127,35.9270277],[138.9628243,35.9269972],[138.9628331,35.9269721],[138.9628413,35.9269452],[138.9628482,35.9269225],[138.9628561,35.9269023],[138.9628662,35.9268843],[138.9628805,35.9268668],[138.9628986,35.9268518],[138.9629206,35.9268382],[138.9629508,35.9268217],[138.9629785,35.9268087],[138.9629976,35.926799],[138.9630255,35.9267836],[138.9630565,35.9267663],[138.9630827,35.9267482],[138.9631296,35.9267133],[138.9631608,35.9266759],[138.9631729,35.9266487],[138.9631792,35.9266313],[138.9631876,35.9266053],[138.9631962,35.9265804],[138.9632054,35.926559],[138.9632219,35.9265254],[138.963237,35.9264938],[138.9632537,35.9264658],[138.9632736,35.9264381],[138.9632911,35.9264159],[138.963333,35.9263691],[138.963358,35.9263409],[138.963375,35.9263202],[138.9634027,35.9262941],[138.9634436,35.9262636],[138.9634661,35.9262465],[138.9634924,35.9262257],[138.9635246,35.9262025],[138.9635514,35.9261851],[138.9635822,35.9261653],[138.9636107,35.9261503],[138.9636378,35.926137],[138.9636633,35.9261256],[138.9636943,35.9261121],[138.9637198,35.9261019],[138.9637467,35.9260909],[138.963785,35.9260742],[138.9638217,35.9260607],[138.96385,35.9260515],[138.9638891,35.9260351],[138.9639202,35.9260225],[138.963956,35.9260067],[138.9640109,35.925979],[138.9640485,35.925962],[138.9640696,35.9259514],[138.9640973,35.9259347],[138.9641147,35.9259214],[138.9641419,35.9258997],[138.9641668,35.9258807],[138.9641886,35.9258646],[138.9642063,35.925849],[138.9642269,35.9258284],[138.9642409,35.9258113],[138.9642631,35.9257858],[138.9642932,35.9257467],[138.9643094,35.9257177],[138.9643241,35.9256951],[138.9643369,35.9256746],[138.9643481,35.9256183],[138.964349,35.9256138],[138.9643704,35.9255068],[138.9643735,35.9254935],[138.964378,35.9254651],[138.9643801,35.9254431],[138.9643831,35.9254132],[138.9643911,35.9253251],[138.9643914,35.925322],[138.9643941,35.9252718],[138.9643996,35.925248],[138.9644067,35.9252218],[138.9644123,35.9251954],[138.9644176,35.9251723],[138.9644283,35.9251448],[138.964438,35.9251244],[138.9644449,35.9251114],[138.9644965,35.9250458],[138.9645187,35.9250233],[138.9645345,35.9250107],[138.96454569537036,35.925],[138.96641337288136,35.925],[138.966374,35.9250101],[138.9663736,35.9250102],[138.9663282,35.9250234],[138.9662891,35.9250373],[138.9662888,35.9250374],[138.9662373,35.9250595],[138.9662011,35.925078],[138.9661678,35.925099],[138.9661436,35.9251164],[138.9661113,35.925144],[138.966091,35.9251642],[138.9660703,35.925192],[138.9660374,35.9252323],[138.9659952,35.925277],[138.9659536,35.9253158],[138.9658896,35.9253796],[138.9658207,35.9254451],[138.9657711,35.9254907],[138.965723,35.925531],[138.9656542,35.9255826],[138.9656116,35.9256074],[138.9655734,35.9256331],[138.9655204,35.9256746],[138.9654873,35.9257048],[138.9654125,35.9257704],[138.9653421,35.9258435],[138.965199,35.926038],[138.9651713,35.9260801],[138.9651463,35.9261242],[138.9651255,35.9261688],[138.9651034,35.9262318],[138.965093,35.9262736],[138.9650787,35.9263414],[138.965067,35.9263715],[138.9650538,35.9263961],[138.9650496,35.9264017],[138.9650341,35.9264232],[138.9649706,35.9264899],[138.9648921,35.9265645],[138.9648391,35.9266089],[138.9647246,35.926699],[138.9645717,35.9268074],[138.9645414,35.9268366],[138.9645222,35.9268594],[138.9645003,35.9268932],[138.9644904,35.926915],[138.9644849,35.9269272],[138.9644707,35.9269755],[138.9644643,35.9270188],[138.9644645,35.9270685],[138.9644774,35.9271263],[138.9644915,35.9271687],[138.9645064,35.9272035],[138.9645241,35.9272378],[138.9645357,35.9272846],[138.9645436,35.927332],[138.9645476,35.9273782],[138.9645488,35.927436],[138.9645469,35.9275514],[138.9645435,35.9276064],[138.9645257,35.9276201],[138.9645122,35.9276341],[138.9645004,35.9276516],[138.9644923,35.9276721],[138.9644853,35.9277017],[138.9644721,35.9278296],[138.9644724,35.9278502],[138.964477,35.9278778],[138.9644972,35.9279366],[138.9645199,35.9279905],[138.9645188,35.9280242],[138.964508,35.9281095],[138.9644797,35.928267],[138.9644622,35.9283342],[138.9644479,35.9283784],[138.9644226,35.9284448],[138.9643994,35.9284994],[138.9643763,35.9285481],[138.9643368,35.9286208],[138.9643062,35.9286704],[138.9642768,35.9287136],[138.9642441,35.9287572],[138.9641849,35.9288428],[138.9641257,35.9289338],[138.9640369,35.9290617],[138.9640147,35.9290996],[138.9639945,35.9291417],[138.9639575,35.9292355],[138.9639423,35.9292827],[138.9639343,35.9293184],[138.9639268,35.9293714],[138.9639222,35.9294209],[138.9639215,35.9294656],[138.9639234,35.9295339],[138.9639273,35.9295723],[138.9639347,35.9296149],[138.9639567,35.9297002],[138.9639773,35.929758],[138.9639978,35.9298041],[138.9640331,35.9298684],[138.9640768,35.9299398],[138.9641044,35.9299803],[138.9641637,35.930059],[138.9641996,35.9301048],[138.964253,35.9301778],[138.9642967,35.930236],[138.964342,35.9302885],[138.9643942,35.9303419],[138.9644704,35.9304141],[138.9645389,35.9304723],[138.964622,35.9305419],[138.9646682,35.9305771],[138.9647299,35.9306204],[138.9648021,35.9306755],[138.9648462,35.930713],[138.9649173,35.9307696],[138.9649559,35.9308136],[138.9649791,35.9308446],[138.9650077,35.93089],[138.9650383,35.930949],[138.9650568,35.9309904],[138.9650757,35.9310375],[138.9651334,35.9311728],[138.9651343,35.9312263],[138.9651364,35.9312482],[138.9651573,35.9313152],[138.9652045,35.9314187],[138.9652125,35.9314302],[138.9652344,35.9314471],[138.9652561,35.9314544],[138.9653281,35.9316164],[138.9653822,35.9317609],[138.9653852,35.9317758],[138.9653893,35.931809],[138.9653894,35.9318412],[138.9653857,35.9318745],[138.9653765,35.9319133],[138.9653656,35.9319445],[138.9653491,35.9319793],[138.9652863,35.9320839],[138.9652692,35.9321155],[138.9652586,35.932141],[138.9652496,35.9321741],[138.9652453,35.9322006],[138.965242,35.9322541],[138.9652423,35.9322918],[138.9652482,35.9323495],[138.965256,35.932384],[138.965269,35.9324175],[138.9652912,35.9324592],[138.9653073,35.9324845],[138.965332,35.9325155],[138.9653627,35.9325467],[138.9653936,35.9325741],[138.9654237,35.9325972],[138.9654944,35.9326418],[138.9656705,35.9327483],[138.9658327,35.9328515],[138.9658706,35.9329202],[138.9658788,35.9329336],[138.9658922,35.9329471],[138.9659078,35.9329578],[138.9659382,35.9329707],[138.9659386,35.9329709],[138.96598,35.9329834],[138.9660192,35.9329912],[138.9660633,35.9329954],[138.9662008,35.9330825],[138.9662113,35.9331222],[138.9662252,35.9331582],[138.9662423,35.9331876],[138.9662608,35.9332068],[138.9662731,35.9332163],[138.966289,35.9332257],[138.966306,35.9332335],[138.9664343,35.9333114],[138.966452,35.9333267],[138.96646248494625,35.93333333333333],[138.96545647221095,35.93333333333333]]]},"properties":{"layer":"landuse","class_code":"203","class_label":"山林（樹林地）"}},{"type":"Feature","id":"luse_4c6c812d-232d-4bc3-af8f-5dff19d98565","geometry":{"type":"Polygon","coordinates":[[[138.96534996962026,35.93333333333333],[138.9653044,35.9333],[138.9652875,35.9332857],[138.9652502,35.9332652],[138.9652326,35.9332588],[138.9652214,35.9332541],[138.9651754,35.9332427],[138.9651609,35.9332416],[138.9651494,35.933239],[138.9651357,35.9332351],[138.96509,35.9332162],[138.9649967,35.933175],[138.9649651,35.9331634],[138.9648812,35.9331369],[138.9648646,35.9331324],[138.9647803,35.9331125],[138.9647543,35.9331028],[138.964675,35.9330704],[138.9646604,35.9330654],[138.9645928,35.9330508],[138.9645849,35.9330504],[138.9645449,35.9330433],[138.9645349,35.9330409],[138.9644551,35.9330208],[138.9644495,35.9330166],[138.9644435,35.9330123],[138.9643913,35.9329638],[138.9643858,35.9329576],[138.9643358,35.9329004],[138.9643265,35.9328916],[138.9642955,35.9328707],[138.9642719,35.9328538],[138.9642622,35.9328449],[138.9642481,35.93283],[138.9642075,35.9327749],[138.9641979,35.9327623],[138.9641677,35.9327014],[138.9641406,35.9326246],[138.9641314,35.9325971],[138.9641104,35.9325223],[138.9641057,35.9325032],[138.9641015,35.9324854],[138.9640969,35.9324212],[138.9640997,35.9324048],[138.9641041,35.9323788],[138.9641132,35.9322994],[138.9641157,35.9322692],[138.9641167,35.9322591],[138.9641267,35.9321839],[138.9641325,35.9321597],[138.9641365,35.9321436],[138.9641499,35.9320758],[138.9641518,35.9320526],[138.9641519,35.9320373],[138.964144,35.9319594],[138.9641368,35.9319356],[138.9641152,35.9318575],[138.9641108,35.9318393],[138.9640928,35.9317655],[138.9640891,35.9317491],[138.9640834,35.9317258],[138.9640804,35.9316947],[138.9640825,35.9316707],[138.9640857,35.9316493],[138.9640899,35.9316322],[138.9640988,35.9315584],[138.9640936,35.931534],[138.9640888,35.9315174],[138.9640631,35.9314465],[138.9640355,35.9313807],[138.9640271,35.9313625],[138.9640108,35.9313376],[138.9640028,35.9313283],[138.9639792,35.9313009],[138.9639287,35.9312576],[138.9639213,35.9312551],[138.9638998,35.9312398],[138.963893,35.9312287],[138.9638842,35.9312074],[138.963879,35.931191],[138.9638587,35.9311408],[138.9638508,35.9311212],[138.9638389,35.931103],[138.9638248,35.9310842],[138.9637768,35.9310307],[138.9637619,35.9310146],[138.9637038,35.9309592],[138.9636883,35.9309496],[138.9636107,35.9309112],[138.9635942,35.9308973],[138.9635858,35.9308859],[138.9634985,35.9307944],[138.9633984,35.9307674],[138.9633282,35.9307475],[138.9632493,35.9307254],[138.963219,35.9307196],[138.9631877,35.9307197],[138.9631566,35.9307257],[138.9631266,35.9307301],[138.9630895,35.9307301],[138.9630495,35.9307194],[138.9629802,35.9306712],[138.9629403,35.9306284],[138.962907,35.9305943],[138.9628748,35.9305598],[138.962826,35.9304956],[138.962763,35.9303921],[138.9627391,35.9303459],[138.9627193,35.9303103],[138.9626882,35.9302578],[138.9626521,35.9301922],[138.9626198,35.9301597],[138.9625662,35.930121],[138.9625,35.93006760023725],[138.9625,35.92949867554179],[138.9625314,35.9294734],[138.9625578,35.9294513],[138.9625998,35.9294141],[138.962633,35.9293556],[138.9626698,35.9292798],[138.9627028,35.9292189],[138.9627447,35.9291523],[138.9627851,35.9290768],[138.9628201,35.9290041],[138.9628311,35.9289788],[138.9628377,35.9289644],[138.9628731,35.9288936],[138.9628815,35.9288685],[138.9628963,35.9288059],[138.9628988,35.9287909],[138.9629034,35.9287166],[138.9629036,35.928703],[138.9628966,35.9286535],[138.9628952,35.92864],[138.9628889,35.9285803],[138.9628895,35.9285707],[138.9628924,35.9285574],[138.962897,35.9285481],[138.962906,35.9285358],[138.9629081,35.9285329],[138.9629164,35.9285219],[138.9629385,35.9284821],[138.9629414,35.9284658],[138.9629394,35.9284491],[138.9629267,35.9284107],[138.9629163,35.9283925],[138.9629078,35.9283793],[138.962884,35.9283234],[138.9628827,35.9283097],[138.9628744,35.9282751],[138.9628665,35.9282568],[138.9628514,35.9281954],[138.9628376,35.9281646],[138.9628311,35.9281564],[138.9628213,35.9281425],[138.9627674,35.9280866],[138.962753,35.9280762],[138.9627431,35.9280665],[138.962729,35.9280492],[138.9627079,35.9280143],[138.9626922,35.9279774],[138.9626858,35.9279551],[138.9626713,35.9278923],[138.9626673,35.927872],[138.9626612,35.9278436],[138.9626399,35.9277898],[138.9626277,35.9277695],[138.9626196,35.9277568],[138.9626152,35.9277497],[138.9625802,35.9277104],[138.9625717,35.9276886],[138.9625671,35.9276652],[138.9625682,35.927648],[138.9625759,35.9276082],[138.9625789,35.927597],[138.9625902,35.9275538],[138.9626,35.9275175],[138.9626101,35.9274829],[138.9626147,35.9274437],[138.9626147,35.9274107],[138.9626134,35.9273768],[138.9626125,35.9273513],[138.9626129,35.9273317],[138.962618,35.9273004],[138.962623,35.9272656],[138.9626256,35.9272426],[138.962632,35.9272117],[138.9626387,35.9271795],[138.9626403,35.9271684],[138.9626418,35.9271588],[138.9626655,35.9270813],[138.9626798,35.9270549],[138.9627006,35.9270162],[138.962717,35.9269821],[138.962731,35.9269512],[138.962739,35.9269146],[138.9627389,35.9268963],[138.9627389,35.9268864],[138.9627381,35.9268569],[138.9627515,35.9268198],[138.9627717,35.9268041],[138.9627806,35.9267974],[138.9627938,35.9267876],[138.9628157,35.9267733],[138.9628445,35.9267551],[138.9628657,35.9267454],[138.9628875,35.9267393],[138.962909,35.92673],[138.9629218,35.9267229],[138.9629403,35.9267133],[138.9629533,35.9267067],[138.962972,35.9266966],[138.9630229,35.9266754],[138.963052,35.9266583],[138.9630745,35.9266255],[138.9630892,35.926546],[138.9630986,35.9265218],[138.9631224,35.926468],[138.9631469,35.9264263],[138.9631882,35.9263657],[138.9632134,35.9263372],[138.9632391,35.9263061],[138.9632586,35.9262818],[138.9632801,35.9262576],[138.9633019,35.9262338],[138.9633243,35.9262115],[138.9633493,35.9261913],[138.9633723,35.926175],[138.963389,35.9261609],[138.9634874,35.9260777],[138.9635803,35.9260216],[138.9636221,35.9260013],[138.9636747,35.9259795],[138.9637099,35.9259616],[138.9637594,35.9259352],[138.9637757,35.9259273],[138.963797,35.9259154],[138.9638114,35.9259079],[138.9638351,35.9258993],[138.9638749,35.9258828],[138.9639287,35.9258665],[138.9639477,35.9258608],[138.9639528,35.9258589],[138.9639779,35.9258499],[138.9640031,35.9258442],[138.9640229,35.9258371],[138.9641027,35.9258026],[138.9641326,35.9257779],[138.9641489,35.9257575],[138.9642297,35.9256748],[138.9642573,35.9256348],[138.9642685,35.9256135],[138.9642771,35.9255962],[138.9642873,35.9255618],[138.9642979,35.9255145],[138.9643051,35.9254847],[138.9643089,35.9254593],[138.964311,35.9254385],[138.964314,35.9254088],[138.9643222,35.9253188],[138.9643251,35.9252652],[138.9643316,35.9252368],[138.9643386,35.925211],[138.964344,35.9251854],[138.9643502,35.9251585],[138.9643628,35.9251261],[138.9643738,35.925103],[138.9643834,35.9250849],[138.9644401,35.9250128],[138.96445271449275,35.925],[138.96454569537036,35.925],[138.9645345,35.9250107],[138.9645187,35.9250233],[138.9644965,35.9250458],[138.9644449,35.9251114],[138.964438,35.9251244],[138.9644283,35.9251448],[138.9644176,35.9251723],[138.9644123,35.9251954],[138.9644067,35.9252218],[138.9643996,35.925248],[138.9643941,35.9252718],[138.9643914,35.925322],[138.9643911,35.9253251],[138.9643831,35.9254132],[138.9643801,35.9254431],[138.964378,35.9254651],[138.9643735,35.9254935],[138.9643704,35.9255068],[138.964349,35.9256138],[138.9643481,35.9256183],[138.9643369,35.9256746],[138.9643241,35.9256951],[138.9643094,35.9257177],[138.9642932,35.9257467],[138.9642631,35.9257858],[138.9642409,35.9258113],[138.9642269,35.9258284],[138.9642063,35.925849],[138.9641886,35.9258646],[138.9641668,35.9258807],[138.9641419,35.9258997],[138.9641147,35.9259214],[138.9640973,35.9259347],[138.9640696,35.9259514],[138.9640485,35.925962],[138.9640109,35.925979],[138.963956,35.9260067],[138.9639202,35.9260225],[138.9638891,35.9260351],[138.96385,35.9260515],[138.9638217,35.9260607],[138.963785,35.9260742],[138.9637467,35.9260909],[138.9637198,35.9261019],[138.9636943,35.9261121],[138.9636633,35.9261256],[138.9636378,35.926137],[138.9636107,35.9261503],[138.9635822,35.9261653],[138.9635514,35.9261851],[138.9635246,35.9262025],[138.9634924,35.9262257],[138.9634661,35.9262465],[138.9634436,35.9262636],[138.9634027,35.9262941],[138.963375,35.9263202],[138.963358,35.9263409],[138.963333,35.9263691],[138.9632911,35.9264159],[138.9632736,35.9264381],[138.9632537,35.9264658],[138.963237,35.9264938],[138.9632219,35.9265254],[138.9632054,35.926559],[138.9631962,35.9265804],[138.9631876,35.9266053],[138.9631792,35.9266313],[138.9631729,35.9266487],[138.9631608,35.9266759],[138.9631296,35.9267133],[138.9630827,35.9267482],[138.9630565,35.9267663],[138.9630255,35.9267836],[138.9629976,35.926799],[138.9629785,35.9268087],[138.9629508,35.9268217],[138.9629206,35.9268382],[138.9628986,35.9268518],[138.9628805,35.9268668],[138.9628662,35.9268843],[138.9628561,35.9269023],[138.9628482,35.9269225],[138.9628413,35.9269452],[138.9628331,35.9269721],[138.9628243,35.9269972],[138.9628127,35.9270277],[138.9627984,35.9270627],[138.9627876,35.9270882],[138.9627763,35.9271144],[138.9627646,35.9271394],[138.962752,35.9271732],[138.9627354,35.9272432],[138.9627267,35.9272805],[138.9627196,35.9273135],[138.9627153,35.9273507],[138.9627145,35.9273907],[138.962715,35.927416],[138.9627154,35.9274485],[138.9627148,35.9274755],[138.9627139,35.9274946],[138.962712,35.9275135],[138.9627069,35.9275424],[138.9626932,35.9275844],[138.962685,35.9275996],[138.9626774,35.9276182],[138.9626693,35.9276388],[138.9626662,35.9276524],[138.9626658,35.9276682],[138.9626665,35.927681],[138.9626793,35.9277228],[138.9626921,35.9277432],[138.9627069,35.9277679],[138.9627315,35.9278294],[138.9627385,35.9278624],[138.9627425,35.9278821],[138.9627564,35.927943],[138.9627617,35.9279611],[138.9627746,35.9279917],[138.9627917,35.9280199],[138.962801,35.9280315],[138.962805,35.9280353],[138.9628201,35.9280464],[138.9628813,35.9281096],[138.9628928,35.928126],[138.9629027,35.9281384],[138.9629211,35.9281795],[138.9629362,35.9282413],[138.9629441,35.9282596],[138.9629544,35.9283018],[138.9629553,35.9283114],[138.9629742,35.928356],[138.962981,35.9283664],[138.9629948,35.9283907],[138.9630105,35.9284386],[138.9630141,35.9284672],[138.9630083,35.9284988],[138.9629803,35.9285495],[138.9629697,35.9285633],[138.9629621,35.9285738],[138.9629613,35.9285775],[138.9629612,35.9285793],[138.9629685,35.9286476],[138.9629758,35.9287],[138.9629756,35.9287184],[138.9629707,35.9287965],[138.9629674,35.9288155],[138.9629518,35.9288817],[138.9629416,35.9289124],[138.9629049,35.9289857],[138.9628989,35.9289987],[138.9628876,35.9290246],[138.9628518,35.9290991],[138.96281,35.9291774],[138.9627679,35.9292442],[138.9627363,35.9293024],[138.9626994,35.9293787],[138.9626657,35.9294379],[138.9626402,35.9294868],[138.9625844,35.9295451],[138.9625623,35.9295652],[138.9625379,35.9295838],[138.9625,35.92960399097345],[138.9625,35.929887162807894],[138.9625213,35.9299018],[138.9625467,35.9299186],[138.9626019,35.9299655],[138.962621,35.9299834],[138.9626492,35.9300308],[138.9626771,35.9300738],[138.9627003,35.9301039],[138.9627201,35.9301399],[138.9627814,35.93023],[138.9628072,35.930279],[138.9628375,35.9303442],[138.9628919,35.9304523],[138.9629799,35.9305715],[138.9630193,35.930608],[138.9630654,35.9306615],[138.9630957,35.9306736],[138.9631116,35.9306737],[138.9631703,35.9306551],[138.9631971,35.9306369],[138.9632122,35.930628],[138.9632351,35.9306165],[138.9632473,35.9306151],[138.9632612,35.9306136],[138.9632949,35.9306199],[138.9633231,35.9306349],[138.963351,35.9306498],[138.963397,35.9306739],[138.9634349,35.9306908],[138.963478,35.9307089],[138.9635879,35.9307457],[138.9635969,35.9307525],[138.9636353,35.9308202],[138.9636442,35.9308461],[138.9636508,35.9308599],[138.9636519,35.9308614],[138.9636562,35.930865],[138.9637288,35.9309011],[138.9637476,35.9309126],[138.9637536,35.9309162],[138.9638184,35.930978],[138.9638348,35.9309958],[138.9638848,35.9310515],[138.9639016,35.931074],[138.9639174,35.9310983],[138.9639482,35.9311745],[138.9639534,35.9311907],[138.9639581,35.931202],[138.9639589,35.9312039],[138.9639598,35.9312045],[138.9639648,35.9312062],[138.9639704,35.931208],[138.9639769,35.9312136],[138.9639854,35.9312209],[138.9640353,35.9312636],[138.9640726,35.9313069],[138.9640931,35.9313384],[138.9641035,35.9313609],[138.9641319,35.9314288],[138.9641585,35.9315024],[138.9641642,35.9315221],[138.9641716,35.9315562],[138.9641612,35.9316408],[138.9641569,35.9316586],[138.9641543,35.9316762],[138.9641528,35.9316944],[138.964155,35.9317178],[138.96416,35.931738],[138.9641638,35.9317545],[138.9641816,35.9318279],[138.9641858,35.9318454],[138.9642071,35.9319223],[138.9642155,35.93195],[138.9642241,35.9320351],[138.9642239,35.9320547],[138.9642217,35.9320824],[138.9642075,35.932154],[138.9642033,35.9321711],[138.9641981,35.9321927],[138.9641918,35.9322403],[138.9641885,35.9322645],[138.9641877,35.9322734],[138.9641852,35.9323041],[138.9641758,35.9323857],[138.9641711,35.9324129],[138.9641693,35.9324235],[138.9641731,35.932478],[138.9641765,35.9324919],[138.9641809,35.9325102],[138.9642014,35.9325827],[138.9642102,35.9326087],[138.9642359,35.9326823],[138.9642626,35.9327357],[138.9642692,35.9327444],[138.9643077,35.9327969],[138.9643177,35.9328073],[138.964323,35.9328122],[138.9643423,35.9328262],[138.9643775,35.9328497],[138.9643928,35.9328644],[138.9644442,35.9329232],[138.9644477,35.9329271],[138.9644927,35.9329689],[138.9645558,35.9329847],[138.9645628,35.9329864],[138.9645946,35.932992],[138.9646043,35.9329925],[138.9646838,35.9330097],[138.9647053,35.9330171],[138.9647855,35.9330498],[138.9648054,35.9330573],[138.964886,35.9330764],[138.9649056,35.9330816],[138.9649931,35.9331094],[138.9650287,35.9331224],[138.9651236,35.9331642],[138.9651642,35.9331811],[138.9651709,35.933183],[138.9651741,35.9331837],[138.9651895,35.933185],[138.9652484,35.9331994],[138.965264,35.9332059],[138.9652855,35.9332138],[138.9653341,35.9332406],[138.9653545,35.9332577],[138.9654276,35.9333111],[138.9654436,35.9333222],[138.96545647221095,35.93333333333333],[138.96534996962026,35.93333333333333]]]},"properties":{"layer":"landuse","class_code":"204","class_label":"水面（河川水面、湖沼、ため池、用水路、濠、運河水面）"}},{"type":"Feature","id":"luse_8f32d04c-d84d-4053-aa4e-30b7dc6ab9ca","geometry":{"type":"Polygon","coordinates":[[[138.97066070879248,35.925],[138.9706412,35.925043],[138.9706486,35.92505],[138.970686,35.9250855],[138.9706942,35.9251035],[138.9707002,35.9251239],[138.9706384,35.9252495],[138.9706302,35.9252637],[138.9706315,35.925276],[138.9706358,35.9252959],[138.9705202,35.925375],[138.9704555,35.9254191],[138.9704472,35.9254196],[138.9703352,35.9252837],[138.9705521,35.9250824],[138.9706178,35.9250128],[138.9706322261343,35.925],[138.97066070879248,35.925]]]},"properties":{"layer":"landuse","class_code":"211","class_label":"住宅用地（住宅、共同住宅、店舗等併用住宅、店舗等併用共同住宅、作業所併用住宅）"}},{"type":"Feature","id":"luse_52076111-e788-4837-9768-a425fb365fc4","geometry":{"type":"Polygon","coordinates":[[[138.9669132,35.9253435],[138.9669177,35.9253585],[138.9669716,35.9253918],[138.9669958,35.9254058],[138.9670263,35.9254178],[138.9669533,35.9254593],[138.9668157,35.9255828],[138.9667877,35.9256104],[138.9667339,35.9256216],[138.9666985,35.9256217],[138.966512,35.9255914],[138.9665805,35.925544],[138.9666613,35.9254792],[138.9667388,35.9254063],[138.9667932,35.9253527],[138.9667632,35.9253327],[138.9667092,35.9253859],[138.966633,35.9254576],[138.9665541,35.9255207],[138.9664656,35.9255826],[138.9664653,35.9255828],[138.9664277,35.9254485],[138.9666451,35.9252141],[138.9667176,35.9252399],[138.9667914,35.9252431],[138.9668367,35.925245],[138.9668698,35.9252509],[138.9668986,35.9252655],[138.9669132,35.9253435]]]},"properties":{"layer":"landuse","class_code":"211","class_label":"住宅用地（住宅、共同住宅、店舗等併用住宅、店舗等併用共同住宅、作業所併用住宅）"}},{"type":"Feature","id":"luse_54af9f2f-7ee2-4675-9296-780184abfcad","geometry":{"type":"Polygon","coordinates":[[[138.9661003,35.9260016],[138.9660043,35.9261214],[138.9658963,35.9263532],[138.9658687,35.9264323],[138.965857,35.9264283],[138.9656822,35.9263677],[138.9657794,35.9261481],[138.9658249,35.9259634],[138.9659755,35.9257992],[138.9662144,35.9255551],[138.9662742,35.9256323],[138.9662929,35.9256411],[138.9663536,35.9256697],[138.9663436,35.9256942],[138.9663468,35.9257091],[138.9662611,35.9258242],[138.9662055,35.9258886],[138.9661917,35.9258841],[138.9661003,35.9260016]]]},"properties":{"layer":"landuse","class_code":"211","class_label":"住宅用地（住宅、共同住宅、店舗等併用住宅、店舗等併用共同住宅、作業所併用住宅）"}},{"type":"Feature","id":"luse_4efaab94-c49a-4ee7-9b68-6557f4181c09","geometry":{"type":"Polygon","coordinates":[[[138.9657538,35.9269619],[138.9657512,35.926985],[138.9657448,35.9270071],[138.9657288,35.9270422],[138.9657184,35.9270564],[138.9657057,35.9270677],[138.9656902,35.9270798],[138.9656721,35.9270989],[138.9656562,35.9271204],[138.9656444,35.9271427],[138.9656008,35.9272547],[138.9655924,35.9272762],[138.9655583,35.927374],[138.9655552,35.9273806],[138.9655473,35.9273975],[138.9655367,35.9274123],[138.9655173,35.9274318],[138.9654948,35.9274402],[138.9654729,35.9274445],[138.9654725,35.9274445],[138.965448,35.9274457],[138.9654476,35.9274457],[138.965435,35.9274442],[138.9654211,35.9274384],[138.9654092,35.9274298],[138.9654004,35.9274192],[138.9653951,35.9274071],[138.9653941,35.9274023],[138.9653956,35.9273661],[138.9654004,35.927333],[138.9654217,35.9272646],[138.9654236,35.9272589],[138.9654304,35.9272289],[138.9654328,35.9271967],[138.9654295,35.9270727],[138.9654191,35.9270065],[138.9654113,35.9269065],[138.9656414,35.9269144],[138.9657338,35.9269451],[138.9657553,35.9268496],[138.9657538,35.9269619]]]},"properties":{"layer":"landuse","class_code":"211","class_label":"住宅用地（住宅、共同住宅、店舗等併用住宅、店舗等併用共同住宅、作業所併用住宅）"}},{"type":"Feature","id":"luse_854ea02e-0e7a-4901-b03a-970ea06f9e83","geometry":{"type":"Polygon","coordinates":[[[138.966428,35.926324],[138.9664218,35.9263695],[138.9664212,35.9264113],[138.9664235,35.9264552],[138.9664351,35.9265476],[138.9664279,35.9266375],[138.9664181,35.9267063],[138.9663915,35.9267637],[138.9663506,35.9268319],[138.966295,35.9268442],[138.966256,35.9268544],[138.9662352,35.9268721],[138.9661899,35.9268639],[138.9661245,35.9268856],[138.9661148,35.926916],[138.9660988,35.926961],[138.9660695,35.9269828],[138.966033,35.9271785],[138.9659833,35.9272855],[138.9659349,35.9273475],[138.9659238,35.9274135],[138.9659011,35.9274393],[138.9658606,35.9274479],[138.9658475,35.9274416],[138.9658094,35.9274552],[138.9658038,35.9274113],[138.9658028,35.9273683],[138.965666,35.9273862],[138.9656249,35.9273916],[138.9655996,35.9273874],[138.9656351,35.9272865],[138.9656909,35.9271458],[138.9657024,35.9271276],[138.9657161,35.9271113],[138.9657289,35.9270993],[138.9657484,35.9270838],[138.9657604,35.9270706],[138.9657727,35.9270508],[138.9657876,35.9270174],[138.9657953,35.9269896],[138.9657983,35.9269629],[138.9657989,35.9268844],[138.9657999,35.926836],[138.9658362,35.9267447],[138.9658582,35.9267106],[138.9658736,35.9266588],[138.965874,35.9266576],[138.9658715,35.9267086],[138.965864,35.9267409],[138.9659114,35.9267631],[138.9659251,35.9267644],[138.9659261,35.9267645],[138.9659294,35.9267648],[138.9659458,35.9267626],[138.9659462,35.9267626],[138.96596,35.9267573],[138.9659603,35.9267573],[138.9659724,35.9267493],[138.9659998,35.9267046],[138.9660249,35.9266711],[138.966033,35.9266587],[138.9660468,35.9266435],[138.9660614,35.9266316],[138.9660804,35.9266206],[138.9660959,35.9266145],[138.9661158,35.926605],[138.9661326,35.9265921],[138.9661433,35.9265798],[138.9661526,35.9265627],[138.9661785,35.9264749],[138.9661483,35.926469],[138.9661251,35.9265486],[138.9661202,35.9265611],[138.9661118,35.9265725],[138.9661,35.9265827],[138.9660867,35.92659],[138.9660642,35.9265988],[138.9660414,35.9266124],[138.9660233,35.9266269],[138.9660065,35.9266455],[138.9659792,35.9266827],[138.9659575,35.9267158],[138.9659523,35.9267214],[138.9659437,35.9267264],[138.9659331,35.926729],[138.9659287,35.9267288],[138.9659216,35.9267284],[138.9659126,35.926726],[138.9659061,35.9267209],[138.9659024,35.9267138],[138.9659075,35.9266532],[138.9659083,35.9265793],[138.9659045,35.9264447],[138.9659332,35.926363],[138.9659857,35.9262517],[138.9660325,35.9261344],[138.9660576,35.9261029],[138.9660682,35.9260895],[138.9661556,35.9261106],[138.9662284,35.9261293],[138.9662298,35.9261508],[138.9662284,35.9261656],[138.9662208,35.9262804],[138.9662592,35.9262953],[138.9663191,35.926314],[138.9663879,35.9263208],[138.966428,35.926324]]]},"properties":{"layer":"landuse","class_code":"211","class_label":"住宅用地（住宅、共同住宅、店舗等併用住宅、店舗等併用共同住宅、作業所併用住宅）"}},{"type":"Feature","id":"luse_a1b63697-1d24-4039-a296-ea0d8f4e1e56","geometry":{"type":"Polygon","coordinates":[[[138.9688461,35.9272983],[138.9688773,35.9273214],[138.968887,35.92741],[138.9688633,35.9274597],[138.9687612,35.9275352],[138.9686022,35.9276362],[138.9685637,35.9276381],[138.9685638,35.9276389],[138.9685233,35.9275576],[138.9685219,35.9275334],[138.9685236,35.9275164],[138.9687833,35.9272816],[138.9688461,35.9272983]]]},"properties":{"layer":"landuse","class_code":"211","class_label":"住宅用地（住宅、共同住宅、店舗等併用住宅、店舗等併用共同住宅、作業所併用住宅）"}},{"type":"Feature","id":"luse_7d216c2c-1fb1-4823-a4b9-7bfa98f4a9c1","geometry":{"type":"Polygon","coordinates":[[[138.96764273466135,35.925],[138.9677,35.925106],[138.9677419,35.9252767],[138.9677422,35.9253288],[138.9677132,35.9253622],[138.9676609,35.9253909],[138.9675501,35.9254008],[138.9674508,35.9253775],[138.9673338,35.9253305],[138.9670938,35.9251843],[138.9668961161915,35.925],[138.96764273466135,35.925]]]},"properties":{"layer":"landuse","class_code":"213","class_label":"工業用地（工場）"}},{"type":"Feature","id":"luse_4d65fd22-e086-4959-ac4d-a9ba7fa04b77","geometry":{"type":"Polygon","coordinates":[[[138.966428,35.926324],[138.9663879,35.9263208],[138.9663948,35.9261109],[138.966365,35.9261007],[138.9663088,35.9260959],[138.9662941,35.9260846],[138.9663036,35.9260671],[138.9663873,35.9259515],[138.9664054,35.9259271],[138.9664853,35.9258386],[138.9665971,35.9258996],[138.966568,35.9259502],[138.9666165,35.9259672],[138.9666605,35.9258591],[138.966734,35.9258935],[138.9667713,35.9258402],[138.9668152,35.9258155],[138.9668473,35.9258199],[138.9669431,35.9258491],[138.9669298,35.925928],[138.9669445,35.9259479],[138.9669047,35.9261243],[138.9668915,35.9261482],[138.966872,35.9261728],[138.9668422,35.9261962],[138.9667702,35.9262502],[138.9667172,35.92625],[138.9666529,35.9262594],[138.9666299,35.9262603],[138.9665976,35.9261268],[138.9665638,35.926173],[138.9664711,35.9261299],[138.966428,35.926324]]]},"properties":{"layer":"landuse","class_code":"214","class_label":"公益施設用地（官公庁施設、文教厚生施設、供給処理施設）"}},{"type":"Feature","id":"luse_52806b8b-aacf-46df-83c7-0eafc49ffefe","geometry":{"type":"Polygon","coordinates":[[[138.9653062,35.9262237],[138.9652469,35.926392],[138.9652551,35.9263966],[138.9652191,35.9264831],[138.9649996,35.9265959],[138.964929,35.9266439],[138.964873,35.9266835],[138.9647484,35.9267666],[138.9647192,35.9267824],[138.9647201,35.9267816],[138.9649285,35.9266149],[138.9650149,35.9265403],[138.9650484,35.9265073],[138.9650751,35.9264776],[138.9651146,35.9264263],[138.9651356,35.9263938],[138.9651481,35.9263715],[138.9651578,35.9263508],[138.9651802,35.926303],[138.9652157,35.9262052],[138.9653062,35.9262237]]]},"properties":{"layer":"landuse","class_code":"214","class_label":"公益施設用地（官公庁施設、文教厚生施設、供給処理施設）"}},{"type":"Feature","id":"luse_65f61bbd-b2c7-4bbf-85b4-9de59448625b","geometry":{"type":"Polygon","coordinates":[[[138.9664054,35.9259271],[138.9663873,35.9259515],[138.9663036,35.9260671],[138.9662941,35.9260846],[138.966252,35.9261074],[138.9662284,35.9261293],[138.9661556,35.9261106],[138.9660682,35.9260895],[138.9661388,35.9260288],[138.9661885,35.9259754],[138.9662198,35.9259272],[138.9662938,35.9258414],[138.9663875,35.9257154],[138.9663965,35.9256999],[138.9664268,35.9256645],[138.966447,35.9256438],[138.9664687,35.9256242],[138.9665085,35.9255939],[138.966512,35.9255914],[138.9666985,35.9256217],[138.9667339,35.9256216],[138.9667877,35.9256104],[138.9668157,35.9255828],[138.9669533,35.9254593],[138.9670263,35.9254178],[138.9670623,35.9254397],[138.9670959,35.9254769],[138.9670712,35.9255347],[138.9670233,35.9255639],[138.9669644,35.9255911],[138.966872,35.9256497],[138.9668558,35.9256886],[138.966801,35.9257552],[138.9668087,35.9257911],[138.9668152,35.9258155],[138.9667713,35.9258402],[138.966734,35.9258935],[138.9666605,35.9258591],[138.9666165,35.9259672],[138.966568,35.9259502],[138.9665971,35.9258996],[138.9664853,35.9258386],[138.9664054,35.9259271]]]},"properties":{"layer":"landuse","class_code":"223","class_label":"その他④（その他①～③以外の用途に供されている都市的土地利用（建物跡地、資材置場、改変工事中の土地）、法面（道路、造成地等の主利用に含まれない法面））"}},{"type":"Feature","id":"luse_f5e6f3d6-cc18-461b-8a6b-6e5f2c3b1e00","geometry":{"type":"Polygon","coordinates":[[[138.96646248494625,35.93333333333333],[138.966452,35.9333267],[138.9664343,35.9333114],[138.966306,35.9332335],[138.966289,35.9332257],[138.9662731,35.9332163],[138.9662608,35.9332068],[138.9662423,35.9331876],[138.9662252,35.9331582],[138.9662113,35.9331222],[138.9662008,35.9330825],[138.9660633,35.9329954],[138.9660192,35.9329912],[138.96598,35.9329834],[138.9659386,35.9329709],[138.9659382,35.9329707],[138.9659078,35.9329578],[138.9658922,35.9329471],[138.9658788,35.9329336],[138.9658706,35.9329202],[138.9658327,35.9328515],[138.9656705,35.9327483],[138.9654944,35.9326418],[138.9654237,35.9325972],[138.9653936,35.9325741],[138.9653627,35.9325467],[138.965332,35.9325155],[138.9653073,35.9324845],[138.9652912,35.9324592],[138.965269,35.9324175],[138.965256,35.932384],[138.9652482,35.9323495],[138.9652423,35.9322918],[138.965242,35.9322541],[138.9652453,35.9322006],[138.9652496,35.9321741],[138.9652586,35.932141],[138.9652692,35.9321155],[138.9652863,35.9320839],[138.9653491,35.9319793],[138.9653656,35.9319445],[138.9653765,35.9319133],[138.9653857,35.9318745],[138.9653894,35.9318412],[138.9653893,35.931809],[138.9653852,35.9317758],[138.9653822,35.9317609],[138.9653281,35.9316164],[138.9652561,35.9314544],[138.9652344,35.9314471],[138.9652125,35.9314302],[138.9652045,35.9314187],[138.9651573,35.9313152],[138.9651364,35.9312482],[138.9651343,35.9312263],[138.9651334,35.9311728],[138.9650757,35.9310375],[138.9650568,35.9309904],[138.9650383,35.930949],[138.9650077,35.93089],[138.9649791,35.9308446],[138.9649559,35.9308136],[138.9649173,35.9307696],[138.9648462,35.930713],[138.9648021,35.9306755],[138.9647299,35.9306204],[138.9646682,35.9305771],[138.964622,35.9305419],[138.9645389,35.9304723],[138.9644704,35.9304141],[138.9643942,35.9303419],[138.964342,35.9302885],[138.9642967,35.930236],[138.964253,35.9301778],[138.9641996,35.9301048],[138.9641637,35.930059],[138.9641044,35.9299803],[138.9640768,35.9299398],[138.9640331,35.9298684],[138.9639978,35.9298041],[138.9639773,35.929758],[138.9639567,35.9297002],[138.9639347,35.9296149],[138.9639273,35.9295723],[138.9639234,35.9295339],[138.9639215,35.9294656],[138.9639222,35.9294209],[138.9639268,35.9293714],[138.9639343,35.9293184],[138.9639423,35.9292827],[138.9639575,35.9292355],[138.9639945,35.9291417],[138.9640147,35.9290996],[138.9640369,35.9290617],[138.9641257,35.9289338],[138.9641849,35.9288428],[138.9642441,35.9287572],[138.9642768,35.9287136],[138.9643062,35.9286704],[138.9643368,35.9286208],[138.9643763,35.9285481],[138.9643994,35.9284994],[138.9644226,35.9284448],[138.9644479,35.9283784],[138.9644622,35.9283342],[138.9644797,35.928267],[138.964508,35.9281095],[138.9645188,35.9280242],[138.9645199,35.9279905],[138.9644972,35.9279366],[138.964477,35.9278778],[138.9644724,35.9278502],[138.9644721,35.9278296],[138.9644853,35.9277017],[138.9644923,35.9276721],[138.9645004,35.9276516],[138.9645122,35.9276341],[138.9645257,35.9276201],[138.9645435,35.9276064],[138.9645469,35.9275514],[138.9645488,35.927436],[138.9645476,35.9273782],[138.9645436,35.927332],[138.9645357,35.9272846],[138.9645241,35.9272378],[138.9645064,35.9272035],[138.9644915,35.9271687],[138.9644774,35.9271263],[138.9644645,35.9270685],[138.9644643,35.9270188],[138.9644707,35.9269755],[138.9644849,35.9269272],[138.9644904,35.926915],[138.9645003,35.9268932],[138.9645222,35.9268594],[138.9645414,35.9268366],[138.9645717,35.9268074],[138.9647246,35.926699],[138.9648391,35.9266089],[138.9648921,35.9265645],[138.9649706,35.9264899],[138.9650341,35.9264232],[138.9650496,35.9264017],[138.9650538,35.9263961],[138.965067,35.9263715],[138.9650787,35.9263414],[138.965093,35.9262736],[138.9651034,35.9262318],[138.9651255,35.9261688],[138.9651463,35.9261242],[138.9651713,35.9260801],[138.965199,35.926038],[138.9653421,35.9258435],[138.9654125,35.9257704],[138.9654873,35.9257048],[138.9655204,35.9256746],[138.9655734,35.9256331],[138.9656116,35.9256074],[138.9656542,35.9255826],[138.965723,35.925531],[138.9657711,35.9254907],[138.9658207,35.9254451],[138.9658896,35.9253796],[138.9659536,35.9253158],[138.9659952,35.925277],[138.9660374,35.9252323],[138.9660703,35.925192],[138.966091,35.9251642],[138.9661113,35.925144],[138.9661436,35.9251164],[138.9661678,35.925099],[138.9662011,35.925078],[138.9662373,35.9250595],[138.9662888,35.9250374],[138.9662891,35.9250373],[138.9663282,35.9250234],[138.9663736,35.9250102],[138.966374,35.9250101],[138.96641337288136,35.925],[138.9706322261343,35.925],[138.9706178,35.9250128],[138.9705521,35.9250824],[138.9703352,35.9252837],[138.9703342,35.9252846],[138.9703263,35.925298],[138.9703194,35.9253161],[138.970316,35.9253349],[138.9703181,35.9253604],[138.9703229,35.9253867],[138.9703304,35.9254126],[138.9703459,35.9254493],[138.9704612,35.9256372],[138.9706671,35.9259606],[138.9707342,35.9260708],[138.9708314,35.9262394],[138.9708513,35.9262696],[138.9708733,35.9263096],[138.9708893,35.9263459],[138.9709038,35.9263899],[138.9709056,35.9264018],[138.9709086,35.9264334],[138.9709083,35.9264651],[138.9709052,35.9264937],[138.9708987,35.9265251],[138.970889,35.9265559],[138.9708674,35.9266043],[138.9708488,35.9266367],[138.970827,35.926668],[138.9708021,35.9266978],[138.9707735,35.926727],[138.9707335,35.9267567],[138.9706693,35.926798],[138.9706146,35.9268278],[138.9705439,35.9268606],[138.9705436,35.9268608],[138.9704692,35.9268889],[138.9703825,35.9269146],[138.9702797,35.9269417],[138.9701287,35.9269748],[138.9701283,35.9269748],[138.9700515,35.926994],[138.9700027,35.9270091],[138.9699295,35.9270369],[138.9698603,35.9270691],[138.9698386,35.9270824],[138.9698176,35.9270989],[138.9697993,35.9271174],[138.9697838,35.927138],[138.9697713,35.9271608],[138.9697628,35.9271836],[138.969758,35.9272071],[138.9697569,35.9272308],[138.9697561,35.9272587],[138.9697499,35.9272965],[138.9697399,35.9273338],[138.9697261,35.9273703],[138.9697125,35.9273985],[138.9696923,35.9274327],[138.9696685,35.9274657],[138.9696411,35.9274969],[138.9696143,35.9275232],[138.9694304,35.9277461],[138.9694052,35.9277722],[138.9693624,35.927811],[138.969354,35.9278287],[138.969353,35.9278384],[138.969355,35.9278481],[138.9693599,35.927857],[138.9693692,35.9278661],[138.969379,35.9278716],[138.9693904,35.9278749],[138.9695504,35.9278559],[138.9697096,35.9278211],[138.9697099,35.9278211],[138.9697321,35.9278173],[138.9697325,35.9278172],[138.9697764,35.9278074],[138.9697768,35.9278073],[138.9698192,35.9277946],[138.9698611,35.9277788],[138.9698749,35.9277719],[138.9698932,35.9277592],[138.9699095,35.9277448],[138.9699247,35.9277275],[138.969936,35.9277101],[138.9699444,35.9276918],[138.9700554,35.9274298],[138.9700708,35.9274016],[138.9700894,35.9273746],[138.9701106,35.9273489],[138.9701363,35.9273233],[138.9701626,35.927301],[138.9701969,35.9272768],[138.9702295,35.9272627],[138.9702961,35.9272376],[138.97035,35.9272213],[138.970361,35.9272187],[138.9704206,35.9272046],[138.9705582,35.9271685],[138.9706792,35.9271409],[138.9707101,35.9271348],[138.9707105,35.9271347],[138.9707402,35.9271256],[138.9707686,35.9271134],[138.9707934,35.9270992],[138.9708169,35.9270819],[138.970838,35.9270622],[138.9709048,35.9269809],[138.970939,35.9269418],[138.9710185,35.9268589],[138.9711469,35.9267189],[138.9712333,35.9266308],[138.9713311,35.9265428],[138.9714093,35.9264765],[138.9715585,35.9263814],[138.9716559,35.9263151],[138.9716746,35.9262958],[138.9716891,35.9262742],[138.971699,35.9262509],[138.9717032,35.9262316],[138.9717043,35.926207],[138.9717005,35.9261839],[138.9716978,35.9261659],[138.9716915,35.9261485],[138.9716821,35.9261329],[138.9716692,35.9261181],[138.9716533,35.9261052],[138.9716352,35.9260947],[138.9715946,35.9260795],[138.9715371,35.926056],[138.9714826,35.9260286],[138.9714308,35.9259976],[138.9713772,35.9259592],[138.9713252,35.9259147],[138.9713096,35.9258982],[138.9712967,35.9258802],[138.9712865,35.925861],[138.9712796,35.9258411],[138.9712757,35.9258204],[138.9712751,35.9257996],[138.971289,35.9257102],[138.9713102,35.925617],[138.9713225,35.9255857],[138.9713365,35.9255583],[138.9713571,35.9255272],[138.9713773,35.9255023],[138.9714067,35.9254724],[138.971454,35.9254413],[138.9715029,35.9254117],[138.9715432,35.9253894],[138.9715946,35.9253629],[138.9716807,35.9253238],[138.9718091,35.9252741],[138.9718866,35.9252443],[138.9720809,35.9251656],[138.972373,35.9250562],[138.9725283651877,35.925],[138.97257962160495,35.925],[138.9725447,35.9250139],[138.9723821,35.9250727],[138.9720905,35.9251818],[138.9718963,35.9252605],[138.9716907,35.92534],[138.9716061,35.9253783],[138.9715554,35.9254044],[138.9715159,35.9254264],[138.9714677,35.9254555],[138.9714223,35.9254855],[138.9713952,35.9255129],[138.9713761,35.9255364],[138.9713567,35.925566],[138.9713433,35.925592],[138.9713326,35.9256185],[138.9713163,35.9256865],[138.9712994,35.9257817],[138.9712971,35.9258065],[138.9712998,35.9258311],[138.9713075,35.925855],[138.9713201,35.9258775],[138.9713371,35.9258981],[138.9713709,35.9259282],[138.9714157,35.9259636],[138.9714695,35.925999],[138.971521,35.9260274],[138.9715756,35.9260521],[138.9716334,35.9260734],[138.971652,35.926082],[138.9716728,35.926095],[138.9716903,35.9261106],[138.9717039,35.9261276],[138.9717143,35.9261469],[138.9717208,35.9261675],[138.9717248,35.9261923],[138.9717267,35.9262129],[138.9717254,35.9262337],[138.9717209,35.9262539],[138.9717126,35.9262751],[138.9717019,35.9262939],[138.9716883,35.9263114],[138.971672,35.9263275],[138.9715726,35.9263955],[138.9714242,35.9264899],[138.9713473,35.9265551],[138.9712501,35.9266425],[138.9711645,35.9267299],[138.971036,35.9268699],[138.9709568,35.9269526],[138.9709231,35.9269911],[138.9708705,35.9270554],[138.9708484,35.9270805],[138.9708246,35.9271011],[138.9707979,35.9271191],[138.9707703,35.9271335],[138.9707387,35.9271457],[138.9707057,35.9271546],[138.9705909,35.9271794],[138.9704277,35.9272218],[138.9703914,35.9272296],[138.9703911,35.9272297],[138.9703232,35.9272483],[138.9702717,35.9272659],[138.9702091,35.9272918],[138.9701913,35.9273041],[138.9701651,35.9273244],[138.9701412,35.9273465],[138.9701183,35.9273716],[138.9700993,35.9273966],[138.970083,35.9274229],[138.9700695,35.9274502],[138.9699628,35.9277039],[138.9699523,35.9277241],[138.9699388,35.927743],[138.9699211,35.9277617],[138.9699021,35.9277772],[138.9698799,35.9277911],[138.9698499,35.9278034],[138.9698054,35.9278183],[138.9697607,35.92783],[138.9697603,35.9278301],[138.969715,35.9278386],[138.9697147,35.9278386],[138.9695549,35.9278736],[138.96951,35.9278793],[138.969336,35.9279011],[138.9693357,35.9279012],[138.9693196,35.9279021],[138.9693049,35.927903],[138.9692598,35.9279028],[138.9692073,35.927908],[138.9691307,35.9279235],[138.9691014,35.9279365],[138.9690573,35.9279581],[138.9689872,35.9279981],[138.9689206,35.9280433],[138.9687297,35.9281652],[138.9686464,35.9282149],[138.9686461,35.9282149],[138.9686319,35.9282169],[138.9686138,35.9282168],[138.9685961,35.9282131],[138.9685803,35.9282059],[138.9685656,35.9281944],[138.9685563,35.9281817],[138.9685511,35.9281674],[138.9685505,35.9281524],[138.9685635,35.9280857],[138.9685717,35.9280187],[138.968575,35.9279616],[138.9685715,35.9277427],[138.9685638,35.9276389],[138.9685637,35.9276381],[138.9686022,35.9276362],[138.9686026,35.9276362],[138.9686101,35.9277415],[138.9686137,35.9279622],[138.9686103,35.928021],[138.968602,35.9280896],[138.9685894,35.9281553],[138.9685906,35.9281658],[138.9685965,35.928175],[138.9686068,35.9281823],[138.9686187,35.9281855],[138.9686191,35.9281855],[138.9686307,35.9281851],[138.9687062,35.9281401],[138.9688956,35.9280192],[138.9689637,35.9279731],[138.9690361,35.9279316],[138.9690819,35.9279091],[138.9691608,35.927876],[138.96921,35.9278586],[138.9692373,35.9278423],[138.9692888,35.9278067],[138.9693404,35.9277642],[138.9693852,35.9277199],[138.9694113,35.9276882],[138.96957,35.9274958],[138.9695975,35.9274694],[138.969622,35.9274413],[138.9696435,35.9274116],[138.9696616,35.9273805],[138.9696805,35.927339],[138.9696913,35.9273057],[138.9696985,35.9272717],[138.969702,35.9272416],[138.9697019,35.9272123],[138.9697064,35.927183],[138.9697151,35.9271545],[138.9697284,35.9271271],[138.9697472,35.9270996],[138.9697688,35.9270758],[138.9697937,35.9270546],[138.9698217,35.9270359],[138.9698668,35.9270134],[138.969942,35.9269816],[138.9699423,35.9269815],[138.9699932,35.9269637],[138.970073,35.9269407],[138.9700734,35.9269406],[138.9702309,35.9269063],[138.9702313,35.9269063],[138.9703646,35.9268721],[138.9704482,35.9268471],[138.9704485,35.9268469],[138.9705186,35.9268207],[138.9705855,35.9267896],[138.9706366,35.9267614],[138.9706973,35.9267225],[138.9707327,35.9266965],[138.9707574,35.9266711],[138.9707796,35.9266443],[138.9707995,35.926616],[138.9708164,35.9265867],[138.9708304,35.9265562],[138.9708405,35.9265294],[138.9708477,35.926502],[138.970852,35.9264742],[138.970853,35.9264349],[138.9708491,35.9263982],[138.9708364,35.9263595],[138.9708219,35.9263263],[138.9708018,35.9262897],[138.9707822,35.9262603],[138.9706843,35.9260902],[138.9706177,35.9259811],[138.9704118,35.9256576],[138.9702953,35.9254676],[138.9702882,35.9254536],[138.9702769,35.9254248],[138.9702683,35.9253953],[138.970263,35.925365],[138.9702607,35.925332],[138.9702653,35.9253062],[138.9702748,35.9252812],[138.9702885,35.9252586],[138.9702917,35.9252557],[138.9703542,35.9251976],[138.970509,35.9250539],[138.97055958038897,35.925],[138.96688782222225,35.925],[138.966887,35.9250002],[138.9668398,35.9250083],[138.9668394,35.9250084],[138.9668239,35.9250102],[138.9667741,35.9250124],[138.9667064,35.9250144],[138.9666625,35.9250175],[138.9666389,35.9250193],[138.9666245,35.925021],[138.9665547,35.9250297],[138.9665544,35.9250297],[138.9664883,35.9250413],[138.9664144,35.9250572],[138.9663652,35.9250713],[138.9663183,35.9250897],[138.9662734,35.9251126],[138.9662324,35.9251389],[138.9662136,35.925153],[138.9661255,35.9252245],[138.9660546,35.9252917],[138.9659885,35.9253663],[138.9659698,35.9253927],[138.9659495,35.9254182],[138.9659275,35.9254428],[138.9659041,35.9254661],[138.9658789,35.9254885],[138.9658523,35.9255099],[138.9658118,35.9255382],[138.9657371,35.9255847],[138.9656648,35.925635],[138.9655551,35.925715],[138.9655106,35.9257512],[138.9654566,35.925801],[138.9654178,35.9258415],[138.9653922,35.9258709],[138.9653272,35.9259667],[138.9652814,35.9260467],[138.9652308,35.9261637],[138.9652157,35.9262052],[138.9651802,35.926303],[138.9651578,35.9263508],[138.9651481,35.9263715],[138.9651356,35.9263938],[138.9651146,35.9264263],[138.9650751,35.9264776],[138.9650484,35.9265073],[138.9650149,35.9265403],[138.9649285,35.9266149],[138.9647201,35.9267816],[138.9647192,35.9267824],[138.9647484,35.9267666],[138.964873,35.9266835],[138.964929,35.9266439],[138.9649996,35.9265959],[138.9652191,35.9264831],[138.9652622,35.9264609],[138.9652632,35.9264604],[138.9652964,35.9264705],[138.9653223,35.9264814],[138.9653465,35.9264946],[138.9653686,35.9265098],[138.9653876,35.9265263],[138.9654069,35.9265495],[138.9654212,35.9265746],[138.9654303,35.9266016],[138.9654322,35.9266108],[138.9654405,35.9266353],[138.9654461,35.9266645],[138.9654478,35.9267099],[138.9654447,35.9267505],[138.9654348,35.9267949],[138.9654218,35.926833],[138.9654141,35.9268676],[138.9654113,35.9269065],[138.9654191,35.9270065],[138.9654295,35.9270727],[138.9654328,35.9271967],[138.9654304,35.9272289],[138.9654236,35.9272589],[138.9654217,35.9272646],[138.9654004,35.927333],[138.9653956,35.9273661],[138.9653941,35.9274023],[138.9653951,35.9274071],[138.9654004,35.9274192],[138.9654092,35.9274298],[138.9654211,35.9274384],[138.965435,35.9274442],[138.9654476,35.9274457],[138.965448,35.9274457],[138.9654725,35.9274445],[138.9654729,35.9274445],[138.9654948,35.9274402],[138.9655173,35.9274318],[138.9655367,35.9274123],[138.9655473,35.9273975],[138.9655552,35.9273806],[138.9655583,35.927374],[138.9655924,35.9272762],[138.9656008,35.9272547],[138.9656444,35.9271427],[138.9656562,35.9271204],[138.9656721,35.9270989],[138.9656902,35.9270798],[138.9657057,35.9270677],[138.9657184,35.9270564],[138.9657288,35.9270422],[138.9657448,35.9270071],[138.9657512,35.926985],[138.9657538,35.9269619],[138.9657553,35.9268496],[138.9657555,35.92683],[138.965782,35.9267118],[138.9657977,35.9266309],[138.9658199,35.9265563],[138.9658413,35.9264939],[138.9658687,35.9264323],[138.9658963,35.9263532],[138.9660043,35.9261214],[138.9661003,35.9260016],[138.9661917,35.9258841],[138.9662055,35.9258886],[138.9662611,35.9258242],[138.9663468,35.9257091],[138.9663436,35.9256942],[138.9663536,35.9256697],[138.9663756,35.925669],[138.9663955,35.9256456],[138.9664174,35.9256234],[138.9664405,35.9256024],[138.9664653,35.9255828],[138.9664656,35.9255826],[138.9665541,35.9255207],[138.966633,35.9254576],[138.9667092,35.9253859],[138.9667632,35.9253327],[138.9667932,35.9253527],[138.9667388,35.9254063],[138.9666613,35.9254792],[138.9665805,35.925544],[138.966512,35.9255914],[138.9665085,35.9255939],[138.9664687,35.9256242],[138.966447,35.9256438],[138.9664268,35.9256645],[138.9663965,35.9256999],[138.9663875,35.9257154],[138.9662938,35.9258414],[138.9662198,35.9259272],[138.9661885,35.9259754],[138.9661388,35.9260288],[138.9660682,35.9260895],[138.9660576,35.9261029],[138.9660325,35.9261344],[138.9659857,35.9262517],[138.9659332,35.926363],[138.9659045,35.9264447],[138.9659083,35.9265793],[138.9659075,35.9266532],[138.9659024,35.9267138],[138.9659061,35.9267209],[138.9659126,35.926726],[138.9659216,35.9267284],[138.9659287,35.9267288],[138.9659331,35.926729],[138.9659437,35.9267264],[138.9659523,35.9267214],[138.9659575,35.9267158],[138.9659792,35.9266827],[138.9660065,35.9266455],[138.9660233,35.9266269],[138.9660414,35.9266124],[138.9660642,35.9265988],[138.9660867,35.92659],[138.9661,35.9265827],[138.9661118,35.9265725],[138.9661202,35.9265611],[138.9661251,35.9265486],[138.9661483,35.926469],[138.9661785,35.9264749],[138.9661526,35.9265627],[138.9661433,35.9265798],[138.9661326,35.9265921],[138.9661158,35.926605],[138.9660959,35.9266145],[138.9660804,35.9266206],[138.9660614,35.9266316],[138.9660468,35.9266435],[138.966033,35.9266587],[138.9660249,35.9266711],[138.9659998,35.9267046],[138.9659724,35.9267493],[138.9659603,35.9267573],[138.96596,35.9267573],[138.9659462,35.9267626],[138.9659458,35.9267626],[138.9659294,35.9267648],[138.9659261,35.9267645],[138.9659251,35.9267644],[138.9659114,35.9267631],[138.965864,35.9267409],[138.9658715,35.9267086],[138.965874,35.9266576],[138.9658736,35.9266588],[138.9658582,35.9267106],[138.9658362,35.9267447],[138.9657999,35.926836],[138.9657989,35.9268844],[138.9657983,35.9269629],[138.9657953,35.9269896],[138.9657876,35.9270174],[138.9657727,35.9270508],[138.9657604,35.9270706],[138.9657484,35.9270838],[138.9657289,35.9270993],[138.9657161,35.9271113],[138.9657024,35.9271276],[138.9656909,35.9271458],[138.9656351,35.9272865],[138.9655996,35.9273874],[138.9655942,35.9274027],[138.965586,35.9274228],[138.9655734,35.9274414],[138.9655581,35.9274566],[138.9655379,35.9274703],[138.9655152,35.9274807],[138.9654882,35.9274875],[138.9654615,35.9274899],[138.9654504,35.9274894],[138.96545,35.9274894],[138.9654419,35.927489],[138.9654416,35.927489],[138.9654155,35.9274843],[138.9653909,35.9274757],[138.9653808,35.9274675],[138.9653638,35.9274487],[138.9653542,35.9274336],[138.9653453,35.9274112],[138.9653414,35.927388],[138.9653454,35.9273583],[138.9653469,35.9273481],[138.9653476,35.9273432],[138.9653612,35.9272976],[138.9653762,35.9272604],[138.9653804,35.9272502],[138.9653862,35.9272245],[138.9653883,35.9271968],[138.9653849,35.9270755],[138.9653747,35.9270107],[138.9653667,35.9269066],[138.9653699,35.9268632],[138.9653783,35.9268246],[138.9653915,35.9267863],[138.9653931,35.9267793],[138.9654005,35.9267461],[138.9654032,35.9267097],[138.9654025,35.9266804],[138.9653997,35.9266552],[138.965391,35.9266245],[138.9653785,35.9265984],[138.9653641,35.9265756],[138.9653476,35.9265579],[138.9653469,35.9265575],[138.9653245,35.9265405],[138.9653034,35.9265288],[138.9652865,35.9265219],[138.9652728,35.9265192],[138.9652702,35.9265187],[138.9652515,35.9265187],[138.9652337,35.9265225],[138.9652334,35.9265226],[138.9651804,35.9265485],[138.9650959,35.9265943],[138.9650569,35.9266136],[138.9650035,35.9266429],[138.9649506,35.9266762],[138.9649022,35.926711],[138.9647749,35.9267957],[138.9646848,35.9268442],[138.964597,35.9268896],[138.9645547,35.9269589],[138.9645473,35.9269793],[138.9645421,35.9270049],[138.9645408,35.9270348],[138.9645442,35.9270606],[138.9645632,35.9271251],[138.964597,35.9272447],[138.9646074,35.9272968],[138.964616,35.9273717],[138.9646178,35.9274244],[138.9646147,35.9275011],[138.9646115,35.9275577],[138.9646088,35.9276051],[138.9646013,35.9277385],[138.9645904,35.9278435],[138.964586,35.9279239],[138.9645834,35.9280275],[138.9645738,35.928102],[138.9645496,35.9282435],[138.9645316,35.9283231],[138.9645099,35.9283929],[138.9644925,35.9284385],[138.96446,35.9285175],[138.9644358,35.9285681],[138.9644066,35.9286226],[138.9643671,35.9286891],[138.9643325,35.9287401],[138.9642997,35.9287836],[138.9642415,35.9288679],[138.9642155,35.9289078],[138.9642343,35.9289176],[138.9641798,35.9289986],[138.9641611,35.9289889],[138.9641018,35.9290737],[138.964074,35.9291204],[138.9640553,35.9291592],[138.9640255,35.929235],[138.9640085,35.9292829],[138.9639982,35.9293263],[138.9639884,35.9293999],[138.963986,35.9294415],[138.9639871,35.9295113],[138.9639896,35.9295511],[138.9639982,35.929606],[138.964008,35.929645],[138.9640188,35.9296882],[138.9640382,35.929742],[138.9640573,35.9297849],[138.9640909,35.9298463],[138.9641332,35.9299155],[138.9641596,35.9299543],[138.9642539,35.9300776],[138.9643062,35.9301488],[138.9643526,35.9301993],[138.9644352,35.930282],[138.9644691,35.9303187],[138.9645117,35.9303614],[138.9645805,35.9304233],[138.9646391,35.9304778],[138.9647148,35.9305407],[138.9647809,35.9305877],[138.9648471,35.9306386],[138.9648918,35.9306764],[138.9649699,35.9307401],[138.9650092,35.9307851],[138.9650345,35.930819],[138.9650656,35.930868],[138.9650977,35.9309301],[138.9651173,35.9309734],[138.965179,35.9311228],[138.9652702,35.9313274],[138.9653196,35.931429],[138.9653564,35.9315083],[138.9654076,35.9315312],[138.9654343,35.9315462],[138.9654589,35.9315637],[138.9654803,35.9315836],[138.9654991,35.9316062],[138.9655137,35.9316298],[138.9655246,35.9316548],[138.9655316,35.9316806],[138.9655262,35.9317247],[138.9655129,35.9317732],[138.9654937,35.9318173],[138.9654665,35.9318617],[138.9654593,35.9318929],[138.9654505,35.9319181],[138.9654309,35.9319689],[138.965412,35.9320095],[138.9653629,35.9320928],[138.9653309,35.9321541],[138.9653204,35.9321945],[138.9653152,35.9322287],[138.9653134,35.9322651],[138.9653153,35.9323093],[138.9653194,35.9323353],[138.9653303,35.9323728],[138.9653407,35.9323975],[138.9653538,35.9324213],[138.9653754,35.9324536],[138.9653997,35.9324835],[138.9654346,35.9325188],[138.9654654,35.9325445],[138.965541,35.9325974],[138.9657347,35.9327274],[138.9659925,35.9328886],[138.9662342,35.9330412],[138.9663909,35.9331367],[138.9664313,35.9331613],[138.9665332,35.9332293],[138.9665605,35.9332511],[138.9666003,35.9332878],[138.9666383,35.9333295],[138.96664118989636,35.93333333333333],[138.96646248494625,35.93333333333333]]]},"properties":{"layer":"landuse","class_code":"215","class_label":"道路用地（道路、駅前広場、私有地内に存在する沿道用途の「私道」または、私有地の一部分であるものの公共の通行に供されている土地の部分）"}}]}