{"type":"FeatureCollection","properties":{"mesh_code":"53387768","source":"PLATEAU秩父市2025","layer":"landuse"},"features":[{"type":"Feature","id":"luse_9c780336-234f-40d5-8463-f0912301c047","geometry":{"type":"Polygon","coordinates":[[[138.98628555513227,35.96666666666667],[138.9861343,35.9667247],[138.9861131,35.9667328],[138.9860716,35.9667256],[138.9860644,35.9667243],[138.9860585,35.9667215],[138.986034,35.96671],[138.9860235,35.9667032],[138.9860131,35.9666936],[138.9859955,35.9666675],[138.98599502769537,35.96666666666667],[138.98628555513227,35.96666666666667]]]},"properties":{"layer":"landuse","class_code":"202","class_label":"畑（畑、樹園地、採草地、養鶏（牛・豚）場）"}},{"type":"Feature","id":"luse_e7b25965-d20f-4e77-a48e-5a39e41015d9","geometry":{"type":"Polygon","coordinates":[[[138.9828813,35.9667806],[138.9826785,35.9667433],[138.9826361,35.9667558],[138.9826376,35.9666772],[138.98263779151515,35.96666666666667],[138.98289901903337,35.96666666666667],[138.9828968,35.9666862],[138.9828813,35.9667806]]]},"properties":{"layer":"landuse","class_code":"202","class_label":"畑（畑、樹園地、採草地、養鶏（牛・豚）場）"}},{"type":"Feature","id":"luse_2c2acd26-091b-4777-b722-c878d9616c57","geometry":{"type":"Polygon","coordinates":[[[138.98458962162564,35.96666666666667],[138.9845274,35.9667282],[138.984559,35.9669225],[138.9845196,35.9669127],[138.9845059,35.9669093],[138.9843593,35.9668692],[138.9843332,35.9668615],[138.9843129,35.9668528],[138.9842238,35.966808],[138.9841588,35.9667697],[138.98400229474697,35.96666666666667],[138.98458962162564,35.96666666666667]]]},"properties":{"layer":"landuse","class_code":"202","class_label":"畑（畑、樹園地、採草地、養鶏（牛・豚）場）"}},{"type":"Feature","id":"luse_7abd5ad1-3e0d-44e3-80b4-27ee5a2bec14","geometry":{"type":"Polygon","coordinates":[[[138.9823678,35.9669908],[138.9823557,35.9669916],[138.9822943,35.9670026],[138.9822546,35.967009],[138.9822491,35.9670099],[138.9822406,35.9670099],[138.9822341,35.9670087],[138.9822255,35.9670056],[138.9822206,35.9670022],[138.9822173,35.9669987],[138.9822146,35.9669957],[138.9822255,35.9669353],[138.9822325,35.9669118],[138.9822387,35.9668973],[138.9822886,35.9668258],[138.9823257,35.966776],[138.9823587,35.9667455],[138.9823827,35.9667283],[138.9824018,35.9667174],[138.9824211,35.9667095],[138.9824472,35.9667011],[138.982474,35.9666941],[138.9824744,35.9666939],[138.9824927,35.9666891],[138.9825217,35.9666837],[138.982522,35.9666837],[138.9825993,35.966672],[138.9825988,35.9666783],[138.9825974,35.9666977],[138.9825884,35.9668212],[138.9825817,35.9668473],[138.9825704,35.9668573],[138.9825524,35.9668661],[138.9824126,35.9668896],[138.9823967,35.9669006],[138.9823902,35.9669139],[138.9823883,35.9669279],[138.9823961,35.9669913],[138.9823883,35.9669911],[138.9823779,35.9669907],[138.9823678,35.9669908]]]},"properties":{"layer":"landuse","class_code":"202","class_label":"畑（畑、樹園地、採草地、養鶏（牛・豚）場）"}},{"type":"Feature","id":"luse_5d7f144f-158f-4d29-9714-5a1eba23f337","geometry":{"type":"Polygon","coordinates":[[[138.9854845,35.9669784],[138.9854184,35.9670115],[138.9853816,35.967032],[138.9853283,35.9670531],[138.9853156,35.9670568],[138.9852978,35.9670621],[138.9852389,35.9670678],[138.9852297,35.9670675],[138.9852192,35.967067],[138.9853105,35.9669589],[138.9852099,35.9669015],[138.985081,35.9670502],[138.9850435,35.9670394],[138.9850431,35.9670393],[138.9849574,35.9670174],[138.9848378,35.9669921],[138.9848267,35.9669893],[138.9848793,35.9668691],[138.9848372,35.9668273],[138.9848252,35.966758],[138.9848964650228,35.96666666666667],[138.98570647524565,35.96666666666667],[138.9856475,35.9667118],[138.9857687,35.9668195],[138.9857277,35.9668443],[138.9854845,35.9669784]]]},"properties":{"layer":"landuse","class_code":"202","class_label":"畑（畑、樹園地、採草地、養鶏（牛・豚）場）"}},{"type":"Feature","id":"luse_74e8a25d-2ddd-438d-82fe-a71a3398fd02","geometry":{"type":"Polygon","coordinates":[[[138.9863269,35.9672714],[138.9861954,35.9672935],[138.9857452,35.9673613],[138.9857197,35.9673657],[138.9856941,35.9673682],[138.9856747,35.9673663],[138.9856558,35.9673557],[138.9856132,35.9672652],[138.9859727,35.96712],[138.9859712,35.9671018],[138.9860949,35.9670244],[138.9861341,35.9669895],[138.986114,35.9669575],[138.9860972,35.9669354],[138.9860429,35.9668737],[138.9860345,35.9668656],[138.9859725,35.9667813],[138.9859668,35.9667704],[138.9859625,35.966762],[138.9859632,35.9667571],[138.9859691,35.9667509],[138.9859861,35.9667483],[138.9860027,35.9667512],[138.9860109,35.9667527],[138.9860112,35.9667528],[138.986054,35.966764],[138.9860953,35.9667712],[138.9861057,35.966773],[138.986106,35.966773],[138.9861799,35.9667814],[138.9861999,35.9667919],[138.9863266,35.9668585],[138.9863492,35.9669284],[138.9863761,35.9669736],[138.9866358,35.9668932],[138.9866668,35.9668836],[138.9866731,35.9669131],[138.9866741,35.9669172],[138.9866884,35.9669684],[138.9867103,35.9670314],[138.9867315,35.9670804],[138.9867144,35.9670925],[138.9865788,35.9671876],[138.986534,35.9672962],[138.9864549,35.9672903],[138.9864468,35.9672965],[138.9863691,35.9672305],[138.9863269,35.9672714]]]},"properties":{"layer":"landuse","class_code":"202","class_label":"畑（畑、樹園地、採草地、養鶏（牛・豚）場）"}},{"type":"Feature","id":"luse_f62ef047-09ab-4950-9c2a-3e1269f99669","geometry":{"type":"Polygon","coordinates":[[[138.9837477,35.9675707],[138.9835033,35.9675766],[138.983235,35.967597],[138.9832156,35.9676],[138.9832025,35.9676043],[138.9831991,35.9676055],[138.9830199,35.9677192],[138.9829892,35.967734],[138.9829672,35.9677441],[138.9829494,35.9677484],[138.9828636,35.9677558],[138.9828482,35.9677547],[138.9828324,35.9677503],[138.9828215,35.9677388],[138.9828147,35.9677259],[138.9828004,35.9676781],[138.9827963,35.9676436],[138.9827658,35.9673837],[138.9827625,35.9673556],[138.9827896,35.9673551],[138.9828389,35.9673506],[138.9828567,35.9673489],[138.9828808,35.9673467],[138.9829086,35.9673442],[138.9830269,35.9673473],[138.9831027,35.9673493],[138.9831488,35.9673485],[138.9831484,35.9673339],[138.98312,35.9673213],[138.9831041,35.9673178],[138.9831014,35.9673178],[138.9830952,35.9673008],[138.9830871,35.967293],[138.9830747,35.9672874],[138.9830518,35.967282],[138.9830027,35.9672726],[138.98299,35.9672633],[138.9829816,35.967253],[138.9829712,35.9672389],[138.9829449,35.9672109],[138.9829256,35.9672001],[138.9828947,35.9671946],[138.9825938,35.9671653],[138.9825814,35.9671606],[138.9825744,35.9671543],[138.9825687,35.9671412],[138.9825615,35.967095],[138.9825589,35.9670896],[138.9825513,35.967082],[138.9825673,35.966986],[138.9825746,35.9669774],[138.9825858,35.9669762],[138.9826979,35.9670039],[138.9828343,35.9670217],[138.982975,35.9670287],[138.9830036,35.9670281],[138.9830438,35.9670243],[138.9830777,35.9670059],[138.9830935,35.9669961],[138.9831096,35.9669844],[138.9831418,35.9669616],[138.9831565,35.9669068],[138.9831738,35.9668425],[138.9831935,35.9667491],[138.9830042,35.9666961],[138.983,35.9666936],[138.9830004,35.9666844],[138.98300495077262,35.96666666666667],[138.98345140361445,35.96666666666667],[138.9834501,35.9666847],[138.983451,35.966708],[138.9834547,35.9667303],[138.9834633,35.9667488],[138.9835848,35.9668739],[138.9836062,35.9668603],[138.9834878,35.9667377],[138.9834818,35.9667248],[138.9834786,35.9667061],[138.9834779,35.9666849],[138.98347921580756,35.96666666666667],[138.98393967688386,35.96666666666667],[138.9841351,35.9667947],[138.9842022,35.9668343],[138.9842937,35.9668803],[138.9843177,35.9668904],[138.9843888,35.9669112],[138.9843892,35.9669113],[138.9843966,35.9669132],[138.9844942,35.9669393],[138.9848275,35.9670225],[138.9848675,35.967031],[138.984868,35.9670311],[138.9848717,35.9670373],[138.984871,35.9670478],[138.9848673,35.9670547],[138.9848223,35.9670946],[138.9847584,35.9671273],[138.9846926,35.967163],[138.9846889,35.9671649],[138.9845914,35.9672148],[138.9845714,35.967229],[138.98457,35.9672298],[138.984563,35.9672369],[138.9845514,35.9672484],[138.9845371,35.9672627],[138.9845688,35.967281],[138.9845982,35.9672519],[138.9846146,35.9672403],[138.984615,35.9672399],[138.9846817,35.9673914],[138.9844437,35.9674563],[138.9843525,35.9674665],[138.9841816,35.9674942],[138.9841538,35.9674986],[138.9841311,35.9675058],[138.9841225,35.9675126],[138.9841197,35.9675242],[138.9841262,35.9675568],[138.9841145,35.9675569],[138.9840974,35.9675578],[138.9839768,35.9675837],[138.9839658,35.967585],[138.9838946,35.9675943],[138.9838672,35.9676012],[138.9838574,35.96756],[138.9837477,35.9675707]]]},"properties":{"layer":"landuse","class_code":"202","class_label":"畑（畑、樹園地、採草地、養鶏（牛・豚）場）"}},{"type":"Feature","id":"luse_086d88a7-4c5f-45b9-92d9-7fe09b9d3784","geometry":{"type":"Polygon","coordinates":[[[138.9818599,35.9676985],[138.9818729,35.9677111],[138.9818898,35.9677225],[138.9819069,35.9677313],[138.9819607,35.9677534],[138.9818739,35.9678143],[138.9817197,35.9677023],[138.9818224,35.9675942],[138.9818599,35.9676985]]]},"properties":{"layer":"landuse","class_code":"202","class_label":"畑（畑、樹園地、採草地、養鶏（牛・豚）場）"}},{"type":"Feature","id":"luse_25fe8ca2-10a8-453b-bf18-4f044ef7a065","geometry":{"type":"Polygon","coordinates":[[[138.9778385,35.9748463],[138.9778221,35.9748644],[138.97783909974842,35.975],[138.97766517345846,35.975],[138.9776634,35.9749979],[138.9774795,35.9748635],[138.9774407,35.9747997],[138.9775354,35.9747487],[138.9779149,35.9747236],[138.9779687,35.9746487],[138.9780167,35.9746192],[138.9780821,35.9745966],[138.9781293,35.9745981],[138.9782332,35.9746042],[138.9782621,35.9746376],[138.9782683,35.9746899],[138.9782652,35.9747669],[138.978258,35.974834],[138.9782544,35.9748676],[138.9781183,35.9748459],[138.9779427,35.9748375],[138.9778385,35.9748463]]]},"properties":{"layer":"landuse","class_code":"202","class_label":"畑（畑、樹園地、採草地、養鶏（牛・豚）場）"}},{"type":"Feature","id":"luse_6d6ddb7a-36d2-4491-8076-2677742c1ae5","geometry":{"type":"Polygon","coordinates":[[[138.97830969206353,35.975],[138.9781480017647,35.975],[138.9781488,35.9749941],[138.97830969206353,35.975]]]},"properties":{"layer":"landuse","class_code":"202","class_label":"畑（畑、樹園地、採草地、養鶏（牛・豚）場）"}},{"type":"Feature","id":"luse_be8de723-aa48-427e-8379-3bb4e4d907bb","geometry":{"type":"Polygon","coordinates":[[[138.9761006,35.9681397],[138.9760957,35.9681402],[138.9759448,35.9681573],[138.9758591,35.9681682],[138.9758288,35.9681735],[138.9758224,35.9681746],[138.9756045,35.9682255],[138.9753506,35.9682802],[138.9753222,35.9682863],[138.9752073,35.9683063],[138.9751246,35.9683173],[138.9750728,35.9683242],[138.975,35.96833571638418],[138.975,35.96813721589825],[138.9750879,35.968102],[138.9753489,35.9680073],[138.9753492,35.9680072],[138.9755815,35.9679235],[138.9756799,35.9678966],[138.9757306,35.9678861],[138.9757479,35.967881],[138.9757575,35.9678755],[138.9757667,35.9678672],[138.9757721,35.967858],[138.9757744,35.9678365],[138.9757722,35.9677911],[138.9757727,35.9677737],[138.9757762,35.9677621],[138.9757816,35.9677545],[138.9758357,35.9677051],[138.9758635,35.9676738],[138.9758888,35.9676566],[138.9759281,35.9676407],[138.975956,35.9676279],[138.9759762,35.9676159],[138.9760051,35.9675912],[138.9762548,35.967257],[138.9763071,35.9671823],[138.9763686,35.967081],[138.976389,35.967052],[138.976429,35.9670007],[138.9764726,35.9669486],[138.9765855,35.9668371],[138.976691,35.9667449],[138.9767644,35.9666914],[138.97680002137682,35.96666666666667],[138.9769994227273,35.96666666666667],[138.976999,35.9666677],[138.9770002,35.9666773],[138.9770041,35.9666877],[138.9770232,35.966699],[138.9772058,35.96679],[138.9772442,35.9668012],[138.9772632,35.9668033],[138.9772789,35.9668034],[138.9772968,35.966796],[138.9773313,35.9667412],[138.977336,35.9667241],[138.9773364,35.9667227],[138.9773357,35.9666673],[138.9773357818486,35.96666666666667],[138.9776626093728,35.96666666666667],[138.9777858,35.9667075],[138.9777914,35.9666966],[138.9779211,35.9667301],[138.9777385,35.9673565],[138.9778709,35.9673904],[138.9779079,35.9674405],[138.9780058,35.9674781],[138.9779945,35.967496],[138.9779584,35.9675462],[138.9779501,35.967551],[138.9778947,35.9675724],[138.9778755,35.9675812],[138.9778565,35.9675948],[138.9778099,35.9676476],[138.9777385,35.9677354],[138.9777266,35.9677555],[138.9777194,35.9677771],[138.9777179,35.9677966],[138.9777182,35.9678555],[138.9777158,35.9678738],[138.9777105,35.9678855],[138.9776997,35.9678948],[138.97768,35.967906],[138.9776113,35.9679321],[138.9776109,35.9679323],[138.9775629,35.9679462],[138.9775268,35.9679539],[138.9775264,35.9679539],[138.9774572,35.9679651],[138.9774344,35.9679672],[138.977305,35.9679863],[138.9771608,35.9680187],[138.9770885,35.968039],[138.976973,35.9680753],[138.9768958,35.9681064],[138.9768538,35.9681234],[138.9767979,35.9681382],[138.9767349,35.9681483],[138.9766577,35.9681541],[138.9765389,35.9681516],[138.9765385,35.9681516],[138.9763474,35.9681428],[138.9761879,35.9681387],[138.9761006,35.9681397]]]},"properties":{"layer":"landuse","class_code":"203","class_label":"山林（樹林地）"}},{"type":"Feature","id":"luse_e2ea48a6-e590-438c-a1c5-2d244ae45e07","geometry":{"type":"Polygon","coordinates":[[[138.97865491342628,35.96666666666667],[138.9785917,35.9667328],[138.978424,35.9669586],[138.9783051,35.9671781],[138.9780535,35.9676433],[138.9780204,35.9676981],[138.9779295,35.9678253],[138.9777704,35.9680025],[138.9775953,35.9681687],[138.9774256,35.9683195],[138.9770922,35.9685771],[138.976805,35.9688262],[138.97672,35.9689137],[138.9766406,35.9689903],[138.9764895,35.9691743],[138.9764343,35.9690174],[138.9761636,35.9690197],[138.9761659,35.9689973],[138.9761655,35.9689973],[138.9758211,35.9689764],[138.9758207,35.9689764],[138.9758134,35.9689763],[138.9757226,35.9689748],[138.9756531,35.9689737],[138.9755119,35.9689142],[138.9754676,35.968902],[138.9754122,35.9688918],[138.9753142,35.9688762],[138.9753139,35.9688762],[138.9750443,35.9688358],[138.975,35.96882677841945],[138.975,35.968390709969476],[138.9750845,35.9683773],[138.9752196,35.9683595],[138.9753378,35.9683388],[138.975408,35.9683251],[138.9754479,35.968319],[138.9755141,35.9683118],[138.9756125,35.9683011],[138.9756249,35.9682991],[138.9756431,35.9682962],[138.9758642,35.9682446],[138.9758646,35.9682445],[138.9759993,35.9682089],[138.9760411,35.9682004],[138.9761053,35.9681937],[138.9761873,35.9681928],[138.9763444,35.9681968],[138.9765359,35.9682056],[138.9766598,35.9682082],[138.9767444,35.968202],[138.9767971,35.9681935],[138.9768147,35.9681906],[138.9768789,35.9681737],[138.9768792,35.9681735],[138.9769998,35.9681248],[138.977111,35.9680898],[138.9771113,35.9680897],[138.9771805,35.9680703],[138.9773227,35.9680384],[138.9774441,35.9680208],[138.977572,35.968009],[138.9775981,35.9680066],[138.9775985,35.9680065],[138.9776658,35.9679968],[138.9776661,35.9679967],[138.977698,35.9679881],[138.9777248,35.9679787],[138.9777442,35.9679698],[138.9777667,35.9679551],[138.9777925,35.967933],[138.9778063,35.9679159],[138.9778233,35.967886],[138.9778287,35.9678642],[138.9778293,35.9677922],[138.9778353,35.96778],[138.9779013,35.9676987],[138.9780033,35.9675819],[138.978048,35.9675199],[138.9780769,35.9674742],[138.9781066,35.9674216],[138.9781128,35.9674098],[138.9781139,35.9674077],[138.9781594,35.9673204],[138.9782047,35.9672173],[138.9782687,35.9670448],[138.978334,35.9668783],[138.9783526,35.9668194],[138.9783694,35.9667575],[138.9783809,35.9667029],[138.97839041892655,35.96666666666667],[138.97865491342628,35.96666666666667]]]},"properties":{"layer":"landuse","class_code":"203","class_label":"山林（樹林地）"}},{"type":"Feature","id":"luse_e229b97e-edb4-4d47-82e9-3d141f0007ec","geometry":{"type":"Polygon","coordinates":[[[138.9782125,35.9696688],[138.9781791,35.9696706],[138.9781462,35.9696764],[138.9781246,35.9696867],[138.978106,35.9697009],[138.9780977,35.9697108],[138.9780894,35.9697219],[138.9780823,35.969737],[138.9780709,35.9697775],[138.9780618,35.9698543],[138.9780595,35.9699115],[138.9780529,35.9700772],[138.9780498,35.9701555],[138.9780277,35.9702362],[138.9780144,35.9702552],[138.9779936,35.9702841],[138.9779747,35.9703033],[138.9779527,35.9703253],[138.9779281,35.9703451],[138.9777969,35.9704248],[138.9776642,35.9704565],[138.977602,35.9704675],[138.9775486,35.9704729],[138.9775121,35.9704767],[138.9772353,35.9704876],[138.9772034,35.9704916],[138.9771584,35.9704978],[138.9771056,35.9705103],[138.9769649,35.9705448],[138.9769459,35.9705495],[138.9768873,35.9705881],[138.9768783,35.9705995],[138.9768663,35.9706318],[138.976861,35.9706661],[138.9768589,35.970705],[138.9768614,35.9707393],[138.9768823,35.970853],[138.9768986,35.9708822],[138.9769171,35.970912],[138.9769338,35.9709654],[138.9769543,35.9711056],[138.9769514,35.9711488],[138.97694,35.9711947],[138.9769255,35.9712329],[138.9768831,35.9713192],[138.9768801,35.9713653],[138.9768828,35.9713917],[138.9768881,35.971415],[138.9768964,35.9714312],[138.9769295,35.9714716],[138.9769422,35.9714855],[138.9769668,35.9715037],[138.9770498,35.9715375],[138.9771824,35.9715657],[138.9774205,35.9716312],[138.9774543,35.9716523],[138.9774859,35.9716754],[138.977511,35.9717029],[138.9775397,35.9717357],[138.9775573,35.9717739],[138.9775723,35.971831],[138.9775789,35.9718847],[138.9775787,35.9719285],[138.9775761,35.9719676],[138.9775623,35.9720223],[138.97755,35.9720544],[138.9775267,35.9721008],[138.9774991,35.9721356],[138.9774406,35.9721765],[138.9774109,35.9721922],[138.977365,35.9722136],[138.9771404,35.9723209],[138.9770489,35.972378],[138.977043,35.9723835],[138.9770314,35.9723989],[138.9770196,35.9724191],[138.9770097,35.9724402],[138.9769918,35.9724737],[138.9769436,35.9725987],[138.9768934,35.9727689],[138.9769026,35.9728807],[138.9769038,35.9729033],[138.9768947,35.9729541],[138.9768959,35.9729643],[138.9769013,35.9729788],[138.9769116,35.9729871],[138.9769219,35.9729934],[138.9769369,35.9729992],[138.9769582,35.9730041],[138.9769788,35.9730092],[138.9770022,35.9730098],[138.9770145,35.9730436],[138.9769465,35.9730599],[138.9769238,35.9730621],[138.9769004,35.9730622],[138.9768732,35.9730616],[138.9768534,35.9730576],[138.9768249,35.9730457],[138.9768103,35.9730364],[138.9768016,35.9730176],[138.9767984,35.9729936],[138.9767951,35.9729045],[138.9767953,35.972882],[138.9768246,35.9727569],[138.9768758,35.9725835],[138.9769259,35.9724537],[138.9769446,35.9724187],[138.9769549,35.9723966],[138.9769632,35.9723826],[138.9769706,35.9723704],[138.976986,35.9723497],[138.9770004,35.9723361],[138.977101,35.9722734],[138.9773297,35.9721641],[138.9773742,35.9721434],[138.9773982,35.9721307],[138.9774455,35.9720977],[138.9774641,35.9720743],[138.9774838,35.9720351],[138.9774942,35.972008],[138.9775061,35.9719602],[138.9775083,35.9719268],[138.9775085,35.9718874],[138.9775027,35.9718398],[138.9774896,35.97179],[138.9774771,35.9717628],[138.9774541,35.9717365],[138.9774337,35.9717141],[138.9774092,35.9716963],[138.9773869,35.9716823],[138.9771621,35.9716205],[138.9770249,35.9715913],[138.9769267,35.9715512],[138.9768899,35.971524],[138.976872,35.9715045],[138.9768342,35.9714584],[138.9768203,35.9714314],[138.976813,35.9713993],[138.9768095,35.9713662],[138.9768135,35.9713067],[138.9768591,35.9712138],[138.9768717,35.9711805],[138.9768815,35.9711415],[138.9768837,35.9711074],[138.9768645,35.9709759],[138.9768509,35.9709321],[138.9768352,35.970907],[138.9768141,35.9708694],[138.9767914,35.9707452],[138.9767885,35.9707054],[138.976791,35.9706614],[138.9767972,35.9706199],[138.976814,35.9705753],[138.9768342,35.9705495],[138.9769122,35.9704981],[138.9769443,35.9704901],[138.9770857,35.9704556],[138.9771426,35.970442],[138.9771921,35.9704352],[138.9772281,35.9704306],[138.977506,35.9704197],[138.9775398,35.9704162],[138.9775901,35.9704111],[138.977641,35.970402],[138.9776832,35.9703852],[138.9778326,35.9703043],[138.977848,35.9702904],[138.9778687,35.9702674],[138.9778859,35.9702496],[138.9779022,35.9702262],[138.9779138,35.9702055],[138.9779238,35.9701821],[138.9779383,35.970118],[138.9779448,35.970011],[138.9779533,35.9699106],[138.9779648,35.9698337],[138.9779761,35.9697857],[138.9779899,35.9697386],[138.9779983,35.9697164],[138.9780156,35.9696782],[138.9780249,35.9696629],[138.9780384,35.9696474],[138.9780518,35.9696371],[138.9780701,35.9696285],[138.9781002,35.9696235],[138.9782487,35.9696158],[138.9784432,35.9696248],[138.9784677,35.9696258],[138.9785041,35.96963],[138.9785591,35.9696404],[138.97876,35.9696919],[138.9789372,35.9697124],[138.9789931,35.9697151],[138.9790339,35.9697165],[138.9790692,35.9697151],[138.9790899,35.969713],[138.9791236,35.9697045],[138.9791376,35.969696],[138.9791662,35.9696655],[138.979178,35.9696462],[138.9791826,35.9696271],[138.9791884,35.9695637],[138.9791909,35.9695091],[138.9791849,35.9694661],[138.9791791,35.9694409],[138.9791749,35.9694276],[138.9791659,35.9694092],[138.9791587,35.9693994],[138.9790818,35.9693314],[138.9787745,35.9691132],[138.9787539,35.9691003],[138.978545,35.968989],[138.9784759,35.9689389],[138.9784392,35.9689057],[138.9784144,35.9688841],[138.9784043,35.9688731],[138.9783906,35.9688549],[138.9783847,35.9688446],[138.9783766,35.9688168],[138.9783716,35.9687909],[138.9783702,35.9687485],[138.9783785,35.9686948],[138.9783914,35.9686575],[138.978404,35.96863],[138.9784217,35.9685994],[138.9784371,35.9685785],[138.9784971,35.9685206],[138.9785262,35.9685001],[138.9785486,35.968489],[138.978572,35.9684776],[138.9786017,35.9684653],[138.9786317,35.968459],[138.9786619,35.9684559],[138.9786795,35.9684501],[138.9787003,35.9684412],[138.9787229,35.9684343],[138.9787426,35.96843],[138.9787769,35.968421],[138.9788092,35.9684107],[138.9788779,35.9683878],[138.9790072,35.9683175],[138.9790429,35.9682948],[138.979126,35.9682324],[138.9791638,35.9682089],[138.9794249,35.9680661],[138.9794426,35.9680589],[138.9794645,35.9680538],[138.9794881,35.9680513],[138.979517,35.9680494],[138.9795608,35.9680642],[138.9795813,35.9680647],[138.9796121,35.9680587],[138.9796663,35.9680553],[138.9797272,35.9680568],[138.9798719,35.968053],[138.9799033,35.9680489],[138.9799771,35.9680326],[138.9800149,35.9680212],[138.980038,35.9680123],[138.9800655,35.9679976],[138.9800867,35.9679818],[138.9801076,35.9679606],[138.9801176,35.9679471],[138.9801241,35.9679345],[138.9801336,35.9679105],[138.9801401,35.9678866],[138.9801431,35.9678778],[138.98015,35.9678509],[138.9801544,35.9678242],[138.9801533,35.9677647],[138.98014,35.9676815],[138.9801231,35.9676158],[138.9801121,35.9675815],[138.9800123,35.967345],[138.9799645,35.9672076],[138.9799291,35.9671298],[138.9799123,35.9671033],[138.9798532,35.9670282],[138.9798216,35.9669732],[138.9798098,35.9669604],[138.9797113,35.9668843],[138.9796404,35.9668097],[138.9796061,35.9667723],[138.9795896,35.9667489],[138.979574,35.9667181],[138.9795699,35.9667094],[138.9795635,35.9666864],[138.9795624411382,35.96666666666667],[138.9796710696562,35.96666666666667],[138.9796698,35.9666758],[138.9796708,35.9666931],[138.9796758,35.9667095],[138.9796811,35.9667212],[138.9796964,35.9667422],[138.979827,35.9668793],[138.9798541,35.9669342],[138.9798651,35.9669475],[138.9799547,35.967024],[138.9799768,35.9670524],[138.9799965,35.967082],[138.9800112,35.9671106],[138.9800319,35.9671586],[138.9800641,35.967262],[138.9801141,35.9674033],[138.9801774,35.9675569],[138.9802,35.9676258],[138.9802141,35.9676741],[138.9802198,35.9677003],[138.9802262,35.9677384],[138.9802319,35.9677904],[138.9802342,35.9678447],[138.9802331,35.9678913],[138.9802293,35.9679142],[138.9802256,35.9679308],[138.9802175,35.9679548],[138.9802047,35.9679838],[138.9801842,35.9680224],[138.9801634,35.9680459],[138.9801487,35.9680548],[138.9801198,35.9680682],[138.9801078,35.9680724],[138.9800794,35.9680803],[138.9799589,35.968098],[138.9797937,35.9681042],[138.9796135,35.9681029],[138.9795833,35.968097],[138.9795628,35.9680971],[138.9795292,35.9681125],[138.9795053,35.9681217],[138.9794867,35.968129],[138.9794738,35.9681351],[138.9794294,35.9681578],[138.9793839,35.9681779],[138.979333,35.9682018],[138.9791828,35.9682785],[138.9791031,35.9683241],[138.9790321,35.968373],[138.9790074,35.9683868],[138.9789421,35.9684176],[138.9789058,35.9684322],[138.9787943,35.9684693],[138.9787573,35.9684795],[138.97873,35.9684828],[138.9786934,35.9684817],[138.9786757,35.9684873],[138.9786524,35.9684988],[138.9786203,35.968513],[138.9785956,35.9685254],[138.9785598,35.9685519],[138.9785307,35.9685791],[138.9785184,35.9685937],[138.9785028,35.96862],[138.978502,35.9686211],[138.9784904,35.9686432],[138.9784817,35.9686664],[138.978481,35.9686684],[138.978473,35.968701],[138.978466,35.9687385],[138.9784628,35.968773],[138.9784637,35.9687852],[138.9784688,35.9688056],[138.9784776,35.9688234],[138.9784887,35.968841],[138.9784955,35.9688499],[138.9785138,35.9688685],[138.9785229,35.968876],[138.9787199,35.9690095],[138.9787822,35.969066],[138.9788035,35.969078],[138.9789183,35.9691256],[138.9791699,35.9692658],[138.9792012,35.9692893],[138.9792256,35.9693097],[138.979237,35.9693224],[138.9792532,35.969355],[138.979255,35.9693607],[138.9792625,35.9693905],[138.9792672,35.969439],[138.9792714,35.9694811],[138.9792744,35.9695694],[138.9792694,35.969686],[138.9792651,35.9697219],[138.9792608,35.9697427],[138.9792533,35.9697652],[138.9792471,35.9697794],[138.9792346,35.9697946],[138.9792256,35.9698019],[138.9792073,35.96981],[138.9791867,35.9698138],[138.9791663,35.9698144],[138.9791384,35.9698137],[138.9790396,35.9697982],[138.9788445,35.9697587],[138.9787962,35.9697499],[138.978747,35.9697389],[138.9787068,35.969728],[138.9785279,35.9696825],[138.978493,35.9696791],[138.9784494,35.9696742],[138.9783823,35.9696687],[138.9782469,35.9696674],[138.9782125,35.9696688]]]},"properties":{"layer":"landuse","class_code":"204","class_label":"水面（河川水面、湖沼、ため池、用水路、濠、運河水面）"}},{"type":"Feature","id":"luse_102de29f-b331-40fb-9f5b-0b79677b7e39","geometry":{"type":"Polygon","coordinates":[[[138.9750299,35.9688886],[138.9753017,35.9689294],[138.975302,35.9689294],[138.9754496,35.9689541],[138.9754859,35.9689641],[138.9756454,35.9690312],[138.9757083,35.9690637],[138.9757372,35.9690823],[138.9757681,35.9691052],[138.9758417,35.9691721],[138.975876,35.9692067],[138.9759042,35.9692314],[138.9759349,35.969258],[138.9761773,35.9694204],[138.976211,35.9694422],[138.9762376,35.9694661],[138.9762417,35.9694723],[138.9762457,35.9694868],[138.9762469,35.9695008],[138.9762462,35.9695105],[138.9762361,35.969539],[138.9762295,35.9695512],[138.9761735,35.9696555],[138.9761151,35.9697698],[138.9760538,35.9698972],[138.9759861,35.9700375],[138.9756681,35.9707016],[138.9756534,35.9706972],[138.9757307,35.9704186],[138.9757667,35.9702662],[138.9758299,35.9700616],[138.9757923,35.9700539],[138.9758119,35.9699956],[138.9757203,35.9699601],[138.9757385,35.9699296],[138.9757954,35.9695317],[138.9757884,35.969479],[138.9756198,35.9692717],[138.9754599,35.9691147],[138.9753532,35.9690594],[138.9750967,35.9689675],[138.9750831,35.9689647],[138.9750166,35.9688859],[138.9750299,35.9688886]]]},"properties":{"layer":"landuse","class_code":"205","class_label":"その他自然地（原野・牧野、荒れ地（耕作放棄地等自然的状況のもの）、低湿地、河川敷・河原、海浜、湖岸）"}},{"type":"Feature","id":"luse_33c1ea14-5d83-4909-90f2-aefb3f0756bc","geometry":{"type":"Polygon","coordinates":[[[138.9755241,35.9709752],[138.9754708,35.9710595],[138.975445,35.9710908],[138.9754168,35.9711218],[138.9753866,35.9711518],[138.9753521,35.9711826],[138.9753189,35.9712099],[138.9752838,35.9712359],[138.9752771,35.9712402],[138.9752187,35.9712783],[138.975163,35.9713084],[138.9751039,35.9713338],[138.9751036,35.9713339],[138.975051,35.9713521],[138.9750507,35.9713522],[138.975,35.97136555473187],[138.975,35.9709747323728],[138.9751808,35.9707632],[138.975482,35.9708789],[138.9755602,35.9707804],[138.975521,35.9707682],[138.9756303,35.9704963],[138.9756876,35.9703917],[138.9756822,35.9704093],[138.9756058,35.970685],[138.9756048,35.9706886],[138.9755849,35.9707395],[138.9756404,35.970759],[138.9755907,35.9708592],[138.9755241,35.9709752]]]},"properties":{"layer":"landuse","class_code":"205","class_label":"その他自然地（原野・牧野、荒れ地（耕作放棄地等自然的状況のもの）、低湿地、河川敷・河原、海浜、湖岸）"}},{"type":"Feature","id":"luse_924a9bc2-e3a7-4e91-b56d-cadfa949b6da","geometry":{"type":"Polygon","coordinates":[[[138.9866417273874,35.96666666666667],[138.9866475,35.9666888],[138.9864485,35.9667259],[138.9864049,35.9667353],[138.9863845,35.9667386],[138.9863727,35.9667405],[138.9863559,35.9667431],[138.9863467,35.9667446],[138.9862841,35.9667462],[138.9861945,35.9667421],[138.9861942,35.9667421],[138.9861146,35.9667331],[138.9861131,35.9667328],[138.9861343,35.9667247],[138.98628555513227,35.96666666666667],[138.9866417273874,35.96666666666667]]]},"properties":{"layer":"landuse","class_code":"211","class_label":"住宅用地（住宅、共同住宅、店舗等併用住宅、店舗等併用共同住宅、作業所併用住宅）"}},{"type":"Feature","id":"luse_ccd5a391-2f97-4c59-ae0a-27d8e2bfe2f2","geometry":{"type":"Polygon","coordinates":[[[138.98595217534793,35.96666666666667],[138.9859599,35.9666803],[138.9859605,35.966691],[138.9859574,35.9667052],[138.9859534,35.9667125],[138.9859423,35.9667199],[138.9858728,35.9667566],[138.9857687,35.9668195],[138.9856475,35.9667118],[138.98570647524565,35.96666666666667],[138.98595217534793,35.96666666666667]]]},"properties":{"layer":"landuse","class_code":"211","class_label":"住宅用地（住宅、共同住宅、店舗等併用住宅、店舗等併用共同住宅、作業所併用住宅）"}},{"type":"Feature","id":"luse_f6fb7cde-b072-43ee-a47b-45ddc6fd5efb","geometry":{"type":"Polygon","coordinates":[[[138.9773357818486,35.96666666666667],[138.9773357,35.9666673],[138.9773364,35.9667227],[138.977336,35.9667241],[138.9773313,35.9667412],[138.9772968,35.966796],[138.9772789,35.9668034],[138.9772632,35.9668033],[138.9772442,35.9668012],[138.9772058,35.96679],[138.9770232,35.966699],[138.9770041,35.9666877],[138.9770002,35.9666773],[138.976999,35.9666677],[138.9769994227273,35.96666666666667],[138.9773357818486,35.96666666666667]]]},"properties":{"layer":"landuse","class_code":"211","class_label":"住宅用地（住宅、共同住宅、店舗等併用住宅、店舗等併用共同住宅、作業所併用住宅）"}},{"type":"Feature","id":"luse_c3468560-62ab-457b-ad98-7b8485f2bc00","geometry":{"type":"Polygon","coordinates":[[[138.9866668,35.9668836],[138.9866358,35.9668932],[138.9863761,35.9669736],[138.9863492,35.9669284],[138.9863266,35.9668585],[138.9861999,35.9667919],[138.9861799,35.9667814],[138.9861896,35.9667825],[138.98619,35.9667825],[138.9862825,35.9667867],[138.9862829,35.9667867],[138.9863529,35.9667849],[138.9863872,35.9667794],[138.9864161,35.9667748],[138.9864604,35.9667652],[138.9866171,35.9667361],[138.9866518,35.9667585],[138.9866507,35.9667767],[138.9866513,35.966794],[138.9866611,35.9668568],[138.9866668,35.9668836]]]},"properties":{"layer":"landuse","class_code":"211","class_label":"住宅用地（住宅、共同住宅、店舗等併用住宅、店舗等併用共同住宅、作業所併用住宅）"}},{"type":"Feature","id":"luse_244bb691-77a2-4fcc-aea1-b4dd09211891","geometry":{"type":"Polygon","coordinates":[[[138.98178370785342,35.96666666666667],[138.9818111,35.9666821],[138.9818251,35.9666872],[138.9818543,35.9666925],[138.9818664,35.9666973],[138.9819279,35.9667393],[138.9819304,35.966741],[138.9819373,35.9667458],[138.9819635,35.9667714],[138.9819744,35.966786],[138.981986,35.966797],[138.9820046,35.9668113],[138.9820354,35.9668322],[138.9819577,35.9669647],[138.9817771,35.9668683],[138.9815595,35.9667497],[138.9816194625432,35.96666666666667],[138.98178370785342,35.96666666666667]]]},"properties":{"layer":"landuse","class_code":"211","class_label":"住宅用地（住宅、共同住宅、店舗等併用住宅、店舗等併用共同住宅、作業所併用住宅）"}},{"type":"Feature","id":"luse_f770eb08-8e4b-4ee5-82e3-1283b139ebec","geometry":{"type":"Polygon","coordinates":[[[138.9848964650228,35.96666666666667],[138.9848252,35.966758],[138.9848372,35.9668273],[138.9848793,35.9668691],[138.9848267,35.9669893],[138.984559,35.9669225],[138.9845274,35.9667282],[138.98458962162564,35.96666666666667],[138.9848964650228,35.96666666666667]]]},"properties":{"layer":"landuse","class_code":"211","class_label":"住宅用地（住宅、共同住宅、店舗等併用住宅、店舗等併用共同住宅、作業所併用住宅）"}},{"type":"Feature","id":"luse_68163433-0d9e-44d9-bc4e-300798d3887b","geometry":{"type":"Polygon","coordinates":[[[138.9828731,35.9673157],[138.9828633,35.9673166],[138.9828479,35.967318],[138.9827871,35.9673235],[138.9827868,35.9673236],[138.9827605,35.9673241],[138.9825277,35.9673203],[138.9825273,35.9673203],[138.9823012,35.9673124],[138.9823008,35.9673124],[138.982235,35.9673072],[138.9822089,35.9673017],[138.9821999,35.9672984],[138.9821921,35.9672936],[138.9821873,35.9672854],[138.9822075,35.9670463],[138.9822146,35.9669957],[138.9822173,35.9669987],[138.9822206,35.9670022],[138.9822255,35.9670056],[138.9822341,35.9670087],[138.9822406,35.9670099],[138.9822491,35.9670099],[138.9822546,35.967009],[138.9822943,35.9670026],[138.9823557,35.9669916],[138.9823678,35.9669908],[138.9823779,35.9669907],[138.9823883,35.9669911],[138.9823961,35.9669913],[138.9823883,35.9669279],[138.9823902,35.9669139],[138.9823967,35.9669006],[138.9824126,35.9668896],[138.9825524,35.9668661],[138.9825704,35.9668573],[138.9825817,35.9668473],[138.9825884,35.9668212],[138.9825974,35.9666977],[138.9825988,35.9666783],[138.9825993,35.966672],[138.98263470229884,35.96666666666667],[138.98263779151515,35.96666666666667],[138.9826376,35.9666772],[138.9826361,35.9667558],[138.9826785,35.9667433],[138.9828813,35.9667806],[138.9828968,35.9666862],[138.98289901903337,35.96666666666667],[138.98300495077262,35.96666666666667],[138.9830004,35.9666844],[138.983,35.9666936],[138.9830042,35.9666961],[138.9831935,35.9667491],[138.9831738,35.9668425],[138.9831565,35.9669068],[138.9831418,35.9669616],[138.9831096,35.9669844],[138.9830935,35.9669961],[138.9830777,35.9670059],[138.9830438,35.9670243],[138.9830036,35.9670281],[138.982975,35.9670287],[138.9828343,35.9670217],[138.9826979,35.9670039],[138.9825858,35.9669762],[138.9825746,35.9669774],[138.9825673,35.966986],[138.9825513,35.967082],[138.9825589,35.9670896],[138.9825615,35.967095],[138.9825687,35.9671412],[138.9825744,35.9671543],[138.9825814,35.9671606],[138.9825938,35.9671653],[138.9828947,35.9671946],[138.9829256,35.9672001],[138.9829449,35.9672109],[138.9829712,35.9672389],[138.9829816,35.967253],[138.98299,35.9672633],[138.9830027,35.9672726],[138.9830518,35.967282],[138.9830747,35.9672874],[138.9830871,35.967293],[138.9830952,35.9673008],[138.9831014,35.9673178],[138.9829067,35.9673126],[138.9828731,35.9673157]]]},"properties":{"layer":"landuse","class_code":"211","class_label":"住宅用地（住宅、共同住宅、店舗等併用住宅、店舗等併用共同住宅、作業所併用住宅）"}},{"type":"Feature","id":"luse_3dfa890c-2a0f-4958-a9c2-c23e20796ec0","geometry":{"type":"Polygon","coordinates":[[[138.984818,35.9673505],[138.9846817,35.9673914],[138.984615,35.9672399],[138.9847138,35.9671895],[138.9847795,35.9671537],[138.9849019,35.9670902],[138.9849813,35.9670566],[138.9850769,35.9670825],[138.9851026,35.9670878],[138.9851029,35.9670878],[138.9851917,35.9670965],[138.9852091,35.9670982],[138.9852399,35.9670994],[138.9853073,35.9670929],[138.9853435,35.9670821],[138.9854415,35.9670421],[138.9854486,35.9670387],[138.9855086,35.9670086],[138.9856572,35.9669259],[138.9857534,35.9668737],[138.9859032,35.9667836],[138.985987,35.966887],[138.9860345,35.9668656],[138.9860429,35.9668737],[138.9860972,35.9669354],[138.986114,35.9669575],[138.9861341,35.9669895],[138.9860949,35.9670244],[138.9859712,35.9671018],[138.9859727,35.96712],[138.9856132,35.9672652],[138.9855747,35.9672662],[138.9855516,35.9672652],[138.9855353,35.9672624],[138.985521,35.9672548],[138.9855006,35.9672189],[138.9853589,35.9672919],[138.9852483,35.9673329],[138.9851661,35.967346],[138.9851526,35.9673427],[138.9851249,35.967301],[138.9851196,35.96726],[138.984818,35.9673505]]]},"properties":{"layer":"landuse","class_code":"211","class_label":"住宅用地（住宅、共同住宅、店舗等併用住宅、店舗等併用共同住宅、作業所併用住宅）"}},{"type":"Feature","id":"luse_e2b7ad07-a6bc-4f46-b4fe-821ded58ec8b","geometry":{"type":"Polygon","coordinates":[[[138.9828004,35.9676781],[138.982557,35.9676972],[138.9823263,35.9677061],[138.9821511,35.9677048],[138.9820383,35.9677002],[138.982039,35.9676814],[138.9820441,35.9676473],[138.9820554,35.9676115],[138.9821767,35.9673439],[138.9821804,35.967341],[138.9821958,35.9673363],[138.9822299,35.9673385],[138.9822311,35.9673386],[138.9822315,35.9673387],[138.9822984,35.9673439],[138.9825263,35.9673518],[138.9827604,35.9673556],[138.9827607,35.9673556],[138.9827625,35.9673556],[138.9827658,35.9673837],[138.9827963,35.9676436],[138.9828004,35.9676781]]]},"properties":{"layer":"landuse","class_code":"211","class_label":"住宅用地（住宅、共同住宅、店舗等併用住宅、店舗等併用共同住宅、作業所併用住宅）"}},{"type":"Feature","id":"luse_e57fe326-991a-4d9f-9b81-8a1a855266fb","geometry":{"type":"Polygon","coordinates":[[[138.9821463,35.9673019],[138.9821445,35.9673156],[138.9821381,35.9673349],[138.9821337,35.9673481],[138.9820721,35.9674832],[138.9820582,35.9675135],[138.9820183,35.9676021],[138.982006,35.9676413],[138.9820003,35.9676787],[138.9819994,35.9677015],[138.9819972,35.9677578],[138.9819974,35.9677684],[138.9819607,35.9677534],[138.9819069,35.9677313],[138.9818898,35.9677225],[138.9818729,35.9677111],[138.9818599,35.9676985],[138.9818224,35.9675942],[138.981823,35.9675936],[138.9818138,35.9675676],[138.9818093,35.9675376],[138.9818098,35.9675203],[138.9818187,35.9675079],[138.9819236,35.967365],[138.9819212,35.9673637],[138.9818089,35.967302],[138.9817586,35.96727],[138.9818571,35.9671502],[138.9820079,35.9672073],[138.982053,35.9671675],[138.9820714,35.9671462],[138.9820967,35.9671085],[138.9821238,35.9670662],[138.9821715,35.9670176],[138.9821697,35.967034],[138.9821678,35.967056],[138.982159,35.967156],[138.9821463,35.9673019]]]},"properties":{"layer":"landuse","class_code":"211","class_label":"住宅用地（住宅、共同住宅、店舗等併用住宅、店舗等併用共同住宅、作業所併用住宅）"}},{"type":"Feature","id":"luse_506d5cda-bf4c-4a51-a7b3-4f1d19124d1d","geometry":{"type":"Polygon","coordinates":[[[138.9823553,35.9683635],[138.9823679,35.9683932],[138.9823606,35.9684199],[138.9823335,35.9684311],[138.9821389,35.9684503],[138.9821178,35.9683933],[138.9821071,35.9683528],[138.9823202,35.9683538],[138.9823553,35.9683635]]]},"properties":{"layer":"landuse","class_code":"211","class_label":"住宅用地（住宅、共同住宅、店舗等併用住宅、店舗等併用共同住宅、作業所併用住宅）"}},{"type":"Feature","id":"luse_a088159f-a460-4b2b-ad25-75eb313458ed","geometry":{"type":"Polygon","coordinates":[[[138.97783909974842,35.975],[138.9778221,35.9748644],[138.9778385,35.9748463],[138.9779427,35.9748375],[138.9781183,35.9748459],[138.9782544,35.9748676],[138.9783204006024,35.975],[138.97830969206353,35.975],[138.9781488,35.9749941],[138.9781480017647,35.975],[138.97783909974842,35.975]]]},"properties":{"layer":"landuse","class_code":"211","class_label":"住宅用地（住宅、共同住宅、店舗等併用住宅、店舗等併用共同住宅、作業所併用住宅）"}},{"type":"Feature","id":"luse_6b29411c-a10b-4176-950d-716fbc3470a4","geometry":{"type":"Polygon","coordinates":[[[138.986534,35.9672962],[138.9865414,35.9672989],[138.9865448,35.9673034],[138.9865462,35.9673078],[138.986546,35.9673151],[138.986542,35.9673616],[138.9865384,35.967366],[138.9865329,35.9673682],[138.9864532,35.9673618],[138.9864467,35.9673595],[138.9864441,35.9673548],[138.9864468,35.9672965],[138.9864549,35.9672903],[138.986534,35.9672962]]]},"properties":{"layer":"landuse","class_code":"214","class_label":"公益施設用地（官公庁施設、文教厚生施設、供給処理施設）"}},{"type":"Feature","id":"luse_3dc2c387-6986-45a5-878e-cfb8fc96eecd","geometry":{"type":"Polygon","coordinates":[[[138.97832799303882,35.96666666666667],[138.9783208,35.9666936],[138.9783095,35.966748],[138.9782933,35.9668079],[138.9782754,35.9668645],[138.9782102,35.9670302],[138.9781467,35.9672017],[138.9781026,35.9673025],[138.9780508,35.9674016],[138.9780219,35.9674526],[138.9780058,35.9674781],[138.9779079,35.9674405],[138.9778709,35.9673904],[138.9777385,35.9673565],[138.9779211,35.9667301],[138.9777914,35.9666966],[138.9777962,35.9666867],[138.97773576330533,35.96666666666667],[138.97832799303882,35.96666666666667]]]},"properties":{"layer":"landuse","class_code":"214","class_label":"公益施設用地（官公庁施設、文教厚生施設、供給処理施設）"}},{"type":"Feature","id":"luse_1dd42eb8-4583-4499-afae-7b30673d1683","geometry":{"type":"Polygon","coordinates":[[[138.9771738,35.9744655],[138.9771457,35.9745155],[138.9771432,35.9745224],[138.9771449,35.9745434],[138.9771537,35.9745575],[138.9770216,35.9744903],[138.9770833,35.9744186],[138.9771738,35.9744655]]]},"properties":{"layer":"landuse","class_code":"214","class_label":"公益施設用地（官公庁施設、文教厚生施設、供給処理施設）"}},{"type":"Feature","id":"luse_44335680-5dc9-4452-adde-308466adf2c2","geometry":{"type":"Polygon","coordinates":[[[138.98257582201836,35.975],[138.9825754,35.974998],[138.9825608,35.9749476],[138.9825425,35.974898],[138.9825188,35.9748436],[138.9825052,35.974817],[138.9824804,35.9747787],[138.9824507,35.9747429],[138.9824253,35.9747177],[138.9824048,35.9747004],[138.982376,35.974683],[138.982344,35.9746696],[138.9823166,35.974662],[138.9823162,35.9746619],[138.9822811,35.9746568],[138.9822704,35.9746566],[138.9822452,35.9746563],[138.9822335,35.9746585],[138.982177,35.9746722],[138.9821766,35.9746723],[138.9821224,35.9746911],[138.9820742,35.9747128],[138.9820256,35.9747404],[138.982001,35.974758],[138.9819748,35.9747728],[138.9819465,35.9747851],[138.9819169,35.9747949],[138.9818897,35.9748013],[138.9818467,35.9748088],[138.9818463,35.9748089],[138.9818247,35.97481],[138.9818119,35.9748106],[138.9817776,35.9748078],[138.9817772,35.9748077],[138.9817512,35.9748024],[138.9817193,35.9747917],[138.9817189,35.9747916],[138.981684,35.9747738],[138.9816346,35.9747425],[138.9815896,35.974707],[138.9815586,35.9746774],[138.9815229,35.9746357],[138.9814881,35.9745942],[138.9814596,35.9745507],[138.9814375,35.974505],[138.981421,35.9744561],[138.9814151,35.9744293],[138.9814054,35.9743784],[138.9813947,35.974344],[138.9813732,35.9742954],[138.9813227,35.9742168],[138.9813,35.9741847],[138.9812374,35.9741043],[138.9812002,35.9740616],[138.9811646,35.9740286],[138.9811175,35.9739928],[138.9809765,35.9739212],[138.9808712,35.9738621],[138.9808331,35.9738414],[138.9807967,35.973826],[138.9807963,35.9738259],[138.9807621,35.9738149],[138.9807291,35.9738056],[138.9806975,35.9737924],[138.980668,35.9737764],[138.9806401,35.9737576],[138.9806187,35.9737397],[138.9806047,35.9737155],[138.9805933,35.9736852],[138.9805883,35.9736615],[138.9805863,35.9736374],[138.9805877,35.9736133],[138.9805923,35.9735895],[138.9805997,35.973567],[138.9806092,35.9735481],[138.9806296,35.9735315],[138.9806535,35.9735163],[138.9806825,35.9735018],[138.9807097,35.9734914],[138.98071,35.9734913],[138.9807387,35.9734834],[138.9807744,35.9734749],[138.9807748,35.9734748],[138.9808583,35.9734628],[138.98096,35.973443],[138.9810273,35.9734258],[138.9810769,35.9734103],[138.9810773,35.9734102],[138.9811065,35.9733878],[138.9811326,35.9733628],[138.9811583,35.9733315],[138.9811763,35.9733023],[138.9811907,35.9732718],[138.9812007,35.97324],[138.9812046,35.9732198],[138.9812036,35.9731923],[138.9811987,35.9731649],[138.9811913,35.9731413],[138.9811795,35.9731154],[138.9811721,35.9731021],[138.9810498,35.9730064],[138.9810281,35.9729837],[138.9810122,35.9729597],[138.981002,35.9729363],[138.980996,35.9729097],[138.9809953,35.9728824],[138.9810001,35.9728553],[138.9810102,35.9728293],[138.9810252,35.9728054],[138.9810397,35.9727896],[138.9810624,35.9727697],[138.9810858,35.9727536],[138.981112,35.9727392],[138.9811397,35.9727271],[138.9811688,35.9727177],[138.9812165,35.9727062],[138.9812169,35.9727061],[138.9812386,35.9726985],[138.9812688,35.9726834],[138.981295,35.9726649],[138.9813172,35.9726432],[138.9813317,35.9726241],[138.9813361,35.9726039],[138.9813368,35.9725779],[138.9813338,35.9725583],[138.9813253,35.9725338],[138.9813122,35.9725105],[138.9812505,35.9724334],[138.9811487,35.9723145],[138.9810359,35.9721761],[138.9809323,35.9720553],[138.9809001,35.9720318],[138.9808621,35.9720072],[138.9808267,35.9719869],[138.9807764,35.9719626],[138.9807439,35.9719457],[138.9807192,35.9719297],[138.9806917,35.9719079],[138.9806745,35.9718918],[138.9806473,35.9718474],[138.9806266,35.9718019],[138.9806123,35.9717548],[138.9806045,35.9717068],[138.9806031,35.9716903],[138.9805868,35.9716216],[138.9805578,35.971531],[138.9805433,35.9715004],[138.9805225,35.9714636],[138.9805033,35.9714347],[138.9804825,35.9714066],[138.9804413,35.9713597],[138.9803728,35.9713029],[138.9802917,35.9712313],[138.9802659,35.9712135],[138.9802444,35.9711924],[138.9802271,35.9711689],[138.980216,35.9711467],[138.9802086,35.97112],[138.9802062,35.9710927],[138.9802068,35.9710829],[138.9802168,35.9710601],[138.9802341,35.9710327],[138.9802509,35.9710124],[138.98027,35.9709939],[138.9802919,35.9709771],[138.980312,35.9709644],[138.9803786,35.9709127],[138.9804461,35.9708649],[138.9804725,35.9708538],[138.9805008,35.9708464],[138.9805303,35.9708428],[138.9805398,35.9708427],[138.980553,35.9708427],[138.9805825,35.9708461],[138.9806109,35.9708534],[138.9806203,35.9708568],[138.9806206,35.9708569],[138.9806558,35.9708649],[138.9807097,35.9708895],[138.980742,35.9709058],[138.9807902,35.9709325],[138.9808368,35.9709615],[138.9808815,35.9709925],[138.980924,35.9710254],[138.9809641,35.9710602],[138.9810018,35.9710967],[138.9810517,35.9711521],[138.9811823,35.9712741],[138.9814166,35.9714818],[138.9814594,35.9715168],[138.9815034,35.971549],[138.9815503,35.9715799],[138.9816046,35.9716115],[138.9816301,35.9716174],[138.981659,35.9716206],[138.9816704,35.9716204],[138.9816908,35.97162],[138.981722,35.9716151],[138.9817452,35.9716086],[138.9817456,35.9716085],[138.9817712,35.9715925],[138.9817957,35.9715712],[138.981815,35.9715474],[138.9818296,35.9715213],[138.9818384,35.9714937],[138.9818416,35.9714741],[138.9818581,35.971431],[138.9818698,35.9713926],[138.981884,35.9712732],[138.9818855,35.9712376],[138.981882,35.9711886],[138.9818698,35.9711156],[138.9818499,35.9710691],[138.981829,35.9710322],[138.9818785,35.9710122],[138.9818878,35.9710272],[138.981913,35.9710774],[138.9819314,35.9711294],[138.9819425,35.9711829],[138.9819465,35.971237],[138.9819449,35.9712759],[138.9819388,35.9713318],[138.981924,35.9714023],[138.9819115,35.9714431],[138.9818963,35.9714832],[138.9818902,35.9715135],[138.9818819,35.9715365],[138.9818704,35.9715586],[138.9818561,35.9715796],[138.9818392,35.9715992],[138.9818194,35.9716171],[138.9817959,35.9716344],[138.9817721,35.9716484],[138.9817498,35.9716553],[138.9817237,35.9716612],[138.9817234,35.9716613],[138.9816968,35.9716648],[138.9816964,35.9716648],[138.9816775,35.9716656],[138.9816694,35.9716659],[138.9816422,35.9716647],[138.9816051,35.9716589],[138.9815792,35.971652],[138.9815168,35.9716157],[138.9814675,35.9715834],[138.9814213,35.9715495],[138.9813765,35.971513],[138.9811409,35.9713042],[138.9810078,35.9711798],[138.9809584,35.9711248],[138.9809226,35.9710901],[138.9808845,35.9710571],[138.9808444,35.9710259],[138.9808021,35.9709965],[138.9807579,35.970969],[138.9807118,35.9709435],[138.980633,35.9709063],[138.9806095,35.970901],[138.9805808,35.9708983],[138.9805804,35.9708983],[138.9805668,35.9708988],[138.9805518,35.9708993],[138.9805514,35.9708994],[138.9805216,35.9709046],[138.9804949,35.9709135],[138.98047,35.9709257],[138.9804274,35.970956],[138.9803583,35.9710095],[138.9803304,35.9710278],[138.9803083,35.9710478],[138.9802904,35.9710708],[138.9802784,35.9710936],[138.9802789,35.9711055],[138.9802828,35.9711231],[138.9802902,35.9711402],[138.9803032,35.9711585],[138.9803173,35.9711722],[138.9803406,35.9711879],[138.9804833,35.9713302],[138.9805291,35.9713821],[138.9805516,35.9714123],[138.9805719,35.9714431],[138.9805944,35.971483],[138.9806105,35.9715166],[138.9806409,35.9716118],[138.9806584,35.9716846],[138.9807154,35.9718059],[138.9807635,35.9718732],[138.9807833,35.9718904],[138.9808783,35.9719434],[138.9809045,35.9719634],[138.9809741,35.9720252],[138.9810817,35.9721507],[138.9812035,35.9722837],[138.9813057,35.9724031],[138.9813652,35.9724772],[138.9813827,35.9725045],[138.9813924,35.972526],[138.9813991,35.9725483],[138.9814029,35.972571],[138.9814034,35.9725981],[138.9814003,35.9726209],[138.9813943,35.9726433],[138.9813803,35.9726639],[138.9813628,35.9726842],[138.9813428,35.9727028],[138.9813202,35.9727195],[138.9812956,35.9727341],[138.9812692,35.9727464],[138.9812399,35.9727569],[138.9811903,35.9727689],[138.9811569,35.9727806],[138.9811262,35.9727965],[138.9811071,35.9728098],[138.9810833,35.972832],[138.9810718,35.9728499],[138.9810649,35.9728675],[138.9810616,35.9728857],[138.9810621,35.9729042],[138.9810662,35.9729224],[138.981073,35.972938],[138.9810839,35.9729542],[138.9810978,35.9729688],[138.981232,35.9730696],[138.9812538,35.9730897],[138.9812711,35.9731097],[138.9812873,35.9731339],[138.9812984,35.9731567],[138.9813075,35.973182],[138.9813175,35.9732054],[138.9813227,35.9732298],[138.981323,35.9732546],[138.9813183,35.973279],[138.981308,35.973304],[138.9812935,35.9733259],[138.9812743,35.9733458],[138.9812311,35.9733808],[138.9811832,35.9734116],[138.9811429,35.9734329],[138.9810888,35.9734556],[138.9810451,35.9734685],[138.9809753,35.9734864],[138.9809042,35.973501],[138.9807963,35.973517],[138.9807736,35.9735225],[138.9807517,35.973531],[138.9807514,35.9735312],[138.9807316,35.9735425],[138.9807165,35.9735547],[138.9807018,35.9735704],[138.9806905,35.9735879],[138.9806845,35.9736054],[138.9806808,35.9736288],[138.9806818,35.9736524],[138.9806876,35.9736755],[138.9806965,35.9736948],[138.9807105,35.9737154],[138.9807509,35.9737458],[138.9808132,35.9737826],[138.9808406,35.9737932],[138.9808815,35.9738127],[138.9810069,35.9738835],[138.981151,35.9739566],[138.9811798,35.9739772],[138.9812047,35.9739973],[138.9812436,35.9740335],[138.9812843,35.97408],[138.9813474,35.9741614],[138.9813715,35.9741951],[138.9814242,35.9742774],[138.9814477,35.9743309],[138.9814596,35.9743689],[138.9814703,35.9744242],[138.9814817,35.9744682],[138.9814994,35.9745114],[138.9815223,35.9745517],[138.9815503,35.9745896],[138.9815855,35.9746312],[138.9816205,35.9746677],[138.9816537,35.9746897],[138.9816961,35.9747195],[138.9816998,35.9747215],[138.9817405,35.9747446],[138.981761,35.9747526],[138.981762,35.974753],[138.9817882,35.974759],[138.9817886,35.9747591],[138.9818129,35.974761],[138.9818132,35.974761],[138.9818377,35.9747598],[138.9818755,35.9747531],[138.9819088,35.9747444],[138.9819091,35.9747444],[138.9819342,35.9747396],[138.9819345,35.9747396],[138.9819457,35.9747343],[138.981967,35.9747223],[138.9819868,35.9747081],[138.9820175,35.9746892],[138.9820691,35.9746628],[138.9821276,35.9746395],[138.982189,35.9746216],[138.9822379,35.9746114],[138.9822715,35.9746111],[138.9823014,35.9746134],[138.9823301,35.9746183],[138.9823304,35.9746184],[138.9823652,35.974628],[138.9823924,35.9746386],[138.9824177,35.9746515],[138.9824457,35.9746697],[138.9824855,35.9747059],[138.9825122,35.9747353],[138.9825425,35.9747766],[138.982567,35.97482],[138.9825929,35.9748776],[138.9826144,35.9749361],[138.9826347025216,35.975],[138.98257582201836,35.975]]]},"properties":{"layer":"landuse","class_code":"215","class_label":"道路用地（道路、駅前広場、私有地内に存在する沿道用途の「私道」または、私有地の一部分であるものの公共の通行に供されている土地の部分）"}},{"type":"Feature","id":"luse_a939f9b1-8618-4533-b639-b2bf1ab2febf","geometry":{"type":"Polygon","coordinates":[[[138.9764895,35.9691743],[138.9763574,35.9693627],[138.9763354,35.969389],[138.9762668,35.9693975],[138.9762175,35.9693693],[138.9761841,35.9693523],[138.9761582,35.9693379],[138.9759809,35.9692187],[138.9759264,35.9691712],[138.9758926,35.9691372],[138.9758152,35.969067],[138.9757904,35.9690486],[138.9757805,35.9690412],[138.9757478,35.9690199],[138.9757297,35.9690103],[138.975725,35.9690042],[138.9757251,35.9689998],[138.9757334,35.9689972],[138.9757337,35.9689972],[138.9757383,35.9689973],[138.9757479,35.9689975],[138.9757948,35.9689985],[138.9758194,35.968999],[138.9758197,35.968999],[138.9758343,35.9689999],[138.9761636,35.9690197],[138.9764343,35.9690174],[138.9764895,35.9691743]]]},"properties":{"layer":"landuse","class_code":"223","class_label":"その他④（その他①～③以外の用途に供されている都市的土地利用（建物跡地、資材置場、改変工事中の土地）、法面（道路、造成地等の主利用に含まれない法面））"}},{"type":"Feature","id":"luse_ff3eb121-7a1c-44fb-8720-baeb09e62ac8","geometry":{"type":"Polygon","coordinates":[[[138.9765316,35.9696169],[138.9766147,35.969683],[138.9766417,35.9697921],[138.9766104,35.9698755],[138.9765341,35.969944],[138.9764028,35.9700412],[138.9762646,35.970186],[138.9761802,35.9703223],[138.9760638,35.9704469],[138.9759234,35.9704277],[138.9760417,35.9701802],[138.9761783,35.9698981],[138.976223,35.9698052],[138.9762806,35.9696926],[138.9763237,35.9696122],[138.9763428,35.9695768],[138.9763478,35.9695592],[138.9763478,35.9695587],[138.9763607,35.9695388],[138.9765316,35.9696169]]]},"properties":{"layer":"landuse","class_code":"223","class_label":"その他④（その他①～③以外の用途に供されている都市的土地利用（建物跡地、資材置場、改変工事中の土地）、法面（道路、造成地等の主利用に含まれない法面））"}},{"type":"Feature","id":"luse_b67ae914-7b7e-4f1c-bbfc-84a9e42a4bb6","geometry":{"type":"Polygon","coordinates":[[[138.975,35.96894758535714],[138.9750831,35.9689647],[138.9750967,35.9689675],[138.9753532,35.9690594],[138.9754599,35.9691147],[138.9756198,35.9692717],[138.9757884,35.969479],[138.9757954,35.9695317],[138.9757385,35.9699296],[138.9757203,35.9699601],[138.9752695,35.9697854],[138.975,35.97026414663678],[138.975,35.97069370916754],[138.9751808,35.9707632],[138.975,35.9709747323728],[138.975,35.96894758535714]]]},"properties":{"layer":"landuse","class_code":"223","class_label":"その他④（その他①～③以外の用途に供されている都市的土地利用（建物跡地、資材置場、改変工事中の土地）、法面（道路、造成地等の主利用に含まれない法面））"}},{"type":"Feature","id":"luse_7d9e1c38-637d-4db6-a4a2-578fd1785e6a","geometry":{"type":"Polygon","coordinates":[[[138.9853105,35.9669589],[138.9852192,35.967067],[138.9852125,35.9670668],[138.9852121,35.9670668],[138.9851099,35.9670568],[138.9850882,35.9670523],[138.985081,35.9670502],[138.9852099,35.9669015],[138.9853105,35.9669589]]]},"properties":{"layer":"landuse","class_code":"219","class_label":"農林漁業施設用地（農林漁業用施設）"}},{"type":"Feature","id":"luse_3964be49-9cc2-4fa0-bba1-1fa2c8a5ff6c","geometry":{"type":"Polygon","coordinates":[[[138.9757203,35.9699601],[138.9758119,35.9699956],[138.9757923,35.9700539],[138.9756876,35.9703917],[138.9756303,35.9704963],[138.975521,35.9707682],[138.9755602,35.9707804],[138.975482,35.9708789],[138.9751808,35.9707632],[138.975,35.97069370916754],[138.975,35.97026414663678],[138.9752695,35.9697854],[138.9757203,35.9699601]]]},"properties":{"layer":"landuse","class_code":"221","class_label":"その他②（太陽光発電のシステムを直接整備している土地）"}},{"type":"Feature","id":"luse_a5045f11-d11b-4023-9064-160ac1704564","geometry":{"type":"MultiPolygon","coordinates":[[[[138.9818187,35.9675079],[138.9817091,35.9675256],[138.9816557,35.9675278],[138.9816069,35.9675223],[138.9815383,35.9674916],[138.9814987,35.9674573],[138.9812956,35.967194],[138.981027,35.9668317],[138.9809391,35.9666879],[138.9809186640558,35.96666666666667],[138.98245297091722,35.96666666666667],[138.982426,35.966674],[138.9824108,35.9666788],[138.9823819,35.9666903],[138.982362,35.9667015],[138.9823587,35.9667033],[138.9823317,35.9667228],[138.9823278,35.9667264],[138.9822943,35.9667575],[138.9822549,35.9668099],[138.9822031,35.9668845],[138.9821952,35.9669029],[138.9821882,35.9669259],[138.9821828,35.9669534],[138.9821715,35.9670176],[138.9821238,35.9670662],[138.9820967,35.9671085],[138.9820714,35.9671462],[138.982053,35.9671675],[138.9820079,35.9672073],[138.9818571,35.9671502],[138.9817586,35.96727],[138.9818089,35.967302],[138.9819212,35.9673637],[138.9819236,35.967365],[138.9818187,35.9675079]]],[[[138.9816194625432,35.96666666666667],[138.9815595,35.9667497],[138.9817771,35.9668683],[138.9819577,35.9669647],[138.9820354,35.9668322],[138.9820046,35.9668113],[138.981986,35.966797],[138.9819744,35.966786],[138.9819635,35.9667714],[138.9819373,35.9667458],[138.9819304,35.966741],[138.9819279,35.9667393],[138.9818664,35.9666973],[138.9818543,35.9666925],[138.9818251,35.9666872],[138.9818111,35.9666821],[138.98178370785342,35.96666666666667],[138.9816194625432,35.96666666666667]]]]},"properties":{"layer":"landuse","class_code":"202","class_label":"畑（畑、樹園地、採草地、養鶏（牛・豚）場）"}}]}