{"type":"FeatureCollection","properties":{"mesh_code":"53387738","source":"PLATEAU秩父市2025","layer":"landuse"},"features":[{"type":"Feature","id":"luse_f5e6f3d6-cc18-461b-8a6b-6e5f2c3b1e00","geometry":{"type":"Polygon","coordinates":[[[138.975,35.94166666666667],[138.975,35.94166666666667],[138.975,35.94498592016806],[138.9750234,35.9449637],[138.9750463,35.9449474],[138.9751318,35.9448768],[138.9752257,35.9447896],[138.9753423,35.9446893],[138.975422,35.9446239],[138.9755858,35.9444565],[138.975657,35.9443647],[138.9757164,35.944282],[138.9757442,35.944232],[138.9757531,35.9442243],[138.9757637,35.9442185],[138.9757741,35.9442155],[138.9757745,35.9442154],[138.9757872,35.9442144],[138.9758001,35.9442159],[138.975812,35.9442199],[138.9758225,35.9442262],[138.9758306,35.9442345],[138.9758352,35.9442424],[138.9758552,35.9443097],[138.9758688,35.9443785],[138.975865,35.944442],[138.9758574,35.944493],[138.9758425,35.9445594],[138.9758428,35.9445827],[138.9758455,35.9446004],[138.9758523,35.9446232],[138.9758638,35.9446478],[138.9758767,35.9446666],[138.9758884,35.9446917],[138.9758943,35.9447127],[138.975897,35.9447424],[138.9758867,35.9447791],[138.9758746,35.9448093],[138.9758262,35.9448772],[138.9758022,35.9449085],[138.9757747,35.9449731],[138.9757603,35.9450207],[138.9757325,35.9450869],[138.9757083,35.9451272],[138.9756975,35.9451944],[138.9756861,35.9453707],[138.97569,35.9453786],[138.9756981,35.945384],[138.9757064,35.9453855],[138.9757165,35.9453835],[138.9757242,35.9453783],[138.9757534,35.9453104],[138.9757961,35.9452349],[138.9758423,35.9451706],[138.9758718,35.9451255],[138.9758893,35.945106],[138.9759141,35.9450864],[138.9759386,35.9450727],[138.975962,35.9450634],[138.9760367,35.9450382],[138.9761686,35.9449994],[138.9762018,35.9449874],[138.9762478,35.9449665],[138.9762773,35.9449497],[138.9763237,35.9449169],[138.9763468,35.9448968],[138.9763811,35.9448589],[138.9763983,35.9448353],[138.9764207,35.9447956],[138.9764368,35.9447707],[138.9764483,35.944744],[138.9764529,35.9447243],[138.9764552,35.9446961],[138.9764522,35.9446567],[138.9764543,35.944629],[138.9764636,35.9445901],[138.9764688,35.94458],[138.9764769,35.9445712],[138.9764861,35.9445649],[138.9764983,35.9445601],[138.9765115,35.944558],[138.9765118,35.944558],[138.9765201,35.9445583],[138.9765251,35.9445586],[138.9765322,35.9445601],[138.9765326,35.9445601],[138.9765723,35.9445939],[138.9766217,35.9446251],[138.9766492,35.9446402],[138.9766779,35.9446535],[138.9766782,35.9446536],[138.9767251,35.9446705],[138.9767567,35.9446789],[138.976789,35.9446852],[138.9768158,35.9446889],[138.976865,35.9446984],[138.9769151,35.9447048],[138.9769472,35.9447071],[138.9769475,35.9447071],[138.9770196,35.9447077],[138.9770578,35.9447037],[138.977115,35.9446928],[138.9771514,35.9446827],[138.977187,35.9446702],[138.9772708,35.9446451],[138.9773349,35.944629],[138.9773574,35.9446278],[138.9774064,35.9446251],[138.9774284,35.9446258],[138.9774674,35.944627],[138.9774678,35.944627],[138.9775035,35.944634],[138.9775404,35.9446364],[138.9775585,35.9446356],[138.9775689,35.9446351],[138.977604,35.9446294],[138.9776519,35.9446213],[138.9776964,35.9446076],[138.9777298,35.944593],[138.9777565,35.9445791],[138.9777764,35.9445715],[138.9778067,35.9445638],[138.977838,35.9445602],[138.977905,35.9445639],[138.9779112,35.9445643],[138.9779482,35.9445663],[138.977972,35.9445617],[138.9779724,35.9445616],[138.9779947,35.9445541],[138.977995,35.9445539],[138.9780206,35.9445409],[138.9780386,35.9445273],[138.9780541,35.9445116],[138.9780717,35.9444871],[138.9780862,35.9444695],[138.9781026,35.9444529],[138.9781205,35.9444375],[138.9781547,35.9444134],[138.9782009,35.9443972],[138.9782314,35.94439],[138.9782317,35.9443899],[138.9782811,35.9443838],[138.9783141,35.9443833],[138.9784094,35.9443747],[138.9784835,35.944372],[138.9785308,35.944366],[138.9786012,35.9443625],[138.9786016,35.9443625],[138.9786492,35.9443639],[138.9786795,35.9443665],[138.9786799,35.9443665],[138.9787075,35.9443704],[138.9787079,35.9443704],[138.9787402,35.9443704],[138.9787682,35.9443666],[138.9787795,35.944364],[138.9787994,35.9443511],[138.9788151,35.9443348],[138.9788241,35.9443189],[138.9788298,35.9442989],[138.9788303,35.9442837],[138.9788028,35.9441726],[138.978803,35.9441591],[138.9788073,35.9441462],[138.9788148,35.9441343],[138.9788241,35.9441256],[138.978837,35.9441175],[138.9788522,35.9441121],[138.9788571,35.9441113],[138.9788634,35.9441102],[138.9788905,35.9441108],[138.9789394,35.9441075],[138.9789661,35.9441033],[138.9789985,35.9440958],[138.9790194,35.9440863],[138.9790383,35.9440742],[138.9790545,35.9440599],[138.9790651,35.9440474],[138.9790759,35.94403],[138.9790829,35.9440113],[138.9790852,35.9440023],[138.9791068,35.9440056],[138.9791046,35.9440155],[138.9790964,35.9440367],[138.9790841,35.9440566],[138.9790716,35.9440711],[138.9790534,35.9440875],[138.9790317,35.9441013],[138.9790072,35.9441124],[138.9790069,35.9441125],[138.9789712,35.9441209],[138.978955,35.9441235],[138.9789429,35.9441254],[138.978904,35.944128],[138.9788908,35.9441288],[138.978865,35.9441282],[138.9788516,35.9441316],[138.9788395,35.9441386],[138.9788312,35.9441472],[138.9788257,35.9441586],[138.978825,35.9441707],[138.9788524,35.9442814],[138.9788527,35.9442924],[138.9788505,35.944309],[138.9788453,35.944325],[138.978837,35.94434],[138.9788223,35.9443576],[138.978808,35.9443694],[138.9787893,35.9443805],[138.978789,35.9443805],[138.978758,35.9443868],[138.9787374,35.9443887],[138.978737,35.9443887],[138.9787057,35.9443884],[138.9786762,35.9443843],[138.9786478,35.944382],[138.9786474,35.9443819],[138.9786014,35.9443805],[138.978601,35.9443805],[138.9785334,35.9443839],[138.9784857,35.9443901],[138.9784111,35.9443927],[138.9783151,35.9444013],[138.9783077,35.9444014],[138.9782828,35.9444018],[138.9782363,35.9444076],[138.9782079,35.9444142],[138.9781665,35.9444288],[138.978136,35.9444504],[138.9781042,35.9444803],[138.9780776,35.9445148],[138.9780642,35.9445309],[138.978045,35.9445476],[138.9780229,35.9445616],[138.9780049,35.9445701],[138.9779792,35.9445789],[138.9779788,35.9445788],[138.9779499,35.9445844],[138.9779495,35.9445845],[138.9778384,35.9445782],[138.9778257,35.9445793],[138.9778253,35.9445794],[138.9777981,35.9445844],[138.9777668,35.944595],[138.9777418,35.9446081],[138.977706,35.944624],[138.9776582,35.9446386],[138.9776578,35.9446386],[138.9776086,35.9446471],[138.9776082,35.9446471],[138.9775717,35.944653],[138.9775714,35.944653],[138.9775403,35.9446545],[138.97754,35.9446545],[138.9775,35.9446519],[138.9774636,35.9446449],[138.9774066,35.9446432],[138.9774062,35.9446432],[138.9773593,35.9446457],[138.9773393,35.9446468],[138.977339,35.9446468],[138.9772781,35.9446622],[138.9772777,35.9446623],[138.9771955,35.9446869],[138.9771596,35.9446996],[138.9771215,35.94471],[138.9770615,35.9447215],[138.9770215,35.9447257],[138.9769463,35.9447251],[138.9769459,35.9447251],[138.9769123,35.9447227],[138.9768607,35.9447161],[138.9768114,35.9447065],[138.9767848,35.9447029],[138.9767844,35.9447029],[138.9767506,35.9446962],[138.9767176,35.9446874],[138.976668,35.9446696],[138.9766374,35.9446556],[138.9766093,35.94464],[138.976558,35.9446076],[138.976521,35.9445763],[138.9765206,35.9445763],[138.9765132,35.944576],[138.9765017,35.9445785],[138.9764926,35.9445838],[138.9764863,35.9445919],[138.9764763,35.9446311],[138.9764745,35.9446566],[138.9764774,35.9446959],[138.9764751,35.9447268],[138.9764696,35.9447487],[138.9764572,35.9447778],[138.9764405,35.9448036],[138.9764178,35.9448438],[138.9763999,35.9448686],[138.9763855,35.9448859],[138.9763636,35.9449085],[138.9763396,35.9449297],[138.9763202,35.9449445],[138.9762909,35.944964],[138.97626,35.9449817],[138.9762116,35.9450036],[138.9761768,35.9450162],[138.9760447,35.945055],[138.9759707,35.94508],[138.9759497,35.9450884],[138.9759278,35.9451006],[138.9759061,35.9451178],[138.9758909,35.9451348],[138.9758616,35.9451793],[138.975816,35.9452433],[138.9757741,35.9453173],[138.9757438,35.9453871],[138.9757397,35.9453915],[138.9757317,35.9453973],[138.9757314,35.9453973],[138.975722,35.9454013],[138.9757114,35.9454034],[138.9757051,35.9454033],[138.975704,35.9454033],[138.9757006,35.9454033],[138.9756882,35.9454002],[138.9756757,35.9453927],[138.9756692,35.9453856],[138.9756652,35.9453774],[138.9756638,35.9453687],[138.9756751,35.9451927],[138.9756867,35.945122],[138.9757123,35.9450794],[138.975739,35.9450158],[138.9757534,35.9449679],[138.9757819,35.9449006],[138.9758073,35.9448678],[138.9758543,35.9448019],[138.9758652,35.9447742],[138.9758747,35.9447405],[138.9758724,35.9447155],[138.975867,35.9446963],[138.9758567,35.9446744],[138.9758442,35.9446559],[138.975831,35.9446284],[138.9758238,35.9446037],[138.9758208,35.944584],[138.9758201,35.9445578],[138.9758353,35.9444903],[138.9758428,35.9444405],[138.9758465,35.9443795],[138.9758333,35.9443132],[138.975814,35.9442479],[138.9758095,35.9442414],[138.975801,35.9442355],[138.9757905,35.9442326],[138.9757794,35.944233],[138.9757703,35.9442362],[138.9757624,35.9442425],[138.9757363,35.9442901],[138.975676,35.9443741],[138.975604,35.9444669],[138.9754385,35.9446359],[138.9753583,35.9447018],[138.9752423,35.9448018],[138.9751481,35.9448891],[138.9750612,35.9449608],[138.975039,35.9449764],[138.9750176,35.9449969],[138.9750028,35.9450159],[138.975,35.945021002222234],[138.975,35.94166666666667]]]},"properties":{"layer":"landuse","class_code":"215","class_label":"道路用地（道路、駅前広場、私有地内に存在する沿道用途の「私道」または、私有地の一部分であるものの公共の通行に供されている土地の部分）"}}]}