{"type":"FeatureCollection","properties":{"mesh_code":"53397030","source":"PLATEAU秩父市2025","layer":"landuse"},"features":[{"type":"Feature","id":"luse_f393a9b5-21a8-45de-87ad-10fffb4d73d6","geometry":{"type":"Polygon","coordinates":[[[139.0125,35.94166666666667],[139.0125,35.941823655307104],[139.0123354,35.9418128],[139.012277,35.9418107],[139.0122468,35.9418095],[139.0121959,35.9418094],[139.01218509448356,35.94166666666667],[139.0125,35.94166666666667]]]},"properties":{"layer":"landuse","class_code":"211","class_label":"住宅用地（住宅、共同住宅、店舗等併用住宅、店舗等併用共同住宅、作業所併用住宅）"}},{"type":"Feature","id":"luse_f7c411e3-28f8-49a6-aa9b-39c49a18a74f","geometry":{"type":"Polygon","coordinates":[[[139.01218509448356,35.94166666666667],[139.0121959,35.9418094],[139.0120903,35.941809],[139.0120739,35.941809],[139.0120232,35.9418103],[139.0120197,35.9418103],[139.0117991,35.9418221],[139.0117489,35.9418222],[139.0117277,35.9418213],[139.011699,35.9418201],[139.0116986,35.94182],[139.0116799,35.9418184],[139.0116753,35.941818],[139.0116489,35.9418157],[139.0115994,35.9418092],[139.0115218,35.9417943],[139.0114739,35.9417821],[139.0113301,35.9417214],[139.011235,35.9416812],[139.0112138,35.941675],[139.0111901,35.9416724],[139.0111612,35.9416693],[139.01109187670687,35.94166666666667],[139.01218509448356,35.94166666666667]]]},"properties":{"layer":"landuse","class_code":"203","class_label":"山林（樹林地）"}},{"type":"Feature","id":"luse_5c026a62-2d5e-4cf7-9809-e20a685bab4b","geometry":{"type":"Polygon","coordinates":[[[139.0,35.95],[139.0,35.94208827171001],[139.0001181,35.9420275],[139.0002656,35.9419638],[139.0002836,35.9419576],[139.0003006,35.9419494],[139.0003161,35.9419385],[139.0003288,35.9419263],[139.000339,35.9419126],[139.0003674,35.9418426],[139.000389,35.9418134],[139.0004146,35.941786],[139.0004286,35.9417733],[139.0004462,35.941756],[139.0004663,35.9417404],[139.000501,35.941721],[139.0005258,35.9417114],[139.0005262,35.9417113],[139.0005524,35.9417044],[139.0005729,35.9417009],[139.0005757,35.9417009],[139.000578,35.941701],[139.0005907,35.9417013],[139.0006078,35.9417052],[139.0006234,35.9417124],[139.0006374,35.9417243],[139.0006462,35.941737],[139.0006506,35.941751],[139.0006511,35.941756],[139.000612,35.9418051],[139.0005839,35.9418335],[139.0005279,35.941879],[139.0003433,35.9419759],[139.0001874,35.9420747],[139.0001654,35.9420948],[139.0001454,35.9421175],[139.0001281,35.9421415],[139.0001134,35.9421669],[139.0001022,35.9421932],[139.0000937,35.9422202],[139.0000887,35.9422466],[139.0000867,35.9422744],[139.000088,35.9423023],[139.0000924,35.94233],[139.0001004,35.9423572],[139.0001086,35.942378],[139.0001112,35.9423991],[139.0001087,35.9424235],[139.0001003,35.9424479],[139.0000862,35.9424704],[139.0000676,35.9424896],[139.0000495,35.9425025],[139.0000234,35.9425101],[139.0,35.94251500786517],[139.0,35.94355676119291],[139.0000433,35.9434172],[139.0000506,35.9433805],[139.0000515,35.943342],[139.0000455,35.9433037],[139.0000333,35.9432675],[139.0000245,35.9432494],[139.0000032,35.9432159],[139.0,35.943212242857136],[139.0,35.942899572937606],[139.0004382,35.9430519],[139.0004385,35.943052],[139.0005152,35.9430547],[139.0005155,35.9430547],[139.0005929,35.9430483],[139.0006684,35.9430332],[139.0006687,35.9430331],[139.0007445,35.9429998],[139.0008206,35.9429478],[139.0008844,35.9429014],[139.0009111,35.9428355],[139.0009284,35.9427631],[139.0009319,35.9427306],[139.0009311,35.9426604],[139.0009334,35.9426394],[139.0009379,35.9426256],[139.0009448,35.9426126],[139.0009539,35.9426005],[139.000965,35.9425896],[139.0009779,35.94258],[139.0009913,35.9425727],[139.0010069,35.9425663],[139.0010236,35.9425619],[139.0010404,35.9425594],[139.0010408,35.9425594],[139.001058,35.9425589],[139.0012047,35.9425677],[139.0014632,35.9425788],[139.0017515,35.9425745],[139.0017679,35.9425712],[139.001818,35.942557],[139.0018184,35.9425569],[139.0018674,35.9425365],[139.0019124,35.9425107],[139.0019524,35.9424798],[139.0019854,35.9424459],[139.0020159,35.9424029],[139.002036,35.9423612],[139.0020471,35.9423225],[139.0020661,35.9422741],[139.0020964,35.9422221],[139.0021356,35.9421739],[139.0021637,35.942147],[139.0022117,35.9421104],[139.0022606,35.9420925],[139.0023251,35.9420651],[139.0024001,35.9420264],[139.0024185,35.9420183],[139.0024188,35.9420182],[139.0024347,35.9420068],[139.0024462,35.9419934],[139.0024543,35.9419775],[139.0024573,35.9419604],[139.0024575,35.941926],[139.0024534,35.9418868],[139.0024469,35.9418579],[139.0024282,35.9417928],[139.002409,35.9417428],[139.0023898,35.9417053],[139.0023776,35.941685],[139.00235889504503,35.94166666666667],[139.01065623555556,35.94166666666667],[139.0106732,35.941674],[139.010752,35.9417093],[139.010793,35.9417141],[139.0107933,35.9417142],[139.0107982,35.9417143],[139.0108048,35.9417144],[139.0108214,35.9417149],[139.0108347,35.9417152],[139.0108756,35.9417128],[139.011155,35.9417232],[139.0111553,35.9417232],[139.0111978,35.9417279],[139.0111982,35.941728],[139.0112084,35.9417309],[139.01131,35.9417738],[139.0114484,35.9418323],[139.0115035,35.9418463],[139.0115038,35.9418464],[139.0115555,35.941857],[139.0116197,35.9418664],[139.0116262,35.9418673],[139.01164,35.9418693],[139.0116603,35.9418711],[139.0116935,35.941874],[139.0117473,35.9418762],[139.0118008,35.9418762],[139.0118013,35.9418761],[139.012023,35.9418644],[139.0120392,35.9418639],[139.0120434,35.9418639],[139.0120439,35.9418639],[139.0120749,35.9418631],[139.0120886,35.9418631],[139.012245,35.9418636],[139.0123307,35.9418668],[139.0123311,35.9418668],[139.0125,35.941875804823695],[139.0125,35.95],[139.01182792517682,35.95],[139.0118301,35.9499504],[139.0118233,35.9498836],[139.0118185,35.9498501],[139.0117635,35.949855],[139.0117181,35.9499328],[139.0117161,35.9499784],[139.0117222173913,35.95],[139.00871829099526,35.95],[139.008652,35.9499794],[139.0086044,35.9499629],[139.0085577,35.9499444],[139.0084783,35.9499078],[139.0084364,35.9498852],[139.0083755,35.9498365],[139.0083253,35.949792],[139.0082777,35.9497456],[139.0082326,35.9496974],[139.008176,35.949629],[139.0081383,35.9495774],[139.0081066,35.9495269],[139.008084,35.9494956],[139.0080595,35.949465],[139.0080332,35.9494355],[139.0080052,35.9494071],[139.0079757,35.9493798],[139.007945,35.949354],[139.0077329,35.9491765],[139.0076988,35.9491502],[139.0076636,35.9491289],[139.0076234,35.9491113],[139.0075646,35.9490925],[139.0075155,35.9490788],[139.0075152,35.9490787],[139.0074715,35.9490755],[139.0074705,35.9490754],[139.0074352,35.9490727],[139.0073867,35.9490192],[139.0073639,35.9489899],[139.0073429,35.9489599],[139.0073236,35.9489291],[139.0073014,35.9488885],[139.0072863,35.9488561],[139.0072732,35.9488232],[139.0072618,35.9487899],[139.0072526,35.9487561],[139.0072452,35.948722],[139.0072398,35.9486877],[139.0072125,35.9484077],[139.0071613,35.9480468],[139.0071469,35.9479978],[139.0071353,35.9479484],[139.0071266,35.9478987],[139.0071208,35.9478487],[139.0071178,35.9477891],[139.0071183,35.9477389],[139.0071218,35.9476887],[139.0071283,35.9476386],[139.0071376,35.9475889],[139.0071523,35.9475308],[139.0071932,35.9474319],[139.0072399,35.9473347],[139.0072663,35.9472849],[139.0073214,35.9471907],[139.0073819,35.9470987],[139.0074462,35.9470112],[139.0074285,35.9469997],[139.0073626,35.9470898],[139.0073016,35.9471826],[139.0072461,35.9472775],[139.0072192,35.9473279],[139.0071724,35.9474258],[139.0071308,35.9475259],[139.0071158,35.9475858],[139.0071063,35.9476363],[139.0070998,35.9476872],[139.007096,35.9477382],[139.0070956,35.9477894],[139.0070979,35.9478403],[139.0071046,35.9479008],[139.007113,35.9479503],[139.0071133,35.9479514],[139.0071252,35.9480016],[139.0071394,35.9480499],[139.0071903,35.9484094],[139.0072178,35.9486895],[139.007223,35.9487247],[139.0072306,35.9487596],[139.0072402,35.9487942],[139.0072519,35.9488284],[139.0072654,35.9488621],[139.0072809,35.9488953],[139.0072982,35.9489277],[139.0073232,35.9489685],[139.0073449,35.9489993],[139.0073681,35.9490292],[139.0073792,35.9490416],[139.007407,35.9490725],[139.0073961,35.9490727],[139.0070092,35.9490807],[139.0070088,35.9490807],[139.0069475,35.9490804],[139.0069471,35.9490804],[139.006886,35.9490779],[139.0068856,35.9490779],[139.0068246,35.9490729],[139.0067638,35.9490657],[139.0067635,35.9490656],[139.006703,35.9490561],[139.0066355,35.9490423],[139.0065768,35.9490279],[139.0065764,35.9490278],[139.0065188,35.9490111],[139.0065184,35.949011],[139.0064616,35.9489921],[139.0064059,35.948971],[139.0064056,35.9489709],[139.0062024,35.948886],[139.0060733,35.9488338],[139.006073,35.9488337],[139.0060357,35.9488226],[139.0060088,35.9488178],[139.0060084,35.9488177],[139.00598,35.9488181],[139.0059503,35.9488215],[139.00593,35.9488252],[139.0058771,35.9488408],[139.0057643,35.9488791],[139.0056542,35.9489217],[139.0055151,35.9489829],[139.0054111,35.949035],[139.00531,35.9490909],[139.0052017,35.9491576],[139.0051729,35.9491707],[139.0051425,35.9491789],[139.0051411,35.9491793],[139.0051064,35.9491826],[139.0050739,35.9491806],[139.0050695,35.9491797],[139.0049972,35.9491653],[139.0049836,35.9491602],[139.0049825,35.9491597],[139.0049537,35.9491492],[139.0049209,35.949131],[139.0048866,35.9491037],[139.0048594,35.9490718],[139.0048411,35.9490381],[139.0048538,35.9490094],[139.0048582,35.9489862],[139.0048612,35.948971],[139.0048595,35.9489324],[139.0048518,35.9489023],[139.0048343,35.9488663],[139.004815,35.9488416],[139.0048092,35.9488341],[139.00478,35.9488078],[139.0047687,35.9487938],[139.0047584,35.9487745],[139.0047552,35.948763],[139.0047527,35.948754],[139.0047519,35.9487331],[139.0047569,35.948708],[139.0047557,35.9486863],[139.0047495,35.948665],[139.0047385,35.9486451],[139.0047241,35.9486282],[139.0047048,35.948613],[139.0046824,35.9486008],[139.0046577,35.9485923],[139.0046318,35.9485879],[139.004618,35.9485872],[139.0046066,35.9485891],[139.0043286,35.9487044],[139.0043283,35.9487046],[139.0041463,35.9487744],[139.004146,35.9487745],[139.0040733,35.9487921],[139.0039974,35.9487982],[139.003997,35.9487982],[139.0039894,35.9487976],[139.0039171,35.9487916],[139.0038445,35.9487735],[139.0038423,35.9487726],[139.0037992,35.9487552],[139.0036917,35.9486637],[139.0036758,35.9486762],[139.0037857,35.9487699],[139.0038363,35.9487903],[139.0038907,35.9488039],[139.0039126,35.9488093],[139.0039919,35.9488162],[139.0040228,35.9488139],[139.0040777,35.9488099],[139.0041541,35.9487914],[139.0043384,35.9487207],[139.0046165,35.9486052],[139.0046169,35.9486052],[139.0046258,35.9486056],[139.0046288,35.9486058],[139.004651,35.9486096],[139.0046721,35.9486167],[139.0046908,35.948627],[139.0047071,35.9486399],[139.0047191,35.9486541],[139.0047283,35.9486708],[139.0047338,35.9486888],[139.0047347,35.9487072],[139.0047295,35.9487319],[139.0047306,35.9487563],[139.004737,35.9487801],[139.0047492,35.9488025],[139.0047627,35.948819],[139.0047912,35.9488447],[139.0048144,35.9488746],[139.0048305,35.9489075],[139.0048374,35.9489346],[139.0048389,35.9489699],[139.0048322,35.9490049],[139.0048173,35.9490383],[139.0048398,35.9490807],[139.0048696,35.9491154],[139.0049068,35.949145],[139.0049428,35.949165],[139.0049901,35.9491824],[139.00507,35.9491984],[139.0050704,35.9491984],[139.0051068,35.9492007],[139.0051432,35.9491974],[139.0051435,35.9491973],[139.0051819,35.9491872],[139.005214,35.9491726],[139.0052328,35.949161],[139.005323,35.9491056],[139.0054231,35.9490501],[139.0055263,35.9489985],[139.0056323,35.9489509],[139.0057735,35.9488956],[139.0058852,35.9488576],[139.0059362,35.9488426],[139.0059646,35.9488385],[139.0059818,35.9488361],[139.0060064,35.9488358],[139.0060294,35.9488399],[139.0060644,35.9488504],[139.0061924,35.9489021],[139.0063741,35.9489781],[139.0064526,35.9490086],[139.0064529,35.9490087],[139.0065107,35.949028],[139.0065697,35.949045],[139.0066295,35.9490597],[139.0066902,35.9490722],[139.0067597,35.9490835],[139.0067601,35.9490835],[139.0068219,35.9490908],[139.006884,35.9490959],[139.0068844,35.9490959],[139.0069465,35.9490985],[139.0069468,35.9490985],[139.0070092,35.9490987],[139.0074059,35.9490905],[139.0074252,35.9490901],[139.0074256,35.9490902],[139.0074781,35.9490941],[139.0075107,35.9490965],[139.0075569,35.9491094],[139.0076141,35.9491278],[139.0076517,35.9491442],[139.0076843,35.9491641],[139.0077172,35.9491894],[139.0079594,35.9493921],[139.0079882,35.9494187],[139.0080156,35.9494465],[139.0080412,35.9494753],[139.008065,35.949505],[139.0080871,35.9495357],[139.0081186,35.949586],[139.0081573,35.9496386],[139.0081988,35.9496897],[139.0082603,35.9497569],[139.0083084,35.9498039],[139.0083596,35.949849],[139.0084226,35.9498993],[139.0084665,35.949923],[139.008512,35.9499449],[139.0085952,35.9499792],[139.0086437,35.9499961],[139.008656755615,35.95],[139.0,35.95]]]},"properties":{"layer":"landuse","class_code":"203","class_label":"山林（樹林地）"}},{"type":"Feature","id":"luse_c36046a9-3e99-4d92-9354-2e9ebad131a0","geometry":{"type":"MultiPolygon","coordinates":[[[[139.0,35.95],[139.0,35.9420367076673],[139.0002025,35.9419255],[139.0002512,35.9419104],[139.0002583,35.9419072],[139.0002714,35.9418945],[139.0003021,35.9418191],[139.0003301,35.9417809],[139.0003603,35.9417485],[139.0003757,35.9417347],[139.0003991,35.9417088],[139.0004264,35.9416856],[139.0004429,35.941674],[139.00045571362006,35.94166666666667],[139.00070324285716,35.94166666666667],[139.0007061,35.9416685],[139.0007064,35.9416686],[139.0007166,35.9416782],[139.000732,35.9416997],[139.0007394,35.9417195],[139.000741,35.9417413],[139.0007393,35.941763],[139.0007315,35.9417922],[139.000722,35.9418125],[139.0007094,35.9418318],[139.0006946,35.941849],[139.0006245,35.9418867],[139.0005579,35.9419154],[139.0003719,35.9420092],[139.0002281,35.9421053],[139.0002089,35.942123],[139.0001919,35.9421421],[139.0001772,35.9421625],[139.0001649,35.942184],[139.0001553,35.9422061],[139.0001611,35.9422485],[139.0001858,35.9423377],[139.0001954,35.942361],[139.0001988,35.9423792],[139.0002001,35.9423982],[139.0001994,35.9424174],[139.0001963,35.9424363],[139.000191,35.9424549],[139.000183,35.9424743],[139.0001725,35.942493],[139.0001608,35.9425095],[139.0001472,35.9425251],[139.0001317,35.9425395],[139.0001147,35.9425527],[139.0000933,35.9425663],[139.0000929,35.9425664],[139.00005,35.942579],[139.0,35.94258929411765],[139.0,35.94284954359416],[139.0004008,35.942983],[139.0004464,35.9429891],[139.0005132,35.9429915],[139.0005796,35.9429861],[139.0006446,35.942973],[139.0007063,35.9429526],[139.0007067,35.9429525],[139.000731,35.9429422],[139.0007864,35.942912],[139.0008363,35.9428758],[139.0008572,35.9428242],[139.0008734,35.9427568],[139.0008765,35.9427289],[139.0008757,35.9426513],[139.0008789,35.9426308],[139.0008854,35.9426109],[139.0008955,35.9425919],[139.0009086,35.9425743],[139.0009246,35.9425584],[139.0009436,35.9425446],[139.0009633,35.9425336],[139.0009858,35.9425245],[139.0010099,35.942518],[139.0010346,35.9425145],[139.0010351,35.9425144],[139.0010602,35.9425137],[139.0012081,35.9425226],[139.0014642,35.9425337],[139.0017439,35.9425295],[139.0017443,35.9425296],[139.0017965,35.9425154],[139.0018387,35.9424979],[139.0018597,35.9424858],[139.0018772,35.9424758],[139.0019112,35.9424493],[139.0019424,35.9424169],[139.0019656,35.9423836],[139.0019827,35.9423478],[139.0019936,35.9423105],[139.0020144,35.9422575],[139.002048,35.9422],[139.0020912,35.9421468],[139.0021234,35.9421159],[139.0021804,35.9420723],[139.0022244,35.9420502],[139.0023004,35.9420227],[139.0023243,35.9420122],[139.0023455,35.942],[139.0023659,35.9419855],[139.0023771,35.9419759],[139.002388,35.9419551],[139.0023945,35.9419331],[139.0023963,35.9419136],[139.0023943,35.941891],[139.0023849,35.9418454],[139.0023706,35.9417944],[139.0023552,35.9417538],[139.0023367,35.9417251],[139.0023148,35.9416982],[139.0022949,35.9416787],[139.0022802393013,35.94166666666667],[139.0125,35.94166666666667],[139.0125,35.95],[139.0,35.95]]],[[[139.01109187670687,35.94166666666667],[139.0111612,35.9416693],[139.0111901,35.9416724],[139.0112138,35.941675],[139.011235,35.9416812],[139.0113301,35.9417214],[139.0114739,35.9417821],[139.0115218,35.9417943],[139.0115994,35.9418092],[139.0116489,35.9418157],[139.0116753,35.941818],[139.0116799,35.9418184],[139.0116986,35.94182],[139.011699,35.9418201],[139.0117277,35.9418213],[139.0117489,35.9418222],[139.0117991,35.9418221],[139.0120197,35.9418103],[139.0120232,35.9418103],[139.0120739,35.941809],[139.0120903,35.941809],[139.0121959,35.9418094],[139.0122468,35.9418095],[139.012277,35.9418107],[139.0123354,35.9418128],[139.0125,35.941823655307104],[139.0125,35.94166666666667],[139.01109187670687,35.94166666666667]]],[[[139.00235889504503,35.94166666666667],[139.0023776,35.941685],[139.0023898,35.9417053],[139.002409,35.9417428],[139.0024282,35.9417928],[139.0024469,35.9418579],[139.0024534,35.9418868],[139.0024575,35.941926],[139.0024573,35.9419604],[139.0024543,35.9419775],[139.0024462,35.9419934],[139.0024347,35.9420068],[139.0024188,35.9420182],[139.0024185,35.9420183],[139.0024001,35.9420264],[139.0023251,35.9420651],[139.0022606,35.9420925],[139.0022117,35.9421104],[139.0021637,35.942147],[139.0021356,35.9421739],[139.0020964,35.9422221],[139.0020661,35.9422741],[139.0020471,35.9423225],[139.002036,35.9423612],[139.0020159,35.9424029],[139.0019854,35.9424459],[139.0019524,35.9424798],[139.0019124,35.9425107],[139.0018674,35.9425365],[139.0018184,35.9425569],[139.001818,35.942557],[139.0017679,35.9425712],[139.0017515,35.9425745],[139.0014632,35.9425788],[139.0012047,35.9425677],[139.001058,35.9425589],[139.0010408,35.9425594],[139.0010404,35.9425594],[139.0010236,35.9425619],[139.0010069,35.9425663],[139.0009913,35.9425727],[139.0009779,35.94258],[139.000965,35.9425896],[139.0009539,35.9426005],[139.0009448,35.9426126],[139.0009379,35.9426256],[139.0009334,35.9426394],[139.0009311,35.9426604],[139.0009319,35.9427306],[139.0009284,35.9427631],[139.0009111,35.9428355],[139.0008844,35.9429014],[139.0008206,35.9429478],[139.0007445,35.9429998],[139.0006687,35.9430331],[139.0006684,35.9430332],[139.0005929,35.9430483],[139.0005155,35.9430547],[139.0005152,35.9430547],[139.0004385,35.943052],[139.0004382,35.9430519],[139.0,35.942899572937606],[139.0,35.943212242857136],[139.0000032,35.9432159],[139.0000245,35.9432494],[139.0000333,35.9432675],[139.0000455,35.9433037],[139.0000515,35.943342],[139.0000506,35.9433805],[139.0000433,35.9434172],[139.0,35.94355676119291],[139.0,35.94251500786517],[139.0000234,35.9425101],[139.0000495,35.9425025],[139.0000676,35.9424896],[139.0000862,35.9424704],[139.0001003,35.9424479],[139.0001087,35.9424235],[139.0001112,35.9423991],[139.0001086,35.942378],[139.0001004,35.9423572],[139.0000924,35.94233],[139.000088,35.9423023],[139.0000867,35.9422744],[139.0000887,35.9422466],[139.0000937,35.9422202],[139.0001022,35.9421932],[139.0001134,35.9421669],[139.0001281,35.9421415],[139.0001454,35.9421175],[139.0001654,35.9420948],[139.0001874,35.9420747],[139.0003433,35.9419759],[139.0005279,35.941879],[139.0005839,35.9418335],[139.000612,35.9418051],[139.0006511,35.941756],[139.0006506,35.941751],[139.0006462,35.941737],[139.0006374,35.9417243],[139.0006234,35.9417124],[139.0006078,35.9417052],[139.0005907,35.9417013],[139.000578,35.941701],[139.0005757,35.9417009],[139.0005729,35.9417009],[139.0005524,35.9417044],[139.0005262,35.9417113],[139.0005258,35.9417114],[139.000501,35.941721],[139.0004663,35.9417404],[139.0004462,35.941756],[139.0004286,35.9417733],[139.0004146,35.941786],[139.000389,35.9418134],[139.0003674,35.9418426],[139.000339,35.9419126],[139.0003288,35.9419263],[139.0003161,35.9419385],[139.0003006,35.9419494],[139.0002836,35.9419576],[139.0002656,35.9419638],[139.0001181,35.9420275],[139.0,35.94208827171001],[139.0,35.95],[139.008656755615,35.95],[139.0086437,35.9499961],[139.0085952,35.9499792],[139.008512,35.9499449],[139.0084665,35.949923],[139.0084226,35.9498993],[139.0083596,35.949849],[139.0083084,35.9498039],[139.0082603,35.9497569],[139.0081988,35.9496897],[139.0081573,35.9496386],[139.0081186,35.949586],[139.0080871,35.9495357],[139.008065,35.949505],[139.0080412,35.9494753],[139.0080156,35.9494465],[139.0079882,35.9494187],[139.0079594,35.9493921],[139.0077172,35.9491894],[139.0076843,35.9491641],[139.0076517,35.9491442],[139.0076141,35.9491278],[139.0075569,35.9491094],[139.0075107,35.9490965],[139.0074781,35.9490941],[139.0074256,35.9490902],[139.0074252,35.9490901],[139.0074059,35.9490905],[139.0070092,35.9490987],[139.0069468,35.9490985],[139.0069465,35.9490985],[139.0068844,35.9490959],[139.006884,35.9490959],[139.0068219,35.9490908],[139.0067601,35.9490835],[139.0067597,35.9490835],[139.0066902,35.9490722],[139.0066295,35.9490597],[139.0065697,35.949045],[139.0065107,35.949028],[139.0064529,35.9490087],[139.0064526,35.9490086],[139.0063741,35.9489781],[139.0061924,35.9489021],[139.0060644,35.9488504],[139.0060294,35.9488399],[139.0060064,35.9488358],[139.0059818,35.9488361],[139.0059646,35.9488385],[139.0059362,35.9488426],[139.0058852,35.9488576],[139.0057735,35.9488956],[139.0056323,35.9489509],[139.0055263,35.9489985],[139.0054231,35.9490501],[139.005323,35.9491056],[139.0052328,35.949161],[139.005214,35.9491726],[139.0051819,35.9491872],[139.0051435,35.9491973],[139.0051432,35.9491974],[139.0051068,35.9492007],[139.0050704,35.9491984],[139.00507,35.9491984],[139.0049901,35.9491824],[139.0049428,35.949165],[139.0049068,35.949145],[139.0048696,35.9491154],[139.0048398,35.9490807],[139.0048173,35.9490383],[139.0048322,35.9490049],[139.0048389,35.9489699],[139.0048374,35.9489346],[139.0048305,35.9489075],[139.0048144,35.9488746],[139.0047912,35.9488447],[139.0047627,35.948819],[139.0047492,35.9488025],[139.004737,35.9487801],[139.0047306,35.9487563],[139.0047295,35.9487319],[139.0047347,35.9487072],[139.0047338,35.9486888],[139.0047283,35.9486708],[139.0047191,35.9486541],[139.0047071,35.9486399],[139.0046908,35.948627],[139.0046721,35.9486167],[139.004651,35.9486096],[139.0046288,35.9486058],[139.0046258,35.9486056],[139.0046169,35.9486052],[139.0046165,35.9486052],[139.0043384,35.9487207],[139.0041541,35.9487914],[139.0040777,35.9488099],[139.0040228,35.9488139],[139.0039919,35.9488162],[139.0039126,35.9488093],[139.0038907,35.9488039],[139.0038363,35.9487903],[139.0037857,35.9487699],[139.0036758,35.9486762],[139.0036917,35.9486637],[139.0037992,35.9487552],[139.0038423,35.9487726],[139.0038445,35.9487735],[139.0039171,35.9487916],[139.0039894,35.9487976],[139.003997,35.9487982],[139.0039974,35.9487982],[139.0040733,35.9487921],[139.004146,35.9487745],[139.0041463,35.9487744],[139.0043283,35.9487046],[139.0043286,35.9487044],[139.0046066,35.9485891],[139.004618,35.9485872],[139.0046318,35.9485879],[139.0046577,35.9485923],[139.0046824,35.9486008],[139.0047048,35.948613],[139.0047241,35.9486282],[139.0047385,35.9486451],[139.0047495,35.948665],[139.0047557,35.9486863],[139.0047569,35.948708],[139.0047519,35.9487331],[139.0047527,35.948754],[139.0047552,35.948763],[139.0047584,35.9487745],[139.0047687,35.9487938],[139.00478,35.9488078],[139.0048092,35.9488341],[139.004815,35.9488416],[139.0048343,35.9488663],[139.0048518,35.9489023],[139.0048595,35.9489324],[139.0048612,35.948971],[139.0048582,35.9489862],[139.0048538,35.9490094],[139.0048411,35.9490381],[139.0048594,35.9490718],[139.0048866,35.9491037],[139.0049209,35.949131],[139.0049537,35.9491492],[139.0049825,35.9491597],[139.0049836,35.9491602],[139.0049972,35.9491653],[139.0050695,35.9491797],[139.0050739,35.9491806],[139.0051064,35.9491826],[139.0051411,35.9491793],[139.0051425,35.9491789],[139.0051729,35.9491707],[139.0052017,35.9491576],[139.00531,35.9490909],[139.0054111,35.949035],[139.0055151,35.9489829],[139.0056542,35.9489217],[139.0057643,35.9488791],[139.0058771,35.9488408],[139.00593,35.9488252],[139.0059503,35.9488215],[139.00598,35.9488181],[139.0060084,35.9488177],[139.0060088,35.9488178],[139.0060357,35.9488226],[139.006073,35.9488337],[139.0060733,35.9488338],[139.0062024,35.948886],[139.0064056,35.9489709],[139.0064059,35.948971],[139.0064616,35.9489921],[139.0065184,35.949011],[139.0065188,35.9490111],[139.0065764,35.9490278],[139.0065768,35.9490279],[139.0066355,35.9490423],[139.006703,35.9490561],[139.0067635,35.9490656],[139.0067638,35.9490657],[139.0068246,35.9490729],[139.0068856,35.9490779],[139.006886,35.9490779],[139.0069471,35.9490804],[139.0069475,35.9490804],[139.0070088,35.9490807],[139.0070092,35.9490807],[139.0073961,35.9490727],[139.007407,35.9490725],[139.0073792,35.9490416],[139.0073681,35.9490292],[139.0073449,35.9489993],[139.0073232,35.9489685],[139.0072982,35.9489277],[139.0072809,35.9488953],[139.0072654,35.9488621],[139.0072519,35.9488284],[139.0072402,35.9487942],[139.0072306,35.9487596],[139.007223,35.9487247],[139.0072178,35.9486895],[139.0071903,35.9484094],[139.0071394,35.9480499],[139.0071252,35.9480016],[139.0071133,35.9479514],[139.007113,35.9479503],[139.0071046,35.9479008],[139.0070979,35.9478403],[139.0070956,35.9477894],[139.007096,35.9477382],[139.0070998,35.9476872],[139.0071063,35.9476363],[139.0071158,35.9475858],[139.0071308,35.9475259],[139.0071724,35.9474258],[139.0072192,35.9473279],[139.0072461,35.9472775],[139.0073016,35.9471826],[139.0073626,35.9470898],[139.0074285,35.9469997],[139.0074462,35.9470112],[139.0073819,35.9470987],[139.0073214,35.9471907],[139.0072663,35.9472849],[139.0072399,35.9473347],[139.0071932,35.9474319],[139.0071523,35.9475308],[139.0071376,35.9475889],[139.0071283,35.9476386],[139.0071218,35.9476887],[139.0071183,35.9477389],[139.0071178,35.9477891],[139.0071208,35.9478487],[139.0071266,35.9478987],[139.0071353,35.9479484],[139.0071469,35.9479978],[139.0071613,35.9480468],[139.0072125,35.9484077],[139.0072398,35.9486877],[139.0072452,35.948722],[139.0072526,35.9487561],[139.0072618,35.9487899],[139.0072732,35.9488232],[139.0072863,35.9488561],[139.0073014,35.9488885],[139.0073236,35.9489291],[139.0073429,35.9489599],[139.0073639,35.9489899],[139.0073867,35.9490192],[139.0074352,35.9490727],[139.0074705,35.9490754],[139.0074715,35.9490755],[139.0075152,35.9490787],[139.0075155,35.9490788],[139.0075646,35.9490925],[139.0076234,35.9491113],[139.0076636,35.9491289],[139.0076988,35.9491502],[139.0077329,35.9491765],[139.007945,35.949354],[139.0079757,35.9493798],[139.0080052,35.9494071],[139.0080332,35.9494355],[139.0080595,35.949465],[139.008084,35.9494956],[139.0081066,35.9495269],[139.0081383,35.9495774],[139.008176,35.949629],[139.0082326,35.9496974],[139.0082777,35.9497456],[139.0083253,35.949792],[139.0083755,35.9498365],[139.0084364,35.9498852],[139.0084783,35.9499078],[139.0085577,35.9499444],[139.0086044,35.9499629],[139.008652,35.9499794],[139.00871829099526,35.95],[139.0117222173913,35.95],[139.0117161,35.9499784],[139.0117181,35.9499328],[139.0117635,35.949855],[139.0118185,35.9498501],[139.0118233,35.9498836],[139.0118301,35.9499504],[139.01182792517682,35.95],[139.0125,35.95],[139.0125,35.941875804823695],[139.0123311,35.9418668],[139.0123307,35.9418668],[139.012245,35.9418636],[139.0120886,35.9418631],[139.0120749,35.9418631],[139.0120439,35.9418639],[139.0120434,35.9418639],[139.0120392,35.9418639],[139.012023,35.9418644],[139.0118013,35.9418761],[139.0118008,35.9418762],[139.0117473,35.9418762],[139.0116935,35.941874],[139.0116603,35.9418711],[139.01164,35.9418693],[139.0116262,35.9418673],[139.0116197,35.9418664],[139.0115555,35.941857],[139.0115038,35.9418464],[139.0115035,35.9418463],[139.0114484,35.9418323],[139.01131,35.9417738],[139.0112084,35.9417309],[139.0111982,35.941728],[139.0111978,35.9417279],[139.0111553,35.9417232],[139.011155,35.9417232],[139.0108756,35.9417128],[139.0108347,35.9417152],[139.0108214,35.9417149],[139.0108048,35.9417144],[139.0107982,35.9417143],[139.0107933,35.9417142],[139.010793,35.9417141],[139.010752,35.9417093],[139.0106732,35.941674],[139.01065623555556,35.94166666666667],[139.00235889504503,35.94166666666667]]]]},"properties":{"layer":"landuse","class_code":"215","class_label":"道路用地（道路、駅前広場、私有地内に存在する沿道用途の「私道」または、私有地の一部分であるものの公共の通行に供されている土地の部分）"}}]}