{"type":"FeatureCollection","properties":{"mesh_code":"53397036","source":"PLATEAU秩父市2025","layer":"landuse"},"features":[{"type":"Feature","id":"luse_35d306e6-9796-4e12-b843-ef8a2e45143d","geometry":{"type":"Polygon","coordinates":[[[139.07621958571428,35.95],[139.0762698,35.9499639],[139.0763405,35.9499076],[139.07639,35.9498641],[139.0764271,35.9498346],[139.0764661,35.9498068],[139.0765069,35.9497807],[139.0765343,35.9497647],[139.0765777,35.9497418],[139.0766227,35.9497208],[139.0766691,35.9497019],[139.0767166,35.949685],[139.0768422,35.9496533],[139.0768934,35.9496419],[139.0768937,35.9496418],[139.076937,35.9496366],[139.0769375,35.9496366],[139.0769689,35.9496341],[139.0770297,35.9496354],[139.07703,35.9496354],[139.0770111,35.9497418],[139.0770205,35.9498102],[139.0770137,35.9498457],[139.0769665,35.9498651],[139.0769274,35.949884],[139.0768447,35.9499171],[139.0767864,35.9499241],[139.0767728,35.9499243],[139.076757,35.9499242],[139.0767047,35.9499257],[139.0766852,35.9499343],[139.0766612,35.949966],[139.0766454,35.9499845],[139.0766395,35.9499943],[139.076636245977,35.95],[139.07621958571428,35.95]]]},"properties":{"layer":"landuse","class_code":"203","class_label":"山林（樹林地）"}},{"type":"Feature","id":"luse_1ab2d2b2-0fff-4f7e-a7a4-a34f8efbb5cd","geometry":{"type":"Polygon","coordinates":[[[139.0770996,35.9496286],[139.0770344,35.9496177],[139.0770529,35.9495174],[139.0770698,35.9493834],[139.0771112,35.9493714],[139.0771817,35.9494004],[139.0771229,35.9495249],[139.0770996,35.9496286]]]},"properties":{"layer":"landuse","class_code":"204","class_label":"水面（河川水面、湖沼、ため池、用水路、濠、運河水面）"}},{"type":"Feature","id":"luse_fcfaadea-095e-46aa-84c0-cac21564245a","geometry":{"type":"Polygon","coordinates":[[[139.0770996,35.9496286],[139.0770952,35.9496463],[139.0770751,35.9497472],[139.0770653,35.9498246],[139.0770643,35.9498553],[139.0769825,35.9498888],[139.0769433,35.9499078],[139.0768585,35.9499417],[139.0768227,35.9499792],[139.076808,35.9499973],[139.07680547249998,35.95],[139.076636245977,35.95],[139.0766395,35.9499943],[139.0766454,35.9499845],[139.0766612,35.949966],[139.0766852,35.9499343],[139.0767047,35.9499257],[139.076757,35.9499242],[139.0767728,35.9499243],[139.0767864,35.9499241],[139.0768447,35.9499171],[139.0769274,35.949884],[139.0769665,35.9498651],[139.0770137,35.9498457],[139.0770205,35.9498102],[139.0770111,35.9497418],[139.07703,35.9496354],[139.0770996,35.9496286]]]},"properties":{"layer":"landuse","class_code":"204","class_label":"水面（河川水面、湖沼、ため池、用水路、濠、運河水面）"}},{"type":"Feature","id":"luse_92c789ed-03fc-4210-9256-5fc5b1e23433","geometry":{"type":"Polygon","coordinates":[[[139.07680547249998,35.95],[139.076808,35.9499973],[139.0768227,35.9499792],[139.0768585,35.9499417],[139.0769433,35.9499078],[139.0769825,35.9498888],[139.0770643,35.9498553],[139.0770653,35.9498246],[139.0770751,35.9497472],[139.0770952,35.9496463],[139.0770996,35.9496286],[139.0771229,35.9495249],[139.0771817,35.9494004],[139.0771112,35.9493714],[139.0770698,35.9493834],[139.0770529,35.9495174],[139.0770344,35.9496177],[139.0769915,35.9495626],[139.0768308,35.9495761],[139.076813,35.9495793],[139.0768126,35.9495793],[139.0767953,35.9495836],[139.0766979,35.9496473],[139.0766478,35.9496652],[139.0765992,35.9496851],[139.0765517,35.9497072],[139.076506,35.9497312],[139.0764769,35.9497483],[139.0764342,35.9497756],[139.0763932,35.9498048],[139.0763543,35.9498358],[139.0763045,35.9498793],[139.0762358,35.9499342],[139.0761635,35.9499861],[139.0761427347561,35.95],[139.075,35.95],[139.075,35.94166666666667],[139.0875,35.94166666666667],[139.0875,35.95],[139.07680547249998,35.95]]]},"properties":{"layer":"landuse","class_code":"203","class_label":"山林（樹林地）"}},{"type":"Feature","id":"luse_11397a40-bec3-40f6-9b68-38396f8d832c","geometry":{"type":"Polygon","coordinates":[[[139.0761427347561,35.95],[139.0761635,35.9499861],[139.0762358,35.9499342],[139.0763045,35.9498793],[139.0763543,35.9498358],[139.0763932,35.9498048],[139.0764342,35.9497756],[139.0764769,35.9497483],[139.076506,35.9497312],[139.0765517,35.9497072],[139.0765992,35.9496851],[139.0766478,35.9496652],[139.0766979,35.9496473],[139.0767953,35.9495836],[139.0768126,35.9495793],[139.076813,35.9495793],[139.0768308,35.9495761],[139.0769915,35.9495626],[139.0770344,35.9496177],[139.0770996,35.9496286],[139.07703,35.9496354],[139.0770297,35.9496354],[139.0769689,35.9496341],[139.0769375,35.9496366],[139.076937,35.9496366],[139.0768937,35.9496418],[139.0768934,35.9496419],[139.0768422,35.9496533],[139.0767166,35.949685],[139.0766691,35.9497019],[139.0766227,35.9497208],[139.0765777,35.9497418],[139.0765343,35.9497647],[139.0765069,35.9497807],[139.0764661,35.9498068],[139.0764271,35.9498346],[139.07639,35.9498641],[139.0763405,35.9499076],[139.0762698,35.9499639],[139.07621958571428,35.95],[139.0761427347561,35.95]]]},"properties":{"layer":"landuse","class_code":"215","class_label":"道路用地（道路、駅前広場、私有地内に存在する沿道用途の「私道」または、私有地の一部分であるものの公共の通行に供されている土地の部分）"}}]}