{"type":"FeatureCollection","properties":{"mesh_code":"53397192","source":"PLATEAU秩父市2025","layer":"landuse"},"features":[{"type":"Feature","id":"luse_a5131765-fbb8-4540-8772-3741acf359eb","geometry":{"type":"Polygon","coordinates":[[[139.15,36.0],[139.15,35.99755221649484],[139.1500739,35.9975126],[139.1501455,35.997474],[139.1502144,35.9974314],[139.150267,35.9973951],[139.1503318,35.9973461],[139.1503755,35.9973047],[139.1504117,35.9972611],[139.1504514,35.9972069],[139.1504839,35.997153],[139.1505139,35.9970959],[139.1505539,35.9969991],[139.1505742,35.9969655],[139.150612,35.9969192],[139.1506344,35.9968914],[139.1506381,35.9968833],[139.1506402,35.9968621],[139.1506357,35.9968017],[139.150626,35.9967866],[139.1506213,35.9967715],[139.1506341,35.9967594],[139.1507317,35.9966456],[139.1508627,35.9965599],[139.1509514,35.9965256],[139.1510303,35.9965002],[139.1511212,35.9964759],[139.1512511,35.9964497],[139.1513243,35.9964361],[139.1516296,35.9963918],[139.1518138,35.9963728],[139.1520225,35.9963555],[139.152199,35.9963329],[139.1522922,35.9963104],[139.1524154,35.9962337],[139.1524475,35.9962282],[139.1525097,35.9962363],[139.1526474,35.9962688],[139.1528695,35.9963409],[139.1529637,35.9963418],[139.1530481,35.9963282],[139.153299,35.9962784],[139.1534721,35.9962423],[139.1535986,35.9962143],[139.153845,35.9961627],[139.153966,35.9961249],[139.1540814,35.9960409],[139.1541857,35.9959578],[139.1542705,35.9958691],[139.1544086,35.9957289],[139.1545739,35.9955777],[139.1547148,35.9955159],[139.1551368,35.9954667],[139.1556568,35.9954718],[139.1557991,35.9954731],[139.1562544,35.9954376],[139.1565356,35.9953985],[139.1569027,35.995218],[139.1570973,35.9951375],[139.1576573,35.994983],[139.1584193,35.9948839],[139.1590075,35.9949607],[139.1597104,35.9950273],[139.1601484,35.9950542],[139.1603853,35.9951207],[139.1605714,35.9952658],[139.160775,35.9953294],[139.1610334,35.9953392],[139.1614684,35.9953253],[139.1617324,35.9953648],[139.1622833,35.9954983],[139.1625,35.99557222190476],[139.1625,36.0],[139.15,36.0]]]},"properties":{"layer":"landuse","class_code":"203","class_label":"山林（樹林地）"}}]}