{"type":"FeatureCollection","properties":{"mesh_code":"53397057","source":"PLATEAU秩父市2025","layer":"landuse"},"features":[{"type":"Feature","id":"luse_350b6a7c-13f1-4d7f-8d08-a1bb4289daea","geometry":{"type":"Polygon","coordinates":[[[139.09239530012536,35.958333333333336],[139.0923065,35.9585507],[139.0918447,35.9583881],[139.09178786051734,35.958333333333336],[139.09239530012536,35.958333333333336]]]},"properties":{"layer":"landuse","class_code":"213","class_label":"工業用地（工場）"}},{"type":"Feature","id":"luse_e66dfe50-a479-440d-9e67-ad4da7764411","geometry":{"type":"Polygon","coordinates":[[[139.0875,35.96666666666667],[139.0875,35.958333333333336],[139.09178786051734,35.958333333333336],[139.0918447,35.9583881],[139.0923065,35.9585507],[139.0903038,35.9634523],[139.0902779,35.9634894],[139.0902712,35.9635664],[139.090236,35.9637738],[139.0901334,35.9639015],[139.0900171,35.9640161],[139.0898912,35.9640718],[139.0897659,35.9641645],[139.0896392,35.964194],[139.0895916,35.9642367],[139.0896159,35.964241],[139.089451,35.9644191],[139.0893213,35.9645352],[139.0891537,35.964678],[139.089113,35.9647399],[139.0890232,35.9648084],[139.0889854,35.964856],[139.0889527,35.9649624],[139.0889395,35.9650775],[139.0888482,35.9652949],[139.08881,35.9653776],[139.0886791,35.9655423],[139.0886682,35.965565],[139.0886348,35.965634],[139.0885303,35.9657101],[139.0884942,35.9657451],[139.0884589,35.9658117],[139.0884859,35.9658513],[139.088501,35.9658852],[139.0885286,35.9659515],[139.0885169,35.9660335],[139.0885199,35.9660687],[139.0885197,35.966084],[139.0884638,35.9661387],[139.0883715,35.9661779],[139.0883422,35.9662265],[139.0883197,35.9662678],[139.0882938,35.9663056],[139.0882702,35.9663415],[139.0882422,35.9663684],[139.0882186,35.9664007],[139.0881318,35.9665815],[139.08811981767678,35.96666666666667],[139.0875,35.96666666666667]]]},"properties":{"layer":"landuse","class_code":"203","class_label":"山林（樹林地）"}}]}