{"type":"FeatureCollection","properties":{"mesh_code":"53397060","source":"PLATEAU秩父市2025","layer":"landuse"},"features":[{"type":"Feature","id":"luse_3d71bd98-6a48-4d75-aacc-bb7978be4d12","geometry":{"type":"Polygon","coordinates":[[[139.0093141,35.9709166],[139.0097481,35.9709368],[139.0099599,35.9711042],[139.0101371,35.9712161],[139.0100913,35.9713025],[139.0100367,35.9712812],[139.0100358,35.9712808],[139.009957,35.9712551],[139.0098985,35.9712394],[139.0098208,35.9712229],[139.0098204,35.9712228],[139.0097823,35.9712208],[139.0097819,35.9712208],[139.0097436,35.9712204],[139.0096992,35.9712222],[139.0096796,35.9712239],[139.0096609,35.9712255],[139.0096478,35.9712272],[139.0096229,35.9712305],[139.0095853,35.9712372],[139.0095755,35.9712157],[139.0095493,35.9711566],[139.0093607,35.9711745],[139.0093141,35.9709166]]]},"properties":{"layer":"landuse","class_code":"202","class_label":"畑（畑、樹園地、採草地、養鶏（牛・豚）場）"}},{"type":"Feature","id":"luse_6f40652b-d81a-49b3-8458-cd7f2da33cfc","geometry":{"type":"Polygon","coordinates":[[[139.0082452,35.9715471],[139.0082178,35.9715963],[139.0082139,35.9716147],[139.0082036,35.9716129],[139.0081754,35.9716035],[139.0081529,35.9715917],[139.0081327,35.9715772],[139.0081131,35.9715568],[139.0081002,35.97153],[139.0080929,35.9715018],[139.0080912,35.9714802],[139.0080939,35.9714515],[139.0081597,35.9712033],[139.0082567,35.9708655],[139.0082627,35.9708545],[139.0083257,35.9707626],[139.0083342,35.9707411],[139.0083419,35.9707064],[139.0083422,35.9706888],[139.0083425,35.970671],[139.008336,35.9706362],[139.0083265,35.9706106],[139.0083081,35.9705787],[139.0082837,35.9705495],[139.0082669,35.9705337],[139.0082484,35.9705163],[139.0081004,35.9703773],[139.008094,35.9703699],[139.0080926,35.9703685],[139.0080923,35.970368],[139.008091,35.9703665],[139.0080808,35.9703547],[139.0080722,35.9703378],[139.0080622,35.9703061],[139.0080606,35.9703021],[139.0080545,35.9702811],[139.0080543,35.9702792],[139.0080531,35.9702692],[139.0080521,35.9702607],[139.0080532,35.9702392],[139.0080615,35.970195],[139.0080769,35.9701217],[139.0080909,35.9700687],[139.0081208,35.9699259],[139.0081374,35.9698395],[139.0083579,35.9698438],[139.0083655,35.9699607],[139.008422,35.9701685],[139.0084679,35.9702738],[139.0087183,35.970452],[139.0087675,35.9705191],[139.0087843,35.9705931],[139.0087999,35.9706477],[139.0088041,35.9706624],[139.0087633,35.9708103],[139.0088255,35.9708716],[139.0091499,35.9708879],[139.0091861,35.9709145],[139.0091962,35.9710522],[139.0092034,35.97112],[139.009208,35.971164],[139.0087757,35.9712084],[139.0087995,35.9712791],[139.0088339,35.971344],[139.0086659,35.9713616],[139.0084144,35.9714597],[139.0082846,35.9714422],[139.0082452,35.9715471]]]},"properties":{"layer":"landuse","class_code":"202","class_label":"畑（畑、樹園地、採草地、養鶏（牛・豚）場）"}},{"type":"Feature","id":"luse_032e0688-1da9-4e64-a5bc-711afe6cf641","geometry":{"type":"Polygon","coordinates":[[[139.0083317,35.9717721],[139.0083654,35.9718098],[139.0083795,35.9718637],[139.0083669,35.9719455],[139.0083583,35.9719651],[139.0083456,35.9719791],[139.0083338,35.9719929],[139.0080904,35.9721444],[139.0080648,35.9721495],[139.0080468,35.9721472],[139.0079872,35.9721174],[139.0080664,35.9720502],[139.007944,35.9719128],[139.0081571,35.9717937],[139.0082427,35.9717365],[139.0083317,35.9717721]]]},"properties":{"layer":"landuse","class_code":"202","class_label":"畑（畑、樹園地、採草地、養鶏（牛・豚）場）"}},{"type":"Feature","id":"luse_c5fdde6b-588f-4860-8751-3fb6cb276a15","geometry":{"type":"Polygon","coordinates":[[[139.0123593,35.9716889],[139.0123952,35.9716993],[139.0124092,35.9717177],[139.0124118,35.9717716],[139.0124035,35.9718027],[139.012393,35.9718472],[139.0123861,35.9718874],[139.0123782,35.9719316],[139.0123705,35.9719679],[139.0123578,35.97201],[139.0123451,35.9720451],[139.0123302,35.9720848],[139.0123226,35.9720989],[139.0123113,35.9721201],[139.0123073,35.972126],[139.0122787,35.9721678],[139.0122513,35.9721878],[139.0122192,35.9721974],[139.0121875,35.9722044],[139.0121536,35.9722113],[139.0120888,35.9722128],[139.0120373,35.9720884],[139.0120233,35.9720388],[139.0120096,35.9720007],[139.0119965,35.9719737],[139.0119785,35.9719394],[139.0119626,35.971909],[139.0119582,35.9718811],[139.011969,35.9718557],[139.0119967,35.971822],[139.0120196,35.9718],[139.0120611,35.9717625],[139.0121039,35.9717324],[139.0121504,35.9717166],[139.0121977,35.9717057],[139.012232,35.9716981],[139.0122819,35.9716907],[139.0123239,35.971688],[139.0123593,35.9716889]]]},"properties":{"layer":"landuse","class_code":"202","class_label":"畑（畑、樹園地、採草地、養鶏（牛・豚）場）"}},{"type":"Feature","id":"luse_a243c07f-dab8-476c-b41f-1a8dd8afa6f6","geometry":{"type":"Polygon","coordinates":[[[139.0073604,35.972622],[139.0073553,35.9726342],[139.0073505,35.9726456],[139.0071555,35.973119],[139.007116,35.9732038],[139.007072,35.9732869],[139.0070117,35.9733861],[139.0069868,35.973429],[139.0069708,35.9734615],[139.0069568,35.9734947],[139.0069445,35.9735283],[139.0069343,35.9735623],[139.0069341,35.9735634],[139.0069296,35.9735181],[139.0069312,35.973492],[139.0069258,35.9734555],[139.0069375,35.9734188],[139.0069681,35.9733339],[139.0069959,35.9732559],[139.0070005,35.9732158],[139.0070042,35.9731215],[139.0069823,35.9730249],[139.0069827,35.9729533],[139.0069723,35.9728639],[139.0070446,35.9727569],[139.0070727,35.9726587],[139.0070953,35.9725783],[139.0073604,35.972622]]]},"properties":{"layer":"landuse","class_code":"202","class_label":"畑（畑、樹園地、採草地、養鶏（牛・豚）場）"}},{"type":"Feature","id":"luse_5cf7eec7-2a9c-4fac-8eaf-042f5325d2c7","geometry":{"type":"MultiPolygon","coordinates":[[[[139.0125,35.97237955912241],[139.0124604,35.9724123],[139.0123714,35.9724765],[139.0123385,35.9724887],[139.0122855,35.9724953],[139.0122494,35.9725159],[139.0122043,35.9725422],[139.0121783,35.9725752],[139.0121638,35.972602],[139.0121472,35.9726182],[139.0121397,35.972614],[139.0119157,35.9724873],[139.011875,35.9724593],[139.0118364,35.9724294],[139.0117854,35.9723846],[139.011752,35.9723508],[139.0117209,35.9723157],[139.0116837,35.9722667],[139.0116577,35.9722351],[139.0116166,35.9721916],[139.0115856,35.972163],[139.0115527,35.9721359],[139.0115182,35.9721104],[139.0114818,35.9720863],[139.011437,35.9720595],[139.0113894,35.9720359],[139.0113336,35.9720143],[139.0112633,35.9719909],[139.0112013,35.971964],[139.0111507,35.9719363],[139.0110332,35.9718767],[139.0109287,35.9718172],[139.0108195,35.9717479],[139.0107153,35.9716738],[139.0105511,35.9715438],[139.0104884,35.9714995],[139.0104315,35.9714634],[139.0103638,35.9714245],[139.010293,35.9713887],[139.0102204,35.9713561],[139.0102201,35.971356],[139.0101456,35.9713267],[139.0100913,35.9713025],[139.0101371,35.9712161],[139.0099599,35.9711042],[139.0097481,35.9709368],[139.0093141,35.9709166],[139.0092914,35.9708402],[139.0093105,35.9708098],[139.0093186,35.9707106],[139.0092417,35.9706605],[139.0091269,35.9706349],[139.0089532,35.9707183],[139.0087999,35.9706477],[139.0087843,35.9705931],[139.0087675,35.9705191],[139.0087183,35.970452],[139.0084679,35.9702738],[139.008422,35.9701685],[139.0083655,35.9699607],[139.0083579,35.9698438],[139.0081374,35.9698395],[139.0081498,35.9697745],[139.00819,35.9696858],[139.0081988,35.9696355],[139.0082139,35.9694286],[139.0082115,35.9694039],[139.0081949,35.9693084],[139.0082014,35.9690417],[139.0081963,35.9689505],[139.0081649,35.9688149],[139.008135,35.9686667],[139.0081317,35.9684865],[139.0081708,35.9682393],[139.0081745,35.9682268],[139.0081933,35.9681639],[139.0082195,35.9680973],[139.0082214,35.9680941],[139.0082623,35.9680283],[139.0083167,35.9679755],[139.0087306,35.9677114],[139.0087706,35.9676888],[139.0088017,35.9676723],[139.0088302,35.9676532],[139.0088561,35.9676316],[139.0088787,35.9676077],[139.0088979,35.9675819],[139.0089127,35.9675558],[139.0089244,35.9675272],[139.0089274,35.9675175],[139.008928,35.9674878],[139.008921,35.9674589],[139.0089109,35.9672452],[139.008921,35.96723],[139.0089463,35.9672065],[139.0091265,35.9670855],[139.0093185,35.9669452],[139.0093906,35.9668733],[139.0094661,35.9667916],[139.0095098,35.9667403],[139.009531,35.9667153],[139.0095691364836,35.96666666666667],[139.01198403333333,35.96666666666667],[139.0119488,35.9667019],[139.0118859,35.9667422],[139.0118804,35.9667457],[139.0117831,35.9667965],[139.0117285,35.9668166],[139.0116885,35.966831],[139.0116458,35.966848],[139.011611,35.9668641],[139.011562,35.9668877],[139.0115151,35.9669133],[139.0114704,35.966949],[139.011451,35.9669789],[139.0114493,35.9669888],[139.0114472,35.967001],[139.0114421,35.9670475],[139.0114458,35.967052],[139.0114488,35.9670557],[139.0114575,35.9670678],[139.0114654,35.9670801],[139.0114725,35.9670928],[139.0114787,35.9671059],[139.011484,35.9671191],[139.0114884,35.9671326],[139.0114919,35.9671462],[139.0114938,35.9671568],[139.0114944,35.96716],[139.0114961,35.9671739],[139.0114968,35.9671879],[139.0114965,35.9672018],[139.0114954,35.9672157],[139.0114933,35.9672296],[139.0114903,35.9672433],[139.0114863,35.9672569],[139.0114815,35.9672703],[139.0114757,35.9672834],[139.0114692,35.9672963],[139.0114617,35.9673089],[139.0114534,35.9673211],[139.0114444,35.9673327],[139.0114345,35.967344],[139.011424,35.967355],[139.0114125,35.9673655],[139.0114006,35.9673754],[139.0113879,35.9673848],[139.0113796,35.9673917],[139.0113687,35.9673999],[139.0113572,35.9674077],[139.0113453,35.9674149],[139.0113329,35.9674216],[139.01132,35.9674276],[139.0113069,35.9674332],[139.0112933,35.9674381],[139.0112261,35.9674528],[139.0109651,35.9674458],[139.0109335,35.9674471],[139.0108156,35.9674929],[139.0107811,35.9675259],[139.0107792,35.9675612],[139.0107798,35.9676015],[139.0107775,35.9676296],[139.0107689,35.9676557],[139.0107529,35.9676896],[139.0107284,35.9677136],[139.0106866,35.9677398],[139.010625,35.9677674],[139.0105654,35.9677793],[139.0104976,35.9677938],[139.0104388,35.9678191],[139.0104067,35.9678533],[139.0103913,35.9678995],[139.0103873,35.9679469],[139.0103878,35.9679898],[139.0103892,35.968029],[139.0103891,35.9680769],[139.0103881,35.9681235],[139.010384,35.9681536],[139.0103659,35.9681986],[139.0103466,35.9682277],[139.0103229,35.9682561],[139.0102986,35.9682958],[139.0102784,35.9683559],[139.0102646,35.9684084],[139.0102665,35.9684651],[139.0102738,35.9685098],[139.0102903,35.9685463],[139.0103105,35.9685703],[139.0103424,35.9685955],[139.0103974,35.9686347],[139.0104629,35.9686597],[139.0105416,35.9686757],[139.0106171,35.9686795],[139.0107018,35.9686762],[139.0107959,35.9686678],[139.0108495,35.9686678],[139.0108982,35.9686745],[139.0109288,35.9686806],[139.0109569,35.96869],[139.0109937,35.9687112],[139.0110259,35.9687431],[139.011048,35.9687698],[139.0110624,35.9687941],[139.0110747,35.9688199],[139.0110943,35.9688521],[139.0111294,35.9688907],[139.0111589,35.9689159],[139.0111915,35.968949],[139.0112249,35.968977],[139.0112751,35.9690098],[139.011312,35.9690287],[139.0113579,35.96905],[139.0114442,35.9690966],[139.0114396,35.9691656],[139.0114401,35.9691682],[139.011441,35.9691706],[139.0114418,35.9691731],[139.0114431,35.9691755],[139.0114442,35.9691778],[139.0114457,35.9691802],[139.0114473,35.9691824],[139.011449,35.9691845],[139.0114509,35.9691866],[139.0114529,35.9691886],[139.0114549,35.9691903],[139.0114572,35.9691922],[139.0114594,35.9691939],[139.011462,35.9691954],[139.0114645,35.969197],[139.0114671,35.9691984],[139.01147,35.9691995],[139.0114728,35.9692006],[139.0114758,35.9692017],[139.0114788,35.9692026],[139.0114817,35.9692032],[139.0114848,35.9692039],[139.011488,35.9692043],[139.0114911,35.9692046],[139.0114942,35.9692048],[139.0114953,35.9692049],[139.0115049,35.9692057],[139.0115144,35.9692061],[139.0116412,35.9692615],[139.0120556,35.9693971],[139.012211,35.9694972],[139.0125,35.96956825595825],[139.0125,35.969951808276],[139.0124899,35.9700363],[139.0124748,35.9701169],[139.0124759,35.9701518],[139.0124798,35.9702845],[139.0124308,35.9704178],[139.0124228,35.9704631],[139.0124191,35.9705004],[139.0124228,35.9705482],[139.0124248,35.9705889],[139.0124271,35.9706154],[139.0124342,35.9706466],[139.0124609,35.9707342],[139.0124899,35.9708365],[139.0125,35.97086839473683],[139.0125,35.97237955912241]]],[[[139.0122819,35.9716907],[139.012232,35.9716981],[139.0121977,35.9717057],[139.0121504,35.9717166],[139.0121039,35.9717324],[139.0120611,35.9717625],[139.0120196,35.9718],[139.0119967,35.971822],[139.011969,35.9718557],[139.0119582,35.9718811],[139.0119626,35.971909],[139.0119785,35.9719394],[139.0119965,35.9719737],[139.0120096,35.9720007],[139.0120233,35.9720388],[139.0120373,35.9720884],[139.0120888,35.9722128],[139.0121536,35.9722113],[139.0121875,35.9722044],[139.0122192,35.9721974],[139.0122513,35.9721878],[139.0122787,35.9721678],[139.0123073,35.972126],[139.0123113,35.9721201],[139.0123226,35.9720989],[139.0123302,35.9720848],[139.0123451,35.9720451],[139.0123578,35.97201],[139.0123705,35.9719679],[139.0123782,35.9719316],[139.0123861,35.9718874],[139.012393,35.9718472],[139.0124035,35.9718027],[139.0124118,35.9717716],[139.0124092,35.9717177],[139.0123952,35.9716993],[139.0123593,35.9716889],[139.0123239,35.971688],[139.0122819,35.9716907]]]]},"properties":{"layer":"landuse","class_code":"203","class_label":"山林（樹林地）"}},{"type":"Feature","id":"luse_78099ccc-ee65-4fd8-b9f3-2496d21ce621","geometry":{"type":"Polygon","coordinates":[[[139.0095853,35.9712372],[139.0093769,35.9712842],[139.00934,35.9712787],[139.0093233,35.9712733],[139.0093169,35.9712708],[139.0092796,35.9712559],[139.0092353,35.9711595],[139.009232,35.9711282],[139.0092238,35.9710506],[139.0092026,35.9709144],[139.0091861,35.9709142],[139.0091861,35.9709145],[139.0091499,35.9708879],[139.0088255,35.9708716],[139.0087633,35.9708103],[139.0088041,35.9706624],[139.0087999,35.9706477],[139.0089532,35.9707183],[139.0091269,35.9706349],[139.0092417,35.9706605],[139.0093186,35.9707106],[139.0093105,35.9708098],[139.0092914,35.9708402],[139.0093141,35.9709166],[139.0093607,35.9711745],[139.0095493,35.9711566],[139.0095755,35.9712157],[139.0095853,35.9712372]]]},"properties":{"layer":"landuse","class_code":"211","class_label":"住宅用地（住宅、共同住宅、店舗等併用住宅、店舗等併用共同住宅、作業所併用住宅）"}},{"type":"Feature","id":"luse_80994f1c-e799-4528-a813-4015d0170107","geometry":{"type":"Polygon","coordinates":[[[139.0085703,35.9715097],[139.0083937,35.9715782],[139.0083557,35.9715915],[139.0083045,35.9716094],[139.0082944,35.971613],[139.0082835,35.9716163],[139.0082568,35.9716188],[139.0082299,35.9716176],[139.0082139,35.9716147],[139.0082178,35.9715963],[139.0082452,35.9715471],[139.0082846,35.9714422],[139.0084144,35.9714597],[139.0086659,35.9713616],[139.0088339,35.971344],[139.0087995,35.9712791],[139.0087757,35.9712084],[139.009208,35.971164],[139.0092627,35.971283],[139.0092617,35.9712881],[139.0092467,35.9713166],[139.0092463,35.9713166],[139.0089229,35.9713972],[139.0087659,35.9714433],[139.0085703,35.9715097]]]},"properties":{"layer":"landuse","class_code":"211","class_label":"住宅用地（住宅、共同住宅、店舗等併用住宅、店舗等併用共同住宅、作業所併用住宅）"}},{"type":"Feature","id":"luse_1058c8f1-970d-4084-b49f-06ea74f206f1","geometry":{"type":"Polygon","coordinates":[[[139.0088398,35.9715893],[139.0088117,35.9716741],[139.0086958,35.9717406],[139.0085636,35.9717668],[139.008426,35.9717841],[139.0083654,35.9718098],[139.0083317,35.9717721],[139.0082427,35.9717365],[139.0082952,35.9716687],[139.0083841,35.9716178],[139.0084684,35.9715785],[139.0085838,35.9715344],[139.0087456,35.9714795],[139.0087469,35.9714791],[139.0087537,35.9714768],[139.0088398,35.9715893]]]},"properties":{"layer":"landuse","class_code":"211","class_label":"住宅用地（住宅、共同住宅、店舗等併用住宅、店舗等併用共同住宅、作業所併用住宅）"}},{"type":"Feature","id":"luse_36e979eb-8258-4243-ab79-75017423ad78","geometry":{"type":"Polygon","coordinates":[[[139.0073684,35.9720297],[139.0074065,35.9720718],[139.007449,35.9721674],[139.0074668,35.9722304],[139.0074532,35.9723178],[139.0074375,35.9723927],[139.0074325,35.9724103],[139.0074069,35.9724998],[139.0073808,35.9725727],[139.0073604,35.972622],[139.0070953,35.9725783],[139.0070356,35.9724529],[139.0070753,35.9722742],[139.0071586,35.9721584],[139.0072476,35.9720157],[139.0073684,35.9720297]]]},"properties":{"layer":"landuse","class_code":"211","class_label":"住宅用地（住宅、共同住宅、店舗等併用住宅、店舗等併用共同住宅、作業所併用住宅）"}},{"type":"Feature","id":"luse_e39e2736-e37e-40d7-8484-6b01743b44ac","geometry":{"type":"Polygon","coordinates":[[[139.0074301,35.9733716],[139.0074277,35.9735981],[139.0073893,35.9736217],[139.0071342,35.9736152],[139.0071331,35.9734363],[139.0072233,35.9732271],[139.0072747,35.97323],[139.0072573,35.9733091],[139.0072845,35.9733126],[139.007302,35.9732335],[139.0073871,35.9732735],[139.0074301,35.9733716]]]},"properties":{"layer":"landuse","class_code":"211","class_label":"住宅用地（住宅、共同住宅、店舗等併用住宅、店舗等併用共同住宅、作業所併用住宅）"}},{"type":"Feature","id":"luse_ed129cfa-d13f-4666-9c66-30ccd02b664c","geometry":{"type":"Polygon","coordinates":[[[139.0077137,35.9720449],[139.0076123,35.9721078],[139.0075959,35.9721172],[139.0075509,35.9721431],[139.0075392,35.9721498],[139.0075276,35.9721565],[139.0075171,35.9721625],[139.0075164,35.972163],[139.00749,35.9721866],[139.0074842,35.9721943],[139.0074733,35.9722128],[139.007467,35.9722295],[139.0074668,35.9722304],[139.007449,35.9721674],[139.0074065,35.9720718],[139.0073684,35.9720297],[139.0072476,35.9720157],[139.007122,35.9719468],[139.007095,35.9719548],[139.0070243,35.9719878],[139.0069868,35.9719884],[139.0067052,35.9718774],[139.006651,35.9718352],[139.0067933,35.971559],[139.0069886,35.9715821],[139.0069972,35.9715496],[139.0070426,35.9713777],[139.0071357,35.9713259],[139.0072967,35.9712559],[139.0074949,35.9712256],[139.0077862,35.9712492],[139.007907,35.9712766],[139.0080814,35.9713715],[139.008072,35.9714075],[139.0080269,35.9715002],[139.0080179,35.9715121],[139.0080097,35.9715178],[139.007977,35.9715297],[139.0079491,35.9715399],[139.0077397,35.9715612],[139.0077067,35.9715646],[139.0077119,35.9715992],[139.007952,35.9715749],[139.0079915,35.971575],[139.008014,35.9715763],[139.0080336,35.9715823],[139.008051,35.9715917],[139.0080772,35.9716173],[139.0081067,35.9716382],[139.0081414,35.9716557],[139.008175,35.971667],[139.0081792,35.9716684],[139.0082008,35.9716732],[139.0081999,35.9716893],[139.008196,35.9717009],[139.0081873,35.9717143],[139.0081777,35.9717236],[139.0081661,35.9717312],[139.0081442,35.9717438],[139.0081179,35.9717551],[139.0080969,35.9717608],[139.0080677,35.9717646],[139.0080528,35.9717648],[139.0080424,35.971763],[139.0078988,35.9717377],[139.0078484,35.9717359],[139.0078479,35.9717358],[139.0078441,35.9717357],[139.0078253,35.971736],[139.0078179,35.9717361],[139.0077831,35.9717399],[139.0077373,35.971752],[139.0076761,35.9717757],[139.0075868,35.9718104],[139.0074995,35.9718225],[139.0074992,35.9718225],[139.0074679,35.9718282],[139.007436,35.9718315],[139.0074249,35.9718318],[139.0074039,35.9718323],[139.0074036,35.9718323],[139.0073779,35.9718312],[139.0073733,35.9718307],[139.0073462,35.9718275],[139.0073458,35.9718275],[139.0073149,35.9718214],[139.0073145,35.9718213],[139.0072842,35.9718128],[139.0072836,35.9718126],[139.0072551,35.971802],[139.0072224,35.9717865],[139.0072072,35.9718053],[139.0072422,35.971822],[139.007274,35.9718338],[139.0073014,35.9718415],[139.007307,35.971843],[139.0073407,35.9718496],[139.007341,35.9718497],[139.0073752,35.9718536],[139.0074034,35.9718549],[139.0074382,35.971854],[139.0074727,35.9718504],[139.0075031,35.9718403],[139.0075904,35.9718282],[139.0075907,35.9718281],[139.0076428,35.9718185],[139.0076431,35.9718184],[139.0077495,35.9717773],[139.0077906,35.9717664],[139.0078069,35.9717645],[139.0078442,35.9717627],[139.0078696,35.9717636],[139.007894,35.9717645],[139.0080114,35.9717852],[139.0080382,35.9717899],[139.0080465,35.9717953],[139.0080506,35.9718006],[139.0080386,35.9718272],[139.0079234,35.9718916],[139.0077137,35.9720449]]]},"properties":{"layer":"landuse","class_code":"212","class_label":"商業用地（業務施設、商業施設、宿泊施設、商業系複合施設）"}},{"type":"Feature","id":"luse_b5647a39-d9a3-4557-bf71-13b93439436a","geometry":{"type":"Polygon","coordinates":[[[139.0125,35.968741329083585],[139.0125,35.96956825595825],[139.012211,35.9694972],[139.0120556,35.9693971],[139.0116412,35.9692615],[139.0115144,35.9692061],[139.0115049,35.9692057],[139.0114953,35.9692049],[139.0114942,35.9692048],[139.0114911,35.9692046],[139.011488,35.9692043],[139.0114848,35.9692039],[139.0114817,35.9692032],[139.0114788,35.9692026],[139.0114758,35.9692017],[139.0114728,35.9692006],[139.01147,35.9691995],[139.0114671,35.9691984],[139.0114645,35.969197],[139.011462,35.9691954],[139.0114594,35.9691939],[139.0114572,35.9691922],[139.0114549,35.9691903],[139.0114529,35.9691886],[139.0114509,35.9691866],[139.011449,35.9691845],[139.0114473,35.9691824],[139.0114457,35.9691802],[139.0114442,35.9691778],[139.0114431,35.9691755],[139.0114418,35.9691731],[139.011441,35.9691706],[139.0114401,35.9691682],[139.0114396,35.9691656],[139.0114442,35.9690966],[139.0113579,35.96905],[139.011312,35.9690287],[139.0112751,35.9690098],[139.0112249,35.968977],[139.0111915,35.968949],[139.0111589,35.9689159],[139.0111294,35.9688907],[139.0110943,35.9688521],[139.0110747,35.9688199],[139.0110624,35.9687941],[139.011048,35.9687698],[139.0110259,35.9687431],[139.0109937,35.9687112],[139.0109569,35.96869],[139.0109288,35.9686806],[139.0108982,35.9686745],[139.0108495,35.9686678],[139.0107959,35.9686678],[139.0107018,35.9686762],[139.0106171,35.9686795],[139.0105416,35.9686757],[139.0104629,35.9686597],[139.0103974,35.9686347],[139.0103424,35.9685955],[139.0103105,35.9685703],[139.0102903,35.9685463],[139.0102738,35.9685098],[139.0102665,35.9684651],[139.0102646,35.9684084],[139.0102784,35.9683559],[139.0102986,35.9682958],[139.0103229,35.9682561],[139.0103466,35.9682277],[139.0103659,35.9681986],[139.010384,35.9681536],[139.0103881,35.9681235],[139.0103891,35.9680769],[139.0103892,35.968029],[139.0103878,35.9679898],[139.0103873,35.9679469],[139.0103913,35.9678995],[139.0104067,35.9678533],[139.0104388,35.9678191],[139.0104976,35.9677938],[139.0105654,35.9677793],[139.010625,35.9677674],[139.0106866,35.9677398],[139.0107284,35.9677136],[139.0107529,35.9676896],[139.0107689,35.9676557],[139.0107775,35.9676296],[139.0107798,35.9676015],[139.0107792,35.9675612],[139.0107811,35.9675259],[139.0108156,35.9674929],[139.0109335,35.9674471],[139.0109651,35.9674458],[139.0112261,35.9674528],[139.0112933,35.9674381],[139.0113069,35.9674332],[139.01132,35.9674276],[139.0113329,35.9674216],[139.0113453,35.9674149],[139.0113572,35.9674077],[139.0113687,35.9673999],[139.0113796,35.9673917],[139.0113879,35.9673848],[139.0114006,35.9673754],[139.0114125,35.9673655],[139.011424,35.967355],[139.0114345,35.967344],[139.0114444,35.9673327],[139.0114534,35.9673211],[139.0114617,35.9673089],[139.0114692,35.9672963],[139.0114757,35.9672834],[139.0114815,35.9672703],[139.0114863,35.9672569],[139.0114903,35.9672433],[139.0114933,35.9672296],[139.0114954,35.9672157],[139.0114965,35.9672018],[139.0114968,35.9671879],[139.0114961,35.9671739],[139.0114944,35.96716],[139.0114938,35.9671568],[139.0114919,35.9671462],[139.0114884,35.9671326],[139.011484,35.9671191],[139.0114787,35.9671059],[139.0114725,35.9670928],[139.0114654,35.9670801],[139.0114575,35.9670678],[139.0114488,35.9670557],[139.0114458,35.967052],[139.0114421,35.9670475],[139.0114472,35.967001],[139.0114493,35.9669888],[139.011451,35.9669789],[139.0114704,35.966949],[139.0115151,35.9669133],[139.011562,35.9668877],[139.011611,35.9668641],[139.0116458,35.966848],[139.0116885,35.966831],[139.0117285,35.9668166],[139.0117831,35.9667965],[139.0118804,35.9667457],[139.0118859,35.9667422],[139.0119488,35.9667019],[139.01198403333333,35.96666666666667],[139.0125,35.96666666666667],[139.0125,35.966811243200965],[139.0124495,35.9668536],[139.0123199,35.9669871],[139.0121364,35.9671231],[139.0120795,35.9671714],[139.012044,35.9672136],[139.0119944,35.9672871],[139.011972,35.967331],[139.0119253,35.9674565],[139.0118696,35.9675942],[139.0118545,35.9676645],[139.0118562,35.9676913],[139.0118742,35.9677506],[139.0119005,35.9678146],[139.0119271,35.9678874],[139.0119961,35.9680025],[139.0120402,35.9680625],[139.0121069,35.968134],[139.0121579,35.9681857],[139.012268,35.9682965],[139.0123255,35.9683717],[139.0124016,35.9684702],[139.0124314,35.968525],[139.0124523,35.9685869],[139.0124846,35.9686612],[139.0125,35.968741329083585]]]},"properties":{"layer":"landuse","class_code":"220","class_label":"その他①（ゴルフ場）"}},{"type":"Feature","id":"luse_c36046a9-3e99-4d92-9354-2e9ebad131a0","geometry":{"type":"Polygon","coordinates":[[[139.0072747,35.97323],[139.007282,35.9731972],[139.0073092,35.9731019],[139.0073287,35.973044],[139.0073646,35.9729507],[139.0074789,35.9727029],[139.00754,35.9725496],[139.007559,35.9724971],[139.0076082,35.9723409],[139.0076185,35.9723014],[139.0076269,35.9722473],[139.0076289,35.9721928],[139.0076242,35.9721353],[139.00755,35.9721778],[139.0075377,35.9721837],[139.0075296,35.9721899],[139.0075158,35.972204],[139.0075065,35.9722182],[139.0074997,35.9722354],[139.0074861,35.9723217],[139.0074701,35.9723978],[139.0074616,35.9724318],[139.0074393,35.9725068],[139.0074126,35.9725809],[139.0071869,35.9731279],[139.0071471,35.9732139],[139.0071024,35.973298],[139.0070349,35.9734088],[139.007002,35.973471],[139.0069766,35.9735353],[139.0069589,35.9736013],[139.0069503,35.9736535],[139.0069463,35.9737212],[139.0069449,35.9737939],[139.0069387,35.9738496],[139.0069315,35.9738885],[139.0068893,35.9741976],[139.0068667,35.9744094],[139.0068471,35.9744774],[139.006825,35.9745443],[139.0067896,35.9746197],[139.0067717,35.9746524],[139.0067356,35.9747329],[139.0067107,35.9748093],[139.0066886,35.9749214],[139.0066793,35.9749549],[139.0066661,35.9749878],[139.00665955741326,35.975],[139.00662910067112,35.975],[139.00664,35.9749797],[139.0066524,35.974949],[139.0066613,35.9749173],[139.0066835,35.9748046],[139.0067089,35.9747261],[139.0067461,35.9746439],[139.0067641,35.974611],[139.0067983,35.9745378],[139.00682,35.9744727],[139.0068335,35.9744062],[139.0068561,35.9741949],[139.0068797,35.974023],[139.0068985,35.973885],[139.006904,35.9738554],[139.0069056,35.9738463],[139.0069115,35.9737926],[139.006913,35.973721],[139.0069141,35.9736859],[139.0069197,35.9736314],[139.006926,35.9735967],[139.0069341,35.9735634],[139.0069343,35.9735623],[139.0069445,35.9735283],[139.0069568,35.9734947],[139.0069708,35.9734615],[139.0069868,35.973429],[139.0070117,35.9733861],[139.007072,35.9732869],[139.007116,35.9732038],[139.0071555,35.973119],[139.0073505,35.9726456],[139.0073553,35.9726342],[139.0073604,35.972622],[139.0073808,35.9725727],[139.0074069,35.9724998],[139.0074325,35.9724103],[139.0074375,35.9723927],[139.0074532,35.9723178],[139.0074668,35.9722304],[139.007467,35.9722295],[139.0074733,35.9722128],[139.0074842,35.9721943],[139.00749,35.9721866],[139.0075164,35.972163],[139.0075171,35.9721625],[139.0075276,35.9721565],[139.0075392,35.9721498],[139.0075509,35.9721431],[139.0075959,35.9721172],[139.0076123,35.9721078],[139.0077137,35.9720449],[139.0079234,35.9718916],[139.0080386,35.9718272],[139.0080506,35.9718006],[139.0080465,35.9717953],[139.0080382,35.9717899],[139.0080114,35.9717852],[139.007894,35.9717645],[139.0078696,35.9717636],[139.0078442,35.9717627],[139.0078069,35.9717645],[139.0077906,35.9717664],[139.0077495,35.9717773],[139.0076431,35.9718184],[139.0076428,35.9718185],[139.0075907,35.9718281],[139.0075904,35.9718282],[139.0075031,35.9718403],[139.0074727,35.9718504],[139.0074382,35.971854],[139.0074034,35.9718549],[139.0073752,35.9718536],[139.007341,35.9718497],[139.0073407,35.9718496],[139.007307,35.971843],[139.0073014,35.9718415],[139.007274,35.9718338],[139.0072422,35.971822],[139.0072072,35.9718053],[139.0072224,35.9717865],[139.0072551,35.971802],[139.0072836,35.9718126],[139.0072842,35.9718128],[139.0073145,35.9718213],[139.0073149,35.9718214],[139.0073458,35.9718275],[139.0073462,35.9718275],[139.0073733,35.9718307],[139.0073779,35.9718312],[139.0074036,35.9718323],[139.0074039,35.9718323],[139.0074249,35.9718318],[139.007436,35.9718315],[139.0074679,35.9718282],[139.0074992,35.9718225],[139.0074995,35.9718225],[139.0075868,35.9718104],[139.0076761,35.9717757],[139.0077373,35.971752],[139.0077831,35.9717399],[139.0078179,35.9717361],[139.0078253,35.971736],[139.0078441,35.9717357],[139.0078479,35.9717358],[139.0078484,35.9717359],[139.0078988,35.9717377],[139.0080424,35.971763],[139.0080528,35.9717648],[139.0080677,35.9717646],[139.0080969,35.9717608],[139.0081179,35.9717551],[139.0081442,35.9717438],[139.0081661,35.9717312],[139.0081777,35.9717236],[139.0081873,35.9717143],[139.008196,35.9717009],[139.0081999,35.9716893],[139.0082008,35.9716732],[139.0081792,35.9716684],[139.008175,35.971667],[139.0081414,35.9716557],[139.0081067,35.9716382],[139.0080772,35.9716173],[139.008051,35.9715917],[139.0080336,35.9715823],[139.008014,35.9715763],[139.0079915,35.971575],[139.007952,35.9715749],[139.0077119,35.9715992],[139.0077067,35.9715646],[139.0077397,35.9715612],[139.0079491,35.9715399],[139.007977,35.9715297],[139.0080097,35.9715178],[139.0080179,35.9715121],[139.0080269,35.9715002],[139.008072,35.9714075],[139.0080814,35.9713715],[139.0081273,35.9711974],[139.0082251,35.9708568],[139.0082904,35.9707494],[139.0082967,35.970733],[139.0083033,35.9707034],[139.0083035,35.9706732],[139.0082981,35.9706431],[139.0082899,35.9706215],[139.0082773,35.9705987],[139.0082692,35.9705914],[139.0080656,35.9703996],[139.0080417,35.9703721],[139.0080301,35.9703492],[139.0080165,35.9703077],[139.0080107,35.970287],[139.0080076,35.9702617],[139.0080092,35.9702351],[139.0080177,35.9701898],[139.0080319,35.9701213],[139.0080474,35.9700617],[139.0080988,35.9698086],[139.0081087,35.9697513],[139.0080945,35.9696883],[139.0080729,35.9696114],[139.0080861,35.9694297],[139.0081013,35.9694089],[139.0081234,35.969369],[139.0081452,35.969306],[139.0081515,35.969042],[139.0081468,35.9689557],[139.0081157,35.9688215],[139.008085,35.9686705],[139.0080825,35.9685194],[139.0081491,35.968095],[139.0081608,35.9680639],[139.0081804,35.9680446],[139.0082251,35.9680083],[139.0082856,35.9679495],[139.0083064,35.9679362],[139.0083181,35.9678987],[139.0083238,35.9678864],[139.0083536,35.9678697],[139.0083773,35.9678649],[139.0083777,35.9678649],[139.0084195,35.967864],[139.0084198,35.9678639],[139.0087038,35.9676828],[139.0088,35.9676143],[139.0088208,35.9675957],[139.0088385,35.9675753],[139.0088549,35.9675506],[139.0088665,35.9675274],[139.0088739,35.9675055],[139.0088724,35.9674918],[139.0088658,35.9674641],[139.0088549,35.9672346],[139.0088752,35.9672042],[139.0089075,35.9671741],[139.0090903,35.9670513],[139.0092814,35.9669117],[139.009381,35.9668094],[139.0094534,35.9667281],[139.00950358269654,35.96666666666667],[139.0095691364836,35.96666666666667],[139.009531,35.9667153],[139.0095098,35.9667403],[139.0094661,35.9667916],[139.0093906,35.9668733],[139.0093185,35.9669452],[139.0091265,35.9670855],[139.0089463,35.9672065],[139.008921,35.96723],[139.0089109,35.9672452],[139.008921,35.9674589],[139.008928,35.9674878],[139.0089274,35.9675175],[139.0089244,35.9675272],[139.0089127,35.9675558],[139.0088979,35.9675819],[139.0088787,35.9676077],[139.0088561,35.9676316],[139.0088302,35.9676532],[139.0088017,35.9676723],[139.0087706,35.9676888],[139.0087306,35.9677114],[139.0083167,35.9679755],[139.0082623,35.9680283],[139.0082214,35.9680941],[139.0082195,35.9680973],[139.0081933,35.9681639],[139.0081745,35.9682268],[139.0081708,35.9682393],[139.0081317,35.9684865],[139.008135,35.9686667],[139.0081649,35.9688149],[139.0081963,35.9689505],[139.0082014,35.9690417],[139.0081949,35.9693084],[139.0082115,35.9694039],[139.0082139,35.9694286],[139.0081988,35.9696355],[139.00819,35.9696858],[139.0081498,35.9697745],[139.0081374,35.9698395],[139.0081208,35.9699259],[139.0080909,35.9700687],[139.0080769,35.9701217],[139.0080615,35.970195],[139.0080532,35.9702392],[139.0080521,35.9702607],[139.0080531,35.9702692],[139.0080543,35.9702792],[139.0080545,35.9702811],[139.0080606,35.9703021],[139.0080622,35.9703061],[139.0080722,35.9703378],[139.0080808,35.9703547],[139.008091,35.9703665],[139.0080923,35.970368],[139.0080926,35.9703685],[139.008094,35.9703699],[139.0081004,35.9703773],[139.0082484,35.9705163],[139.0082669,35.9705337],[139.0082837,35.9705495],[139.0083081,35.9705787],[139.0083265,35.9706106],[139.008336,35.9706362],[139.0083425,35.970671],[139.0083422,35.9706888],[139.0083419,35.9707064],[139.0083342,35.9707411],[139.0083257,35.9707626],[139.0082627,35.9708545],[139.0082567,35.9708655],[139.0081597,35.9712033],[139.0080939,35.9714515],[139.0080912,35.9714802],[139.0080929,35.9715018],[139.0081002,35.97153],[139.0081131,35.9715568],[139.0081327,35.9715772],[139.0081529,35.9715917],[139.0081754,35.9716035],[139.0082036,35.9716129],[139.0082139,35.9716147],[139.0082299,35.9716176],[139.0082568,35.9716188],[139.0082835,35.9716163],[139.0082944,35.971613],[139.0083045,35.9716094],[139.0083557,35.9715915],[139.0083937,35.9715782],[139.0085703,35.9715097],[139.0087659,35.9714433],[139.0089229,35.9713972],[139.0092463,35.9713166],[139.0092467,35.9713166],[139.0092617,35.9712881],[139.0092627,35.971283],[139.009208,35.971164],[139.0092034,35.97112],[139.0091962,35.9710522],[139.0091861,35.9709145],[139.0091861,35.9709142],[139.0092026,35.9709144],[139.0092238,35.9710506],[139.009232,35.9711282],[139.0092353,35.9711595],[139.0092796,35.9712559],[139.0093169,35.9712708],[139.0093233,35.9712733],[139.00934,35.9712787],[139.0093769,35.9712842],[139.0095853,35.9712372],[139.0096229,35.9712305],[139.0096478,35.9712272],[139.0096609,35.9712255],[139.0096796,35.9712239],[139.0096992,35.9712222],[139.0097436,35.9712204],[139.0097819,35.9712208],[139.0097823,35.9712208],[139.0098204,35.9712228],[139.0098208,35.9712229],[139.0098985,35.9712394],[139.009957,35.9712551],[139.0100358,35.9712808],[139.0100367,35.9712812],[139.0100913,35.9713025],[139.0101456,35.9713267],[139.0102201,35.971356],[139.0102204,35.9713561],[139.010293,35.9713887],[139.0103638,35.9714245],[139.0104315,35.9714634],[139.0104884,35.9714995],[139.0105511,35.9715438],[139.0107153,35.9716738],[139.0108195,35.9717479],[139.0109287,35.9718172],[139.0110332,35.9718767],[139.0111507,35.9719363],[139.0112013,35.971964],[139.0112633,35.9719909],[139.0113336,35.9720143],[139.0113894,35.9720359],[139.011437,35.9720595],[139.0114818,35.9720863],[139.0115182,35.9721104],[139.0115527,35.9721359],[139.0115856,35.972163],[139.0116166,35.9721916],[139.0116577,35.9722351],[139.0116837,35.9722667],[139.0117209,35.9723157],[139.011752,35.9723508],[139.0117854,35.9723846],[139.0118364,35.9724294],[139.011875,35.9724593],[139.0119157,35.9724873],[139.0121397,35.972614],[139.0121472,35.9726182],[139.0121314,35.9726337],[139.0120896,35.9726745],[139.0120881,35.9726782],[139.0120864,35.9726774],[139.0120861,35.9726772],[139.0118577,35.9725479],[139.011812,35.9725162],[139.0117524,35.9724692],[139.0117136,35.9724343],[139.0116771,35.9723974],[139.0116277,35.9723401],[139.011604,35.9723075],[139.0115704,35.9722677],[139.011544,35.9722407],[139.0115164,35.9722153],[139.0114874,35.9721912],[139.0114566,35.9721683],[139.0114063,35.9721359],[139.011362,35.9721114],[139.0113214,35.9720936],[139.0112401,35.9720666],[139.0111873,35.9720458],[139.0111523,35.9720295],[139.0110981,35.9720001],[139.0109809,35.9719406],[139.0108726,35.9718788],[139.0107595,35.9718069],[139.0106513,35.9717301],[139.0104874,35.9716002],[139.0104284,35.9715586],[139.0103755,35.9715249],[139.0103114,35.9714883],[139.0102455,35.9714547],[139.010177,35.9714241],[139.010102,35.9713948],[139.0099988,35.9713464],[139.0099269,35.9713229],[139.0098732,35.9713085],[139.0098728,35.9713084],[139.0098076,35.9712944],[139.0097162,35.9712905],[139.009641,35.971291],[139.0096406,35.971291],[139.0095657,35.9712948],[139.0095653,35.9712948],[139.0094983,35.9713011],[139.0094979,35.9713011],[139.0094511,35.9713075],[139.0094236,35.9713113],[139.0091634,35.9713665],[139.0091354,35.9713724],[139.0089337,35.9714229],[139.0087782,35.9714685],[139.0087537,35.9714768],[139.0087469,35.9714791],[139.0087456,35.9714795],[139.0085838,35.9715344],[139.0084684,35.9715785],[139.0083841,35.9716178],[139.0082952,35.9716687],[139.0082427,35.9717365],[139.0081571,35.9717937],[139.007944,35.9719128],[139.007735,35.9720657],[139.0076696,35.972106],[139.0076552,35.9721607],[139.0076568,35.9721927],[139.0076546,35.9722491],[139.0076458,35.9723052],[139.0076351,35.9723463],[139.0075857,35.972503],[139.0075667,35.9725562],[139.0075051,35.9727104],[139.007391,35.972958],[139.0073552,35.9730503],[139.0073361,35.9731074],[139.0073091,35.9732017],[139.007302,35.9732335],[139.0072845,35.9733126],[139.0072573,35.9733091],[139.0072747,35.97323]]]},"properties":{"layer":"landuse","class_code":"215","class_label":"道路用地（道路、駅前広場、私有地内に存在する沿道用途の「私道」または、私有地の一部分であるものの公共の通行に供されている土地の部分）"}}]}