{"type":"FeatureCollection","properties":{"mesh_code":"53397032","source":"PLATEAU秩父市2025","layer":"landuse"},"features":[{"type":"Feature","id":"luse_e40b40b6-30cf-4d30-be3e-e3c9473b0ca2","geometry":{"type":"Polygon","coordinates":[[[139.0269827,35.9442468],[139.0268861,35.9443829],[139.0268136,35.9444815],[139.0267175,35.9446283],[139.0266535,35.9445351],[139.0266991,35.944442],[139.0266843,35.944274],[139.0266828,35.9441996],[139.0266373,35.9440581],[139.0267646,35.9439941],[139.0268191,35.9439429],[139.0268383,35.9439011],[139.0268624,35.9438402],[139.0268791,35.9438098],[139.0270999,35.9437827],[139.0271005,35.9437254],[139.0272087,35.9436975],[139.0273816,35.9435673],[139.027271,35.9437096],[139.0272601,35.9437303],[139.0272565,35.9437345],[139.0272305,35.9437543],[139.0271709,35.9438098],[139.0271348,35.9438538],[139.027125,35.9438751],[139.027113,35.9438955],[139.0271072,35.9439042],[139.0270925,35.9439235],[139.0270796,35.943938],[139.0270701,35.9439498],[139.0270595,35.943961],[139.027048,35.9439714],[139.0270436,35.9439748],[139.026997,35.9440236],[139.026989,35.9440323],[139.0269033,35.9441327],[139.026888,35.9441377],[139.0268704,35.9441374],[139.026866,35.9441345],[139.0268597,35.9441325],[139.0268554,35.9441288],[139.0268059,35.9440627],[139.0267822,35.9440744],[139.0268332,35.9441427],[139.0268443,35.9441517],[139.0268652,35.9441672],[139.0268733,35.9441713],[139.0268804,35.9441713],[139.0268871,35.9441714],[139.0268994,35.9441669],[139.0269078,35.944162],[139.0269214,35.944151],[139.0270119,35.9440451],[139.0270189,35.9440375],[139.0270643,35.9439899],[139.0270679,35.9439871],[139.0270809,35.9439755],[139.0270927,35.9439628],[139.0271024,35.9439508],[139.0271155,35.943936],[139.0271311,35.9439156],[139.0271377,35.9439058],[139.0271505,35.9438839],[139.0271598,35.9438642],[139.0271929,35.9438235],[139.0272192,35.9437991],[139.0272246,35.9437967],[139.0272317,35.9437961],[139.0272358,35.9437965],[139.027239,35.9437969],[139.0272425,35.9437995],[139.0272433,35.9438048],[139.0272267,35.9438608],[139.0272156,35.943898],[139.0272007,35.9439294],[139.0271806,35.9439674],[139.0271676,35.9439901],[139.0271509,35.9440192],[139.0270999,35.944089],[139.0270539,35.9441509],[139.0269827,35.9442468]]]},"properties":{"layer":"landuse","class_code":"202","class_label":"畑（畑、樹園地、採草地、養鶏（牛・豚）場）"}},{"type":"Feature","id":"luse_cd408d8a-ab86-4b34-962e-7e1a4ec0f6a1","geometry":{"type":"Polygon","coordinates":[[[139.025663,35.9457136],[139.0256495,35.9457519],[139.0256144,35.9458512],[139.0255817,35.9459275],[139.0255558,35.9459544],[139.0255616,35.9459469],[139.0255828,35.9459144],[139.0255879,35.9459051],[139.025605,35.945871],[139.0256188,35.9458356],[139.0256291,35.9457996],[139.0256324,35.9457846],[139.0256531,35.9457332],[139.0256562,35.9457169],[139.0256606,35.9457016],[139.0256635,35.945694],[139.0256701,35.9456792],[139.0256784,35.9456649],[139.0256801,35.9456623],[139.0257198,35.9455999],[139.0257318,35.9455812],[139.0257558,35.9455564],[139.0257784,35.9455348],[139.0258099,35.9455078],[139.0260049,35.9456157],[139.0262308,35.9453826],[139.0261015,35.9452594],[139.0262112,35.9451819],[139.026229,35.9451694],[139.026413,35.9450313],[139.0264919,35.9451122],[139.0266213,35.9451961],[139.0267118,35.9451297],[139.0268792,35.9449563],[139.0269684,35.9449045],[139.0269632,35.9448374],[139.026835,35.9448143],[139.026871,35.9446439],[139.0268843,35.9445964],[139.026864,35.944582],[139.0268633,35.944583],[139.0268182,35.9445358],[139.0268598,35.944469],[139.0268636,35.944464],[139.0268647,35.9444644],[139.0268746,35.9444496],[139.0269236,35.944375],[139.0270067,35.9442582],[139.0270587,35.9441882],[139.0271238,35.9441006],[139.0271754,35.9440297],[139.0272061,35.9439767],[139.0272265,35.9439378],[139.0272315,35.9439273],[139.0272421,35.9439048],[139.0272538,35.9438662],[139.0272643,35.9438167],[139.0272758,35.9437659],[139.0272845,35.9437416],[139.0272957,35.9437201],[139.0275156,35.9434371],[139.0275573,35.9433823],[139.0275906,35.9433297],[139.0275868,35.9433423],[139.0275118,35.9434679],[139.0275604,35.9435222],[139.0275613,35.9435302],[139.0277551,35.9436801],[139.0278782,35.9437494],[139.0279098,35.9438869],[139.0278114,35.944024],[139.0277523,35.9441084],[139.027745,35.9442352],[139.0276081,35.9442876],[139.0275299,35.9443242],[139.0275482,35.9444882],[139.0275214,35.9446203],[139.027417,35.9446674],[139.0272415,35.944672],[139.0271501,35.9447191],[139.0270904,35.944904],[139.0270183,35.9449882],[139.0270064,35.9451059],[139.0269963,35.9451168],[139.0269722,35.9451281],[139.0269265,35.945149],[139.0268188,35.9452173],[139.0267115,35.9453026],[139.026626,35.9453857],[139.0265849,35.9454396],[139.0265833,35.9454538],[139.0265876,35.9454779],[139.0266034,35.9455179],[139.0266003,35.9455256],[139.0265897,35.9455333],[139.0264467,35.9455798],[139.0264423,35.9455797],[139.0263698,35.9455079],[139.0262145,35.9456458],[139.0262094,35.9456577],[139.0262134,35.9456658],[139.0262446,35.9456895],[139.0262446,35.9456965],[139.0262381,35.9457034],[139.0261802,35.9457393],[139.0261693,35.9457392],[139.0261483,35.9457282],[139.0259953,35.9456305],[139.0259817,35.9456309],[139.0258316,35.9457054],[139.0257648,35.9457585],[139.0256927,35.94571],[139.025663,35.9457136]]]},"properties":{"layer":"landuse","class_code":"202","class_label":"畑（畑、樹園地、採草地、養鶏（牛・豚）場）"}},{"type":"Feature","id":"luse_e5cac354-c474-489f-a601-f35aef85115b","geometry":{"type":"Polygon","coordinates":[[[139.0253943,35.9459048],[139.0253763,35.9459357],[139.0252494,35.9460373],[139.0252462,35.9460333],[139.0251955,35.9459707],[139.0251908,35.9459603],[139.0253085,35.9456711],[139.0253701,35.9455428],[139.0253895,35.9454978],[139.0253919,35.9454777],[139.025392,35.9454693],[139.0253909,35.945459],[139.0253898,35.9454519],[139.0253842,35.9454416],[139.0253778,35.9454328],[139.025371,35.9454257],[139.0253602,35.9454149],[139.025341,35.9454054],[139.0253342,35.9454035],[139.0253261,35.9454035],[139.0252861,35.945438],[139.0251013,35.9455721],[139.0250539,35.9456065],[139.025,35.94559047285068],[139.025,35.94528123149848],[139.0250004,35.9452811],[139.0252238,35.9452129],[139.0255799,35.9449843],[139.0256074,35.9449765],[139.0256451,35.9449722],[139.0257713,35.9449803],[139.025855,35.9450141],[139.0259492,35.9450522],[139.0260697,35.9450088],[139.0261637,35.9449816],[139.0263104,35.9449699],[139.026426,35.944991],[139.0262103,35.9451526],[139.0260263,35.9452826],[139.0259072,35.9453793],[139.0258768,35.9454116],[139.0257535,35.9455167],[139.0257299,35.9455393],[139.0257035,35.9455665],[139.0256504,35.9456498],[139.0256483,35.945653],[139.0256393,35.9456689],[139.025632,35.9456854],[139.0256285,35.9456946],[139.0256235,35.9457116],[139.0256202,35.945729],[139.0256169,35.9457402],[139.0254813,35.9457123],[139.0253943,35.9459048]]]},"properties":{"layer":"landuse","class_code":"202","class_label":"畑（畑、樹園地、採草地、養鶏（牛・豚）場）"}},{"type":"Feature","id":"luse_d76af135-c49e-4e6e-8bd2-5652efcd9086","geometry":{"type":"Polygon","coordinates":[[[139.0256169,35.9457402],[139.025605,35.9457807],[139.0256019,35.9457951],[139.0255921,35.9458296],[139.0255789,35.9458633],[139.0255624,35.9458961],[139.0255579,35.9459043],[139.0255376,35.9459357],[139.0255144,35.9459655],[139.0254924,35.9459886],[139.0254426,35.9460353],[139.0254305,35.9460455],[139.0253754,35.946088],[139.0253591,35.9460997],[139.0253433,35.9461129],[139.025329,35.9461272],[139.025316,35.9461422],[139.0253045,35.946158],[139.0252944,35.9461745],[139.0252926,35.9461778],[139.0252847,35.9461951],[139.0252784,35.9462127],[139.0252741,35.9462307],[139.0252712,35.946249],[139.0252621,35.9462925],[139.0252599,35.9462992],[139.0252564,35.9463076],[139.0252518,35.9463159],[139.0252469,35.9463238],[139.0252411,35.9463313],[139.0252343,35.9463384],[139.0252272,35.9463451],[139.0252265,35.9463457],[139.0252186,35.9463519],[139.0252101,35.9463575],[139.0252098,35.9463576],[139.0252011,35.9463627],[139.0251916,35.9463671],[139.0251816,35.946371],[139.0251713,35.9463743],[139.0251641,35.946376],[139.0251549,35.9463775],[139.0250851,35.9463885],[139.0250842,35.9463887],[139.0250381,35.9463972],[139.0250323,35.9463911],[139.0250767,35.9463527],[139.0250974,35.9463285],[139.0251096,35.9463142],[139.0251501,35.9462416],[139.025165,35.9462101],[139.0252084,35.9461333],[139.0252393,35.9460787],[139.0252507,35.9460532],[139.0252512,35.946049],[139.0252512,35.946045],[139.0252508,35.9460415],[139.0252494,35.9460373],[139.0253763,35.9459357],[139.0253943,35.9459048],[139.0254813,35.9457123],[139.0256169,35.9457402]]]},"properties":{"layer":"landuse","class_code":"203","class_label":"山林（樹林地）"}},{"type":"Feature","id":"luse_0590acbd-77b6-4471-885e-e527d8a64815","geometry":{"type":"Polygon","coordinates":[[[139.0251089086207,35.95],[139.0250942,35.9499551],[139.0250942,35.9499448],[139.0250935,35.9499324],[139.0250891,35.9499213],[139.0250783,35.9499117],[139.025,35.94985530330397],[139.025,35.94495127443299],[139.0250357,35.9449367],[139.0254783,35.9447414],[139.0255843,35.9447268],[139.0256122,35.9447253],[139.0256598,35.9447255],[139.0256979,35.9447312],[139.0257695,35.9447403],[139.0258448,35.9447527],[139.0258663,35.9447537],[139.0259533,35.9447509],[139.0260345,35.9447485],[139.026102,35.9447386],[139.026189,35.944723],[139.0262529,35.9447058],[139.0262716,35.9446983],[139.0262917,35.944688],[139.026326,35.9446615],[139.0263601,35.944618],[139.0263727,35.9445997],[139.026396,35.9445457],[139.02641,35.944494],[139.0264156,35.9444406],[139.0264162,35.9444052],[139.0264074,35.9443424],[139.0263804,35.9442187],[139.026358,35.9441413],[139.0263354,35.9440984],[139.0263283,35.9440831],[139.0263197,35.9440505],[139.0263192,35.9440251],[139.0263256,35.9439978],[139.0263369,35.9439771],[139.0263519,35.9439507],[139.0263962,35.9438813],[139.0264569,35.9438226],[139.0264888,35.943792],[139.0265179,35.9437762],[139.0265376,35.9437672],[139.0265711,35.9437521],[139.0265779,35.9437513],[139.026597,35.9437493],[139.0266659,35.9437346],[139.026697,35.9437174],[139.0267125,35.9437089],[139.0268067,35.9435893],[139.026862,35.9435659],[139.0268981,35.9435362],[139.0269487,35.9434995],[139.0269665,35.9434742],[139.0270179,35.9434098],[139.0270369,35.9433767],[139.0270419,35.9433667],[139.0270449,35.9433524],[139.0270454,35.9433445],[139.027045,35.9433358],[139.0270439,35.9433254],[139.0270362,35.9432874],[139.0270004,35.9432029],[139.0269764,35.9431451],[139.0269657,35.9430745],[139.0269603,35.9430005],[139.0269735,35.9428101],[139.0269926,35.9427222],[139.0270274,35.9427251],[139.0270247,35.9427299],[139.0270065,35.9428133],[139.0269935,35.9430005],[139.0269988,35.9430721],[139.027009,35.943139],[139.0270318,35.9431942],[139.0270565,35.9432312],[139.0270713,35.9432664],[139.0270964,35.9433095],[139.0271101,35.9433295],[139.0271252,35.9433807],[139.0271264,35.9433901],[139.0271263,35.9433967],[139.0271222,35.9434076],[139.0271114,35.9434266],[139.0270948,35.9434501],[139.0270537,35.9434924],[139.0270148,35.9435278],[139.0270008,35.943537],[139.0269147,35.9435934],[139.0268659,35.943642],[139.0268395,35.9436836],[139.0267353,35.9437633],[139.0267153,35.9437693],[139.0266782,35.9437804],[139.0266044,35.9437926],[139.0265628,35.9437971],[139.0265349,35.9438103],[139.0265187,35.9438192],[139.0264908,35.9438459],[139.0264333,35.9439015],[139.0263917,35.9439667],[139.0263772,35.943992],[139.0263681,35.9440086],[139.0263636,35.9440282],[139.026364,35.9440464],[139.0263709,35.9440729],[139.0263766,35.9440849],[139.0264003,35.94413],[139.0264238,35.9442114],[139.0264513,35.9443372],[139.0264606,35.9444034],[139.0264599,35.9444424],[139.0264539,35.9444994],[139.0264388,35.9445555],[139.0264132,35.9446147],[139.0263981,35.9446365],[139.0263606,35.9446845],[139.0263191,35.9447167],[139.0262932,35.9447298],[139.0262697,35.9447392],[139.0262007,35.9447579],[139.0261107,35.9447739],[139.0260393,35.9447845],[139.0259549,35.9447869],[139.0258661,35.9447897],[139.0258393,35.9447885],[139.0257617,35.9447758],[139.0256904,35.9447668],[139.0256556,35.9447615],[139.0256136,35.9447613],[139.0255895,35.9447626],[139.025493,35.9447759],[139.0250396,35.9449749],[139.025,35.94498975632184],[139.025,35.949769159916784],[139.0250587,35.9498106],[139.0253383661661,35.95],[139.0251089086207,35.95]]]},"properties":{"layer":"landuse","class_code":"204","class_label":"水面（河川水面、湖沼、ため池、用水路、濠、運河水面）"}},{"type":"Feature","id":"luse_965763db-66e5-46fe-b8a6-29c3a123796d","geometry":{"type":"Polygon","coordinates":[[[139.02779795078808,35.94166666666667],[139.0276204,35.9421559],[139.0276179,35.9421567],[139.0276136,35.9421558],[139.0275712,35.942124],[139.0275228,35.9420906],[139.0275125,35.9420828],[139.0274997,35.9420731],[139.0274621,35.9420406],[139.0274542,35.9420331],[139.02758137392155,35.94166666666667],[139.02779795078808,35.94166666666667]]]},"properties":{"layer":"landuse","class_code":"211","class_label":"住宅用地（住宅、共同住宅、店舗等併用住宅、店舗等併用共同住宅、作業所併用住宅）"}},{"type":"Feature","id":"luse_74898cf7-bd8b-4e8d-b7fc-5f870c8d7c18","geometry":{"type":"Polygon","coordinates":[[[139.02852579078652,35.94166666666667],[139.0285296,35.9417158],[139.0283789,35.9419726],[139.0283778,35.9419745],[139.0283421,35.9420202],[139.028302,35.9420636],[139.0282579,35.9421042],[139.0282195,35.9421349],[139.0281854,35.9421584],[139.0281686,35.94217],[139.0281382,35.9421859],[139.0280832,35.9422145],[139.028078,35.9422111],[139.0283039,35.9416923],[139.02830844784947,35.94166666666667],[139.02852579078652,35.94166666666667]]]},"properties":{"layer":"landuse","class_code":"211","class_label":"住宅用地（住宅、共同住宅、店舗等併用住宅、店舗等併用共同住宅、作業所併用住宅）"}},{"type":"Feature","id":"luse_ffd46e7c-bf60-4443-8b44-1fdd36eb47ca","geometry":{"type":"Polygon","coordinates":[[[139.02826919998023,35.94166666666667],[139.028266,35.9416847],[139.0280208,35.9422444],[139.0280146,35.9422513],[139.0279576,35.9422882],[139.0279374,35.9423012],[139.0279204,35.9423123],[139.0279089,35.9423192],[139.0279033,35.9423187],[139.0278993,35.9423186],[139.027886,35.9423138],[139.027864,35.9423083],[139.0278092,35.9422967],[139.0277672,35.9422851],[139.0277425,35.9422766],[139.0277159,35.9422676],[139.0276669,35.9422469],[139.0276433,35.9422352],[139.0276371,35.9422219],[139.0278384061999,35.94166666666667],[139.02826919998023,35.94166666666667]]]},"properties":{"layer":"landuse","class_code":"211","class_label":"住宅用地（住宅、共同住宅、店舗等併用住宅、店舗等併用共同住宅、作業所併用住宅）"}},{"type":"Feature","id":"luse_5d9fca97-f89d-4407-8ecb-ac502c0cbe99","geometry":{"type":"Polygon","coordinates":[[[139.026727,35.9448894],[139.0269684,35.9449045],[139.0268792,35.9449563],[139.0267118,35.9451297],[139.0266213,35.9451961],[139.0264919,35.9451122],[139.026413,35.9450313],[139.0264336,35.9450158],[139.0264563,35.9449989],[139.0265373,35.9449356],[139.0265562,35.9449213],[139.0265744,35.9449051],[139.0265909,35.944888],[139.026727,35.9448894]]]},"properties":{"layer":"landuse","class_code":"211","class_label":"住宅用地（住宅、共同住宅、店舗等併用住宅、店舗等併用共同住宅、作業所併用住宅）"}},{"type":"Feature","id":"luse_8f564837-0ca2-4cd5-9e89-ac99b0190c3c","geometry":{"type":"Polygon","coordinates":[[[139.0262308,35.9453826],[139.0260049,35.9456157],[139.0258099,35.9455078],[139.0258362,35.9454853],[139.025901,35.9454302],[139.0259281,35.9453941],[139.0260452,35.9452991],[139.0261015,35.9452594],[139.0262308,35.9453826]]]},"properties":{"layer":"landuse","class_code":"211","class_label":"住宅用地（住宅、共同住宅、店舗等併用住宅、店舗等併用共同住宅、作業所併用住宅）"}},{"type":"Feature","id":"luse_7128e906-d579-418b-a4d1-439dc6254369","geometry":{"type":"Polygon","coordinates":[[[139.0252824,35.9456635],[139.025173,35.9459318],[139.0251502,35.9459877],[139.025,35.94591381521036],[139.025,35.94559047285068],[139.0250539,35.9456065],[139.025017,35.9456333],[139.0250353,35.94565],[139.0251426,35.9455723],[139.0253044,35.9454548],[139.0253161,35.9454518],[139.0253165,35.9454518],[139.0253229,35.9454513],[139.0253265,35.9454519],[139.0253343,35.9454528],[139.0253468,35.9454597],[139.0253487,35.9454608],[139.0253546,35.9454694],[139.0253578,35.9454737],[139.0253588,35.9454764],[139.0253599,35.9454791],[139.0253599,35.9454833],[139.02536,35.9454926],[139.0253443,35.9455345],[139.0252824,35.9456635]]]},"properties":{"layer":"landuse","class_code":"211","class_label":"住宅用地（住宅、共同住宅、店舗等併用住宅、店舗等併用共同住宅、作業所併用住宅）"}},{"type":"Feature","id":"luse_90c5696e-de45-4b1d-b0eb-98c2c55c1cd6","geometry":{"type":"Polygon","coordinates":[[[139.0268843,35.9445964],[139.026871,35.9446439],[139.026835,35.9448143],[139.0269632,35.9448374],[139.0269684,35.9449045],[139.026727,35.9448894],[139.0265909,35.944888],[139.0265964,35.9448816],[139.0266106,35.9448632],[139.026623,35.9448437],[139.0266335,35.9448237],[139.0266366,35.9448171],[139.0266539,35.9447825],[139.0266662,35.9447578],[139.026685,35.9447249],[139.0266966,35.9447032],[139.0267159,35.9446729],[139.0267382,35.9446436],[139.0267412,35.94464],[139.0268377,35.9444926],[139.02686,35.9444622],[139.0268636,35.944464],[139.0268598,35.944469],[139.0268182,35.9445358],[139.0268633,35.944583],[139.026864,35.944582],[139.0268843,35.9445964]]]},"properties":{"layer":"landuse","class_code":"214","class_label":"公益施設用地（官公庁施設、文教厚生施設、供給処理施設）"}},{"type":"Feature","id":"luse_59dc3da1-d176-42e0-90e1-6c5cbc9b8a72","geometry":{"type":"Polygon","coordinates":[[[139.0322088,35.9429954],[139.0320609,35.943023],[139.032027,35.9429028],[139.0321749,35.9428752],[139.0322088,35.9429954]]]},"properties":{"layer":"landuse","class_code":"214","class_label":"公益施設用地（官公庁施設、文教厚生施設、供給処理施設）"}},{"type":"Feature","id":"luse_f7c411e3-28f8-49a6-aa9b-39c49a18a74f","geometry":{"type":"Polygon","coordinates":[[[139.025,35.942140681147535],[139.0250105,35.9421523],[139.0250752,35.942213],[139.0252323,35.9423388],[139.0252534,35.9423584],[139.0252629,35.94237],[139.0252833,35.9424034],[139.0252857,35.9424071],[139.0252898,35.9424153],[139.0252935,35.9424237],[139.0252962,35.9424323],[139.0252978,35.9424411],[139.025299,35.9424499],[139.0252991,35.9424587],[139.0252982,35.9424679],[139.0252977,35.9424711],[139.0252959,35.9424802],[139.0252932,35.9424887],[139.0252895,35.9424971],[139.0252852,35.9425052],[139.0252801,35.942513],[139.0252741,35.9425205],[139.025267,35.9425282],[139.0252603,35.9425349],[139.0252414,35.9425542],[139.025229,35.9425648],[139.0252037,35.9425896],[139.0251802,35.9426162],[139.0251598,35.9426442],[139.025142,35.9426735],[139.0251268,35.9427037],[139.0251151,35.9427343],[139.0251141,35.9427376],[139.0251056,35.9427689],[139.0250999,35.9428013],[139.0250972,35.9428338],[139.0250979,35.9428662],[139.0251138,35.9430275],[139.025114,35.9430324],[139.0251144,35.9430399],[139.0251139,35.9430472],[139.0251126,35.9430544],[139.0251105,35.9430616],[139.0251079,35.9430685],[139.0251046,35.9430754],[139.0251007,35.9430822],[139.0250988,35.9430848],[139.0250939,35.9430912],[139.0250885,35.9430971],[139.0250824,35.9431025],[139.0250759,35.9431076],[139.025075,35.9431082],[139.0250726,35.9431098],[139.0250629,35.9431157],[139.025,35.94314547482818],[139.025,35.942140681147535]]]},"properties":{"layer":"landuse","class_code":"203","class_label":"山林（樹林地）"}},{"type":"Feature","id":"luse_c36046a9-3e99-4d92-9354-2e9ebad131a0","geometry":{"type":"MultiPolygon","coordinates":[[[[139.025,35.95],[139.025,35.94208232533082],[139.0250078,35.9420939],[139.0250158,35.9421126],[139.0250365,35.9421355],[139.0250996,35.9421945],[139.0252565,35.9423203],[139.0252798,35.9423419],[139.0253028,35.9423699],[139.0253152,35.9423849],[139.0253207,35.9423936],[139.0253262,35.942404],[139.0253307,35.9424148],[139.0253342,35.9424258],[139.0253365,35.942437],[139.0253378,35.9424483],[139.0253379,35.9424596],[139.025337,35.9424709],[139.0253363,35.9424758],[139.0253339,35.9424869],[139.0253303,35.9424979],[139.0253257,35.9425086],[139.0253201,35.942519],[139.0253135,35.942529],[139.025306,35.9425386],[139.0252976,35.9425476],[139.0252907,35.9425546],[139.0252708,35.9425748],[139.0252582,35.9425857],[139.0252344,35.9426089],[139.0252129,35.9426335],[139.0251939,35.9426594],[139.0251775,35.9426863],[139.0251635,35.9427143],[139.0251525,35.9427431],[139.0251518,35.9427452],[139.0251437,35.9427746],[139.0251386,35.9428045],[139.0251362,35.9428346],[139.0251368,35.9428647],[139.0251524,35.9430249],[139.025153,35.9430308],[139.0251532,35.9430405],[139.0251525,35.9430504],[139.0251508,35.94306],[139.0251483,35.9430695],[139.0251448,35.943079],[139.0251403,35.943088],[139.0251351,35.9430968],[139.0251322,35.9431011],[139.0251257,35.9431093],[139.0251184,35.9431171],[139.0251105,35.9431244],[139.0251018,35.9431312],[139.0250989,35.9431331],[139.0250957,35.9431351],[139.0250824,35.943143],[139.025,35.943182029721626],[139.025,35.95],[139.02779358222222,35.95],[139.0277938,35.9499944],[139.0277892,35.9499775],[139.0277821,35.9499659],[139.0276778,35.9498119],[139.0276685,35.9498012],[139.0276581,35.9497909],[139.0276467,35.9497814],[139.0276343,35.9497725],[139.027632,35.9497709],[139.0276223,35.9497652],[139.0276186,35.9497631],[139.0276048,35.9497562],[139.0276045,35.949756],[139.0275903,35.9497501],[139.0275899,35.94975],[139.0275308,35.9497394],[139.0275304,35.9497394],[139.0275151,35.9497381],[139.0275053,35.9497389],[139.0274987,35.9497394],[139.0274903,35.949742],[139.0274899,35.9497422],[139.0274781,35.9497491],[139.0274703,35.949756],[139.0274572,35.9497699],[139.0272799,35.94997],[139.0272625,35.9499956],[139.0272589056338,35.95],[139.0266264926566,35.95],[139.0265379,35.9498101],[139.0265243,35.9497795],[139.0265198,35.9497624],[139.0265182,35.9497401],[139.026522,35.9497033],[139.0265208,35.9496718],[139.0265192,35.9496573],[139.0265144,35.9496428],[139.0265015,35.9496283],[139.0263784,35.9495118],[139.0263781,35.9495117],[139.0263252,35.9494825],[139.0262818,35.9494705],[139.0262815,35.9494704],[139.0262332,35.9494636],[139.0262027,35.9494542],[139.0262024,35.949454],[139.02618,35.9494448],[139.0261494,35.9494275],[139.0261272,35.9494089],[139.0260934,35.9493698],[139.0260759,35.9493381],[139.0260346,35.9492669],[139.0260059,35.9492194],[139.0259948,35.9492009],[139.0259613,35.9491626],[139.0259452,35.949148],[139.0259292,35.949136],[139.0259016,35.9491228],[139.025868,35.9491107],[139.0258677,35.9491106],[139.0258485,35.9491067],[139.0258064,35.949101],[139.025806,35.949101],[139.0257764,35.9491007],[139.025776,35.9491007],[139.025732,35.9491005],[139.025702,35.9491043],[139.0257017,35.9491043],[139.0256341,35.9491117],[139.0256338,35.9491117],[139.025604,35.9491125],[139.0255933,35.9491124],[139.0255835,35.9491123],[139.0255831,35.9491123],[139.0255633,35.9491117],[139.0255477,35.9491087],[139.025535,35.9491049],[139.0255346,35.9491048],[139.0255232,35.9491007],[139.0255129,35.9490975],[139.0254981,35.9490927],[139.0254462,35.9490649],[139.0254201,35.9490499],[139.0253805,35.9490337],[139.0253653,35.9490295],[139.0253369,35.9490247],[139.0252871,35.9490209],[139.0252867,35.9490209],[139.0252734,35.9490199],[139.0251979,35.9490169],[139.0251921,35.9490169],[139.0251716,35.9490168],[139.0251346,35.9490133],[139.0251342,35.9490133],[139.0251199,35.9490099],[139.0251196,35.9490099],[139.0251062,35.9490068],[139.0250913,35.9489991],[139.0250718,35.9489866],[139.0250345,35.9489535],[139.0250131,35.9489382],[139.025,35.94893157906138],[139.025,35.946386237676045],[139.025055,35.9463385],[139.0250852,35.946303],[139.0251245,35.9462328],[139.0251385,35.9462028],[139.0251499,35.9461726],[139.0251547,35.9461539],[139.025159,35.9460964],[139.0251583,35.9460613],[139.0251542,35.946017],[139.0251502,35.9459877],[139.025173,35.9459318],[139.0252824,35.9456635],[139.0253443,35.9455345],[139.02536,35.9454926],[139.0253599,35.9454833],[139.0253599,35.9454791],[139.0253588,35.9454764],[139.0253578,35.9454737],[139.0253546,35.9454694],[139.0253487,35.9454608],[139.0253468,35.9454597],[139.0253343,35.9454528],[139.0253265,35.9454519],[139.0253229,35.9454513],[139.0253165,35.9454518],[139.0253161,35.9454518],[139.0253044,35.9454548],[139.0251426,35.9455723],[139.0250353,35.94565],[139.025017,35.9456333],[139.0250539,35.9456065],[139.0251013,35.9455721],[139.0252861,35.945438],[139.0253261,35.9454035],[139.0253342,35.9454035],[139.025341,35.9454054],[139.0253602,35.9454149],[139.025371,35.9454257],[139.0253778,35.9454328],[139.0253842,35.9454416],[139.0253898,35.9454519],[139.0253909,35.945459],[139.025392,35.9454693],[139.0253919,35.9454777],[139.0253895,35.9454978],[139.0253701,35.9455428],[139.0253085,35.9456711],[139.0251908,35.9459603],[139.0251955,35.9459707],[139.0252462,35.9460333],[139.0252494,35.9460373],[139.0252508,35.9460415],[139.0252512,35.946045],[139.0252512,35.946049],[139.0252507,35.9460532],[139.0252393,35.9460787],[139.0252084,35.9461333],[139.025165,35.9462101],[139.0251501,35.9462416],[139.0251096,35.9463142],[139.0250974,35.9463285],[139.0250767,35.9463527],[139.0250323,35.9463911],[139.0250381,35.9463972],[139.0250842,35.9463887],[139.0250851,35.9463885],[139.0251549,35.9463775],[139.0251641,35.946376],[139.0251713,35.9463743],[139.0251816,35.946371],[139.0251916,35.9463671],[139.0252011,35.9463627],[139.0252098,35.9463576],[139.0252101,35.9463575],[139.0252186,35.9463519],[139.0252265,35.9463457],[139.0252272,35.9463451],[139.0252343,35.9463384],[139.0252411,35.9463313],[139.0252469,35.9463238],[139.0252518,35.9463159],[139.0252564,35.9463076],[139.0252599,35.9462992],[139.0252621,35.9462925],[139.0252712,35.946249],[139.0252741,35.9462307],[139.0252784,35.9462127],[139.0252847,35.9461951],[139.0252926,35.9461778],[139.0252944,35.9461745],[139.0253045,35.946158],[139.025316,35.9461422],[139.025329,35.9461272],[139.0253433,35.9461129],[139.0253591,35.9460997],[139.0253754,35.946088],[139.0254305,35.9460455],[139.0254426,35.9460353],[139.0254924,35.9459886],[139.0255144,35.9459655],[139.0255376,35.9459357],[139.0255579,35.9459043],[139.0255624,35.9458961],[139.0255789,35.9458633],[139.0255921,35.9458296],[139.0256019,35.9457951],[139.025605,35.9457807],[139.0256169,35.9457402],[139.0256202,35.945729],[139.0256235,35.9457116],[139.0256285,35.9456946],[139.025632,35.9456854],[139.0256393,35.9456689],[139.0256483,35.945653],[139.0256504,35.9456498],[139.0257035,35.9455665],[139.0257299,35.9455393],[139.0257535,35.9455167],[139.0258768,35.9454116],[139.0259072,35.9453793],[139.0260263,35.9452826],[139.0262103,35.9451526],[139.026426,35.944991],[139.0264334,35.9449793],[139.0264969,35.9449289],[139.0265492,35.9448874],[139.026564,35.9448718],[139.0265687,35.9448666],[139.0265817,35.9448497],[139.026593,35.944832],[139.0265979,35.944834],[139.0266078,35.9448154],[139.0266107,35.944809],[139.0266407,35.9447488],[139.0266595,35.9447157],[139.0266716,35.9446935],[139.0266918,35.9446617],[139.026715,35.9446313],[139.0267175,35.9446283],[139.0268136,35.9444815],[139.0268861,35.9443829],[139.0269827,35.9442468],[139.0270539,35.9441509],[139.0270999,35.944089],[139.0271509,35.9440192],[139.0271676,35.9439901],[139.0271806,35.9439674],[139.0272007,35.9439294],[139.0272156,35.943898],[139.0272267,35.9438608],[139.0272433,35.9438048],[139.0272425,35.9437995],[139.027239,35.9437969],[139.0272358,35.9437965],[139.0272317,35.9437961],[139.0272246,35.9437967],[139.0272192,35.9437991],[139.0271929,35.9438235],[139.0271598,35.9438642],[139.0271505,35.9438839],[139.0271377,35.9439058],[139.0271311,35.9439156],[139.0271155,35.943936],[139.0271024,35.9439508],[139.0270927,35.9439628],[139.0270809,35.9439755],[139.0270679,35.9439871],[139.0270643,35.9439899],[139.0270189,35.9440375],[139.0270119,35.9440451],[139.0269214,35.944151],[139.0269078,35.944162],[139.0268994,35.9441669],[139.0268871,35.9441714],[139.0268804,35.9441713],[139.0268733,35.9441713],[139.0268652,35.9441672],[139.0268443,35.9441517],[139.0268332,35.9441427],[139.0267822,35.9440744],[139.0268059,35.9440627],[139.0268554,35.9441288],[139.0268597,35.9441325],[139.026866,35.9441345],[139.0268704,35.9441374],[139.026888,35.9441377],[139.0269033,35.9441327],[139.026989,35.9440323],[139.026997,35.9440236],[139.0270436,35.9439748],[139.027048,35.9439714],[139.0270595,35.943961],[139.0270701,35.9439498],[139.0270796,35.943938],[139.0270925,35.9439235],[139.0271072,35.9439042],[139.027113,35.9438955],[139.027125,35.9438751],[139.0271348,35.9438538],[139.0271709,35.9438098],[139.0272305,35.9437543],[139.0272565,35.9437345],[139.0272601,35.9437303],[139.027271,35.9437096],[139.0273816,35.9435673],[139.0274921,35.9434253],[139.0275331,35.9433712],[139.0275679,35.9433164],[139.0275976,35.9432585],[139.027622,35.9431989],[139.0276404,35.943138],[139.0276529,35.9430756],[139.0276538,35.9430687],[139.0277282,35.9427805],[139.0277445,35.942721],[139.0277507,35.9427098],[139.0277572,35.9427003],[139.0277645,35.9426913],[139.0277723,35.9426829],[139.0277751,35.9426803],[139.0277839,35.9426726],[139.0277936,35.9426653],[139.0278041,35.9426587],[139.0278154,35.9426528],[139.0278265,35.9426478],[139.0278292,35.9426466],[139.0278523,35.9426386],[139.0278766,35.9426302],[139.0278881,35.9426254],[139.0278988,35.9426198],[139.0279093,35.9426136],[139.0279188,35.9426067],[139.0279277,35.9425992],[139.0279361,35.9425912],[139.0279435,35.9425825],[139.0279473,35.9425779],[139.0279535,35.9425686],[139.0279586,35.942559],[139.0279627,35.9425492],[139.0279662,35.942539],[139.0279683,35.9425288],[139.0279698,35.9425184],[139.0279699,35.9425083],[139.0279712,35.9424907],[139.0279396,35.9424233],[139.0279187,35.942385],[139.0278902,35.9423502],[139.0278822,35.9423397],[139.0278661,35.9423319],[139.0278571,35.9423301],[139.0278015,35.9423182],[139.0277574,35.9423062],[139.0277043,35.942288],[139.027653,35.9422666],[139.0276159,35.9422479],[139.0276109,35.9422439],[139.0276059,35.9422372],[139.0276016,35.9422268],[139.0276009,35.942216],[139.0276028,35.9422049],[139.0276091,35.9421878],[139.027608,35.9421822],[139.0275792,35.9421608],[139.0275726,35.9421558],[139.0275529,35.942141],[139.0275042,35.9421075],[139.0274799,35.942089],[139.0274417,35.9420556],[139.0274134,35.9420289],[139.0273831,35.9419971],[139.0273548,35.9419655],[139.0273367,35.9419405],[139.0273165,35.9419072],[139.0273072,35.9418916],[139.0272568,35.9418284],[139.0271671,35.9417414],[139.02707691210358,35.94166666666667],[139.02711596503363,35.94166666666667],[139.0271878,35.9417263],[139.0272791,35.9418149],[139.0273312,35.9418804],[139.0273415,35.9418972],[139.0273612,35.9419298],[139.027378,35.9419531],[139.0274051,35.9419836],[139.0274348,35.9420146],[139.0274542,35.9420331],[139.0274621,35.9420406],[139.0274997,35.9420731],[139.0275125,35.9420828],[139.0275228,35.9420906],[139.0275712,35.942124],[139.0276136,35.9421558],[139.0276179,35.9421567],[139.0276204,35.9421559],[139.02779795078808,35.94166666666667],[139.02830844784947,35.94166666666667],[139.0283039,35.9416923],[139.028078,35.9422111],[139.0280832,35.9422145],[139.0281382,35.9421859],[139.0281686,35.94217],[139.0281854,35.9421584],[139.0282195,35.9421349],[139.0282579,35.9421042],[139.028302,35.9420636],[139.0283421,35.9420202],[139.0283778,35.9419745],[139.0283789,35.9419726],[139.0285296,35.9417158],[139.0285582,35.9417188],[139.0285586,35.9417188],[139.0284037,35.9419831],[139.0284015,35.9419862],[139.0283649,35.9420331],[139.0283234,35.9420778],[139.028278,35.9421198],[139.0282383,35.9421515],[139.0282035,35.9421756],[139.0281837,35.942189],[139.0280532,35.9422569],[139.0280377,35.942265],[139.0280233,35.9422745],[139.0279379,35.9423298],[139.0279246,35.9423404],[139.0279221,35.9423443],[139.0279214,35.9423471],[139.0279215,35.9423499],[139.0279215,35.9423526],[139.027939,35.9423778],[139.0279603,35.942417],[139.0279919,35.9424843],[139.0279977,35.9425058],[139.0279977,35.9425076],[139.0279974,35.9425198],[139.0279959,35.9425319],[139.0279933,35.942544],[139.0279894,35.9425558],[139.0279844,35.9425673],[139.0279783,35.9425785],[139.0279712,35.9425893],[139.0279668,35.942595],[139.0279581,35.942605],[139.0279485,35.9426144],[139.027938,35.942623],[139.0279267,35.9426311],[139.0279146,35.9426384],[139.0279018,35.9426449],[139.0278887,35.9426506],[139.0278408,35.9426672],[139.0278395,35.9426678],[139.0278297,35.9426721],[139.0278204,35.9426771],[139.0278115,35.9426827],[139.0278034,35.9426887],[139.0277957,35.9426953],[139.0277938,35.9426971],[139.027787,35.9427043],[139.027781,35.9427118],[139.0277756,35.9427198],[139.0277711,35.9427281],[139.0277553,35.9427853],[139.0276813,35.9430723],[139.0276804,35.9430788],[139.0276675,35.9431425],[139.0276486,35.9432051],[139.0276237,35.9432664],[139.027593,35.9433259],[139.0275906,35.9433297],[139.0275573,35.9433823],[139.0275156,35.9434371],[139.0272957,35.9437201],[139.0272845,35.9437416],[139.0272758,35.9437659],[139.0272643,35.9438167],[139.0272538,35.9438662],[139.0272421,35.9439048],[139.0272315,35.9439273],[139.0272265,35.9439378],[139.0272061,35.9439767],[139.0271754,35.9440297],[139.0271238,35.9441006],[139.0270587,35.9441882],[139.0270067,35.9442582],[139.0269236,35.944375],[139.0268746,35.9444496],[139.0268647,35.9444644],[139.0268636,35.944464],[139.02686,35.9444622],[139.0268377,35.9444926],[139.0267412,35.94464],[139.0267382,35.9446436],[139.0267159,35.9446729],[139.0266966,35.9447032],[139.026685,35.9447249],[139.0266662,35.9447578],[139.0266539,35.9447825],[139.0266366,35.9448171],[139.0266335,35.9448237],[139.026623,35.9448437],[139.0266106,35.9448632],[139.0265964,35.9448816],[139.0265909,35.944888],[139.0265744,35.9449051],[139.0265562,35.9449213],[139.0265373,35.9449356],[139.0264563,35.9449989],[139.0264336,35.9450158],[139.026413,35.9450313],[139.026229,35.9451694],[139.0262112,35.9451819],[139.0261015,35.9452594],[139.0260452,35.9452991],[139.0259281,35.9453941],[139.025901,35.9454302],[139.0258362,35.9454853],[139.0258099,35.9455078],[139.0257784,35.9455348],[139.0257558,35.9455564],[139.0257318,35.9455812],[139.0257198,35.9455999],[139.0256801,35.9456623],[139.0256784,35.9456649],[139.0256701,35.9456792],[139.0256635,35.945694],[139.0256606,35.9457016],[139.0256562,35.9457169],[139.0256531,35.9457332],[139.0256324,35.9457846],[139.0256291,35.9457996],[139.0256188,35.9458356],[139.025605,35.945871],[139.0255879,35.9459051],[139.0255828,35.9459144],[139.0255616,35.9459469],[139.0255558,35.9459544],[139.0255371,35.9459785],[139.0255139,35.9460029],[139.0254733,35.9460409],[139.0254631,35.9460505],[139.02545,35.9460615],[139.025394,35.9461046],[139.025378,35.9461159],[139.025364,35.9461279],[139.025351,35.9461407],[139.0253393,35.9461543],[139.0253289,35.9461687],[139.0253198,35.946184],[139.0253185,35.9461863],[139.0253111,35.9462022],[139.0253054,35.9462181],[139.0253014,35.9462344],[139.0252987,35.9462523],[139.0252892,35.9462973],[139.0252865,35.9463058],[139.0252823,35.9463157],[139.0252771,35.9463256],[139.0252709,35.9463351],[139.0252664,35.9463409],[139.0252639,35.9463441],[139.0252561,35.9463526],[139.0252477,35.9463604],[139.0252461,35.9463617],[139.0252369,35.9463688],[139.0252268,35.9463756],[139.025216,35.9463816],[139.0252045,35.946387],[139.0251927,35.9463917],[139.0251806,35.9463956],[139.0251802,35.9463957],[139.0251678,35.9463987],[139.0251637,35.9463994],[139.0251634,35.9463995],[139.0250885,35.9464109],[139.0250882,35.946411],[139.0250769,35.9464141],[139.0250496,35.9464216],[139.0250263,35.9464302],[139.0250119,35.9464382],[139.025,35.94644761343284],[139.025,35.94890504587157],[139.02503,35.94892],[139.0250541,35.9489374],[139.025091,35.94897],[139.0251074,35.9489807],[139.0251175,35.948986],[139.0251271,35.9489882],[139.0251275,35.9489883],[139.0251396,35.9489911],[139.02514,35.9489912],[139.0251733,35.9489943],[139.0251922,35.9489943],[139.0251986,35.9489944],[139.0252753,35.9489974],[139.0252894,35.9489984],[139.025341,35.9490024],[139.0253727,35.9490077],[139.0253911,35.9490129],[139.0254345,35.9490305],[139.0254618,35.9490464],[139.025511,35.9490726],[139.0255232,35.9490765],[139.0255336,35.9490798],[139.0255451,35.9490839],[139.0255557,35.9490871],[139.0255561,35.9490871],[139.0255669,35.9490893],[139.0255673,35.9490893],[139.0255839,35.9490898],[139.0255933,35.9490899],[139.0255937,35.9490899],[139.0256034,35.9490899],[139.0256039,35.9490899],[139.0256317,35.9490892],[139.0256979,35.949082],[139.0257297,35.949078],[139.0257301,35.949078],[139.0257764,35.9490782],[139.0258086,35.9490784],[139.0258551,35.9490848],[139.0258749,35.9490886],[139.0259143,35.9491027],[139.0259456,35.949118],[139.0259649,35.9491321],[139.0259829,35.9491485],[139.0260187,35.9491894],[139.0260309,35.9492094],[139.0260595,35.949257],[139.026101,35.9493287],[139.0261176,35.9493586],[139.0261486,35.9493945],[139.0261676,35.9494102],[139.0261942,35.9494253],[139.0261945,35.9494255],[139.0262138,35.9494335],[139.0262405,35.9494417],[139.0262885,35.9494485],[139.0263376,35.9494622],[139.026397,35.9494948],[139.0265236,35.9496143],[139.02654,35.9496331],[139.0265467,35.9496535],[139.0265484,35.9496704],[139.0265498,35.9497038],[139.0265461,35.9497404],[139.0265474,35.9497594],[139.0265511,35.9497733],[139.0265639,35.9498022],[139.02665623976335,35.95],[139.0272251123967,35.95],[139.0272284,35.9499966],[139.0272386,35.9499839],[139.0272565,35.9499578],[139.0274349,35.9497565],[139.0274491,35.9497416],[139.0274595,35.949732],[139.0274769,35.9497221],[139.0274927,35.9497152],[139.0275062,35.9497129],[139.027514,35.9497126],[139.0275213,35.9497124],[139.0275375,35.949713],[139.0275379,35.949713],[139.0275973,35.9497236],[139.027641,35.9497484],[139.0276488,35.949753],[139.0276523,35.9497553],[139.0276659,35.949765],[139.0276787,35.9497759],[139.0276906,35.9497875],[139.0277013,35.9497999],[139.0278066,35.9499554],[139.0278184,35.9499747],[139.0278311,35.949992],[139.02783812439026,35.95],[139.025,35.95]]],[[[139.0276433,35.9422352],[139.0276669,35.9422469],[139.0277159,35.9422676],[139.0277425,35.9422766],[139.0277672,35.9422851],[139.0278092,35.9422967],[139.027864,35.9423083],[139.027886,35.9423138],[139.0278993,35.9423186],[139.0279033,35.9423187],[139.0279089,35.9423192],[139.0279204,35.9423123],[139.0279374,35.9423012],[139.0279576,35.9422882],[139.0280146,35.9422513],[139.0280208,35.9422444],[139.028266,35.9416847],[139.02826919998023,35.94166666666667],[139.0278384061999,35.94166666666667],[139.0276371,35.9422219],[139.0276433,35.9422352]]],[[[139.025,35.94314547482818],[139.0250629,35.9431157],[139.0250726,35.9431098],[139.025075,35.9431082],[139.0250759,35.9431076],[139.0250824,35.9431025],[139.0250885,35.9430971],[139.0250939,35.9430912],[139.0250988,35.9430848],[139.0251007,35.9430822],[139.0251046,35.9430754],[139.0251079,35.9430685],[139.0251105,35.9430616],[139.0251126,35.9430544],[139.0251139,35.9430472],[139.0251144,35.9430399],[139.025114,35.9430324],[139.0251138,35.9430275],[139.0250979,35.9428662],[139.0250972,35.9428338],[139.0250999,35.9428013],[139.0251056,35.9427689],[139.0251141,35.9427376],[139.0251151,35.9427343],[139.0251268,35.9427037],[139.025142,35.9426735],[139.0251598,35.9426442],[139.0251802,35.9426162],[139.0252037,35.9425896],[139.025229,35.9425648],[139.0252414,35.9425542],[139.0252603,35.9425349],[139.025267,35.9425282],[139.0252741,35.9425205],[139.0252801,35.942513],[139.0252852,35.9425052],[139.0252895,35.9424971],[139.0252932,35.9424887],[139.0252959,35.9424802],[139.0252977,35.9424711],[139.0252982,35.9424679],[139.0252991,35.9424587],[139.025299,35.9424499],[139.0252978,35.9424411],[139.0252962,35.9424323],[139.0252935,35.9424237],[139.0252898,35.9424153],[139.0252857,35.9424071],[139.0252833,35.9424034],[139.0252629,35.94237],[139.0252534,35.9423584],[139.0252323,35.9423388],[139.0250752,35.942213],[139.0250105,35.9421523],[139.025,35.942140681147535],[139.025,35.94314547482818]]]]},"properties":{"layer":"landuse","class_code":"215","class_label":"道路用地（道路、駅前広場、私有地内に存在する沿道用途の「私道」または、私有地の一部分であるものの公共の通行に供されている土地の部分）"}}]}