{"type":"FeatureCollection","properties":{"mesh_code":"53397077","source":"PLATEAU秩父市2025","layer":"landuse"},"features":[{"type":"Feature","id":"luse_3cfeee67-678d-42d3-bb1c-2906346c152e","geometry":{"type":"Polygon","coordinates":[[[139.0884157,35.9795895],[139.0884242,35.9796035],[139.0884402,35.9796221],[139.0884668,35.9796393],[139.0885405,35.9796696],[139.0885663,35.9796802],[139.0885827,35.97969],[139.088584,35.9797011],[139.0885817,35.9797123],[139.0885762,35.979723],[139.0885709,35.9797333],[139.0885658,35.9797399],[139.0885648,35.9797412],[139.0885478,35.979763],[139.088538,35.9797757],[139.0884879,35.9798403],[139.0884468,35.9798897],[139.0884239,35.9799278],[139.088397,35.9799783],[139.0883749,35.9800357],[139.0883592,35.9800831],[139.0883353,35.980194],[139.0883349,35.9801954],[139.0882957,35.9803266],[139.0882894,35.9803588],[139.0882811,35.980389],[139.0882609,35.9804276],[139.0882265,35.9804882],[139.0881412,35.980623],[139.0880697,35.980733],[139.0880508,35.9807621],[139.0879997,35.9808388],[139.0879694,35.9808728],[139.0879187,35.9809265],[139.0879027,35.9809409],[139.087884,35.9809575],[139.0878586,35.9809756],[139.0878244,35.9809958],[139.087754,35.9810273],[139.0877318,35.981036],[139.0877015,35.9810479],[139.0876728,35.9810593],[139.0875902,35.9810926],[139.0875778,35.9810724],[139.0876606,35.981039],[139.0877412,35.9810073],[139.0878092,35.9809768],[139.0878095,35.9809766],[139.0878412,35.980958],[139.0878644,35.9809414],[139.0878647,35.9809411],[139.0878822,35.9809257],[139.0878972,35.9809121],[139.0879472,35.9808593],[139.0879762,35.9808268],[139.0880264,35.9807514],[139.0881166,35.9806126],[139.0882015,35.9804784],[139.0882353,35.9804185],[139.0882545,35.9803821],[139.0882622,35.9803546],[139.0882683,35.9803222],[139.0883082,35.9801893],[139.0883321,35.9800783],[139.0883483,35.9800294],[139.088371,35.9799704],[139.0883987,35.9799183],[139.0884228,35.9798784],[139.0884647,35.979828],[139.0885143,35.9797637],[139.0885463,35.9797229],[139.0885549,35.979706],[139.0885556,35.9797019],[139.0885515,35.9796995],[139.0885498,35.9796988],[139.0884704,35.979666],[139.0884518,35.9796583],[139.0884197,35.9796378],[139.0884002,35.979615],[139.0883898,35.9795979],[139.0883773,35.9795656],[139.0883575,35.9795586],[139.0882621,35.9795198],[139.0881644,35.9794636],[139.0880294,35.9793751],[139.08789,35.9792707],[139.0878227,35.9792265],[139.0877696,35.9792013],[139.0877603,35.9791984],[139.0876463,35.9791618],[139.087646,35.9791617],[139.0875914,35.9791509],[139.087591,35.9791509],[139.0875,35.9791463868421],[139.0875,35.97912833897486],[139.0875945,35.979133],[139.0876526,35.9791444],[139.087653,35.9791445],[139.0877239,35.9791672],[139.087779,35.979185],[139.0877793,35.9791851],[139.0878352,35.9792116],[139.0879046,35.9792571],[139.0880439,35.9793615],[139.0881326,35.9794198],[139.0881778,35.9794493],[139.0882735,35.9795043],[139.0883669,35.9795422],[139.0884528,35.9795727],[139.0885125,35.9795857],[139.0885128,35.9795858],[139.0885135,35.9795858],[139.0885776,35.9795947],[139.0886006,35.9795969],[139.0886249,35.9795991],[139.0886409,35.9795992],[139.0886997,35.9795995],[139.0887367,35.9795966],[139.0887602,35.9795907],[139.0887833,35.9795838],[139.0887956,35.9795919],[139.0888033,35.979597],[139.0887675,35.9796077],[139.0887672,35.9796078],[139.088741,35.9796143],[139.0887007,35.9796175],[139.0886415,35.9796172],[139.0886237,35.9796172],[139.0886234,35.9796172],[139.0885744,35.9796125],[139.0885197,35.979605],[139.088508,35.9796034],[139.0884456,35.9795897],[139.0884111,35.9795775],[139.0884157,35.9795895]]]},"properties":{"layer":"landuse","class_code":"215","class_label":"道路用地（道路、駅前広場、私有地内に存在する沿道用途の「私道」または、私有地の一部分であるものの公共の通行に供されている土地の部分）"}},{"type":"Feature","id":"luse_ea868126-7119-44e6-ac7d-75b2e540dbd6","geometry":{"type":"Polygon","coordinates":[[[139.0885202,35.982677],[139.088485,35.9826257],[139.0885654,35.9825773],[139.0886095,35.9826332],[139.0885202,35.982677]]]},"properties":{"layer":"landuse","class_code":"214","class_label":"公益施設用地（官公庁施設、文教厚生施設、供給処理施設）"}},{"type":"Feature","id":"luse_1f9fc5a1-a412-4f38-81c0-eb7846612493","geometry":{"type":"Polygon","coordinates":[[[139.0875,35.983333333333334],[139.0875,35.98318796547619],[139.0875031,35.9831866],[139.0875549,35.9831669],[139.087591,35.9831533],[139.0877984,35.9830796],[139.0878015,35.9830784],[139.0878225,35.9830711],[139.0878755,35.9830526],[139.0878837,35.9830497],[139.0880091,35.9830059],[139.0882895,35.9829113],[139.0882906,35.9829109],[139.0882949,35.9829095],[139.088311,35.9829041],[139.088351,35.9828908],[139.0885493,35.9828248],[139.0886019,35.9828077],[139.0886023,35.9828076],[139.0886688,35.9827947],[139.0886822,35.9827934],[139.0887224,35.9827894],[139.0887738,35.9827888],[139.0888244,35.9827926],[139.0888248,35.9827927],[139.0888877,35.982799],[139.0889685,35.9828095],[139.0889689,35.9828096],[139.0890672,35.9828337],[139.0891467,35.9828576],[139.0891471,35.9828578],[139.089194,35.9828715],[139.0891944,35.9828717],[139.0892397,35.9828924],[139.0892466,35.9828955],[139.0892831,35.9829166],[139.0893087,35.9829326],[139.0893267,35.982948],[139.0893437,35.9829674],[139.0893522,35.982982],[139.0893618,35.9830006],[139.0893722,35.9830261],[139.0893809,35.9830525],[139.0893886,35.9830987],[139.089389,35.9832606],[139.08938784360382,35.983333333333334],[139.0875,35.983333333333334]]]},"properties":{"layer":"landuse","class_code":"217","class_label":"公共空地（公園・緑地、広場、運動場、墓園）"}},{"type":"Feature","id":"luse_6514b05d-9122-4ed0-8916-b6eb5cf491f9","geometry":{"type":"MultiPolygon","coordinates":[[[[139.0894543923357,35.983333333333334],[139.0894555,35.9832609],[139.0894551,35.983095],[139.0894464,35.9830418],[139.0894359,35.9830106],[139.0894241,35.9829816],[139.0894131,35.98296],[139.0894013,35.9829399],[139.089378,35.9829134],[139.0893533,35.9828923],[139.0893227,35.9828732],[139.0892824,35.9828497],[139.089222,35.9828223],[139.08917,35.982807],[139.0891696,35.9828069],[139.0891506,35.9828011],[139.0890898,35.9827827],[139.0889951,35.9827561],[139.088899,35.9827411],[139.0888324,35.9827344],[139.0888202,35.9827335],[139.0887766,35.9827302],[139.0887468,35.9827305],[139.0887177,35.9827309],[139.0887173,35.9827309],[139.0886908,35.9827335],[139.0886562,35.9827369],[139.0886558,35.9827369],[139.0885802,35.9827517],[139.0885221,35.9827706],[139.0882675,35.9828554],[139.0879813,35.982952],[139.0877729,35.9830247],[139.0876355,35.9830735],[139.0876186,35.9830697],[139.0876056,35.9830605],[139.0875,35.982874338750015],[139.0875,35.98298220445486],[139.0875555,35.9830803],[139.0875549,35.9830925],[139.0875523,35.9830967],[139.0875441,35.9831064],[139.0875,35.98312307195122],[139.0875,35.9791463868421],[139.087591,35.9791509],[139.0875914,35.9791509],[139.087646,35.9791617],[139.0876463,35.9791618],[139.0877603,35.9791984],[139.0877696,35.9792013],[139.0878227,35.9792265],[139.08789,35.9792707],[139.0880294,35.9793751],[139.0881644,35.9794636],[139.0882621,35.9795198],[139.0883575,35.9795586],[139.0883773,35.9795656],[139.0883898,35.9795979],[139.0884002,35.979615],[139.0884197,35.9796378],[139.0884518,35.9796583],[139.0884704,35.979666],[139.0885498,35.9796988],[139.0885515,35.9796995],[139.0885556,35.9797019],[139.0885549,35.979706],[139.0885463,35.9797229],[139.0885143,35.9797637],[139.0884647,35.979828],[139.0884228,35.9798784],[139.0883987,35.9799183],[139.088371,35.9799704],[139.0883483,35.9800294],[139.0883321,35.9800783],[139.0883082,35.9801893],[139.0882683,35.9803222],[139.0882622,35.9803546],[139.0882545,35.9803821],[139.0882353,35.9804185],[139.0882015,35.9804784],[139.0881166,35.9806126],[139.0880264,35.9807514],[139.0879762,35.9808268],[139.0879472,35.9808593],[139.0878972,35.9809121],[139.0878822,35.9809257],[139.0878647,35.9809411],[139.0878644,35.9809414],[139.0878412,35.980958],[139.0878095,35.9809766],[139.0878092,35.9809768],[139.0877412,35.9810073],[139.0876606,35.981039],[139.0875778,35.9810724],[139.0875902,35.9810926],[139.0876728,35.9810593],[139.0877015,35.9810479],[139.0877318,35.981036],[139.087754,35.9810273],[139.0878244,35.9809958],[139.0878586,35.9809756],[139.087884,35.9809575],[139.0879027,35.9809409],[139.0879187,35.9809265],[139.0879694,35.9808728],[139.0879997,35.9808388],[139.0880508,35.9807621],[139.0880697,35.980733],[139.0881412,35.980623],[139.0882265,35.9804882],[139.0882609,35.9804276],[139.0882811,35.980389],[139.0882894,35.9803588],[139.0882957,35.9803266],[139.0883349,35.9801954],[139.0883353,35.980194],[139.0883592,35.9800831],[139.0883749,35.9800357],[139.088397,35.9799783],[139.0884239,35.9799278],[139.0884468,35.9798897],[139.0884879,35.9798403],[139.088538,35.9797757],[139.0885478,35.979763],[139.0885648,35.9797412],[139.0885658,35.9797399],[139.0885709,35.9797333],[139.0885762,35.979723],[139.0885817,35.9797123],[139.088584,35.9797011],[139.0885827,35.97969],[139.0885663,35.9796802],[139.0885405,35.9796696],[139.0884668,35.9796393],[139.0884402,35.9796221],[139.0884242,35.9796035],[139.0884157,35.9795895],[139.0884111,35.9795775],[139.0884456,35.9795897],[139.088508,35.9796034],[139.0885197,35.979605],[139.0885744,35.9796125],[139.0886234,35.9796172],[139.0886237,35.9796172],[139.0886415,35.9796172],[139.0887007,35.9796175],[139.088741,35.9796143],[139.0887672,35.9796078],[139.0887675,35.9796077],[139.0888033,35.979597],[139.0889332,35.9796831],[139.0889633,35.97977],[139.0891114,35.9801597],[139.0891258,35.9801955],[139.0891303,35.9802044],[139.0891359,35.9802331],[139.0892497,35.9806022],[139.0895195,35.9809425],[139.0895285,35.9809559],[139.0898026,35.9812513],[139.0898104,35.9812647],[139.0898115,35.981271],[139.0899376,35.9817082],[139.0899488,35.9817414],[139.0899567,35.981779],[139.0899644,35.9818139],[139.0900339,35.9821894],[139.0900394,35.982211],[139.0900462,35.9822288],[139.0901654,35.9825352],[139.0901754,35.9825567],[139.0901775,35.9825729],[139.0902169,35.9828354],[139.0901818,35.9829887],[139.0901762,35.9830076],[139.0901753,35.9830183],[139.09026189820395,35.983333333333334],[139.0894543923357,35.983333333333334]]],[[[139.0885202,35.982677],[139.0886095,35.9826332],[139.0885654,35.9825773],[139.088485,35.9826257],[139.0885202,35.982677]]]]},"properties":{"layer":"landuse","class_code":"217","class_label":"公共空地（公園・緑地、広場、運動場、墓園）"}},{"type":"Feature","id":"luse_e66dfe50-a479-440d-9e67-ad4da7764411","geometry":{"type":"Polygon","coordinates":[[[139.0875,35.975],[139.0875,35.975],[139.0875,35.97670097794874],[139.0875376,35.9767729],[139.0875563,35.9768388],[139.0875738,35.9768856],[139.0876453,35.9770617],[139.0876861,35.977188],[139.0877023,35.9772818],[139.0877121,35.9773143],[139.0877242,35.9773504],[139.0877529,35.9774037],[139.087808,35.9774957],[139.0879352,35.9776114],[139.0880201,35.9777658],[139.0882545,35.9779979],[139.0882675,35.9780927],[139.0882939,35.978136],[139.0882905,35.9781793],[139.0883367,35.9782813],[139.0883727,35.978486],[139.0884,35.9785988],[139.0884154,35.9786322],[139.0885241,35.9789742],[139.0885713,35.9791266],[139.0886434,35.9792583],[139.088671,35.979307],[139.0887092,35.9795459],[139.088728,35.9795472],[139.0887567,35.9795662],[139.0887833,35.9795838],[139.0887602,35.9795907],[139.0887367,35.9795966],[139.0886997,35.9795995],[139.0886409,35.9795992],[139.0886249,35.9795991],[139.0886006,35.9795969],[139.0885776,35.9795947],[139.0885135,35.9795858],[139.0885128,35.9795858],[139.0885125,35.9795857],[139.0884528,35.9795727],[139.0883669,35.9795422],[139.0882735,35.9795043],[139.0881778,35.9794493],[139.0881326,35.9794198],[139.0880439,35.9793615],[139.0879046,35.9792571],[139.0878352,35.9792116],[139.0877793,35.9791851],[139.087779,35.979185],[139.0877239,35.9791672],[139.087653,35.9791445],[139.0876526,35.9791444],[139.0875945,35.979133],[139.0875,35.97912833897486],[139.0875,35.975]]]},"properties":{"layer":"landuse","class_code":"203","class_label":"山林（樹林地）"}},{"type":"Feature","id":"luse_c632d152-1147-4b34-8972-d8468f63b3ec","geometry":{"type":"MultiPolygon","coordinates":[[[[139.0875,35.983333333333334],[139.0875,35.98312307195122],[139.0875441,35.9831064],[139.0875523,35.9830967],[139.0875549,35.9830925],[139.0875555,35.9830803],[139.0875,35.98298220445486],[139.0875,35.982874338750015],[139.0876056,35.9830605],[139.0876186,35.9830697],[139.0876355,35.9830735],[139.0877729,35.9830247],[139.0879813,35.982952],[139.0882675,35.9828554],[139.0885221,35.9827706],[139.0885802,35.9827517],[139.0886558,35.9827369],[139.0886562,35.9827369],[139.0886908,35.9827335],[139.0887173,35.9827309],[139.0887177,35.9827309],[139.0887468,35.9827305],[139.0887766,35.9827302],[139.0888202,35.9827335],[139.0888324,35.9827344],[139.088899,35.9827411],[139.0889951,35.9827561],[139.0890898,35.9827827],[139.0891506,35.9828011],[139.0891696,35.9828069],[139.08917,35.982807],[139.089222,35.9828223],[139.0892824,35.9828497],[139.0893227,35.9828732],[139.0893533,35.9828923],[139.089378,35.9829134],[139.0894013,35.9829399],[139.0894131,35.98296],[139.0894241,35.9829816],[139.0894359,35.9830106],[139.0894464,35.9830418],[139.0894551,35.983095],[139.0894555,35.9832609],[139.0894543923357,35.983333333333334],[139.0875,35.983333333333334]]],[[[139.08938784360382,35.983333333333334],[139.089389,35.9832606],[139.0893886,35.9830987],[139.0893809,35.9830525],[139.0893722,35.9830261],[139.0893618,35.9830006],[139.0893522,35.982982],[139.0893437,35.9829674],[139.0893267,35.982948],[139.0893087,35.9829326],[139.0892831,35.9829166],[139.0892466,35.9828955],[139.0892397,35.9828924],[139.0891944,35.9828717],[139.089194,35.9828715],[139.0891471,35.9828578],[139.0891467,35.9828576],[139.0890672,35.9828337],[139.0889689,35.9828096],[139.0889685,35.9828095],[139.0888877,35.982799],[139.0888248,35.9827927],[139.0888244,35.9827926],[139.0887738,35.9827888],[139.0887224,35.9827894],[139.0886822,35.9827934],[139.0886688,35.9827947],[139.0886023,35.9828076],[139.0886019,35.9828077],[139.0885493,35.9828248],[139.088351,35.9828908],[139.088311,35.9829041],[139.0882949,35.9829095],[139.0882906,35.9829109],[139.0882895,35.9829113],[139.0880091,35.9830059],[139.0878837,35.9830497],[139.0878755,35.9830526],[139.0878225,35.9830711],[139.0878015,35.9830784],[139.0877984,35.9830796],[139.087591,35.9831533],[139.0875549,35.9831669],[139.0875031,35.9831866],[139.0875,35.98318796547619],[139.0875,35.983333333333334],[139.08938784360382,35.983333333333334]]]]},"properties":{"layer":"landuse","class_code":"215","class_label":"道路用地（道路、駅前広場、私有地内に存在する沿道用途の「私道」または、私有地の一部分であるものの公共の通行に供されている土地の部分）"}}]}