{"type":"FeatureCollection","properties":{"mesh_code":"53397027","source":"PLATEAU秩父市2025","layer":"landuse"},"features":[{"type":"Feature","id":"luse_92c789ed-03fc-4210-9256-5fc5b1e23433","geometry":{"type":"Polygon","coordinates":[[[139.0875,35.94166666666667],[139.0875,35.93333333333333],[139.09854939074987,35.93333333333333],[139.0985491,35.9333444],[139.0985424,35.9334149],[139.0985392,35.9334802],[139.0985287,35.9335442],[139.0984969,35.9335964],[139.0984061,35.9337049],[139.0983536,35.9337556],[139.098318,35.9337986],[139.0982858,35.9338715],[139.098266,35.9339251],[139.0982512,35.9340103],[139.0982415,35.9342971],[139.0981992,35.9344682],[139.0981851,35.9344932],[139.0981318,35.9345212],[139.0980529,35.9345617],[139.0979686,35.9346177],[139.097853,35.9346786],[139.0977618,35.9347043],[139.0976779,35.9347261],[139.0975691,35.934764],[139.0975155,35.9347861],[139.097445,35.9348081],[139.0973793,35.9348359],[139.0973376,35.9348569],[139.0971564,35.934894],[139.096998,35.9349465],[139.096971,35.9349645],[139.0969428,35.9349813],[139.0969135,35.9349968],[139.0968832,35.935011],[139.0968701,35.9350166],[139.0968385,35.9350289],[139.0968062,35.9350397],[139.0967732,35.935049],[139.0967716,35.9350495],[139.096739,35.9350591],[139.0967058,35.9350672],[139.0966722,35.9350738],[139.0966682,35.9350745],[139.0966341,35.9350795],[139.0965997,35.9350829],[139.0965679,35.9350847],[139.096546,35.9350859],[139.0965244,35.9350881],[139.0965211,35.9350886],[139.0964997,35.9350919],[139.0964783,35.9350961],[139.0964575,35.9351013],[139.0964476,35.9351041],[139.0963903,35.9351292],[139.0963233,35.93516],[139.0962418,35.9351914],[139.0961982,35.9352102],[139.0961351,35.9352396],[139.0961083,35.9352544],[139.0960825,35.9352704],[139.0960808,35.9352716],[139.0960562,35.9352887],[139.0960369,35.9353036],[139.0960203,35.935306],[139.096004,35.9353091],[139.0959878,35.935313],[139.0959846,35.9353139],[139.0959688,35.9353185],[139.0959533,35.9353239],[139.0959382,35.9353301],[139.0959236,35.9353368],[139.0959173,35.93534],[139.0958966,35.9353476],[139.0958766,35.9353561],[139.0958661,35.935361],[139.0958471,35.9353708],[139.0958286,35.9353814],[139.0958231,35.9353849],[139.0958025,35.9354124],[139.0957745,35.9354461],[139.0957711,35.93545],[139.0957485,35.9354867],[139.095741,35.9354978],[139.0957151,35.9355331],[139.0956892,35.9355646],[139.0956586,35.935619],[139.0956519,35.935632],[139.095626,35.9356877],[139.0955893,35.9357458],[139.0955847,35.9357539],[139.0955526,35.9358137],[139.0955512,35.9358165],[139.0955441,35.9358359],[139.0955428,35.9358398],[139.0955373,35.9358596],[139.095533,35.9358795],[139.0955302,35.9358997],[139.0955294,35.9359094],[139.0955287,35.9359199],[139.0955287,35.9359207],[139.0955297,35.9359445],[139.0955323,35.9359681],[139.0955332,35.9359745],[139.0955379,35.9359981],[139.0955441,35.9360213],[139.0955519,35.9360442],[139.0955612,35.9360668],[139.0955697,35.9360844],[139.0956423,35.9361919],[139.0957718,35.9363346],[139.0958439,35.936438],[139.095861,35.936476],[139.0958711,35.9365305],[139.0958728,35.936576],[139.0958752,35.9366069],[139.0959003,35.9366763],[139.0959487,35.9367374],[139.0959945,35.9367872],[139.0960389,35.9368393],[139.0960779,35.9368953],[139.0961068,35.9369636],[139.0961181,35.9370061],[139.0961359,35.9370549],[139.0961555,35.937113],[139.0961699,35.9371625],[139.0961869,35.937209],[139.0962046,35.9372547],[139.0962294,35.937287],[139.0962697,35.9373209],[139.0963025,35.937346],[139.0963254,35.9373748],[139.0963426,35.9374039],[139.0964005,35.9374686],[139.0964252,35.9375243],[139.0964365,35.9375661],[139.0964421,35.937604],[139.0964647,35.9376912],[139.0964762,35.9377315],[139.0965016,35.9378043],[139.0965247,35.9378587],[139.0965599,35.9379288],[139.0965753,35.9379602],[139.0965981,35.9380001],[139.0966241,35.9380387],[139.0966516,35.9380745],[139.0966831,35.9381103],[139.0967174,35.9381444],[139.0967728,35.9382132],[139.0968344,35.938299],[139.0968428,35.9383124],[139.0968535,35.9383316],[139.0968625,35.9383513],[139.0968701,35.9383716],[139.0968761,35.9383921],[139.0968789,35.9384047],[139.0968823,35.9384256],[139.0968841,35.9384467],[139.0968843,35.9384678],[139.096882,35.9385382],[139.0968808,35.9385606],[139.0968661,35.9387043],[139.0968457,35.9388008],[139.096829,35.9389178],[139.0968291,35.9389239],[139.09683,35.9389397],[139.0968323,35.9389554],[139.0968357,35.9389709],[139.0968404,35.9389862],[139.0968462,35.9390013],[139.0968473,35.9390038],[139.0968544,35.9390184],[139.0968626,35.9390327],[139.0968721,35.9390466],[139.0968825,35.9390599],[139.096888,35.939062],[139.0969107,35.9390714],[139.0969327,35.939082],[139.0969537,35.9390937],[139.0969585,35.9390965],[139.0969784,35.9391095],[139.0969974,35.9391234],[139.0970237,35.9391427],[139.097031,35.9391472],[139.0970382,35.939152],[139.0970423,35.9391552],[139.0970449,35.9391572],[139.0970512,35.9391627],[139.097057,35.9391685],[139.0970624,35.9391746],[139.0970673,35.939181],[139.0970718,35.9391876],[139.0970742,35.9391917],[139.0970778,35.9391986],[139.0970808,35.9392057],[139.0970833,35.939213],[139.0970852,35.9392203],[139.0970865,35.9392278],[139.0970873,35.9392353],[139.0970875,35.9392428],[139.0970871,35.9392503],[139.0970871,35.9392508],[139.097087,35.9392598],[139.0970861,35.9392688],[139.0970911,35.9395347],[139.0970917,35.9395384],[139.097092,35.9395421],[139.0970921,35.9395459],[139.0970919,35.9395496],[139.0970915,35.9395533],[139.0970907,35.939557],[139.0970895,35.9395606],[139.0970883,35.9395642],[139.0970896,35.9395749],[139.0970947,35.9396023],[139.0971018,35.9396293],[139.097108,35.939648],[139.0971187,35.9396742],[139.0971313,35.9396999],[139.0971505,35.9397717],[139.0971596,35.9398021],[139.0972048,35.9399312],[139.0972325,35.9400628],[139.0972651,35.9401882],[139.0972922,35.940295],[139.0973231,35.9404308],[139.0973319,35.9404465],[139.0973471,35.9404705],[139.0973642,35.9404936],[139.097368,35.9404984],[139.0973872,35.9405204],[139.0974079,35.9405414],[139.0974303,35.9405613],[139.097449,35.9405782],[139.0974671,35.9405968],[139.0974838,35.9406164],[139.0974902,35.9406246],[139.0975046,35.9406452],[139.0975175,35.9406666],[139.0975286,35.9406885],[139.097538,35.940711],[139.0975887,35.9407839],[139.0975891,35.9407847],[139.097634,35.9408602],[139.097639,35.9408674],[139.0976514,35.9408872],[139.0976623,35.9409076],[139.0976717,35.9409285],[139.097675,35.9409371],[139.097682,35.9409585],[139.0976874,35.9409803],[139.0976911,35.9410023],[139.0976931,35.9410245],[139.0976933,35.9410467],[139.0976918,35.9410688],[139.0976908,35.9411509],[139.0976879,35.9412243],[139.0976866,35.9412656],[139.0976858,35.9413697],[139.097683,35.9413947],[139.0976664,35.9414982],[139.0976422,35.9415997],[139.0976419,35.9416004],[139.0976378,35.9416156],[139.0976325,35.9416305],[139.0976259,35.9416452],[139.0976184,35.9416595],[139.0976138611111,35.94166666666667],[139.0875,35.94166666666667]]]},"properties":{"layer":"landuse","class_code":"203","class_label":"山林（樹林地）"}}]}