{"type":"FeatureCollection","properties":{"mesh_code":"53397011","source":"PLATEAU秩父市2025","layer":"landuse"},"features":[{"type":"Feature","id":"luse_0bdba09b-27dc-4d7c-bc05-c46b53a69820","geometry":{"type":"Polygon","coordinates":[[[139.0214588,35.9323975],[139.0214712,35.9324079],[139.0214792,35.9324153],[139.0214828,35.93242],[139.021516,35.9324619],[139.0215468,35.9325112],[139.0215856,35.9325468],[139.0216351,35.9325716],[139.0216702,35.9325806],[139.0216976,35.9325844],[139.0217005,35.9325848],[139.0217113,35.9325863],[139.0217349,35.9325873],[139.0217544,35.9325881],[139.0217548,35.9325882],[139.0217997,35.9326027],[139.0218561,35.9326379],[139.021928,35.9326867],[139.0219131,35.9327126],[139.0216214,35.9325964],[139.0215638,35.9325677],[139.0215189,35.9325266],[139.0214872,35.9324754],[139.0214591,35.9324381],[139.021457,35.9324359],[139.0214467,35.9324262],[139.0214357,35.9324169],[139.0214221,35.932407],[139.021421,35.9324058],[139.0214183,35.9324038],[139.0214161,35.932402],[139.0214137,35.9324004],[139.0214112,35.9323989],[139.0214085,35.9323976],[139.0214056,35.9323963],[139.0214027,35.9323951],[139.0214005,35.9323944],[139.0213977,35.9323935],[139.0213974,35.9323934],[139.0213947,35.9323927],[139.0213943,35.9323926],[139.0213915,35.932392],[139.0213884,35.9323915],[139.0213853,35.9323911],[139.0213822,35.9323909],[139.0213791,35.9323908],[139.0213728,35.9323909],[139.0213724,35.9323909],[139.0213607,35.9323897],[139.0213514,35.9323888],[139.0213233,35.9323849],[139.021323,35.9323849],[139.0212992,35.9323806],[139.0212988,35.9323806],[139.0212662,35.9323733],[139.0212607,35.93237],[139.0212558,35.932367],[139.0212483,35.9323621],[139.0212408,35.9323567],[139.021234,35.9323511],[139.0212275,35.9323453],[139.0212244,35.9323422],[139.0212186,35.932336],[139.0212131,35.9323294],[139.0212083,35.9323226],[139.0212037,35.9323155],[139.0211995,35.9323083],[139.021196,35.9323009],[139.0211929,35.9322935],[139.0211783,35.9322532],[139.0211513,35.9321695],[139.0211504,35.9321673],[139.0211449,35.9321521],[139.0211387,35.9321374],[139.0211311,35.932123],[139.0211228,35.9321088],[139.0211135,35.9320953],[139.0211039,35.9320831],[139.0210935,35.9320729],[139.0210781,35.9320591],[139.0210697,35.9320525],[139.0210529,35.9320399],[139.0210353,35.9320281],[139.0210152,35.9320163],[139.0209687,35.9319847],[139.0209118,35.9319471],[139.0208709,35.9319046],[139.0208162,35.931848],[139.0208129,35.9318444],[139.0207954,35.9318233],[139.0207791,35.9318013],[139.0207662,35.931782],[139.0207529,35.9317588],[139.0207408,35.931735],[139.0207319,35.9317137],[139.020698,35.9316643],[139.0206647,35.9316129],[139.0206623,35.9316105],[139.0206528,35.9316022],[139.0206427,35.9315941],[139.02064,35.9315922],[139.0206292,35.9315847],[139.0206182,35.931578],[139.0206068,35.9315717],[139.0205949,35.9315659],[139.0205824,35.9315607],[139.0205677,35.9315552],[139.0205427,35.9315448],[139.0205332,35.9315406],[139.0205088,35.9315288],[139.0205075,35.9315281],[139.0204864,35.9315163],[139.0204844,35.9315152],[139.0204776,35.9315113],[139.0204706,35.9315069],[139.0204643,35.9315023],[139.0204581,35.9314974],[139.0204523,35.9314922],[139.020447,35.9314869],[139.0204434,35.9314831],[139.0204387,35.9314774],[139.0204342,35.9314714],[139.0204301,35.9314652],[139.0204265,35.9314588],[139.0204231,35.9314523],[139.0204206,35.9314456],[139.0204183,35.9314388],[139.0204164,35.9314319],[139.020415,35.9314249],[139.0204139,35.931418],[139.0204137,35.9314109],[139.0204135,35.9314049],[139.0204128,35.9313673],[139.020411,35.9313446],[139.0203953,35.9311379],[139.0203866,35.9310198],[139.0203594,35.930778],[139.0203594,35.9307729],[139.0203592,35.9307678],[139.0203585,35.9307628],[139.0203574,35.9307578],[139.020356,35.9307529],[139.0203542,35.930748],[139.0203521,35.9307432],[139.02035,35.9307385],[139.0203482,35.9307355],[139.0203454,35.930731],[139.0203422,35.9307266],[139.0203386,35.9307224],[139.020335,35.9307184],[139.0203311,35.9307145],[139.020327,35.9307111],[139.0203194,35.9307056],[139.0203119,35.9306997],[139.0203049,35.9306935],[139.0202985,35.930687],[139.0202925,35.9306803],[139.0202868,35.9306733],[139.0202816,35.9306661],[139.020277,35.9306586],[139.0202726,35.9306509],[139.0202692,35.930643],[139.0202666,35.9306365],[139.0202607,35.9306277],[139.0202545,35.9306163],[139.0202487,35.9306045],[139.0202441,35.9305926],[139.0202401,35.9305805],[139.0202369,35.9305688],[139.0202355,35.9305625],[139.0202304,35.9305388],[139.0202271,35.9305147],[139.0202258,35.9304945],[139.0202255,35.9304702],[139.0202266,35.930446],[139.0202297,35.9304201],[139.0202477,35.9303702],[139.0202747,35.9302941],[139.0202783,35.9302501],[139.0202762,35.9301977],[139.0202687,35.9301572],[139.020266,35.9301505],[139.0202571,35.9301346],[139.020246,35.9301197],[139.0202455,35.930119],[139.0202318,35.9301054],[139.0202163,35.9300933],[139.020199,35.9300828],[139.0201947,35.9300812],[139.0201805,35.9300758],[139.0201607,35.9300693],[139.0201603,35.9300692],[139.0201401,35.9300636],[139.0201174,35.9300585],[139.0200286,35.9300331],[139.0199819,35.9300183],[139.0198707,35.9299793],[139.0198703,35.9299791],[139.0198491,35.9299713],[139.0198085,35.929955],[139.0197688,35.9299368],[139.0197306,35.929917],[139.0197103,35.9299055],[139.0196716,35.9298813],[139.0196301,35.9298362],[139.0195883,35.9297904],[139.019587,35.9297895],[139.0195778,35.9297845],[139.0195684,35.92978],[139.0195589,35.9297759],[139.0195488,35.9297723],[139.0195413,35.9297699],[139.0195409,35.9297698],[139.0195307,35.929767],[139.0195205,35.9297646],[139.0195201,35.9297645],[139.0195097,35.9297627],[139.0194997,35.9297613],[139.0194918,35.9297608],[139.0194407,35.9297564],[139.0194224,35.9297542],[139.019414,35.9297532],[139.0194136,35.9297531],[139.0193606,35.9297449],[139.0193571,35.9297437],[139.0193437,35.9297414],[139.0193308,35.9297378],[139.0193188,35.929733],[139.0193184,35.9297328],[139.0193135,35.9297303],[139.0193025,35.9297236],[139.0192927,35.929716],[139.0192842,35.9297073],[139.0192768,35.9296977],[139.0192675,35.9296773],[139.0192617,35.9296562],[139.0192609,35.9296516],[139.0192588,35.9296301],[139.0192603,35.9296085],[139.0192607,35.9296056],[139.0192679,35.9295476],[139.0192824,35.9294949],[139.0192843,35.9294883],[139.0192892,35.9294759],[139.0192918,35.9294577],[139.0192915,35.9294395],[139.0192889,35.9294233],[139.0192835,35.9294056],[139.0192798,35.9293973],[139.0192669,35.9293767],[139.019251,35.9293574],[139.0192498,35.9293563],[139.0192309,35.9293389],[139.0192237,35.9293335],[139.0191923,35.929313],[139.0191874,35.9293103],[139.0191532,35.9292936],[139.019141,35.9292889],[139.0190913,35.9292796],[139.0190476,35.9292747],[139.0190209,35.9292748],[139.0189902,35.9292762],[139.0189572,35.9292792],[139.0189568,35.9292792],[139.0189421,35.9292794],[139.0189146,35.9292805],[139.0188874,35.9292829],[139.018887,35.929283],[139.0188767,35.9292842],[139.0188763,35.9292843],[139.0188547,35.9292876],[139.0188494,35.9292884],[139.018849,35.9292885],[139.0188413,35.9292898],[139.0188383,35.9292902],[139.0188323,35.929291],[139.0188235,35.9292917],[139.0188231,35.9292917],[139.0188144,35.9292921],[139.0188141,35.9292921],[139.0188052,35.929292],[139.0187964,35.9292916],[139.018796,35.9292916],[139.0187872,35.9292907],[139.0187785,35.9292895],[139.0187782,35.9292895],[139.0187697,35.929288],[139.0187694,35.9292879],[139.0187608,35.9292859],[139.0187564,35.9292846],[139.0187522,35.9292835],[139.018744,35.9292807],[139.0187358,35.9292776],[139.0187355,35.9292775],[139.0187277,35.929274],[139.0187208,35.9292706],[139.0187062,35.9292616],[139.018705,35.9292607],[139.0186907,35.9292501],[139.0186794,35.9292393],[139.0186685,35.9292264],[139.0186594,35.9292126],[139.0186587,35.9292109],[139.0186493,35.929194],[139.0186459,35.9291852],[139.018644,35.9291767],[139.0186436,35.9291675],[139.0186445,35.9291582],[139.0186451,35.9291544],[139.0186471,35.9291335],[139.0186474,35.9291313],[139.0186544,35.9290977],[139.0186572,35.9290566],[139.0186537,35.9290409],[139.0186471,35.9290321],[139.0185886,35.9290035],[139.0185143,35.9289839],[139.0185025,35.9289797],[139.0184685,35.9289686],[139.0184342,35.9289591],[139.0183992,35.9289512],[139.018364,35.928945],[139.0183636,35.9289449],[139.0183281,35.9289402],[139.0183277,35.9289401],[139.018298,35.9289374],[139.0182617,35.9289356],[139.0182233,35.9289354],[139.0181912,35.9289333],[139.0181487,35.9289291],[139.0181395,35.9289282],[139.0181225,35.9289257],[139.0180883,35.9289208],[139.0180879,35.9289208],[139.0180505,35.9289138],[139.0180501,35.9289137],[139.0180002,35.9289025],[139.0179998,35.9289024],[139.0179494,35.9288885],[139.0179462,35.9288872],[139.0179299,35.9288816],[139.0179139,35.9288768],[139.0178976,35.9288726],[139.0178812,35.9288693],[139.0178809,35.9288692],[139.0178643,35.9288666],[139.0178473,35.9288647],[139.0178301,35.9288636],[139.0178266,35.9288634],[139.0178229,35.9288633],[139.0178056,35.9288632],[139.0177885,35.9288639],[139.0177717,35.9288654],[139.0177713,35.9288654],[139.0177548,35.9288676],[139.0177545,35.9288677],[139.0177382,35.9288707],[139.0177215,35.9288743],[139.0177023,35.9288797],[139.0177,35.9288802],[139.0176379,35.9288813],[139.0176375,35.9288813],[139.0176168,35.9288805],[139.0175959,35.9288797],[139.0175795,35.9288783],[139.0175784,35.9288782],[139.0175542,35.9288762],[139.017513,35.928871],[139.0174424,35.9288574],[139.0173617,35.9288359],[139.0173249,35.9288276],[139.0172875,35.9288209],[139.0172706,35.9288189],[139.0172647,35.9288182],[139.0172232,35.9288134],[139.0172229,35.9288134],[139.0172036,35.9288123],[139.0171849,35.9288113],[139.017159,35.928811],[139.0171466,35.9288109],[139.0171254,35.9288114],[139.0170728,35.9288128],[139.0170378,35.9288138],[139.0170241,35.9288142],[139.016989,35.9288197],[139.0169549,35.9288379],[139.0164817,35.9291251],[139.0164469,35.9291282],[139.0164158,35.9291142],[139.0163913,35.929095],[139.016382,35.9290696],[139.0164795,35.9287267],[139.0165103,35.9286599],[139.0165882,35.9285204],[139.0166475,35.9283951],[139.0166735,35.9283325],[139.0167203,35.9282036],[139.0167581,35.928073],[139.0167878,35.9279377],[139.016798,35.9279125],[139.0168035,35.9278894],[139.0168063,35.9278659],[139.0168058,35.9278424],[139.0168021,35.9278191],[139.0167953,35.9277962],[139.0167853,35.9277741],[139.0167728,35.927753],[139.0167573,35.927733],[139.016739,35.9277147],[139.0167186,35.927698],[139.0167103,35.9276926],[139.0166959,35.9276831],[139.0166663,35.9276682],[139.0166403,35.9276583],[139.01664,35.9276582],[139.0166128,35.9276507],[139.016585,35.9276456],[139.0164828,35.9276393],[139.0164825,35.9276393],[139.0163827,35.9276377],[139.016283,35.9276405],[139.0162826,35.9276405],[139.0161833,35.9276476],[139.0161162,35.9276556],[139.0160843,35.9276593],[139.0160102,35.927671],[139.0160099,35.927671],[139.0159129,35.9276903],[139.0159038,35.9276926],[139.015903,35.9276928],[139.0158174,35.9277139],[139.0157235,35.9277417],[139.0156419,35.92777],[139.0156261,35.9277754],[139.0155787,35.927779],[139.0155498,35.9277773],[139.0155266,35.9277678],[139.0155068,35.9277544],[139.0154865,35.9277313],[139.0154764,35.927702],[139.015353,35.927345],[139.0153338,35.9273139],[139.0152788,35.9272788],[139.0152486,35.9272635],[139.0152098,35.9272516],[139.0152095,35.9272515],[139.0151916,35.92725],[139.0151198,35.9272441],[139.0146469,35.9272046],[139.0145609,35.9271941],[139.0145066,35.9271693],[139.0144773,35.9271379],[139.0144539,35.9270938],[139.0144321,35.9269453],[139.0144333,35.926909],[139.0144528,35.9268748],[139.0149523,35.9265113],[139.0149585,35.9264936],[139.0149632,35.9264631],[139.0149633,35.9264451],[139.0149605,35.9264227],[139.0148167,35.9261915],[139.0147979,35.9261486],[139.0147632,35.9260492],[139.0147516,35.925993],[139.0147446,35.9259197],[139.0147454,35.9258949],[139.0147424,35.9258702],[139.0147381,35.9258529],[139.0147287,35.9258294],[139.0147184,35.9258111],[139.0147078,35.9258008],[139.0146873,35.9257867],[139.0146731,35.9257799],[139.014658,35.9257745],[139.0146449,35.9257721],[139.0146279,35.9257688],[139.014566,35.925751],[139.0144282,35.9256912],[139.0143916,35.9256574],[139.0143661,35.9256272],[139.014241,35.9253298],[139.0142063,35.9252315],[139.0142062,35.9252234],[139.0142172,35.9252041],[139.0142943,35.9251616],[139.0144532,35.9250689],[139.0145195,35.9250303],[139.01454159544238,35.925],[139.01457889570707,35.925],[139.0145767,35.9250047],[139.0145448,35.9250489],[139.0142983,35.9251929],[139.0142804,35.9252068],[139.0142677,35.9252214],[139.0142594,35.9252378],[139.0142554,35.9252558],[139.0142566,35.9252737],[139.0142746,35.9253262],[139.0142978,35.9253816],[139.0143414,35.9254098],[139.0143749,35.9254254],[139.0144229,35.9255396],[139.0144235,35.925592],[139.0144219,35.9256175],[139.0144273,35.9256495],[139.0144492,35.9256696],[139.0145797,35.9257263],[139.0146291,35.9257405],[139.0146378,35.925743],[139.0146692,35.9257491],[139.0146881,35.9257558],[139.0147056,35.9257642],[139.0147318,35.9257821],[139.0147468,35.9257965],[139.0147597,35.9258196],[139.0147702,35.925846],[139.0147754,35.9258661],[139.0147788,35.925894],[139.0147776,35.9259173],[139.0147846,35.9259897],[139.0147957,35.9260435],[139.0148294,35.9261402],[139.0148473,35.9261808],[139.0149929,35.926415],[139.0149966,35.9264439],[139.0149964,35.9264649],[139.0149914,35.9264991],[139.0149816,35.9265264],[139.0144801,35.9268912],[139.0144666,35.9269154],[139.0144654,35.9269441],[139.0144863,35.9270867],[139.0145061,35.9271242],[139.0145289,35.9271485],[139.0145716,35.927168],[139.0146509,35.9271778],[139.0146513,35.9271778],[139.0151332,35.927218],[139.0152017,35.9272237],[139.0152174,35.927225],[139.0152632,35.9272393],[139.0152975,35.9272566],[139.0153604,35.9272965],[139.0153841,35.9273352],[139.0155172,35.9277195],[139.0155314,35.9277359],[139.0155451,35.9277451],[139.0155587,35.9277508],[139.0155787,35.9277519],[139.0156175,35.927749],[139.0157111,35.9277165],[139.0158067,35.9276883],[139.0159041,35.9276642],[139.0160029,35.9276446],[139.0160786,35.9276326],[139.016079,35.9276326],[139.0161795,35.9276208],[139.0162808,35.9276134],[139.0163103,35.9276126],[139.0163726,35.9276109],[139.0163825,35.9276106],[139.0164842,35.9276123],[139.0165897,35.9276189],[139.0165901,35.9276189],[139.0166217,35.9276246],[139.0166436,35.9276306],[139.0166525,35.9276331],[139.0166823,35.9276444],[139.0167157,35.9276613],[139.0167408,35.9276779],[139.0167641,35.9276967],[139.0167843,35.9277174],[139.0168018,35.9277397],[139.0168161,35.9277635],[139.0168272,35.9277885],[139.0168348,35.9278142],[139.0168389,35.9278405],[139.0168396,35.927867],[139.0168366,35.9278934],[139.0168302,35.9279193],[139.01682,35.927945],[139.0167906,35.9280785],[139.0167524,35.9282105],[139.0167054,35.9283406],[139.0166788,35.9284042],[139.0166189,35.9285308],[139.0165409,35.9286705],[139.0165116,35.9287345],[139.0164164,35.9290687],[139.0164204,35.9290805],[139.0164317,35.9290891],[139.0164486,35.9290918],[139.0164649,35.9290904],[139.0169297,35.9288082],[139.0169343,35.9288055],[139.0169806,35.9287935],[139.016981,35.9287934],[139.0169987,35.9287906],[139.0170204,35.9287872],[139.017146,35.9287838],[139.0171464,35.9287838],[139.0171584,35.9287839],[139.017186,35.9287842],[139.0171864,35.9287842],[139.0172072,35.9287854],[139.0172262,35.9287864],[139.0172721,35.9287918],[139.0172784,35.9287925],[139.0172938,35.9287943],[139.0173329,35.9288013],[139.0173715,35.9288101],[139.0174515,35.9288314],[139.017519,35.9288443],[139.0175585,35.9288494],[139.0175984,35.9288527],[139.0176383,35.9288542],[139.0176938,35.9288534],[139.0177024,35.928851],[139.0177298,35.9288444],[139.0177301,35.9288443],[139.0177484,35.9288411],[139.0177671,35.9288386],[139.0177857,35.928837],[139.0177861,35.928837],[139.0178048,35.9288362],[139.0178237,35.9288362],[139.0178508,35.9288378],[139.0178512,35.9288378],[139.0178696,35.9288399],[139.0178699,35.9288399],[139.0178882,35.9288428],[139.0179064,35.9288465],[139.0179068,35.9288466],[139.0179245,35.9288511],[139.0179248,35.9288512],[139.0179424,35.9288565],[139.017962,35.9288635],[139.0180098,35.9288766],[139.0180185,35.9288785],[139.0180582,35.9288875],[139.0180586,35.9288876],[139.0180947,35.9288943],[139.0181444,35.9289015],[139.0181945,35.9289064],[139.0182247,35.9289083],[139.0182628,35.9289086],[139.0183006,35.9289104],[139.018301,35.9289105],[139.0183218,35.9289124],[139.0183253,35.9289127],[139.0183322,35.9289133],[139.0183326,35.9289134],[139.0183698,35.9289183],[139.0183702,35.9289184],[139.0184072,35.928925],[139.018444,35.9289333],[139.0184801,35.9289433],[139.0184982,35.9289491],[139.0185154,35.9289547],[139.0185262,35.9289586],[139.0186956,35.9290034],[139.0186959,35.9290034],[139.0187198,35.9290097],[139.0187296,35.9290157],[139.0187331,35.9290241],[139.0187323,35.9290335],[139.0187278,35.9290551],[139.018707,35.9290991],[139.0186821,35.9291517],[139.01868,35.9291773],[139.0186839,35.9291895],[139.0186896,35.9292012],[139.0186969,35.9292124],[139.0187058,35.9292227],[139.0187149,35.9292313],[139.0187262,35.9292399],[139.0187296,35.9292419],[139.0187383,35.9292475],[139.0187418,35.9292494],[139.0187443,35.9292506],[139.0187509,35.9292534],[139.0187572,35.9292559],[139.018764,35.9292582],[139.0187708,35.9292601],[139.0187776,35.9292616],[139.0187779,35.9292617],[139.0187847,35.929263],[139.018785,35.929263],[139.0187919,35.929264],[139.0187991,35.9292647],[139.0188061,35.929265],[139.0188065,35.929265],[139.0188134,35.9292651],[139.0188137,35.929265],[139.0188208,35.9292648],[139.018828,35.9292642],[139.018835,35.9292632],[139.0188353,35.9292632],[139.0188422,35.929262],[139.0188425,35.9292619],[139.0188708,35.9292576],[139.0188712,35.9292575],[139.0188744,35.9292572],[139.0188828,35.9292562],[139.0188832,35.9292561],[139.0189117,35.9292536],[139.0189121,35.9292535],[139.018941,35.9292523],[139.018955,35.9292521],[139.0189874,35.9292492],[139.0190198,35.9292477],[139.0190201,35.9292477],[139.0190525,35.9292477],[139.0190849,35.929249],[139.0190853,35.9292491],[139.0191173,35.9292519],[139.0191177,35.9292519],[139.0191496,35.9292561],[139.0191499,35.9292562],[139.0191681,35.9292593],[139.0191995,35.9292658],[139.0191999,35.9292658],[139.0192311,35.9292737],[139.0192457,35.929278],[139.0192531,35.9292805],[139.0192535,35.9292807],[139.0192606,35.9292835],[139.0192678,35.9292867],[139.019275,35.9292903],[139.0192815,35.9292941],[139.0192881,35.9292982],[139.0192943,35.9293027],[139.0193001,35.9293074],[139.0193056,35.9293123],[139.0193108,35.9293175],[139.0193114,35.9293182],[139.0193162,35.9293237],[139.0193206,35.9293293],[139.0193247,35.9293351],[139.0193282,35.929341],[139.0193315,35.9293472],[139.0193342,35.9293534],[139.0193366,35.9293598],[139.0193385,35.9293663],[139.01934,35.9293728],[139.019341,35.9293788],[139.0193375,35.9294129],[139.0193316,35.9294468],[139.0193242,35.9294781],[139.0193198,35.9294922],[139.019314,35.9295113],[139.0193103,35.9295214],[139.0193058,35.9295338],[139.019302,35.9295463],[139.0192991,35.929559],[139.0192971,35.9295716],[139.0192958,35.9295845],[139.0192955,35.9295969],[139.019296,35.9296098],[139.0192974,35.9296226],[139.0192996,35.9296353],[139.0193027,35.9296479],[139.0193036,35.929651],[139.0193045,35.9296555],[139.0193058,35.9296601],[139.0193073,35.9296645],[139.0193091,35.929669],[139.0193113,35.9296733],[139.0193138,35.9296775],[139.0193166,35.9296816],[139.0193195,35.9296855],[139.0193228,35.9296894],[139.0193251,35.9296919],[139.0193287,35.9296954],[139.0193327,35.9296989],[139.0193367,35.9297021],[139.0193411,35.9297052],[139.0193456,35.929708],[139.0193504,35.9297106],[139.0193551,35.9297131],[139.0193599,35.9297152],[139.0193603,35.9297153],[139.0193651,35.9297172],[139.0193655,35.9297173],[139.0193701,35.9297188],[139.0194015,35.9297237],[139.0194194,35.9297265],[139.019429,35.9297276],[139.0194449,35.9297296],[139.0194839,35.9297329],[139.0194948,35.9297339],[139.0195037,35.9297344],[139.0195161,35.9297361],[139.0195283,35.9297383],[139.0195286,35.9297384],[139.0195406,35.9297411],[139.0195526,35.9297444],[139.0195618,35.9297474],[139.0195733,35.9297517],[139.0195847,35.9297564],[139.0195954,35.9297617],[139.019606,35.9297673],[139.0196122,35.929771],[139.0196568,35.92982],[139.0196954,35.929862],[139.0197301,35.9298836],[139.019749,35.9298946],[139.019786,35.9299137],[139.0198239,35.9299311],[139.019863,35.9299469],[139.0198839,35.9299544],[139.0199942,35.9299932],[139.0199946,35.9299933],[139.0200403,35.9300077],[139.0201274,35.9300327],[139.0201499,35.9300378],[139.0201721,35.9300439],[139.0201937,35.930051],[139.0202149,35.930059],[139.0202155,35.9300592],[139.0202363,35.9300682],[139.0202562,35.9300781],[139.0202745,35.9300883],[139.0202827,35.9300927],[139.0202906,35.9300975],[139.0202981,35.9301027],[139.0203055,35.9301082],[139.0203123,35.9301139],[139.0203187,35.93012],[139.0203196,35.9301209],[139.0203255,35.9301272],[139.0203283,35.9301305],[139.0203311,35.9301339],[139.0203363,35.9301408],[139.0203409,35.9301479],[139.020345,35.9301552],[139.0203486,35.9301627],[139.0203493,35.9301643],[139.0203484,35.9301797],[139.0203465,35.930195],[139.0203435,35.9302102],[139.020341,35.9302203],[139.0203363,35.9302352],[139.0203307,35.9302499],[139.020324,35.9302643],[139.0203126,35.9302888],[139.0203041,35.9303109],[139.0202798,35.9303778],[139.0202628,35.9304252],[139.02026,35.9304479],[139.0202588,35.9304707],[139.0202591,35.9304935],[139.0202604,35.9305124],[139.0202635,35.930535],[139.0202681,35.9305576],[139.0202697,35.9305634],[139.0202724,35.9305742],[139.020276,35.9305849],[139.0202802,35.9305954],[139.0202851,35.9306057],[139.0202907,35.9306158],[139.0202971,35.9306257],[139.0203,35.9306299],[139.0203072,35.9306393],[139.0203151,35.9306483],[139.0203235,35.930657],[139.0203326,35.9306653],[139.0203337,35.9306663],[139.0203393,35.930671],[139.0203451,35.9306755],[139.0203512,35.9306796],[139.0203577,35.9306836],[139.0203645,35.9306871],[139.0203658,35.9306878],[139.0203726,35.9306911],[139.0203798,35.930694],[139.0203872,35.9306967],[139.0203945,35.9306989],[139.0203948,35.930699],[139.0204036,35.9308029],[139.0204286,35.9311362],[139.0204444,35.9313429],[139.0204462,35.9313662],[139.0204469,35.9314048],[139.020447,35.9314102],[139.0204472,35.9314158],[139.0204479,35.9314214],[139.0204491,35.9314269],[139.0204505,35.9314323],[139.0204523,35.9314377],[139.0204545,35.9314429],[139.0204571,35.9314481],[139.0204599,35.9314532],[139.0204631,35.931458],[139.0204667,35.9314628],[139.0204705,35.9314674],[139.020473,35.9314702],[139.0204774,35.9314745],[139.020482,35.9314786],[139.0204868,35.9314825],[139.0204921,35.9314862],[139.0204971,35.9314895],[139.0204974,35.9314897],[139.0205009,35.9314917],[139.0205027,35.9314927],[139.020503,35.9314929],[139.0205048,35.9314938],[139.0205267,35.931506],[139.0205498,35.9315172],[139.0205582,35.931521],[139.0205744,35.9315277],[139.0205819,35.9315308],[139.0205973,35.9315364],[139.0206109,35.9315423],[139.0206245,35.9315488],[139.0206375,35.9315559],[139.0206497,35.9315636],[139.02065,35.9315637],[139.0206619,35.9315719],[139.0206655,35.9315744],[139.0206767,35.9315833],[139.0206872,35.9315927],[139.0206925,35.9315977],[139.0207099,35.9316247],[139.0207272,35.9316514],[139.0207625,35.9317026],[139.0207722,35.9317256],[139.0207834,35.931748],[139.020796,35.9317699],[139.020808,35.931788],[139.0208233,35.9318088],[139.0208401,35.9318288],[139.0208426,35.9318317],[139.020897,35.9318879],[139.0209356,35.931928],[139.0209899,35.9319638],[139.0210359,35.931995],[139.0210476,35.932002],[139.0210557,35.9320068],[139.0210747,35.9320195],[139.0210929,35.932033],[139.021102,35.9320404],[139.0211187,35.9320551],[139.0211311,35.9320672],[139.0211421,35.9320816],[139.0211523,35.9320964],[139.0211615,35.9321117],[139.0211617,35.932112],[139.0211697,35.9321277],[139.0211767,35.9321437],[139.0211826,35.9321601],[139.0211834,35.9321627],[139.0212103,35.932246],[139.0212247,35.9322855],[139.0212272,35.9322916],[139.0212301,35.9322977],[139.0212335,35.9323035],[139.0212372,35.9323093],[139.0212414,35.9323149],[139.0212459,35.9323202],[139.0212507,35.9323254],[139.0212529,35.9323276],[139.0212583,35.9323325],[139.0212639,35.9323371],[139.0212698,35.9323415],[139.0212761,35.9323455],[139.021281,35.9323485],[139.0213073,35.9323543],[139.0213297,35.9323584],[139.0213301,35.9323584],[139.0213562,35.9323621],[139.0213742,35.9323638],[139.0213745,35.9323638],[139.0213792,35.9323638],[139.0213843,35.9323639],[139.0213892,35.9323643],[139.0213941,35.9323648],[139.021399,35.9323657],[139.0214036,35.9323666],[139.021404,35.9323667],[139.0214084,35.9323679],[139.0214131,35.9323693],[139.0214167,35.9323706],[139.0214214,35.9323724],[139.0214257,35.9323744],[139.0214299,35.9323766],[139.0214339,35.932379],[139.0214377,35.9323815],[139.0214415,35.9323842],[139.0214449,35.9323871],[139.0214459,35.9323878],[139.0214588,35.9323975]]]},"properties":{"layer":"landuse","class_code":"215","class_label":"道路用地（道路、駅前広場、私有地内に存在する沿道用途の「私道」または、私有地の一部分であるものの公共の通行に供されている土地の部分）"}},{"type":"Feature","id":"luse_c36046a9-3e99-4d92-9354-2e9ebad131a0","geometry":{"type":"Polygon","coordinates":[[[139.02131436363638,35.93333333333333],[139.0213128,35.9333276],[139.021311,35.9333188],[139.0213092,35.9333099],[139.0213077,35.9332985],[139.0213119,35.9332851],[139.0213155,35.9332762],[139.0213197,35.9332676],[139.0213247,35.9332592],[139.0213301,35.933251],[139.0213361,35.9332431],[139.0213425,35.9332354],[139.0213494,35.9332282],[139.0213547,35.9332232],[139.0213624,35.9332166],[139.0213706,35.9332102],[139.0213794,35.9332042],[139.0213885,35.9331986],[139.021398,35.9331934],[139.0214078,35.9331887],[139.0214177,35.9331844],[139.0214282,35.9331807],[139.0214389,35.9331774],[139.0214498,35.9331746],[139.0214608,35.9331723],[139.0214682,35.9331711],[139.0216476,35.9331248],[139.0216479,35.9331247],[139.0217688,35.9330808],[139.0218138,35.9330609],[139.0218787,35.9330367],[139.0218841,35.9330351],[139.0219618,35.9330078],[139.0220223,35.9329795],[139.0220297,35.9329757],[139.0220444,35.9329662],[139.0220576,35.9329552],[139.0220688,35.932943],[139.0220783,35.9329297],[139.0220836,35.9329196],[139.0220895,35.932905],[139.0220928,35.9328899],[139.0221246,35.9328825],[139.022125,35.9328824],[139.0221219,35.9329115],[139.0221149,35.9329291],[139.022108,35.9329419],[139.0220967,35.932958],[139.0220828,35.9329729],[139.0220667,35.9329862],[139.0220492,35.9329977],[139.0220399,35.9330025],[139.0220107,35.9330162],[139.0219769,35.9330321],[139.0218962,35.9330603],[139.0218912,35.9330617],[139.0218286,35.933085],[139.0217848,35.9331046],[139.0216596,35.93315],[139.0214767,35.9331973],[139.0214763,35.9331974],[139.0214683,35.9331986],[139.0214679,35.9331987],[139.0214591,35.9332005],[139.0214587,35.9332006],[139.0214498,35.933203],[139.0214409,35.9332057],[139.0214321,35.9332089],[139.0214237,35.9332124],[139.0214157,35.9332164],[139.0214075,35.9332207],[139.0214001,35.9332254],[139.0213928,35.9332304],[139.0213859,35.9332357],[139.0213794,35.9332414],[139.0213752,35.9332453],[139.0213693,35.9332515],[139.021364,35.9332578],[139.0213589,35.9332645],[139.0213545,35.9332713],[139.0213504,35.9332783],[139.0213469,35.9332855],[139.021344,35.9332928],[139.0213415,35.9333004],[139.0213423,35.9333062],[139.0213439,35.9333144],[139.0213456,35.9333225],[139.0213477,35.9333305],[139.02134850452677,35.93333333333333],[139.02131436363638,35.93333333333333]]]},"properties":{"layer":"landuse","class_code":"215","class_label":"道路用地（道路、駅前広場、私有地内に存在する沿道用途の「私道」または、私有地の一部分であるものの公共の通行に供されている土地の部分）"}}]}