{"type":"FeatureCollection","properties":{"mesh_code":"53397056","source":"PLATEAU秩父市2025","layer":"landuse"},"features":[{"type":"Feature","id":"luse_350b6a7c-13f1-4d7f-8d08-a1bb4289daea","geometry":{"type":"Polygon","coordinates":[[[139.075,35.958333333333336],[139.0860185789224,35.958333333333336],[139.0859771,35.9584295],[139.0858517,35.9586459],[139.0856444,35.9588888],[139.0854388,35.9594778],[139.0853969,35.9594918],[139.0853328,35.9595153],[139.0852401,35.9595463],[139.0852233,35.9595545],[139.0852138,35.9595624],[139.085204,35.9595804],[139.0851965,35.9596095],[139.0851866,35.9596589],[139.085177,35.9596927],[139.0851624,35.9597318],[139.0851448,35.9597721],[139.0851267,35.9598085],[139.0851095,35.9598376],[139.0850909,35.9598631],[139.0850352,35.9599247],[139.0849989,35.9599609],[139.0849622,35.9599942],[139.0849285,35.9600202],[139.0848986,35.9600396],[139.0848493,35.9600652],[139.0848033,35.9600833],[139.0847443,35.9601005],[139.0847092,35.9601073],[139.0846713,35.9601113],[139.0846322,35.9601129],[139.0845591,35.9601111],[139.0845006,35.9601055],[139.0843873,35.9600881],[139.0843043,35.9600758],[139.0842391,35.9600628],[139.0841907,35.9600499],[139.084149,35.9600365],[139.084107,35.9600195],[139.084086,35.9600078],[139.0840654,35.9599934],[139.0840462,35.9599767],[139.0840295,35.9599586],[139.0840161,35.9599394],[139.0840049,35.9599164],[139.0839948,35.9598861],[139.0839646,35.9597681],[139.0839554,35.9597416],[139.0839464,35.9597242],[139.0839376,35.9597127],[139.0839286,35.9597039],[139.0839039,35.9596881],[139.0838439,35.959659],[139.0837976,35.9596407],[139.0837233,35.9596175],[139.0835893,35.9595809],[139.083197,35.9595091],[139.0831152,35.9596026],[139.0830061,35.9597186],[139.0829336,35.9597653],[139.0828464,35.9598267],[139.0828351,35.959863],[139.0828208,35.9599028],[139.0824436,35.9601522],[139.0820372,35.9600358],[139.0816801,35.9600681],[139.0816667,35.9601576],[139.0817277,35.9602252],[139.0817355,35.9602563],[139.081721,35.9602803],[139.0816101,35.9603034],[139.0815431,35.9603091],[139.0814826,35.9602913],[139.0814278,35.9602843],[139.0813778,35.9603032],[139.0812668,35.9603635],[139.0812131,35.960371],[139.0811542,35.9603555],[139.0810389,35.9602867],[139.0809738,35.9602639],[139.080698,35.9602865],[139.0805557,35.9603497],[139.0804958,35.9603669],[139.0803343,35.9604004],[139.080223,35.9604132],[139.0801653,35.960415],[139.0801044,35.960412],[139.0799977,35.9604805],[139.0800032,35.9605674],[139.0800038,35.9606706],[139.0800067,35.9607352],[139.0799797,35.9607899],[139.0799303,35.9608405],[139.0798587,35.9609174],[139.0798292,35.96097],[139.0798145,35.9610125],[139.0797851,35.9610833],[139.0796591,35.9611986],[139.0795872,35.9612331],[139.0795079,35.9612615],[139.0790625,35.9613373],[139.078862,35.961336],[139.078574,35.9614179],[139.0782028,35.9615958],[139.0781136,35.9616367],[139.077931,35.9617056],[139.077811,35.9617804],[139.0777298,35.9617692],[139.0776187,35.9617674],[139.077541,35.9617626],[139.0774788,35.9617471],[139.0773537,35.9617161],[139.077253,35.9616716],[139.0772116,35.9616624],[139.0771598,35.9616593],[139.0771133,35.9616588],[139.0770348,35.9616617],[139.0769538,35.9616575],[139.0768361,35.9616481],[139.0767942,35.9616407],[139.0767696,35.9616435],[139.0767312,35.9616622],[139.076699,35.9616494],[139.0766334,35.9615762],[139.076603,35.9615595],[139.0765526,35.9615465],[139.0764809,35.9615033],[139.0764048,35.9614358],[139.0763662,35.961416],[139.0762455,35.9613976],[139.0761505,35.9613905],[139.0760029,35.9613853],[139.0758839,35.9613821],[139.0756564,35.9613664],[139.0754017,35.96131],[139.0753128,35.961344],[139.0751281,35.9614185],[139.0750949,35.9614224],[139.075,35.961401374251494],[139.075,35.958333333333336]]]},"properties":{"layer":"landuse","class_code":"213","class_label":"工業用地（工場）"}},{"type":"Feature","id":"luse_af5db662-1c82-4331-80f2-6128cc40ce71","geometry":{"type":"Polygon","coordinates":[[[139.0755202,35.9659176],[139.0752621,35.9659329],[139.0750826,35.9659275],[139.0750823,35.9659275],[139.075,35.96591875338719],[139.075,35.96589146798246],[139.0750654,35.9658984],[139.0750851,35.9659006],[139.0750854,35.9659006],[139.0752614,35.9659058],[139.0752618,35.9659058],[139.0755175,35.9658907],[139.0755178,35.9658907],[139.0756741,35.9658803],[139.0757493,35.9658753],[139.076059,35.9658255],[139.0760594,35.9658255],[139.076101,35.9658151],[139.0762312,35.9657825],[139.0763167,35.9657491],[139.0764011,35.9656735],[139.0764422,35.9656146],[139.0764734,35.9655332],[139.0764846,35.965436],[139.0764847,35.9653236],[139.0764929,35.9651795],[139.0765237,35.9651545],[139.0765571,35.9651385],[139.0766508,35.9651441],[139.0766512,35.9651442],[139.0767067,35.9651602],[139.0768406,35.9652224],[139.0770588,35.9653021],[139.0770925,35.965311],[139.07715,35.9653262],[139.077297,35.9653173],[139.077298,35.9653173],[139.0773157,35.9653162],[139.0774783,35.9652777],[139.0774786,35.9652777],[139.0775688,35.9652334],[139.0776821,35.9651531],[139.0777874,35.9650294],[139.0779115,35.9649101],[139.0779808,35.964854],[139.0781251,35.9647429],[139.0782596,35.9645783],[139.0783774,35.9644198],[139.0785092,35.9642949],[139.0787337,35.9640726],[139.078772,35.9639771],[139.0787666,35.9639588],[139.0787477,35.9639381],[139.0787079,35.9639286],[139.0786678,35.963926],[139.0786674,35.963926],[139.0786297,35.9639271],[139.0786293,35.9639271],[139.0786206,35.9639285],[139.0785524,35.9639392],[139.0785241,35.9639436],[139.0785237,35.9639437],[139.0783348,35.963981],[139.0780382,35.9640527],[139.0780378,35.9640528],[139.0779986,35.9640577],[139.0779407,35.9640649],[139.0778883,35.9640636],[139.0778444,35.964052],[139.0778107,35.964015],[139.0777858,35.9639714],[139.0777839,35.9639188],[139.0778152,35.9638236],[139.0777898,35.9636353],[139.0778225,35.9636324],[139.0778229,35.9636323],[139.0778498,35.9638325],[139.0779064,35.9638368],[139.0780344,35.9638142],[139.0780348,35.9638141],[139.0782307,35.9637579],[139.0783621,35.9637021],[139.0785113,35.9636052],[139.0786496,35.963486],[139.0787504,35.9634038],[139.0788592,35.9633249],[139.0789634,35.9632791],[139.0791307,35.9632116],[139.0791456,35.9632359],[139.0789787,35.9633031],[139.0788783,35.9633472],[139.0787734,35.9634235],[139.0786735,35.9635048],[139.0785339,35.9636252],[139.0783801,35.9637248],[139.0782852,35.9637652],[139.0782438,35.9637827],[139.0780437,35.9638402],[139.0779084,35.9638642],[139.0778897,35.9638627],[139.0778381,35.9638587],[139.0778313,35.9638793],[139.0778174,35.963922],[139.0778189,35.963965],[139.0778395,35.9640011],[139.0778648,35.9640289],[139.077894,35.9640367],[139.0779387,35.9640377],[139.0780307,35.9640263],[139.0780845,35.9640133],[139.0783259,35.9639549],[139.0783263,35.9639548],[139.0785167,35.9639173],[139.078517,35.9639172],[139.0785269,35.9639157],[139.0786016,35.9639039],[139.0786256,35.9639002],[139.0786259,35.9639002],[139.0786682,35.963899],[139.0786685,35.963899],[139.0787008,35.963901],[139.078714,35.9639018],[139.0787678,35.9639147],[139.0787974,35.9639471],[139.0788064,35.9639783],[139.0787634,35.9640858],[139.0785347,35.9643123],[139.0784044,35.9644357],[139.0782878,35.9645928],[139.0781507,35.9647605],[139.078004,35.9648734],[139.0779543,35.9649135],[139.077936,35.9649284],[139.0779205,35.9649433],[139.0778139,35.9650458],[139.077707,35.9651712],[139.0775885,35.9652553],[139.077492,35.9653026],[139.0774917,35.9653026],[139.0773216,35.965343],[139.0772098,35.9653497],[139.0771461,35.9653536],[139.0771457,35.9653536],[139.0770468,35.9653273],[139.0768841,35.9652679],[139.0768255,35.9652465],[139.076693,35.9651849],[139.0766926,35.9651848],[139.0766444,35.9651707],[139.076644,35.9651708],[139.0765649,35.9651662],[139.0765441,35.9651761],[139.0765255,35.9651912],[139.076518,35.9653243],[139.076518,35.9654373],[139.0765062,35.9655385],[139.076473,35.9656254],[139.0764281,35.9656894],[139.076337,35.9657711],[139.0763366,35.9657712],[139.0762432,35.9658077],[139.0760673,35.9658517],[139.0757541,35.9659021],[139.0757537,35.9659022],[139.0756949,35.9659061],[139.0755202,35.9659176]]]},"properties":{"layer":"landuse","class_code":"215","class_label":"道路用地（道路、駅前広場、私有地内に存在する沿道用途の「私道」または、私有地の一部分であるものの公共の通行に供されている土地の部分）"}},{"type":"Feature","id":"luse_e66dfe50-a479-440d-9e67-ad4da7764411","geometry":{"type":"MultiPolygon","coordinates":[[[[139.075,35.96666666666667],[139.075,35.961401374251494],[139.0750949,35.9614224],[139.0751281,35.9614185],[139.0753128,35.961344],[139.0754017,35.96131],[139.0756564,35.9613664],[139.0758839,35.9613821],[139.0760029,35.9613853],[139.0761505,35.9613905],[139.0762455,35.9613976],[139.0763662,35.961416],[139.0764048,35.9614358],[139.0764809,35.9615033],[139.0765526,35.9615465],[139.076603,35.9615595],[139.0766334,35.9615762],[139.076699,35.9616494],[139.0767312,35.9616622],[139.0767696,35.9616435],[139.0767942,35.9616407],[139.0768361,35.9616481],[139.0769538,35.9616575],[139.0770348,35.9616617],[139.0771133,35.9616588],[139.0771598,35.9616593],[139.0772116,35.9616624],[139.077253,35.9616716],[139.0773537,35.9617161],[139.0774788,35.9617471],[139.077541,35.9617626],[139.0776187,35.9617674],[139.0777298,35.9617692],[139.077811,35.9617804],[139.077931,35.9617056],[139.0781136,35.9616367],[139.0782028,35.9615958],[139.078574,35.9614179],[139.078862,35.961336],[139.0790625,35.9613373],[139.0795079,35.9612615],[139.0795872,35.9612331],[139.0796591,35.9611986],[139.0797851,35.9610833],[139.0798145,35.9610125],[139.0798292,35.96097],[139.0798587,35.9609174],[139.0799303,35.9608405],[139.0799797,35.9607899],[139.0800067,35.9607352],[139.0800038,35.9606706],[139.0800032,35.9605674],[139.0799977,35.9604805],[139.0801044,35.960412],[139.0801653,35.960415],[139.080223,35.9604132],[139.0803343,35.9604004],[139.0804958,35.9603669],[139.0805557,35.9603497],[139.080698,35.9602865],[139.0809738,35.9602639],[139.0810389,35.9602867],[139.0811542,35.9603555],[139.0812131,35.960371],[139.0812668,35.9603635],[139.0813778,35.9603032],[139.0814278,35.9602843],[139.0814826,35.9602913],[139.0815431,35.9603091],[139.0816101,35.9603034],[139.081721,35.9602803],[139.0817355,35.9602563],[139.0817277,35.9602252],[139.0816667,35.9601576],[139.0816801,35.9600681],[139.0820372,35.9600358],[139.0824436,35.9601522],[139.0828208,35.9599028],[139.0828351,35.959863],[139.0828464,35.9598267],[139.0829336,35.9597653],[139.0830061,35.9597186],[139.0831152,35.9596026],[139.083197,35.9595091],[139.0835893,35.9595809],[139.0837233,35.9596175],[139.0837976,35.9596407],[139.0838439,35.959659],[139.0839039,35.9596881],[139.0839286,35.9597039],[139.0839376,35.9597127],[139.0839464,35.9597242],[139.0839554,35.9597416],[139.0839646,35.9597681],[139.0839948,35.9598861],[139.0840049,35.9599164],[139.0840161,35.9599394],[139.0840295,35.9599586],[139.0840462,35.9599767],[139.0840654,35.9599934],[139.084086,35.9600078],[139.084107,35.9600195],[139.084149,35.9600365],[139.0841907,35.9600499],[139.0842391,35.9600628],[139.0843043,35.9600758],[139.0843873,35.9600881],[139.0845006,35.9601055],[139.0845591,35.9601111],[139.0846322,35.9601129],[139.0846713,35.9601113],[139.0847092,35.9601073],[139.0847443,35.9601005],[139.0848033,35.9600833],[139.0848493,35.9600652],[139.0848986,35.9600396],[139.0849285,35.9600202],[139.0849622,35.9599942],[139.0849989,35.9599609],[139.0850352,35.9599247],[139.0850909,35.9598631],[139.0851095,35.9598376],[139.0851267,35.9598085],[139.0851448,35.9597721],[139.0851624,35.9597318],[139.085177,35.9596927],[139.0851866,35.9596589],[139.0851965,35.9596095],[139.085204,35.9595804],[139.0852138,35.9595624],[139.0852233,35.9595545],[139.0852401,35.9595463],[139.0853328,35.9595153],[139.0853969,35.9594918],[139.0854388,35.9594778],[139.0856444,35.9588888],[139.0858517,35.9586459],[139.0859771,35.9584295],[139.0860185789224,35.958333333333336],[139.0875,35.958333333333336],[139.0875,35.96666666666667],[139.075,35.96666666666667]]],[[[139.075,35.96591875338719],[139.0750823,35.9659275],[139.0750826,35.9659275],[139.0752621,35.9659329],[139.0755202,35.9659176],[139.0756949,35.9659061],[139.0757537,35.9659022],[139.0757541,35.9659021],[139.0760673,35.9658517],[139.0762432,35.9658077],[139.0763366,35.9657712],[139.076337,35.9657711],[139.0764281,35.9656894],[139.076473,35.9656254],[139.0765062,35.9655385],[139.076518,35.9654373],[139.076518,35.9653243],[139.0765255,35.9651912],[139.0765441,35.9651761],[139.0765649,35.9651662],[139.076644,35.9651708],[139.0766444,35.9651707],[139.0766926,35.9651848],[139.076693,35.9651849],[139.0768255,35.9652465],[139.0768841,35.9652679],[139.0770468,35.9653273],[139.0771457,35.9653536],[139.0771461,35.9653536],[139.0772098,35.9653497],[139.0773216,35.965343],[139.0774917,35.9653026],[139.077492,35.9653026],[139.0775885,35.9652553],[139.077707,35.9651712],[139.0778139,35.9650458],[139.0779205,35.9649433],[139.077936,35.9649284],[139.0779543,35.9649135],[139.078004,35.9648734],[139.0781507,35.9647605],[139.0782878,35.9645928],[139.0784044,35.9644357],[139.0785347,35.9643123],[139.0787634,35.9640858],[139.0788064,35.9639783],[139.0787974,35.9639471],[139.0787678,35.9639147],[139.078714,35.9639018],[139.0787008,35.963901],[139.0786685,35.963899],[139.0786682,35.963899],[139.0786259,35.9639002],[139.0786256,35.9639002],[139.0786016,35.9639039],[139.0785269,35.9639157],[139.078517,35.9639172],[139.0785167,35.9639173],[139.0783263,35.9639548],[139.0783259,35.9639549],[139.0780845,35.9640133],[139.0780307,35.9640263],[139.0779387,35.9640377],[139.077894,35.9640367],[139.0778648,35.9640289],[139.0778395,35.9640011],[139.0778189,35.963965],[139.0778174,35.963922],[139.0778313,35.9638793],[139.0778381,35.9638587],[139.0778897,35.9638627],[139.0779084,35.9638642],[139.0780437,35.9638402],[139.0782438,35.9637827],[139.0782852,35.9637652],[139.0783801,35.9637248],[139.0785339,35.9636252],[139.0786735,35.9635048],[139.0787734,35.9634235],[139.0788783,35.9633472],[139.0789787,35.9633031],[139.0791456,35.9632359],[139.0791307,35.9632116],[139.0789634,35.9632791],[139.0788592,35.9633249],[139.0787504,35.9634038],[139.0786496,35.963486],[139.0785113,35.9636052],[139.0783621,35.9637021],[139.0782307,35.9637579],[139.0780348,35.9638141],[139.0780344,35.9638142],[139.0779064,35.9638368],[139.0778498,35.9638325],[139.0778229,35.9636323],[139.0778225,35.9636324],[139.0777898,35.9636353],[139.0778152,35.9638236],[139.0777839,35.9639188],[139.0777858,35.9639714],[139.0778107,35.964015],[139.0778444,35.964052],[139.0778883,35.9640636],[139.0779407,35.9640649],[139.0779986,35.9640577],[139.0780378,35.9640528],[139.0780382,35.9640527],[139.0783348,35.963981],[139.0785237,35.9639437],[139.0785241,35.9639436],[139.0785524,35.9639392],[139.0786206,35.9639285],[139.0786293,35.9639271],[139.0786297,35.9639271],[139.0786674,35.963926],[139.0786678,35.963926],[139.0787079,35.9639286],[139.0787477,35.9639381],[139.0787666,35.9639588],[139.078772,35.9639771],[139.0787337,35.9640726],[139.0785092,35.9642949],[139.0783774,35.9644198],[139.0782596,35.9645783],[139.0781251,35.9647429],[139.0779808,35.964854],[139.0779115,35.9649101],[139.0777874,35.9650294],[139.0776821,35.9651531],[139.0775688,35.9652334],[139.0774786,35.9652777],[139.0774783,35.9652777],[139.0773157,35.9653162],[139.077298,35.9653173],[139.077297,35.9653173],[139.07715,35.9653262],[139.0770925,35.965311],[139.0770588,35.9653021],[139.0768406,35.9652224],[139.0767067,35.9651602],[139.0766512,35.9651442],[139.0766508,35.9651441],[139.0765571,35.9651385],[139.0765237,35.9651545],[139.0764929,35.9651795],[139.0764847,35.9653236],[139.0764846,35.965436],[139.0764734,35.9655332],[139.0764422,35.9656146],[139.0764011,35.9656735],[139.0763167,35.9657491],[139.0762312,35.9657825],[139.076101,35.9658151],[139.0760594,35.9658255],[139.076059,35.9658255],[139.0757493,35.9658753],[139.0756741,35.9658803],[139.0755178,35.9658907],[139.0755175,35.9658907],[139.0752618,35.9659058],[139.0752614,35.9659058],[139.0750854,35.9659006],[139.0750851,35.9659006],[139.0750654,35.9658984],[139.075,35.96589146798246],[139.075,35.96591875338719]]]]},"properties":{"layer":"landuse","class_code":"203","class_label":"山林（樹林地）"}}]}