{"type":"FeatureCollection","properties":{"mesh_code":"53397008","source":"PLATEAU秩父市2025","layer":"landuse"},"features":[{"type":"Feature","id":"luse_92c789ed-03fc-4210-9256-5fc5b1e23433","geometry":{"type":"Polygon","coordinates":[[[139.1,35.925],[139.1,35.916666666666664],[139.1125,35.916666666666664],[139.1125,35.91980813028951],[139.1124624,35.9198549],[139.1122744,35.9200202],[139.1116947,35.9202773],[139.110653,35.9205389],[139.1098349,35.9206354],[139.1095677,35.9207207],[139.1093872,35.9207978],[139.1089726,35.9210285],[139.1087047,35.9213232],[139.1084817,35.9216862],[139.1083743,35.9218337],[139.1082515,35.9220058],[139.108129,35.9221533],[139.1076429,35.92228],[139.1067435,35.9224293],[139.1066664,35.9224578],[139.1064677,35.9225448],[139.1063535,35.9225672],[139.10614,35.9225811],[139.1060715,35.9226003],[139.1060256,35.9226314],[139.1059876,35.9226776],[139.1057958,35.9229295],[139.1054982,35.9231748],[139.1047625,35.9235578],[139.1046477,35.9236357],[139.1045409,35.9237588],[139.1044022,35.9239369],[139.1043638,35.9240603],[139.104293,35.9243501],[139.1041243,35.9245651],[139.1039596,35.9247223],[139.1036083326969,35.925],[139.1,35.925]]]},"properties":{"layer":"landuse","class_code":"203","class_label":"山林（樹林地）"}}]}