{"type":"FeatureCollection","properties":{"mesh_code":"53397005","source":"PLATEAU秩父市2025","layer":"landuse"},"features":[{"type":"Feature","id":"luse_2f2f29be-9f42-40a4-b79a-3162b2a6c6ad","geometry":{"type":"Polygon","coordinates":[[[139.0645709,35.9228959],[139.06479,35.9229269],[139.0648341,35.9229313],[139.0648504,35.9230205],[139.0648506,35.9230221],[139.0648508,35.9230238],[139.0648512,35.9230254],[139.0648518,35.923027],[139.0648524,35.9230285],[139.0648533,35.92303],[139.0648542,35.9230315],[139.0648552,35.923033],[139.0648562,35.9230344],[139.0648574,35.9230357],[139.0648575,35.9230362],[139.064859,35.9230374],[139.0648603,35.9230386],[139.0648617,35.9230398],[139.064863,35.9230409],[139.0648648,35.923042],[139.0648662,35.9230429],[139.064868,35.9230438],[139.0648696,35.9230446],[139.0648699,35.9230447],[139.0648714,35.9230453],[139.0648718,35.9230454],[139.0648723,35.9230455],[139.064896,35.9230481],[139.0648668,35.923089],[139.0648296,35.9231136],[139.0647958,35.9231307],[139.064748,35.9231497],[139.0646991,35.9231496],[139.0646338,35.9231438],[139.0645546,35.9231302],[139.0644986,35.9231111],[139.0644544,35.9230919],[139.0644358,35.9230614],[139.0644311,35.9230309],[139.0644334,35.9229927],[139.0644381,35.9229566],[139.0644614,35.9228995],[139.0644894,35.9228862],[139.0645709,35.9228959]]]},"properties":{"layer":"landuse","class_code":"202","class_label":"畑（畑、樹園地、採草地、養鶏（牛・豚）場）"}},{"type":"Feature","id":"luse_fba37d28-d3bf-4b11-9109-f1eefc5f8b84","geometry":{"type":"Polygon","coordinates":[[[139.0664506,35.9245739],[139.0664236,35.9245779],[139.0663797,35.9245843],[139.0662789,35.9245992],[139.066274,35.9245999],[139.0662613,35.9246001],[139.0662481,35.9245995],[139.0662344,35.9245965],[139.0662223,35.9245886],[139.066211,35.9245752],[139.0662068,35.9245703],[139.0661933,35.9245462],[139.0661839,35.9245213],[139.0661684,35.9244802],[139.0661556,35.9244464],[139.0661515,35.924423],[139.0661514,35.9244225],[139.0661019,35.9244493],[139.0659917,35.9244675],[139.0658175,35.924471],[139.065793,35.9244717],[139.0657831,35.924472],[139.065752,35.9244765],[139.0657144,35.9244901],[139.0656829,35.9245083],[139.0656491,35.9245357],[139.0656174,35.92455],[139.0655593,35.9245502],[139.0655211,35.9245503],[139.0654848,35.9245446],[139.0654067,35.9245304],[139.065239,35.9245019],[139.0650155,35.924427],[139.0646765,35.9242789],[139.0646412,35.9242552],[139.0646097,35.924215],[139.0646121,35.9242048],[139.06462,35.9241716],[139.0646747,35.924122],[139.0647472,35.9240864],[139.0648087,35.9240655],[139.0649095,35.9240127],[139.0649244,35.9239798],[139.0649411,35.9239781],[139.0652053,35.9240121],[139.0652038,35.9240161],[139.0652032,35.9240706],[139.0652075,35.9241341],[139.0652182,35.9241878],[139.0652488,35.9242463],[139.0652694,35.924256],[139.0652961,35.9242587],[139.0653064,35.9242598],[139.0653435,35.9242531],[139.0653878,35.9242312],[139.0654178,35.9241997],[139.0654464,35.9241517],[139.0654769,35.9240974],[139.0655,35.9240743],[139.06552,35.9240543],[139.0655587,35.9240375],[139.0656045,35.9240309],[139.0657741,35.9240494],[139.0657759,35.9240615],[139.0657776,35.9240694],[139.0657799,35.9240787],[139.0657833,35.9240881],[139.065787,35.9240968],[139.0657885,35.9241001],[139.065793,35.9241087],[139.0657981,35.9241174],[139.0658037,35.9241258],[139.06581,35.9241339],[139.0658169,35.9241418],[139.0658244,35.9241493],[139.0658315,35.9241558],[139.0660211,35.9242834],[139.0661837,35.924393],[139.0661881,35.9243965],[139.0662748,35.9244586],[139.0663608,35.9245114],[139.0663611,35.9245115],[139.066369,35.9245154],[139.0663802,35.9245202],[139.0663917,35.9245243],[139.0664035,35.9245276],[139.0664038,35.9245276],[139.0664158,35.9245301],[139.0664161,35.9245301],[139.0664284,35.9245319],[139.0664307,35.9245321],[139.0664312,35.9245321],[139.0664376,35.9245325],[139.0664386,35.9245326],[139.0664434,35.9245329],[139.0664438,35.9245329],[139.066452,35.9245328],[139.066456,35.9245328],[139.0664564,35.9245328],[139.0664687,35.924532],[139.0664691,35.924532],[139.0664814,35.9245304],[139.0664936,35.9245279],[139.0664952,35.924527],[139.0664506,35.9245739]]]},"properties":{"layer":"landuse","class_code":"202","class_label":"畑（畑、樹園地、採草地、養鶏（牛・豚）場）"}},{"type":"Feature","id":"luse_d1a1feb0-a25c-4440-9bbc-06a840a69b02","geometry":{"type":"Polygon","coordinates":[[[139.0639371,35.9243906],[139.0639347,35.9244682],[139.0639062,35.9245225],[139.0637115,35.9246404],[139.0636474,35.92465],[139.0635715,35.9246499],[139.0634741,35.9246768],[139.0633922,35.9247406],[139.0633387,35.9247386],[139.0632937,35.9247365],[139.0632604,35.9247248],[139.0632224,35.9246859],[139.063194,35.9246121],[139.063156,35.9245674],[139.0631584,35.924515],[139.0632107,35.9244744],[139.0633317,35.9244514],[139.0635193,35.9244518],[139.0636403,35.9243996],[139.0639205,35.9243595],[139.0639371,35.9243906]]]},"properties":{"layer":"landuse","class_code":"202","class_label":"畑（畑、樹園地、採草地、養鶏（牛・豚）場）"}},{"type":"Feature","id":"luse_93df63f4-cb8f-40e7-adc8-ad6d828c070d","geometry":{"type":"Polygon","coordinates":[[[139.0723084,35.9194491],[139.0722837,35.9194581],[139.0722587,35.9194679],[139.072234,35.9194784],[139.0722096,35.9194894],[139.072186,35.9195011],[139.0721628,35.9195133],[139.0721555,35.9195173],[139.072133,35.9195302],[139.072111,35.9195438],[139.0720892,35.919558],[139.0720682,35.9195728],[139.0720476,35.9195881],[139.0720277,35.9196039],[139.0720121,35.919617],[139.0719007,35.9197021],[139.0717981,35.9197738],[139.0717878,35.9197812],[139.0717787,35.9197894],[139.071771,35.9197986],[139.0717649,35.919808],[139.0717602,35.9198183],[139.0717569,35.9198291],[139.0717553,35.9198401],[139.0717557,35.9198491],[139.0717396,35.919858],[139.0716932,35.9198804],[139.0716457,35.9199012],[139.0716037,35.9199177],[139.0715543,35.9199354],[139.071504,35.9199514],[139.0714919,35.919955],[139.071463,35.9199628],[139.0714346,35.9199715],[139.0714068,35.9199813],[139.0713794,35.9199919],[139.0713766,35.919993],[139.0713498,35.9200046],[139.0713237,35.9200171],[139.0712983,35.9200306],[139.0712928,35.9200336],[139.0712764,35.920044],[139.0712602,35.9200549],[139.0712449,35.9200664],[139.07123,35.9200785],[139.0712158,35.920091],[139.0712117,35.9200948],[139.0711984,35.9201079],[139.0711855,35.9201215],[139.0711736,35.9201355],[139.0711624,35.9201498],[139.071152,35.9201646],[139.0711518,35.9201649],[139.0710807,35.9202601],[139.0710643,35.9202792],[139.0709935,35.9202469],[139.0709063,35.920207],[139.0708809,35.9201955],[139.0709093,35.9201732],[139.0709485,35.9201506],[139.0709755,35.9201346],[139.0710645,35.9200608],[139.0711275,35.9200017],[139.0711582,35.9199679],[139.0711785,35.9199383],[139.0712006,35.9199124],[139.0712254,35.9198921],[139.0712743,35.9198673],[139.0712962,35.91986],[139.0713748,35.9198322],[139.0714346,35.919806],[139.0714708,35.9197901],[139.0715359,35.9197589],[139.0715542,35.9197502],[139.071587,35.9197373],[139.0715982,35.9197328],[139.0716618,35.9197067],[139.0717352,35.9196821],[139.0717554,35.919674],[139.0717754,35.9196638],[139.0718709,35.9196161],[139.071942,35.9195737],[139.0720014,35.9195395],[139.0720651,35.9195033],[139.0720734,35.9194985],[139.0721239,35.9194679],[139.0721458,35.9194577],[139.0721812,35.9194448],[139.0722601,35.9193971],[139.0722741,35.9193888],[139.0722903,35.9193792],[139.072305,35.9193711],[139.0723287,35.9193594],[139.0723654,35.9193424],[139.0724586,35.9193003],[139.0724596,35.9192998],[139.0725522,35.9192633],[139.0726321,35.919234],[139.0726471,35.9192272],[139.0727072,35.9192181],[139.0728935,35.9191402],[139.072927,35.9191101],[139.0730115,35.9190702],[139.0730414,35.9190523],[139.0730714,35.9190381],[139.0730828,35.9190344],[139.0731213,35.9190258],[139.0732057,35.9190145],[139.0732163,35.919013],[139.073252,35.9190054],[139.0732858,35.9189954],[139.0733279,35.9189837],[139.0733708,35.9189718],[139.0734694,35.9189479],[139.0734929,35.9189411],[139.0735905,35.9189073],[139.073679,35.9188838],[139.0737798,35.9188659],[139.0738136,35.9188639],[139.0739086,35.9188617],[139.0739315,35.9188623],[139.0739537,35.918863],[139.07403,35.9188524],[139.0740558,35.9188475],[139.0740741,35.9188458],[139.0740947,35.9188459],[139.0741181,35.9188475],[139.0741352,35.9188517],[139.0742172,35.9188863],[139.0742412,35.9188958],[139.0743306,35.9189281],[139.0744104,35.9189604],[139.0744315,35.9189704],[139.0744344,35.9189717],[139.0744537,35.9189793],[139.0745099,35.9189812],[139.0745442,35.9189821],[139.0745578,35.9189819],[139.0745716,35.918982],[139.0745758,35.9189814],[139.0746466,35.9189704],[139.0747017,35.918955],[139.0747454,35.9189348],[139.0748335,35.9188801],[139.0749072,35.9188383],[139.074967,35.9188071],[139.075,35.9187900903475],[139.075,35.919040388235295],[139.0749939,35.9190429],[139.0749577,35.9190579],[139.0749489,35.9190613],[139.0749043,35.9190766],[139.0748618,35.9190892],[139.074859,35.91909],[139.0748129,35.9191014],[139.0747661,35.9191107],[139.0747101,35.9191211],[139.0747097,35.9191211],[139.0746521,35.9191291],[139.0746518,35.9191291],[139.0745937,35.9191346],[139.074535,35.9191374],[139.0745064,35.9191375],[139.0744766,35.9191377],[139.0744761,35.9191377],[139.0744456,35.9191367],[139.0744028,35.919134],[139.074387,35.919133],[139.074329,35.9191267],[139.0743286,35.9191266],[139.0742711,35.9191178],[139.0742143,35.9191064],[139.0742139,35.9191063],[139.0741103,35.9190936],[139.074094,35.9190917],[139.0740903,35.9190913],[139.0740888,35.9190911],[139.0740756,35.9190898],[139.0740752,35.9190898],[139.0739203,35.9190779],[139.0739026,35.9190782],[139.0738767,35.9190786],[139.0738763,35.9190787],[139.0738278,35.9190813],[139.0738084,35.9190823],[139.0737406,35.919089],[139.0736736,35.9190987],[139.0736732,35.9190987],[139.0736182,35.919109],[139.0735527,35.9191241],[139.0734879,35.919142],[139.0734246,35.9191629],[139.0732035,35.9192285],[139.0729464,35.9193048],[139.0725237,35.9194489],[139.0724185,35.9194888],[139.0723436,35.9195193],[139.0723432,35.9195193],[139.0723255,35.9195224],[139.0723251,35.9195224],[139.0723074,35.9195261],[139.0722898,35.9195305],[139.0722724,35.9195355],[139.0722553,35.9195409],[139.0722384,35.919547],[139.072222,35.9195538],[139.072206,35.919561],[139.0721947,35.9195665],[139.0721793,35.9195747],[139.0721642,35.9195834],[139.0721495,35.9195926],[139.0721354,35.9196023],[139.0721218,35.9196124],[139.0721089,35.919623],[139.0720155,35.9196879],[139.0719638,35.9197243],[139.0719612,35.9197262],[139.0719586,35.9197278],[139.0719558,35.9197291],[139.0719555,35.9197292],[139.0719526,35.9197301],[139.0719494,35.9197309],[139.0719463,35.9197312],[139.0719459,35.9197313],[139.0719428,35.9197313],[139.0719395,35.919731],[139.0719364,35.9197304],[139.0719361,35.9197304],[139.0719331,35.9197295],[139.071931,35.9197285],[139.0720432,35.9196427],[139.0720591,35.9196293],[139.072078,35.9196143],[139.0720976,35.9195998],[139.0721177,35.9195858],[139.0721382,35.9195723],[139.0721592,35.9195593],[139.0721809,35.9195469],[139.0721872,35.9195434],[139.0722093,35.9195317],[139.0722317,35.9195207],[139.072232,35.9195205],[139.0722551,35.91951],[139.0722786,35.9195001],[139.0723024,35.9194908],[139.0723264,35.919482],[139.0727585,35.9193213],[139.07274,35.9192885],[139.0723084,35.9194491]]]},"properties":{"layer":"landuse","class_code":"203","class_label":"山林（樹林地）"}},{"type":"Feature","id":"luse_57bbfd9b-b2b4-43bb-9534-a26dbb21e148","geometry":{"type":"Polygon","coordinates":[[[139.0710423,35.9203054],[139.0710359,35.9203133],[139.0710247,35.9203296],[139.0710132,35.9203455],[139.0710006,35.920361],[139.0709872,35.9203762],[139.0709829,35.9203806],[139.0709687,35.920395],[139.0709535,35.920409],[139.0709377,35.9204225],[139.0709215,35.9204353],[139.0709158,35.9204394],[139.0706164,35.9206653],[139.0706165,35.9206649],[139.0706196,35.9206445],[139.0706214,35.9206341],[139.0706214,35.9206305],[139.0706219,35.9206292],[139.070629,35.9205967],[139.070634,35.9205712],[139.0706336,35.9205684],[139.0706336,35.9205681],[139.0706327,35.9205677],[139.0706323,35.9205671],[139.0706341,35.9205597],[139.0706349,35.920558],[139.0706407,35.920544],[139.0706465,35.9205329],[139.07066,35.9205092],[139.0706706,35.9204817],[139.0706753,35.9204698],[139.07069,35.9204252],[139.0706932,35.920413],[139.0706994,35.9203882],[139.0707082,35.9203603],[139.0707161,35.9203446],[139.0707163,35.9203443],[139.0707219,35.9203321],[139.0707386,35.9202906],[139.0707512,35.9202648],[139.0708516,35.9202183],[139.0710423,35.9203054]]]},"properties":{"layer":"landuse","class_code":"203","class_label":"山林（樹林地）"}},{"type":"Feature","id":"luse_0b6732ca-1889-494a-b449-c59551b2e75f","geometry":{"type":"Polygon","coordinates":[[[139.0705274,35.9207325],[139.0704013,35.9208274],[139.0703037,35.9209012],[139.0702697,35.9209267],[139.0702664,35.9209186],[139.0702654,35.9209093],[139.0702675,35.9209009],[139.0702679,35.9209001],[139.0702763,35.9208766],[139.0702814,35.9208608],[139.0702864,35.9208434],[139.0702909,35.9208243],[139.0702952,35.9208039],[139.0702993,35.9207823],[139.0703002,35.9207764],[139.0703027,35.9207613],[139.0703054,35.9207428],[139.0703072,35.9207282],[139.0703082,35.9207167],[139.0703089,35.9207067],[139.0703101,35.920673],[139.0703119,35.92064],[139.0703125,35.9206322],[139.0702457,35.9206088],[139.0703208,35.9204603],[139.0703706,35.9203678],[139.0704776,35.9201816],[139.0704824,35.9201735],[139.0704883,35.9201675],[139.070495,35.920162],[139.0705019,35.9201567],[139.0705093,35.9201518],[139.070517,35.9201472],[139.0705251,35.9201432],[139.0705335,35.9201395],[139.0705421,35.9201362],[139.070551,35.9201334],[139.0705599,35.920131],[139.0705691,35.9201292],[139.0705729,35.9201285],[139.0705807,35.9201275],[139.0705823,35.9201273],[139.0705856,35.920127],[139.0705917,35.9201266],[139.0705964,35.9201265],[139.0706013,35.9201264],[139.0706108,35.9201266],[139.0706201,35.9201273],[139.0706205,35.9201273],[139.0706379,35.9201279],[139.070658,35.9201298],[139.0707146,35.9201558],[139.0706438,35.9202393],[139.0706259,35.9202804],[139.0706158,35.9203061],[139.0706034,35.9203479],[139.0706004,35.9203638],[139.0705923,35.9204004],[139.0705799,35.9204416],[139.0705756,35.9204548],[139.0705653,35.9204919],[139.0705572,35.920528],[139.0705543,35.920548],[139.0705532,35.9205743],[139.0705501,35.920611],[139.0705479,35.9206241],[139.0705439,35.9206683],[139.0705321,35.9207162],[139.0705274,35.9207321],[139.0705274,35.9207325]]]},"properties":{"layer":"landuse","class_code":"203","class_label":"山林（樹林地）"}},{"type":"Feature","id":"luse_426462bb-9659-4b81-8c56-06ccf16a6539","geometry":{"type":"Polygon","coordinates":[[[139.0693817,35.9222358],[139.0693693,35.9222395],[139.069369,35.9222396],[139.0693684,35.9222398],[139.0693556,35.9222432],[139.069343,35.9222463],[139.0693303,35.9222492],[139.0693177,35.9222518],[139.0693173,35.9222518],[139.0693071,35.9222537],[139.0693048,35.9222541],[139.0693045,35.9222542],[139.0692918,35.9222562],[139.0692915,35.9222562],[139.0692865,35.9222569],[139.0692782,35.9222581],[139.0692094,35.9222688],[139.0691781,35.9222742],[139.06911,35.922287],[139.069095,35.92229],[139.0690866,35.9222913],[139.0690862,35.9222914],[139.0690766,35.9222932],[139.0690762,35.9222932],[139.0690665,35.9222953],[139.0690566,35.9222975],[139.0690481,35.9222996],[139.0690453,35.9222997],[139.0690352,35.9223003],[139.0690348,35.9223003],[139.0690275,35.922301],[139.0690221,35.9223015],[139.0690218,35.9223015],[139.0690091,35.9223033],[139.0690088,35.9223033],[139.0689961,35.9223057],[139.0689835,35.9223086],[139.068971,35.9223122],[139.0689588,35.9223162],[139.0689469,35.9223207],[139.0689353,35.9223259],[139.0689243,35.9223315],[139.0689158,35.9223363],[139.0689054,35.9223427],[139.0688953,35.9223496],[139.0688857,35.922357],[139.0688765,35.9223647],[139.0688682,35.922373],[139.0688602,35.9223815],[139.0688527,35.9223904],[139.0688496,35.9223947],[139.0688398,35.9224066],[139.0688309,35.922419],[139.0688226,35.9224317],[139.0688155,35.9224448],[139.0688096,35.9224573],[139.0688039,35.9224708],[139.0687995,35.9224847],[139.0687958,35.9224987],[139.0687932,35.9225129],[139.0687915,35.9225272],[139.0687912,35.9225303],[139.0687849,35.9225453],[139.0687822,35.9225517],[139.0687645,35.9225975],[139.0687571,35.9226104],[139.0687478,35.9226251],[139.0687382,35.9226396],[139.0687279,35.9226538],[139.0687176,35.9226678],[139.0687064,35.9226818],[139.0686951,35.9226956],[139.0686831,35.9227089],[139.068671,35.922722],[139.0686584,35.9227349],[139.0686521,35.9227409],[139.0686099,35.9227767],[139.0685677,35.9228145],[139.0685619,35.9228198],[139.0685211,35.9228585],[139.068505,35.9228741],[139.0684872,35.922897],[139.0684712,35.9229186],[139.0684559,35.9229404],[139.0684505,35.9229485],[139.0684362,35.9229708],[139.0684225,35.9229935],[139.0684094,35.9230162],[139.068407,35.9230211],[139.0683998,35.9230412],[139.0683932,35.9230583],[139.0683863,35.9230753],[139.0683786,35.9230924],[139.0683773,35.9230949],[139.0683688,35.9231118],[139.0683602,35.9231284],[139.068357,35.9231341],[139.0683489,35.9231529],[139.0683417,35.9231709],[139.0683351,35.9231891],[139.0683304,35.9232026],[139.068329,35.9232073],[139.0683236,35.9232257],[139.0683185,35.923244],[139.0683172,35.9232491],[139.0683133,35.9232674],[139.0683106,35.9232811],[139.0683078,35.9232907],[139.068305,35.9233033],[139.068303,35.9233161],[139.0683016,35.9233289],[139.0683013,35.9233367],[139.0683017,35.9233495],[139.0683026,35.9233623],[139.0683047,35.9233751],[139.0683073,35.9233877],[139.0683096,35.9233971],[139.068314,35.9234133],[139.0683195,35.9234292],[139.068326,35.9234448],[139.06833,35.9234532],[139.0683382,35.9234683],[139.0683471,35.9234831],[139.0683574,35.9234974],[139.0683683,35.9235112],[139.0683697,35.9235136],[139.0683789,35.9235291],[139.0683867,35.9235452],[139.0683935,35.9235614],[139.0683995,35.923578],[139.0684007,35.9235821],[139.0684049,35.923599],[139.0684083,35.923616],[139.0684104,35.9236332],[139.0684113,35.9236504],[139.0684111,35.9236676],[139.0684124,35.9237943],[139.06839,35.9238471],[139.0683753,35.9240559],[139.0683988,35.924164],[139.0683955,35.9242348],[139.0683912,35.9243468],[139.0683988,35.9244518],[139.0683985,35.9244519],[139.0683935,35.9244524],[139.0683922,35.9244509],[139.0683872,35.9244447],[139.0683825,35.9244385],[139.0683781,35.9244321],[139.0683739,35.9244255],[139.0683702,35.9244188],[139.0683669,35.9244119],[139.0683638,35.9244049],[139.0683613,35.9243979],[139.068359,35.9243908],[139.0683571,35.9243835],[139.0683555,35.9243763],[139.0683551,35.9243747],[139.0683541,35.9243674],[139.0683534,35.92436],[139.068353,35.9243527],[139.0683531,35.9243453],[139.0683535,35.9243379],[139.0683527,35.9243204],[139.0683504,35.9242943],[139.0683466,35.9242682],[139.0683451,35.9242595],[139.0683397,35.9242336],[139.0683328,35.9242081],[139.0683246,35.9241827],[139.0682934,35.9240616],[139.0682544,35.9239319],[139.0681908,35.9237435],[139.0681337,35.9235654],[139.068132,35.9235576],[139.0681315,35.923552],[139.0681306,35.9235412],[139.0681305,35.923524],[139.0681311,35.923513],[139.0681326,35.9234976],[139.0681431,35.923467],[139.0681463,35.9234638],[139.0681561,35.9234492],[139.0681635,35.9234369],[139.0681704,35.9234243],[139.0681765,35.9234115],[139.068182,35.9233985],[139.0681868,35.9233853],[139.068191,35.923372],[139.0681938,35.9233614],[139.0681967,35.9233479],[139.068199,35.9233343],[139.0682004,35.9233206],[139.0682012,35.9233068],[139.0682014,35.923293],[139.0682007,35.9232794],[139.0681999,35.9232701],[139.0681979,35.9232267],[139.0681979,35.9232018],[139.0681979,35.9231873],[139.0682002,35.9231439],[139.0682034,35.9231115],[139.0682178,35.9230618],[139.0682235,35.9230441],[139.0682419,35.9229932],[139.0682622,35.9229443],[139.0682721,35.9229137],[139.0682821,35.9228843],[139.0683004,35.9228487],[139.0683403,35.9227912],[139.0683463,35.9227859],[139.0683719,35.9227613],[139.0683962,35.9227358],[139.0684191,35.9227096],[139.0684407,35.9226826],[139.0684609,35.9226549],[139.0684796,35.9226264],[139.0684967,35.9225977],[139.0685005,35.9225907],[139.0685158,35.9225614],[139.0685297,35.9225312],[139.0685528,35.9224907],[139.0685564,35.9224839],[139.0685605,35.9224774],[139.0685648,35.9224709],[139.0685671,35.9224678],[139.0685719,35.9224615],[139.0685771,35.9224555],[139.0685826,35.9224496],[139.0685883,35.9224439],[139.0685943,35.9224384],[139.0686007,35.9224331],[139.0686348,35.9224131],[139.0686689,35.9223909],[139.0687017,35.9223683],[139.0687186,35.9223562],[139.0687501,35.9223326],[139.0687813,35.9223084],[139.0687936,35.9222985],[139.0688504,35.9222444],[139.0688758,35.9222355],[139.0688828,35.9222335],[139.0688894,35.9222321],[139.0688957,35.9222314],[139.068896,35.9222313],[139.0689085,35.92223],[139.068932,35.9222292],[139.0689324,35.9222292],[139.0689709,35.92223],[139.069155,35.9222314],[139.0691553,35.9222314],[139.0691713,35.9222319],[139.0691885,35.922232],[139.0692057,35.9222317],[139.0692094,35.9222316],[139.0692228,35.9222312],[139.0692231,35.9222312],[139.0692345,35.9222305],[139.0692402,35.9222302],[139.0692572,35.922229],[139.0692639,35.9222283],[139.0692726,35.9222275],[139.0692813,35.9222265],[139.0692896,35.9222256],[139.0693066,35.9222233],[139.0693233,35.9222207],[139.0693237,35.9222206],[139.0693372,35.9222182],[139.0693403,35.9222177],[139.0693532,35.9222151],[139.0693589,35.9222145],[139.0693648,35.9222138],[139.0693791,35.9222119],[139.0693931,35.9222098],[139.0693934,35.9222097],[139.069407,35.9222072],[139.0694074,35.9222072],[139.0694113,35.9222065],[139.0694126,35.9222062],[139.0694158,35.9222056],[139.0694265,35.9222034],[139.0694403,35.9222003],[139.0694406,35.9222002],[139.0694542,35.9221968],[139.0694678,35.9221931],[139.069472,35.9221919],[139.0695007,35.9221843],[139.0694981,35.9221858],[139.0694875,35.9221919],[139.0694763,35.9221978],[139.069465,35.9222032],[139.0694647,35.9222034],[139.0694535,35.9222087],[139.0694419,35.9222138],[139.0694304,35.9222187],[139.0694185,35.9222234],[139.0694062,35.9222278],[139.069394,35.9222319],[139.0693817,35.9222358]]]},"properties":{"layer":"landuse","class_code":"203","class_label":"山林（樹林地）"}},{"type":"Feature","id":"luse_1cafb3a8-111c-4a82-8e20-1039ba618bb8","geometry":{"type":"Polygon","coordinates":[[[139.06714670395138,35.925],[139.0671421,35.9249703],[139.0671348,35.9248918],[139.0671328,35.9248132],[139.067136,35.9247346],[139.0671445,35.9246564],[139.0671513,35.924614],[139.0671679,35.9245366],[139.0671896,35.9244599],[139.0672077,35.9244019],[139.0672273,35.9243233],[139.0672347,35.9242854],[139.0672464,35.9242057],[139.0672517,35.9241731],[139.0672575,35.9241231],[139.0672603,35.9240728],[139.0672607,35.9240539],[139.0672595,35.9240035],[139.0672553,35.9239532],[139.0672228,35.923724],[139.0671914,35.9235055],[139.0671913,35.9235046],[139.067188,35.9234576],[139.0671867,35.9234106],[139.0671869,35.9233635],[139.0671894,35.9233165],[139.0671934,35.9232696],[139.0671964,35.9232445],[139.0672032,35.9231978],[139.0672037,35.9231955],[139.0672119,35.9231512],[139.0672224,35.923105],[139.0672287,35.9230836],[139.0672427,35.9230406],[139.0672585,35.9229979],[139.0672709,35.9229673],[139.0672895,35.9229254],[139.0673365,35.9228138],[139.0674297,35.9225939],[139.0675056,35.9224293],[139.0675275,35.9223882],[139.0675554,35.9223398],[139.0675854,35.9222921],[139.0675886,35.922287],[139.0676205,35.9222401],[139.0676542,35.9221941],[139.0676896,35.922149],[139.0677229,35.9221138],[139.0677794,35.9220569],[139.0678375,35.9220022],[139.0678983,35.9219483],[139.0679024,35.9219448],[139.0679366,35.9219169],[139.0679718,35.9218898],[139.0680081,35.9218637],[139.0680159,35.9218582],[139.0680534,35.9218332],[139.0680919,35.9218092],[139.0681312,35.9217861],[139.0681714,35.9217641],[139.0681727,35.9217632],[139.0682152,35.9217394],[139.0682584,35.9217167],[139.0683022,35.9216949],[139.068347,35.9216744],[139.0683925,35.9216551],[139.0683928,35.921655],[139.0684391,35.9216369],[139.0684861,35.9216198],[139.0684946,35.9216168],[139.068537,35.9216029],[139.0685799,35.92159],[139.0686233,35.9215782],[139.0686375,35.9215745],[139.0686378,35.9215745],[139.0686816,35.9215641],[139.0687258,35.921555],[139.0687704,35.921547],[139.0687707,35.9215469],[139.0688154,35.92154],[139.0689748,35.9215108],[139.0691961,35.9214739],[139.0692241,35.9214701],[139.0693174,35.9214557],[139.0693178,35.9214557],[139.0694044,35.9214402],[139.0694966,35.9214212],[139.069535,35.9214128],[139.0695784,35.9214023],[139.0696213,35.9213906],[139.0696638,35.9213778],[139.0697056,35.9213639],[139.0697059,35.9213638],[139.0697439,35.9213503],[139.0697847,35.9213344],[139.069825,35.9213175],[139.0698645,35.9212996],[139.0699035,35.9212811],[139.0699458,35.9212597],[139.0699872,35.9212372],[139.0700255,35.9212151],[139.0700651,35.9211906],[139.0701038,35.9211651],[139.0701414,35.9211387],[139.0703752,35.9209639],[139.0705004,35.9208695],[139.0704952,35.9208936],[139.0704901,35.9209153],[139.0704748,35.9209605],[139.0704633,35.9209874],[139.0704497,35.9210136],[139.0704447,35.9210222],[139.070431,35.9210467],[139.0704209,35.9210696],[139.070413,35.9210901],[139.0704022,35.9211193],[139.0703927,35.921145],[139.0703862,35.9211639],[139.0703719,35.9211935],[139.0703547,35.9212221],[139.0703482,35.9212312],[139.0703297,35.9212586],[139.0703112,35.9212836],[139.070294,35.9213071],[139.070284,35.9213225],[139.0702725,35.9213385],[139.0702576,35.9213635],[139.0702418,35.9213898],[139.0702311,35.9214063],[139.0701991,35.9214439],[139.0701599,35.9214809],[139.0701337,35.9215019],[139.0700988,35.9215286],[139.0700734,35.9215474],[139.0700471,35.921565],[139.0700287,35.9215775],[139.0700039,35.9215934],[139.0699898,35.9216007],[139.0699544,35.9216188],[139.0699394,35.9216278],[139.0698941,35.9216614],[139.0698671,35.9216876],[139.0698571,35.9216995],[139.0698278,35.9217337],[139.069803,35.9217559],[139.0697924,35.9217644],[139.0697704,35.921778],[139.0697492,35.9217871],[139.069728,35.9217955],[139.0696926,35.9218062],[139.0696253,35.9218164],[139.0695965,35.9218208],[139.0695629,35.9218242],[139.0695135,35.9218331],[139.0694796,35.9218414],[139.0694493,35.9218499],[139.0694317,35.9218543],[139.0693886,35.9218626],[139.0693533,35.9218687],[139.0693026,35.9218764],[139.0692877,35.9218774],[139.0692448,35.9218783],[139.0691962,35.921878],[139.0691652,35.9218778],[139.0691137,35.9218775],[139.0690743,35.9218772],[139.0690455,35.921877],[139.0690004,35.9218768],[139.068942,35.9218764],[139.0688961,35.9218761],[139.0688532,35.9218775],[139.0687904,35.9218845],[139.0687538,35.9218923],[139.0687035,35.9219121],[139.0686661,35.9219301],[139.068637,35.9219477],[139.0686115,35.9219648],[139.0685959,35.9219761],[139.0685591,35.9220022],[139.0685321,35.9220163],[139.068496,35.9220344],[139.0684472,35.9220622],[139.0684394,35.9220668],[139.0683955,35.9220911],[139.0683644,35.9221035],[139.0683417,35.9221114],[139.0683155,35.9221249],[139.0682774,35.9221396],[139.0682462,35.9221508],[139.0682428,35.9221531],[139.0682307,35.9221604],[139.0681109,35.9222045],[139.0680683,35.9222226],[139.0680493,35.9222321],[139.0680081,35.9222582],[139.0679857,35.9222788],[139.0679729,35.922294],[139.0679489,35.9223239],[139.0679324,35.9223498],[139.0679154,35.922379],[139.0678875,35.9224148],[139.0678604,35.9224623],[139.067841,35.9224996],[139.067818,35.9225264],[139.0677807,35.9225932],[139.0677437,35.9226376],[139.0677265,35.9226458],[139.067706,35.9226574],[139.0676892,35.922673],[139.0676813,35.9226831],[139.0676728,35.9226942],[139.0676564,35.922724],[139.0676493,35.9227602],[139.0676379,35.922775],[139.0676323,35.9227871],[139.0676318,35.9228028],[139.0676328,35.9228223],[139.0676364,35.9228371],[139.0676508,35.9228567],[139.0676835,35.9228865],[139.0676969,35.922904],[139.0676993,35.9229195],[139.0677012,35.9229415],[139.0677087,35.9229589],[139.0677177,35.9229803],[139.0677218,35.9229857],[139.0677344,35.9230018],[139.0677565,35.9230336],[139.0677674,35.9230493],[139.0677821,35.9230712],[139.0677999,35.9230938],[139.0678174,35.9231129],[139.0678601,35.9231595],[139.0678708,35.9231783],[139.0678851,35.9231998],[139.0678923,35.9232106],[139.0679166,35.9232428],[139.0679326,35.9232647],[139.0679443,35.9232865],[139.0679582,35.9233182],[139.0679692,35.9233406],[139.067974,35.9233572],[139.0679746,35.9233669],[139.0679709,35.9233761],[139.0679278,35.9234028],[139.0679087,35.92341],[139.0678915,35.9234171],[139.0678783,35.9234225],[139.0678598,35.9234326],[139.0678371,35.9234509],[139.0678079,35.923481],[139.0677937,35.9234924],[139.0677739,35.9235071],[139.0677533,35.9235236],[139.0677412,35.9235373],[139.0677248,35.9235584],[139.0677161,35.9235749],[139.0677082,35.9235926],[139.0676995,35.9236218],[139.0676927,35.923675],[139.0676919,35.9236881],[139.0676908,35.9237174],[139.0676907,35.9237369],[139.0676918,35.9237644],[139.0676952,35.9237873],[139.0677019,35.9238126],[139.0677135,35.9238516],[139.0677244,35.9238906],[139.0677311,35.923917],[139.0677385,35.9239566],[139.0677425,35.9239829],[139.0677463,35.9240202],[139.0677496,35.9240437],[139.0677571,35.9240793],[139.0677609,35.9241148],[139.0677614,35.9241401],[139.0677604,35.9241675],[139.0677572,35.9242087],[139.0677547,35.9242448],[139.0677502,35.92427],[139.0677481,35.9242763],[139.0677316,35.9243036],[139.0677159,35.9243311],[139.0677094,35.9243477],[139.0676993,35.9243751],[139.0676891,35.9244042],[139.0676839,35.9244248],[139.0676773,35.9244569],[139.067675,35.9244775],[139.0676705,35.9245055],[139.0676668,35.9245255],[139.067661,35.9245381],[139.0676466,35.9245701],[139.0676343,35.9246072],[139.0676271,35.924629],[139.0676205,35.9246478],[139.0676169,35.9246593],[139.0676154,35.9246701],[139.0676131,35.924689],[139.0676248,35.9247107],[139.0676332,35.9247222],[139.0676401,35.924748],[139.0676442,35.9248014],[139.067645,35.9248272],[139.0676457,35.9248628],[139.0676486,35.9249016],[139.0676476,35.9249349],[139.0676373,35.9249723],[139.0676280931232,35.925],[139.06714670395138,35.925]]]},"properties":{"layer":"landuse","class_code":"203","class_label":"山林（樹林地）"}},{"type":"Feature","id":"luse_5787b3d2-1c2a-4d1a-82df-d69db1dfc8d3","geometry":{"type":"Polygon","coordinates":[[[139.0738136,35.9188639],[139.0737798,35.9188659],[139.073679,35.9188838],[139.0735905,35.9189073],[139.0734929,35.9189411],[139.0734694,35.9189479],[139.0733708,35.9189718],[139.0733279,35.9189837],[139.0732858,35.9189954],[139.073252,35.9190054],[139.0732163,35.919013],[139.0732057,35.9190145],[139.0731213,35.9190258],[139.0730828,35.9190344],[139.0730714,35.9190381],[139.0730414,35.9190523],[139.0730115,35.9190702],[139.072927,35.9191101],[139.0728935,35.9191402],[139.0727072,35.9192181],[139.0726471,35.9192272],[139.0726321,35.919234],[139.0725522,35.9192633],[139.0724596,35.9192998],[139.0724586,35.9193003],[139.0723654,35.9193424],[139.0723287,35.9193594],[139.072305,35.9193711],[139.0722903,35.9193792],[139.0722741,35.9193888],[139.0722601,35.9193971],[139.0721812,35.9194448],[139.0721458,35.9194577],[139.0721239,35.9194679],[139.0720734,35.9194985],[139.0720651,35.9195033],[139.0720014,35.9195395],[139.071942,35.9195737],[139.0718709,35.9196161],[139.0717754,35.9196638],[139.0717554,35.919674],[139.0717352,35.9196821],[139.0716618,35.9197067],[139.0715982,35.9197328],[139.071587,35.9197373],[139.0715542,35.9197502],[139.0715359,35.9197589],[139.0714708,35.9197901],[139.0714346,35.919806],[139.0713748,35.9198322],[139.0712962,35.91986],[139.0712743,35.9198673],[139.0712254,35.9198921],[139.0712006,35.9199124],[139.0711785,35.9199383],[139.0711582,35.9199679],[139.0711275,35.9200017],[139.0710645,35.9200608],[139.0709755,35.9201346],[139.0709485,35.9201506],[139.0709093,35.9201732],[139.0708809,35.9201955],[139.0707435,35.9201327],[139.0707571,35.9201218],[139.0707768,35.9201093],[139.0708367,35.9200623],[139.0709112,35.9200075],[139.0709909,35.919941],[139.0710007,35.9199318],[139.0710279,35.9199074],[139.0710914,35.919851],[139.071114,35.9198289],[139.0711371,35.919809],[139.0711642,35.919793],[139.0712372,35.9197641],[139.0713084,35.9197331],[139.0713389,35.9197174],[139.0714291,35.9196776],[139.0714498,35.9196699],[139.071478,35.9196598],[139.0715542,35.9196373],[139.0715595,35.9196358],[139.0715825,35.9196289],[139.0716152,35.9196194],[139.0716945,35.9195799],[139.0717641,35.9195446],[139.0717849,35.9195322],[139.071839,35.9195072],[139.0718602,35.9194974],[139.0718752,35.919491],[139.0719505,35.9194575],[139.0719879,35.9194388],[139.0719937,35.9194347],[139.072004,35.9194281],[139.0720109,35.9194249],[139.0720942,35.919393],[139.0721162,35.9193829],[139.0721513,35.9193544],[139.0722034,35.9192998],[139.0722225,35.9192823],[139.0722352,35.9192712],[139.0722496,35.9192605],[139.0723065,35.9192317],[139.0723313,35.9192235],[139.072356,35.9192167],[139.072465,35.9191877],[139.0724891,35.9191814],[139.0725161,35.9191717],[139.0725993,35.9191467],[139.072636,35.9191327],[139.0726452,35.9191186],[139.0728295,35.9190416],[139.0728507,35.9190243],[139.0729376,35.918972],[139.0729549,35.9189618],[139.0730026,35.9189426],[139.073033,35.9189344],[139.0730543,35.9189291],[139.0731316,35.9189194],[139.0731516,35.9189186],[139.0731855,35.9189132],[139.0732067,35.9189078],[139.0732686,35.918892],[139.0732865,35.918886],[139.0733772,35.9188565],[139.0734703,35.9188185],[139.0734801,35.918814],[139.0735139,35.9188007],[139.0735524,35.9187933],[139.0736079,35.9187828],[139.0736401,35.9187751],[139.0736664,35.9187678],[139.0737341,35.9187585],[139.0737667,35.9187583],[139.0738194,35.9187527],[139.073852,35.9187539],[139.0739338,35.9187558],[139.0739682,35.918756],[139.0740007,35.9187563],[139.0740116,35.9187564],[139.0741063,35.9187845],[139.0741694,35.9188153],[139.0741854,35.918821],[139.0742722,35.9188356],[139.0742853,35.9188361],[139.0742968,35.9188376],[139.0743145,35.9188433],[139.074328,35.9188527],[139.0743337,35.9188598],[139.0744049,35.9188872],[139.0744215,35.918891],[139.0744334,35.918893],[139.0744541,35.9188931],[139.0745222,35.9188972],[139.0745564,35.9188981],[139.0745593,35.9188981],[139.0745696,35.9188977],[139.0745816,35.9188959],[139.0746046,35.9188906],[139.0746298,35.918881],[139.0747166,35.9188402],[139.0747442,35.9188268],[139.0747649,35.9188177],[139.0748489,35.9187871],[139.0748712,35.9187799],[139.0749666,35.9187414],[139.074989,35.9187295],[139.075,35.918723047112465],[139.075,35.9187900903475],[139.074967,35.9188071],[139.0749072,35.9188383],[139.0748335,35.9188801],[139.0747454,35.9189348],[139.0747017,35.918955],[139.0746466,35.9189704],[139.0745758,35.9189814],[139.0745716,35.918982],[139.0745578,35.9189819],[139.0745442,35.9189821],[139.0745099,35.9189812],[139.0744537,35.9189793],[139.0744344,35.9189717],[139.0744315,35.9189704],[139.0744104,35.9189604],[139.0743306,35.9189281],[139.0742412,35.9188958],[139.0742172,35.9188863],[139.0741352,35.9188517],[139.0741181,35.9188475],[139.0740947,35.9188459],[139.0740741,35.9188458],[139.0740558,35.9188475],[139.07403,35.9188524],[139.0739537,35.918863],[139.0739315,35.9188623],[139.0739086,35.9188617],[139.0738136,35.9188639]]]},"properties":{"layer":"landuse","class_code":"204","class_label":"水面（河川水面、湖沼、ため池、用水路、濠、運河水面）"}},{"type":"Feature","id":"luse_d913789e-9e07-4e6f-80ce-7db171dae8cb","geometry":{"type":"Polygon","coordinates":[[[139.0707184,35.9201574],[139.0707607,35.9201768],[139.0708516,35.9202183],[139.0707512,35.9202648],[139.0707386,35.9202906],[139.0707219,35.9203321],[139.0707163,35.9203443],[139.0707161,35.9203446],[139.0707082,35.9203603],[139.0706994,35.9203882],[139.0706932,35.920413],[139.07069,35.9204252],[139.0706753,35.9204698],[139.0706706,35.9204817],[139.07066,35.9205092],[139.0706465,35.9205329],[139.0706407,35.920544],[139.0706349,35.920558],[139.0706341,35.9205597],[139.0706323,35.9205671],[139.0706327,35.9205677],[139.0706336,35.9205681],[139.0706336,35.9205684],[139.070634,35.9205712],[139.070629,35.9205967],[139.0706219,35.9206292],[139.0706214,35.9206305],[139.0706214,35.9206341],[139.0706196,35.9206445],[139.0706165,35.9206649],[139.0706164,35.9206653],[139.0705274,35.9207325],[139.0705274,35.9207321],[139.0705321,35.9207162],[139.0705439,35.9206683],[139.0705479,35.9206241],[139.0705501,35.920611],[139.0705532,35.9205743],[139.0705543,35.920548],[139.0705572,35.920528],[139.0705653,35.9204919],[139.0705756,35.9204548],[139.0705799,35.9204416],[139.0705923,35.9204004],[139.0706004,35.9203638],[139.0706034,35.9203479],[139.0706158,35.9203061],[139.0706259,35.9202804],[139.0706438,35.9202393],[139.0707146,35.9201558],[139.0707184,35.9201574]]]},"properties":{"layer":"landuse","class_code":"204","class_label":"水面（河川水面、湖沼、ため池、用水路、濠、運河水面）"}},{"type":"Feature","id":"luse_a4f6d344-c257-4926-84f4-c939bc7bfaef","geometry":{"type":"Polygon","coordinates":[[[139.0676280931232,35.925],[139.0676373,35.9249723],[139.0676476,35.9249349],[139.0676486,35.9249016],[139.0676457,35.9248628],[139.067645,35.9248272],[139.0676442,35.9248014],[139.0676401,35.924748],[139.0676332,35.9247222],[139.0676248,35.9247107],[139.0676131,35.924689],[139.0676154,35.9246701],[139.0676169,35.9246593],[139.0676205,35.9246478],[139.0676271,35.924629],[139.0676343,35.9246072],[139.0676466,35.9245701],[139.067661,35.9245381],[139.0676668,35.9245255],[139.0676705,35.9245055],[139.067675,35.9244775],[139.0676773,35.9244569],[139.0676839,35.9244248],[139.0676891,35.9244042],[139.0676993,35.9243751],[139.0677094,35.9243477],[139.0677159,35.9243311],[139.0677316,35.9243036],[139.0677481,35.9242763],[139.0677502,35.92427],[139.0677547,35.9242448],[139.0677572,35.9242087],[139.0677604,35.9241675],[139.0677614,35.9241401],[139.0677609,35.9241148],[139.0677571,35.9240793],[139.0677496,35.9240437],[139.0677463,35.9240202],[139.0677425,35.9239829],[139.0677385,35.9239566],[139.0677311,35.923917],[139.0677244,35.9238906],[139.0677135,35.9238516],[139.0677019,35.9238126],[139.0676952,35.9237873],[139.0676918,35.9237644],[139.0676907,35.9237369],[139.0676908,35.9237174],[139.0676919,35.9236881],[139.0676927,35.923675],[139.0676995,35.9236218],[139.0677082,35.9235926],[139.0677161,35.9235749],[139.0677248,35.9235584],[139.0677412,35.9235373],[139.0677533,35.9235236],[139.0677739,35.9235071],[139.0677937,35.9234924],[139.0678079,35.923481],[139.0678371,35.9234509],[139.0678598,35.9234326],[139.0678783,35.9234225],[139.0678915,35.9234171],[139.0679087,35.92341],[139.0679278,35.9234028],[139.0679709,35.9233761],[139.0679746,35.9233669],[139.067974,35.9233572],[139.0679692,35.9233406],[139.0679582,35.9233182],[139.0679443,35.9232865],[139.0679326,35.9232647],[139.0679166,35.9232428],[139.0678923,35.9232106],[139.0678851,35.9231998],[139.0678708,35.9231783],[139.0678601,35.9231595],[139.0678174,35.9231129],[139.0677999,35.9230938],[139.0677821,35.9230712],[139.0677674,35.9230493],[139.0677565,35.9230336],[139.0677344,35.9230018],[139.0677218,35.9229857],[139.0677177,35.9229803],[139.0677087,35.9229589],[139.0677012,35.9229415],[139.0676993,35.9229195],[139.0676969,35.922904],[139.0676835,35.9228865],[139.0676508,35.9228567],[139.0676364,35.9228371],[139.0676328,35.9228223],[139.0676318,35.9228028],[139.0676323,35.9227871],[139.0676379,35.922775],[139.0676493,35.9227602],[139.0676564,35.922724],[139.0676728,35.9226942],[139.0676813,35.9226831],[139.0676892,35.922673],[139.067706,35.9226574],[139.0677265,35.9226458],[139.0677437,35.9226376],[139.0677807,35.9225932],[139.067818,35.9225264],[139.067841,35.9224996],[139.0678604,35.9224623],[139.0678875,35.9224148],[139.0679154,35.922379],[139.0679324,35.9223498],[139.0679489,35.9223239],[139.0679729,35.922294],[139.0679857,35.9222788],[139.0680081,35.9222582],[139.0680493,35.9222321],[139.0680683,35.9222226],[139.0681109,35.9222045],[139.0682307,35.9221604],[139.0682428,35.9221531],[139.0682462,35.9221508],[139.0682774,35.9221396],[139.0683155,35.9221249],[139.0683417,35.9221114],[139.0683644,35.9221035],[139.0683955,35.9220911],[139.0684394,35.9220668],[139.0684472,35.9220622],[139.068496,35.9220344],[139.0685321,35.9220163],[139.0685591,35.9220022],[139.0685959,35.9219761],[139.0686115,35.9219648],[139.068637,35.9219477],[139.0686661,35.9219301],[139.0687035,35.9219121],[139.0687538,35.9218923],[139.0687904,35.9218845],[139.0688532,35.9218775],[139.0688961,35.9218761],[139.068942,35.9218764],[139.0690004,35.9218768],[139.0690455,35.921877],[139.0690743,35.9218772],[139.0691137,35.9218775],[139.0691652,35.9218778],[139.0691962,35.921878],[139.0692448,35.9218783],[139.0692877,35.9218774],[139.0693026,35.9218764],[139.0693533,35.9218687],[139.0693886,35.9218626],[139.0694317,35.9218543],[139.0694493,35.9218499],[139.0694796,35.9218414],[139.0695135,35.9218331],[139.0695629,35.9218242],[139.0695965,35.9218208],[139.0696253,35.9218164],[139.0696926,35.9218062],[139.069728,35.9217955],[139.0697492,35.9217871],[139.0697704,35.921778],[139.0697924,35.9217644],[139.069803,35.9217559],[139.0698278,35.9217337],[139.0698571,35.9216995],[139.0698671,35.9216876],[139.0698941,35.9216614],[139.0699394,35.9216278],[139.0699544,35.9216188],[139.0699898,35.9216007],[139.0700039,35.9215934],[139.0700287,35.9215775],[139.0700471,35.921565],[139.0700734,35.9215474],[139.0700988,35.9215286],[139.0701337,35.9215019],[139.0701599,35.9214809],[139.0701991,35.9214439],[139.0702311,35.9214063],[139.0702418,35.9213898],[139.0702576,35.9213635],[139.0702725,35.9213385],[139.070284,35.9213225],[139.070294,35.9213071],[139.0703112,35.9212836],[139.0703297,35.9212586],[139.0703482,35.9212312],[139.0703547,35.9212221],[139.0703719,35.9211935],[139.0703862,35.9211639],[139.0703927,35.921145],[139.0704022,35.9211193],[139.070413,35.9210901],[139.0704209,35.9210696],[139.070431,35.9210467],[139.0704447,35.9210222],[139.0704497,35.9210136],[139.0704633,35.9209874],[139.0704748,35.9209605],[139.0704901,35.9209153],[139.0704952,35.9208936],[139.0705004,35.9208695],[139.0706134,35.9207843],[139.070613,35.9207913],[139.0706103,35.9208034],[139.0706045,35.9208233],[139.0705938,35.9208589],[139.0705895,35.9208742],[139.0705845,35.9208976],[139.0705828,35.9209375],[139.0705818,35.9209451],[139.0705763,35.9209899],[139.0705686,35.9210327],[139.070556,35.9210781],[139.0705482,35.9211029],[139.0705339,35.9211429],[139.0705255,35.9211754],[139.0705184,35.9212019],[139.0705148,35.9212148],[139.0705012,35.9212434],[139.0705004,35.9212451],[139.0704999,35.9212458],[139.0704999,35.9212462],[139.0704994,35.9212479],[139.070499,35.9212507],[139.0704884,35.9212765],[139.0704819,35.9212904],[139.0704739,35.9213169],[139.0704694,35.9213288],[139.0704498,35.9213626],[139.0704276,35.9213956],[139.0704162,35.9214147],[139.0704049,35.9214276],[139.0703854,35.9214446],[139.0703551,35.9214678],[139.0703023,35.9215024],[139.0702777,35.9215208],[139.0702464,35.921552],[139.0702178,35.9215847],[139.0702031,35.9215975],[139.0701598,35.921628],[139.0701295,35.9216449],[139.0701063,35.9216581],[139.0700717,35.9216812],[139.0700241,35.921709],[139.0700181,35.9217123],[139.0699974,35.921722],[139.0699474,35.921735],[139.0699255,35.9217383],[139.0699031,35.9217441],[139.0698975,35.9217465],[139.069887,35.9217549],[139.0698857,35.9217647],[139.0698752,35.9217844],[139.0698609,35.921799],[139.0698574,35.9218042],[139.0698456,35.9218172],[139.0698283,35.9218303],[139.0698189,35.9218355],[139.0697861,35.9218496],[139.0697649,35.9218557],[139.0697516,35.9218592],[139.0697056,35.9218655],[139.069684,35.9218688],[139.0696272,35.9218807],[139.0696053,35.9218851],[139.069573,35.9218908],[139.0695273,35.9219049],[139.0695183,35.9219087],[139.0694959,35.9219187],[139.0694717,35.9219273],[139.0694266,35.9219346],[139.0693968,35.9219372],[139.0693874,35.9219379],[139.0693599,35.9219391],[139.0693062,35.9219366],[139.0692563,35.9219356],[139.0692173,35.9219354],[139.0691691,35.9219351],[139.0691254,35.9219348],[139.0690828,35.9219345],[139.0690437,35.9219367],[139.0690029,35.9219382],[139.0689767,35.9219405],[139.0689453,35.9219441],[139.0689108,35.9219481],[139.0688799,35.9219518],[139.0688652,35.9219534],[139.0688331,35.9219581],[139.0687913,35.921963],[139.0687745,35.921965],[139.0687345,35.9219732],[139.0687207,35.9219773],[139.068716,35.9219783],[139.0686992,35.9219838],[139.0686893,35.9219882],[139.0686598,35.9220073],[139.0686464,35.9220183],[139.0686416,35.9220218],[139.0686032,35.9220439],[139.0685937,35.9220481],[139.0685631,35.9220643],[139.0685328,35.9220777],[139.0685135,35.922086],[139.0684832,35.9220998],[139.0684405,35.9221226],[139.0684263,35.9221302],[139.0683852,35.9221502],[139.068368,35.9221577],[139.0683378,35.9221694],[139.0683183,35.9221767],[139.0682899,35.9221883],[139.068271,35.9221966],[139.0682291,35.922218],[139.0681919,35.9222363],[139.0681466,35.9222552],[139.0681238,35.9222631],[139.0681177,35.9222645],[139.0681113,35.9222661],[139.0681014,35.9222727],[139.0680805,35.9222936],[139.0680714,35.9223051],[139.0680501,35.9223367],[139.0680221,35.9223743],[139.068017,35.9223815],[139.0679991,35.9224059],[139.0679821,35.9224317],[139.0679585,35.9224675],[139.0679411,35.9224929],[139.0679176,35.9225315],[139.0679009,35.9225632],[139.0678913,35.9225786],[139.0678865,35.9225869],[139.0678721,35.9226127],[139.0678655,35.9226227],[139.0678581,35.9226322],[139.0678476,35.9226572],[139.0678343,35.9226928],[139.0678277,35.9227179],[139.0678182,35.9227563],[139.0678124,35.9227877],[139.0678097,35.9228009],[139.0678055,35.9228344],[139.0678004,35.9228715],[139.0677989,35.9228837],[139.067798,35.9229005],[139.0677973,35.9229323],[139.0677971,35.922948],[139.0677974,35.9229641],[139.0677985,35.9229759],[139.0678014,35.9229871],[139.0678081,35.9230036],[139.0678191,35.923019],[139.0678296,35.9230331],[139.0678438,35.9230521],[139.0678649,35.9230874],[139.06788,35.9231145],[139.0678958,35.9231394],[139.0679136,35.9231643],[139.0679195,35.9231713],[139.0679386,35.9231938],[139.067944,35.9232002],[139.0679585,35.923217],[139.0679713,35.9232322],[139.0679751,35.9232373],[139.0679883,35.9232553],[139.0680051,35.9232883],[139.0680381,35.9233414],[139.068037,35.9233661],[139.0680352,35.9233852],[139.0680195,35.9234108],[139.0680053,35.9234299],[139.0679897,35.9234436],[139.0679878,35.9234451],[139.0679649,35.9234627],[139.0679439,35.9234707],[139.0679191,35.9234876],[139.0679152,35.9234961],[139.0679077,35.9235128],[139.0678935,35.9235393],[139.0678933,35.9235575],[139.0679053,35.9235881],[139.0679078,35.9236021],[139.0679114,35.9236225],[139.0679083,35.9236712],[139.0678997,35.9237173],[139.0678936,35.9237404],[139.0678843,35.9237669],[139.0678877,35.9238039],[139.0678986,35.9238358],[139.0679104,35.9238591],[139.0679186,35.9238751],[139.0679287,35.9239339],[139.0679382,35.9239971],[139.0679377,35.9240541],[139.067933,35.9241451],[139.0679317,35.9241716],[139.0679316,35.9242379],[139.0679354,35.9242896],[139.0679367,35.9243179],[139.0679347,35.924351],[139.0679349,35.9243885],[139.0679422,35.9244155],[139.0679408,35.9244499],[139.0679309,35.9245282],[139.067912,35.9245494],[139.0678979,35.9245663],[139.0678959,35.9246146],[139.0678939,35.9246438],[139.0678866,35.9246751],[139.0678782,35.9247176],[139.0678699,35.924759],[139.0678646,35.9247938],[139.0678611,35.9248303],[139.0678613,35.9248669],[139.0678632,35.9248886],[139.067873,35.9249327],[139.0678998,35.9249716],[139.06792414285715,35.925],[139.0676280931232,35.925]]]},"properties":{"layer":"landuse","class_code":"204","class_label":"水面（河川水面、湖沼、ため池、用水路、濠、運河水面）"}},{"type":"Feature","id":"luse_8b426cd2-28f2-4d47-9cf8-dbc1a7860dd7","geometry":{"type":"Polygon","coordinates":[[[139.0660391,35.9227335],[139.066067,35.9227754],[139.0660717,35.922804],[139.0660693,35.9228478],[139.0660483,35.9228726],[139.0660204,35.9228954],[139.0659622,35.9229085],[139.0658806,35.9229141],[139.065834,35.9229197],[139.0657618,35.9229443],[139.0657198,35.9229538],[139.0656802,35.9229689],[139.0656499,35.9229879],[139.0656173,35.9230259],[139.0656161,35.9230574],[139.0656219,35.9230907],[139.0656312,35.9231174],[139.0656429,35.9231498],[139.0656847,35.9232299],[139.0656964,35.9232776],[139.065701,35.9233175],[139.0657034,35.9233519],[139.0656894,35.9233747],[139.0656777,35.9234032],[139.0656614,35.923428],[139.0656334,35.923445],[139.0656101,35.9234641],[139.0655868,35.9234811],[139.0655709,35.9234996],[139.0655226,35.92349],[139.0654932,35.9234834],[139.0654643,35.9234758],[139.0654358,35.9234673],[139.0654077,35.9234577],[139.0653812,35.9234476],[139.0653542,35.9234363],[139.065328,35.9234239],[139.0653148,35.9234174],[139.0652757,35.9233861],[139.0652397,35.9233573],[139.0652348,35.9233534],[139.065186,35.923313],[139.0651814,35.9232554],[139.0651791,35.9232116],[139.0651792,35.9231545],[139.0651768,35.9230916],[139.0651791,35.9229011],[139.0651757,35.922844],[139.0652491,35.9227907],[139.0653027,35.9227757],[139.0654006,35.9227606],[139.0656383,35.9227192],[139.0657734,35.9227214],[139.0658294,35.9227006],[139.0658783,35.9226703],[139.065954,35.9226562],[139.0660088,35.9226915],[139.0660391,35.9227335]]]},"properties":{"layer":"landuse","class_code":"211","class_label":"住宅用地（住宅、共同住宅、店舗等併用住宅、店舗等併用共同住宅、作業所併用住宅）"}},{"type":"Feature","id":"luse_a1f9875a-12a0-4b27-90dd-9d7f3d724c8a","geometry":{"type":"Polygon","coordinates":[[[139.0655587,35.9240375],[139.06552,35.9240543],[139.0655,35.9240743],[139.0654769,35.9240974],[139.0654464,35.9241517],[139.0654178,35.9241997],[139.0653878,35.9242312],[139.0653435,35.9242531],[139.0653064,35.9242598],[139.0652961,35.9242587],[139.0652694,35.924256],[139.0652488,35.9242463],[139.0652182,35.9241878],[139.0652075,35.9241341],[139.0652032,35.9240706],[139.0652038,35.9240161],[139.0652053,35.9240121],[139.0649411,35.9239781],[139.0649244,35.9239798],[139.064926,35.9239761],[139.0649307,35.9239659],[139.0649182,35.9239275],[139.0648941,35.9238842],[139.0648642,35.9238075],[139.0648603,35.9237739],[139.0648635,35.9237295],[139.064871,35.9236871],[139.0648904,35.923594],[139.064914,35.9235666],[139.0649868,35.9235442],[139.0650172,35.9235429],[139.0650494,35.9235593],[139.0650923,35.9235798],[139.0652226,35.9235631],[139.0652449,35.9235558],[139.0652487,35.9235454],[139.0652433,35.9235267],[139.0651717,35.923445],[139.0651532,35.9234005],[139.0651067,35.9232969],[139.0651402,35.9233266],[139.065189,35.9233669],[139.0652035,35.9233789],[139.0652874,35.9234459],[139.0653054,35.923455],[139.0653329,35.9234679],[139.0653618,35.9234799],[139.0653898,35.9234907],[139.0654194,35.9235008],[139.0654198,35.9235009],[139.0654288,35.9235036],[139.0654291,35.9235036],[139.065433,35.9235242],[139.0654426,35.923527],[139.0654741,35.9235353],[139.0655059,35.9235424],[139.0655216,35.9235455],[139.0655406,35.9235399],[139.0655565,35.9235431],[139.065599,35.9235514],[139.0657525,35.9235861],[139.0657779,35.9235924],[139.0658038,35.9235895],[139.0658041,35.9235896],[139.0658481,35.9236005],[139.0658485,35.9236006],[139.0659695,35.9236294],[139.0659705,35.9236296],[139.0659822,35.9236322],[139.0659931,35.9236353],[139.0660038,35.9236388],[139.066014,35.9236427],[139.0660144,35.9236429],[139.0660246,35.9236472],[139.0660337,35.9236517],[139.066043,35.9236571],[139.0660524,35.9236627],[139.0660609,35.9236689],[139.0660712,35.9236769],[139.0660731,35.9236781],[139.0660753,35.9236796],[139.0660769,35.923681],[139.0660786,35.9236825],[139.0660801,35.9236839],[139.0660814,35.9236855],[139.0660826,35.9236872],[139.0660839,35.9236889],[139.066085,35.9236906],[139.066086,35.9236924],[139.0660866,35.9236942],[139.0660875,35.9236961],[139.066088,35.9236981],[139.0660885,35.9236997],[139.0660888,35.9237016],[139.066089,35.9237036],[139.0660891,35.9237055],[139.0660888,35.9237075],[139.0660888,35.9237095],[139.0660885,35.9237114],[139.066088,35.9237133],[139.0660874,35.9237152],[139.0660866,35.9237171],[139.066086,35.9237189],[139.066085,35.9237207],[139.0660839,35.9237224],[139.0660827,35.9237241],[139.0660802,35.9237274],[139.0660751,35.9237344],[139.0660667,35.9237452],[139.0660578,35.9237553],[139.0660482,35.9237652],[139.0660373,35.9237748],[139.0660368,35.9237754],[139.0660329,35.9237784],[139.0660255,35.9237845],[139.0660139,35.9237928],[139.0660018,35.9238006],[139.065989,35.9238079],[139.0659718,35.9238166],[139.0659438,35.9238367],[139.0659107,35.9238585],[139.0658958,35.9238673],[139.065862,35.923886],[139.0658596,35.923887],[139.0658523,35.9238904],[139.0658447,35.9238941],[139.0658444,35.9238942],[139.0658377,35.9238983],[139.0658306,35.9239027],[139.0658243,35.9239074],[139.065818,35.9239124],[139.0658121,35.9239177],[139.0658077,35.9239222],[139.0658026,35.9239277],[139.0657978,35.9239338],[139.0657933,35.9239398],[139.0657893,35.9239462],[139.0657858,35.9239527],[139.0657821,35.9239607],[139.0657807,35.9239652],[139.0657772,35.9239787],[139.0657748,35.9239928],[139.0657732,35.9240069],[139.0657726,35.9240191],[139.0657728,35.9240333],[139.0657738,35.9240474],[139.0657741,35.9240494],[139.0656045,35.9240309],[139.0655587,35.9240375]]]},"properties":{"layer":"landuse","class_code":"211","class_label":"住宅用地（住宅、共同住宅、店舗等併用住宅、店舗等併用共同住宅、作業所併用住宅）"}},{"type":"Feature","id":"luse_b8c0a832-f882-4621-bfba-a7c8979b2475","geometry":{"type":"Polygon","coordinates":[[[139.0703101,35.920673],[139.0703089,35.9207067],[139.0703082,35.9207167],[139.0703072,35.9207282],[139.0703054,35.9207428],[139.0703027,35.9207613],[139.0703002,35.9207764],[139.0702993,35.9207823],[139.0702952,35.9208039],[139.0702909,35.9208243],[139.0702864,35.9208434],[139.0702814,35.9208608],[139.0702763,35.9208766],[139.0702679,35.9209001],[139.0702675,35.9209009],[139.0702654,35.9209093],[139.0702664,35.9209186],[139.0702697,35.9209267],[139.0701271,35.9210349],[139.0701008,35.9210561],[139.0700738,35.9210767],[139.0700459,35.9210964],[139.0700174,35.9211155],[139.0699987,35.9211272],[139.0699691,35.921145],[139.0699387,35.9211621],[139.0699075,35.9211784],[139.0699044,35.92118],[139.069904,35.9211801],[139.0698206,35.921221],[139.0697484,35.9212541],[139.0696957,35.9212714],[139.0696975,35.9212373],[139.0696989,35.9212131],[139.0696998,35.9211647],[139.0696988,35.9211154],[139.0696958,35.9210663],[139.0696944,35.9210487],[139.0696895,35.9210228],[139.0696836,35.9209971],[139.0696808,35.9209864],[139.0696735,35.920961],[139.0696652,35.9209357],[139.0696559,35.9209106],[139.0696457,35.9208858],[139.069637,35.9208667],[139.0698066,35.9207813],[139.0701372,35.9206148],[139.0701786,35.9205939],[139.0702079,35.9206005],[139.0701886,35.9206385],[139.0702245,35.9206504],[139.0702457,35.9206088],[139.0703125,35.9206322],[139.0703119,35.92064],[139.0703101,35.920673]]]},"properties":{"layer":"landuse","class_code":"214","class_label":"公益施設用地（官公庁施設、文教厚生施設、供給処理施設）"}},{"type":"Feature","id":"luse_861aaba8-e16b-4280-8718-a1c586af9948","geometry":{"type":"Polygon","coordinates":[[[139.0748779,35.9192315],[139.0747954,35.9192546],[139.0747393,35.9193289],[139.0746066,35.9193491],[139.074555,35.9193487],[139.0745266,35.9193481],[139.0742476,35.9192873],[139.0740522,35.9192572],[139.0740229,35.9192351],[139.0740101,35.9192156],[139.0740088,35.9192093],[139.0740036,35.9191838],[139.0740037,35.9191528],[139.0740145,35.9191532],[139.0741349,35.9191649],[139.0741352,35.9191649],[139.0741715,35.919169],[139.0743665,35.9191948],[139.0744263,35.9192013],[139.0744266,35.9192014],[139.0744752,35.9192051],[139.074481,35.9192055],[139.0744902,35.9192062],[139.0745442,35.9192086],[139.0746081,35.9192095],[139.0746719,35.9192082],[139.0746722,35.9192081],[139.0746823,35.9192071],[139.0746826,35.9192071],[139.0747187,35.9192028],[139.0747546,35.9191972],[139.0747903,35.9191904],[139.0748255,35.9191824],[139.0748547,35.9191749],[139.0748889,35.9191647],[139.0749228,35.9191534],[139.0749559,35.9191409],[139.0749562,35.9191408],[139.0749885,35.9191273],[139.075,35.91912203364486],[139.075,35.91918345194806],[139.0749997,35.9191836],[139.0749492,35.9192047],[139.0748779,35.9192315]]]},"properties":{"layer":"landuse","class_code":"219","class_label":"農林漁業施設用地（農林漁業用施設）"}},{"type":"Feature","id":"luse_4675eaa0-8020-41f9-ade3-1669025f687e","geometry":{"type":"Polygon","coordinates":[[[139.0643125,35.9195893],[139.0644751,35.9196606],[139.0643887,35.9197893],[139.06421,35.9197167],[139.0643125,35.9195893]]]},"properties":{"layer":"landuse","class_code":"214","class_label":"公益施設用地（官公庁施設、文教厚生施設、供給処理施設）"}},{"type":"Feature","id":"luse_92c789ed-03fc-4210-9256-5fc5b1e23433","geometry":{"type":"Polygon","coordinates":[[[139.06792414285715,35.925],[139.0678998,35.9249716],[139.067873,35.9249327],[139.0678632,35.9248886],[139.0678613,35.9248669],[139.0678611,35.9248303],[139.0678646,35.9247938],[139.0678699,35.924759],[139.0678782,35.9247176],[139.0678866,35.9246751],[139.0678939,35.9246438],[139.0678959,35.9246146],[139.0678979,35.9245663],[139.067912,35.9245494],[139.0679309,35.9245282],[139.0679408,35.9244499],[139.0679422,35.9244155],[139.0679349,35.9243885],[139.0679347,35.924351],[139.0679367,35.9243179],[139.0679354,35.9242896],[139.0679316,35.9242379],[139.0679317,35.9241716],[139.067933,35.9241451],[139.0679377,35.9240541],[139.0679382,35.9239971],[139.0679287,35.9239339],[139.0679186,35.9238751],[139.0679104,35.9238591],[139.0678986,35.9238358],[139.0678877,35.9238039],[139.0678843,35.9237669],[139.0678936,35.9237404],[139.0678997,35.9237173],[139.0679083,35.9236712],[139.0679114,35.9236225],[139.0679078,35.9236021],[139.0679053,35.9235881],[139.0678933,35.9235575],[139.0678935,35.9235393],[139.0679077,35.9235128],[139.0679152,35.9234961],[139.0679191,35.9234876],[139.0679439,35.9234707],[139.0679649,35.9234627],[139.0679878,35.9234451],[139.0679897,35.9234436],[139.0680053,35.9234299],[139.0680195,35.9234108],[139.0680352,35.9233852],[139.068037,35.9233661],[139.0680381,35.9233414],[139.0680051,35.9232883],[139.0679883,35.9232553],[139.0679751,35.9232373],[139.0679713,35.9232322],[139.0679585,35.923217],[139.067944,35.9232002],[139.0679386,35.9231938],[139.0679195,35.9231713],[139.0679136,35.9231643],[139.0678958,35.9231394],[139.06788,35.9231145],[139.0678649,35.9230874],[139.0678438,35.9230521],[139.0678296,35.9230331],[139.0678191,35.923019],[139.0678081,35.9230036],[139.0678014,35.9229871],[139.0677985,35.9229759],[139.0677974,35.9229641],[139.0677971,35.922948],[139.0677973,35.9229323],[139.067798,35.9229005],[139.0677989,35.9228837],[139.0678004,35.9228715],[139.0678055,35.9228344],[139.0678097,35.9228009],[139.0678124,35.9227877],[139.0678182,35.9227563],[139.0678277,35.9227179],[139.0678343,35.9226928],[139.0678476,35.9226572],[139.0678581,35.9226322],[139.0678655,35.9226227],[139.0678721,35.9226127],[139.0678865,35.9225869],[139.0678913,35.9225786],[139.0679009,35.9225632],[139.0679176,35.9225315],[139.0679411,35.9224929],[139.0679585,35.9224675],[139.0679821,35.9224317],[139.0679991,35.9224059],[139.068017,35.9223815],[139.0680221,35.9223743],[139.0680501,35.9223367],[139.0680714,35.9223051],[139.0680805,35.9222936],[139.0681014,35.9222727],[139.0681113,35.9222661],[139.0681177,35.9222645],[139.0681238,35.9222631],[139.0681466,35.9222552],[139.0681919,35.9222363],[139.0682291,35.922218],[139.068271,35.9221966],[139.0682899,35.9221883],[139.0683183,35.9221767],[139.0683378,35.9221694],[139.068368,35.9221577],[139.0683852,35.9221502],[139.0684263,35.9221302],[139.0684405,35.9221226],[139.0684832,35.9220998],[139.0685135,35.922086],[139.0685328,35.9220777],[139.0685631,35.9220643],[139.0685937,35.9220481],[139.0686032,35.9220439],[139.0686416,35.9220218],[139.0686464,35.9220183],[139.0686598,35.9220073],[139.0686893,35.9219882],[139.0686992,35.9219838],[139.068716,35.9219783],[139.0687207,35.9219773],[139.0687345,35.9219732],[139.0687745,35.921965],[139.0687913,35.921963],[139.0688331,35.9219581],[139.0688652,35.9219534],[139.0688799,35.9219518],[139.0689108,35.9219481],[139.0689453,35.9219441],[139.0689767,35.9219405],[139.0690029,35.9219382],[139.0690437,35.9219367],[139.0690828,35.9219345],[139.0691254,35.9219348],[139.0691691,35.9219351],[139.0692173,35.9219354],[139.0692563,35.9219356],[139.0693062,35.9219366],[139.0693599,35.9219391],[139.0693874,35.9219379],[139.0693968,35.9219372],[139.0694266,35.9219346],[139.0694717,35.9219273],[139.0694959,35.9219187],[139.0695183,35.9219087],[139.0695273,35.9219049],[139.069573,35.9218908],[139.0696053,35.9218851],[139.0696272,35.9218807],[139.069684,35.9218688],[139.0697056,35.9218655],[139.0697516,35.9218592],[139.0697649,35.9218557],[139.0697861,35.9218496],[139.0698189,35.9218355],[139.0698283,35.9218303],[139.0698456,35.9218172],[139.0698574,35.9218042],[139.0698609,35.921799],[139.0698752,35.9217844],[139.0698857,35.9217647],[139.069887,35.9217549],[139.0698975,35.9217465],[139.0699031,35.9217441],[139.0699255,35.9217383],[139.0699474,35.921735],[139.0699974,35.921722],[139.0700181,35.9217123],[139.0700241,35.921709],[139.0700717,35.9216812],[139.0701063,35.9216581],[139.0701295,35.9216449],[139.0701598,35.921628],[139.0702031,35.9215975],[139.0702178,35.9215847],[139.0702464,35.921552],[139.0702777,35.9215208],[139.0703023,35.9215024],[139.0703551,35.9214678],[139.0703854,35.9214446],[139.0704049,35.9214276],[139.0704162,35.9214147],[139.0704276,35.9213956],[139.0704498,35.9213626],[139.0704694,35.9213288],[139.0704739,35.9213169],[139.0704819,35.9212904],[139.0704884,35.9212765],[139.070499,35.9212507],[139.0704994,35.9212479],[139.0704999,35.9212462],[139.0704999,35.9212458],[139.0705004,35.9212451],[139.0705012,35.9212434],[139.0705148,35.9212148],[139.0705184,35.9212019],[139.0705255,35.9211754],[139.0705339,35.9211429],[139.0705482,35.9211029],[139.070556,35.9210781],[139.0705686,35.9210327],[139.0705763,35.9209899],[139.0705818,35.9209451],[139.0705828,35.9209375],[139.0705845,35.9208976],[139.0705895,35.9208742],[139.0705938,35.9208589],[139.0706045,35.9208233],[139.0706103,35.9208034],[139.070613,35.9207913],[139.0706134,35.9207843],[139.0706677,35.9207433],[139.0707915,35.92065],[139.0709874,35.9205022],[139.0709908,35.9205057],[139.0709837,35.9205811],[139.0709757,35.9206204],[139.0709596,35.9207097],[139.070948,35.9207814],[139.0709352,35.9208711],[139.070933,35.9208858],[139.0709293,35.9209126],[139.070926,35.9209396],[139.070926,35.9209416],[139.0709235,35.9209686],[139.0709217,35.9209956],[139.0709205,35.9210226],[139.0709198,35.9210497],[139.0709193,35.9210527],[139.0709146,35.9210791],[139.0709097,35.9211054],[139.070904,35.9211317],[139.0709017,35.9211416],[139.0708953,35.9211677],[139.0708883,35.9211937],[139.0708806,35.9212196],[139.0708783,35.9212274],[139.0708751,35.9212387],[139.0708714,35.9212499],[139.0708678,35.9212611],[139.0708637,35.9212723],[139.0708594,35.9212834],[139.0708548,35.9212944],[139.0708499,35.9213054],[139.070845,35.9213162],[139.0708419,35.9213224],[139.0708365,35.9213331],[139.0708307,35.9213438],[139.070825,35.9213544],[139.0708189,35.9213649],[139.0708123,35.9213753],[139.070806,35.9213857],[139.070799,35.9213959],[139.0707921,35.9214061],[139.0707848,35.921416],[139.0707772,35.921426],[139.0707697,35.9214357],[139.0707616,35.9214454],[139.0706537,35.9215911],[139.0705734,35.9216823],[139.0705657,35.9216882],[139.0705542,35.9216966],[139.0705419,35.9217045],[139.0705295,35.921712],[139.0705168,35.9217191],[139.0705052,35.9217249],[139.0704918,35.9217312],[139.0704779,35.921737],[139.0704637,35.9217423],[139.0704495,35.9217471],[139.0704492,35.9217472],[139.0702998,35.9217967],[139.0701826,35.9218061],[139.070182,35.9218061],[139.0701803,35.9218062],[139.0701696,35.9218068],[139.0701662,35.921807],[139.0701522,35.9218084],[139.0701519,35.9218084],[139.0701382,35.9218102],[139.0701379,35.9218102],[139.0701244,35.9218125],[139.070124,35.9218126],[139.0701106,35.9218153],[139.0700969,35.9218186],[139.0700849,35.9218218],[139.0700715,35.9218259],[139.0700586,35.9218305],[139.0700457,35.9218355],[139.0700333,35.9218408],[139.070033,35.9218409],[139.0700211,35.9218467],[139.0700207,35.9218468],[139.0700092,35.921853],[139.0700021,35.9218703],[139.0699869,35.9218756],[139.0699681,35.9218824],[139.0699495,35.9218895],[139.069945,35.9218914],[139.0699446,35.9218915],[139.0699268,35.9218992],[139.0699087,35.9219072],[139.0698911,35.9219156],[139.0698789,35.9219221],[139.0698317,35.9219482],[139.0697856,35.9219753],[139.0697649,35.9219879],[139.0697198,35.9220164],[139.0696757,35.9220457],[139.0695775,35.922127],[139.0695771,35.922127],[139.0694583,35.9221587],[139.0694579,35.9221588],[139.0694538,35.92216],[139.0694411,35.9221634],[139.0694285,35.9221666],[139.0694281,35.9221667],[139.0694155,35.9221696],[139.0694027,35.9221722],[139.0694023,35.9221723],[139.0693977,35.9221732],[139.0693847,35.9221754],[139.0693715,35.9221775],[139.0693583,35.9221792],[139.0693453,35.9221808],[139.0693449,35.9221808],[139.0693307,35.9221836],[139.0693183,35.9221858],[139.069315,35.9221864],[139.0693105,35.9221871],[139.069299,35.9221889],[139.0692831,35.922191],[139.0692673,35.9221928],[139.0692669,35.9221928],[139.0692528,35.9221942],[139.0692367,35.9221954],[139.0692309,35.9221957],[139.0692208,35.9221963],[139.0692205,35.9221963],[139.0692093,35.9221967],[139.0692045,35.9221968],[139.0691886,35.922197],[139.0691882,35.922197],[139.0691724,35.9221969],[139.069172,35.9221969],[139.0691562,35.9221964],[139.0691558,35.9221964],[139.0689801,35.9221951],[139.0689222,35.9221746],[139.0688231,35.9222166],[139.068762,35.9222748],[139.0687513,35.9222835],[139.068721,35.9223072],[139.06869,35.9223302],[139.0686736,35.9223418],[139.0686415,35.9223639],[139.0686086,35.9223853],[139.0685229,35.9224355],[139.0685022,35.9224863],[139.0685007,35.9224904],[139.0684891,35.9225196],[139.0684759,35.9225484],[139.068461,35.9225768],[139.0684576,35.9225828],[139.0684413,35.9226106],[139.0684234,35.9226377],[139.068404,35.9226641],[139.0683834,35.9226899],[139.0683617,35.922715],[139.0683385,35.9227392],[139.068314,35.9227628],[139.0682885,35.9227854],[139.0682881,35.9227854],[139.0682655,35.9227867],[139.0682206,35.92286],[139.0682191,35.9229384],[139.0682009,35.9229827],[139.0681821,35.9230347],[139.0681761,35.9230533],[139.0681607,35.9231061],[139.0681574,35.9231417],[139.0681551,35.9231865],[139.068155,35.9232015],[139.0681549,35.9232273],[139.068157,35.9232721],[139.0681578,35.9232813],[139.0681583,35.9232936],[139.0681581,35.9233059],[139.0681575,35.9233182],[139.0681562,35.9233304],[139.0681542,35.9233426],[139.0681514,35.9233547],[139.068149,35.9233641],[139.0681455,35.9233761],[139.0681411,35.9233878],[139.068136,35.9233994],[139.0681305,35.9234109],[139.0681244,35.9234222],[139.0681179,35.9234332],[139.0681107,35.923444],[139.0680211,35.9235297],[139.068018,35.9235997],[139.0680314,35.9236729],[139.0680491,35.9237582],[139.0680525,35.923818],[139.068053,35.9238812],[139.0680506,35.9239371],[139.0680449,35.9240001],[139.0680299,35.9241137],[139.0680085,35.924274],[139.068005,35.9243211],[139.0679987,35.9243737],[139.0679976,35.9243815],[139.0679882,35.9244338],[139.0679763,35.9244857],[139.0679563,35.9245685],[139.0679334,35.924656],[139.067926,35.9246816],[139.0679154,35.9247254],[139.067908,35.9247635],[139.0679016,35.9248078],[139.0679013,35.9248189],[139.0679014,35.9248331],[139.0679023,35.9248474],[139.0679042,35.9248616],[139.0679065,35.9248757],[139.067909,35.9248866],[139.0679124,35.9249005],[139.0679169,35.9249143],[139.0679222,35.9249279],[139.0679279,35.9249414],[139.0679345,35.9249546],[139.06796108763575,35.925],[139.06800867118645,35.925],[139.0679738,35.9249406],[139.0679682,35.9249291],[139.067963,35.924917],[139.0679584,35.9249048],[139.0679545,35.9248925],[139.0679511,35.9248799],[139.067949,35.9248702],[139.0679468,35.9248575],[139.0679454,35.9248447],[139.0679445,35.924832],[139.0679443,35.9248191],[139.0679446,35.9248103],[139.0679507,35.9247682],[139.0679577,35.9247315],[139.067968,35.9246889],[139.0679753,35.9246637],[139.0679983,35.9245756],[139.0680185,35.9244924],[139.0680307,35.9244396],[139.0680403,35.9243861],[139.0680416,35.9243775],[139.068048,35.9243238],[139.0680513,35.9242768],[139.0680726,35.9241174],[139.0680877,35.9240033],[139.0680935,35.923939],[139.0680958,35.9238817],[139.0680954,35.9238171],[139.0680919,35.9237545],[139.0680753,35.9236751],[139.0680903,35.9235977],[139.0680905,35.9235967],[139.0680923,35.9235935],[139.0680977,35.9235903],[139.068099,35.9235922],[139.0681434,35.9237539],[139.0682068,35.9239419],[139.0682454,35.9240704],[139.0682767,35.9241918],[139.0682851,35.9242173],[139.0682912,35.9242412],[139.0682966,35.9242658],[139.0682978,35.9242733],[139.0683015,35.924298],[139.0683035,35.9243226],[139.0683044,35.9243378],[139.0683039,35.9243443],[139.0683038,35.9243533],[139.0683043,35.9243623],[139.0683053,35.9243713],[139.0683066,35.92438],[139.068307,35.9243826],[139.0683089,35.9243911],[139.0683112,35.9244],[139.068314,35.9244088],[139.0683173,35.9244174],[139.0683209,35.9244259],[139.0683251,35.9244343],[139.0683297,35.9244426],[139.0683345,35.9244507],[139.06834,35.9244586],[139.0683458,35.9244663],[139.0683516,35.9244736],[139.0683767,35.9245248],[139.0684435,35.924604],[139.0684886,35.9245802],[139.068511,35.9245635],[139.0685552,35.9245305],[139.0684776,35.9244551],[139.0684386,35.924233],[139.0684482,35.9240353],[139.0684533,35.9238691],[139.0684595,35.9237818],[139.0684641,35.9237013],[139.0684673,35.9236579],[139.0684723,35.9235942],[139.0684718,35.9235907],[139.0684709,35.9235839],[139.0684698,35.9235771],[139.0684684,35.9235704],[139.0684669,35.9235637],[139.0684651,35.923557],[139.068463,35.9235504],[139.0684609,35.9235438],[139.0684585,35.9235372],[139.0684559,35.9235307],[139.0684543,35.9235268],[139.0684514,35.9235204],[139.0684482,35.9235141],[139.0684449,35.9235077],[139.0684414,35.9235016],[139.0684377,35.9234954],[139.0684338,35.9234894],[139.0684298,35.9234834],[139.0684255,35.9234775],[139.0684211,35.9234717],[139.0684165,35.923466],[139.0684117,35.9234604],[139.0684068,35.9234549],[139.0684017,35.9234494],[139.0683964,35.9234442],[139.068394,35.9234414],[139.0683902,35.9234365],[139.0683865,35.9234314],[139.0683829,35.9234263],[139.0683795,35.9234212],[139.0683762,35.9234159],[139.0683732,35.9234107],[139.0683702,35.9234053],[139.0683675,35.9233999],[139.0683649,35.9233945],[139.0683641,35.9233924],[139.0683617,35.9233869],[139.0683595,35.9233814],[139.0683575,35.9233757],[139.0683556,35.9233701],[139.068354,35.9233644],[139.0683525,35.9233586],[139.0683513,35.9233529],[139.0683501,35.9233471],[139.0683491,35.9233413],[139.0683484,35.9233355],[139.0683478,35.9233297],[139.0683474,35.9233238],[139.0683493,35.923309],[139.0683523,35.9232912],[139.0683557,35.9232734],[139.0683597,35.9232557],[139.0683609,35.9232511],[139.0683655,35.9232335],[139.0683707,35.923216],[139.0683751,35.9232029],[139.0683766,35.9231986],[139.0683828,35.9231814],[139.0683896,35.9231642],[139.068397,35.9231472],[139.0683996,35.9231425],[139.0684087,35.9231252],[139.0684105,35.9231218],[139.0684379,35.9230599],[139.0684413,35.9230512],[139.0684475,35.923033],[139.0684489,35.9230307],[139.0684614,35.9230085],[139.0684747,35.9229867],[139.0684885,35.9229651],[139.0684936,35.9229575],[139.0685084,35.9229363],[139.0685239,35.9229155],[139.0685399,35.9228948],[139.068554,35.9228811],[139.0685944,35.9228428],[139.0685998,35.922838],[139.0686416,35.9228007],[139.0686845,35.9227643],[139.0686917,35.9227571],[139.0687051,35.9227435],[139.0687179,35.9227297],[139.0687304,35.9227156],[139.0687424,35.9227013],[139.0687426,35.922701],[139.0687541,35.9226865],[139.0687651,35.9226717],[139.0687758,35.9226567],[139.0687859,35.9226414],[139.0687956,35.922626],[139.0688048,35.9226103],[139.0688233,35.9225624],[139.0688258,35.9225564],[139.0688496,35.9224997],[139.0688499,35.9224985],[139.0688516,35.9224934],[139.0688536,35.9224884],[139.0688556,35.9224833],[139.0688578,35.9224784],[139.0688601,35.9224734],[139.0688627,35.9224686],[139.0688653,35.9224637],[139.0688681,35.922459],[139.0688711,35.9224542],[139.0688742,35.9224496],[139.0688775,35.922445],[139.068879,35.9224429],[139.0688824,35.9224384],[139.068886,35.922434],[139.0688897,35.9224297],[139.0688936,35.9224254],[139.0688975,35.9224212],[139.0689017,35.9224171],[139.0689059,35.9224132],[139.0689103,35.9224092],[139.0689148,35.9224054],[139.0689193,35.9224016],[139.0689241,35.9223979],[139.0689289,35.9223944],[139.068935,35.92239],[139.0689422,35.9223853],[139.0689493,35.9223806],[139.0689567,35.9223762],[139.0689641,35.9223719],[139.0689717,35.9223677],[139.0689794,35.9223637],[139.0689873,35.9223599],[139.0689952,35.9223561],[139.0690033,35.9223526],[139.0690091,35.9223502],[139.0690173,35.9223469],[139.0690259,35.9223439],[139.0690341,35.9223409],[139.0690427,35.9223382],[139.0690513,35.9223357],[139.06906,35.9223334],[139.0690686,35.9223312],[139.0690689,35.9223311],[139.0690776,35.9223292],[139.0690865,35.9223273],[139.0690952,35.9223257],[139.0690956,35.9223256],[139.0691042,35.9223242],[139.0691045,35.9223241],[139.06912,35.922321],[139.0691872,35.9223084],[139.0691876,35.9223084],[139.069218,35.9223032],[139.0692859,35.9222925],[139.0692994,35.9222906],[139.0693096,35.922289],[139.0693133,35.9222885],[139.0693137,35.9222884],[139.0693274,35.9222859],[139.0693413,35.9222831],[139.069355,35.92228],[139.0693685,35.9222767],[139.0693688,35.9222766],[139.0693822,35.9222729],[139.0693833,35.9222726],[139.0693837,35.9222725],[139.0693969,35.9222686],[139.0694103,35.9222644],[139.0694234,35.9222599],[139.0694363,35.9222552],[139.0694366,35.9222551],[139.0694493,35.9222501],[139.069462,35.9222448],[139.0694747,35.9222393],[139.0694871,35.9222334],[139.0694993,35.9222274],[139.0695111,35.9222211],[139.069523,35.9222146],[139.0695346,35.9222078],[139.0696093,35.9221625],[139.0696103,35.922162],[139.069616,35.9221596],[139.0696213,35.922157],[139.0696264,35.922154],[139.0696312,35.9221508],[139.0696359,35.9221473],[139.0696402,35.9221437],[139.0696424,35.9221416],[139.0696463,35.9221377],[139.0696498,35.9221334],[139.0696531,35.9221291],[139.069656,35.9221246],[139.0696585,35.92212],[139.0696607,35.9221151],[139.0696626,35.9221103],[139.0696639,35.9221053],[139.0697029,35.9220731],[139.0697047,35.9220716],[139.0697466,35.9220438],[139.0697909,35.9220157],[139.0698111,35.9220035],[139.0698565,35.9219769],[139.0699028,35.9219511],[139.0699138,35.9219453],[139.0699301,35.9219376],[139.0699469,35.9219299],[139.0699644,35.9219226],[139.0699685,35.921921],[139.0699861,35.921914],[139.0699983,35.9219096],[139.0700242,35.9219057],[139.070041,35.9219044],[139.0700414,35.9219043],[139.070063,35.9219012],[139.0703073,35.9218312],[139.0703096,35.9218311],[139.0703102,35.921831],[139.0704655,35.9217795],[139.0704659,35.9217794],[139.0704808,35.9217744],[139.0704812,35.9217743],[139.0704967,35.9217684],[139.0705122,35.9217619],[139.0705274,35.921755],[139.0705402,35.9217485],[139.0705543,35.9217405],[139.0705684,35.9217322],[139.0705819,35.9217232],[139.0705948,35.921714],[139.0706059,35.9217054],[139.0706898,35.9216104],[139.0707399,35.9215427],[139.0707981,35.9214641],[139.0708056,35.9214548],[139.0708138,35.9214445],[139.0708217,35.921434],[139.0708293,35.9214235],[139.0708367,35.9214128],[139.0708439,35.921402],[139.0708509,35.9213912],[139.0708575,35.9213801],[139.070864,35.9213691],[139.0708702,35.921358],[139.0708761,35.9213466],[139.0708818,35.9213354],[139.0708825,35.9213341],[139.0709133,35.9212757],[139.0709154,35.9212701],[139.0709215,35.9212544],[139.0709271,35.9212386],[139.0709325,35.9212228],[139.0709375,35.921207],[139.0709417,35.9211928],[139.0709459,35.9211767],[139.0709499,35.9211606],[139.0709535,35.9211445],[139.0709568,35.9211283],[139.0709591,35.92112],[139.0709613,35.9211112],[139.0709633,35.9211025],[139.070965,35.9210937],[139.0709666,35.9210848],[139.0709681,35.921076],[139.0709692,35.9210671],[139.0709703,35.9210586],[139.0709711,35.9210497],[139.0709717,35.9210408],[139.0709722,35.9210319],[139.0709724,35.921023],[139.0709725,35.921014],[139.0709724,35.9210051],[139.070972,35.9209962],[139.0709724,35.9209576],[139.0709816,35.9208684],[139.0710062,35.920717],[139.0710213,35.9206389],[139.07103,35.9206136],[139.0710389,35.9205891],[139.0710589,35.9205525],[139.0710597,35.9205517],[139.071063,35.9205478],[139.0710661,35.920544],[139.0710691,35.92054],[139.071072,35.920536],[139.0710748,35.9205319],[139.0710773,35.9205278],[139.0710798,35.9205236],[139.0710823,35.9205194],[139.0710825,35.9205188],[139.0710848,35.9205146],[139.0710868,35.9205103],[139.0710888,35.9205059],[139.0710907,35.9205015],[139.0710924,35.920497],[139.0710939,35.9204926],[139.0710954,35.9204881],[139.0710966,35.9204835],[139.0710978,35.920479],[139.0710987,35.9204744],[139.0710993,35.9204698],[139.0711002,35.9204651],[139.0711008,35.9204606],[139.0711013,35.9204559],[139.0711016,35.9204513],[139.071104,35.9204443],[139.0711098,35.9204285],[139.0711161,35.9204127],[139.0711231,35.9203971],[139.0711304,35.9203816],[139.0711382,35.9203662],[139.0711464,35.9203511],[139.0711473,35.9203494],[139.0711561,35.9203344],[139.0711654,35.9203197],[139.0711751,35.9203051],[139.0711852,35.9202906],[139.0711959,35.9202765],[139.0712069,35.9202626],[139.0712183,35.9202488],[139.0712217,35.9202437],[139.0712281,35.9202344],[139.0712347,35.9202253],[139.0712416,35.9202163],[139.0712487,35.9202075],[139.0712563,35.9201988],[139.071264,35.9201903],[139.0712719,35.920182],[139.0712801,35.9201737],[139.0712886,35.9201658],[139.0712973,35.9201579],[139.0712987,35.9201567],[139.0713077,35.920149],[139.071317,35.9201416],[139.0713263,35.9201343],[139.0713361,35.9201273],[139.071346,35.9201204],[139.0713561,35.9201137],[139.0713662,35.9201073],[139.0713767,35.9201011],[139.0713875,35.9200951],[139.0713985,35.9200893],[139.0714095,35.9200837],[139.0714207,35.9200783],[139.0714319,35.9200732],[139.0714603,35.9200619],[139.0715186,35.9200389],[139.0716392,35.9199893],[139.0716608,35.9199808],[139.0716916,35.9199684],[139.0717216,35.9199552],[139.0717513,35.9199416],[139.0717746,35.9199303],[139.0718037,35.9199155],[139.071832,35.9199001],[139.0718602,35.9198841],[139.0718877,35.9198676],[139.0721122,35.9197287],[139.072135,35.919715],[139.0722215,35.9196646],[139.0722961,35.9196233],[139.0723855,35.9195762],[139.0724013,35.919569],[139.0724526,35.9195466],[139.0725044,35.9195253],[139.0725426,35.9195104],[139.0725956,35.9194909],[139.0726492,35.9194726],[139.0729413,35.9193771],[139.0729416,35.919377],[139.0731663,35.9193062],[139.0731692,35.9193053],[139.0732028,35.9192959],[139.073421,35.9192352],[139.0734213,35.9192351],[139.0734834,35.9192156],[139.0735494,35.9191975],[139.0735737,35.9191913],[139.0736407,35.9191762],[139.0737082,35.9191635],[139.0737085,35.9191634],[139.0737243,35.9191615],[139.0737246,35.9191615],[139.0737716,35.9191569],[139.0737812,35.9191559],[139.0737815,35.9191559],[139.073798,35.9191548],[139.0738383,35.9191522],[139.0738387,35.9191522],[139.0738411,35.9191521],[139.0738426,35.9191521],[139.0738998,35.9191505],[139.0739571,35.9191509],[139.0739574,35.9191509],[139.0740037,35.9191528],[139.0740036,35.9191838],[139.0740088,35.9192093],[139.0740101,35.9192156],[139.0740229,35.9192351],[139.0740522,35.9192572],[139.0742476,35.9192873],[139.0745266,35.9193481],[139.074555,35.9193487],[139.0746066,35.9193491],[139.0747393,35.9193289],[139.0747954,35.9192546],[139.0748779,35.9192315],[139.0749492,35.9192047],[139.0749997,35.9191836],[139.075,35.91918345194806],[139.075,35.925],[139.06792414285715,35.925]]]},"properties":{"layer":"landuse","class_code":"203","class_label":"山林（樹林地）"}}]}