{"type":"FeatureCollection","properties":{"mesh_code":"53397061","source":"PLATEAU秩父市2025","layer":"landuse"},"features":[{"type":"Feature","id":"luse_5968c33a-beeb-4b93-b79c-57138fc42559","geometry":{"type":"Polygon","coordinates":[[[139.0129124,35.9667069],[139.0129272,35.9667452],[139.0130372,35.9668531],[139.0133309,35.9670753],[139.013521,35.9672103],[139.013655,35.9673034],[139.013846,35.9673436],[139.0138867,35.9673563],[139.013964,35.9673923],[139.0140363,35.9674297],[139.01407,35.9674552],[139.0141186,35.9675054],[139.0141901,35.9675879],[139.0142226,35.9676338],[139.014293,35.9677551],[139.0143074,35.9677938],[139.0143118,35.9678341],[139.0145287,35.9678734],[139.0147691,35.9679129],[139.0150509,35.9679615],[139.0149989,35.967997],[139.0147064,35.9679465],[139.0144659,35.9679069],[139.014249,35.9678676],[139.0142465,35.9678368],[139.0142429,35.9678178],[139.0142303,35.9677887],[139.0141598,35.9676674],[139.0141274,35.9676215],[139.0140558,35.967539],[139.0140072,35.9674888],[139.0139736,35.9674632],[139.0139012,35.9674259],[139.013824,35.9673899],[139.0137832,35.9673772],[139.0135922,35.967337],[139.0134582,35.9672438],[139.0132681,35.9671088],[139.0129745,35.9668866],[139.0128645,35.9667788],[139.0128497,35.9667405],[139.0128209,35.9667076],[139.0127933,35.9666933],[139.0127684,35.9666926],[139.0127303,35.9666957],[139.0126769,35.9667055],[139.012628,35.9667264],[139.0126645,35.966704],[139.0127396,35.9666719],[139.01276811632653,35.96666666666667],[139.01286350867582,35.96666666666667],[139.0128836,35.966674],[139.0129124,35.9667069]]]},"properties":{"layer":"landuse","class_code":"203","class_label":"山林（樹林地）"}},{"type":"Feature","id":"luse_5cf7eec7-2a9c-4fac-8eaf-042f5325d2c7","geometry":{"type":"Polygon","coordinates":[[[139.0125665,35.9722279],[139.0125666,35.9722773],[139.012552,35.9723062],[139.0125364,35.9723338],[139.0125037,35.9723765],[139.0125,35.97237955912241],[139.0125,35.96666666666667],[139.0125,35.96666666666667],[139.0125,35.96956825595825],[139.0125559,35.969582],[139.0125541,35.9696228],[139.0125152,35.969848],[139.0125044,35.969915],[139.0125,35.969951808276],[139.0125,35.97086839473683],[139.0125545,35.9710405],[139.0125959,35.9711425],[139.0126457,35.9712482],[139.0127378,35.9713905],[139.0127507,35.9714363],[139.0127746,35.9715354],[139.0127906,35.97161],[139.0128103,35.9717217],[139.0128098,35.9717699],[139.0128095,35.9717956],[139.0127865,35.9718402],[139.0127621,35.9718651],[139.0127084,35.971904],[139.0126628,35.9719451],[139.0126111,35.972022],[139.012579,35.9720733],[139.012566,35.9721153],[139.0125624,35.9721423],[139.0125624,35.9721884],[139.0125665,35.9722279]]]},"properties":{"layer":"landuse","class_code":"203","class_label":"山林（樹林地）"}},{"type":"Feature","id":"luse_b5647a39-d9a3-4557-bf71-13b93439436a","geometry":{"type":"Polygon","coordinates":[[[139.0125,35.968741329083585],[139.0125097,35.9687918],[139.0125237,35.9688767],[139.0125144,35.9689781],[139.012508,35.9691247],[139.0125167,35.969239],[139.012546,35.9694438],[139.0125563,35.9695717],[139.0125559,35.969582],[139.0125,35.96956825595825],[139.0125,35.96666666666667],[139.01503998321255,35.96666666666667],[139.0150361,35.9666693],[139.0149862,35.9666923],[139.0149585,35.9667029],[139.0149375,35.966711],[139.0148832,35.9667272],[139.0148525,35.9667414],[139.0148448,35.9667511],[139.0148384,35.9667714],[139.0148425,35.9668003],[139.014931,35.9670097],[139.0149324,35.9670114],[139.0149456,35.9670287],[139.0149573,35.9670515],[139.0149621,35.9670659],[139.0150402,35.9673229],[139.0151433,35.9675669],[139.0151772,35.9676542],[139.0151767,35.9676641],[139.015175,35.9676732],[139.0151688,35.9676869],[139.015163,35.9676928],[139.0151495,35.9676986],[139.0151371,35.9677051],[139.0151264,35.9677099],[139.0151165,35.9677156],[139.0151074,35.9677222],[139.0150994,35.9677295],[139.0150946,35.967735],[139.0150884,35.9677435],[139.0150834,35.9677526],[139.0150798,35.967762],[139.0150774,35.9677716],[139.0150766,35.9677815],[139.0150767,35.9677879],[139.0150786,35.967802],[139.0150825,35.9678159],[139.0150884,35.9678294],[139.0150926,35.967837],[139.0151014,35.9678493],[139.0151118,35.9678608],[139.0151236,35.9678713],[139.015137,35.9678805],[139.0151515,35.9678885],[139.0151547,35.9678898],[139.0150825,35.96794],[139.0150509,35.9679615],[139.0147691,35.9679129],[139.0145287,35.9678734],[139.0143118,35.9678341],[139.0143074,35.9677938],[139.014293,35.9677551],[139.0142226,35.9676338],[139.0141901,35.9675879],[139.0141186,35.9675054],[139.01407,35.9674552],[139.0140363,35.9674297],[139.013964,35.9673923],[139.0138867,35.9673563],[139.013846,35.9673436],[139.013655,35.9673034],[139.013521,35.9672103],[139.0133309,35.9670753],[139.0130372,35.9668531],[139.0129272,35.9667452],[139.0129124,35.9667069],[139.0128836,35.966674],[139.01286350867582,35.96666666666667],[139.01276811632653,35.96666666666667],[139.0127396,35.9666719],[139.0126645,35.966704],[139.012628,35.9667264],[139.0126017,35.9667376],[139.0125655,35.9667599],[139.0125326,35.9667839],[139.0125,35.966811243200965],[139.0125,35.968741329083585]]]},"properties":{"layer":"landuse","class_code":"220","class_label":"その他①（ゴルフ場）"}},{"type":"Feature","id":"luse_e3e1a412-6260-4221-8b10-75538e339355","geometry":{"type":"Polygon","coordinates":[[[139.025,35.96666666666667],[139.025,35.96829822997015],[139.0247982,35.9681595],[139.024502,35.9680319],[139.0244964,35.9680286],[139.0244905,35.9680244],[139.024255,35.9679989],[139.0240205,35.9679644],[139.0238113,35.9679206],[139.0237924,35.9679172],[139.023709,35.9678982],[139.0236066,35.9678713],[139.023601,35.9678759],[139.0235889,35.9679509],[139.0234837,35.9679574],[139.0229319,35.9680152],[139.0229229,35.9680163],[139.0228015,35.9679682],[139.022782,35.968017],[139.0226005,35.9680158],[139.0225832,35.9680157],[139.0223625,35.9680142],[139.0217892,35.9680103],[139.0214475,35.968008],[139.0209534,35.9680046],[139.0205744,35.9680021],[139.020409,35.9680009],[139.0202856,35.9680001],[139.0201205,35.967999],[139.0199813,35.9679419],[139.0198271,35.9679549],[139.019651,35.967946],[139.0194358,35.9678736],[139.0193763,35.9678495],[139.0193643,35.9678413],[139.0192989,35.9677622],[139.0191793,35.9676754],[139.0189007,35.9676123],[139.0188458,35.9675875],[139.0187825,35.967439],[139.0187257,35.9673825],[139.0186644,35.967326],[139.0183159,35.9672775],[139.0182362,35.9672624],[139.0180182,35.9671574],[139.0177764,35.967092],[139.0175448,35.9670834],[139.0173756,35.9670129],[139.0173118,35.9669907],[139.0173107,35.9669909],[139.0171837,35.967008],[139.0170281,35.9670261],[139.016889,35.9670436],[139.0168209,35.9670477],[139.0167802,35.9670471],[139.0167618,35.9670396],[139.0167159,35.9671136],[139.016678,35.9671556],[139.0166273,35.9672086],[139.016573,35.967252],[139.0164766,35.9673157],[139.0163835,35.9673722],[139.0162284,35.9674512],[139.0161322,35.96749],[139.0160247,35.9675255],[139.0158473,35.9675722],[139.0157992,35.9675774],[139.0157168,35.9675827],[139.0155925,35.9675895],[139.0154749,35.9676674],[139.0153658,35.9677433],[139.0151697,35.9678794],[139.0151547,35.9678898],[139.0151515,35.9678885],[139.015137,35.9678805],[139.0151236,35.9678713],[139.0151118,35.9678608],[139.0151014,35.9678493],[139.0150926,35.967837],[139.0150884,35.9678294],[139.0150825,35.9678159],[139.0150786,35.967802],[139.0150767,35.9677879],[139.0150766,35.9677815],[139.0150774,35.9677716],[139.0150798,35.967762],[139.0150834,35.9677526],[139.0150884,35.9677435],[139.0150946,35.967735],[139.0150994,35.9677295],[139.0151074,35.9677222],[139.0151165,35.9677156],[139.0151264,35.9677099],[139.0151371,35.9677051],[139.0151495,35.9676986],[139.015163,35.9676928],[139.0151688,35.9676869],[139.015175,35.9676732],[139.0151767,35.9676641],[139.0151772,35.9676542],[139.0151433,35.9675669],[139.0150402,35.9673229],[139.0149621,35.9670659],[139.0149573,35.9670515],[139.0149456,35.9670287],[139.0149324,35.9670114],[139.014931,35.9670097],[139.0148425,35.9668003],[139.0148384,35.9667714],[139.0148448,35.9667511],[139.0148525,35.9667414],[139.0148832,35.9667272],[139.0149375,35.966711],[139.0149585,35.9667029],[139.0149862,35.9666923],[139.0150361,35.9666693],[139.01503998321255,35.96666666666667],[139.025,35.96666666666667]]]},"properties":{"layer":"landuse","class_code":"203","class_label":"山林（樹林地）"}}]}