{"type":"FeatureCollection","properties":{"mesh_code":"53396087","source":"PLATEAU秩父市2025","layer":"landuse"},"features":[{"type":"Feature","id":"luse_215cf2c1-dcfc-4c0e-841a-5f88af4d6905","geometry":{"type":"Polygon","coordinates":[[[139.093234,35.9083191],[139.093218,35.9083193],[139.093202,35.9083203],[139.0931934,35.9083212],[139.0931861,35.908322],[139.0931824,35.9083226],[139.0931704,35.9083246],[139.0931549,35.908328],[139.0931397,35.9083321],[139.09313605138888,35.90833333333333],[139.0928476107527,35.90833333333333],[139.0928687,35.9082739],[139.0929351,35.9082207],[139.0930749,35.908159],[139.0931263,35.9081474],[139.0932326,35.908145],[139.0932885,35.9082019],[139.093234,35.9083191]]]},"properties":{"layer":"landuse","class_code":"203","class_label":"山林（樹林地）"}},{"type":"Feature","id":"luse_82b9e6c1-5c55-4bb1-be60-a9dd93e19b1f","geometry":{"type":"Polygon","coordinates":[[[139.0930385,35.9080802],[139.0930195,35.9080818],[139.0930007,35.9080844],[139.0929822,35.908088],[139.0929639,35.9080926],[139.0929479,35.9080974],[139.0929304,35.9081037],[139.0929135,35.9081109],[139.0928971,35.9081189],[139.0928815,35.9081277],[139.0928665,35.9081373],[139.0928523,35.9081477],[139.0928431,35.9081552],[139.0928392,35.9081622],[139.0928321,35.9081746],[139.092821,35.9081976],[139.0928117,35.9082215],[139.0928095,35.9082281],[139.0928026,35.9082526],[139.0927976,35.9082769],[139.0927945,35.9083015],[139.0927931,35.9083314],[139.09279245348338,35.90833333333333],[139.09274659374202,35.90833333333333],[139.0927491,35.9083259],[139.0927503,35.9082989],[139.0927536,35.9082721],[139.0927591,35.9082455],[139.0927665,35.9082193],[139.0927692,35.9082113],[139.0927769,35.9081916],[139.0927793,35.9081856],[139.0927914,35.9081605],[139.0928052,35.908136],[139.0928063,35.9081342],[139.0928218,35.9081215],[139.0928379,35.9081097],[139.0928551,35.9080987],[139.0928731,35.9080886],[139.0928918,35.9080794],[139.0929112,35.9080713],[139.0929312,35.908064],[139.0929496,35.9080584],[139.0929705,35.9080532],[139.0929918,35.9080491],[139.0930133,35.9080461],[139.0930351,35.9080442],[139.0930569,35.9080433],[139.0930743,35.9080435],[139.0931424,35.9080422],[139.0932107,35.9080443],[139.0932198,35.9080451],[139.0932639,35.9080485],[139.0933313,35.9080568],[139.0933596,35.9080614],[139.0933889,35.9080641],[139.0934182,35.9080654],[139.0934477,35.9080651],[139.093477,35.9080633],[139.0934977,35.9080612],[139.0935266,35.9080568],[139.0935552,35.908051],[139.0935833,35.9080438],[139.0936107,35.9080351],[139.0936374,35.9080251],[139.0936388,35.9080245],[139.0937726,35.9079659],[139.0938408,35.9079322],[139.0939054,35.9079004],[139.0939289,35.9078862],[139.0939536,35.9078732],[139.0939791,35.9078614],[139.0940055,35.9078511],[139.0940327,35.907842],[139.0940606,35.9078345],[139.0940708,35.9078321],[139.0940992,35.9078264],[139.0941282,35.9078222],[139.0941573,35.9078195],[139.0941866,35.9078184],[139.094216,35.9078186],[139.0942172,35.9078187],[139.0944637,35.9078099],[139.0946883,35.9078044],[139.0947472,35.9078043],[139.0948061,35.9078013],[139.0948645,35.9077952],[139.0948866,35.9077921],[139.0949442,35.907782],[139.0949853,35.9077728],[139.0950633,35.907735],[139.095159,35.9076847],[139.0951744,35.9076766],[139.0952703,35.9076259],[139.0953219,35.9075987],[139.095401,35.9075992],[139.0953869,35.9076074],[139.0953534,35.9076251],[139.0952608,35.907674],[139.0951831,35.9077151],[139.0951545,35.9077301],[139.0950867,35.9077656],[139.0950028,35.9078063],[139.0949548,35.9078171],[139.0948951,35.9078276],[139.0948711,35.9078309],[139.0948103,35.9078373],[139.0947487,35.9078404],[139.094689,35.9078405],[139.0944652,35.907846],[139.0942171,35.9078548],[139.0942146,35.9078547],[139.0941875,35.9078544],[139.0941609,35.9078554],[139.0941345,35.9078579],[139.0941084,35.9078617],[139.0940821,35.9078669],[139.0940738,35.9078689],[139.0940481,35.9078758],[139.0940236,35.9078841],[139.0939997,35.9078935],[139.0939895,35.9078981],[139.0939765,35.907904],[139.0939543,35.9079158],[139.0939302,35.9079304],[139.0937945,35.9079972],[139.0936593,35.9080565],[139.0936567,35.9080576],[139.093628,35.9080683],[139.0936234,35.9080697],[139.093598,35.9080777],[139.0935673,35.9080858],[139.0935361,35.9080921],[139.0935046,35.9080967],[139.0934815,35.9080992],[139.0934496,35.9081011],[139.0934173,35.9081014],[139.0933852,35.9081001],[139.0933528,35.9080971],[139.0933237,35.9080924],[139.0932585,35.9080843],[139.0932077,35.9080803],[139.0931603,35.9080788],[139.0931421,35.9080783],[139.0930745,35.9080796],[139.0930577,35.9080794],[139.0930385,35.9080802]]]},"properties":{"layer":"landuse","class_code":"204","class_label":"水面（河川水面、湖沼、ため池、用水路、濠、運河水面）"}},{"type":"Feature","id":"luse_cc417eab-25f5-4f5d-91de-10f1ddf13dcd","geometry":{"type":"Polygon","coordinates":[[[139.0935552,35.908051],[139.0935266,35.9080568],[139.0934977,35.9080612],[139.093477,35.9080633],[139.0934477,35.9080651],[139.0934182,35.9080654],[139.0933889,35.9080641],[139.0933596,35.9080614],[139.0933313,35.9080568],[139.0932639,35.9080485],[139.0932198,35.9080451],[139.0932107,35.9080443],[139.0931424,35.9080422],[139.0930743,35.9080435],[139.0930569,35.9080433],[139.0930351,35.9080442],[139.0930133,35.9080461],[139.0929918,35.9080491],[139.0931351,35.9079984],[139.0932857,35.9079576],[139.0934692,35.9079229],[139.0937111,35.9079184],[139.0938408,35.9079322],[139.0937726,35.9079659],[139.0936388,35.9080245],[139.0936374,35.9080251],[139.0936107,35.9080351],[139.0935833,35.9080438],[139.0935552,35.908051]]]},"properties":{"layer":"landuse","class_code":"205","class_label":"その他自然地（原野・牧野、荒れ地（耕作放棄地等自然的状況のもの）、低湿地、河川敷・河原、海浜、湖岸）"}},{"type":"Feature","id":"luse_bdca46c6-e46a-4c30-a218-c2e0fb74f298","geometry":{"type":"Polygon","coordinates":[[[139.09279245348338,35.90833333333333],[139.0927931,35.9083314],[139.0927945,35.9083015],[139.0927976,35.9082769],[139.0928026,35.9082526],[139.0928095,35.9082281],[139.0928117,35.9082215],[139.092821,35.9081976],[139.0928321,35.9081746],[139.0928392,35.9081622],[139.0928431,35.9081552],[139.0928523,35.9081477],[139.0928665,35.9081373],[139.0928815,35.9081277],[139.0928971,35.9081189],[139.0929135,35.9081109],[139.0929304,35.9081037],[139.0929479,35.9080974],[139.0929639,35.9080926],[139.0929822,35.908088],[139.0930007,35.9080844],[139.0930195,35.9080818],[139.0930385,35.9080802],[139.0930577,35.9080794],[139.0930745,35.9080796],[139.0931421,35.9080783],[139.0931603,35.9080788],[139.0932077,35.9080803],[139.0932585,35.9080843],[139.0933237,35.9080924],[139.0933528,35.9080971],[139.0933852,35.9081001],[139.0934173,35.9081014],[139.0934496,35.9081011],[139.0934815,35.9080992],[139.0935046,35.9080967],[139.0935361,35.9080921],[139.0935673,35.9080858],[139.093598,35.9080777],[139.0936234,35.9080697],[139.093628,35.9080683],[139.0936567,35.9080576],[139.0936593,35.9080565],[139.0937945,35.9079972],[139.0939302,35.9079304],[139.0939543,35.9079158],[139.0939765,35.907904],[139.0939895,35.9078981],[139.0939997,35.9078935],[139.0940236,35.9078841],[139.0940481,35.9078758],[139.0940738,35.9078689],[139.0940821,35.9078669],[139.0941084,35.9078617],[139.0941345,35.9078579],[139.0941609,35.9078554],[139.0941875,35.9078544],[139.0942146,35.9078547],[139.0942171,35.9078548],[139.0944652,35.907846],[139.094689,35.9078405],[139.0947487,35.9078404],[139.0948103,35.9078373],[139.0948711,35.9078309],[139.0948951,35.9078276],[139.0949548,35.9078171],[139.0950028,35.9078063],[139.0950867,35.9077656],[139.0951545,35.9077301],[139.0951831,35.9077151],[139.0952608,35.907674],[139.0953534,35.9076251],[139.0952741,35.9076866],[139.095222,35.9077787],[139.0952104,35.9078412],[139.0952208,35.9079039],[139.0952451,35.9079487],[139.0952268,35.9079617],[139.0952029,35.9079767],[139.0951774,35.9079905],[139.0951513,35.908003],[139.0951258,35.9080135],[139.0950978,35.9080233],[139.0950691,35.9080316],[139.0950401,35.9080385],[139.0950397,35.9080386],[139.0950103,35.9080439],[139.09501,35.9080439],[139.0949801,35.9080477],[139.0949227,35.9080583],[139.0948394,35.9080698],[139.094839,35.9080699],[139.0948231,35.9080716],[139.0947638,35.9080761],[139.0947388,35.908078],[139.0947004,35.908079],[139.0946542,35.9080802],[139.0946539,35.9080802],[139.0945737,35.90808],[139.0944734,35.9080797],[139.0943571,35.9080773],[139.0942902,35.9080759],[139.0942802,35.9080742],[139.0942632,35.9080721],[139.0942459,35.9080709],[139.0942288,35.9080705],[139.0942162,35.9080709],[139.0942134,35.908071],[139.0942115,35.9080711],[139.0942073,35.9080714],[139.0941943,35.9080725],[139.0941772,35.9080748],[139.0941604,35.9080779],[139.094144,35.9080819],[139.0941437,35.908082],[139.094133,35.9080851],[139.0941173,35.9080905],[139.0941016,35.9080967],[139.0940866,35.9081037],[139.0940722,35.9081114],[139.0940586,35.9081199],[139.0940455,35.908129],[139.0938862,35.9082141],[139.0938858,35.9082143],[139.0937492,35.9082835],[139.0937242,35.9082963],[139.093723,35.9082969],[139.0937021,35.9083064],[139.0936806,35.9083148],[139.0936583,35.908322],[139.0936357,35.9083281],[139.0936127,35.9083331],[139.09361121801803,35.90833333333333],[139.09339874275358,35.90833333333333],[139.0933642,35.9083309],[139.0933039,35.9083266],[139.0933267,35.9083073],[139.0933271,35.9083072],[139.0933274,35.9083071],[139.0933372,35.9083038],[139.0933475,35.908301],[139.0933579,35.9082986],[139.0933685,35.9082967],[139.0933762,35.9082957],[139.093379,35.9082953],[139.0933794,35.9082953],[139.0933828,35.9082949],[139.0933882,35.9082944],[139.0933886,35.9082944],[139.0933926,35.9082942],[139.0933992,35.9082939],[139.0934074,35.9082938],[139.0934098,35.9082938],[139.0934102,35.9082938],[139.0934207,35.9082942],[139.0934211,35.9082942],[139.0934315,35.9082951],[139.0934318,35.9082951],[139.0934421,35.9082964],[139.0934425,35.9082965],[139.0934529,35.9082983],[139.0934629,35.9083],[139.0934632,35.9083],[139.0934875,35.9083032],[139.0934879,35.9083032],[139.0935098,35.9083051],[139.0935111,35.9083052],[139.0935127,35.9083053],[139.0935253,35.908306],[139.09355,35.9083064],[139.0935503,35.9083065],[139.0935749,35.9083059],[139.0935755,35.9083058],[139.0935912,35.9083033],[139.0936014,35.9083012],[139.0936066,35.9083],[139.093622,35.9082962],[139.093637,35.9082916],[139.0936504,35.9082869],[139.0936161,35.9082506],[139.0936042,35.9082542],[139.0935918,35.9082574],[139.0935791,35.90826],[139.093569,35.9082617],[139.0935625,35.9082619],[139.0935502,35.9082622],[139.0935498,35.9082622],[139.0935317,35.9082618],[139.0935277,35.9082617],[139.0935173,35.9082612],[139.093517,35.9082612],[139.0934949,35.9082593],[139.0934731,35.9082564],[139.0934727,35.9082563],[139.0934642,35.908255],[139.0934638,35.9082549],[139.0934522,35.9082529],[139.0934386,35.9082511],[139.0934248,35.90825],[139.0934113,35.9082495],[139.0934109,35.9082494],[139.0933974,35.9082495],[139.0933971,35.9082496],[139.0933838,35.9082503],[139.0933835,35.9082503],[139.0933716,35.9082514],[139.0933582,35.9082532],[139.0933448,35.9082556],[139.0933445,35.9082557],[139.0933314,35.9082586],[139.0933183,35.9082622],[139.0933062,35.9082662],[139.0932949,35.9082702],[139.0932368,35.9083192],[139.093234,35.9083191],[139.0932885,35.9082019],[139.0932326,35.908145],[139.0931263,35.9081474],[139.0930749,35.908159],[139.0929351,35.9082207],[139.0928687,35.9082739],[139.0928476107527,35.90833333333333],[139.09279245348338,35.90833333333333]]]},"properties":{"layer":"landuse","class_code":"205","class_label":"その他自然地（原野・牧野、荒れ地（耕作放棄地等自然的状況のもの）、低湿地、河川敷・河原、海浜、湖岸）"}},{"type":"Feature","id":"luse_5e3c8556-72c4-47a7-91cb-73d72644b88e","geometry":{"type":"Polygon","coordinates":[[[139.09313605138888,35.90833333333333],[139.0931397,35.9083321],[139.0931549,35.908328],[139.0931704,35.9083246],[139.0931824,35.9083226],[139.0931861,35.908322],[139.0931934,35.9083212],[139.093202,35.9083203],[139.093218,35.9083193],[139.093234,35.9083191],[139.0932368,35.9083192],[139.0932949,35.9082702],[139.0933062,35.9082662],[139.0933183,35.9082622],[139.0933314,35.9082586],[139.0933445,35.9082557],[139.0933448,35.9082556],[139.0933582,35.9082532],[139.0933716,35.9082514],[139.0933835,35.9082503],[139.0933838,35.9082503],[139.0933971,35.9082496],[139.0933974,35.9082495],[139.0934109,35.9082494],[139.0934113,35.9082495],[139.0934248,35.90825],[139.0934386,35.9082511],[139.0934522,35.9082529],[139.0934638,35.9082549],[139.0934642,35.908255],[139.0934727,35.9082563],[139.0934731,35.9082564],[139.0934949,35.9082593],[139.093517,35.9082612],[139.0935173,35.9082612],[139.0935277,35.9082617],[139.0935317,35.9082618],[139.0935498,35.9082622],[139.0935502,35.9082622],[139.0935625,35.9082619],[139.093569,35.9082617],[139.0935791,35.90826],[139.0935918,35.9082574],[139.0936042,35.9082542],[139.0936161,35.9082506],[139.0936504,35.9082869],[139.093637,35.9082916],[139.093622,35.9082962],[139.0936066,35.9083],[139.0936014,35.9083012],[139.0935912,35.9083033],[139.0935755,35.9083058],[139.0935749,35.9083059],[139.0935503,35.9083065],[139.09355,35.9083064],[139.0935253,35.908306],[139.0935127,35.9083053],[139.0935111,35.9083052],[139.0935098,35.9083051],[139.0934879,35.9083032],[139.0934875,35.9083032],[139.0934632,35.9083],[139.0934629,35.9083],[139.0934529,35.9082983],[139.0934425,35.9082965],[139.0934421,35.9082964],[139.0934318,35.9082951],[139.0934315,35.9082951],[139.0934211,35.9082942],[139.0934207,35.9082942],[139.0934102,35.9082938],[139.0934098,35.9082938],[139.0934074,35.9082938],[139.0933992,35.9082939],[139.0933926,35.9082942],[139.0933886,35.9082944],[139.0933882,35.9082944],[139.0933828,35.9082949],[139.0933794,35.9082953],[139.093379,35.9082953],[139.0933762,35.9082957],[139.0933685,35.9082967],[139.0933579,35.9082986],[139.0933475,35.908301],[139.0933372,35.9083038],[139.0933274,35.9083071],[139.0933271,35.9083072],[139.0933267,35.9083073],[139.0933039,35.9083266],[139.0933642,35.9083309],[139.09339874275358,35.90833333333333],[139.09361121801803,35.90833333333333],[139.0936127,35.9083331],[139.0936357,35.9083281],[139.0936583,35.908322],[139.0936806,35.9083148],[139.0937021,35.9083064],[139.093723,35.9082969],[139.0937242,35.9082963],[139.0937492,35.9082835],[139.0938858,35.9082143],[139.0938862,35.9082141],[139.0940455,35.908129],[139.0940586,35.9081199],[139.0940722,35.9081114],[139.0940866,35.9081037],[139.0941016,35.9080967],[139.0941173,35.9080905],[139.094133,35.9080851],[139.0941437,35.908082],[139.094144,35.9080819],[139.0941604,35.9080779],[139.0941772,35.9080748],[139.0941943,35.9080725],[139.0942073,35.9080714],[139.0942115,35.9080711],[139.0942134,35.908071],[139.0942162,35.9080709],[139.0942288,35.9080705],[139.0942459,35.9080709],[139.0942632,35.9080721],[139.0942802,35.9080742],[139.0942902,35.9080759],[139.0943571,35.9080773],[139.0944734,35.9080797],[139.0945737,35.90808],[139.0946539,35.9080802],[139.0946542,35.9080802],[139.0947004,35.908079],[139.0947388,35.908078],[139.0947638,35.9080761],[139.0948231,35.9080716],[139.094839,35.9080699],[139.0948394,35.9080698],[139.0949227,35.9080583],[139.0949801,35.9080477],[139.09501,35.9080439],[139.0950103,35.9080439],[139.0950397,35.9080386],[139.0950401,35.9080385],[139.0950691,35.9080316],[139.0950978,35.9080233],[139.0951258,35.9080135],[139.0951513,35.908003],[139.0951774,35.9079905],[139.0952029,35.9079767],[139.0952268,35.9079617],[139.0952451,35.9079487],[139.0952499,35.9079453],[139.0952716,35.907928],[139.0952871,35.9079139],[139.0954296,35.9077563],[139.0955982,35.9076004],[139.0956114,35.9075883],[139.0956261,35.9075749],[139.0956409,35.9075617],[139.095656,35.9075484],[139.0956645,35.9075404],[139.0956707,35.9075349],[139.0956853,35.9075212],[139.0956993,35.9075073],[139.0957082,35.9074982],[139.0957264,35.9074781],[139.0957306,35.9074727],[139.0957383,35.9074627],[139.0957482,35.9074466],[139.0957544,35.9074331],[139.09576,35.907412],[139.0957616,35.9073938],[139.0957605,35.9073753],[139.095757,35.9073568],[139.0957513,35.9073386],[139.0957435,35.907321],[139.0957293,35.9072981],[139.0957221,35.9072884],[139.0957088,35.9072739],[139.0956942,35.9072603],[139.0956785,35.9072477],[139.0956616,35.9072358],[139.0956439,35.9072248],[139.0956252,35.9072142],[139.0956062,35.9072042],[139.0955869,35.9071946],[139.0955754,35.907189],[139.0955478,35.907176],[139.0955475,35.9071758],[139.0955284,35.9071665],[139.0955095,35.9071567],[139.0954919,35.9071461],[139.095475,35.9071347],[139.0954573,35.9071199],[139.0954458,35.907108],[139.0954339,35.9070927],[139.0954236,35.9070764],[139.0954152,35.9070594],[139.0954089,35.9070418],[139.0954052,35.9070278],[139.0954047,35.9070244],[139.0953924,35.9070084],[139.0953752,35.9069865],[139.0953692,35.9069777],[139.0953594,35.9069615],[139.0953503,35.906945],[139.0953409,35.9069272],[139.0953302,35.9069013],[139.0953271,35.906887],[139.0953249,35.9068663],[139.0953256,35.906846],[139.0953276,35.9068264],[139.0953305,35.9068069],[139.0953332,35.9067893],[139.0953363,35.9067709],[139.0953397,35.9067526],[139.0953438,35.9067341],[139.0953486,35.9067157],[139.0953523,35.9067037],[139.095361,35.9066791],[139.0953734,35.9066492],[139.0954046,35.9066577],[139.095405,35.9066578],[139.0953928,35.9066873],[139.0953845,35.9067108],[139.095381,35.9067218],[139.0953764,35.9067393],[139.0953725,35.906757],[139.0953691,35.9067748],[139.0953662,35.9067928],[139.0953635,35.9068102],[139.0953606,35.9068292],[139.0953588,35.9068474],[139.0953583,35.9068655],[139.09536,35.9068834],[139.0953627,35.9068946],[139.095372,35.9069177],[139.0953808,35.9069344],[139.095391,35.906956],[139.0953962,35.9069593],[139.0954033,35.9069559],[139.0954037,35.9069519],[139.0954065,35.9069339],[139.0954113,35.9069097],[139.0954138,35.9068979],[139.095418,35.9068801],[139.0954224,35.9068624],[139.0954272,35.9068447],[139.0954322,35.9068272],[139.0954379,35.9068098],[139.0954437,35.9067924],[139.0954501,35.9067751],[139.0954568,35.9067579],[139.0954638,35.9067409],[139.095469,35.9067292],[139.0954793,35.9067072],[139.0954876,35.9066904],[139.0954967,35.9066739],[139.0955062,35.9066576],[139.0955158,35.9066414],[139.0955264,35.9066254],[139.0955424,35.9066023],[139.0955486,35.9065941],[139.0955605,35.9065789],[139.0955729,35.9065639],[139.0955858,35.9065492],[139.0955991,35.9065348],[139.0956129,35.9065206],[139.0956272,35.9065067],[139.0956418,35.9064932],[139.0956571,35.90648],[139.0956732,35.9064665],[139.0956885,35.9064545],[139.0957048,35.9064422],[139.0957215,35.9064302],[139.0957386,35.9064187],[139.0957558,35.9064075],[139.0957737,35.9063967],[139.0957918,35.9063862],[139.0958103,35.9063761],[139.0958276,35.9063672],[139.0958481,35.9063571],[139.0958674,35.906348],[139.0958869,35.9063392],[139.0959063,35.9063304],[139.0959259,35.9063217],[139.0959451,35.9063128],[139.0959644,35.9063038],[139.0959833,35.9062945],[139.0960019,35.9062848],[139.09602,35.9062745],[139.0960395,35.9062624],[139.0960545,35.9062523],[139.0960709,35.9062402],[139.0960867,35.9062275],[139.0961019,35.9062145],[139.0961167,35.9062008],[139.096131,35.906187],[139.096145,35.9061728],[139.0961577,35.9061592],[139.0961694,35.9061465],[139.0961718,35.9061439],[139.0961846,35.9061293],[139.0961972,35.9061145],[139.0962098,35.9060996],[139.0962279,35.9060776],[139.0962342,35.9060695],[139.0962463,35.9060545],[139.0962585,35.9060393],[139.0962707,35.9060242],[139.0962828,35.906009],[139.0962949,35.9059939],[139.0963071,35.9059788],[139.0963195,35.9059638],[139.0963318,35.9059488],[139.0963445,35.9059339],[139.0963574,35.9059192],[139.0963704,35.9059046],[139.0963836,35.9058902],[139.0963971,35.9058759],[139.0964109,35.9058619],[139.0964251,35.9058481],[139.0964335,35.90584],[139.0964544,35.905821],[139.0964693,35.9058079],[139.0964849,35.905795],[139.0965003,35.9057822],[139.0965164,35.9057696],[139.0965324,35.9057572],[139.0965487,35.9057448],[139.0965649,35.9057327],[139.0965816,35.9057205],[139.0965981,35.9057085],[139.0966147,35.9056966],[139.0966285,35.9056865],[139.0966479,35.9056726],[139.0966645,35.9056606],[139.0966809,35.9056487],[139.0966972,35.9056366],[139.0967136,35.9056244],[139.0967297,35.9056121],[139.0967457,35.9055996],[139.0967614,35.9055869],[139.0967772,35.905574],[139.0967851,35.9055673],[139.0968076,35.9055473],[139.0968197,35.9055358],[139.0968219,35.9055335],[139.0968356,35.9055192],[139.096848,35.9055044],[139.0968553,35.9054946],[139.0968687,35.9054731],[139.0968768,35.9054567],[139.0968838,35.9054398],[139.0968897,35.9054224],[139.0968946,35.9054047],[139.0968988,35.9053868],[139.096902,35.9053686],[139.0969048,35.9053502],[139.0969071,35.9053318],[139.0969099,35.9053048],[139.0969107,35.9052947],[139.0969124,35.9052763],[139.0969135,35.9052579],[139.0969138,35.9052397],[139.0969135,35.9052216],[139.0969122,35.9052038],[139.0969099,35.9051861],[139.096905,35.9051653],[139.0969006,35.9051517],[139.0968938,35.9051349],[139.0968856,35.9051183],[139.0968765,35.905102],[139.0968664,35.9050858],[139.0968556,35.9050699],[139.0968441,35.9050541],[139.0968326,35.9050383],[139.0968208,35.9050226],[139.0968075,35.9050052],[139.0967972,35.9049912],[139.0967861,35.9049755],[139.0967751,35.9049596],[139.0967645,35.9049438],[139.096754,35.9049279],[139.0967441,35.9049119],[139.0967344,35.9048957],[139.0967253,35.9048793],[139.0967167,35.9048628],[139.0967086,35.9048461],[139.096703,35.9048341],[139.0966937,35.904812],[139.0966872,35.9047948],[139.0966816,35.9047773],[139.0966768,35.9047597],[139.0966727,35.9047394],[139.0966717,35.904731],[139.0966708,35.9047239],[139.0966694,35.904706],[139.0966688,35.904688],[139.0966688,35.9046699],[139.0966691,35.9046518],[139.0966695,35.9046424],[139.0966703,35.9046157],[139.0966709,35.9045978],[139.0966716,35.9045797],[139.0966722,35.9045617],[139.0966729,35.9045437],[139.0966736,35.9045257],[139.0966743,35.9045077],[139.0966752,35.9044806],[139.0966755,35.9044716],[139.096676,35.9044535],[139.0966766,35.9044354],[139.0966772,35.9044173],[139.096678,35.9043992],[139.0966791,35.9043811],[139.0966804,35.9043631],[139.096682,35.9043452],[139.0966839,35.9043273],[139.0966864,35.9043094],[139.09669,35.9042883],[139.0966927,35.9042741],[139.096697,35.9042565],[139.0967014,35.9042391],[139.0967067,35.9042217],[139.0967097,35.9042126],[139.0967122,35.9042044],[139.0967184,35.9041872],[139.096725,35.9041701],[139.0967323,35.9041531],[139.09674,35.904136],[139.0967479,35.9041191],[139.0967564,35.9041022],[139.0967654,35.9040853],[139.0967749,35.9040684],[139.0967854,35.9040506],[139.0967951,35.9040349],[139.096806,35.9040185],[139.0968178,35.9040029],[139.0968311,35.9039882],[139.0968458,35.903975],[139.0968665,35.9039613],[139.096881,35.9039542],[139.0969016,35.903947],[139.0969233,35.903942],[139.0969552,35.9039384],[139.0969556,35.9039384],[139.0969678,35.9039382],[139.0969681,35.9039382],[139.09699,35.9039394],[139.0970116,35.9039422],[139.0970119,35.9039423],[139.0970124,35.9039424],[139.0970128,35.9039425],[139.0970335,35.9039466],[139.0970548,35.9039522],[139.0970759,35.9039587],[139.0970967,35.9039658],[139.0971187,35.9039741],[139.0971378,35.9039815],[139.0971579,35.9039895],[139.0971779,35.9039978],[139.0971975,35.9040062],[139.097217,35.9040148],[139.0972364,35.9040235],[139.0972556,35.9040323],[139.0972747,35.9040413],[139.0972936,35.9040503],[139.0973128,35.9040594],[139.0973316,35.9040687],[139.0973505,35.9040779],[139.0973767,35.9040909],[139.0973882,35.9040967],[139.0974071,35.9041061],[139.097426,35.9041155],[139.0974449,35.9041249],[139.097464,35.9041342],[139.097483,35.9041434],[139.0975022,35.9041525],[139.0975215,35.9041614],[139.0975409,35.9041701],[139.0975606,35.9041786],[139.0975803,35.9041867],[139.0976001,35.9041948],[139.0976203,35.9042023],[139.0976334,35.904207],[139.097661,35.9042164],[139.0976818,35.9042228],[139.0977026,35.9042288],[139.0977236,35.9042345],[139.0977239,35.9042346],[139.097745,35.9042397],[139.0977664,35.9042446],[139.0977879,35.9042491],[139.0978095,35.9042531],[139.0978293,35.9042563],[139.0978531,35.9042599],[139.0978751,35.9042628],[139.097897,35.9042653],[139.0978973,35.9042653],[139.0979192,35.9042677],[139.0979414,35.9042699],[139.0979528,35.904271],[139.0979535,35.9042711],[139.0979632,35.9042721],[139.0979635,35.9042721],[139.0979854,35.9042743],[139.0980074,35.9042765],[139.0980292,35.9042787],[139.0980296,35.9042788],[139.0980512,35.9042812],[139.0980515,35.9042812],[139.0980731,35.904284],[139.0980949,35.9042871],[139.0981163,35.9042904],[139.0981167,35.9042905],[139.0981408,35.9042949],[139.0981594,35.9042988],[139.0981805,35.9043037],[139.0982016,35.9043091],[139.0982226,35.9043148],[139.0982434,35.9043209],[139.0982642,35.9043273],[139.0982803,35.9043325],[139.0982848,35.9043341],[139.0983056,35.9043409],[139.0983259,35.9043479],[139.0983464,35.9043551],[139.0983666,35.9043623],[139.0983669,35.9043624],[139.0983869,35.9043696],[139.0983872,35.9043697],[139.0984075,35.904377],[139.0984253,35.9043834],[139.0984257,35.9043835],[139.0984482,35.9043914],[139.0984686,35.9043986],[139.0984887,35.9044057],[139.0984891,35.9044058],[139.098518,35.9044161],[139.0985183,35.9044162],[139.0985293,35.9044202],[139.0985296,35.9044203],[139.0985309,35.9044206],[139.0985287,35.9044248],[139.0985474,35.9044317],[139.0985559,35.9044349],[139.0985673,35.904439],[139.0985676,35.9044392],[139.0985877,35.9044465],[139.0986078,35.904454],[139.0986279,35.9044616],[139.0986479,35.904469],[139.0986482,35.9044691],[139.0986681,35.9044765],[139.0986684,35.9044766],[139.0986792,35.9044806],[139.0986885,35.904484],[139.098717,35.9044944],[139.0987173,35.9044945],[139.0987289,35.9044986],[139.0987292,35.9044987],[139.0987383,35.9045019],[139.0987386,35.904502],[139.0987449,35.9045043],[139.0987492,35.9045059],[139.0987496,35.904506],[139.0987699,35.9045131],[139.0987856,35.9045187],[139.0987902,35.9045203],[139.0988105,35.9045276],[139.0988306,35.904535],[139.0988507,35.9045426],[139.0988704,35.9045503],[139.0988707,35.9045505],[139.0988902,35.9045585],[139.0988972,35.9045615],[139.0988999,35.9045576],[139.0989122,35.9045629],[139.0989284,35.9045703],[139.0989504,35.904581],[139.0989691,35.9045906],[139.098972,35.9045921],[139.0989876,35.9046004],[139.0990062,35.9046105],[139.0990244,35.9046208],[139.0990425,35.9046313],[139.0990605,35.9046419],[139.0990785,35.9046524],[139.0990964,35.9046631],[139.0991145,35.9046736],[139.0991327,35.904684],[139.099151,35.9046942],[139.0991693,35.9047043],[139.0991879,35.904714],[139.0992066,35.9047235],[139.0992301,35.9047346],[139.0992452,35.9047412],[139.0992649,35.9047495],[139.0992848,35.9047573],[139.0993051,35.9047647],[139.0993256,35.9047717],[139.0993464,35.9047782],[139.0993674,35.9047843],[139.0993883,35.90479],[139.0993886,35.9047901],[139.0994095,35.9047955],[139.0994099,35.9047956],[139.0994309,35.9048005],[139.0994313,35.9048005],[139.0994527,35.9048051],[139.0994745,35.9048093],[139.0994963,35.9048132],[139.0995109,35.9048156],[139.0995398,35.9048199],[139.0995401,35.9048199],[139.099562,35.9048228],[139.099584,35.9048253],[139.099606,35.9048275],[139.0996063,35.9048275],[139.0996283,35.9048294],[139.0996364,35.90483],[139.0996502,35.904831],[139.0996506,35.9048311],[139.0996726,35.9048324],[139.0996946,35.9048334],[139.099695,35.9048334],[139.099717,35.9048343],[139.0997393,35.9048348],[139.0997613,35.9048351],[139.0997617,35.9048351],[139.0997837,35.9048353],[139.0998059,35.9048351],[139.0998281,35.9048349],[139.09985,35.9048344],[139.0998504,35.9048344],[139.0998724,35.9048338],[139.0998944,35.904833],[139.0998948,35.904833],[139.0999167,35.904832],[139.0999314,35.9048313],[139.0999318,35.9048313],[139.0999606,35.9048298],[139.0999826,35.9048284],[139.1,35.904827128767124],[139.1,35.90391246153845],[139.099995,35.9039015],[139.099987,35.9038844],[139.0999793,35.9038672],[139.0999741,35.9038554],[139.0999642,35.9038326],[139.0999569,35.9038152],[139.0999497,35.9037977],[139.0999425,35.9037803],[139.0999358,35.9037627],[139.099929,35.9037451],[139.0999225,35.9037275],[139.0999161,35.9037098],[139.0999098,35.9036921],[139.0999037,35.9036744],[139.0998985,35.903659],[139.099892,35.9036388],[139.0998862,35.9036209],[139.099881,35.9036031],[139.0998755,35.9035852],[139.0998704,35.9035673],[139.0998653,35.9035494],[139.0998607,35.9035315],[139.099856,35.9035135],[139.0998512,35.9034956],[139.099847,35.9034777],[139.0998426,35.9034597],[139.0998385,35.9034417],[139.0998343,35.9034237],[139.0998297,35.9034028],[139.0998263,35.9033878],[139.0998227,35.9033699],[139.0998189,35.9033519],[139.0998152,35.9033342],[139.0998117,35.9033163],[139.0998081,35.9032985],[139.0998045,35.9032807],[139.0998007,35.9032631],[139.0997973,35.9032454],[139.0997937,35.9032277],[139.09979,35.9032101],[139.0997863,35.9031926],[139.0997822,35.9031751],[139.0997782,35.9031576],[139.0997742,35.9031402],[139.09977,35.9031229],[139.0997657,35.9031056],[139.0997612,35.9030884],[139.099755,35.9030659],[139.0997515,35.903054],[139.0997464,35.9030367],[139.0997408,35.9030192],[139.0997357,35.9030016],[139.0997302,35.9029838],[139.099725,35.902966],[139.0997197,35.9029479],[139.0997148,35.9029296],[139.0997101,35.9029112],[139.0997056,35.9028925],[139.0997018,35.9028737],[139.0996984,35.9028546],[139.0996956,35.9028353],[139.0996936,35.9028155],[139.0996923,35.9027963],[139.0996915,35.9027769],[139.0996916,35.9027575],[139.0996924,35.9027383],[139.0996936,35.9027192],[139.0996951,35.9027002],[139.0996971,35.9026796],[139.0996993,35.9026628],[139.0997015,35.9026444],[139.0997041,35.9026264],[139.0997063,35.9026087],[139.0997084,35.9025913],[139.0997101,35.9025742],[139.0997112,35.9025574],[139.0997119,35.902541],[139.0997121,35.9025251],[139.0997111,35.9025074],[139.0997097,35.9024935],[139.0997073,35.9024774],[139.0997043,35.902461],[139.0997009,35.9024442],[139.0996968,35.902427],[139.0996927,35.9024095],[139.0996883,35.9023915],[139.0996841,35.9023731],[139.0996798,35.9023527],[139.0996765,35.9023355],[139.0996733,35.9023165],[139.0996709,35.9022976],[139.0996688,35.9022787],[139.099667,35.90226],[139.0996656,35.9022412],[139.0996646,35.9022225],[139.0996638,35.9022039],[139.099663,35.9021854],[139.0996627,35.902167],[139.0996627,35.9021554],[139.0996626,35.9021302],[139.0996626,35.9021119],[139.0996628,35.9020936],[139.0996631,35.9020754],[139.0996635,35.9020571],[139.0996638,35.9020389],[139.0996644,35.9020208],[139.099665,35.9020026],[139.0996654,35.9019845],[139.099666,35.9019665],[139.0996668,35.9019484],[139.0996675,35.9019304],[139.0996682,35.9019123],[139.0996688,35.9018943],[139.0996695,35.9018764],[139.0996702,35.9018587],[139.0996708,35.9018406],[139.0996714,35.9018228],[139.0996718,35.9018049],[139.0996722,35.9017873],[139.0996723,35.9017696],[139.0996722,35.9017519],[139.0996722,35.9017343],[139.0996718,35.9017168],[139.0996714,35.9017062],[139.0996703,35.9016819],[139.0996693,35.9016646],[139.0996679,35.9016472],[139.0996663,35.9016298],[139.0996643,35.9016126],[139.0996621,35.9015955],[139.0996594,35.9015784],[139.0996565,35.9015613],[139.0996532,35.9015443],[139.0996496,35.9015275],[139.0996456,35.9015107],[139.0996412,35.9014941],[139.0996369,35.9014791],[139.0996311,35.9014612],[139.0996255,35.9014448],[139.0996195,35.9014285],[139.0996132,35.9014121],[139.0996065,35.9013959],[139.0995994,35.9013797],[139.0995918,35.9013636],[139.0995841,35.9013475],[139.0995759,35.9013314],[139.0995677,35.9013154],[139.099559,35.9012995],[139.0995502,35.9012836],[139.099541,35.9012678],[139.0995303,35.90125],[139.0995219,35.9012363],[139.0995122,35.9012206],[139.099502,35.9012052],[139.099492,35.9011898],[139.0994815,35.9011746],[139.099471,35.9011595],[139.0994602,35.9011446],[139.099449,35.9011298],[139.0994376,35.9011152],[139.0994262,35.9011008],[139.0994144,35.9010865],[139.0994023,35.9010725],[139.099384,35.901052],[139.0993775,35.9010449],[139.0993644,35.9010313],[139.0993512,35.9010181],[139.0993378,35.9010052],[139.099324,35.9009925],[139.09931,35.9009802],[139.0992955,35.9009682],[139.099281,35.9009565],[139.0992659,35.9009451],[139.0992505,35.9009342],[139.0992349,35.9009237],[139.0992116,35.9009093],[139.0992022,35.9009038],[139.0991842,35.9008939],[139.0991659,35.9008837],[139.0991467,35.9008733],[139.0991274,35.9008622],[139.0991076,35.9008502],[139.099088,35.9008373],[139.0990684,35.9008228],[139.0990457,35.9008026],[139.0990331,35.9007894],[139.0990183,35.9007713],[139.0990049,35.9007523],[139.0989936,35.9007331],[139.0989839,35.9007138],[139.0989789,35.9007026],[139.0989682,35.9006749],[139.098962,35.9006554],[139.0989566,35.9006363],[139.098952,35.9006175],[139.0989478,35.9005989],[139.0989443,35.9005806],[139.0989397,35.9005573],[139.0989373,35.9005449],[139.0989337,35.9005272],[139.0989299,35.9005095],[139.0989265,35.9004918],[139.0989229,35.9004741],[139.0989192,35.9004563],[139.0989154,35.9004385],[139.0989119,35.9004207],[139.098908,35.9004029],[139.0989045,35.9003851],[139.0989008,35.9003672],[139.0988972,35.9003493],[139.0988937,35.9003314],[139.09889,35.9003135],[139.0988868,35.9002956],[139.0988834,35.9002775],[139.0988801,35.9002596],[139.0988769,35.9002415],[139.0988742,35.9002266],[139.0988707,35.9002053],[139.0988677,35.9001873],[139.0988648,35.9001692],[139.0988623,35.9001512],[139.0988596,35.9001332],[139.098857,35.9001152],[139.0988545,35.9000972],[139.098852,35.9000792],[139.0988495,35.9000613],[139.098847,35.9000433],[139.0988445,35.9000255],[139.098842,35.9000075],[139.0988408687151,35.9],[139.0989050638889,35.9],[139.0989053,35.9000017],[139.0989078,35.9000196],[139.0989103,35.9000376],[139.0989127,35.9000554],[139.0989152,35.9000734],[139.0989178,35.9000912],[139.0989202,35.9001092],[139.0989229,35.9001271],[139.0989255,35.9001449],[139.0989282,35.9001628],[139.098931,35.9001806],[139.0989339,35.9001985],[139.0989374,35.9002195],[139.0989399,35.9002341],[139.0989431,35.900252],[139.0989464,35.9002698],[139.0989496,35.9002877],[139.0989531,35.9003054],[139.0989566,35.9003232],[139.0989601,35.900341],[139.0989637,35.9003588],[139.0989673,35.9003765],[139.098971,35.9003943],[139.0989746,35.9004121],[139.0989784,35.9004299],[139.098982,35.9004476],[139.0989857,35.9004654],[139.0989894,35.9004833],[139.098993,35.9005011],[139.0989966,35.9005189],[139.0990002,35.9005366],[139.0990026,35.9005491],[139.0990072,35.9005723],[139.0990108,35.9005901],[139.0990146,35.9006078],[139.099019,35.9006255],[139.0990238,35.9006431],[139.0990294,35.9006606],[139.0990392,35.900686],[139.0990434,35.9006951],[139.0990518,35.9007119],[139.0990616,35.9007284],[139.0990725,35.9007441],[139.0990849,35.900759],[139.0990944,35.9007691],[139.0991135,35.900786],[139.0991296,35.900798],[139.0991468,35.9008094],[139.0991645,35.9008201],[139.0991829,35.9008305],[139.0992014,35.9008408],[139.09922,35.900851],[139.0992387,35.9008613],[139.0992494,35.9008676],[139.0992746,35.9008831],[139.0992918,35.9008947],[139.0993085,35.9009066],[139.0993249,35.9009189],[139.0993407,35.9009315],[139.0993562,35.9009445],[139.0993713,35.9009577],[139.099386,35.9009713],[139.0994004,35.9009851],[139.0994143,35.9009991],[139.0994279,35.9010133],[139.0994352,35.9010211],[139.0994542,35.9010424],[139.099467,35.9010572],[139.0994793,35.9010721],[139.0994914,35.9010873],[139.0995032,35.9011025],[139.0995148,35.9011179],[139.0995261,35.9011335],[139.0995371,35.9011491],[139.0995478,35.9011649],[139.0995584,35.9011808],[139.0995687,35.9011968],[139.0995789,35.9012129],[139.0995876,35.9012272],[139.0995985,35.9012454],[139.0996079,35.9012618],[139.0996171,35.9012782],[139.0996262,35.9012948],[139.0996349,35.9013114],[139.0996433,35.9013281],[139.0996514,35.901345],[139.0996592,35.9013619],[139.0996666,35.9013789],[139.0996738,35.901396],[139.0996805,35.9014132],[139.0996869,35.9014304],[139.0996928,35.9014478],[139.0996987,35.9014667],[139.0997034,35.9014828],[139.099708,35.9015004],[139.0997123,35.9015181],[139.0997161,35.9015359],[139.0997195,35.9015537],[139.0997225,35.9015716],[139.0997253,35.9015895],[139.0997277,35.9016075],[139.0997297,35.9016255],[139.0997314,35.9016435],[139.0997329,35.9016615],[139.0997341,35.9016797],[139.0997352,35.9017046],[139.0997355,35.9017157],[139.0997359,35.9017337],[139.0997361,35.9017518],[139.099736,35.9017698],[139.0997359,35.9017878],[139.0997354,35.9018059],[139.0997351,35.9018239],[139.0997347,35.9018318],[139.099767,35.9018464],[139.0997709,35.9018469],[139.0998375,35.9018556],[139.0998393,35.9018558],[139.0998397,35.9018558],[139.099884,35.9018615],[139.1,35.90187655414013],[139.1,35.90192215544438],[139.0998832,35.9019071],[139.0998828,35.901907],[139.0998387,35.9019013],[139.0998384,35.9019013],[139.0997715,35.9018927],[139.0997582,35.9018909],[139.0997328,35.9018916],[139.0997326,35.901896],[139.0997319,35.901914],[139.0997312,35.9019319],[139.0997306,35.9019499],[139.0997299,35.901968],[139.0997292,35.901986],[139.0997287,35.902004],[139.099728,35.902022],[139.0997275,35.9020401],[139.0997272,35.9020581],[139.0997268,35.9020761],[139.0997265,35.9020941],[139.0997263,35.9021122],[139.0997263,35.9021302],[139.0997264,35.9021551],[139.0997265,35.9021663],[139.0997269,35.9021843],[139.0997275,35.9022024],[139.0997282,35.9022204],[139.0997292,35.9022384],[139.0997306,35.9022564],[139.0997322,35.9022744],[139.0997343,35.9022924],[139.0997368,35.9023103],[139.0997396,35.9023282],[139.0997427,35.9023444],[139.0997468,35.9023639],[139.0997509,35.9023817],[139.0997552,35.9023995],[139.0997595,35.9024173],[139.0997635,35.902435],[139.0997674,35.9024527],[139.0997706,35.9024705],[139.0997732,35.9024883],[139.0997749,35.9025042],[139.0997758,35.902524],[139.0997757,35.9025419],[139.099775,35.9025599],[139.0997736,35.9025779],[139.0997719,35.9025958],[139.0997698,35.9026138],[139.0997674,35.9026319],[139.099765,35.9026499],[139.0997627,35.902668],[139.0997607,35.9026843],[139.0997586,35.9027042],[139.0997571,35.9027223],[139.0997561,35.9027403],[139.0997555,35.9027583],[139.0997554,35.9027763],[139.0997559,35.9027943],[139.0997571,35.9028118],[139.099759,35.9028301],[139.0997616,35.9028479],[139.0997648,35.9028656],[139.0997684,35.9028834],[139.0997725,35.9029011],[139.099777,35.9029187],[139.0997819,35.9029364],[139.0997869,35.902954],[139.0997922,35.9029716],[139.0997975,35.9029892],[139.0998029,35.9030067],[139.0998082,35.9030243],[139.0998135,35.9030419],[139.099817,35.9030542],[139.0998233,35.9030773],[139.099828,35.9030949],[139.0998325,35.9031126],[139.0998368,35.9031303],[139.0998409,35.903148],[139.099845,35.9031658],[139.0998489,35.9031835],[139.0998527,35.9032013],[139.0998565,35.903219],[139.0998602,35.9032368],[139.0998638,35.9032546],[139.0998674,35.9032724],[139.099871,35.9032901],[139.0998746,35.9033078],[139.0998782,35.9033256],[139.0998818,35.9033434],[139.0998855,35.9033612],[139.0998892,35.903379],[139.0998924,35.9033938],[139.099897,35.9034144],[139.099901,35.9034321],[139.0999052,35.9034498],[139.0999095,35.9034675],[139.0999138,35.9034852],[139.0999183,35.9035029],[139.0999229,35.9035205],[139.0999278,35.9035381],[139.0999326,35.9035557],[139.0999376,35.9035733],[139.0999428,35.9035908],[139.0999481,35.9036083],[139.0999536,35.9036258],[139.0999601,35.9036456],[139.0999651,35.9036606],[139.0999711,35.903678],[139.0999771,35.9036953],[139.0999835,35.9037127],[139.0999899,35.9037299],[139.0999965,35.9037471],[139.1,35.903756085074605],[139.1,35.90488136088889],[139.0999882,35.9048822],[139.0999655,35.9048837],[139.0999359,35.9048853],[139.0999356,35.9048853],[139.0999204,35.9048861],[139.0998979,35.904887],[139.0998975,35.904887],[139.099875,35.9048878],[139.0998525,35.9048885],[139.0998521,35.9048885],[139.0998295,35.9048889],[139.0998066,35.9048892],[139.0997836,35.9048894],[139.0997608,35.9048892],[139.0997604,35.9048892],[139.0997377,35.9048888],[139.0997373,35.9048888],[139.0997147,35.9048882],[139.0997143,35.9048882],[139.0996914,35.9048874],[139.0996684,35.9048863],[139.099668,35.9048863],[139.099645,35.9048849],[139.099622,35.9048833],[139.0996216,35.9048832],[139.0995986,35.9048812],[139.0995755,35.9048789],[139.0995751,35.9048789],[139.0995522,35.9048762],[139.0995288,35.9048732],[139.0994984,35.9048687],[139.0994825,35.9048662],[139.0994595,35.9048621],[139.0994365,35.9048575],[139.0994136,35.9048526],[139.0993907,35.9048473],[139.0993682,35.9048416],[139.0993679,35.9048416],[139.0993454,35.9048354],[139.099323,35.9048288],[139.0993008,35.9048218],[139.0992788,35.9048143],[139.099257,35.9048063],[139.0992354,35.904798],[139.0992141,35.9047891],[139.0991977,35.9047817],[139.0991727,35.9047699],[139.0991525,35.9047598],[139.0991329,35.9047495],[139.0991136,35.904739],[139.0990945,35.9047283],[139.099076,35.9047177],[139.0990576,35.9047069],[139.0990394,35.9046963],[139.0990216,35.9046857],[139.0990039,35.9046753],[139.098986,35.904665],[139.0989683,35.9046551],[139.0989508,35.9046454],[139.0989332,35.904636],[139.0989158,35.9046271],[139.0988952,35.9046172],[139.0988804,35.9046104],[139.0988694,35.9046057],[139.0988718,35.9046016],[139.0988584,35.9045959],[139.0988459,35.9045908],[139.0988271,35.9045834],[139.0988268,35.9045832],[139.0988075,35.904576],[139.0987878,35.9045687],[139.098768,35.9045616],[139.098759,35.9045584],[139.0987478,35.9045544],[139.0987382,35.904551],[139.0987274,35.9045473],[139.098707,35.90454],[139.0987067,35.9045399],[139.0986948,35.9045356],[139.0986885,35.9045334],[139.0986657,35.9045251],[139.0986453,35.9045176],[139.098625,35.90451],[139.0986048,35.9045025],[139.0985848,35.9044951],[139.0985845,35.904495],[139.0985646,35.9044875],[139.0985447,35.9044801],[139.0985444,35.90448],[139.0985246,35.9044727],[139.0985098,35.9044674],[139.0985075,35.9044714],[139.0985025,35.9044697],[139.0985022,35.9044696],[139.0984914,35.9044657],[139.0984626,35.9044554],[139.0984622,35.9044552],[139.0984423,35.9044483],[139.098442,35.9044482],[139.0984219,35.9044411],[139.0984216,35.904441],[139.0983989,35.904433],[139.0983807,35.9044265],[139.0983603,35.9044192],[139.09834,35.9044118],[139.0983198,35.9044047],[139.0982999,35.9043977],[139.0982996,35.9043976],[139.0982798,35.9043907],[139.0982599,35.904384],[139.0982401,35.9043777],[139.0982204,35.9043716],[139.0982007,35.9043658],[139.0981813,35.9043605],[139.0981809,35.9043604],[139.0981616,35.9043555],[139.0981423,35.904351],[139.0981419,35.9043509],[139.0981255,35.9043475],[139.0981251,35.9043475],[139.098103,35.9043433],[139.0981027,35.9043433],[139.0980828,35.9043402],[139.0980625,35.9043373],[139.0980417,35.9043347],[139.0980205,35.9043323],[139.0979991,35.9043301],[139.0979776,35.9043279],[139.0979773,35.9043279],[139.0979554,35.9043258],[139.0979412,35.9043244],[139.0979332,35.9043236],[139.0979109,35.9043214],[139.0979105,35.9043213],[139.097888,35.9043189],[139.0978651,35.9043162],[139.0978422,35.9043132],[139.0978418,35.9043132],[139.0978168,35.9043094],[139.0977954,35.9043059],[139.0977723,35.9043016],[139.0977493,35.9042969],[139.0977265,35.9042917],[139.0977037,35.904286],[139.0976811,35.90428],[139.0976589,35.9042735],[139.0976365,35.9042666],[139.0976073,35.9042567],[139.0975928,35.9042516],[139.0975717,35.9042436],[139.0975506,35.9042351],[139.0975299,35.9042265],[139.0975094,35.9042177],[139.0974892,35.9042086],[139.0974691,35.9041994],[139.0974494,35.9041901],[139.0974297,35.9041807],[139.0974104,35.9041712],[139.0973912,35.9041617],[139.0973721,35.9041522],[139.0973533,35.9041428],[139.0973419,35.9041371],[139.0973159,35.9041242],[139.0972973,35.904115],[139.0972786,35.9041059],[139.0972601,35.9040969],[139.0972415,35.904088],[139.0972227,35.9040794],[139.097204,35.9040707],[139.0971851,35.9040623],[139.0971662,35.904054],[139.0971471,35.9040459],[139.0971279,35.9040379],[139.0971086,35.9040301],[139.0970906,35.9040232],[139.0970698,35.9040154],[139.0970511,35.9040088],[139.0970328,35.9040032],[139.0970153,35.9039987],[139.0969986,35.9039953],[139.0969827,35.9039932],[139.0969823,35.9039932],[139.0969666,35.9039924],[139.0969663,35.9039924],[139.0969606,35.9039924],[139.0969603,35.9039924],[139.096937,35.903995],[139.096924,35.903998],[139.0969113,35.9040025],[139.0969048,35.9040057],[139.0968918,35.9040143],[139.0968826,35.9040225],[139.0968731,35.9040331],[139.0968635,35.9040457],[139.096854,35.9040599],[139.0968451,35.9040743],[139.0968352,35.9040912],[139.096834,35.9040933],[139.0968263,35.9041072],[139.0968179,35.9041232],[139.0968097,35.9041391],[139.0968022,35.9041551],[139.096795,35.904171],[139.0967883,35.904187],[139.0967821,35.9042029],[139.0967763,35.9042189],[139.0967711,35.904235],[139.0967664,35.9042511],[139.0967621,35.9042672],[139.0967583,35.9042834],[139.0967557,35.9042963],[139.0967524,35.904316],[139.0967501,35.9043327],[139.0967483,35.9043495],[139.0967467,35.9043667],[139.0967454,35.904384],[139.0967445,35.9044014],[139.0967437,35.9044191],[139.096743,35.9044369],[139.0967424,35.9044549],[139.0967419,35.9044729],[139.0967416,35.9044821],[139.0967407,35.9045092],[139.09674,35.9045273],[139.0967394,35.9045453],[139.0967387,35.9045634],[139.096738,35.9045813],[139.0967373,35.9045993],[139.0967367,35.9046172],[139.0967358,35.9046438],[139.0967356,35.9046529],[139.0967352,35.9046703],[139.0967353,35.9046872],[139.0967358,35.9047035],[139.0967371,35.9047193],[139.0967388,35.9047321],[139.0967423,35.9047496],[139.0967463,35.9047647],[139.0967513,35.9047801],[139.0967569,35.9047955],[139.0967656,35.9048158],[139.0967705,35.9048266],[139.0967782,35.9048421],[139.0967798,35.9048452],[139.0967862,35.9048575],[139.0967947,35.9048727],[139.0968038,35.9048879],[139.0968132,35.9049031],[139.096823,35.9049182],[139.0968332,35.9049333],[139.0968438,35.9049484],[139.0968546,35.9049636],[139.0968647,35.9049772],[139.0968775,35.9049943],[139.0968894,35.9050103],[139.0969014,35.9050265],[139.0969135,35.9050433],[139.0969252,35.9050606],[139.0969363,35.9050784],[139.0969468,35.905097],[139.0969562,35.9051163],[139.0969643,35.9051362],[139.0969699,35.9051533],[139.0969723,35.9051635],[139.0969757,35.905178],[139.0969786,35.905199],[139.0969801,35.9052197],[139.0969804,35.9052399],[139.0969799,35.9052599],[139.0969788,35.9052794],[139.0969771,35.9052986],[139.0969762,35.905309],[139.0969734,35.9053368],[139.0969708,35.9053562],[139.096968,35.9053759],[139.0969644,35.9053957],[139.0969599,35.9054156],[139.0969544,35.9054355],[139.0969475,35.9054555],[139.0969394,35.9054755],[139.0969293,35.9054956],[139.0969136,35.9055209],[139.096904,35.9055337],[139.0968894,35.9055511],[139.0968737,35.9055676],[139.0968574,35.9055831],[139.0968335,35.9056043],[139.0968248,35.9056117],[139.0968085,35.9056251],[139.096792,35.9056383],[139.0967754,35.9056513],[139.0967588,35.905664],[139.0967421,35.9056765],[139.0967254,35.9056888],[139.0967086,35.905701],[139.096692,35.9057131],[139.0966727,35.9057269],[139.0966589,35.9057369],[139.0966424,35.9057489],[139.096626,35.9057608],[139.0966098,35.9057727],[139.0965939,35.9057846],[139.096578,35.9057966],[139.0965625,35.9058085],[139.0965472,35.9058207],[139.0965322,35.9058329],[139.0965176,35.9058452],[139.0965033,35.9058576],[139.0964835,35.9058756],[139.0964758,35.9058829],[139.0964625,35.905896],[139.0964494,35.9059093],[139.0964367,35.9059229],[139.0964239,35.9059367],[139.0964115,35.9059507],[139.0963991,35.9059649],[139.0963869,35.9059793],[139.0963748,35.905994],[139.0963627,35.9060087],[139.0963506,35.9060236],[139.0963386,35.9060385],[139.0963265,35.9060537],[139.0963144,35.9060688],[139.0963022,35.906084],[139.0962899,35.9060992],[139.0962833,35.9061075],[139.0962649,35.9061298],[139.0962521,35.9061452],[139.096239,35.9061604],[139.0962255,35.9061757],[139.096211,35.9061918],[139.0961973,35.9062061],[139.0961826,35.9062213],[139.0961671,35.9062362],[139.0961509,35.906251],[139.0961342,35.9062654],[139.0961165,35.9062795],[139.0960981,35.9062931],[139.096081,35.9063047],[139.096059,35.9063183],[139.0960389,35.9063297],[139.0960186,35.9063403],[139.0959983,35.9063503],[139.0959782,35.9063598],[139.0959582,35.906369],[139.0959385,35.9063778],[139.0959191,35.9063865],[139.0959002,35.9063951],[139.0958819,35.9064037],[139.0958626,35.9064131],[139.0958467,35.9064214],[139.0958296,35.9064307],[139.0958129,35.9064404],[139.0957966,35.9064504],[139.0957805,35.9064607],[139.0957647,35.9064713],[139.0957493,35.9064823],[139.0957342,35.9064937],[139.0957201,35.9065049],[139.0957052,35.9065173],[139.0956943,35.9065268],[139.0956912,35.9065294],[139.0956836,35.9065365],[139.0956777,35.906542],[139.0956751,35.9065446],[139.0956645,35.9065548],[139.0956518,35.9065678],[139.0956505,35.9065691],[139.0956395,35.9065812],[139.0956276,35.9065947],[139.0956162,35.9066085],[139.0956051,35.9066227],[139.0955999,35.9066297],[139.0955846,35.9066514],[139.0955752,35.906666],[139.095566,35.906681],[139.0955573,35.9066962],[139.0955489,35.9067116],[139.0955419,35.9067256],[139.0955412,35.9067271],[139.0955313,35.906748],[139.0955266,35.9067587],[139.0955199,35.9067748],[139.0955161,35.9067846],[139.0955137,35.9067909],[139.0955077,35.9068072],[139.0955022,35.9068237],[139.0954969,35.9068402],[139.095492,35.9068569],[139.0954874,35.9068737],[139.0954832,35.9068906],[139.0954792,35.9069077],[139.0954768,35.9069187],[139.0954724,35.9069415],[139.0954699,35.9069575],[139.0954682,35.906973],[139.0954677,35.9069879],[139.0954683,35.9070017],[139.0954708,35.907019],[139.0954733,35.9070285],[139.0954781,35.9070417],[139.0954842,35.9070541],[139.0954915,35.9070659],[139.0955,35.9070767],[139.0955074,35.9070843],[139.0955203,35.907095],[139.0955278,35.9071001],[139.0955327,35.9071034],[139.0955472,35.907112],[139.0955637,35.9071206],[139.0955814,35.9071294],[139.095609,35.9071425],[139.0956209,35.9071482],[139.0956212,35.9071483],[139.0956417,35.9071585],[139.0956624,35.9071694],[139.095683,35.9071811],[139.0957037,35.9071939],[139.0957233,35.9072078],[139.0957427,35.9072232],[139.0957608,35.9072399],[139.0957771,35.9072581],[139.0957875,35.9072717],[139.0957989,35.9072903],[139.0958046,35.9072996],[139.0958149,35.9073226],[139.0958224,35.9073459],[139.0958269,35.90737],[139.0958282,35.9073945],[139.095826,35.9074198],[139.0958183,35.9074483],[139.0958093,35.9074682],[139.0958056,35.9074742],[139.0957963,35.9074892],[139.0957815,35.9075085],[139.0957612,35.907531],[139.0957511,35.9075414],[139.0957359,35.9075562],[139.0957206,35.9075706],[139.0957065,35.9075836],[139.0957054,35.9075845],[139.0956903,35.9075981],[139.0956871,35.9076009],[139.0956054,35.9076731],[139.0957208,35.9079241],[139.0957264,35.9079376],[139.0957381,35.9079638],[139.0957512,35.9079894],[139.0957655,35.9080147],[139.0957813,35.9080393],[139.0957827,35.9080415],[139.0957997,35.9080656],[139.095818,35.9080891],[139.0958373,35.9081119],[139.0958383,35.9081125],[139.0958447,35.9081158],[139.0958535,35.9081208],[139.0958619,35.908126],[139.0958699,35.9081316],[139.0958777,35.9081374],[139.0958852,35.9081435],[139.0958922,35.9081498],[139.0958993,35.9081564],[139.0959057,35.9081632],[139.0959119,35.9081701],[139.0959177,35.9081774],[139.0959228,35.9081845],[139.0959279,35.9081921],[139.0959326,35.9081998],[139.0959368,35.9082077],[139.0959406,35.9082157],[139.095944,35.9082239],[139.095947,35.9082322],[139.0959496,35.9082405],[139.0959516,35.9082489],[139.0959533,35.9082574],[139.0959532,35.9082699],[139.0959537,35.9082904],[139.0959552,35.9083108],[139.0959579,35.9083312],[139.09595829075909,35.90833333333333],[139.09591339602449,35.90833333333333],[139.0959109,35.9083139],[139.0959094,35.9082919],[139.0959089,35.9082701],[139.0959088,35.9082601],[139.095908,35.9082554],[139.0959061,35.9082485],[139.095904,35.9082415],[139.0959018,35.9082348],[139.0958989,35.908228],[139.0958958,35.9082214],[139.0958923,35.9082149],[139.0958885,35.9082086],[139.0958843,35.9082023],[139.0958801,35.9081964],[139.0958752,35.9081905],[139.0958702,35.9081847],[139.0958648,35.9081791],[139.0958592,35.9081737],[139.0958533,35.9081685],[139.0958471,35.9081634],[139.0958407,35.9081587],[139.095834,35.9081541],[139.0958269,35.9081498],[139.0958199,35.9081456],[139.095806,35.9081382],[139.0957566,35.9081018],[139.0957117,35.9080673],[139.0956958,35.9080425],[139.0956801,35.9080148],[139.0956659,35.9079867],[139.0956532,35.9079585],[139.0956475,35.907945],[139.0955843,35.9078078],[139.0955741,35.9078043],[139.0955616,35.9078015],[139.0955597,35.9078012],[139.0955587,35.9078011],[139.0955531,35.9078003],[139.0955527,35.9078003],[139.0955422,35.9077998],[139.0955401,35.9077997],[139.0954984,35.9078018],[139.095465,35.9078333],[139.0954474,35.9078512],[139.0954422,35.9078566],[139.095403,35.9078999],[139.0953515,35.9079568],[139.0953316,35.9079747],[139.0952866,35.908021],[139.0952576,35.9080389],[139.0952275,35.9080554],[139.0951963,35.9080704],[139.0951656,35.9080829],[139.0951325,35.9080945],[139.0951322,35.9080947],[139.0950983,35.9081045],[139.0950979,35.9081046],[139.0950632,35.9081128],[139.0950279,35.9081192],[139.0950276,35.9081192],[139.0949978,35.908123],[139.0948947,35.908129],[139.0948374,35.9081323],[139.094837,35.9081323],[139.0948055,35.9081334],[139.0947665,35.9081348],[139.0947661,35.9081348],[139.0947216,35.9081351],[139.0946518,35.9081343],[139.0946514,35.9081343],[139.0944017,35.9081315],[139.0944014,35.9081315],[139.0943029,35.90813],[139.0943025,35.90813],[139.0942859,35.9081302],[139.0942855,35.9081302],[139.0942687,35.9081309],[139.0942581,35.9081317],[139.0942518,35.9081322],[139.0942352,35.9081341],[139.0942348,35.9081341],[139.0942183,35.9081365],[139.0942017,35.9081395],[139.0941888,35.9081423],[139.0941725,35.9081463],[139.0941564,35.9081508],[139.0941434,35.9081551],[139.0941407,35.908156],[139.0941253,35.9081616],[139.0941101,35.9081678],[139.0941071,35.908169],[139.0940087,35.9082143],[139.0939916,35.9082225],[139.0939222,35.9082596],[139.0938544,35.9082939],[139.09377640962964,35.90833333333333],[139.09313605138888,35.90833333333333]]]},"properties":{"layer":"landuse","class_code":"215","class_label":"道路用地（道路、駅前広場、私有地内に存在する沿道用途の「私道」または、私有地の一部分であるものの公共の通行に供されている土地の部分）"}},{"type":"Feature","id":"luse_0ba131cc-50a2-4149-aedf-32275fd0a21b","geometry":{"type":"Polygon","coordinates":[[[139.0875,35.90833333333333],[139.0875,35.9],[139.0988408687151,35.9],[139.098842,35.9000075],[139.0988445,35.9000255],[139.098847,35.9000433],[139.0988495,35.9000613],[139.098852,35.9000792],[139.0988545,35.9000972],[139.098857,35.9001152],[139.0988596,35.9001332],[139.0988623,35.9001512],[139.0988648,35.9001692],[139.0988677,35.9001873],[139.0988707,35.9002053],[139.0988742,35.9002266],[139.0988769,35.9002415],[139.0988801,35.9002596],[139.0988834,35.9002775],[139.0988868,35.9002956],[139.09889,35.9003135],[139.0988937,35.9003314],[139.0988972,35.9003493],[139.0989008,35.9003672],[139.0989045,35.9003851],[139.098908,35.9004029],[139.0989119,35.9004207],[139.0989154,35.9004385],[139.0989192,35.9004563],[139.0989229,35.9004741],[139.0989265,35.9004918],[139.0989299,35.9005095],[139.0989337,35.9005272],[139.0989373,35.9005449],[139.0989397,35.9005573],[139.0989443,35.9005806],[139.0989478,35.9005989],[139.098952,35.9006175],[139.0989566,35.9006363],[139.098962,35.9006554],[139.0989682,35.9006749],[139.0989789,35.9007026],[139.0989839,35.9007138],[139.0989936,35.9007331],[139.0990049,35.9007523],[139.0990183,35.9007713],[139.0990331,35.9007894],[139.0990457,35.9008026],[139.0990684,35.9008228],[139.099088,35.9008373],[139.0991076,35.9008502],[139.0991274,35.9008622],[139.0991467,35.9008733],[139.0991659,35.9008837],[139.0991842,35.9008939],[139.0992022,35.9009038],[139.0992116,35.9009093],[139.0992349,35.9009237],[139.0992505,35.9009342],[139.0992659,35.9009451],[139.099281,35.9009565],[139.0992955,35.9009682],[139.09931,35.9009802],[139.099324,35.9009925],[139.0993378,35.9010052],[139.0993512,35.9010181],[139.0993644,35.9010313],[139.0993775,35.9010449],[139.099384,35.901052],[139.0994023,35.9010725],[139.0994144,35.9010865],[139.0994262,35.9011008],[139.0994376,35.9011152],[139.099449,35.9011298],[139.0994602,35.9011446],[139.099471,35.9011595],[139.0994815,35.9011746],[139.099492,35.9011898],[139.099502,35.9012052],[139.0995122,35.9012206],[139.0995219,35.9012363],[139.0995303,35.90125],[139.099541,35.9012678],[139.0995502,35.9012836],[139.099559,35.9012995],[139.0995677,35.9013154],[139.0995759,35.9013314],[139.0995841,35.9013475],[139.0995918,35.9013636],[139.0995994,35.9013797],[139.0996065,35.9013959],[139.0996132,35.9014121],[139.0996195,35.9014285],[139.0996255,35.9014448],[139.0996311,35.9014612],[139.0996369,35.9014791],[139.0996412,35.9014941],[139.0996456,35.9015107],[139.0996496,35.9015275],[139.0996532,35.9015443],[139.0996565,35.9015613],[139.0996594,35.9015784],[139.0996621,35.9015955],[139.0996643,35.9016126],[139.0996663,35.9016298],[139.0996679,35.9016472],[139.0996693,35.9016646],[139.0996703,35.9016819],[139.0996714,35.9017062],[139.0996718,35.9017168],[139.0996722,35.9017343],[139.0996722,35.9017519],[139.0996723,35.9017696],[139.0996722,35.9017873],[139.0996718,35.9018049],[139.0996714,35.9018228],[139.0996708,35.9018406],[139.0996702,35.9018587],[139.0996695,35.9018764],[139.0996688,35.9018943],[139.0996682,35.9019123],[139.0996675,35.9019304],[139.0996668,35.9019484],[139.099666,35.9019665],[139.0996654,35.9019845],[139.099665,35.9020026],[139.0996644,35.9020208],[139.0996638,35.9020389],[139.0996635,35.9020571],[139.0996631,35.9020754],[139.0996628,35.9020936],[139.0996626,35.9021119],[139.0996626,35.9021302],[139.0996627,35.9021554],[139.0996627,35.902167],[139.099663,35.9021854],[139.0996638,35.9022039],[139.0996646,35.9022225],[139.0996656,35.9022412],[139.099667,35.90226],[139.0996688,35.9022787],[139.0996709,35.9022976],[139.0996733,35.9023165],[139.0996765,35.9023355],[139.0996798,35.9023527],[139.0996841,35.9023731],[139.0996883,35.9023915],[139.0996927,35.9024095],[139.0996968,35.902427],[139.0997009,35.9024442],[139.0997043,35.902461],[139.0997073,35.9024774],[139.0997097,35.9024935],[139.0997111,35.9025074],[139.0997121,35.9025251],[139.0997119,35.902541],[139.0997112,35.9025574],[139.0997101,35.9025742],[139.0997084,35.9025913],[139.0997063,35.9026087],[139.0997041,35.9026264],[139.0997015,35.9026444],[139.0996993,35.9026628],[139.0996971,35.9026796],[139.0996951,35.9027002],[139.0996936,35.9027192],[139.0996924,35.9027383],[139.0996916,35.9027575],[139.0996915,35.9027769],[139.0996923,35.9027963],[139.0996936,35.9028155],[139.0996956,35.9028353],[139.0996984,35.9028546],[139.0997018,35.9028737],[139.0997056,35.9028925],[139.0997101,35.9029112],[139.0997148,35.9029296],[139.0997197,35.9029479],[139.099725,35.902966],[139.0997302,35.9029838],[139.0997357,35.9030016],[139.0997408,35.9030192],[139.0997464,35.9030367],[139.0997515,35.903054],[139.099755,35.9030659],[139.0997612,35.9030884],[139.0997657,35.9031056],[139.09977,35.9031229],[139.0997742,35.9031402],[139.0997782,35.9031576],[139.0997822,35.9031751],[139.0997863,35.9031926],[139.09979,35.9032101],[139.0997937,35.9032277],[139.0997973,35.9032454],[139.0998007,35.9032631],[139.0998045,35.9032807],[139.0998081,35.9032985],[139.0998117,35.9033163],[139.0998152,35.9033342],[139.0998189,35.9033519],[139.0998227,35.9033699],[139.0998263,35.9033878],[139.0998297,35.9034028],[139.0998343,35.9034237],[139.0998385,35.9034417],[139.0998426,35.9034597],[139.099847,35.9034777],[139.0998512,35.9034956],[139.099856,35.9035135],[139.0998607,35.9035315],[139.0998653,35.9035494],[139.0998704,35.9035673],[139.0998755,35.9035852],[139.099881,35.9036031],[139.0998862,35.9036209],[139.099892,35.9036388],[139.0998985,35.903659],[139.0999037,35.9036744],[139.0999098,35.9036921],[139.0999161,35.9037098],[139.0999225,35.9037275],[139.099929,35.9037451],[139.0999358,35.9037627],[139.0999425,35.9037803],[139.0999497,35.9037977],[139.0999569,35.9038152],[139.0999642,35.9038326],[139.0999741,35.9038554],[139.0999793,35.9038672],[139.099987,35.9038844],[139.099995,35.9039015],[139.1,35.90391246153845],[139.1,35.904827128767124],[139.0999826,35.9048284],[139.0999606,35.9048298],[139.0999318,35.9048313],[139.0999314,35.9048313],[139.0999167,35.904832],[139.0998948,35.904833],[139.0998944,35.904833],[139.0998724,35.9048338],[139.0998504,35.9048344],[139.09985,35.9048344],[139.0998281,35.9048349],[139.0998059,35.9048351],[139.0997837,35.9048353],[139.0997617,35.9048351],[139.0997613,35.9048351],[139.0997393,35.9048348],[139.099717,35.9048343],[139.099695,35.9048334],[139.0996946,35.9048334],[139.0996726,35.9048324],[139.0996506,35.9048311],[139.0996502,35.904831],[139.0996364,35.90483],[139.0996283,35.9048294],[139.0996063,35.9048275],[139.099606,35.9048275],[139.099584,35.9048253],[139.099562,35.9048228],[139.0995401,35.9048199],[139.0995398,35.9048199],[139.0995109,35.9048156],[139.0994963,35.9048132],[139.0994745,35.9048093],[139.0994527,35.9048051],[139.0994313,35.9048005],[139.0994309,35.9048005],[139.0994099,35.9047956],[139.0994095,35.9047955],[139.0993886,35.9047901],[139.0993883,35.90479],[139.0993674,35.9047843],[139.0993464,35.9047782],[139.0993256,35.9047717],[139.0993051,35.9047647],[139.0992848,35.9047573],[139.0992649,35.9047495],[139.0992452,35.9047412],[139.0992301,35.9047346],[139.0992066,35.9047235],[139.0991879,35.904714],[139.0991693,35.9047043],[139.099151,35.9046942],[139.0991327,35.904684],[139.0991145,35.9046736],[139.0990964,35.9046631],[139.0990785,35.9046524],[139.0990605,35.9046419],[139.0990425,35.9046313],[139.0990244,35.9046208],[139.0990062,35.9046105],[139.0989876,35.9046004],[139.098972,35.9045921],[139.0989691,35.9045906],[139.0989504,35.904581],[139.0989284,35.9045703],[139.0989122,35.9045629],[139.0988999,35.9045576],[139.0988972,35.9045615],[139.0988902,35.9045585],[139.0988707,35.9045505],[139.0988704,35.9045503],[139.0988507,35.9045426],[139.0988306,35.904535],[139.0988105,35.9045276],[139.0987902,35.9045203],[139.0987856,35.9045187],[139.0987699,35.9045131],[139.0987496,35.904506],[139.0987492,35.9045059],[139.0987449,35.9045043],[139.0987386,35.904502],[139.0987383,35.9045019],[139.0987292,35.9044987],[139.0987289,35.9044986],[139.0987173,35.9044945],[139.098717,35.9044944],[139.0986885,35.904484],[139.0986792,35.9044806],[139.0986684,35.9044766],[139.0986681,35.9044765],[139.0986482,35.9044691],[139.0986479,35.904469],[139.0986279,35.9044616],[139.0986078,35.904454],[139.0985877,35.9044465],[139.0985676,35.9044392],[139.0985673,35.904439],[139.0985559,35.9044349],[139.0985474,35.9044317],[139.0985287,35.9044248],[139.0985309,35.9044206],[139.0985296,35.9044203],[139.0985293,35.9044202],[139.0985183,35.9044162],[139.098518,35.9044161],[139.0984891,35.9044058],[139.0984887,35.9044057],[139.0984686,35.9043986],[139.0984482,35.9043914],[139.0984257,35.9043835],[139.0984253,35.9043834],[139.0984075,35.904377],[139.0983872,35.9043697],[139.0983869,35.9043696],[139.0983669,35.9043624],[139.0983666,35.9043623],[139.0983464,35.9043551],[139.0983259,35.9043479],[139.0983056,35.9043409],[139.0982848,35.9043341],[139.0982803,35.9043325],[139.0982642,35.9043273],[139.0982434,35.9043209],[139.0982226,35.9043148],[139.0982016,35.9043091],[139.0981805,35.9043037],[139.0981594,35.9042988],[139.0981408,35.9042949],[139.0981167,35.9042905],[139.0981163,35.9042904],[139.0980949,35.9042871],[139.0980731,35.904284],[139.0980515,35.9042812],[139.0980512,35.9042812],[139.0980296,35.9042788],[139.0980292,35.9042787],[139.0980074,35.9042765],[139.0979854,35.9042743],[139.0979635,35.9042721],[139.0979632,35.9042721],[139.0979535,35.9042711],[139.0979528,35.904271],[139.0979414,35.9042699],[139.0979192,35.9042677],[139.0978973,35.9042653],[139.097897,35.9042653],[139.0978751,35.9042628],[139.0978531,35.9042599],[139.0978293,35.9042563],[139.0978095,35.9042531],[139.0977879,35.9042491],[139.0977664,35.9042446],[139.097745,35.9042397],[139.0977239,35.9042346],[139.0977236,35.9042345],[139.0977026,35.9042288],[139.0976818,35.9042228],[139.097661,35.9042164],[139.0976334,35.904207],[139.0976203,35.9042023],[139.0976001,35.9041948],[139.0975803,35.9041867],[139.0975606,35.9041786],[139.0975409,35.9041701],[139.0975215,35.9041614],[139.0975022,35.9041525],[139.097483,35.9041434],[139.097464,35.9041342],[139.0974449,35.9041249],[139.097426,35.9041155],[139.0974071,35.9041061],[139.0973882,35.9040967],[139.0973767,35.9040909],[139.0973505,35.9040779],[139.0973316,35.9040687],[139.0973128,35.9040594],[139.0972936,35.9040503],[139.0972747,35.9040413],[139.0972556,35.9040323],[139.0972364,35.9040235],[139.097217,35.9040148],[139.0971975,35.9040062],[139.0971779,35.9039978],[139.0971579,35.9039895],[139.0971378,35.9039815],[139.0971187,35.9039741],[139.0970967,35.9039658],[139.0970759,35.9039587],[139.0970548,35.9039522],[139.0970335,35.9039466],[139.0970128,35.9039425],[139.0970124,35.9039424],[139.0970119,35.9039423],[139.0970116,35.9039422],[139.09699,35.9039394],[139.0969681,35.9039382],[139.0969678,35.9039382],[139.0969556,35.9039384],[139.0969552,35.9039384],[139.0969233,35.903942],[139.0969016,35.903947],[139.096881,35.9039542],[139.0968665,35.9039613],[139.0968458,35.903975],[139.0968311,35.9039882],[139.0968178,35.9040029],[139.096806,35.9040185],[139.0967951,35.9040349],[139.0967854,35.9040506],[139.0967749,35.9040684],[139.0967654,35.9040853],[139.0967564,35.9041022],[139.0967479,35.9041191],[139.09674,35.904136],[139.0967323,35.9041531],[139.096725,35.9041701],[139.0967184,35.9041872],[139.0967122,35.9042044],[139.0967097,35.9042126],[139.0967067,35.9042217],[139.0967014,35.9042391],[139.096697,35.9042565],[139.0966927,35.9042741],[139.09669,35.9042883],[139.0966864,35.9043094],[139.0966839,35.9043273],[139.096682,35.9043452],[139.0966804,35.9043631],[139.0966791,35.9043811],[139.096678,35.9043992],[139.0966772,35.9044173],[139.0966766,35.9044354],[139.096676,35.9044535],[139.0966755,35.9044716],[139.0966752,35.9044806],[139.0966743,35.9045077],[139.0966736,35.9045257],[139.0966729,35.9045437],[139.0966722,35.9045617],[139.0966716,35.9045797],[139.0966709,35.9045978],[139.0966703,35.9046157],[139.0966695,35.9046424],[139.0966691,35.9046518],[139.0966688,35.9046699],[139.0966688,35.904688],[139.0966694,35.904706],[139.0966708,35.9047239],[139.0966717,35.904731],[139.0966727,35.9047394],[139.0966768,35.9047597],[139.0966816,35.9047773],[139.0966872,35.9047948],[139.0966937,35.904812],[139.096703,35.9048341],[139.0967086,35.9048461],[139.0967167,35.9048628],[139.0967253,35.9048793],[139.0967344,35.9048957],[139.0967441,35.9049119],[139.096754,35.9049279],[139.0967645,35.9049438],[139.0967751,35.9049596],[139.0967861,35.9049755],[139.0967972,35.9049912],[139.0968075,35.9050052],[139.0968208,35.9050226],[139.0968326,35.9050383],[139.0968441,35.9050541],[139.0968556,35.9050699],[139.0968664,35.9050858],[139.0968765,35.905102],[139.0968856,35.9051183],[139.0968938,35.9051349],[139.0969006,35.9051517],[139.096905,35.9051653],[139.0969099,35.9051861],[139.0969122,35.9052038],[139.0969135,35.9052216],[139.0969138,35.9052397],[139.0969135,35.9052579],[139.0969124,35.9052763],[139.0969107,35.9052947],[139.0969099,35.9053048],[139.0969071,35.9053318],[139.0969048,35.9053502],[139.096902,35.9053686],[139.0968988,35.9053868],[139.0968946,35.9054047],[139.0968897,35.9054224],[139.0968838,35.9054398],[139.0968768,35.9054567],[139.0968687,35.9054731],[139.0968553,35.9054946],[139.096848,35.9055044],[139.0968356,35.9055192],[139.0968219,35.9055335],[139.0968197,35.9055358],[139.0968076,35.9055473],[139.0967851,35.9055673],[139.0967772,35.905574],[139.0967614,35.9055869],[139.0967457,35.9055996],[139.0967297,35.9056121],[139.0967136,35.9056244],[139.0966972,35.9056366],[139.0966809,35.9056487],[139.0966645,35.9056606],[139.0966479,35.9056726],[139.0966285,35.9056865],[139.0966147,35.9056966],[139.0965981,35.9057085],[139.0965816,35.9057205],[139.0965649,35.9057327],[139.0965487,35.9057448],[139.0965324,35.9057572],[139.0965164,35.9057696],[139.0965003,35.9057822],[139.0964849,35.905795],[139.0964693,35.9058079],[139.0964544,35.905821],[139.0964335,35.90584],[139.0964251,35.9058481],[139.0964109,35.9058619],[139.0963971,35.9058759],[139.0963836,35.9058902],[139.0963704,35.9059046],[139.0963574,35.9059192],[139.0963445,35.9059339],[139.0963318,35.9059488],[139.0963195,35.9059638],[139.0963071,35.9059788],[139.0962949,35.9059939],[139.0962828,35.906009],[139.0962707,35.9060242],[139.0962585,35.9060393],[139.0962463,35.9060545],[139.0962342,35.9060695],[139.0962279,35.9060776],[139.0962098,35.9060996],[139.0961972,35.9061145],[139.0961846,35.9061293],[139.0961718,35.9061439],[139.0961694,35.9061465],[139.0961577,35.9061592],[139.096145,35.9061728],[139.096131,35.906187],[139.0961167,35.9062008],[139.0961019,35.9062145],[139.0960867,35.9062275],[139.0960709,35.9062402],[139.0960545,35.9062523],[139.0960395,35.9062624],[139.09602,35.9062745],[139.0960019,35.9062848],[139.0959833,35.9062945],[139.0959644,35.9063038],[139.0959451,35.9063128],[139.0959259,35.9063217],[139.0959063,35.9063304],[139.0958869,35.9063392],[139.0958674,35.906348],[139.0958481,35.9063571],[139.0958276,35.9063672],[139.0958103,35.9063761],[139.0957918,35.9063862],[139.0957737,35.9063967],[139.0957558,35.9064075],[139.0957386,35.9064187],[139.0957215,35.9064302],[139.0957048,35.9064422],[139.0956885,35.9064545],[139.0956732,35.9064665],[139.0956571,35.90648],[139.0956418,35.9064932],[139.0956272,35.9065067],[139.0956129,35.9065206],[139.0955991,35.9065348],[139.0955858,35.9065492],[139.0955729,35.9065639],[139.0955605,35.9065789],[139.0955486,35.9065941],[139.0955424,35.9066023],[139.0955264,35.9066254],[139.0955158,35.9066414],[139.0955062,35.9066576],[139.0954967,35.9066739],[139.0954876,35.9066904],[139.0954793,35.9067072],[139.095469,35.9067292],[139.0954638,35.9067409],[139.0954568,35.9067579],[139.0954501,35.9067751],[139.0954437,35.9067924],[139.0954379,35.9068098],[139.0954322,35.9068272],[139.0954272,35.9068447],[139.0954224,35.9068624],[139.095418,35.9068801],[139.0954138,35.9068979],[139.0954113,35.9069097],[139.0954065,35.9069339],[139.0954037,35.9069519],[139.0954033,35.9069559],[139.0953962,35.9069593],[139.095391,35.906956],[139.0953808,35.9069344],[139.095372,35.9069177],[139.0953627,35.9068946],[139.09536,35.9068834],[139.0953583,35.9068655],[139.0953588,35.9068474],[139.0953606,35.9068292],[139.0953635,35.9068102],[139.0953662,35.9067928],[139.0953691,35.9067748],[139.0953725,35.906757],[139.0953764,35.9067393],[139.095381,35.9067218],[139.0953845,35.9067108],[139.0953928,35.9066873],[139.095405,35.9066578],[139.0954046,35.9066577],[139.0953734,35.9066492],[139.095361,35.9066791],[139.0953523,35.9067037],[139.0953486,35.9067157],[139.0953438,35.9067341],[139.0953397,35.9067526],[139.0953363,35.9067709],[139.0953332,35.9067893],[139.0953305,35.9068069],[139.0953276,35.9068264],[139.0953256,35.906846],[139.0953249,35.9068663],[139.0953271,35.906887],[139.0953302,35.9069013],[139.0953409,35.9069272],[139.0953503,35.906945],[139.0953594,35.9069615],[139.0953692,35.9069777],[139.0953752,35.9069865],[139.0953924,35.9070084],[139.0954047,35.9070244],[139.0954052,35.9070278],[139.0954089,35.9070418],[139.0954152,35.9070594],[139.0954236,35.9070764],[139.0954339,35.9070927],[139.0954458,35.907108],[139.0954573,35.9071199],[139.095475,35.9071347],[139.0954919,35.9071461],[139.0955095,35.9071567],[139.0955284,35.9071665],[139.0955475,35.9071758],[139.0955478,35.907176],[139.0955754,35.907189],[139.0955869,35.9071946],[139.0956062,35.9072042],[139.0956252,35.9072142],[139.0956439,35.9072248],[139.0956616,35.9072358],[139.0956785,35.9072477],[139.0956942,35.9072603],[139.0957088,35.9072739],[139.0957221,35.9072884],[139.0957293,35.9072981],[139.0957435,35.907321],[139.0957513,35.9073386],[139.095757,35.9073568],[139.0957605,35.9073753],[139.0957616,35.9073938],[139.09576,35.907412],[139.0957544,35.9074331],[139.0957482,35.9074466],[139.0957383,35.9074627],[139.0957306,35.9074727],[139.0957264,35.9074781],[139.0957082,35.9074982],[139.0956993,35.9075073],[139.0956853,35.9075212],[139.0956707,35.9075349],[139.0956645,35.9075404],[139.095656,35.9075484],[139.0956409,35.9075617],[139.0956261,35.9075749],[139.0956114,35.9075883],[139.0955982,35.9076004],[139.0954296,35.9077563],[139.0952871,35.9079139],[139.0952716,35.907928],[139.0952499,35.9079453],[139.0952451,35.9079487],[139.0952208,35.9079039],[139.0952104,35.9078412],[139.095222,35.9077787],[139.0952741,35.9076866],[139.0953534,35.9076251],[139.0953869,35.9076074],[139.095401,35.9075992],[139.0953219,35.9075987],[139.0952703,35.9076259],[139.0951744,35.9076766],[139.095159,35.9076847],[139.0950633,35.907735],[139.0949853,35.9077728],[139.0949442,35.907782],[139.0948866,35.9077921],[139.0948645,35.9077952],[139.0948061,35.9078013],[139.0947472,35.9078043],[139.0946883,35.9078044],[139.0944637,35.9078099],[139.0942172,35.9078187],[139.094216,35.9078186],[139.0941866,35.9078184],[139.0941573,35.9078195],[139.0941282,35.9078222],[139.0940992,35.9078264],[139.0940708,35.9078321],[139.0940606,35.9078345],[139.0940327,35.907842],[139.0940055,35.9078511],[139.0939791,35.9078614],[139.0939536,35.9078732],[139.0939289,35.9078862],[139.0939054,35.9079004],[139.0938408,35.9079322],[139.0937111,35.9079184],[139.0934692,35.9079229],[139.0932857,35.9079576],[139.0931351,35.9079984],[139.0929918,35.9080491],[139.0929705,35.9080532],[139.0929496,35.9080584],[139.0929312,35.908064],[139.0929112,35.9080713],[139.0928918,35.9080794],[139.0928731,35.9080886],[139.0928551,35.9080987],[139.0928379,35.9081097],[139.0928218,35.9081215],[139.0928063,35.9081342],[139.0928052,35.908136],[139.0927914,35.9081605],[139.0927793,35.9081856],[139.0927769,35.9081916],[139.0927692,35.9082113],[139.0927665,35.9082193],[139.0927591,35.9082455],[139.0927536,35.9082721],[139.0927503,35.9082989],[139.0927491,35.9083259],[139.09274659374202,35.90833333333333],[139.0875,35.90833333333333]]]},"properties":{"layer":"landuse","class_code":"203","class_label":"山林（樹林地）"}}]}