{"type":"FeatureCollection","properties":{"mesh_code":"53396086","source":"PLATEAU秩父市2025","layer":"landuse"},"features":[{"type":"Feature","id":"luse_2961c0ef-3a73-46fe-9fe7-88024522c1fc","geometry":{"type":"Polygon","coordinates":[[[139.0791178,35.9065857],[139.0790873,35.9066497],[139.0790612,35.9066675],[139.0789458,35.9067136],[139.0789026,35.9066716],[139.0788662,35.9065916],[139.0788367,35.9065711],[139.0788026,35.9065524],[139.0787616,35.9065448],[139.0787276,35.9065448],[139.0786867,35.9065484],[139.0786457,35.9065502],[139.0785968,35.9065519],[139.0785639,35.906537],[139.0785593,35.9064887],[139.0785503,35.9064552],[139.0785276,35.9064347],[139.0784809,35.9064207],[139.0784196,35.9064123],[139.0783581,35.9064176],[139.0783116,35.9064492],[139.0782934,35.9064751],[139.0782752,35.9065029],[139.0782593,35.9065447],[139.0780343,35.9065266],[139.0779592,35.9065674],[139.0779319,35.9066137],[139.0779228,35.9066565],[139.0779247,35.9066989],[139.0778616,35.9066667],[139.0778006,35.9066452],[139.0777287,35.9066077],[139.077646,35.9065559],[139.0775916,35.9064953],[139.0775676,35.906456],[139.0775676,35.906408],[139.0775763,35.9063564],[139.0776155,35.9063049],[139.0777048,35.9062409],[139.0778333,35.9061754],[139.0780249,35.9061135],[139.0781179,35.9060917],[139.0782818,35.9060534],[139.078395,35.9060661],[139.0784541,35.9060938],[139.078456,35.9060947],[139.0785453,35.9061395],[139.0786106,35.9061592],[139.0786933,35.9061593],[139.0787673,35.9061435],[139.0788087,35.906124],[139.0788653,35.9060974],[139.0789197,35.9061171],[139.0791919,35.9062458],[139.0792355,35.9062744],[139.0792397,35.9063261],[139.0791614,35.9064737],[139.0791353,35.9065199],[139.0791178,35.9065857]]]},"properties":{"layer":"landuse","class_code":"202","class_label":"畑（畑、樹園地、採草地、養鶏（牛・豚）場）"}},{"type":"Feature","id":"luse_51ebf6c2-354b-43a5-b861-7d563718c3c6","geometry":{"type":"Polygon","coordinates":[[[139.0825462,35.9039879],[139.0826364,35.9040261],[139.0827702,35.9040811],[139.0828488,35.9041217],[139.0829011,35.9041503],[139.082747,35.9045401],[139.0826975,35.9046923],[139.0826422,35.9048469],[139.0825753,35.9048848],[139.0822727,35.9048436],[139.0821854,35.9048078],[139.0820574,35.9047837],[139.0820516,35.9046767],[139.08204,35.9045957],[139.0820312,35.9045077],[139.0820312,35.9044292],[139.0820429,35.9043293],[139.0820691,35.9042461],[139.0821068,35.9041748],[139.0821505,35.9041178],[139.0822465,35.9040514],[139.082296,35.9040182],[139.0823862,35.9039827],[139.0824298,35.903978],[139.0824793,35.903971],[139.0825462,35.9039879]]]},"properties":{"layer":"landuse","class_code":"211","class_label":"住宅用地（住宅、共同住宅、店舗等併用住宅、店舗等併用共同住宅、作業所併用住宅）"}},{"type":"Feature","id":"luse_e483f728-cd3e-416a-b81a-3d2bdc02e7a0","geometry":{"type":"Polygon","coordinates":[[[139.0788367,35.9065711],[139.0788662,35.9065916],[139.0789026,35.9066716],[139.0789458,35.9067136],[139.0789175,35.906758],[139.0788892,35.9068523],[139.0788489,35.9068745],[139.0787934,35.9068788],[139.0786541,35.9068732],[139.0783449,35.9067978],[139.078223,35.9067815],[139.0780858,35.9067598],[139.0779922,35.9067329],[139.0779247,35.9066989],[139.0779228,35.9066565],[139.0779319,35.9066137],[139.0779592,35.9065674],[139.0780343,35.9065266],[139.0782593,35.9065447],[139.0782752,35.9065029],[139.0782934,35.9064751],[139.0783116,35.9064492],[139.0783581,35.9064176],[139.0784196,35.9064123],[139.0784809,35.9064207],[139.0785276,35.9064347],[139.0785503,35.9064552],[139.0785593,35.9064887],[139.0785639,35.906537],[139.0785968,35.9065519],[139.0786457,35.9065502],[139.0786867,35.9065484],[139.0787276,35.9065448],[139.0787616,35.9065448],[139.0788026,35.9065524],[139.0788367,35.9065711]]]},"properties":{"layer":"landuse","class_code":"211","class_label":"住宅用地（住宅、共同住宅、店舗等併用住宅、店舗等併用共同住宅、作業所併用住宅）"}},{"type":"Feature","id":"luse_fade1f16-1c93-4c5f-9c65-8e12f9c1e853","geometry":{"type":"Polygon","coordinates":[[[139.0824021,35.9081443],[139.0824269,35.9081718],[139.0824926049835,35.90833333333333],[139.08233538866307,35.90833333333333],[139.082277,35.908195],[139.0822768,35.9081946],[139.0822967,35.9081579],[139.0823804,35.9081389],[139.0824021,35.9081443]]]},"properties":{"layer":"landuse","class_code":"211","class_label":"住宅用地（住宅、共同住宅、店舗等併用住宅、店舗等併用共同住宅、作業所併用住宅）"}},{"type":"Feature","id":"luse_575452f2-ba52-4895-8c54-8232448ddce9","geometry":{"type":"Polygon","coordinates":[[[139.0822944512014,35.90833333333333],[139.08220188800811,35.90833333333333],[139.0822246,35.9083049],[139.0822709,35.9082777],[139.0822944512014,35.90833333333333]]]},"properties":{"layer":"landuse","class_code":"211","class_label":"住宅用地（住宅、共同住宅、店舗等併用住宅、店舗等併用共同住宅、作業所併用住宅）"}},{"type":"Feature","id":"luse_485539c0-585a-43a6-a351-98d84fb301e3","geometry":{"type":"Polygon","coordinates":[[[139.0850501,35.9066233],[139.0849801,35.9065486],[139.0850718,35.9064917],[139.0851418,35.9065664],[139.0850501,35.9066233]]]},"properties":{"layer":"landuse","class_code":"214","class_label":"公益施設用地（官公庁施設、文教厚生施設、供給処理施設）"}},{"type":"Feature","id":"luse_5e3c8556-72c4-47a7-91cb-73d72644b88e","geometry":{"type":"Polygon","coordinates":[[[139.0822944512014,35.90833333333333],[139.0822709,35.9082777],[139.0822402,35.9082052],[139.0821148,35.9078997],[139.0820524,35.9077217],[139.0820191,35.9076138],[139.0819928,35.907516],[139.0819923,35.9075141],[139.0819886,35.9075032],[139.0819808,35.907479],[139.0819751,35.9074614],[139.0819691,35.9074438],[139.0819635,35.9074262],[139.0819578,35.9074085],[139.081952,35.9073907],[139.0819464,35.9073729],[139.0819408,35.9073551],[139.0819355,35.9073373],[139.08193,35.9073194],[139.0819246,35.9073015],[139.0819195,35.9072835],[139.0819145,35.9072656],[139.0819098,35.9072475],[139.0819052,35.9072295],[139.0819007,35.9072113],[139.0818964,35.9071931],[139.0818924,35.907175],[139.0818889,35.9071568],[139.0818854,35.9071385],[139.0818821,35.9071202],[139.0818792,35.9071018],[139.0818766,35.9070835],[139.0818743,35.9070651],[139.0818722,35.9070466],[139.0818709,35.9070282],[139.0818695,35.9070097],[139.0818689,35.9069911],[139.0818685,35.9069725],[139.0818684,35.9069539],[139.081869,35.9069353],[139.0818695,35.9069244],[139.0818715,35.906898],[139.0818732,35.9068795],[139.0818753,35.906861],[139.0818776,35.9068426],[139.08188,35.9068244],[139.0818829,35.9068062],[139.0818856,35.9067881],[139.0818883,35.9067701],[139.081891,35.9067523],[139.0818936,35.9067345],[139.0818961,35.9067167],[139.0818983,35.9066992],[139.0819002,35.9066817],[139.0819019,35.9066643],[139.0819032,35.906647],[139.0819039,35.9066299],[139.0819044,35.9066129],[139.0819041,35.906594],[139.0819036,35.906579],[139.0819024,35.906562],[139.0819005,35.9065451],[139.081898,35.9065282],[139.0818953,35.9065112],[139.0818919,35.9064944],[139.0818881,35.9064774],[139.0818838,35.9064604],[139.0818789,35.9064434],[139.0818739,35.9064265],[139.0818683,35.9064096],[139.0818623,35.9063927],[139.081856,35.9063758],[139.0818494,35.9063589],[139.0818424,35.906342],[139.0818351,35.9063252],[139.0818239,35.9063007],[139.0818197,35.9062917],[139.0818116,35.9062748],[139.0818032,35.9062581],[139.0817946,35.9062414],[139.0817859,35.9062246],[139.0817768,35.9062079],[139.0817678,35.9061913],[139.0817587,35.9061745],[139.0817494,35.9061579],[139.0817399,35.9061412],[139.0817305,35.9061244],[139.0817209,35.9061077],[139.0817117,35.906091],[139.0817022,35.9060742],[139.0816927,35.9060574],[139.0816835,35.9060406],[139.0816742,35.9060238],[139.0816651,35.9060068],[139.0816559,35.9059899],[139.0816471,35.9059728],[139.0816384,35.9059558],[139.0816299,35.9059387],[139.0816215,35.9059215],[139.0816136,35.9059042],[139.0816059,35.9058869],[139.0815986,35.9058694],[139.0815914,35.9058519],[139.0815847,35.9058344],[139.0815784,35.9058167],[139.0815723,35.9057989],[139.0815668,35.9057809],[139.0815615,35.905763],[139.0815569,35.9057448],[139.0815529,35.9057266],[139.0815495,35.9057082],[139.0815466,35.9056897],[139.0815441,35.905671],[139.0815418,35.905647],[139.0815411,35.9056335],[139.0815403,35.9056149],[139.0815401,35.9055964],[139.0815402,35.9055782],[139.0815401,35.9055603],[139.08154,35.9055425],[139.0815396,35.905525],[139.0815386,35.9055078],[139.0815377,35.9054959],[139.081535,35.9054739],[139.0815326,35.9054568],[139.0815295,35.9054394],[139.0815263,35.9054218],[139.0815228,35.9054041],[139.0815192,35.905386],[139.0815161,35.9053678],[139.0815132,35.9053493],[139.0815112,35.9053357],[139.0815089,35.9053117],[139.0815075,35.9052928],[139.0815068,35.905274],[139.0815065,35.9052553],[139.0815064,35.9052367],[139.0815069,35.9052182],[139.0815075,35.9051998],[139.0815084,35.9051814],[139.0815091,35.9051669],[139.0815104,35.905145],[139.0815115,35.9051268],[139.0815128,35.9051087],[139.0815141,35.9050906],[139.0815156,35.9050725],[139.081517,35.9050544],[139.0815185,35.9050364],[139.08152,35.9050184],[139.0815216,35.9050004],[139.081523,35.9049823],[139.0815247,35.9049644],[139.0815264,35.9049464],[139.081528,35.9049285],[139.0815296,35.9049105],[139.0815313,35.9048926],[139.0815328,35.9048747],[139.0815341,35.9048568],[139.0815358,35.9048388],[139.0815375,35.9048137],[139.0815384,35.904803],[139.0815397,35.904785],[139.081541,35.9047669],[139.0815423,35.9047488],[139.0815435,35.9047306],[139.081545,35.9047124],[139.0815465,35.9046942],[139.0815483,35.9046759],[139.08155,35.9046576],[139.0815522,35.9046392],[139.0815544,35.9046208],[139.081557,35.9046025],[139.08156,35.9045841],[139.0815633,35.9045657],[139.081567,35.9045474],[139.081571,35.9045289],[139.0815756,35.9045106],[139.0815785,35.9045],[139.0815861,35.9044742],[139.081592,35.9044562],[139.081598,35.9044384],[139.0816044,35.9044208],[139.0816108,35.9044033],[139.0816172,35.9043859],[139.0816236,35.9043686],[139.08163,35.9043516],[139.0816363,35.9043343],[139.081642,35.9043176],[139.0816477,35.9043005],[139.0816537,35.9042833],[139.0816595,35.9042659],[139.0816653,35.9042486],[139.0816713,35.904231],[139.0816775,35.9042135],[139.081684,35.9041958],[139.0816906,35.904178],[139.0816979,35.9041601],[139.0817084,35.9041356],[139.0817136,35.9041242],[139.0817225,35.9041063],[139.0817317,35.9040884],[139.0817418,35.9040706],[139.0817523,35.9040529],[139.0817635,35.9040355],[139.0817754,35.9040183],[139.0817878,35.9040014],[139.0818013,35.9039849],[139.0818153,35.9039688],[139.0818302,35.9039532],[139.0818458,35.9039381],[139.0818625,35.9039236],[139.0818799,35.9039098],[139.0818982,35.9038966],[139.0819172,35.9038844],[139.0819319,35.9038758],[139.081958,35.9038627],[139.081979,35.9038532],[139.0819996,35.9038444],[139.0820204,35.9038363],[139.0820455,35.9038268],[139.0820443,35.9038223],[139.0820839,35.9038152],[139.0821424,35.9038047],[139.0822145,35.9037918],[139.0822158,35.9037962],[139.0822537,35.9037926],[139.0822541,35.9037926],[139.0822767,35.9037906],[139.082277,35.9037905],[139.0823,35.9037885],[139.082323,35.9037867],[139.0823462,35.903785],[139.0823695,35.9037836],[139.0823926,35.9037824],[139.0824159,35.9037815],[139.0824389,35.903781],[139.0824392,35.903781],[139.0824623,35.9037809],[139.0824854,35.9037812],[139.0824857,35.9037812],[139.0825087,35.9037821],[139.0825318,35.9037835],[139.0825321,35.9037835],[139.0825551,35.9037855],[139.0825781,35.9037881],[139.0826011,35.9037914],[139.082624,35.9037955],[139.082649,35.9038009],[139.0826693,35.9038061],[139.0826832,35.9038101],[139.0826912,35.9038124],[139.0827128,35.9038191],[139.0827338,35.9038262],[139.0827547,35.9038335],[139.0827753,35.9038409],[139.0827957,35.9038483],[139.0828159,35.9038555],[139.0828359,35.9038625],[139.0828657,35.9038722],[139.0828757,35.9038753],[139.0828952,35.9038807],[139.0829138,35.9038849],[139.0829141,35.903885],[139.0829318,35.9038878],[139.0829322,35.9038879],[139.0829491,35.9038892],[139.0829495,35.9038892],[139.0829669,35.9038889],[139.0829825,35.9038869],[139.0829828,35.9038869],[139.0829992,35.9038831],[139.0830149,35.9038776],[139.0830294,35.9038706],[139.0830421,35.9038622],[139.0830479,35.9038572],[139.0830606,35.9038421],[139.0830671,35.9038304],[139.0830755,35.9038083],[139.0830772,35.9038018],[139.0830804,35.903786],[139.0830821,35.9037701],[139.0830834,35.9037534],[139.0830839,35.9037361],[139.083084,35.9037182],[139.0830843,35.9037002],[139.0830848,35.903681],[139.0830857,35.903662],[139.0830873,35.9036431],[139.0830892,35.9036241],[139.0830915,35.9036052],[139.0830947,35.9035863],[139.0830982,35.9035674],[139.0831025,35.9035486],[139.0831073,35.9035299],[139.0831128,35.9035113],[139.0831189,35.9034927],[139.083126,35.9034745],[139.0831335,35.9034563],[139.0831408,35.9034412],[139.0831516,35.9034208],[139.0831618,35.9034035],[139.0831723,35.9033864],[139.0831839,35.9033698],[139.0831959,35.9033534],[139.0832085,35.9033374],[139.0832215,35.9033216],[139.083235,35.9033061],[139.0832489,35.9032907],[139.0832631,35.9032757],[139.0832792,35.9032594],[139.0832925,35.9032465],[139.0833068,35.9032324],[139.083321,35.9032185],[139.0833342,35.9032049],[139.0833468,35.9031915],[139.083358,35.9031781],[139.0833676,35.9031651],[139.0833792,35.9031458],[139.0833829,35.9031382],[139.083389,35.9031233],[139.083394,35.9031079],[139.0833981,35.9030916],[139.0834019,35.9030744],[139.0834056,35.9030567],[139.0834096,35.9030359],[139.083413,35.90302],[139.0834172,35.9030018],[139.0834216,35.9029836],[139.0834262,35.9029656],[139.083431,35.9029477],[139.0834359,35.9029299],[139.0834411,35.9029122],[139.0834461,35.9028947],[139.0834514,35.9028771],[139.0834566,35.9028597],[139.0834618,35.9028417],[139.0834666,35.9028249],[139.0834718,35.9028074],[139.0834769,35.9027899],[139.083482,35.9027723],[139.083487,35.9027547],[139.0834922,35.902737],[139.0834974,35.9027194],[139.0835026,35.9027017],[139.0835079,35.9026841],[139.0835134,35.9026663],[139.083519,35.9026487],[139.0835247,35.902631],[139.0835305,35.9026133],[139.0835365,35.9025956],[139.0835428,35.902578],[139.0835493,35.9025604],[139.083556,35.9025428],[139.0835629,35.9025252],[139.0835701,35.9025077],[139.0835783,35.9024882],[139.0835853,35.9024729],[139.0835932,35.9024556],[139.0836015,35.9024385],[139.08361,35.9024214],[139.0836184,35.9024045],[139.0836271,35.9023877],[139.0836358,35.9023709],[139.0836446,35.9023542],[139.0836533,35.9023376],[139.0836621,35.902321],[139.0836709,35.9023045],[139.0836793,35.902288],[139.083688,35.9022715],[139.0836964,35.902255],[139.0837047,35.9022386],[139.0837127,35.9022222],[139.0837205,35.9022057],[139.0837281,35.9021893],[139.0837355,35.9021728],[139.0837409,35.9021601],[139.083749,35.9021397],[139.0837557,35.902123],[139.0837618,35.9021062],[139.0837678,35.9020893],[139.0837737,35.9020722],[139.0837792,35.9020551],[139.0837847,35.9020378],[139.0837898,35.9020206],[139.0837962,35.9019992],[139.0838004,35.9019857],[139.0838055,35.9019679],[139.0838108,35.9019501],[139.0838165,35.9019322],[139.0838225,35.9019142],[139.0838288,35.9018961],[139.0838357,35.9018782],[139.0838443,35.9018576],[139.0838514,35.9018424],[139.0838605,35.9018249],[139.0838701,35.9018076],[139.0838802,35.9017907],[139.0838907,35.901774],[139.0839021,35.9017575],[139.0839137,35.9017414],[139.0839256,35.9017254],[139.083938,35.9017096],[139.0839507,35.901694],[139.0839636,35.9016786],[139.0839768,35.9016634],[139.08399,35.9016483],[139.0840037,35.9016333],[139.0840172,35.9016185],[139.084031,35.9016038],[139.0840448,35.9015891],[139.0840584,35.9015745],[139.0840721,35.90156],[139.0840865,35.9015447],[139.0840991,35.9015311],[139.0841127,35.9015167],[139.0841261,35.9015022],[139.0841393,35.9014877],[139.0841525,35.9014732],[139.0841657,35.9014588],[139.0841787,35.9014443],[139.0841917,35.9014297],[139.0842045,35.9014151],[139.0842175,35.9014006],[139.0842302,35.901386],[139.0842429,35.9013713],[139.0842554,35.9013567],[139.084268,35.901342],[139.0842803,35.9013273],[139.0842926,35.9013125],[139.0843047,35.9012977],[139.0843171,35.9012829],[139.084329,35.901268],[139.084341,35.9012531],[139.0843528,35.9012382],[139.0843647,35.9012232],[139.0843764,35.9012082],[139.0843879,35.9011931],[139.0843995,35.9011779],[139.0844108,35.9011628],[139.0844221,35.9011475],[139.0844333,35.9011323],[139.0844445,35.9011169],[139.0844555,35.9011016],[139.0844664,35.9010861],[139.084477,35.9010706],[139.0844879,35.901055],[139.0844941,35.9010459],[139.0845087,35.9010236],[139.0845192,35.9010079],[139.0845298,35.900992],[139.0845401,35.900976],[139.0845504,35.90096],[139.0845605,35.9009441],[139.0845709,35.900928],[139.0845811,35.9009118],[139.0845912,35.9008957],[139.0846013,35.9008795],[139.0846117,35.9008634],[139.0846219,35.9008472],[139.0846324,35.900831],[139.0846426,35.9008148],[139.0846532,35.9007986],[139.0846636,35.9007826],[139.0846743,35.9007664],[139.084685,35.9007503],[139.0846956,35.9007344],[139.0847066,35.9007183],[139.0847178,35.9007024],[139.0847288,35.9006865],[139.0847403,35.9006707],[139.0847519,35.900655],[139.0847635,35.9006394],[139.0847754,35.9006239],[139.0847874,35.9006085],[139.0847999,35.9005931],[139.0848124,35.900578],[139.0848252,35.9005628],[139.084838,35.900548],[139.0848515,35.9005331],[139.0848654,35.900518],[139.0848787,35.900504],[139.0848927,35.9004897],[139.0849065,35.9004757],[139.0849208,35.9004618],[139.0849348,35.9004479],[139.0849487,35.9004341],[139.0849627,35.9004204],[139.0849765,35.9004067],[139.0849901,35.9003929],[139.0850034,35.900379],[139.0850165,35.900365],[139.0850294,35.9003509],[139.0850418,35.9003365],[139.0850539,35.900322],[139.0850667,35.9003058],[139.0850767,35.9002923],[139.0850869,35.9002773],[139.0850958,35.9002625],[139.0851033,35.9002478],[139.0851091,35.9002336],[139.085113,35.9002199],[139.0851152,35.9002047],[139.0851151,35.9001928],[139.0851133,35.9001781],[139.0851099,35.9001624],[139.0851052,35.9001457],[139.0851036,35.9001406],[139.0851007,35.9001306],[139.0850939,35.9001135],[139.0850869,35.9000974],[139.0850797,35.9000827],[139.0850715,35.9000691],[139.0850665,35.9000626],[139.0850518,35.9000465],[139.08504,35.9000365],[139.0850261,35.9000266],[139.0850105,35.9000172],[139.0849938,35.9000083],[139.08497633139535,35.9],[139.08505596949152,35.9],[139.0850706,35.9000104],[139.0850856,35.9000231],[139.0851035,35.9000424],[139.0851104,35.9000519],[139.0851201,35.900068],[139.0851284,35.9000847],[139.0851358,35.9001019],[139.0851428,35.9001195],[139.0851484,35.9001374],[139.0851533,35.9001552],[139.0851572,35.9001731],[139.0851594,35.9001909],[139.0851596,35.9002067],[139.0851568,35.900226],[139.0851518,35.9002434],[139.0851449,35.9002605],[139.0851362,35.9002774],[139.0851262,35.900294],[139.0851151,35.9003103],[139.0851043,35.9003248],[139.0850909,35.9003419],[139.0850783,35.9003571],[139.0850653,35.900372],[139.085052,35.9003866],[139.0850385,35.900401],[139.0850248,35.9004153],[139.0850109,35.9004293],[139.0849969,35.9004432],[139.084983,35.9004571],[139.084969,35.9004709],[139.084955,35.9004846],[139.084941,35.9004984],[139.0849273,35.9005123],[139.0849136,35.9005262],[139.0849006,35.9005399],[139.0848871,35.9005546],[139.0848741,35.900569],[139.0848615,35.9005835],[139.084849,35.9005982],[139.0848368,35.900613],[139.0848248,35.900628],[139.0848129,35.9006432],[139.0848013,35.9006583],[139.0847898,35.9006737],[139.0847785,35.9006891],[139.0847673,35.9007046],[139.0847563,35.9007202],[139.0847454,35.9007359],[139.0847346,35.9007517],[139.0847238,35.9007676],[139.0847132,35.9007835],[139.0847028,35.9007995],[139.0846923,35.9008155],[139.084682,35.9008315],[139.0846716,35.9008477],[139.0846613,35.9008637],[139.0846511,35.9008799],[139.0846408,35.9008961],[139.0846306,35.9009122],[139.0846205,35.9009284],[139.0846103,35.9009445],[139.0845999,35.9009606],[139.0845897,35.9009767],[139.0845793,35.9009929],[139.0845689,35.9010088],[139.0845584,35.9010248],[139.084548,35.9010408],[139.0845329,35.9010632],[139.0845266,35.9010725],[139.0845157,35.9010883],[139.0845048,35.901104],[139.0844938,35.9011196],[139.0844827,35.9011352],[139.0844715,35.9011506],[139.0844602,35.9011662],[139.0844487,35.9011815],[139.0844372,35.9011968],[139.0844256,35.9012121],[139.0844138,35.9012273],[139.0844021,35.9012426],[139.0843902,35.9012576],[139.0843782,35.9012728],[139.0843661,35.9012878],[139.084354,35.9013029],[139.0843418,35.9013177],[139.0843293,35.9013327],[139.084317,35.9013476],[139.0843044,35.9013624],[139.0842918,35.9013773],[139.0842791,35.901392],[139.0842664,35.9014068],[139.0842536,35.9014215],[139.0842406,35.9014362],[139.0842276,35.9014509],[139.0842145,35.9014655],[139.0842014,35.9014801],[139.0841882,35.9014947],[139.0841749,35.9015093],[139.0841615,35.9015238],[139.084148,35.9015383],[139.0841345,35.901553],[139.0841217,35.9015666],[139.0841073,35.9015819],[139.0840935,35.9015964],[139.0840799,35.901611],[139.0840662,35.9016255],[139.0840527,35.9016401],[139.0840392,35.9016547],[139.084026,35.9016694],[139.0840129,35.9016843],[139.084,35.9016992],[139.0839875,35.9017142],[139.0839752,35.9017292],[139.0839633,35.9017445],[139.0839517,35.9017598],[139.0839406,35.9017754],[139.0839299,35.9017911],[139.0839198,35.901807],[139.0839102,35.901823],[139.0839011,35.9018393],[139.0838927,35.9018557],[139.083886,35.9018699],[139.0838778,35.9018894],[139.0838713,35.9019065],[139.0838651,35.9019239],[139.0838594,35.9019412],[139.0838539,35.9019588],[139.0838487,35.9019764],[139.0838435,35.901994],[139.0838395,35.9020077],[139.083833,35.9020292],[139.0838276,35.9020467],[139.083822,35.9020642],[139.0838163,35.9020816],[139.0838105,35.902099],[139.0838044,35.9021164],[139.083798,35.9021336],[139.0837914,35.9021507],[139.0837828,35.9021718],[139.0837772,35.9021848],[139.0837698,35.9022018],[139.083762,35.9022186],[139.0837539,35.9022354],[139.0837458,35.9022521],[139.0837374,35.9022688],[139.0837289,35.9022854],[139.0837203,35.9023021],[139.0837115,35.9023187],[139.0837028,35.9023353],[139.083694,35.9023518],[139.0836852,35.9023684],[139.0836765,35.9023851],[139.083668,35.9024017],[139.0836594,35.9024183],[139.083651,35.902435],[139.0836428,35.9024517],[139.0836346,35.9024685],[139.0836268,35.9024854],[139.0836202,35.9025003],[139.083612,35.9025193],[139.083605,35.9025365],[139.0835982,35.9025536],[139.0835917,35.9025708],[139.0835853,35.9025881],[139.0835792,35.9026055],[139.0835733,35.9026228],[139.0835674,35.9026403],[139.0835619,35.9026577],[139.0835563,35.9026752],[139.0835509,35.9026927],[139.0835456,35.9027102],[139.0835404,35.9027278],[139.0835352,35.9027453],[139.0835302,35.902763],[139.0835251,35.9027805],[139.0835201,35.9027981],[139.0835149,35.9028156],[139.0835099,35.9028331],[139.083505,35.9028501],[139.0834997,35.9028681],[139.0834946,35.9028856],[139.0834894,35.902903],[139.0834843,35.9029205],[139.0834792,35.902938],[139.0834744,35.9029555],[139.0834696,35.9029731],[139.0834651,35.9029908],[139.0834607,35.9030086],[139.0834567,35.9030264],[139.0834533,35.9030419],[139.0834493,35.9030624],[139.0834456,35.9030805],[139.0834417,35.9030984],[139.0834371,35.9031162],[139.0834315,35.9031335],[139.0834248,35.9031504],[139.08342,35.9031604],[139.0834066,35.9031825],[139.0833952,35.9031976],[139.0833828,35.9032125],[139.0833694,35.903227],[139.0833554,35.9032413],[139.0833411,35.9032554],[139.0833266,35.9032695],[139.0833136,35.9032822],[139.083298,35.9032981],[139.0832843,35.9033125],[139.0832708,35.9033272],[139.083258,35.9033421],[139.0832455,35.9033571],[139.0832336,35.9033724],[139.0832223,35.9033878],[139.0832115,35.9034035],[139.0832014,35.9034194],[139.083192,35.9034356],[139.0831819,35.9034548],[139.0831753,35.9034687],[139.0831681,35.9034857],[139.0831615,35.9035028],[139.0831557,35.9035203],[139.0831504,35.9035378],[139.0831459,35.9035555],[139.0831419,35.9035734],[139.0831385,35.9035914],[139.0831357,35.9036094],[139.0831333,35.9036276],[139.0831314,35.9036458],[139.0831301,35.903664],[139.0831291,35.9036822],[139.0831286,35.9037008],[139.0831283,35.9037186],[139.0831281,35.9037367],[139.0831276,35.9037547],[139.0831265,35.9037727],[139.0831244,35.9037906],[139.0831209,35.9038084],[139.0831185,35.9038174],[139.0831087,35.9038434],[139.0830993,35.9038599],[139.0830826,35.9038799],[139.0830723,35.9038886],[139.0830548,35.9039003],[139.0830352,35.9039098],[139.0830142,35.9039171],[139.0829922,35.9039222],[139.0829707,35.9039249],[139.0829476,35.9039253],[139.0829257,35.9039235],[139.0829254,35.9039235],[139.0829145,35.9039217],[139.0829039,35.9039201],[139.0829035,35.90392],[139.0828821,35.9039152],[139.0828608,35.9039092],[139.0828498,35.9039059],[139.0828495,35.9039058],[139.0828188,35.9038958],[139.0827982,35.9038886],[139.0827776,35.9038812],[139.0827573,35.9038739],[139.082737,35.9038666],[139.0827167,35.9038594],[139.0826963,35.9038526],[139.0826758,35.9038462],[139.0826553,35.9038403],[139.0826367,35.9038356],[139.0826136,35.9038306],[139.0825927,35.9038268],[139.0825923,35.9038268],[139.0825711,35.9038238],[139.0825499,35.9038213],[139.0825495,35.9038213],[139.0825282,35.9038195],[139.0825278,35.9038194],[139.0825063,35.9038181],[139.082506,35.9038181],[139.0824841,35.9038173],[139.0824621,35.903817],[139.08244,35.9038171],[139.0824396,35.9038171],[139.0824176,35.9038176],[139.0824172,35.9038176],[139.0823952,35.9038184],[139.0823948,35.9038184],[139.0823724,35.9038196],[139.0823498,35.9038209],[139.0823274,35.9038226],[139.082327,35.9038226],[139.0823045,35.9038244],[139.0822818,35.9038264],[139.0822815,35.9038264],[139.0822589,35.9038284],[139.0822232,35.9038318],[139.0822242,35.9038362],[139.0821782,35.9038445],[139.0821326,35.9038526],[139.082061,35.9038654],[139.0820599,35.9038611],[139.0820596,35.9038612],[139.0820395,35.9038688],[139.0820196,35.9038768],[139.0819997,35.903885],[139.0819803,35.9038937],[139.0819651,35.9039015],[139.0819567,35.9039059],[139.0819438,35.9039133],[139.0819265,35.9039244],[139.08191,35.9039362],[139.0818941,35.9039488],[139.081879,35.903962],[139.0818646,35.9039758],[139.081851,35.9039902],[139.0818379,35.9040052],[139.0818254,35.9040206],[139.0818136,35.9040364],[139.0818025,35.9040527],[139.0817918,35.9040692],[139.0817819,35.9040859],[139.0817725,35.9041029],[139.0817636,35.9041199],[139.0817552,35.9041372],[139.0817502,35.9041478],[139.0817399,35.9041717],[139.081733,35.904189],[139.0817264,35.9042062],[139.08172,35.9042236],[139.081714,35.9042409],[139.0817081,35.9042581],[139.0817023,35.9042755],[139.0816965,35.9042928],[139.0816907,35.90431],[139.0816847,35.9043273],[139.0816788,35.9043443],[139.0816724,35.9043618],[139.0816721,35.9043628],[139.0816764,35.9043708],[139.0816994,35.9043702],[139.081739,35.904369],[139.0817387,35.9043734],[139.0817682,35.9043755],[139.081853,35.9043816],[139.0820319,35.9043944],[139.0820301,35.9044125],[139.0820297,35.9044124],[139.0818528,35.9043997],[139.0817599,35.9043931],[139.0817388,35.9043915],[139.0817382,35.904396],[139.0817091,35.9043969],[139.0816865,35.9043976],[139.0816825,35.9043978],[139.0816776,35.9043979],[139.0816595,35.9043964],[139.0816532,35.9044136],[139.0816468,35.904431],[139.0816407,35.9044482],[139.0816348,35.9044656],[139.0816291,35.9044831],[139.0816216,35.9045081],[139.081619,35.9045181],[139.0816146,35.9045358],[139.0816107,35.9045534],[139.0816071,35.9045712],[139.0816039,35.904589],[139.0816011,35.9046069],[139.0815985,35.9046248],[139.0815962,35.9046427],[139.0815943,35.9046607],[139.0815924,35.9046787],[139.0815907,35.9046967],[139.0815892,35.9047148],[139.0815878,35.9047328],[139.0815865,35.9047509],[139.0815852,35.9047689],[139.081584,35.9047871],[139.0815827,35.9048051],[139.0815818,35.904816],[139.0815799,35.9048412],[139.0815784,35.9048591],[139.0815769,35.9048771],[139.0815754,35.9048952],[139.0815738,35.9049132],[139.0815722,35.9049311],[139.0815706,35.9049491],[139.081569,35.904967],[139.0815674,35.904985],[139.0815659,35.905003],[139.0815643,35.9050209],[139.0815628,35.9050388],[139.0815613,35.9050569],[139.0815598,35.9050748],[139.0815584,35.9050928],[139.0815571,35.9051108],[139.0815558,35.9051288],[139.0815547,35.9051469],[139.0815534,35.9051686],[139.0815527,35.9051829],[139.0815518,35.9052009],[139.0815512,35.905219],[139.0815508,35.905237],[139.0815508,35.9052552],[139.0815511,35.9052732],[139.0815519,35.9052911],[139.081553,35.9053092],[139.0815555,35.9053323],[139.0815571,35.905345],[139.0815601,35.9053628],[139.0815632,35.9053807],[139.0815666,35.9053986],[139.0815701,35.9054164],[139.0815733,35.9054342],[139.0815765,35.9054521],[139.0815792,35.9054699],[139.0815818,35.905493],[139.081583,35.9055058],[139.0815839,35.905524],[139.0815843,35.905542],[139.0815844,35.9055601],[139.0815845,35.9055781],[139.0815845,35.9055962],[139.0815848,35.9056142],[139.0815854,35.9056321],[139.0815862,35.9056448],[139.0815882,35.9056677],[139.0815904,35.9056854],[139.0815934,35.905703],[139.0815968,35.9057205],[139.0816006,35.9057379],[139.0816051,35.9057552],[139.0816099,35.9057725],[139.0816152,35.9057897],[139.081621,35.9058068],[139.0816272,35.9058239],[139.0816336,35.9058409],[139.0816406,35.9058579],[139.0816477,35.9058748],[139.0816553,35.9058917],[139.0816631,35.9059086],[139.0816712,35.9059254],[139.0816794,35.9059421],[139.081688,35.905959],[139.0816967,35.9059757],[139.0817057,35.9059924],[139.0817147,35.9060092],[139.0817238,35.9060258],[139.0817332,35.9060425],[139.0817425,35.9060592],[139.081752,35.906076],[139.0817614,35.9060927],[139.0817708,35.9061095],[139.0817803,35.9061262],[139.0817898,35.9061429],[139.081799,35.9061597],[139.0818084,35.9061766],[139.0818175,35.9061935],[139.0818266,35.9062104],[139.0818354,35.9062274],[139.0818442,35.9062444],[139.0818527,35.9062614],[139.0818609,35.9062786],[139.0818654,35.906288],[139.0818768,35.9063129],[139.0818843,35.9063303],[139.0818915,35.9063476],[139.0818983,35.9063651],[139.0819049,35.9063825],[139.0819111,35.9064],[139.0819168,35.9064175],[139.0819221,35.9064352],[139.0819271,35.9064527],[139.0819316,35.9064705],[139.0819356,35.9064882],[139.0819391,35.9065059],[139.0819422,35.9065237],[139.0819446,35.9065416],[139.0819465,35.9065594],[139.0819478,35.9065773],[139.0819486,35.9065932],[139.0819487,35.906613],[139.0819483,35.9066309],[139.0819475,35.9066488],[139.0819461,35.9066667],[139.0819444,35.9066847],[139.0819424,35.9067027],[139.0819402,35.9067206],[139.0819377,35.9067386],[139.0819351,35.9067566],[139.0819324,35.9067746],[139.0819295,35.9067926],[139.0819268,35.9068106],[139.0819242,35.9068285],[139.0819217,35.9068465],[139.0819194,35.9068645],[139.0819174,35.9068824],[139.0819156,35.9069005],[139.0819139,35.9069261],[139.0819133,35.9069364],[139.0819129,35.9069543],[139.0819129,35.9069723],[139.0819131,35.9069902],[139.081914,35.9070081],[139.0819151,35.907026],[139.0819166,35.9070439],[139.0819184,35.9070618],[139.0819207,35.9070797],[139.0819232,35.9070975],[139.081926,35.9071154],[139.0819292,35.9071332],[139.0819326,35.907151],[139.0819363,35.9071688],[139.0819401,35.9071867],[139.0819442,35.9072045],[139.0819486,35.9072222],[139.0819532,35.90724],[139.0819579,35.9072577],[139.0819628,35.9072755],[139.0819679,35.9072932],[139.0819731,35.9073109],[139.0819784,35.9073286],[139.0819839,35.9073463],[139.0819894,35.907364],[139.081995,35.9073817],[139.0820007,35.9073993],[139.0820064,35.9074169],[139.0820121,35.9074346],[139.0820179,35.9074522],[139.0820236,35.9074698],[139.0820315,35.9074939],[139.0820351,35.9075049],[139.0820388,35.9075163],[139.0820618,35.907607],[139.0820898,35.9077135],[139.0821518,35.9078904],[139.0822768,35.9081946],[139.082277,35.908195],[139.08233538866307,35.90833333333333],[139.0822944512014,35.90833333333333]]]},"properties":{"layer":"landuse","class_code":"215","class_label":"道路用地（道路、駅前広場、私有地内に存在する沿道用途の「私道」または、私有地の一部分であるものの公共の通行に供されている土地の部分）"}},{"type":"Feature","id":"luse_0ba131cc-50a2-4149-aedf-32275fd0a21b","geometry":{"type":"MultiPolygon","coordinates":[[[[139.075,35.90833333333333],[139.075,35.9],[139.0875,35.9],[139.0875,35.90833333333333],[139.0824926049835,35.90833333333333],[139.0824269,35.9081718],[139.0824021,35.9081443],[139.0823804,35.9081389],[139.0822967,35.9081579],[139.0822768,35.9081946],[139.0821518,35.9078904],[139.0820898,35.9077135],[139.0820618,35.907607],[139.0820388,35.9075163],[139.0820351,35.9075049],[139.0820315,35.9074939],[139.0820236,35.9074698],[139.0820179,35.9074522],[139.0820121,35.9074346],[139.0820064,35.9074169],[139.0820007,35.9073993],[139.081995,35.9073817],[139.0819894,35.907364],[139.0819839,35.9073463],[139.0819784,35.9073286],[139.0819731,35.9073109],[139.0819679,35.9072932],[139.0819628,35.9072755],[139.0819579,35.9072577],[139.0819532,35.90724],[139.0819486,35.9072222],[139.0819442,35.9072045],[139.0819401,35.9071867],[139.0819363,35.9071688],[139.0819326,35.907151],[139.0819292,35.9071332],[139.081926,35.9071154],[139.0819232,35.9070975],[139.0819207,35.9070797],[139.0819184,35.9070618],[139.0819166,35.9070439],[139.0819151,35.907026],[139.081914,35.9070081],[139.0819131,35.9069902],[139.0819129,35.9069723],[139.0819129,35.9069543],[139.0819133,35.9069364],[139.0819139,35.9069261],[139.0819156,35.9069005],[139.0819174,35.9068824],[139.0819194,35.9068645],[139.0819217,35.9068465],[139.0819242,35.9068285],[139.0819268,35.9068106],[139.0819295,35.9067926],[139.0819324,35.9067746],[139.0819351,35.9067566],[139.0819377,35.9067386],[139.0819402,35.9067206],[139.0819424,35.9067027],[139.0819444,35.9066847],[139.0819461,35.9066667],[139.0819475,35.9066488],[139.0819483,35.9066309],[139.0819487,35.906613],[139.0819486,35.9065932],[139.0819478,35.9065773],[139.0819465,35.9065594],[139.0819446,35.9065416],[139.0819422,35.9065237],[139.0819391,35.9065059],[139.0819356,35.9064882],[139.0819316,35.9064705],[139.0819271,35.9064527],[139.0819221,35.9064352],[139.0819168,35.9064175],[139.0819111,35.9064],[139.0819049,35.9063825],[139.0818983,35.9063651],[139.0818915,35.9063476],[139.0818843,35.9063303],[139.0818768,35.9063129],[139.0818654,35.906288],[139.0818609,35.9062786],[139.0818527,35.9062614],[139.0818442,35.9062444],[139.0818354,35.9062274],[139.0818266,35.9062104],[139.0818175,35.9061935],[139.0818084,35.9061766],[139.081799,35.9061597],[139.0817898,35.9061429],[139.0817803,35.9061262],[139.0817708,35.9061095],[139.0817614,35.9060927],[139.081752,35.906076],[139.0817425,35.9060592],[139.0817332,35.9060425],[139.0817238,35.9060258],[139.0817147,35.9060092],[139.0817057,35.9059924],[139.0816967,35.9059757],[139.081688,35.905959],[139.0816794,35.9059421],[139.0816712,35.9059254],[139.0816631,35.9059086],[139.0816553,35.9058917],[139.0816477,35.9058748],[139.0816406,35.9058579],[139.0816336,35.9058409],[139.0816272,35.9058239],[139.081621,35.9058068],[139.0816152,35.9057897],[139.0816099,35.9057725],[139.0816051,35.9057552],[139.0816006,35.9057379],[139.0815968,35.9057205],[139.0815934,35.905703],[139.0815904,35.9056854],[139.0815882,35.9056677],[139.0815862,35.9056448],[139.0815854,35.9056321],[139.0815848,35.9056142],[139.0815845,35.9055962],[139.0815845,35.9055781],[139.0815844,35.9055601],[139.0815843,35.905542],[139.0815839,35.905524],[139.081583,35.9055058],[139.0815818,35.905493],[139.0815792,35.9054699],[139.0815765,35.9054521],[139.0815733,35.9054342],[139.0815701,35.9054164],[139.0815666,35.9053986],[139.0815632,35.9053807],[139.0815601,35.9053628],[139.0815571,35.905345],[139.0815555,35.9053323],[139.081553,35.9053092],[139.0815519,35.9052911],[139.0815511,35.9052732],[139.0815508,35.9052552],[139.0815508,35.905237],[139.0815512,35.905219],[139.0815518,35.9052009],[139.0815527,35.9051829],[139.0815534,35.9051686],[139.0815547,35.9051469],[139.0815558,35.9051288],[139.0815571,35.9051108],[139.0815584,35.9050928],[139.0815598,35.9050748],[139.0815613,35.9050569],[139.0815628,35.9050388],[139.0815643,35.9050209],[139.0815659,35.905003],[139.0815674,35.904985],[139.081569,35.904967],[139.0815706,35.9049491],[139.0815722,35.9049311],[139.0815738,35.9049132],[139.0815754,35.9048952],[139.0815769,35.9048771],[139.0815784,35.9048591],[139.0815799,35.9048412],[139.0815818,35.904816],[139.0815827,35.9048051],[139.081584,35.9047871],[139.0815852,35.9047689],[139.0815865,35.9047509],[139.0815878,35.9047328],[139.0815892,35.9047148],[139.0815907,35.9046967],[139.0815924,35.9046787],[139.0815943,35.9046607],[139.0815962,35.9046427],[139.0815985,35.9046248],[139.0816011,35.9046069],[139.0816039,35.904589],[139.0816071,35.9045712],[139.0816107,35.9045534],[139.0816146,35.9045358],[139.081619,35.9045181],[139.0816216,35.9045081],[139.0816291,35.9044831],[139.0816348,35.9044656],[139.0816407,35.9044482],[139.0816468,35.904431],[139.0816532,35.9044136],[139.0816595,35.9043964],[139.0816776,35.9043979],[139.0816825,35.9043978],[139.0816865,35.9043976],[139.0817091,35.9043969],[139.0817382,35.904396],[139.0817388,35.9043915],[139.0817599,35.9043931],[139.0818528,35.9043997],[139.0820297,35.9044124],[139.0820301,35.9044125],[139.0820319,35.9043944],[139.081853,35.9043816],[139.0817682,35.9043755],[139.0817387,35.9043734],[139.081739,35.904369],[139.0816994,35.9043702],[139.0816764,35.9043708],[139.0816721,35.9043628],[139.0816724,35.9043618],[139.0816788,35.9043443],[139.0816847,35.9043273],[139.0816907,35.90431],[139.0816965,35.9042928],[139.0817023,35.9042755],[139.0817081,35.9042581],[139.081714,35.9042409],[139.08172,35.9042236],[139.0817264,35.9042062],[139.081733,35.904189],[139.0817399,35.9041717],[139.0817502,35.9041478],[139.0817552,35.9041372],[139.0817636,35.9041199],[139.0817725,35.9041029],[139.0817819,35.9040859],[139.0817918,35.9040692],[139.0818025,35.9040527],[139.0818136,35.9040364],[139.0818254,35.9040206],[139.0818379,35.9040052],[139.081851,35.9039902],[139.0818646,35.9039758],[139.081879,35.903962],[139.0818941,35.9039488],[139.08191,35.9039362],[139.0819265,35.9039244],[139.0819438,35.9039133],[139.0819567,35.9039059],[139.0819651,35.9039015],[139.0819803,35.9038937],[139.0819997,35.903885],[139.0820196,35.9038768],[139.0820395,35.9038688],[139.0820596,35.9038612],[139.0820599,35.9038611],[139.082061,35.9038654],[139.0821326,35.9038526],[139.0821782,35.9038445],[139.0822242,35.9038362],[139.0822232,35.9038318],[139.0822589,35.9038284],[139.0822815,35.9038264],[139.0822818,35.9038264],[139.0823045,35.9038244],[139.082327,35.9038226],[139.0823274,35.9038226],[139.0823498,35.9038209],[139.0823724,35.9038196],[139.0823948,35.9038184],[139.0823952,35.9038184],[139.0824172,35.9038176],[139.0824176,35.9038176],[139.0824396,35.9038171],[139.08244,35.9038171],[139.0824621,35.903817],[139.0824841,35.9038173],[139.082506,35.9038181],[139.0825063,35.9038181],[139.0825278,35.9038194],[139.0825282,35.9038195],[139.0825495,35.9038213],[139.0825499,35.9038213],[139.0825711,35.9038238],[139.0825923,35.9038268],[139.0825927,35.9038268],[139.0826136,35.9038306],[139.0826367,35.9038356],[139.0826553,35.9038403],[139.0826758,35.9038462],[139.0826963,35.9038526],[139.0827167,35.9038594],[139.082737,35.9038666],[139.0827573,35.9038739],[139.0827776,35.9038812],[139.0827982,35.9038886],[139.0828188,35.9038958],[139.0828495,35.9039058],[139.0828498,35.9039059],[139.0828608,35.9039092],[139.0828821,35.9039152],[139.0829035,35.90392],[139.0829039,35.9039201],[139.0829145,35.9039217],[139.0829254,35.9039235],[139.0829257,35.9039235],[139.0829476,35.9039253],[139.0829707,35.9039249],[139.0829922,35.9039222],[139.0830142,35.9039171],[139.0830352,35.9039098],[139.0830548,35.9039003],[139.0830723,35.9038886],[139.0830826,35.9038799],[139.0830993,35.9038599],[139.0831087,35.9038434],[139.0831185,35.9038174],[139.0831209,35.9038084],[139.0831244,35.9037906],[139.0831265,35.9037727],[139.0831276,35.9037547],[139.0831281,35.9037367],[139.0831283,35.9037186],[139.0831286,35.9037008],[139.0831291,35.9036822],[139.0831301,35.903664],[139.0831314,35.9036458],[139.0831333,35.9036276],[139.0831357,35.9036094],[139.0831385,35.9035914],[139.0831419,35.9035734],[139.0831459,35.9035555],[139.0831504,35.9035378],[139.0831557,35.9035203],[139.0831615,35.9035028],[139.0831681,35.9034857],[139.0831753,35.9034687],[139.0831819,35.9034548],[139.083192,35.9034356],[139.0832014,35.9034194],[139.0832115,35.9034035],[139.0832223,35.9033878],[139.0832336,35.9033724],[139.0832455,35.9033571],[139.083258,35.9033421],[139.0832708,35.9033272],[139.0832843,35.9033125],[139.083298,35.9032981],[139.0833136,35.9032822],[139.0833266,35.9032695],[139.0833411,35.9032554],[139.0833554,35.9032413],[139.0833694,35.903227],[139.0833828,35.9032125],[139.0833952,35.9031976],[139.0834066,35.9031825],[139.08342,35.9031604],[139.0834248,35.9031504],[139.0834315,35.9031335],[139.0834371,35.9031162],[139.0834417,35.9030984],[139.0834456,35.9030805],[139.0834493,35.9030624],[139.0834533,35.9030419],[139.0834567,35.9030264],[139.0834607,35.9030086],[139.0834651,35.9029908],[139.0834696,35.9029731],[139.0834744,35.9029555],[139.0834792,35.902938],[139.0834843,35.9029205],[139.0834894,35.902903],[139.0834946,35.9028856],[139.0834997,35.9028681],[139.083505,35.9028501],[139.0835099,35.9028331],[139.0835149,35.9028156],[139.0835201,35.9027981],[139.0835251,35.9027805],[139.0835302,35.902763],[139.0835352,35.9027453],[139.0835404,35.9027278],[139.0835456,35.9027102],[139.0835509,35.9026927],[139.0835563,35.9026752],[139.0835619,35.9026577],[139.0835674,35.9026403],[139.0835733,35.9026228],[139.0835792,35.9026055],[139.0835853,35.9025881],[139.0835917,35.9025708],[139.0835982,35.9025536],[139.083605,35.9025365],[139.083612,35.9025193],[139.0836202,35.9025003],[139.0836268,35.9024854],[139.0836346,35.9024685],[139.0836428,35.9024517],[139.083651,35.902435],[139.0836594,35.9024183],[139.083668,35.9024017],[139.0836765,35.9023851],[139.0836852,35.9023684],[139.083694,35.9023518],[139.0837028,35.9023353],[139.0837115,35.9023187],[139.0837203,35.9023021],[139.0837289,35.9022854],[139.0837374,35.9022688],[139.0837458,35.9022521],[139.0837539,35.9022354],[139.083762,35.9022186],[139.0837698,35.9022018],[139.0837772,35.9021848],[139.0837828,35.9021718],[139.0837914,35.9021507],[139.083798,35.9021336],[139.0838044,35.9021164],[139.0838105,35.902099],[139.0838163,35.9020816],[139.083822,35.9020642],[139.0838276,35.9020467],[139.083833,35.9020292],[139.0838395,35.9020077],[139.0838435,35.901994],[139.0838487,35.9019764],[139.0838539,35.9019588],[139.0838594,35.9019412],[139.0838651,35.9019239],[139.0838713,35.9019065],[139.0838778,35.9018894],[139.083886,35.9018699],[139.0838927,35.9018557],[139.0839011,35.9018393],[139.0839102,35.901823],[139.0839198,35.901807],[139.0839299,35.9017911],[139.0839406,35.9017754],[139.0839517,35.9017598],[139.0839633,35.9017445],[139.0839752,35.9017292],[139.0839875,35.9017142],[139.084,35.9016992],[139.0840129,35.9016843],[139.084026,35.9016694],[139.0840392,35.9016547],[139.0840527,35.9016401],[139.0840662,35.9016255],[139.0840799,35.901611],[139.0840935,35.9015964],[139.0841073,35.9015819],[139.0841217,35.9015666],[139.0841345,35.901553],[139.084148,35.9015383],[139.0841615,35.9015238],[139.0841749,35.9015093],[139.0841882,35.9014947],[139.0842014,35.9014801],[139.0842145,35.9014655],[139.0842276,35.9014509],[139.0842406,35.9014362],[139.0842536,35.9014215],[139.0842664,35.9014068],[139.0842791,35.901392],[139.0842918,35.9013773],[139.0843044,35.9013624],[139.084317,35.9013476],[139.0843293,35.9013327],[139.0843418,35.9013177],[139.084354,35.9013029],[139.0843661,35.9012878],[139.0843782,35.9012728],[139.0843902,35.9012576],[139.0844021,35.9012426],[139.0844138,35.9012273],[139.0844256,35.9012121],[139.0844372,35.9011968],[139.0844487,35.9011815],[139.0844602,35.9011662],[139.0844715,35.9011506],[139.0844827,35.9011352],[139.0844938,35.9011196],[139.0845048,35.901104],[139.0845157,35.9010883],[139.0845266,35.9010725],[139.0845329,35.9010632],[139.084548,35.9010408],[139.0845584,35.9010248],[139.0845689,35.9010088],[139.0845793,35.9009929],[139.0845897,35.9009767],[139.0845999,35.9009606],[139.0846103,35.9009445],[139.0846205,35.9009284],[139.0846306,35.9009122],[139.0846408,35.9008961],[139.0846511,35.9008799],[139.0846613,35.9008637],[139.0846716,35.9008477],[139.084682,35.9008315],[139.0846923,35.9008155],[139.0847028,35.9007995],[139.0847132,35.9007835],[139.0847238,35.9007676],[139.0847346,35.9007517],[139.0847454,35.9007359],[139.0847563,35.9007202],[139.0847673,35.9007046],[139.0847785,35.9006891],[139.0847898,35.9006737],[139.0848013,35.9006583],[139.0848129,35.9006432],[139.0848248,35.900628],[139.0848368,35.900613],[139.084849,35.9005982],[139.0848615,35.9005835],[139.0848741,35.900569],[139.0848871,35.9005546],[139.0849006,35.9005399],[139.0849136,35.9005262],[139.0849273,35.9005123],[139.084941,35.9004984],[139.084955,35.9004846],[139.084969,35.9004709],[139.084983,35.9004571],[139.0849969,35.9004432],[139.0850109,35.9004293],[139.0850248,35.9004153],[139.0850385,35.900401],[139.085052,35.9003866],[139.0850653,35.900372],[139.0850783,35.9003571],[139.0850909,35.9003419],[139.0851043,35.9003248],[139.0851151,35.9003103],[139.0851262,35.900294],[139.0851362,35.9002774],[139.0851449,35.9002605],[139.0851518,35.9002434],[139.0851568,35.900226],[139.0851596,35.9002067],[139.0851594,35.9001909],[139.0851572,35.9001731],[139.0851533,35.9001552],[139.0851484,35.9001374],[139.0851428,35.9001195],[139.0851358,35.9001019],[139.0851284,35.9000847],[139.0851201,35.900068],[139.0851104,35.9000519],[139.0851035,35.9000424],[139.0850856,35.9000231],[139.0850706,35.9000104],[139.08505596949152,35.9],[139.08497633139535,35.9],[139.0849938,35.9000083],[139.0850105,35.9000172],[139.0850261,35.9000266],[139.08504,35.9000365],[139.0850518,35.9000465],[139.0850665,35.9000626],[139.0850715,35.9000691],[139.0850797,35.9000827],[139.0850869,35.9000974],[139.0850939,35.9001135],[139.0851007,35.9001306],[139.0851036,35.9001406],[139.0851052,35.9001457],[139.0851099,35.9001624],[139.0851133,35.9001781],[139.0851151,35.9001928],[139.0851152,35.9002047],[139.085113,35.9002199],[139.0851091,35.9002336],[139.0851033,35.9002478],[139.0850958,35.9002625],[139.0850869,35.9002773],[139.0850767,35.9002923],[139.0850667,35.9003058],[139.0850539,35.900322],[139.0850418,35.9003365],[139.0850294,35.9003509],[139.0850165,35.900365],[139.0850034,35.900379],[139.0849901,35.9003929],[139.0849765,35.9004067],[139.0849627,35.9004204],[139.0849487,35.9004341],[139.0849348,35.9004479],[139.0849208,35.9004618],[139.0849065,35.9004757],[139.0848927,35.9004897],[139.0848787,35.900504],[139.0848654,35.900518],[139.0848515,35.9005331],[139.084838,35.900548],[139.0848252,35.9005628],[139.0848124,35.900578],[139.0847999,35.9005931],[139.0847874,35.9006085],[139.0847754,35.9006239],[139.0847635,35.9006394],[139.0847519,35.900655],[139.0847403,35.9006707],[139.0847288,35.9006865],[139.0847178,35.9007024],[139.0847066,35.9007183],[139.0846956,35.9007344],[139.084685,35.9007503],[139.0846743,35.9007664],[139.0846636,35.9007826],[139.0846532,35.9007986],[139.0846426,35.9008148],[139.0846324,35.900831],[139.0846219,35.9008472],[139.0846117,35.9008634],[139.0846013,35.9008795],[139.0845912,35.9008957],[139.0845811,35.9009118],[139.0845709,35.900928],[139.0845605,35.9009441],[139.0845504,35.90096],[139.0845401,35.900976],[139.0845298,35.900992],[139.0845192,35.9010079],[139.0845087,35.9010236],[139.0844941,35.9010459],[139.0844879,35.901055],[139.084477,35.9010706],[139.0844664,35.9010861],[139.0844555,35.9011016],[139.0844445,35.9011169],[139.0844333,35.9011323],[139.0844221,35.9011475],[139.0844108,35.9011628],[139.0843995,35.9011779],[139.0843879,35.9011931],[139.0843764,35.9012082],[139.0843647,35.9012232],[139.0843528,35.9012382],[139.084341,35.9012531],[139.084329,35.901268],[139.0843171,35.9012829],[139.0843047,35.9012977],[139.0842926,35.9013125],[139.0842803,35.9013273],[139.084268,35.901342],[139.0842554,35.9013567],[139.0842429,35.9013713],[139.0842302,35.901386],[139.0842175,35.9014006],[139.0842045,35.9014151],[139.0841917,35.9014297],[139.0841787,35.9014443],[139.0841657,35.9014588],[139.0841525,35.9014732],[139.0841393,35.9014877],[139.0841261,35.9015022],[139.0841127,35.9015167],[139.0840991,35.9015311],[139.0840865,35.9015447],[139.0840721,35.90156],[139.0840584,35.9015745],[139.0840448,35.9015891],[139.084031,35.9016038],[139.0840172,35.9016185],[139.0840037,35.9016333],[139.08399,35.9016483],[139.0839768,35.9016634],[139.0839636,35.9016786],[139.0839507,35.901694],[139.083938,35.9017096],[139.0839256,35.9017254],[139.0839137,35.9017414],[139.0839021,35.9017575],[139.0838907,35.901774],[139.0838802,35.9017907],[139.0838701,35.9018076],[139.0838605,35.9018249],[139.0838514,35.9018424],[139.0838443,35.9018576],[139.0838357,35.9018782],[139.0838288,35.9018961],[139.0838225,35.9019142],[139.0838165,35.9019322],[139.0838108,35.9019501],[139.0838055,35.9019679],[139.0838004,35.9019857],[139.0837962,35.9019992],[139.0837898,35.9020206],[139.0837847,35.9020378],[139.0837792,35.9020551],[139.0837737,35.9020722],[139.0837678,35.9020893],[139.0837618,35.9021062],[139.0837557,35.902123],[139.083749,35.9021397],[139.0837409,35.9021601],[139.0837355,35.9021728],[139.0837281,35.9021893],[139.0837205,35.9022057],[139.0837127,35.9022222],[139.0837047,35.9022386],[139.0836964,35.902255],[139.083688,35.9022715],[139.0836793,35.902288],[139.0836709,35.9023045],[139.0836621,35.902321],[139.0836533,35.9023376],[139.0836446,35.9023542],[139.0836358,35.9023709],[139.0836271,35.9023877],[139.0836184,35.9024045],[139.08361,35.9024214],[139.0836015,35.9024385],[139.0835932,35.9024556],[139.0835853,35.9024729],[139.0835783,35.9024882],[139.0835701,35.9025077],[139.0835629,35.9025252],[139.083556,35.9025428],[139.0835493,35.9025604],[139.0835428,35.902578],[139.0835365,35.9025956],[139.0835305,35.9026133],[139.0835247,35.902631],[139.083519,35.9026487],[139.0835134,35.9026663],[139.0835079,35.9026841],[139.0835026,35.9027017],[139.0834974,35.9027194],[139.0834922,35.902737],[139.083487,35.9027547],[139.083482,35.9027723],[139.0834769,35.9027899],[139.0834718,35.9028074],[139.0834666,35.9028249],[139.0834618,35.9028417],[139.0834566,35.9028597],[139.0834514,35.9028771],[139.0834461,35.9028947],[139.0834411,35.9029122],[139.0834359,35.9029299],[139.083431,35.9029477],[139.0834262,35.9029656],[139.0834216,35.9029836],[139.0834172,35.9030018],[139.083413,35.90302],[139.0834096,35.9030359],[139.0834056,35.9030567],[139.0834019,35.9030744],[139.0833981,35.9030916],[139.083394,35.9031079],[139.083389,35.9031233],[139.0833829,35.9031382],[139.0833792,35.9031458],[139.0833676,35.9031651],[139.083358,35.9031781],[139.0833468,35.9031915],[139.0833342,35.9032049],[139.083321,35.9032185],[139.0833068,35.9032324],[139.0832925,35.9032465],[139.0832792,35.9032594],[139.0832631,35.9032757],[139.0832489,35.9032907],[139.083235,35.9033061],[139.0832215,35.9033216],[139.0832085,35.9033374],[139.0831959,35.9033534],[139.0831839,35.9033698],[139.0831723,35.9033864],[139.0831618,35.9034035],[139.0831516,35.9034208],[139.0831408,35.9034412],[139.0831335,35.9034563],[139.083126,35.9034745],[139.0831189,35.9034927],[139.0831128,35.9035113],[139.0831073,35.9035299],[139.0831025,35.9035486],[139.0830982,35.9035674],[139.0830947,35.9035863],[139.0830915,35.9036052],[139.0830892,35.9036241],[139.0830873,35.9036431],[139.0830857,35.903662],[139.0830848,35.903681],[139.0830843,35.9037002],[139.083084,35.9037182],[139.0830839,35.9037361],[139.0830834,35.9037534],[139.0830821,35.9037701],[139.0830804,35.903786],[139.0830772,35.9038018],[139.0830755,35.9038083],[139.0830671,35.9038304],[139.0830606,35.9038421],[139.0830479,35.9038572],[139.0830421,35.9038622],[139.0830294,35.9038706],[139.0830149,35.9038776],[139.0829992,35.9038831],[139.0829828,35.9038869],[139.0829825,35.9038869],[139.0829669,35.9038889],[139.0829495,35.9038892],[139.0829491,35.9038892],[139.0829322,35.9038879],[139.0829318,35.9038878],[139.0829141,35.903885],[139.0829138,35.9038849],[139.0828952,35.9038807],[139.0828757,35.9038753],[139.0828657,35.9038722],[139.0828359,35.9038625],[139.0828159,35.9038555],[139.0827957,35.9038483],[139.0827753,35.9038409],[139.0827547,35.9038335],[139.0827338,35.9038262],[139.0827128,35.9038191],[139.0826912,35.9038124],[139.0826832,35.9038101],[139.0826693,35.9038061],[139.082649,35.9038009],[139.082624,35.9037955],[139.0826011,35.9037914],[139.0825781,35.9037881],[139.0825551,35.9037855],[139.0825321,35.9037835],[139.0825318,35.9037835],[139.0825087,35.9037821],[139.0824857,35.9037812],[139.0824854,35.9037812],[139.0824623,35.9037809],[139.0824392,35.903781],[139.0824389,35.903781],[139.0824159,35.9037815],[139.0823926,35.9037824],[139.0823695,35.9037836],[139.0823462,35.903785],[139.082323,35.9037867],[139.0823,35.9037885],[139.082277,35.9037905],[139.0822767,35.9037906],[139.0822541,35.9037926],[139.0822537,35.9037926],[139.0822158,35.9037962],[139.0822145,35.9037918],[139.0821424,35.9038047],[139.0820839,35.9038152],[139.0820443,35.9038223],[139.0820455,35.9038268],[139.0820204,35.9038363],[139.0819996,35.9038444],[139.081979,35.9038532],[139.081958,35.9038627],[139.0819319,35.9038758],[139.0819172,35.9038844],[139.0818982,35.9038966],[139.0818799,35.9039098],[139.0818625,35.9039236],[139.0818458,35.9039381],[139.0818302,35.9039532],[139.0818153,35.9039688],[139.0818013,35.9039849],[139.0817878,35.9040014],[139.0817754,35.9040183],[139.0817635,35.9040355],[139.0817523,35.9040529],[139.0817418,35.9040706],[139.0817317,35.9040884],[139.0817225,35.9041063],[139.0817136,35.9041242],[139.0817084,35.9041356],[139.0816979,35.9041601],[139.0816906,35.904178],[139.081684,35.9041958],[139.0816775,35.9042135],[139.0816713,35.904231],[139.0816653,35.9042486],[139.0816595,35.9042659],[139.0816537,35.9042833],[139.0816477,35.9043005],[139.081642,35.9043176],[139.0816363,35.9043343],[139.08163,35.9043516],[139.0816236,35.9043686],[139.0816172,35.9043859],[139.0816108,35.9044033],[139.0816044,35.9044208],[139.081598,35.9044384],[139.081592,35.9044562],[139.0815861,35.9044742],[139.0815785,35.9045],[139.0815756,35.9045106],[139.081571,35.9045289],[139.081567,35.9045474],[139.0815633,35.9045657],[139.08156,35.9045841],[139.081557,35.9046025],[139.0815544,35.9046208],[139.0815522,35.9046392],[139.08155,35.9046576],[139.0815483,35.9046759],[139.0815465,35.9046942],[139.081545,35.9047124],[139.0815435,35.9047306],[139.0815423,35.9047488],[139.081541,35.9047669],[139.0815397,35.904785],[139.0815384,35.904803],[139.0815375,35.9048137],[139.0815358,35.9048388],[139.0815341,35.9048568],[139.0815328,35.9048747],[139.0815313,35.9048926],[139.0815296,35.9049105],[139.081528,35.9049285],[139.0815264,35.9049464],[139.0815247,35.9049644],[139.081523,35.9049823],[139.0815216,35.9050004],[139.08152,35.9050184],[139.0815185,35.9050364],[139.081517,35.9050544],[139.0815156,35.9050725],[139.0815141,35.9050906],[139.0815128,35.9051087],[139.0815115,35.9051268],[139.0815104,35.905145],[139.0815091,35.9051669],[139.0815084,35.9051814],[139.0815075,35.9051998],[139.0815069,35.9052182],[139.0815064,35.9052367],[139.0815065,35.9052553],[139.0815068,35.905274],[139.0815075,35.9052928],[139.0815089,35.9053117],[139.0815112,35.9053357],[139.0815132,35.9053493],[139.0815161,35.9053678],[139.0815192,35.905386],[139.0815228,35.9054041],[139.0815263,35.9054218],[139.0815295,35.9054394],[139.0815326,35.9054568],[139.081535,35.9054739],[139.0815377,35.9054959],[139.0815386,35.9055078],[139.0815396,35.905525],[139.08154,35.9055425],[139.0815401,35.9055603],[139.0815402,35.9055782],[139.0815401,35.9055964],[139.0815403,35.9056149],[139.0815411,35.9056335],[139.0815418,35.905647],[139.0815441,35.905671],[139.0815466,35.9056897],[139.0815495,35.9057082],[139.0815529,35.9057266],[139.0815569,35.9057448],[139.0815615,35.905763],[139.0815668,35.9057809],[139.0815723,35.9057989],[139.0815784,35.9058167],[139.0815847,35.9058344],[139.0815914,35.9058519],[139.0815986,35.9058694],[139.0816059,35.9058869],[139.0816136,35.9059042],[139.0816215,35.9059215],[139.0816299,35.9059387],[139.0816384,35.9059558],[139.0816471,35.9059728],[139.0816559,35.9059899],[139.0816651,35.9060068],[139.0816742,35.9060238],[139.0816835,35.9060406],[139.0816927,35.9060574],[139.0817022,35.9060742],[139.0817117,35.906091],[139.0817209,35.9061077],[139.0817305,35.9061244],[139.0817399,35.9061412],[139.0817494,35.9061579],[139.0817587,35.9061745],[139.0817678,35.9061913],[139.0817768,35.9062079],[139.0817859,35.9062246],[139.0817946,35.9062414],[139.0818032,35.9062581],[139.0818116,35.9062748],[139.0818197,35.9062917],[139.0818239,35.9063007],[139.0818351,35.9063252],[139.0818424,35.906342],[139.0818494,35.9063589],[139.081856,35.9063758],[139.0818623,35.9063927],[139.0818683,35.9064096],[139.0818739,35.9064265],[139.0818789,35.9064434],[139.0818838,35.9064604],[139.0818881,35.9064774],[139.0818919,35.9064944],[139.0818953,35.9065112],[139.081898,35.9065282],[139.0819005,35.9065451],[139.0819024,35.906562],[139.0819036,35.906579],[139.0819041,35.906594],[139.0819044,35.9066129],[139.0819039,35.9066299],[139.0819032,35.906647],[139.0819019,35.9066643],[139.0819002,35.9066817],[139.0818983,35.9066992],[139.0818961,35.9067167],[139.0818936,35.9067345],[139.081891,35.9067523],[139.0818883,35.9067701],[139.0818856,35.9067881],[139.0818829,35.9068062],[139.08188,35.9068244],[139.0818776,35.9068426],[139.0818753,35.906861],[139.0818732,35.9068795],[139.0818715,35.906898],[139.0818695,35.9069244],[139.081869,35.9069353],[139.0818684,35.9069539],[139.0818685,35.9069725],[139.0818689,35.9069911],[139.0818695,35.9070097],[139.0818709,35.9070282],[139.0818722,35.9070466],[139.0818743,35.9070651],[139.0818766,35.9070835],[139.0818792,35.9071018],[139.0818821,35.9071202],[139.0818854,35.9071385],[139.0818889,35.9071568],[139.0818924,35.907175],[139.0818964,35.9071931],[139.0819007,35.9072113],[139.0819052,35.9072295],[139.0819098,35.9072475],[139.0819145,35.9072656],[139.0819195,35.9072835],[139.0819246,35.9073015],[139.08193,35.9073194],[139.0819355,35.9073373],[139.0819408,35.9073551],[139.0819464,35.9073729],[139.081952,35.9073907],[139.0819578,35.9074085],[139.0819635,35.9074262],[139.0819691,35.9074438],[139.0819751,35.9074614],[139.0819808,35.907479],[139.0819886,35.9075032],[139.0819923,35.9075141],[139.0819928,35.907516],[139.0820191,35.9076138],[139.0820524,35.9077217],[139.0821148,35.9078997],[139.0822402,35.9082052],[139.0822709,35.9082777],[139.0822246,35.9083049],[139.08220188800811,35.90833333333333],[139.075,35.90833333333333]]],[[[139.0851418,35.9065664],[139.0850718,35.9064917],[139.0849801,35.9065486],[139.0850501,35.9066233],[139.0851418,35.9065664]]],[[[139.0826422,35.9048469],[139.0826975,35.9046923],[139.082747,35.9045401],[139.0829011,35.9041503],[139.0828488,35.9041217],[139.0827702,35.9040811],[139.0826364,35.9040261],[139.0825462,35.9039879],[139.0824793,35.903971],[139.0824298,35.903978],[139.0823862,35.9039827],[139.082296,35.9040182],[139.0822465,35.9040514],[139.0821505,35.9041178],[139.0821068,35.9041748],[139.0820691,35.9042461],[139.0820429,35.9043293],[139.0820312,35.9044292],[139.0820312,35.9045077],[139.08204,35.9045957],[139.0820516,35.9046767],[139.0820574,35.9047837],[139.0821854,35.9048078],[139.0822727,35.9048436],[139.0825753,35.9048848],[139.0826422,35.9048469]]],[[[139.0778333,35.9061754],[139.0777048,35.9062409],[139.0776155,35.9063049],[139.0775763,35.9063564],[139.0775676,35.906408],[139.0775676,35.906456],[139.0775916,35.9064953],[139.077646,35.9065559],[139.0777287,35.9066077],[139.0778006,35.9066452],[139.0778616,35.9066667],[139.0779247,35.9066989],[139.0779922,35.9067329],[139.0780858,35.9067598],[139.078223,35.9067815],[139.0783449,35.9067978],[139.0786541,35.9068732],[139.0787934,35.9068788],[139.0788489,35.9068745],[139.0788892,35.9068523],[139.0789175,35.906758],[139.0789458,35.9067136],[139.0790612,35.9066675],[139.0790873,35.9066497],[139.0791178,35.9065857],[139.0791353,35.9065199],[139.0791614,35.9064737],[139.0792397,35.9063261],[139.0792355,35.9062744],[139.0791919,35.9062458],[139.0789197,35.9061171],[139.0788653,35.9060974],[139.0788087,35.906124],[139.0787673,35.9061435],[139.0786933,35.9061593],[139.0786106,35.9061592],[139.0785453,35.9061395],[139.078456,35.9060947],[139.0784541,35.9060938],[139.078395,35.9060661],[139.0782818,35.9060534],[139.0781179,35.9060917],[139.0780249,35.9061135],[139.0778333,35.9061754]]]]},"properties":{"layer":"landuse","class_code":"203","class_label":"山林（樹林地）"}}]}