{"type":"FeatureCollection","properties":{"mesh_code":"53397066","source":"PLATEAU秩父市2025","layer":"landuse"},"features":[{"type":"Feature","id":"luse_0862a2a3-7b1b-4cd8-b9c8-40cc61661763","geometry":{"type":"Polygon","coordinates":[[[139.0843165,35.9742024],[139.0842318,35.974218],[139.0840966,35.9742914],[139.0838,35.9745586],[139.0836654,35.9743153],[139.0839386,35.9742461],[139.0839242,35.9741717],[139.0839246,35.9741719],[139.0839282,35.9741718],[139.0839383,35.9741714],[139.084188,35.9741327],[139.0842473,35.9741235],[139.0843209,35.9741149],[139.0843165,35.9742024]]]},"properties":{"layer":"landuse","class_code":"202","class_label":"畑（畑、樹園地、採草地、養鶏（牛・豚）場）"}},{"type":"Feature","id":"luse_42a76ebf-7873-4c5d-ad7b-2132c018fdc9","geometry":{"type":"Polygon","coordinates":[[[139.07729356983347,35.975],[139.0773372,35.9749462],[139.0774026,35.9748682],[139.0774271,35.9748399],[139.0774585,35.9748026],[139.077471,35.9747878],[139.0775187,35.9748014],[139.0775874,35.9748272],[139.0777025,35.9748556],[139.0777531,35.9748662],[139.0777535,35.9748663],[139.0778009,35.9748782],[139.0778086,35.9748802],[139.0778139,35.9748988],[139.0778383,35.9749212],[139.0777973,35.9749725],[139.07777538226495,35.975],[139.07729356983347,35.975]]]},"properties":{"layer":"landuse","class_code":"202","class_label":"畑（畑、樹園地、採草地、養鶏（牛・豚）場）"}},{"type":"Feature","id":"luse_a89710d2-350d-40ad-87e5-47b8a9f433c8","geometry":{"type":"Polygon","coordinates":[[[139.07504369130433,35.975],[139.0750335,35.9749912],[139.075017,35.9749769],[139.0750197,35.9749744],[139.0750193,35.9749741],[139.0750903,35.9749135],[139.0750403,35.9748626],[139.075,35.97483306506848],[139.075,35.97470071250001],[139.0750099,35.9746904],[139.0750193,35.9746901],[139.0750246,35.9746915],[139.0751539,35.9747689],[139.0751906,35.9747907],[139.0752241,35.9748099],[139.0752688,35.9748379],[139.0753169,35.9748674],[139.0753432,35.9748823],[139.0753716,35.9748958],[139.0753818,35.9749003],[139.0753822,35.9749004],[139.0753849,35.9749043],[139.075384,35.9749078],[139.0753734,35.9749286],[139.0753578,35.9749567],[139.0753761,35.9749629],[139.0753996,35.9749219],[139.0754047,35.9749118],[139.0754078,35.97491],[139.0754118,35.9749092],[139.0754139,35.9749095],[139.0754224,35.9749108],[139.0754228,35.9749109],[139.0754326,35.9749121],[139.0754395,35.9749128],[139.075442,35.9749131],[139.0754424,35.9749132],[139.0754434,35.9749133],[139.0754465,35.9749137],[139.0754469,35.9749137],[139.0754631,35.9749149],[139.0754635,35.9749149],[139.0754642,35.9749053],[139.0754652,35.9748905],[139.0754648,35.9748905],[139.0754578,35.9748898],[139.0754448,35.9748885],[139.0754445,35.9748884],[139.0754426,35.9748882],[139.0754423,35.9748881],[139.0754248,35.9748857],[139.0754244,35.9748857],[139.0754084,35.9748824],[139.075385,35.9748761],[139.075358,35.9748633],[139.0753331,35.9748491],[139.0753169,35.9748393],[139.0752855,35.9748199],[139.0752406,35.9747918],[139.0752403,35.9747917],[139.0752068,35.9747724],[139.0751697,35.9747504],[139.0751118,35.9747157],[139.0751514,35.9746683],[139.0753047,35.974742],[139.075351,35.9746541],[139.0753523,35.9746515],[139.0753734,35.9746125],[139.0754194,35.9745567],[139.0754449,35.974522],[139.0754461,35.9745227],[139.0754531,35.9745268],[139.0755029,35.9745595],[139.0755264,35.9745731],[139.0754407,35.9746919],[139.0756242,35.9747818],[139.0756721,35.974804],[139.0758731,35.9749074],[139.0758982,35.9749235],[139.0758747,35.9749562],[139.0758427,35.9749848],[139.07582675333333,35.975],[139.07568407371713,35.975],[139.0756568,35.9749811],[139.07563554723825,35.975],[139.07504369130433,35.975]]]},"properties":{"layer":"landuse","class_code":"202","class_label":"畑（畑、樹園地、採草地、養鶏（牛・豚）場）"}},{"type":"Feature","id":"luse_4903eec6-6a4b-4209-8b2a-bd503ec2aca1","geometry":{"type":"Polygon","coordinates":[[[139.0827369,35.971973],[139.0827365,35.9719731],[139.0827126,35.9719775],[139.0826949,35.9719841],[139.0826652,35.9720009],[139.0825928,35.9720571],[139.0825492,35.9720832],[139.0825171,35.9720973],[139.0824843,35.9721029],[139.0824602,35.9721069],[139.0824357,35.9721079],[139.0824353,35.9721079],[139.0824171,35.9721074],[139.0823997,35.9721046],[139.0823994,35.9721046],[139.0823896,35.9721016],[139.0823816,35.9720969],[139.0823676,35.972084],[139.0823465,35.9720603],[139.0823291,35.9720385],[139.0823153,35.9720136],[139.0823082,35.9719879],[139.0823034,35.9719621],[139.0823036,35.9719223],[139.0823087,35.9718993],[139.0823161,35.9718837],[139.0823277,35.971872],[139.0823538,35.9718442],[139.0823838,35.9718108],[139.0824056,35.9717883],[139.0824185,35.9717628],[139.082432,35.9717317],[139.0824589,35.9716438],[139.0824811,35.9715743],[139.0825,35.9715002],[139.0825178,35.9714149],[139.082517,35.9713915],[139.0825135,35.9713742],[139.0825005,35.9713441],[139.0824678,35.9712946],[139.0824465,35.9712425],[139.082442,35.9712097],[139.0824462,35.9711848],[139.0824555,35.971169],[139.0824726,35.9711342],[139.0824824,35.9711023],[139.0824846,35.9710794],[139.0824845,35.9710646],[139.0824743,35.9710208],[139.0824559,35.9709902],[139.0824269,35.9709549],[139.0823692,35.9709078],[139.0823232,35.9708709],[139.0822727,35.9708275],[139.0822511,35.9708042],[139.0822369,35.9707862],[139.0822172,35.9707567],[139.0822042,35.9707337],[139.0821924,35.9707025],[139.0821811,35.9706695],[139.0821763,35.9706424],[139.082179,35.97062],[139.0821794,35.9706154],[139.0822156,35.9706283],[139.0822783,35.9706467],[139.0823587,35.9706993],[139.0824728,35.9707873],[139.0825016,35.9708149],[139.0825164,35.9708291],[139.0825457,35.970857],[139.0825741,35.9708795],[139.0826183,35.9709037],[139.082689,35.9709399],[139.0827472,35.970978],[139.0827722,35.9710118],[139.0828004,35.9710784],[139.0828264,35.9711489],[139.0828622,35.9712109],[139.0829073,35.9712856],[139.082932,35.9713415],[139.0829514,35.9714078],[139.08295,35.9714468],[139.0829255,35.9714863],[139.0829058,35.97151],[139.0828916,35.9715337],[139.0828919,35.9715575],[139.0829038,35.971573],[139.0829297,35.9715991],[139.0829422,35.9716234],[139.0829472,35.9716416],[139.0829504,35.9716824],[139.0829514,35.9717052],[139.0829522,35.9717579],[139.0829538,35.9717578],[139.0829538,35.9717876],[139.0829398,35.9717876],[139.0829438,35.9718674],[139.0829451,35.9719181],[139.0829434,35.9719585],[139.0829359,35.9719958],[139.0829285,35.9720187],[139.0829267,35.9720181],[139.0829044,35.9720086],[139.0828574,35.9719883],[139.082828,35.9719777],[139.0828276,35.9719776],[139.0827983,35.9719729],[139.082798,35.9719729],[139.0827696,35.9719721],[139.0827369,35.971973]]]},"properties":{"layer":"landuse","class_code":"203","class_label":"山林（樹林地）"}},{"type":"Feature","id":"luse_e1221fd5-a1e2-4719-a140-f5d0a50d12bb","geometry":{"type":"Polygon","coordinates":[[[139.0830092,35.9720883],[139.0830316,35.9721027],[139.0830399,35.9721167],[139.0830444,35.9721326],[139.0830451,35.9721457],[139.0830434,35.972165],[139.0830386,35.9721748],[139.0830166,35.9722084],[139.0830042,35.9722384],[139.0829983,35.9722693],[139.0829976,35.9722951],[139.0829998,35.9723265],[139.0830074,35.9723617],[139.0830207,35.9723917],[139.0830444,35.972436],[139.0831064,35.9724996],[139.0830791,35.9725626],[139.0830726,35.9725748],[139.0830671,35.9725851],[139.0830668,35.9725849],[139.0829987,35.9725394],[139.0829607,35.972505],[139.0829136,35.9724418],[139.0828799,35.9723831],[139.0828564,35.9723474],[139.0828437,35.9723176],[139.0828422,35.97231],[139.0828427,35.9722843],[139.0828466,35.9722697],[139.0828584,35.9722456],[139.0828744,35.972219],[139.0829168,35.9721759],[139.0829538,35.9721442],[139.0829807,35.9721167],[139.0830078,35.9720878],[139.0830092,35.9720883]]]},"properties":{"layer":"landuse","class_code":"203","class_label":"山林（樹林地）"}},{"type":"Feature","id":"luse_3fd7f2a1-d3a1-47b6-9f11-9e49d6a2dc4c","geometry":{"type":"Polygon","coordinates":[[[139.0840067,35.9736799],[139.0840131,35.9737149],[139.084021,35.9737467],[139.0840402,35.9737978],[139.0840736,35.9738505],[139.0841381,35.9739357],[139.0841913,35.9739809],[139.0842466,35.9740208],[139.0842653,35.9740365],[139.0843156,35.9740746],[139.0843143,35.9740748],[139.084258,35.9740813],[139.0841305,35.9740695],[139.0839903,35.9739319],[139.083898,35.9737357],[139.0838305,35.9736624],[139.0836194,35.9737255],[139.0835975,35.973732],[139.0835947,35.973709],[139.0835846,35.9736629],[139.0835837,35.9736595],[139.0835742,35.9736201],[139.0835639,35.9735997],[139.0835552,35.9735936],[139.0835285,35.9735746],[139.0835122,35.9735697],[139.0834943,35.9735644],[139.0834434,35.9735474],[139.0834139,35.9735378],[139.0833962,35.9735289],[139.0833673,35.9735134],[139.0832942,35.9734801],[139.0832165,35.9734336],[139.0831534,35.9733796],[139.0831435,35.9733585],[139.0831339,35.9733246],[139.0831302,35.9732865],[139.0831288,35.9732428],[139.083131,35.9731565],[139.0831349,35.9730831],[139.0831402,35.9729982],[139.0831453,35.9729213],[139.0831435,35.9728404],[139.0831462,35.9727792],[139.083147,35.9727156],[139.0831444,35.9726838],[139.0831408,35.9726695],[139.0831348,35.9726501],[139.0830911,35.972608],[139.0830935,35.9726035],[139.0831101,35.9725725],[139.0831317,35.9725224],[139.0831535,35.972541],[139.0831652,35.9725492],[139.083185,35.9725629],[139.0832367,35.9725854],[139.0832697,35.9726039],[139.0832895,35.9726166],[139.0833401,35.9726551],[139.0833609,35.9726723],[139.0833957,35.9727062],[139.0834082,35.9727298],[139.0834207,35.9727735],[139.0834242,35.9728593],[139.083426,35.97289],[139.0834324,35.9729181],[139.0834454,35.9729411],[139.0834757,35.972982],[139.0835351,35.9730456],[139.083581,35.9730968],[139.0836202,35.9731396],[139.0836589,35.9731868],[139.083702,35.973251],[139.083728,35.9732902],[139.0837475,35.9733133],[139.0837679,35.9733294],[139.0838104,35.9733547],[139.0838272,35.973363],[139.0838791,35.9733887],[139.083911,35.9734111],[139.0839403,35.9734476],[139.0839828,35.9735351],[139.0839939,35.9735944],[139.0839983,35.9736422],[139.0840067,35.9736799]]]},"properties":{"layer":"landuse","class_code":"203","class_label":"山林（樹林地）"}},{"type":"Feature","id":"luse_8e554242-274a-4085-99d8-487e77104a0f","geometry":{"type":"Polygon","coordinates":[[[139.0762062,35.9744657],[139.0760094,35.9744715],[139.0760061,35.9744646],[139.0759896,35.9744338],[139.0759841,35.9744233],[139.0759769,35.9744025],[139.0759746,35.9743892],[139.0759755,35.9743672],[139.0759756,35.9743585],[139.0759757,35.9743494],[139.0759756,35.974334],[139.0759711,35.9743016],[139.0759715,35.9742884],[139.0759767,35.9742674],[139.0759877,35.9742429],[139.075994,35.9742311],[139.0760024,35.9742203],[139.0760083,35.9742165],[139.0760152,35.9742156],[139.0760241,35.9742167],[139.0760244,35.9742168],[139.0760348,35.9742196],[139.0761168,35.9742387],[139.0761668,35.9742517],[139.0761839,35.9742561],[139.0762118,35.9742608],[139.076218,35.9742612],[139.076244,35.9742629],[139.0762444,35.9742629],[139.0762546,35.9742645],[139.076255,35.9742646],[139.0763086,35.9742746],[139.0763233,35.9742774],[139.0763578,35.974284],[139.0763582,35.9742841],[139.0764154,35.9742977],[139.0764157,35.9742978],[139.0764828,35.9743148],[139.0764832,35.9743149],[139.0765085,35.9743224],[139.0765089,35.9743225],[139.0765214,35.974329],[139.0765324,35.9743388],[139.0765573,35.9743676],[139.0764635,35.9743979],[139.0762483,35.9744102],[139.0762459,35.9743753],[139.0762224,35.9743765],[139.0761982,35.9743778],[139.0762062,35.9744657]]]},"properties":{"layer":"landuse","class_code":"203","class_label":"山林（樹林地）"}},{"type":"Feature","id":"luse_28f9b985-f0b7-4230-8abb-dbafb74e3620","geometry":{"type":"Polygon","coordinates":[[[139.083486,35.9740937],[139.0834707,35.9741475],[139.0834359,35.9742617],[139.0834351,35.9742644],[139.0834306,35.9742804],[139.0834077,35.9743239],[139.0833942,35.9743416],[139.0834058,35.9743639],[139.0833923,35.9743852],[139.0833484,35.9744422],[139.0832528,35.9745342],[139.0832137,35.9745696],[139.0831575,35.9746432],[139.0831103,35.9746951],[139.0830559,35.9747612],[139.0830397,35.9747825],[139.0830352,35.9747886],[139.0830277,35.9747985],[139.0830218,35.97481],[139.0830131,35.9747905],[139.0829984,35.9747573],[139.0830085,35.9747492],[139.0830209,35.9747378],[139.0830314,35.9747242],[139.0830596,35.9746736],[139.0830931,35.9746143],[139.0831476,35.9745127],[139.0831595,35.9744783],[139.0831641,35.9744272],[139.0831665,35.9744186],[139.0831743,35.974391],[139.083198,35.9743497],[139.0832449,35.9742744],[139.083284,35.9742177],[139.0833002,35.9741942],[139.0833766,35.9740891],[139.083486,35.9740937]]]},"properties":{"layer":"landuse","class_code":"203","class_label":"山林（樹林地）"}},{"type":"Feature","id":"luse_0acf18ed-c910-4fde-95d0-baa12b0d0d22","geometry":{"type":"Polygon","coordinates":[[[139.0767511,35.974525],[139.0767638,35.9745274],[139.0767762,35.9745298],[139.0767765,35.9745299],[139.0768022,35.9745351],[139.0768129,35.9745376],[139.0768132,35.9745377],[139.0768236,35.974541],[139.076824,35.9745411],[139.0768486,35.9745493],[139.0768814,35.9745602],[139.0768881,35.9745634],[139.076933,35.9745855],[139.0769758,35.9746045],[139.0769807,35.9746068],[139.0770081,35.974619],[139.0770358,35.974633],[139.0770389,35.974634],[139.0770592,35.9746407],[139.0770721,35.9746449],[139.0771945,35.9746897],[139.0772185,35.9746984],[139.0772993,35.9747278],[139.0773698,35.9747508],[139.0774058,35.9747619],[139.0774186,35.9747658],[139.0774251,35.9747846],[139.0774256,35.9747885],[139.0774065,35.9748277],[139.0773893,35.9748489],[139.0773716,35.9748687],[139.0773661,35.9748736],[139.0773566,35.9748769],[139.0773419,35.9748794],[139.0773415,35.9748795],[139.0773216,35.9748799],[139.0773104,35.9748791],[139.0773081,35.9748789],[139.0772985,35.9748782],[139.0772982,35.9748781],[139.0772364,35.9748667],[139.0772361,35.9748666],[139.0771999,35.9748612],[139.0771996,35.9748612],[139.0771652,35.9748542],[139.0771385,35.9748468],[139.0771017,35.9748367],[139.0769797,35.9747824],[139.0766899,35.9746547],[139.0765812,35.9746041],[139.076591,35.9745984],[139.0766851,35.9745455],[139.0767213,35.9745265],[139.0767219,35.9745264],[139.0767251,35.9745258],[139.0767298,35.9745253],[139.0767451,35.9745246],[139.0767511,35.974525]]]},"properties":{"layer":"landuse","class_code":"203","class_label":"山林（樹林地）"}},{"type":"Feature","id":"luse_234e4bf3-583e-488a-a6b9-f9bca514b1ce","geometry":{"type":"Polygon","coordinates":[[[139.0840923,35.9745704],[139.0840998,35.9746419],[139.0841053,35.9746863],[139.0841049,35.9747081],[139.0841022,35.9747434],[139.084093,35.9747915],[139.0840891,35.9748079],[139.0840868,35.974846],[139.0840864,35.9748858],[139.0840867,35.9749575],[139.084087,35.9749976],[139.08408697500002,35.975],[139.0829880180328,35.975],[139.0830131,35.9749],[139.083027,35.9748648],[139.0830329,35.9748538],[139.0830564,35.9748103],[139.0830651,35.9747989],[139.0830695,35.9747931],[139.0830829,35.9747753],[139.0831366,35.9747103],[139.0831842,35.9746578],[139.0832395,35.9745853],[139.0832835,35.9745454],[139.0833889,35.9744661],[139.0834357,35.9744053],[139.0834416,35.9743961],[139.0834536,35.9743771],[139.0834754,35.9743728],[139.0834939,35.9743691],[139.0834995,35.9743561],[139.0835019,35.9743506],[139.0836654,35.9743153],[139.0838,35.9745586],[139.0840966,35.9742914],[139.0842318,35.974218],[139.0843165,35.9742024],[139.0843209,35.9741149],[139.0843535,35.9741111],[139.0843538,35.9741111],[139.0843575,35.9741148],[139.0843762,35.974145],[139.0843835,35.9741643],[139.0843921,35.9741961],[139.0843948,35.9742263],[139.0843953,35.9742486],[139.0843934,35.9742749],[139.0843864,35.9743],[139.0843745,35.9743181],[139.084339,35.9743428],[139.0842684,35.9743853],[139.0842566,35.9743923],[139.0841617,35.9744493],[139.0841345,35.9744716],[139.0841074,35.9745007],[139.0840963,35.9745159],[139.0840916,35.9745378],[139.0840923,35.9745704]]]},"properties":{"layer":"landuse","class_code":"203","class_label":"山林（樹林地）"}},{"type":"Feature","id":"luse_c9f261ec-71a9-4945-8ff9-20851f326fa4","geometry":{"type":"Polygon","coordinates":[[[139.0821425,35.9705303],[139.0821364,35.9705991],[139.0821361,35.970599],[139.0821028,35.9705851],[139.0820687,35.9705651],[139.08203,35.9705343],[139.0820061,35.9705093],[139.0819934,35.9704816],[139.0819829,35.9704616],[139.0819752,35.9704378],[139.0819748,35.970414],[139.0819719,35.9703634],[139.0819878,35.9703689],[139.0819948,35.9703846],[139.082003,35.9704159],[139.0820131,35.9704406],[139.0820214,35.9704551],[139.0820356,35.9704686],[139.0820635,35.9704767],[139.0820809,35.9704936],[139.0820966,35.970505],[139.0821241,35.9705231],[139.0821425,35.9705303]]]},"properties":{"layer":"landuse","class_code":"204","class_label":"水面（河川水面、湖沼、ため池、用水路、濠、運河水面）"}},{"type":"Feature","id":"luse_331ea06b-fd0d-480a-adf0-88f31aba364d","geometry":{"type":"Polygon","coordinates":[[[139.0830549,35.9718983],[139.083051,35.9719442],[139.0830402,35.971994],[139.0830221,35.9720534],[139.0829647,35.9720322],[139.0829285,35.9720187],[139.0829359,35.9719958],[139.0829434,35.9719585],[139.0829451,35.9719181],[139.0829438,35.9718674],[139.0829398,35.9717876],[139.0829538,35.9717876],[139.0829538,35.9717578],[139.0829522,35.9717579],[139.0829514,35.9717052],[139.0829504,35.9716824],[139.0829472,35.9716416],[139.0829422,35.9716234],[139.0829297,35.9715991],[139.0829038,35.971573],[139.0828919,35.9715575],[139.0828916,35.9715337],[139.0829058,35.97151],[139.0829255,35.9714863],[139.08295,35.9714468],[139.0829514,35.9714078],[139.082932,35.9713415],[139.0829073,35.9712856],[139.0828622,35.9712109],[139.0828264,35.9711489],[139.0828004,35.9710784],[139.0827722,35.9710118],[139.0827472,35.970978],[139.082689,35.9709399],[139.0826183,35.9709037],[139.0825741,35.9708795],[139.0825457,35.970857],[139.0825164,35.9708291],[139.0825016,35.9708149],[139.0824728,35.9707873],[139.0823587,35.9706993],[139.0822783,35.9706467],[139.0822156,35.9706283],[139.0821794,35.9706154],[139.08218,35.9706088],[139.0821856,35.970547],[139.0821934,35.97055],[139.082273,35.9705823],[139.0823077,35.9706096],[139.0823248,35.9706229],[139.0823973,35.9706757],[139.0825197,35.9707728],[139.0825296,35.9707827],[139.0825442,35.9707972],[139.0825903,35.9708431],[139.0826152,35.9708601],[139.0826439,35.9708729],[139.0827067,35.9709071],[139.0827565,35.9709397],[139.0827844,35.9709666],[139.0828092,35.9710016],[139.0828357,35.9710738],[139.0828543,35.9711284],[139.0828702,35.9711639],[139.0829188,35.9712463],[139.0829487,35.971302],[139.0829679,35.9713483],[139.0829807,35.971391],[139.0829843,35.9714286],[139.0829793,35.971463],[139.0829643,35.9715007],[139.0829464,35.9715297],[139.082942,35.9715489],[139.0829442,35.9715627],[139.0829539,35.9715753],[139.0829729,35.9716028],[139.0829888,35.9716419],[139.0830078,35.9716776],[139.0830328,35.9717092],[139.0830554,35.971758],[139.0830457,35.971758],[139.0830457,35.9717878],[139.0830645,35.9717878],[139.0830549,35.9718983]]]},"properties":{"layer":"landuse","class_code":"204","class_label":"水面（河川水面、湖沼、ため池、用水路、濠、運河水面）"}},{"type":"Feature","id":"luse_764ffd4f-5c4f-4057-9094-6b1c5192b605","geometry":{"type":"Polygon","coordinates":[[[139.0829513,35.9720668],[139.0830078,35.9720878],[139.0829807,35.9721167],[139.0829538,35.9721442],[139.0829168,35.9721759],[139.0828744,35.972219],[139.0828584,35.9722456],[139.0828466,35.9722697],[139.0828427,35.9722843],[139.0828422,35.97231],[139.0828437,35.9723176],[139.0828564,35.9723474],[139.0828799,35.9723831],[139.0829136,35.9724418],[139.0829607,35.972505],[139.0829987,35.9725394],[139.0830668,35.9725849],[139.0830671,35.9725851],[139.0830549,35.972608],[139.0830547,35.9726078],[139.0830482,35.9726017],[139.0829794,35.9725557],[139.0829384,35.9725185],[139.0828891,35.9724525],[139.0828551,35.9723932],[139.0828308,35.9723565],[139.0828169,35.9723232],[139.0828052,35.9722677],[139.0828075,35.9722191],[139.0828324,35.972161],[139.0828356,35.9721249],[139.0828891,35.9720811],[139.0829136,35.9720528],[139.0829513,35.9720668]]]},"properties":{"layer":"landuse","class_code":"204","class_label":"水面（河川水面、湖沼、ため池、用水路、濠、運河水面）"}},{"type":"Feature","id":"luse_176e7e69-2e78-4f58-ae83-e6c915c0b2f8","geometry":{"type":"Polygon","coordinates":[[[139.0831348,35.9726501],[139.0831408,35.9726695],[139.0831444,35.9726838],[139.083147,35.9727156],[139.0831462,35.9727792],[139.0831435,35.9728404],[139.0831453,35.9729213],[139.0831402,35.9729982],[139.0831349,35.9730831],[139.083131,35.9731565],[139.0831288,35.9732428],[139.0831302,35.9732865],[139.0831339,35.9733246],[139.0831435,35.9733585],[139.0831534,35.9733796],[139.0832165,35.9734336],[139.0832942,35.9734801],[139.0833673,35.9735134],[139.0833962,35.9735289],[139.0834139,35.9735378],[139.0834434,35.9735474],[139.0834943,35.9735644],[139.0835122,35.9735697],[139.0835285,35.9735746],[139.0835552,35.9735936],[139.0835639,35.9735997],[139.0835742,35.9736201],[139.0835837,35.9736595],[139.0835846,35.9736629],[139.0835947,35.973709],[139.0835975,35.973732],[139.0836,35.9737525],[139.083605,35.9737958],[139.0836076,35.9738402],[139.0836057,35.9738984],[139.0835987,35.9739809],[139.0835845,35.9740452],[139.0835812,35.9740576],[139.0834994,35.9740463],[139.0835013,35.9740397],[139.0835084,35.974015],[139.0835267,35.9739437],[139.0835374,35.9738771],[139.0835394,35.9738467],[139.0835396,35.9738058],[139.0835336,35.9737621],[139.0835259,35.9737206],[139.0835119,35.9736752],[139.0834937,35.97362],[139.0834804,35.9736038],[139.0834626,35.9735888],[139.0833813,35.9735479],[139.0833528,35.9735327],[139.0832792,35.973499],[139.0831981,35.9734505],[139.0831294,35.9733919],[139.0831169,35.9733651],[139.0831065,35.973328],[139.0831025,35.9732877],[139.0831011,35.9732429],[139.0831032,35.9731558],[139.0831072,35.9730821],[139.0831125,35.972997],[139.0831176,35.9729209],[139.0831158,35.9728402],[139.0831185,35.9727787],[139.0831193,35.9727162],[139.0831166,35.9726837],[139.0831095,35.9726607],[139.0830787,35.9726311],[139.0830911,35.972608],[139.0831348,35.9726501]]]},"properties":{"layer":"landuse","class_code":"204","class_label":"水面（河川水面、湖沼、ため池、用水路、濠、運河水面）"}},{"type":"Feature","id":"luse_5763e282-61e2-4e31-94e9-7aaa8ed213e4","geometry":{"type":"Polygon","coordinates":[[[139.0835079,35.9740946],[139.0835676,35.9741067],[139.0835589,35.9741382],[139.083532,35.9742498],[139.083515,35.9743203],[139.0835019,35.9743506],[139.0834995,35.9743561],[139.0834939,35.9743691],[139.0834754,35.9743728],[139.0834536,35.9743771],[139.0834416,35.9743961],[139.0834357,35.9744053],[139.0833889,35.9744661],[139.0832835,35.9745454],[139.0832395,35.9745853],[139.0831842,35.9746578],[139.0831366,35.9747103],[139.0830829,35.9747753],[139.0830695,35.9747931],[139.0830651,35.9747989],[139.0830564,35.9748103],[139.0830329,35.9748538],[139.083027,35.9748648],[139.0830131,35.9749],[139.0829880180328,35.975],[139.08295156742486,35.975],[139.0829811,35.9748937],[139.0829973,35.9748574],[139.0829998,35.9748525],[139.0830045,35.9748435],[139.0830218,35.97481],[139.0830277,35.9747985],[139.0830352,35.9747886],[139.0830397,35.9747825],[139.0830559,35.9747612],[139.0831103,35.9746951],[139.0831575,35.9746432],[139.0832137,35.9745696],[139.0832528,35.9745342],[139.0833484,35.9744422],[139.0833923,35.9743852],[139.0834058,35.9743639],[139.0833942,35.9743416],[139.0834077,35.9743239],[139.0834306,35.9742804],[139.0834351,35.9742644],[139.0834359,35.9742617],[139.0834707,35.9741475],[139.083486,35.9740937],[139.0835079,35.9740946]]]},"properties":{"layer":"landuse","class_code":"204","class_label":"水面（河川水面、湖沼、ため池、用水路、濠、運河水面）"}},{"type":"Feature","id":"luse_f9db478c-636f-4918-af2d-ef8c7ce3b46b","geometry":{"type":"Polygon","coordinates":[[[139.084258,35.9740813],[139.084239,35.9740835],[139.0839371,35.9741303],[139.0839343,35.9741308],[139.0838991,35.9741172],[139.0838958,35.9741161],[139.0837571,35.9737948],[139.083731,35.9738022],[139.0837154,35.9738067],[139.0838297,35.9740717],[139.0837349,35.9740914],[139.0837345,35.9740915],[139.0837251,35.9740926],[139.0836134,35.9740626],[139.0836062,35.9740611],[139.0835818,35.9740577],[139.0835812,35.9740576],[139.0835845,35.9740452],[139.0835987,35.9739809],[139.0836057,35.9738984],[139.0836076,35.9738402],[139.083605,35.9737958],[139.0836,35.9737525],[139.0835975,35.973732],[139.0836194,35.9737255],[139.0838305,35.9736624],[139.083898,35.9737357],[139.0839903,35.9739319],[139.0841305,35.9740695],[139.084258,35.9740813]]]},"properties":{"layer":"landuse","class_code":"211","class_label":"住宅用地（住宅、共同住宅、店舗等併用住宅、店舗等併用共同住宅、作業所併用住宅）"}},{"type":"Feature","id":"luse_d112460a-ed78-45c8-912c-17967305b3c5","geometry":{"type":"Polygon","coordinates":[[[139.0836654,35.9743153],[139.0835019,35.9743506],[139.083515,35.9743203],[139.083532,35.9742498],[139.0835589,35.9741382],[139.0835676,35.9741067],[139.0835971,35.9741126],[139.0836943,35.97414],[139.0836761,35.9742273],[139.0837115,35.9742363],[139.0837445,35.9741313],[139.0838285,35.9741139],[139.0838502,35.9741193],[139.0838628,35.9741482],[139.0838678,35.9741502],[139.0839242,35.9741717],[139.0839386,35.9742461],[139.0836654,35.9743153]]]},"properties":{"layer":"landuse","class_code":"211","class_label":"住宅用地（住宅、共同住宅、店舗等併用住宅、店舗等併用共同住宅、作業所併用住宅）"}},{"type":"Feature","id":"luse_f916266d-8185-496f-8d05-d4c8ea97a5a6","geometry":{"type":"Polygon","coordinates":[[[139.0753044,35.9742767],[139.075277,35.9743018],[139.0752723,35.9743062],[139.0752563,35.9743197],[139.0752377,35.9743355],[139.0752394,35.9743369],[139.075237,35.9743387],[139.0752316,35.9743443],[139.0752149,35.9743494],[139.0751908,35.9743349],[139.0750988,35.9742792],[139.075093,35.9742759],[139.075,35.9742222209481],[139.075,35.9739112590389],[139.0750465,35.9739136],[139.0750875,35.973932],[139.075137,35.9739594],[139.0753644,35.9740612],[139.0753938,35.9740692],[139.0754418,35.974105],[139.07545,35.9741136],[139.0754579,35.9741217],[139.0754718,35.9741354],[139.0754497,35.9741522],[139.0754461,35.9741549],[139.075399,35.974196],[139.0753603,35.9741752],[139.0752666,35.9741246],[139.0751893,35.9742102],[139.0752721,35.9742582],[139.0753044,35.9742767]]]},"properties":{"layer":"landuse","class_code":"211","class_label":"住宅用地（住宅、共同住宅、店舗等併用住宅、店舗等併用共同住宅、作業所併用住宅）"}},{"type":"Feature","id":"luse_d529542c-f7bf-4107-88b6-38b118ee6960","geometry":{"type":"Polygon","coordinates":[[[139.0757981,35.9741959],[139.0758011,35.9742],[139.0757983,35.974203],[139.075794,35.9742078],[139.0757929,35.9742089],[139.0757895,35.9742126],[139.0757639,35.9742401],[139.0757477,35.9742595],[139.0757449,35.9742628],[139.0757269,35.9742841],[139.07566,35.9743582],[139.0755824,35.9744455],[139.0755551,35.9744746],[139.0755379,35.9744919],[139.0755336,35.9744951],[139.0755291,35.9744977],[139.0755242,35.9744996],[139.0755188,35.974501],[139.0755139,35.9745019],[139.0755008,35.9745019],[139.0754983,35.9745019],[139.0754564,35.9744794],[139.0754466,35.974474],[139.0754276,35.9744635],[139.0754254,35.9744625],[139.0754237,35.9744525],[139.0754244,35.9744431],[139.0754443,35.9744178],[139.0756502,35.9742136],[139.0756166,35.9741913],[139.0754046,35.9744016],[139.0753922,35.9744126],[139.0753789,35.97442],[139.0753663,35.9744228],[139.0753601,35.9744233],[139.0753526,35.974424],[139.0753504,35.9744228],[139.0752941,35.9743926],[139.0752679,35.9743789],[139.0752662,35.9743637],[139.0752693,35.9743609],[139.0752992,35.9743333],[139.0753404,35.9742963],[139.0754087,35.9742343],[139.0754065,35.9742323],[139.0754287,35.9742126],[139.0754493,35.9741925],[139.0754789,35.9741636],[139.0754866,35.9741576],[139.0754889,35.9741555],[139.0755,35.9741493],[139.0755069,35.9741451],[139.0755348,35.9741327],[139.0755542,35.9741321],[139.0755625,35.9741318],[139.0755628,35.9741318],[139.0755833,35.9741338],[139.0755837,35.9741339],[139.0756258,35.9741416],[139.0756262,35.9741417],[139.0756513,35.9741484],[139.0756759,35.9741547],[139.0757144,35.9741674],[139.0757396,35.9741762],[139.0757853,35.9741921],[139.0757981,35.9741959]]]},"properties":{"layer":"landuse","class_code":"211","class_label":"住宅用地（住宅、共同住宅、店舗等併用住宅、店舗等併用共同住宅、作業所併用住宅）"}},{"type":"Feature","id":"luse_ba7d838e-cd4f-4998-b2f7-d6856ed774ca","geometry":{"type":"Polygon","coordinates":[[[139.0765733,35.974373],[139.0765883,35.9743808],[139.0765981,35.9743876],[139.0766121,35.9744012],[139.0766219,35.9744133],[139.0766223,35.974414],[139.0766294,35.9744263],[139.0766407,35.9744369],[139.0766482,35.9744427],[139.0766569,35.9744493],[139.0766674,35.9744574],[139.0766903,35.9744797],[139.0767062,35.9744985],[139.0767091,35.9745029],[139.0767123,35.9745076],[139.076713,35.974509],[139.076713,35.9745107],[139.0767125,35.9745129],[139.0767115,35.9745144],[139.0767097,35.9745158],[139.0766984,35.9745226],[139.0766294,35.9745648],[139.0765847,35.9745898],[139.0765844,35.97459],[139.0765615,35.9745978],[139.0764744,35.9746225],[139.0764592,35.9746227],[139.0764353,35.9746302],[139.0763706,35.974655],[139.0763657,35.9746568],[139.0763548,35.9746392],[139.0763029,35.9745615],[139.076264,35.9745027],[139.0762586,35.9744927],[139.0762563,35.9744853],[139.0762495,35.9744284],[139.0762483,35.9744102],[139.0764635,35.9743979],[139.0765573,35.9743676],[139.0765733,35.974373]]]},"properties":{"layer":"landuse","class_code":"211","class_label":"住宅用地（住宅、共同住宅、店舗等併用住宅、店舗等併用共同住宅、作業所併用住宅）"}},{"type":"Feature","id":"luse_d240a85d-7ad7-4765-ab2a-bce5c35a3e65","geometry":{"type":"Polygon","coordinates":[[[139.0762581,35.9745734],[139.0763051,35.9746383],[139.0762832,35.9746661],[139.0761478,35.9746821],[139.0761276,35.9746845],[139.0761272,35.9746845],[139.0760768,35.9746918],[139.0760022,35.9747006],[139.075975,35.9747011],[139.0759686,35.9747004],[139.0758353,35.9746848],[139.0758227,35.9746823],[139.0758052,35.9746755],[139.0757588,35.9746555],[139.0757537,35.9746532],[139.0756985,35.9746286],[139.0756814,35.9746191],[139.0756541,35.9746037],[139.0756128,35.9745802],[139.0755735,35.9745534],[139.0755558,35.9745413],[139.0755488,35.9745233],[139.0755489,35.9745224],[139.0755494,35.974521],[139.0755508,35.9745181],[139.075554,35.9745143],[139.0755611,35.9745062],[139.0755775,35.9744893],[139.0756377,35.974425],[139.0756924,35.9743635],[139.0757506,35.9742975],[139.0758124,35.974239],[139.0758134,35.974238],[139.0758216,35.9742303],[139.0758437,35.9742095],[139.0758744,35.9742031],[139.0758747,35.974203],[139.0758939,35.9741974],[139.0758943,35.9741973],[139.0759156,35.9741885],[139.0759776,35.9742245],[139.0759634,35.9742606],[139.0759574,35.9742811],[139.0759555,35.974301],[139.0759582,35.9743176],[139.0759632,35.9743336],[139.0759647,35.9743503],[139.075964,35.9743552],[139.0759621,35.9743686],[139.075963,35.9743896],[139.0759712,35.9744216],[139.0759771,35.9744344],[139.075993,35.9744684],[139.0759948,35.9744721],[139.0760117,35.9745103],[139.0760157,35.9745235],[139.0760327,35.974519],[139.0760262,35.9745061],[139.0760094,35.9744715],[139.0762062,35.9744657],[139.0762078,35.974483],[139.0762109,35.9744954],[139.0762143,35.974508],[139.0762229,35.974522],[139.0762581,35.9745734]]]},"properties":{"layer":"landuse","class_code":"211","class_label":"住宅用地（住宅、共同住宅、店舗等併用住宅、店舗等併用共同住宅、作業所併用住宅）"}},{"type":"Feature","id":"luse_dd2f0e08-994e-43c4-ab42-86ee30e7cb7e","geometry":{"type":"Polygon","coordinates":[[[139.0753047,35.974742],[139.0751514,35.9746683],[139.0751118,35.9747157],[139.0750413,35.9746733],[139.0750397,35.9746664],[139.07504,35.9746596],[139.0750575,35.9746356],[139.0750735,35.9746064],[139.0750822,35.9745834],[139.0750876,35.9745687],[139.0750921,35.9745567],[139.0751019,35.9745421],[139.0751286,35.9745058],[139.0751468,35.9744855],[139.0751963,35.9744362],[139.0752155,35.974416],[139.0752249,35.9744068],[139.0752434,35.9744014],[139.0753138,35.9744457],[139.075319,35.9744487],[139.075358,35.974471],[139.0753838,35.9744861],[139.0754449,35.974522],[139.0754194,35.9745567],[139.0753734,35.9746125],[139.0753523,35.9746515],[139.075351,35.9746541],[139.0753047,35.974742]]]},"properties":{"layer":"landuse","class_code":"211","class_label":"住宅用地（住宅、共同住宅、店舗等併用住宅、店舗等併用共同住宅、作業所併用住宅）"}},{"type":"Feature","id":"luse_e1b67f9c-03c6-4569-9949-d22042d00c67","geometry":{"type":"Polygon","coordinates":[[[139.075,35.97464497567568],[139.075,35.97425712025149],[139.0750076,35.9742613],[139.0750391,35.9742792],[139.0750844,35.9743053],[139.0751221,35.9743267],[139.0751892,35.9743668],[139.0751932,35.9743871],[139.0751366,35.9744499],[139.0750964,35.9744969],[139.0750598,35.9745451],[139.0750534,35.9745429],[139.0750405,35.9745838],[139.0750232,35.9746149],[139.0750048,35.9746389],[139.075,35.97464497567568]]]},"properties":{"layer":"landuse","class_code":"211","class_label":"住宅用地（住宅、共同住宅、店舗等併用住宅、店舗等併用共同住宅、作業所併用住宅）"}},{"type":"Feature","id":"luse_6454273b-1cf1-40fd-9f7e-23478ef5720e","geometry":{"type":"Polygon","coordinates":[[[139.0759729,35.9747928],[139.0759641,35.9748131],[139.0759557,35.9748321],[139.0759319,35.9748764],[139.0758982,35.9749235],[139.0758731,35.9749074],[139.0756721,35.974804],[139.0756242,35.9747818],[139.0754407,35.9746919],[139.0755264,35.9745731],[139.07556,35.9745924],[139.0756243,35.9746337],[139.0756678,35.9746576],[139.075745,35.9746895],[139.075783,35.9747048],[139.0757987,35.9747111],[139.075799,35.9747112],[139.075825,35.9747154],[139.0758927,35.9747296],[139.0759649,35.9747386],[139.0759653,35.9747387],[139.0759885,35.9747391],[139.0759914,35.9747388],[139.0759729,35.9747928]]]},"properties":{"layer":"landuse","class_code":"211","class_label":"住宅用地（住宅、共同住宅、店舗等併用住宅、店舗等併用共同住宅、作業所併用住宅）"}},{"type":"Feature","id":"luse_8d9f0086-f218-4240-8742-ffd2a38a872f","geometry":{"type":"Polygon","coordinates":[[[139.0773272,35.9749237],[139.0773261,35.9749263],[139.0773233,35.9749295],[139.07725764203298,35.975],[139.07710579045226,35.975],[139.0770721,35.9749849],[139.0769133,35.9749054],[139.076913,35.9749053],[139.0768397,35.9748726],[139.0768102,35.9748594],[139.0766501,35.9747826],[139.0766107,35.9747638],[139.0765677,35.9747433],[139.0764091,35.9746676],[139.0764119,35.9746636],[139.0764138,35.9746621],[139.0764346,35.9746555],[139.0765559,35.9746138],[139.0765812,35.9746041],[139.0766899,35.9746547],[139.0769797,35.9747824],[139.0771017,35.9748367],[139.0770935,35.9748549],[139.0771534,35.9748744],[139.0771974,35.9748868],[139.0772571,35.9748991],[139.0772574,35.9748992],[139.0773087,35.9749081],[139.0773206,35.9749122],[139.0773236,35.9749141],[139.0773251,35.9749172],[139.0773265,35.9749204],[139.0773272,35.9749237]]]},"properties":{"layer":"landuse","class_code":"211","class_label":"住宅用地（住宅、共同住宅、店舗等併用住宅、店舗等併用共同住宅、作業所併用住宅）"}},{"type":"Feature","id":"luse_ce1745c6-b749-45cd-a1fd-72da038b7f02","geometry":{"type":"Polygon","coordinates":[[[139.07600776945245,35.975],[139.0759712,35.9749897],[139.0759609163752,35.975],[139.0758455753894,35.975],[139.0758621,35.9749851],[139.0758806,35.9749668],[139.0759042,35.9749395],[139.0759295,35.974904],[139.0759464,35.9748754],[139.0759675,35.9748325],[139.0759977,35.9747609],[139.0760069,35.9747374],[139.076014,35.9747366],[139.0760143,35.9747365],[139.0760828,35.9747284],[139.0761356,35.9747226],[139.076136,35.9747226],[139.076233,35.974706],[139.0762784,35.9746988],[139.0762916,35.9746967],[139.0763187,35.9746954],[139.0763437,35.9746974],[139.0763579,35.9746992],[139.0763583,35.9746993],[139.0763809,35.9747034],[139.0763812,35.9747035],[139.0764151,35.9747129],[139.0764599,35.9747271],[139.076486,35.9747372],[139.0765195,35.9747536],[139.0765319,35.9747599],[139.0765502,35.974769],[139.0765675,35.9747781],[139.0765912,35.9747904],[139.0766339,35.9748126],[139.076645,35.9748184],[139.0766446,35.974819],[139.0766518,35.9748229],[139.0766525,35.9748222],[139.0766602,35.9748257],[139.0766727,35.9748317],[139.0767679,35.9748765],[139.0767727,35.9748791],[139.0768127,35.9748993],[139.0768168,35.9749014],[139.076833,35.9749092],[139.0768626,35.9749233],[139.0768839,35.9749335],[139.0768845,35.9749338],[139.0769102,35.9749463],[139.076937,35.9749593],[139.076966,35.9749739],[139.0770182,35.975],[139.07600776945245,35.975]]]},"properties":{"layer":"landuse","class_code":"211","class_label":"住宅用地（住宅、共同住宅、店舗等併用住宅、店舗等併用共同住宅、作業所併用住宅）"}},{"type":"Feature","id":"luse_e0b20e23-7a46-4585-af7c-ed4a5fdd3ece","geometry":{"type":"Polygon","coordinates":[[[139.07782197439613,35.975],[139.0778533,35.9749652],[139.0778768,35.9749389],[139.0779083,35.9748945],[139.0779313,35.9749054],[139.0779612,35.9749756],[139.0779771163077,35.975],[139.07782197439613,35.975]]]},"properties":{"layer":"landuse","class_code":"211","class_label":"住宅用地（住宅、共同住宅、店舗等併用住宅、店舗等併用共同住宅、作業所併用住宅）"}},{"type":"Feature","id":"luse_0d43d9dc-874c-421f-be5d-0205c77ac720","geometry":{"type":"Polygon","coordinates":[[[139.075,35.975],[139.075,35.97483306506848],[139.0750403,35.9748626],[139.0750903,35.9749135],[139.0750193,35.9749741],[139.0750197,35.9749744],[139.075017,35.9749769],[139.0750335,35.9749912],[139.07504369130433,35.975],[139.07563554723825,35.975],[139.0756568,35.9749811],[139.07568407371713,35.975],[139.075,35.975]]]},"properties":{"layer":"landuse","class_code":"211","class_label":"住宅用地（住宅、共同住宅、店舗等併用住宅、店舗等併用共同住宅、作業所併用住宅）"}},{"type":"Feature","id":"luse_576b0dfd-1f0f-4e74-998f-abfd3eaa67b2","geometry":{"type":"Polygon","coordinates":[[[139.08221128670596,35.975],[139.0823333,35.9748541],[139.0823519,35.9747992],[139.0823832,35.9747477],[139.0823998,35.9747117],[139.0824163,35.9746568],[139.0825178,35.9747013],[139.0826773,35.9747783],[139.0826515,35.9748228],[139.0826477,35.9748382],[139.0826473,35.9748494],[139.0826477,35.9748587],[139.0826524,35.9748754],[139.0826598,35.9748942],[139.0826744,35.9749196],[139.0826876,35.9749381],[139.0826999,35.9749521],[139.0827105,35.9749646],[139.0827298,35.9749816],[139.0827442,35.9749932],[139.0827492,35.9749964],[139.08275186086956,35.975],[139.08221128670596,35.975]]]},"properties":{"layer":"landuse","class_code":"213","class_label":"工業用地（工場）"}},{"type":"Feature","id":"luse_8ede0fce-50e5-4665-b044-3f1ae7ad1cc1","geometry":{"type":"Polygon","coordinates":[[[139.0830218,35.97481],[139.0830045,35.9748435],[139.0829998,35.9748525],[139.0829973,35.9748574],[139.0829811,35.9748937],[139.08295156742486,35.975],[139.0828027359116,35.975],[139.0828036,35.9749977],[139.0828164,35.9749642],[139.0828212,35.9749474],[139.0828292,35.9749296],[139.0828377,35.9749126],[139.0828461,35.9749015],[139.0828551,35.9748896],[139.0828879,35.9748499],[139.0828977,35.9748387],[139.0829179,35.9748161],[139.0829525,35.9747873],[139.0829557,35.9747853],[139.0829984,35.9747573],[139.0830131,35.9747905],[139.0830218,35.97481]]]},"properties":{"layer":"landuse","class_code":"213","class_label":"工業用地（工場）"}},{"type":"Feature","id":"luse_1b05d689-61f4-4ebe-be5d-fa3f5bfb44e9","geometry":{"type":"Polygon","coordinates":[[[139.075399,35.974196],[139.0753707,35.9742206],[139.0753434,35.9742421],[139.0753044,35.9742767],[139.0752721,35.9742582],[139.0751893,35.9742102],[139.0752666,35.9741246],[139.0753603,35.9741752],[139.075399,35.974196]]]},"properties":{"layer":"landuse","class_code":"214","class_label":"公益施設用地（官公庁施設、文教厚生施設、供給処理施設）"}},{"type":"Feature","id":"luse_6829846e-c49b-4093-9fd4-a2360ae23be0","geometry":{"type":"Polygon","coordinates":[[[139.0783183,35.9749038],[139.0782821,35.9749747],[139.0782317,35.9749731],[139.0781987,35.9749527],[139.0782312,35.9748772],[139.0782699,35.9748755],[139.0783183,35.9749038]]]},"properties":{"layer":"landuse","class_code":"214","class_label":"公益施設用地（官公庁施設、文教厚生施設、供給処理施設）"}},{"type":"Feature","id":"luse_93f3948a-87d1-42ae-9ca0-fba87d57b578","geometry":{"type":"Polygon","coordinates":[[[139.08167295187033,35.975],[139.0816729,35.9749974],[139.0817261,35.9749615],[139.0818093,35.9749754],[139.0818232,35.9749916],[139.08183360567375,35.975],[139.08167295187033,35.975]]]},"properties":{"layer":"landuse","class_code":"214","class_label":"公益施設用地（官公庁施設、文教厚生施設、供給処理施設）"}},{"type":"Feature","id":"luse_304fe6c8-7e7e-4930-a237-8aac3eed49d4","geometry":{"type":"Polygon","coordinates":[[[139.0828874,35.9747951],[139.082847,35.9748444],[139.0828233,35.9748731],[139.0828039,35.9748988],[139.0827941,35.9749186],[139.082786,35.9749382],[139.08278,35.9749563],[139.082774,35.9749725],[139.0827699,35.9749764],[139.0827696,35.9749764],[139.0827679,35.9749771],[139.0827675,35.974977],[139.082765,35.974977],[139.0827615,35.9749755],[139.0827586,35.974973],[139.0827499,35.9749647],[139.082734,35.9749494],[139.0827243,35.974938],[139.0827127,35.9749249],[139.082701,35.9749084],[139.0826878,35.9748854],[139.0826815,35.9748691],[139.0826778,35.9748558],[139.0826773,35.9748488],[139.0826776,35.9748405],[139.0826806,35.9748287],[139.0827029,35.9747907],[139.0827191,35.9747689],[139.082694,35.9747559],[139.0826773,35.9747783],[139.0825178,35.9747013],[139.0824163,35.9746568],[139.082435,35.9746139],[139.0825209,35.9745213],[139.08268,35.9743566],[139.0827491,35.9742793],[139.0830402,35.9739704],[139.0831475,35.9739429],[139.0832654,35.9739325],[139.0834208,35.9737461],[139.0834305,35.9737086],[139.0834349,35.9737132],[139.0834527,35.9737597],[139.0834606,35.9738101],[139.0834602,35.9738292],[139.0834595,35.9738637],[139.0834402,35.973946],[139.0834188,35.9739869],[139.0833886,35.9740284],[139.0832763,35.974183],[139.0832204,35.9742637],[139.083173,35.9743398],[139.083148,35.9743837],[139.0831366,35.9744239],[139.083132,35.9744744],[139.0831231,35.9745003],[139.0831201,35.9745058],[139.0830687,35.9745929],[139.0830254,35.9746665],[139.0829949,35.9747214],[139.0829865,35.9747315],[139.0829811,35.9747347],[139.0829606,35.9747426],[139.08295,35.9747467],[139.0828874,35.9747951]]]},"properties":{"layer":"landuse","class_code":"217","class_label":"公共空地（公園・緑地、広場、運動場、墓園）"}},{"type":"Feature","id":"luse_f287edc5-8100-406f-8112-51e2fbd713bf","geometry":{"type":"Polygon","coordinates":[[[139.0770269,35.9735236],[139.0769314,35.9735141],[139.0769488,35.9734261],[139.0770291,35.9734234],[139.0770269,35.9735236]]]},"properties":{"layer":"landuse","class_code":"214","class_label":"公益施設用地（官公庁施設、文教厚生施設、供給処理施設）"}},{"type":"Feature","id":"luse_025b5d13-ebfd-4d49-a25c-aeb5f7ed05e9","geometry":{"type":"Polygon","coordinates":[[[139.0762303,35.9739838],[139.0761799,35.9739546],[139.0762306,35.9739161],[139.0762668,35.9739453],[139.0762303,35.9739838]]]},"properties":{"layer":"landuse","class_code":"214","class_label":"公益施設用地（官公庁施設、文教厚生施設、供給処理施設）"}},{"type":"Feature","id":"luse_7bc56877-c899-4525-8207-c732fc2a1882","geometry":{"type":"Polygon","coordinates":[[[139.0755712,35.9711732],[139.0754971,35.9711515],[139.0755218,35.9710946],[139.0756144,35.9711138],[139.0755712,35.9711732]]]},"properties":{"layer":"landuse","class_code":"214","class_label":"公益施設用地（官公庁施設、文教厚生施設、供給処理施設）"}},{"type":"Feature","id":"luse_e66dfe50-a479-440d-9e67-ad4da7764411","geometry":{"type":"MultiPolygon","coordinates":[[[[139.08412037003257,35.975],[139.0841204,35.9749977],[139.08412,35.9749573],[139.0841198,35.9748859],[139.0841202,35.9748467],[139.0841223,35.9748111],[139.0841258,35.9747962],[139.0841355,35.9747463],[139.0841382,35.9747091],[139.0841388,35.9746853],[139.0841331,35.9746393],[139.0841257,35.9745712],[139.0841254,35.974569],[139.0841248,35.97454],[139.0841281,35.9745254],[139.0841351,35.9745157],[139.0841597,35.9744895],[139.0841837,35.9744698],[139.0842074,35.9744555],[139.084288,35.974407],[139.0843595,35.974364],[139.0844007,35.9743353],[139.0844178,35.9743095],[139.0844267,35.9742788],[139.0844286,35.974249],[139.084428,35.974225],[139.084425,35.9741921],[139.0844158,35.9741575],[139.0844073,35.9741347],[139.0843856,35.9741],[139.0843488,35.9740629],[139.0842886,35.9740173],[139.0842696,35.9740012],[139.0842452,35.9739836],[139.0842143,35.9739614],[139.0841646,35.9739191],[139.0841026,35.9738373],[139.0840714,35.9737876],[139.0840611,35.9737604],[139.0840533,35.9737401],[139.0840458,35.9737102],[139.0840395,35.9736756],[139.0840314,35.9736387],[139.084027,35.9735914],[139.0840153,35.973528],[139.0839701,35.973435],[139.0839361,35.9733931],[139.0838989,35.9733668],[139.083898,35.9733664],[139.0838291,35.9733322],[139.0837896,35.9733087],[139.0837731,35.9732958],[139.0837564,35.973276],[139.0837312,35.9732382],[139.0836876,35.9731728],[139.0836473,35.9731239],[139.0836388,35.9731147],[139.0836078,35.9730808],[139.0835618,35.9730295],[139.0835032,35.9729667],[139.0834749,35.9729284],[139.0834643,35.9729098],[139.0834591,35.9728869],[139.0834574,35.9728581],[139.0834537,35.97277],[139.08344,35.9727214],[139.0834243,35.9726919],[139.0833856,35.9726541],[139.0833632,35.9726357],[139.0833112,35.972596],[139.0832893,35.9725822],[139.0832539,35.9725623],[139.0832038,35.9725404],[139.0831847,35.972527],[139.0832299,35.9724842],[139.083322,35.9723969],[139.0833966,35.9723272],[139.0834688,35.9722697],[139.0835385,35.9722255],[139.0836063,35.9721859],[139.0835932,35.9721713],[139.0835252,35.9722111],[139.0834542,35.9722561],[139.0833803,35.9723148],[139.0833051,35.9723852],[139.0832131,35.9724724],[139.0831684,35.9725145],[139.0831373,35.9724877],[139.0830734,35.972422],[139.0830517,35.9723818],[139.0830396,35.9723546],[139.0830328,35.9723233],[139.0830309,35.9722947],[139.0830314,35.9722717],[139.0830368,35.9722448],[139.0830473,35.9722191],[139.0830691,35.972186],[139.0830762,35.9721711],[139.0830787,35.9721461],[139.0830776,35.9721288],[139.0830701,35.9721017],[139.083054,35.9720763],[139.0830276,35.9720556],[139.0830221,35.9720534],[139.0830402,35.971994],[139.083051,35.9719442],[139.0830549,35.9718983],[139.0830645,35.9717878],[139.0830457,35.9717878],[139.0830457,35.971758],[139.0830554,35.971758],[139.0830328,35.9717092],[139.0830078,35.9716776],[139.0829888,35.9716419],[139.0829729,35.9716028],[139.0829539,35.9715753],[139.0829442,35.9715627],[139.082942,35.9715489],[139.0829464,35.9715297],[139.0829643,35.9715007],[139.0829793,35.971463],[139.0829843,35.9714286],[139.0829807,35.971391],[139.0829679,35.9713483],[139.0829487,35.971302],[139.0829188,35.9712463],[139.0828702,35.9711639],[139.0828543,35.9711284],[139.0828357,35.9710738],[139.0828092,35.9710016],[139.0827844,35.9709666],[139.0827565,35.9709397],[139.0827067,35.9709071],[139.0826439,35.9708729],[139.0826152,35.9708601],[139.0825903,35.9708431],[139.0825442,35.9707972],[139.0825296,35.9707827],[139.0825197,35.9707728],[139.0823973,35.9706757],[139.0823248,35.9706229],[139.0823077,35.9706096],[139.082273,35.9705823],[139.0821934,35.97055],[139.0821856,35.970547],[139.0821872,35.9705301],[139.0821887,35.9704513],[139.0821849,35.9703367],[139.0821851,35.9702593],[139.0821888,35.9700568],[139.0821877,35.9699508],[139.0821893,35.9698696],[139.0821933,35.9698072],[139.0822009,35.969761],[139.0822179,35.969713],[139.0822502,35.9696458],[139.0822747,35.9696022],[139.0822917,35.9695502],[139.0823,35.969502],[139.0823,35.9694572],[139.0822853,35.9694121],[139.0822611,35.9693602],[139.0822451,35.9693098],[139.0822369,35.9692457],[139.0822472,35.9691076],[139.0822469,35.9690554],[139.0822306,35.968991],[139.0821932,35.9688645],[139.0821644,35.9687445],[139.0821553,35.9686943],[139.0821547,35.9686522],[139.0821631,35.9686234],[139.0821795,35.9685987],[139.0822062,35.9685737],[139.0822456,35.9685509],[139.0822962,35.9685313],[139.0823376,35.9685155],[139.0824298,35.9684776],[139.0824999,35.9684371],[139.0826069,35.9683616],[139.0827378,35.9682418],[139.0828275,35.9681261],[139.0828954,35.9680376],[139.0829785,35.9679573],[139.0831419,35.9678482],[139.0832252,35.9677834],[139.0832835,35.9677538],[139.0833534,35.9677236],[139.083432,35.9676888],[139.0834794,35.967653],[139.0835567,35.9675921],[139.0836884,35.9674675],[139.0838625,35.9672921],[139.0838772,35.9672599],[139.083888,35.9672216],[139.0838941,35.9671803],[139.0838721,35.9671782],[139.0838662,35.9672185],[139.083856,35.9672548],[139.083843,35.9672831],[139.0836714,35.967456],[139.0835405,35.9675797],[139.0834641,35.96764],[139.0834191,35.967674],[139.0834187,35.9676741],[139.083343,35.9677077],[139.0832726,35.9677382],[139.0832114,35.9677691],[139.0831272,35.9678347],[139.0829626,35.9679444],[139.0828775,35.968027],[139.0828088,35.9681165],[139.0827201,35.968231],[139.0825912,35.9683488],[139.0824862,35.9684229],[139.0824183,35.9684622],[139.0823277,35.9684993],[139.0823011,35.9685095],[139.0822344,35.9685351],[139.0822341,35.9685353],[139.0822281,35.9685388],[139.0821911,35.9685603],[139.0821612,35.9685884],[139.0821422,35.9686168],[139.0821325,35.9686502],[139.0821332,35.9686957],[139.0821425,35.9687475],[139.0821714,35.9688683],[139.0822089,35.9689949],[139.0822247,35.9690573],[139.0822249,35.9691071],[139.0822146,35.969246],[139.0822232,35.969313],[139.0822399,35.9693657],[139.0822641,35.9694177],[139.0822778,35.9694595],[139.0822777,35.9695007],[139.0822699,35.9695466],[139.0822538,35.9695961],[139.0822298,35.9696388],[139.0821969,35.9697072],[139.0821792,35.9697574],[139.0821712,35.9698056],[139.0821672,35.9698689],[139.0821654,35.9699507],[139.0821665,35.9700567],[139.0821628,35.9702586],[139.0821609,35.9702845],[139.0821525,35.9704007],[139.082147,35.9704802],[139.0821437,35.9705164],[139.0821425,35.9705303],[139.0821241,35.9705231],[139.0820966,35.970505],[139.0820809,35.9704936],[139.0820635,35.9704767],[139.0820356,35.9704686],[139.0820214,35.9704551],[139.0820131,35.9704406],[139.082003,35.9704159],[139.0819948,35.9703846],[139.0819878,35.9703689],[139.0819719,35.9703634],[139.0819748,35.970414],[139.0819752,35.9704378],[139.0819829,35.9704616],[139.0819934,35.9704816],[139.0820061,35.9705093],[139.08203,35.9705343],[139.0820687,35.9705651],[139.0821028,35.9705851],[139.0821361,35.970599],[139.0821364,35.9705991],[139.0821358,35.9706063],[139.082136,35.9706085],[139.0821396,35.970642],[139.0821485,35.970675],[139.0821605,35.97071],[139.0821728,35.9707433],[139.0821874,35.9707689],[139.0822074,35.9707991],[139.0822238,35.9708196],[139.0822473,35.9708449],[139.0822994,35.9708898],[139.0823458,35.970927],[139.0824011,35.9709721],[139.0824268,35.9710036],[139.0824297,35.9710082],[139.0824324,35.9710459],[139.0824281,35.9710823],[139.0824209,35.9711136],[139.0824105,35.9711513],[139.0824067,35.9711804],[139.0824085,35.9712094],[139.0824139,35.9712484],[139.0824371,35.9713053],[139.08247,35.9713551],[139.0824812,35.9713809],[139.0824838,35.9713941],[139.0824844,35.971413],[139.0824671,35.9714952],[139.0824485,35.9715682],[139.0824265,35.9716372],[139.0824001,35.9717239],[139.0823874,35.9717532],[139.0823765,35.9717746],[139.0823574,35.9717945],[139.0823271,35.9718281],[139.0823016,35.9718552],[139.0822869,35.97187],[139.0822764,35.971892],[139.0822704,35.9719198],[139.0822701,35.9719641],[139.0822755,35.971993],[139.0822834,35.9720222],[139.0822999,35.9720515],[139.082319,35.9720756],[139.0823416,35.9721009],[139.082359,35.9721171],[139.0823739,35.9721257],[139.0823902,35.9721306],[139.0823906,35.9721307],[139.0824133,35.9721343],[139.0824136,35.9721343],[139.0824356,35.9721349],[139.082436,35.9721349],[139.0824644,35.9721337],[139.0824907,35.9721294],[139.0824912,35.9721294],[139.0825286,35.9721229],[139.0825671,35.9721062],[139.0826143,35.9720779],[139.0826864,35.9720219],[139.0827115,35.9720077],[139.0827234,35.9720032],[139.0827411,35.9719999],[139.0827695,35.9719991],[139.0827746,35.9719993],[139.0827943,35.9719999],[139.0828031,35.9720012],[139.0828177,35.9720036],[139.0828426,35.9720126],[139.0828918,35.9720413],[139.0829083,35.9720509],[139.0829136,35.9720528],[139.0828891,35.9720811],[139.0828356,35.9721249],[139.0828324,35.972161],[139.0828075,35.9722191],[139.0828052,35.9722677],[139.0828169,35.9723232],[139.0828308,35.9723565],[139.0828551,35.9723932],[139.0828891,35.9724525],[139.0829384,35.9725185],[139.0829794,35.9725557],[139.0830482,35.9726017],[139.0830547,35.9726078],[139.0830549,35.972608],[139.0830528,35.9726121],[139.0830734,35.9726405],[139.0830787,35.9726311],[139.0831095,35.9726607],[139.0831166,35.9726837],[139.0831193,35.9727162],[139.0831185,35.9727787],[139.0831158,35.9728402],[139.0831176,35.9729209],[139.0831125,35.972997],[139.0831072,35.9730821],[139.0831032,35.9731558],[139.0831011,35.9732429],[139.0831025,35.9732877],[139.0831065,35.973328],[139.0831169,35.9733651],[139.0831294,35.9733919],[139.0831981,35.9734505],[139.0832792,35.973499],[139.0833528,35.9735327],[139.0833813,35.9735479],[139.0834626,35.9735888],[139.0834804,35.9736038],[139.0834937,35.97362],[139.0835119,35.9736752],[139.0835259,35.9737206],[139.0835336,35.9737621],[139.0835396,35.9738058],[139.0835394,35.9738467],[139.0835374,35.9738771],[139.0835267,35.9739437],[139.0835084,35.974015],[139.0835013,35.9740397],[139.0834994,35.9740463],[139.0834805,35.9740436],[139.0834495,35.9740372],[139.0834404,35.9740336],[139.0834357,35.9740318],[139.0834285,35.974023],[139.0834286,35.9740089],[139.0834387,35.973995],[139.0834615,35.9739511],[139.0834816,35.9738656],[139.0834828,35.9738092],[139.0834745,35.9737558],[139.0834551,35.9737048],[139.0834201,35.9736681],[139.0832724,35.9735904],[139.0831741,35.9735556],[139.083058,35.9735104],[139.083025,35.973497],[139.0829967,35.9734802],[139.0829695,35.973447],[139.0829512,35.9734569],[139.0829804,35.9734928],[139.0830132,35.9735125],[139.0830485,35.9735266],[139.0831651,35.9735719],[139.0832619,35.9736063],[139.0834049,35.9736816],[139.0834305,35.9737086],[139.0834208,35.9737461],[139.0832654,35.9739325],[139.0831475,35.9739429],[139.0830402,35.9739704],[139.0827491,35.9742793],[139.08268,35.9743566],[139.0825209,35.9745213],[139.082435,35.9746139],[139.0824163,35.9746568],[139.0823998,35.9747117],[139.0823832,35.9747477],[139.0823519,35.9747992],[139.0823333,35.9748541],[139.08221128670596,35.975],[139.08183360567375,35.975],[139.0818232,35.9749916],[139.0818093,35.9749754],[139.0817261,35.9749615],[139.0816729,35.9749974],[139.08167295187033,35.975],[139.0779771163077,35.975],[139.0779612,35.9749756],[139.0779313,35.9749054],[139.0779083,35.9748945],[139.0779102,35.9748918],[139.0778883,35.9748751],[139.077877,35.9748662],[139.0778594,35.9748616],[139.0778469,35.9748583],[139.0778244,35.9748521],[139.0778191,35.9748506],[139.0777615,35.9748401],[139.0777611,35.97484],[139.077665,35.974819],[139.0776647,35.9748189],[139.0775964,35.9747973],[139.077596,35.9747972],[139.0775287,35.974777],[139.0775135,35.9747729],[139.0774908,35.9747657],[139.0774927,35.9747639],[139.0775982,35.9747114],[139.0777248,35.9746407],[139.0778434,35.974585],[139.0779283,35.9745401],[139.078008,35.9744537],[139.0780768,35.9743687],[139.0781492,35.9742416],[139.07818,35.9741641],[139.0781897,35.9741272],[139.0781912,35.974036],[139.0781816,35.9739423],[139.0781722,35.9738764],[139.0781639,35.9738097],[139.0781543,35.9737063],[139.0781501,35.9736435],[139.0781558,35.9735651],[139.0781825,35.9734687],[139.0782096,35.9733653],[139.078229,35.9732692],[139.0782561,35.9731621],[139.078276,35.9730846],[139.0782939,35.9729917],[139.0782962,35.9729237],[139.0782932,35.9728705],[139.078277,35.9728036],[139.0782542,35.9727215],[139.0782156,35.9726415],[139.0781888,35.972562],[139.07816,35.9724667],[139.0781489,35.9723888],[139.0781427,35.9723894],[139.0781269,35.9723908],[139.0781382,35.9724699],[139.0781674,35.9725665],[139.0781946,35.9726471],[139.0782328,35.9727267],[139.0782551,35.9728074],[139.078271,35.9728726],[139.078274,35.9729239],[139.0782718,35.9729901],[139.0782542,35.9730814],[139.0782342,35.9731585],[139.078207,35.9732659],[139.0781877,35.9733619],[139.0781607,35.9734648],[139.0781336,35.9735626],[139.078128,35.9736434],[139.078132,35.9737075],[139.0781418,35.9738112],[139.0781502,35.9738784],[139.0781595,35.9739441],[139.078169,35.9740367],[139.0781675,35.9741251],[139.0781584,35.9741595],[139.0781285,35.974235],[139.0780574,35.9743599],[139.0779897,35.9744433],[139.077913,35.9745267],[139.0778317,35.9745697],[139.077713,35.9746255],[139.0775861,35.9746963],[139.0775022,35.9747379],[139.0774777,35.9747501],[139.0774691,35.9747586],[139.0774664,35.9747578],[139.0774344,35.9747455],[139.0773876,35.9747274],[139.0773886,35.9747202],[139.0773901,35.9747182],[139.0774147,35.974699],[139.0774491,35.9746418],[139.0774559,35.9746358],[139.0774629,35.9746328],[139.0774632,35.9746327],[139.0774889,35.9746268],[139.0775596,35.9746131],[139.0776276,35.9745973],[139.0776548,35.9745877],[139.0776689,35.9745794],[139.0776839,35.9745629],[139.0776843,35.9745413],[139.0776748,35.97444],[139.0776717,35.9743336],[139.0776713,35.9743335],[139.0776494,35.9743305],[139.0776528,35.974441],[139.077662,35.9745418],[139.0776616,35.9745568],[139.077653,35.9745665],[139.0776439,35.9745721],[139.0776202,35.9745803],[139.077554,35.9745956],[139.0774834,35.9746093],[139.077483,35.9746094],[139.0774549,35.9746158],[139.0774423,35.9746213],[139.0774303,35.9746316],[139.0774106,35.9746656],[139.0774002,35.9746825],[139.0773757,35.9747052],[139.0773755,35.9747056],[139.0773751,35.9747058],[139.0773743,35.9747063],[139.0773528,35.9747139],[139.077349,35.9747134],[139.0773487,35.9747134],[139.0773259,35.9747102],[139.0773097,35.9747079],[139.0772403,35.9746818],[139.0771947,35.974665],[139.0771014,35.9746342],[139.0771011,35.9746341],[139.0770817,35.9746266],[139.0770547,35.9746155],[139.0769833,35.9745874],[139.0769637,35.974579],[139.0769621,35.9745783],[139.0769498,35.974573],[139.0769117,35.9745533],[139.0769113,35.9745531],[139.0768977,35.9745461],[139.0768207,35.9745215],[139.0767551,35.9745003],[139.0767529,35.9744997],[139.0767526,35.9744996],[139.0767266,35.9744826],[139.0767056,35.9744693],[139.0766746,35.9744447],[139.0766633,35.9744353],[139.0766563,35.9744276],[139.0766409,35.9744054],[139.076623,35.9743846],[139.0766052,35.9743705],[139.0765742,35.9743523],[139.0765733,35.9743505],[139.0765704,35.9743442],[139.0765654,35.9743389],[139.0765577,35.9743308],[139.0765341,35.9743111],[139.0765217,35.9743025],[139.076509,35.9742979],[139.0764788,35.9742899],[139.0764763,35.9742892],[139.0763878,35.9742674],[139.0763875,35.9742673],[139.0763328,35.9742561],[139.0763324,35.974256],[139.0762841,35.9742482],[139.0762838,35.9742482],[139.0762593,35.9742441],[139.0762589,35.9742441],[139.0762219,35.9742395],[139.0762215,35.9742395],[139.0761893,35.9742352],[139.076189,35.9742352],[139.0760738,35.9742081],[139.0760734,35.974208],[139.0760427,35.9742008],[139.0760227,35.9741961],[139.0759955,35.9742016],[139.0759844,35.9742133],[139.0759776,35.9742245],[139.0759156,35.9741885],[139.0759461,35.9741713],[139.075993,35.97414],[139.0760065,35.9741285],[139.0760422,35.974073],[139.0760496,35.9740564],[139.076052,35.9740438],[139.0760516,35.974036],[139.0760497,35.9740228],[139.0760429,35.9739929],[139.0760431,35.9739748],[139.0760506,35.9739251],[139.0760538,35.9739152],[139.0760681,35.9738834],[139.07603,35.973876],[139.076025,35.9738991],[139.0760231,35.9739216],[139.0760245,35.9739525],[139.0760233,35.9739727],[139.0760179,35.9740191],[139.0760154,35.9740316],[139.0760102,35.9740508],[139.0760048,35.9740626],[139.0759961,35.9740748],[139.0759672,35.9741066],[139.0759425,35.9741329],[139.0759234,35.9741517],[139.0759127,35.9741583],[139.0758998,35.9741645],[139.0758787,35.974171],[139.0758554,35.9741752],[139.075855,35.9741752],[139.0758334,35.9741779],[139.0758166,35.9741759],[139.0757849,35.9741672],[139.0756988,35.9741421],[139.0756844,35.9741379],[139.0756383,35.9741233],[139.0755854,35.9741096],[139.075569,35.9741061],[139.0755589,35.9741065],[139.0755349,35.9741114],[139.0754984,35.974121],[139.0754896,35.9741253],[139.0754864,35.974127],[139.0754718,35.9741354],[139.0754579,35.9741217],[139.07545,35.9741136],[139.0754418,35.974105],[139.0753938,35.9740692],[139.0753644,35.9740612],[139.075137,35.9739594],[139.0750875,35.973932],[139.0750465,35.9739136],[139.075,35.9739112590389],[139.075,35.97025319921322],[139.0750448,35.9702526],[139.0750629,35.9702523],[139.0752173,35.970251],[139.0752769,35.970245],[139.0753097,35.9702378],[139.0753301,35.9702334],[139.0753918,35.9702073],[139.0754111,35.9701992],[139.0755225,35.9701335],[139.0756414,35.9700739],[139.0758363,35.9699982],[139.0760302,35.969885],[139.076237,35.9697894],[139.0762618,35.9697811],[139.0764049,35.9697331],[139.0765184,35.9697075],[139.0765675,35.9696897],[139.0766477,35.9696552],[139.0766696,35.9696473],[139.0767145,35.969631],[139.0769651,35.9695608],[139.0771763,35.9694849],[139.0774137,35.9694145],[139.0774586,35.9694012],[139.0775386,35.9693808],[139.0777128,35.9693481],[139.0780248,35.9692553],[139.078062,35.9692313],[139.0778975,35.9686802],[139.0771094,35.9682483],[139.0768529,35.9683312],[139.0767943,35.9683221],[139.0767219,35.9683099],[139.0765489,35.9683853],[139.0765105,35.9683757],[139.0764269,35.9683566],[139.076371,35.9683472],[139.0763077,35.9683471],[139.0762432,35.9683568],[139.0761944,35.9683788],[139.0760958,35.9684187],[139.0759502,35.9684848],[139.0758508,35.9685374],[139.0757469,35.9686047],[139.0756667,35.9686598],[139.0756109,35.9687082],[139.0755448,35.9687657],[139.0754975,35.9688023],[139.0754511,35.9688609],[139.0754449,35.9688701],[139.075376,35.9689357],[139.0751658,35.9691679],[139.0751297,35.9692089],[139.075,35.969357420551546],[139.075,35.96666666666667],[139.0875,35.96666666666667],[139.0875,35.968730773019466],[139.0874647,35.9687348],[139.0872803,35.9687727],[139.0870925,35.968817],[139.0872267,35.9689935],[139.0872397,35.9690323],[139.0872485,35.9690603],[139.0872549,35.9690946],[139.0872553,35.9691766],[139.0872517,35.969238],[139.0872479,35.9692966],[139.0872793,35.9695762],[139.0872722,35.9696484],[139.0872606,35.9697133],[139.0872515,35.9697457],[139.0872213,35.9698051],[139.0871351,35.9698967],[139.0869778,35.9700421],[139.0869951,35.9701097],[139.0870046,35.9701856],[139.0870129,35.9702524],[139.0870087,35.9703786],[139.0869825,35.9704921],[139.0869688,35.9705507],[139.0869582,35.9706386],[139.0869535,35.9706778],[139.0869498,35.9707273],[139.0869352,35.9707643],[139.0868366,35.9709207],[139.0867815,35.9711775],[139.0867936,35.9711929],[139.0868155,35.9712336],[139.0868772,35.9712987],[139.0869478,35.9713703],[139.0870293,35.9714383],[139.0870834,35.9714791],[139.0871309,35.9715163],[139.0871783,35.9715544],[139.0872446,35.9715952],[139.0873075,35.9716325],[139.0875,35.97171346297159],[139.0875,35.97277078358208],[139.0874872,35.9727939],[139.0874614,35.9728416],[139.087293,35.9731312],[139.0872603,35.9732195],[139.087234,35.9733365],[139.0872221,35.9734492],[139.0872259,35.9735602],[139.087231,35.9736161],[139.0872482,35.9736802],[139.08726,35.9737659],[139.0872552,35.9738173],[139.0872471,35.9738419],[139.0872196,35.9739219],[139.0871995,35.9739589],[139.0871727,35.9740003],[139.0871081,35.9740921],[139.0870814,35.9741318],[139.087078,35.9741534],[139.0870618,35.9743824],[139.0870616,35.9743987],[139.0870606,35.9744095],[139.0870494,35.9744409],[139.0870212,35.974568],[139.0870024,35.9746041],[139.0869568,35.9746518],[139.0869589,35.9746672],[139.0869664,35.9747114],[139.0869994,35.9747989],[139.0870633,35.9749351],[139.08707583781802,35.975],[139.08663987916665,35.975],[139.0867309,35.9749743],[139.0867236,35.9749573],[139.0865868,35.9749959],[139.08657528972714,35.975],[139.08412037003257,35.975]]],[[[139.0762303,35.9739838],[139.0762668,35.9739453],[139.0762306,35.9739161],[139.0761799,35.9739546],[139.0762303,35.9739838]]],[[[139.0755712,35.9711732],[139.0756144,35.9711138],[139.0755218,35.9710946],[139.0754971,35.9711515],[139.0755712,35.9711732]]],[[[139.0783183,35.9749038],[139.0782699,35.9748755],[139.0782312,35.9748772],[139.0781987,35.9749527],[139.0782317,35.9749731],[139.0782821,35.9749747],[139.0783183,35.9749038]]],[[[139.0770269,35.9735236],[139.0770291,35.9734234],[139.0769488,35.9734261],[139.0769314,35.9735141],[139.0770269,35.9735236]]]]},"properties":{"layer":"landuse","class_code":"203","class_label":"山林（樹林地）"}},{"type":"Feature","id":"luse_112d6769-bb6a-4c81-a268-7b2f0b4556c2","geometry":{"type":"Polygon","coordinates":[[[139.075,35.969357420551546],[139.0751297,35.9692089],[139.0751658,35.9691679],[139.075376,35.9689357],[139.0754449,35.9688701],[139.0754511,35.9688609],[139.0754975,35.9688023],[139.0755448,35.9687657],[139.0756109,35.9687082],[139.0756667,35.9686598],[139.0757469,35.9686047],[139.0758508,35.9685374],[139.0759502,35.9684848],[139.0760958,35.9684187],[139.0761944,35.9683788],[139.0762432,35.9683568],[139.0763077,35.9683471],[139.076371,35.9683472],[139.0764269,35.9683566],[139.0765105,35.9683757],[139.0765489,35.9683853],[139.0767219,35.9683099],[139.0767943,35.9683221],[139.0768529,35.9683312],[139.0771094,35.9682483],[139.0778975,35.9686802],[139.078062,35.9692313],[139.0780248,35.9692553],[139.0777128,35.9693481],[139.0775386,35.9693808],[139.0774586,35.9694012],[139.0774137,35.9694145],[139.0771763,35.9694849],[139.0769651,35.9695608],[139.0767145,35.969631],[139.0766696,35.9696473],[139.0766477,35.9696552],[139.0765675,35.9696897],[139.0765184,35.9697075],[139.0764049,35.9697331],[139.0762618,35.9697811],[139.076237,35.9697894],[139.0760302,35.969885],[139.0758363,35.9699982],[139.0756414,35.9700739],[139.0755225,35.9701335],[139.0754111,35.9701992],[139.0753918,35.9702073],[139.0753301,35.9702334],[139.0753097,35.9702378],[139.0752769,35.970245],[139.0752173,35.970251],[139.0750629,35.9702523],[139.0750448,35.9702526],[139.075,35.97025319921322],[139.075,35.969357420551546]]]},"properties":{"layer":"landuse","class_code":"213","class_label":"工業用地（工場）"}},{"type":"Feature","id":"luse_66654b4e-d904-4229-b888-98f7121c4bef","geometry":{"type":"MultiPolygon","coordinates":[[[[139.075,35.975],[139.075,35.9742222209481],[139.075093,35.9742759],[139.0750988,35.9742792],[139.0751908,35.9743349],[139.0752149,35.9743494],[139.0752316,35.9743443],[139.075237,35.9743387],[139.0752394,35.9743369],[139.0752377,35.9743355],[139.0752563,35.9743197],[139.0752723,35.9743062],[139.075277,35.9743018],[139.0753044,35.9742767],[139.0753434,35.9742421],[139.0753707,35.9742206],[139.075399,35.974196],[139.0754461,35.9741549],[139.0754497,35.9741522],[139.0754718,35.9741354],[139.0754864,35.974127],[139.0754896,35.9741253],[139.0754984,35.974121],[139.0755349,35.9741114],[139.0755589,35.9741065],[139.075569,35.9741061],[139.0755854,35.9741096],[139.0756383,35.9741233],[139.0756844,35.9741379],[139.0756988,35.9741421],[139.0757849,35.9741672],[139.0758166,35.9741759],[139.0758334,35.9741779],[139.075855,35.9741752],[139.0758554,35.9741752],[139.0758787,35.974171],[139.0758998,35.9741645],[139.0759127,35.9741583],[139.0759234,35.9741517],[139.0759425,35.9741329],[139.0759672,35.9741066],[139.0759961,35.9740748],[139.0760048,35.9740626],[139.0760102,35.9740508],[139.0760154,35.9740316],[139.0760179,35.9740191],[139.0760233,35.9739727],[139.0760245,35.9739525],[139.0760231,35.9739216],[139.076025,35.9738991],[139.07603,35.973876],[139.0760681,35.9738834],[139.0760538,35.9739152],[139.0760506,35.9739251],[139.0760431,35.9739748],[139.0760429,35.9739929],[139.0760497,35.9740228],[139.0760516,35.974036],[139.076052,35.9740438],[139.0760496,35.9740564],[139.0760422,35.974073],[139.0760065,35.9741285],[139.075993,35.97414],[139.0759461,35.9741713],[139.0759156,35.9741885],[139.0758943,35.9741973],[139.0758939,35.9741974],[139.0758747,35.974203],[139.0758744,35.9742031],[139.0758437,35.9742095],[139.0758216,35.9742303],[139.0758134,35.974238],[139.0758124,35.974239],[139.0757506,35.9742975],[139.0756924,35.9743635],[139.0756377,35.974425],[139.0755775,35.9744893],[139.0755611,35.9745062],[139.075554,35.9745143],[139.0755508,35.9745181],[139.0755494,35.974521],[139.0755489,35.9745224],[139.0755488,35.9745233],[139.0755558,35.9745413],[139.0755735,35.9745534],[139.0756128,35.9745802],[139.0756541,35.9746037],[139.0756814,35.9746191],[139.0756985,35.9746286],[139.0757537,35.9746532],[139.0757588,35.9746555],[139.0758052,35.9746755],[139.0758227,35.9746823],[139.0758353,35.9746848],[139.0759686,35.9747004],[139.075975,35.9747011],[139.0760022,35.9747006],[139.0760768,35.9746918],[139.0761272,35.9746845],[139.0761276,35.9746845],[139.0761478,35.9746821],[139.0762832,35.9746661],[139.0763051,35.9746383],[139.0762581,35.9745734],[139.0762229,35.974522],[139.0762143,35.974508],[139.0762109,35.9744954],[139.0762078,35.974483],[139.0762062,35.9744657],[139.0761982,35.9743778],[139.0762224,35.9743765],[139.0762459,35.9743753],[139.0762483,35.9744102],[139.0762495,35.9744284],[139.0762563,35.9744853],[139.0762586,35.9744927],[139.076264,35.9745027],[139.0763029,35.9745615],[139.0763548,35.9746392],[139.0763657,35.9746568],[139.0763706,35.974655],[139.0764353,35.9746302],[139.0764592,35.9746227],[139.0764744,35.9746225],[139.0765615,35.9745978],[139.0765844,35.97459],[139.0765847,35.9745898],[139.0766294,35.9745648],[139.0766984,35.9745226],[139.0767097,35.9745158],[139.0767115,35.9745144],[139.0767125,35.9745129],[139.076713,35.9745107],[139.076713,35.974509],[139.0767123,35.9745076],[139.0767091,35.9745029],[139.0767062,35.9744985],[139.0766903,35.9744797],[139.0766674,35.9744574],[139.0766569,35.9744493],[139.0766482,35.9744427],[139.0766407,35.9744369],[139.0766294,35.9744263],[139.0766223,35.974414],[139.0766219,35.9744133],[139.0766121,35.9744012],[139.0765981,35.9743876],[139.0765883,35.9743808],[139.0765733,35.974373],[139.0765573,35.9743676],[139.0765324,35.9743388],[139.0765214,35.974329],[139.0765089,35.9743225],[139.0765085,35.9743224],[139.0764832,35.9743149],[139.0764828,35.9743148],[139.0764157,35.9742978],[139.0764154,35.9742977],[139.0763582,35.9742841],[139.0763578,35.974284],[139.0763233,35.9742774],[139.0763086,35.9742746],[139.076255,35.9742646],[139.0762546,35.9742645],[139.0762444,35.9742629],[139.076244,35.9742629],[139.076218,35.9742612],[139.0762118,35.9742608],[139.0761839,35.9742561],[139.0761668,35.9742517],[139.0761168,35.9742387],[139.0760348,35.9742196],[139.0760244,35.9742168],[139.0760241,35.9742167],[139.0760152,35.9742156],[139.0760083,35.9742165],[139.0760024,35.9742203],[139.075994,35.9742311],[139.0759877,35.9742429],[139.0759767,35.9742674],[139.0759715,35.9742884],[139.0759711,35.9743016],[139.0759756,35.974334],[139.0759757,35.9743494],[139.0759756,35.9743585],[139.0759755,35.9743672],[139.0759746,35.9743892],[139.0759769,35.9744025],[139.0759841,35.9744233],[139.0759896,35.9744338],[139.0760061,35.9744646],[139.0760094,35.9744715],[139.0760262,35.9745061],[139.0760327,35.974519],[139.0760157,35.9745235],[139.0760117,35.9745103],[139.0759948,35.9744721],[139.075993,35.9744684],[139.0759771,35.9744344],[139.0759712,35.9744216],[139.075963,35.9743896],[139.0759621,35.9743686],[139.075964,35.9743552],[139.0759647,35.9743503],[139.0759632,35.9743336],[139.0759582,35.9743176],[139.0759555,35.974301],[139.0759574,35.9742811],[139.0759634,35.9742606],[139.0759776,35.9742245],[139.0759844,35.9742133],[139.0759955,35.9742016],[139.0760227,35.9741961],[139.0760427,35.9742008],[139.0760734,35.974208],[139.0760738,35.9742081],[139.076189,35.9742352],[139.0761893,35.9742352],[139.0762215,35.9742395],[139.0762219,35.9742395],[139.0762589,35.9742441],[139.0762593,35.9742441],[139.0762838,35.9742482],[139.0762841,35.9742482],[139.0763324,35.974256],[139.0763328,35.9742561],[139.0763875,35.9742673],[139.0763878,35.9742674],[139.0764763,35.9742892],[139.0764788,35.9742899],[139.076509,35.9742979],[139.0765217,35.9743025],[139.0765341,35.9743111],[139.0765577,35.9743308],[139.0765654,35.9743389],[139.0765704,35.9743442],[139.0765733,35.9743505],[139.0765742,35.9743523],[139.0766052,35.9743705],[139.076623,35.9743846],[139.0766409,35.9744054],[139.0766563,35.9744276],[139.0766633,35.9744353],[139.0766746,35.9744447],[139.0767056,35.9744693],[139.0767266,35.9744826],[139.0767526,35.9744996],[139.0767529,35.9744997],[139.0767551,35.9745003],[139.0768207,35.9745215],[139.0768977,35.9745461],[139.0769113,35.9745531],[139.0769117,35.9745533],[139.0769498,35.974573],[139.0769621,35.9745783],[139.0769637,35.974579],[139.0769833,35.9745874],[139.0770547,35.9746155],[139.0770817,35.9746266],[139.0771011,35.9746341],[139.0771014,35.9746342],[139.0771947,35.974665],[139.0772403,35.9746818],[139.0773097,35.9747079],[139.0773259,35.9747102],[139.0773487,35.9747134],[139.077349,35.9747134],[139.0773528,35.9747139],[139.0773743,35.9747063],[139.0773751,35.9747058],[139.0773755,35.9747056],[139.0773757,35.9747052],[139.0774002,35.9746825],[139.0774106,35.9746656],[139.0774303,35.9746316],[139.0774423,35.9746213],[139.0774549,35.9746158],[139.077483,35.9746094],[139.0774834,35.9746093],[139.077554,35.9745956],[139.0776202,35.9745803],[139.0776439,35.9745721],[139.077653,35.9745665],[139.0776616,35.9745568],[139.077662,35.9745418],[139.0776528,35.974441],[139.0776494,35.9743305],[139.0776713,35.9743335],[139.0776717,35.9743336],[139.0776748,35.97444],[139.0776843,35.9745413],[139.0776839,35.9745629],[139.0776689,35.9745794],[139.0776548,35.9745877],[139.0776276,35.9745973],[139.0775596,35.9746131],[139.0774889,35.9746268],[139.0774632,35.9746327],[139.0774629,35.9746328],[139.0774559,35.9746358],[139.0774491,35.9746418],[139.0774147,35.974699],[139.0773901,35.9747182],[139.0773886,35.9747202],[139.0773876,35.9747274],[139.0774344,35.9747455],[139.0774664,35.9747578],[139.0774691,35.9747586],[139.0774777,35.9747501],[139.0775022,35.9747379],[139.0775861,35.9746963],[139.077713,35.9746255],[139.0778317,35.9745697],[139.077913,35.9745267],[139.0779897,35.9744433],[139.0780574,35.9743599],[139.0781285,35.974235],[139.0781584,35.9741595],[139.0781675,35.9741251],[139.078169,35.9740367],[139.0781595,35.9739441],[139.0781502,35.9738784],[139.0781418,35.9738112],[139.078132,35.9737075],[139.078128,35.9736434],[139.0781336,35.9735626],[139.0781607,35.9734648],[139.0781877,35.9733619],[139.078207,35.9732659],[139.0782342,35.9731585],[139.0782542,35.9730814],[139.0782718,35.9729901],[139.078274,35.9729239],[139.078271,35.9728726],[139.0782551,35.9728074],[139.0782328,35.9727267],[139.0781946,35.9726471],[139.0781674,35.9725665],[139.0781382,35.9724699],[139.0781269,35.9723908],[139.0781427,35.9723894],[139.0781489,35.9723888],[139.07816,35.9724667],[139.0781888,35.972562],[139.0782156,35.9726415],[139.0782542,35.9727215],[139.078277,35.9728036],[139.0782932,35.9728705],[139.0782962,35.9729237],[139.0782939,35.9729917],[139.078276,35.9730846],[139.0782561,35.9731621],[139.078229,35.9732692],[139.0782096,35.9733653],[139.0781825,35.9734687],[139.0781558,35.9735651],[139.0781501,35.9736435],[139.0781543,35.9737063],[139.0781639,35.9738097],[139.0781722,35.9738764],[139.0781816,35.9739423],[139.0781912,35.974036],[139.0781897,35.9741272],[139.07818,35.9741641],[139.0781492,35.9742416],[139.0780768,35.9743687],[139.078008,35.9744537],[139.0779283,35.9745401],[139.0778434,35.974585],[139.0777248,35.9746407],[139.0775982,35.9747114],[139.0774927,35.9747639],[139.0774908,35.9747657],[139.0775135,35.9747729],[139.0775287,35.974777],[139.077596,35.9747972],[139.0775964,35.9747973],[139.0776647,35.9748189],[139.077665,35.974819],[139.0777611,35.97484],[139.0777615,35.9748401],[139.0778191,35.9748506],[139.0778244,35.9748521],[139.0778469,35.9748583],[139.0778594,35.9748616],[139.077877,35.9748662],[139.0778883,35.9748751],[139.0779102,35.9748918],[139.0779083,35.9748945],[139.0778768,35.9749389],[139.0778533,35.9749652],[139.07782197439613,35.975],[139.08275186086956,35.975],[139.0827492,35.9749964],[139.0827442,35.9749932],[139.0827298,35.9749816],[139.0827105,35.9749646],[139.0826999,35.9749521],[139.0826876,35.9749381],[139.0826744,35.9749196],[139.0826598,35.9748942],[139.0826524,35.9748754],[139.0826477,35.9748587],[139.0826473,35.9748494],[139.0826477,35.9748382],[139.0826515,35.9748228],[139.0826773,35.9747783],[139.082694,35.9747559],[139.0827191,35.9747689],[139.0827029,35.9747907],[139.0826806,35.9748287],[139.0826776,35.9748405],[139.0826773,35.9748488],[139.0826778,35.9748558],[139.0826815,35.9748691],[139.0826878,35.9748854],[139.082701,35.9749084],[139.0827127,35.9749249],[139.0827243,35.974938],[139.082734,35.9749494],[139.0827499,35.9749647],[139.0827586,35.974973],[139.0827615,35.9749755],[139.082765,35.974977],[139.0827675,35.974977],[139.0827679,35.9749771],[139.0827696,35.9749764],[139.0827699,35.9749764],[139.082774,35.9749725],[139.08278,35.9749563],[139.082786,35.9749382],[139.0827941,35.9749186],[139.0828039,35.9748988],[139.0828233,35.9748731],[139.082847,35.9748444],[139.0828874,35.9747951],[139.08295,35.9747467],[139.0829606,35.9747426],[139.0829811,35.9747347],[139.0829865,35.9747315],[139.0829949,35.9747214],[139.0830254,35.9746665],[139.0830687,35.9745929],[139.0831201,35.9745058],[139.0831231,35.9745003],[139.083132,35.9744744],[139.0831366,35.9744239],[139.083148,35.9743837],[139.083173,35.9743398],[139.0832204,35.9742637],[139.0832763,35.974183],[139.0833886,35.9740284],[139.0834188,35.9739869],[139.0834402,35.973946],[139.0834595,35.9738637],[139.0834602,35.9738292],[139.0834606,35.9738101],[139.0834527,35.9737597],[139.0834349,35.9737132],[139.0834305,35.9737086],[139.0834049,35.9736816],[139.0832619,35.9736063],[139.0831651,35.9735719],[139.0830485,35.9735266],[139.0830132,35.9735125],[139.0829804,35.9734928],[139.0829512,35.9734569],[139.0829695,35.973447],[139.0829967,35.9734802],[139.083025,35.973497],[139.083058,35.9735104],[139.0831741,35.9735556],[139.0832724,35.9735904],[139.0834201,35.9736681],[139.0834551,35.9737048],[139.0834745,35.9737558],[139.0834828,35.9738092],[139.0834816,35.9738656],[139.0834615,35.9739511],[139.0834387,35.973995],[139.0834286,35.9740089],[139.0834285,35.974023],[139.0834357,35.9740318],[139.0834404,35.9740336],[139.0834495,35.9740372],[139.0834805,35.9740436],[139.0834994,35.9740463],[139.0835812,35.9740576],[139.0835818,35.9740577],[139.0836062,35.9740611],[139.0836134,35.9740626],[139.0837251,35.9740926],[139.0837345,35.9740915],[139.0837349,35.9740914],[139.0838297,35.9740717],[139.0837154,35.9738067],[139.083731,35.9738022],[139.0837571,35.9737948],[139.0838958,35.9741161],[139.0838991,35.9741172],[139.0839343,35.9741308],[139.0839371,35.9741303],[139.084239,35.9740835],[139.084258,35.9740813],[139.0843143,35.9740748],[139.0843156,35.9740746],[139.0842653,35.9740365],[139.0842466,35.9740208],[139.0841913,35.9739809],[139.0841381,35.9739357],[139.0840736,35.9738505],[139.0840402,35.9737978],[139.084021,35.9737467],[139.0840131,35.9737149],[139.0840067,35.9736799],[139.0839983,35.9736422],[139.0839939,35.9735944],[139.0839828,35.9735351],[139.0839403,35.9734476],[139.083911,35.9734111],[139.0838791,35.9733887],[139.0838272,35.973363],[139.0838104,35.9733547],[139.0837679,35.9733294],[139.0837475,35.9733133],[139.083728,35.9732902],[139.083702,35.973251],[139.0836589,35.9731868],[139.0836202,35.9731396],[139.083581,35.9730968],[139.0835351,35.9730456],[139.0834757,35.972982],[139.0834454,35.9729411],[139.0834324,35.9729181],[139.083426,35.97289],[139.0834242,35.9728593],[139.0834207,35.9727735],[139.0834082,35.9727298],[139.0833957,35.9727062],[139.0833609,35.9726723],[139.0833401,35.9726551],[139.0832895,35.9726166],[139.0832697,35.9726039],[139.0832367,35.9725854],[139.083185,35.9725629],[139.0831652,35.9725492],[139.0831535,35.972541],[139.0831317,35.9725224],[139.0831101,35.9725725],[139.0830935,35.9726035],[139.0830911,35.972608],[139.0830787,35.9726311],[139.0830734,35.9726405],[139.0830528,35.9726121],[139.0830549,35.972608],[139.0830671,35.9725851],[139.0830726,35.9725748],[139.0830791,35.9725626],[139.0831064,35.9724996],[139.0830444,35.972436],[139.0830207,35.9723917],[139.0830074,35.9723617],[139.0829998,35.9723265],[139.0829976,35.9722951],[139.0829983,35.9722693],[139.0830042,35.9722384],[139.0830166,35.9722084],[139.0830386,35.9721748],[139.0830434,35.972165],[139.0830451,35.9721457],[139.0830444,35.9721326],[139.0830399,35.9721167],[139.0830316,35.9721027],[139.0830092,35.9720883],[139.0830078,35.9720878],[139.0829513,35.9720668],[139.0829136,35.9720528],[139.0829083,35.9720509],[139.0828918,35.9720413],[139.0828426,35.9720126],[139.0828177,35.9720036],[139.0828031,35.9720012],[139.0827943,35.9719999],[139.0827746,35.9719993],[139.0827695,35.9719991],[139.0827411,35.9719999],[139.0827234,35.9720032],[139.0827115,35.9720077],[139.0826864,35.9720219],[139.0826143,35.9720779],[139.0825671,35.9721062],[139.0825286,35.9721229],[139.0824912,35.9721294],[139.0824907,35.9721294],[139.0824644,35.9721337],[139.082436,35.9721349],[139.0824356,35.9721349],[139.0824136,35.9721343],[139.0824133,35.9721343],[139.0823906,35.9721307],[139.0823902,35.9721306],[139.0823739,35.9721257],[139.082359,35.9721171],[139.0823416,35.9721009],[139.082319,35.9720756],[139.0822999,35.9720515],[139.0822834,35.9720222],[139.0822755,35.971993],[139.0822701,35.9719641],[139.0822704,35.9719198],[139.0822764,35.971892],[139.0822869,35.97187],[139.0823016,35.9718552],[139.0823271,35.9718281],[139.0823574,35.9717945],[139.0823765,35.9717746],[139.0823874,35.9717532],[139.0824001,35.9717239],[139.0824265,35.9716372],[139.0824485,35.9715682],[139.0824671,35.9714952],[139.0824844,35.971413],[139.0824838,35.9713941],[139.0824812,35.9713809],[139.08247,35.9713551],[139.0824371,35.9713053],[139.0824139,35.9712484],[139.0824085,35.9712094],[139.0824067,35.9711804],[139.0824105,35.9711513],[139.0824209,35.9711136],[139.0824281,35.9710823],[139.0824324,35.9710459],[139.0824297,35.9710082],[139.0824268,35.9710036],[139.0824011,35.9709721],[139.0823458,35.970927],[139.0822994,35.9708898],[139.0822473,35.9708449],[139.0822238,35.9708196],[139.0822074,35.9707991],[139.0821874,35.9707689],[139.0821728,35.9707433],[139.0821605,35.97071],[139.0821485,35.970675],[139.0821396,35.970642],[139.082136,35.9706085],[139.0821358,35.9706063],[139.0821364,35.9705991],[139.0821425,35.9705303],[139.0821437,35.9705164],[139.082147,35.9704802],[139.0821525,35.9704007],[139.0821609,35.9702845],[139.0821628,35.9702586],[139.0821665,35.9700567],[139.0821654,35.9699507],[139.0821672,35.9698689],[139.0821712,35.9698056],[139.0821792,35.9697574],[139.0821969,35.9697072],[139.0822298,35.9696388],[139.0822538,35.9695961],[139.0822699,35.9695466],[139.0822777,35.9695007],[139.0822778,35.9694595],[139.0822641,35.9694177],[139.0822399,35.9693657],[139.0822232,35.969313],[139.0822146,35.969246],[139.0822249,35.9691071],[139.0822247,35.9690573],[139.0822089,35.9689949],[139.0821714,35.9688683],[139.0821425,35.9687475],[139.0821332,35.9686957],[139.0821325,35.9686502],[139.0821422,35.9686168],[139.0821612,35.9685884],[139.0821911,35.9685603],[139.0822281,35.9685388],[139.0822341,35.9685353],[139.0822344,35.9685351],[139.0823011,35.9685095],[139.0823277,35.9684993],[139.0824183,35.9684622],[139.0824862,35.9684229],[139.0825912,35.9683488],[139.0827201,35.968231],[139.0828088,35.9681165],[139.0828775,35.968027],[139.0829626,35.9679444],[139.0831272,35.9678347],[139.0832114,35.9677691],[139.0832726,35.9677382],[139.083343,35.9677077],[139.0834187,35.9676741],[139.0834191,35.967674],[139.0834641,35.96764],[139.0835405,35.9675797],[139.0836714,35.967456],[139.083843,35.9672831],[139.083856,35.9672548],[139.0838662,35.9672185],[139.0838721,35.9671782],[139.0838941,35.9671803],[139.083888,35.9672216],[139.0838772,35.9672599],[139.0838625,35.9672921],[139.0836884,35.9674675],[139.0835567,35.9675921],[139.0834794,35.967653],[139.083432,35.9676888],[139.0833534,35.9677236],[139.0832835,35.9677538],[139.0832252,35.9677834],[139.0831419,35.9678482],[139.0829785,35.9679573],[139.0828954,35.9680376],[139.0828275,35.9681261],[139.0827378,35.9682418],[139.0826069,35.9683616],[139.0824999,35.9684371],[139.0824298,35.9684776],[139.0823376,35.9685155],[139.0822962,35.9685313],[139.0822456,35.9685509],[139.0822062,35.9685737],[139.0821795,35.9685987],[139.0821631,35.9686234],[139.0821547,35.9686522],[139.0821553,35.9686943],[139.0821644,35.9687445],[139.0821932,35.9688645],[139.0822306,35.968991],[139.0822469,35.9690554],[139.0822472,35.9691076],[139.0822369,35.9692457],[139.0822451,35.9693098],[139.0822611,35.9693602],[139.0822853,35.9694121],[139.0823,35.9694572],[139.0823,35.969502],[139.0822917,35.9695502],[139.0822747,35.9696022],[139.0822502,35.9696458],[139.0822179,35.969713],[139.0822009,35.969761],[139.0821933,35.9698072],[139.0821893,35.9698696],[139.0821877,35.9699508],[139.0821888,35.9700568],[139.0821851,35.9702593],[139.0821849,35.9703367],[139.0821887,35.9704513],[139.0821872,35.9705301],[139.0821856,35.970547],[139.08218,35.9706088],[139.0821794,35.9706154],[139.082179,35.97062],[139.0821763,35.9706424],[139.0821811,35.9706695],[139.0821924,35.9707025],[139.0822042,35.9707337],[139.0822172,35.9707567],[139.0822369,35.9707862],[139.0822511,35.9708042],[139.0822727,35.9708275],[139.0823232,35.9708709],[139.0823692,35.9709078],[139.0824269,35.9709549],[139.0824559,35.9709902],[139.0824743,35.9710208],[139.0824845,35.9710646],[139.0824846,35.9710794],[139.0824824,35.9711023],[139.0824726,35.9711342],[139.0824555,35.971169],[139.0824462,35.9711848],[139.082442,35.9712097],[139.0824465,35.9712425],[139.0824678,35.9712946],[139.0825005,35.9713441],[139.0825135,35.9713742],[139.082517,35.9713915],[139.0825178,35.9714149],[139.0825,35.9715002],[139.0824811,35.9715743],[139.0824589,35.9716438],[139.082432,35.9717317],[139.0824185,35.9717628],[139.0824056,35.9717883],[139.0823838,35.9718108],[139.0823538,35.9718442],[139.0823277,35.971872],[139.0823161,35.9718837],[139.0823087,35.9718993],[139.0823036,35.9719223],[139.0823034,35.9719621],[139.0823082,35.9719879],[139.0823153,35.9720136],[139.0823291,35.9720385],[139.0823465,35.9720603],[139.0823676,35.972084],[139.0823816,35.9720969],[139.0823896,35.9721016],[139.0823994,35.9721046],[139.0823997,35.9721046],[139.0824171,35.9721074],[139.0824353,35.9721079],[139.0824357,35.9721079],[139.0824602,35.9721069],[139.0824843,35.9721029],[139.0825171,35.9720973],[139.0825492,35.9720832],[139.0825928,35.9720571],[139.0826652,35.9720009],[139.0826949,35.9719841],[139.0827126,35.9719775],[139.0827365,35.9719731],[139.0827369,35.971973],[139.0827696,35.9719721],[139.082798,35.9719729],[139.0827983,35.9719729],[139.0828276,35.9719776],[139.082828,35.9719777],[139.0828574,35.9719883],[139.0829044,35.9720086],[139.0829267,35.9720181],[139.0829285,35.9720187],[139.0829647,35.9720322],[139.0830221,35.9720534],[139.0830276,35.9720556],[139.083054,35.9720763],[139.0830701,35.9721017],[139.0830776,35.9721288],[139.0830787,35.9721461],[139.0830762,35.9721711],[139.0830691,35.972186],[139.0830473,35.9722191],[139.0830368,35.9722448],[139.0830314,35.9722717],[139.0830309,35.9722947],[139.0830328,35.9723233],[139.0830396,35.9723546],[139.0830517,35.9723818],[139.0830734,35.972422],[139.0831373,35.9724877],[139.0831684,35.9725145],[139.0832131,35.9724724],[139.0833051,35.9723852],[139.0833803,35.9723148],[139.0834542,35.9722561],[139.0835252,35.9722111],[139.0835932,35.9721713],[139.0836063,35.9721859],[139.0835385,35.9722255],[139.0834688,35.9722697],[139.0833966,35.9723272],[139.083322,35.9723969],[139.0832299,35.9724842],[139.0831847,35.972527],[139.0832038,35.9725404],[139.0832539,35.9725623],[139.0832893,35.9725822],[139.0833112,35.972596],[139.0833632,35.9726357],[139.0833856,35.9726541],[139.0834243,35.9726919],[139.08344,35.9727214],[139.0834537,35.97277],[139.0834574,35.9728581],[139.0834591,35.9728869],[139.0834643,35.9729098],[139.0834749,35.9729284],[139.0835032,35.9729667],[139.0835618,35.9730295],[139.0836078,35.9730808],[139.0836388,35.9731147],[139.0836473,35.9731239],[139.0836876,35.9731728],[139.0837312,35.9732382],[139.0837564,35.973276],[139.0837731,35.9732958],[139.0837896,35.9733087],[139.0838291,35.9733322],[139.083898,35.9733664],[139.0838989,35.9733668],[139.0839361,35.9733931],[139.0839701,35.973435],[139.0840153,35.973528],[139.084027,35.9735914],[139.0840314,35.9736387],[139.0840395,35.9736756],[139.0840458,35.9737102],[139.0840533,35.9737401],[139.0840611,35.9737604],[139.0840714,35.9737876],[139.0841026,35.9738373],[139.0841646,35.9739191],[139.0842143,35.9739614],[139.0842452,35.9739836],[139.0842696,35.9740012],[139.0842886,35.9740173],[139.0843488,35.9740629],[139.0843856,35.9741],[139.0844073,35.9741347],[139.0844158,35.9741575],[139.084425,35.9741921],[139.084428,35.974225],[139.0844286,35.974249],[139.0844267,35.9742788],[139.0844178,35.9743095],[139.0844007,35.9743353],[139.0843595,35.974364],[139.084288,35.974407],[139.0842074,35.9744555],[139.0841837,35.9744698],[139.0841597,35.9744895],[139.0841351,35.9745157],[139.0841281,35.9745254],[139.0841248,35.97454],[139.0841254,35.974569],[139.0841257,35.9745712],[139.0841331,35.9746393],[139.0841388,35.9746853],[139.0841382,35.9747091],[139.0841355,35.9747463],[139.0841258,35.9747962],[139.0841223,35.9748111],[139.0841202,35.9748467],[139.0841198,35.9748859],[139.08412,35.9749573],[139.0841204,35.9749977],[139.08412037003257,35.975],[139.075,35.975]]],[[[139.0755542,35.9741321],[139.0755348,35.9741327],[139.0755069,35.9741451],[139.0755,35.9741493],[139.0754889,35.9741555],[139.0754866,35.9741576],[139.0754789,35.9741636],[139.0754493,35.9741925],[139.0754287,35.9742126],[139.0754065,35.9742323],[139.0754087,35.9742343],[139.0753404,35.9742963],[139.0752992,35.9743333],[139.0752693,35.9743609],[139.0752662,35.9743637],[139.0752679,35.9743789],[139.0752941,35.9743926],[139.0753504,35.9744228],[139.0753526,35.974424],[139.0753601,35.9744233],[139.0753663,35.9744228],[139.0753789,35.97442],[139.0753922,35.9744126],[139.0754046,35.9744016],[139.0756166,35.9741913],[139.0756502,35.9742136],[139.0754443,35.9744178],[139.0754244,35.9744431],[139.0754237,35.9744525],[139.0754254,35.9744625],[139.0754276,35.9744635],[139.0754466,35.974474],[139.0754564,35.9744794],[139.0754983,35.9745019],[139.0755008,35.9745019],[139.0755139,35.9745019],[139.0755188,35.974501],[139.0755242,35.9744996],[139.0755291,35.9744977],[139.0755336,35.9744951],[139.0755379,35.9744919],[139.0755551,35.9744746],[139.0755824,35.9744455],[139.07566,35.9743582],[139.0757269,35.9742841],[139.0757449,35.9742628],[139.0757477,35.9742595],[139.0757639,35.9742401],[139.0757895,35.9742126],[139.0757929,35.9742089],[139.075794,35.9742078],[139.0757983,35.974203],[139.0758011,35.9742],[139.0757981,35.9741959],[139.0757853,35.9741921],[139.0757396,35.9741762],[139.0757144,35.9741674],[139.0756759,35.9741547],[139.0756513,35.9741484],[139.0756262,35.9741417],[139.0756258,35.9741416],[139.0755837,35.9741339],[139.0755833,35.9741338],[139.0755628,35.9741318],[139.0755625,35.9741318],[139.0755542,35.9741321]]],[[[139.07777538226495,35.975],[139.0777973,35.9749725],[139.0778383,35.9749212],[139.0778139,35.9748988],[139.0778086,35.9748802],[139.0778009,35.9748782],[139.0777535,35.9748663],[139.0777531,35.9748662],[139.0777025,35.9748556],[139.0775874,35.9748272],[139.0775187,35.9748014],[139.077471,35.9747878],[139.0774585,35.9748026],[139.0774271,35.9748399],[139.0774026,35.9748682],[139.0773372,35.9749462],[139.07729356983347,35.975],[139.07777538226495,35.975]]],[[[139.0771017,35.9748367],[139.0771385,35.9748468],[139.0771652,35.9748542],[139.0771996,35.9748612],[139.0771999,35.9748612],[139.0772361,35.9748666],[139.0772364,35.9748667],[139.0772982,35.9748781],[139.0772985,35.9748782],[139.0773081,35.9748789],[139.0773104,35.9748791],[139.0773216,35.9748799],[139.0773415,35.9748795],[139.0773419,35.9748794],[139.0773566,35.9748769],[139.0773661,35.9748736],[139.0773716,35.9748687],[139.0773893,35.9748489],[139.0774065,35.9748277],[139.0774256,35.9747885],[139.0774251,35.9747846],[139.0774186,35.9747658],[139.0774058,35.9747619],[139.0773698,35.9747508],[139.0772993,35.9747278],[139.0772185,35.9746984],[139.0771945,35.9746897],[139.0770721,35.9746449],[139.0770592,35.9746407],[139.0770389,35.974634],[139.0770358,35.974633],[139.0770081,35.974619],[139.0769807,35.9746068],[139.0769758,35.9746045],[139.076933,35.9745855],[139.0768881,35.9745634],[139.0768814,35.9745602],[139.0768486,35.9745493],[139.076824,35.9745411],[139.0768236,35.974541],[139.0768132,35.9745377],[139.0768129,35.9745376],[139.0768022,35.9745351],[139.0767765,35.9745299],[139.0767762,35.9745298],[139.0767638,35.9745274],[139.0767511,35.974525],[139.0767451,35.9745246],[139.0767298,35.9745253],[139.0767251,35.9745258],[139.0767219,35.9745264],[139.0767213,35.9745265],[139.0766851,35.9745455],[139.076591,35.9745984],[139.0765812,35.9746041],[139.0765559,35.9746138],[139.0764346,35.9746555],[139.0764138,35.9746621],[139.0764119,35.9746636],[139.0764091,35.9746676],[139.0765677,35.9747433],[139.0766107,35.9747638],[139.0766501,35.9747826],[139.0768102,35.9748594],[139.0768397,35.9748726],[139.076913,35.9749053],[139.0769133,35.9749054],[139.0770721,35.9749849],[139.07710579045226,35.975],[139.07725764203298,35.975],[139.0773233,35.9749295],[139.0773261,35.9749263],[139.0773272,35.9749237],[139.0773265,35.9749204],[139.0773251,35.9749172],[139.0773236,35.9749141],[139.0773206,35.9749122],[139.0773087,35.9749081],[139.0772574,35.9748992],[139.0772571,35.9748991],[139.0771974,35.9748868],[139.0771534,35.9748744],[139.0770935,35.9748549],[139.0771017,35.9748367]]],[[[139.0770182,35.975],[139.076966,35.9749739],[139.076937,35.9749593],[139.0769102,35.9749463],[139.0768845,35.9749338],[139.0768839,35.9749335],[139.0768626,35.9749233],[139.076833,35.9749092],[139.0768168,35.9749014],[139.0768127,35.9748993],[139.0767727,35.9748791],[139.0767679,35.9748765],[139.0766727,35.9748317],[139.0766602,35.9748257],[139.0766525,35.9748222],[139.0766518,35.9748229],[139.0766446,35.974819],[139.076645,35.9748184],[139.0766339,35.9748126],[139.0765912,35.9747904],[139.0765675,35.9747781],[139.0765502,35.974769],[139.0765319,35.9747599],[139.0765195,35.9747536],[139.076486,35.9747372],[139.0764599,35.9747271],[139.0764151,35.9747129],[139.0763812,35.9747035],[139.0763809,35.9747034],[139.0763583,35.9746993],[139.0763579,35.9746992],[139.0763437,35.9746974],[139.0763187,35.9746954],[139.0762916,35.9746967],[139.0762784,35.9746988],[139.076233,35.974706],[139.076136,35.9747226],[139.0761356,35.9747226],[139.0760828,35.9747284],[139.0760143,35.9747365],[139.076014,35.9747366],[139.0760069,35.9747374],[139.0759977,35.9747609],[139.0759675,35.9748325],[139.0759464,35.9748754],[139.0759295,35.974904],[139.0759042,35.9749395],[139.0758806,35.9749668],[139.0758621,35.9749851],[139.0758455753894,35.975],[139.0759609163752,35.975],[139.0759712,35.9749897],[139.07600776945245,35.975],[139.0770182,35.975]]],[[[139.075,35.97464497567568],[139.0750048,35.9746389],[139.0750232,35.9746149],[139.0750405,35.9745838],[139.0750534,35.9745429],[139.0750598,35.9745451],[139.0750964,35.9744969],[139.0751366,35.9744499],[139.0751932,35.9743871],[139.0751892,35.9743668],[139.0751221,35.9743267],[139.0750844,35.9743053],[139.0750391,35.9742792],[139.0750076,35.9742613],[139.075,35.97425712025149],[139.075,35.97464497567568]]],[[[139.0759729,35.9747928],[139.0759914,35.9747388],[139.0759885,35.9747391],[139.0759653,35.9747387],[139.0759649,35.9747386],[139.0758927,35.9747296],[139.075825,35.9747154],[139.075799,35.9747112],[139.0757987,35.9747111],[139.075783,35.9747048],[139.075745,35.9746895],[139.0756678,35.9746576],[139.0756243,35.9746337],[139.07556,35.9745924],[139.0755264,35.9745731],[139.0755029,35.9745595],[139.0754531,35.9745268],[139.0754461,35.9745227],[139.0754449,35.974522],[139.0753838,35.9744861],[139.075358,35.974471],[139.075319,35.9744487],[139.0753138,35.9744457],[139.0752434,35.9744014],[139.0752249,35.9744068],[139.0752155,35.974416],[139.0751963,35.9744362],[139.0751468,35.9744855],[139.0751286,35.9745058],[139.0751019,35.9745421],[139.0750921,35.9745567],[139.0750876,35.9745687],[139.0750822,35.9745834],[139.0750735,35.9746064],[139.0750575,35.9746356],[139.07504,35.9746596],[139.0750397,35.9746664],[139.0750413,35.9746733],[139.0751118,35.9747157],[139.0751697,35.9747504],[139.0752068,35.9747724],[139.0752403,35.9747917],[139.0752406,35.9747918],[139.0752855,35.9748199],[139.0753169,35.9748393],[139.0753331,35.9748491],[139.075358,35.9748633],[139.075385,35.9748761],[139.0754084,35.9748824],[139.0754244,35.9748857],[139.0754248,35.9748857],[139.0754423,35.9748881],[139.0754426,35.9748882],[139.0754445,35.9748884],[139.0754448,35.9748885],[139.0754578,35.9748898],[139.0754648,35.9748905],[139.0754652,35.9748905],[139.0754642,35.9749053],[139.0754635,35.9749149],[139.0754631,35.9749149],[139.0754469,35.9749137],[139.0754465,35.9749137],[139.0754434,35.9749133],[139.0754424,35.9749132],[139.075442,35.9749131],[139.0754395,35.9749128],[139.0754326,35.9749121],[139.0754228,35.9749109],[139.0754224,35.9749108],[139.0754139,35.9749095],[139.0754118,35.9749092],[139.0754078,35.97491],[139.0754047,35.9749118],[139.0753996,35.9749219],[139.0753761,35.9749629],[139.0753578,35.9749567],[139.0753734,35.9749286],[139.075384,35.9749078],[139.0753849,35.9749043],[139.0753822,35.9749004],[139.0753818,35.9749003],[139.0753716,35.9748958],[139.0753432,35.9748823],[139.0753169,35.9748674],[139.0752688,35.9748379],[139.0752241,35.9748099],[139.0751906,35.9747907],[139.0751539,35.9747689],[139.0750246,35.9746915],[139.0750193,35.9746901],[139.0750099,35.9746904],[139.075,35.97470071250001],[139.075,35.975],[139.07582675333333,35.975],[139.0758427,35.9749848],[139.0758747,35.9749562],[139.0758982,35.9749235],[139.0759319,35.9748764],[139.0759557,35.9748321],[139.0759641,35.9748131],[139.0759729,35.9747928]]],[[[139.08408697500002,35.975],[139.084087,35.9749976],[139.0840867,35.9749575],[139.0840864,35.9748858],[139.0840868,35.974846],[139.0840891,35.9748079],[139.084093,35.9747915],[139.0841022,35.9747434],[139.0841049,35.9747081],[139.0841053,35.9746863],[139.0840998,35.9746419],[139.0840923,35.9745704],[139.0840916,35.9745378],[139.0840963,35.9745159],[139.0841074,35.9745007],[139.0841345,35.9744716],[139.0841617,35.9744493],[139.0842566,35.9743923],[139.0842684,35.9743853],[139.084339,35.9743428],[139.0843745,35.9743181],[139.0843864,35.9743],[139.0843934,35.9742749],[139.0843953,35.9742486],[139.0843948,35.9742263],[139.0843921,35.9741961],[139.0843835,35.9741643],[139.0843762,35.974145],[139.0843575,35.9741148],[139.0843538,35.9741111],[139.0843535,35.9741111],[139.0843209,35.9741149],[139.0842473,35.9741235],[139.084188,35.9741327],[139.0839383,35.9741714],[139.0839282,35.9741718],[139.0839246,35.9741719],[139.0839242,35.9741717],[139.0838678,35.9741502],[139.0838628,35.9741482],[139.0838502,35.9741193],[139.0838285,35.9741139],[139.0837445,35.9741313],[139.0837115,35.9742363],[139.0836761,35.9742273],[139.0836943,35.97414],[139.0835971,35.9741126],[139.0835676,35.9741067],[139.0835079,35.9740946],[139.083486,35.9740937],[139.0833766,35.9740891],[139.0833002,35.9741942],[139.083284,35.9742177],[139.0832449,35.9742744],[139.083198,35.9743497],[139.0831743,35.974391],[139.0831665,35.9744186],[139.0831641,35.9744272],[139.0831595,35.9744783],[139.0831476,35.9745127],[139.0830931,35.9746143],[139.0830596,35.9746736],[139.0830314,35.9747242],[139.0830209,35.9747378],[139.0830085,35.9747492],[139.0829984,35.9747573],[139.0829557,35.9747853],[139.0829525,35.9747873],[139.0829179,35.9748161],[139.0828977,35.9748387],[139.0828879,35.9748499],[139.0828551,35.9748896],[139.0828461,35.9749015],[139.0828377,35.9749126],[139.0828292,35.9749296],[139.0828212,35.9749474],[139.0828164,35.9749642],[139.0828036,35.9749977],[139.0828027359116,35.975],[139.08408697500002,35.975]]]]},"properties":{"layer":"landuse","class_code":"215","class_label":"道路用地（道路、駅前広場、私有地内に存在する沿道用途の「私道」または、私有地の一部分であるものの公共の通行に供されている土地の部分）"}},{"type":"Feature","id":"luse_c632d152-1147-4b34-8972-d8468f63b3ec","geometry":{"type":"Polygon","coordinates":[[[139.08657528972714,35.975],[139.0865868,35.9749959],[139.0867236,35.9749573],[139.0867309,35.9749743],[139.08663987916665,35.975],[139.08657528972714,35.975]]]},"properties":{"layer":"landuse","class_code":"215","class_label":"道路用地（道路、駅前広場、私有地内に存在する沿道用途の「私道」または、私有地の一部分であるものの公共の通行に供されている土地の部分）"}}]}