{"type":"FeatureCollection","properties":{"mesh_code":"53396084","source":"PLATEAU秩父市2025","layer":"landuse"},"features":[{"type":"Feature","id":"luse_5e3c8556-72c4-47a7-91cb-73d72644b88e","geometry":{"type":"Polygon","coordinates":[[[139.0625,35.90833333333333],[139.0625,35.9],[139.0625,35.9],[139.0625,35.90833333333333],[139.0625,35.90833333333333]]]},"properties":{"layer":"landuse","class_code":"215","class_label":"道路用地（道路、駅前広場、私有地内に存在する沿道用途の「私道」または、私有地の一部分であるものの公共の通行に供されている土地の部分）"}},{"type":"Feature","id":"luse_0ba131cc-50a2-4149-aedf-32275fd0a21b","geometry":{"type":"Polygon","coordinates":[[[139.05,35.90833333333333],[139.05,35.9],[139.0625,35.9],[139.0625,35.90833333333333],[139.05,35.90833333333333]]]},"properties":{"layer":"landuse","class_code":"203","class_label":"山林（樹林地）"}}]}