{"type":"FeatureCollection","properties":{"mesh_code":"53397067","source":"PLATEAU秩父市2025","layer":"landuse"},"features":[{"type":"Feature","id":"luse_e66dfe50-a479-440d-9e67-ad4da7764411","geometry":{"type":"Polygon","coordinates":[[[139.0875,35.975],[139.0875,35.96666666666667],[139.08811981767678,35.96666666666667],[139.0881058,35.9667663],[139.0881056,35.9670397],[139.0881171,35.9673789],[139.0881068,35.9674122],[139.0880518,35.9674787],[139.0880105,35.9675127],[139.0879447,35.9675692],[139.0878979,35.9677042],[139.0878333,35.9678824],[139.0878216,35.9679518],[139.08791,35.9681111],[139.0879071,35.9681896],[139.0878535,35.9683624],[139.0878474,35.9684229],[139.0878537,35.9684379],[139.0878889,35.968504],[139.0878877,35.9685248],[139.0878682,35.9686004],[139.0878378,35.9686716],[139.0877843,35.9687011],[139.0876856,35.9687096],[139.0875,35.968730773019466],[139.0875,35.97171346297159],[139.0875222,35.9717228],[139.087553,35.9717481],[139.0875806,35.9717726],[139.0876038,35.9717971],[139.0876236,35.9718269],[139.0876345,35.9718486],[139.0876388,35.9718729],[139.0876495,35.9719226],[139.087648,35.9719785],[139.0876354,35.9720442],[139.0876296,35.9720695],[139.0875955,35.9721983],[139.0875624,35.9723398],[139.0875583,35.9724452],[139.0875524,35.9724975],[139.0875488,35.972539],[139.0875374,35.9725877],[139.0875292,35.9726507],[139.0875189,35.9727003],[139.087512,35.9727408],[139.0875006,35.9727697],[139.0875,35.97277078358208],[139.0875,35.975],[139.0875,35.975]]]},"properties":{"layer":"landuse","class_code":"203","class_label":"山林（樹林地）"}}]}