{"type":"FeatureCollection","properties":{"mesh_code":"53397020","source":"PLATEAU秩父市2025","layer":"landuse"},"features":[{"type":"Feature","id":"luse_fca575bb-473a-4c4c-947e-b7cf2c86f0fb","geometry":{"type":"Polygon","coordinates":[[[139.0125,35.94034835238095],[139.0124449,35.940313],[139.0124083,35.9402895],[139.0123693,35.9402689],[139.0123283,35.9402517],[139.0122852,35.9402385],[139.0124296,35.9401471],[139.0125,35.940134822827346],[139.0125,35.94034835238095]]]},"properties":{"layer":"landuse","class_code":"211","class_label":"住宅用地（住宅、共同住宅、店舗等併用住宅、店舗等併用共同住宅、作業所併用住宅）"}},{"type":"Feature","id":"luse_3a6c808e-8b5d-4cf3-9684-88969e45b1fb","geometry":{"type":"Polygon","coordinates":[[[139.0077026,35.9407711],[139.0075629,35.9410104],[139.0075442,35.9409972],[139.0074932,35.9409654],[139.0074406,35.9409358],[139.0073867,35.9409092],[139.0073301,35.9408845],[139.007272,35.9408624],[139.0072126,35.9408428],[139.0070201,35.9407746],[139.0069076,35.9407347],[139.0069073,35.9407346],[139.0067738,35.940687],[139.0068255,35.9405147],[139.0077026,35.9407711]]]},"properties":{"layer":"landuse","class_code":"211","class_label":"住宅用地（住宅、共同住宅、店舗等併用住宅、店舗等併用共同住宅、作業所併用住宅）"}},{"type":"Feature","id":"luse_f393a9b5-21a8-45de-87ad-10fffb4d73d6","geometry":{"type":"Polygon","coordinates":[[[139.0125,35.94166666666667],[139.01218509448356,35.94166666666667],[139.012183,35.941639],[139.0125,35.941620242603555],[139.0125,35.94166666666667]]]},"properties":{"layer":"landuse","class_code":"211","class_label":"住宅用地（住宅、共同住宅、店舗等併用住宅、店舗等併用共同住宅、作業所併用住宅）"}},{"type":"Feature","id":"luse_4293f535-3fdc-4242-8f91-2f32e9f4e7af","geometry":{"type":"Polygon","coordinates":[[[139.0125,35.94067758900002],[139.0124639,35.9407321],[139.0123958,35.9408305],[139.0121811,35.94087],[139.0121282,35.9408724],[139.0120669,35.9408362],[139.011826,35.9407251],[139.0117779,35.9407176],[139.0116667,35.9407109],[139.0116417,35.9406601],[139.0116552,35.9405889],[139.0117136,35.9405445],[139.0118478,35.940495],[139.0119804,35.9405122],[139.0120872,35.9402878],[139.0123678,35.9403051],[139.0123852,35.9403149],[139.0125,35.94038863635186],[139.0125,35.94067758900002]]]},"properties":{"layer":"landuse","class_code":"223","class_label":"その他④（その他①～③以外の用途に供されている都市的土地利用（建物跡地、資材置場、改変工事中の土地）、法面（道路、造成地等の主利用に含まれない法面））"}},{"type":"Feature","id":"luse_f7c411e3-28f8-49a6-aa9b-39c49a18a74f","geometry":{"type":"Polygon","coordinates":[[[139.0125,35.940134822827346],[139.0124296,35.9401471],[139.0122852,35.9402385],[139.0122545,35.9402316],[139.0122089,35.940225],[139.012197,35.9402243],[139.0121934,35.9402241],[139.0121628,35.9402223],[139.0121436,35.940223],[139.0121167,35.9402238],[139.0121163,35.9402239],[139.0119652,35.9402398],[139.0114805,35.9403063],[139.0114802,35.9403063],[139.0113924,35.9403158],[139.0113525,35.9403202],[139.0113418,35.9403206],[139.0113313,35.9403211],[139.0113309,35.9403211],[139.0112876,35.9403203],[139.0112385,35.9403146],[139.0112381,35.9403146],[139.0111962,35.9403055],[139.0111556,35.9402928],[139.0111173,35.9402768],[139.0110375,35.9402477],[139.0109565,35.9402223],[139.0108857,35.9402036],[139.0108021,35.9401851],[139.0108017,35.940185],[139.010717,35.9401702],[139.0107166,35.9401702],[139.0106311,35.9401592],[139.0106307,35.9401592],[139.0105447,35.9401521],[139.0105443,35.940152],[139.010481,35.9401493],[139.0104806,35.9401492],[139.0102266,35.9401185],[139.0101472,35.9401104],[139.0101006,35.9401056],[139.0097854,35.9400734],[139.0097213,35.9400555],[139.0096577,35.9400309],[139.0096258,35.9400161],[139.0095682,35.9399835],[139.0095156,35.939946],[139.0094713,35.9399073],[139.0092296,35.9396694],[139.0091973,35.9396438],[139.0091687,35.9396186],[139.0091421,35.9395921],[139.0091171,35.9395644],[139.0090938,35.9395354],[139.0090708,35.9395028],[139.009052,35.9394721],[139.0090352,35.9394407],[139.0090206,35.9394085],[139.0090007,35.9393521],[139.0090003,35.9393522],[139.0089631,35.93936],[139.0089837,35.9394187],[139.0089991,35.9394524],[139.0090168,35.9394855],[139.0090364,35.9395177],[139.009061,35.9395523],[139.0090852,35.9395824],[139.0091114,35.9396114],[139.0091395,35.9396392],[139.0091694,35.9396657],[139.0092009,35.9396909],[139.0094417,35.9399278],[139.0094885,35.9399686],[139.0095159,35.9399891],[139.0095446,35.9400084],[139.0095742,35.9400263],[139.0095745,35.9400264],[139.0096057,35.9400429],[139.0096395,35.9400589],[139.0096728,35.9400725],[139.0097067,35.9400847],[139.0097414,35.9400952],[139.0097417,35.9400953],[139.0097769,35.9401043],[139.0097772,35.9401043],[139.0102211,35.9401497],[139.0102214,35.9401498],[139.0104769,35.9401807],[139.0105158,35.9401824],[139.0105203,35.9401826],[139.0105415,35.9401835],[139.0106257,35.9401905],[139.0106261,35.9401905],[139.0107095,35.9402012],[139.0107099,35.9402013],[139.0107927,35.9402157],[139.0108747,35.9402338],[139.0109432,35.940252],[139.0109436,35.9402521],[139.0110224,35.9402768],[139.0110227,35.9402769],[139.0110998,35.940305],[139.0111002,35.9403051],[139.0111396,35.9403216],[139.0111841,35.9403355],[139.0111844,35.9403356],[139.0112303,35.9403455],[139.0112307,35.9403455],[139.0112608,35.9403497],[139.0113082,35.9403528],[139.0113086,35.9403528],[139.0113368,35.9403521],[139.011356,35.9403516],[139.0113564,35.9403516],[139.0114512,35.9403413],[139.0114861,35.9403375],[139.0114864,35.9403375],[139.0115587,35.9403275],[139.0119709,35.940271],[139.0120937,35.9402581],[139.01212,35.9402553],[139.0121204,35.9402553],[139.0121391,35.9402547],[139.012162,35.9402539],[139.0121624,35.9402539],[139.0121702,35.9402544],[139.0122041,35.9402563],[139.0122453,35.9402623],[139.0122456,35.9402623],[139.012293,35.9402742],[139.012319,35.9402835],[139.0123312,35.9402879],[139.0123316,35.9402881],[139.0123678,35.9403051],[139.0120872,35.9402878],[139.0119804,35.9405122],[139.0118478,35.940495],[139.0117136,35.9405445],[139.0116552,35.9405889],[139.0116417,35.9406601],[139.0116667,35.9407109],[139.0117779,35.9407176],[139.011826,35.9407251],[139.0120669,35.9408362],[139.0121282,35.9408724],[139.0121811,35.94087],[139.0123958,35.9408305],[139.0124639,35.9407321],[139.0125,35.94067758900002],[139.0125,35.941620242603555],[139.012183,35.941639],[139.01218509448356,35.94166666666667],[139.01109187670687,35.94166666666667],[139.0109427,35.941661],[139.0108741,35.9416584],[139.0108332,35.9416611],[139.0108168,35.9416607],[139.0107992,35.9416602],[139.0107652,35.9416563],[139.010732,35.9416493],[139.0106999,35.9416394],[139.0106644,35.9416243],[139.0106359,35.9416086],[139.01061,35.9415904],[139.0106089,35.9415895],[139.0105864,35.94157],[139.0105658,35.9415477],[139.0103769,35.9413975],[139.010355,35.9413863],[139.0103268,35.9413811],[139.0102773,35.9413797],[139.0101226,35.9414117],[139.010018,35.9414294],[139.0100176,35.9414294],[139.0099152,35.9414427],[139.0098604,35.9414498],[139.00986,35.9414498],[139.0097015,35.9414632],[139.0096615,35.9414654],[139.0096462,35.9414662],[139.0096081,35.9414583],[139.0095351,35.9414457],[139.0095348,35.9414456],[139.0094611,35.9414362],[139.009372,35.9414293],[139.0093717,35.9414293],[139.0092971,35.9414272],[139.0092048,35.9414306],[139.0090357,35.941437],[139.0090122,35.9414378],[139.008891,35.9414379],[139.0088675,35.9414352],[139.0088413,35.9414243],[139.0088271,35.9414145],[139.0087557,35.9413245],[139.0087774,35.9412945],[139.0087777,35.9412941],[139.0087915,35.9412836],[139.0088074,35.9412743],[139.00882,35.9412706],[139.0088477,35.9412728],[139.0088481,35.9412728],[139.0088666,35.9412726],[139.008876,35.9412726],[139.0089036,35.9412698],[139.008904,35.9412697],[139.008931,35.9412647],[139.0089575,35.9412571],[139.0089829,35.9412472],[139.0090067,35.9412352],[139.0090286,35.941221],[139.0090487,35.9412051],[139.0090665,35.9411875],[139.0090818,35.9411684],[139.0090944,35.941148],[139.0091042,35.9411266],[139.0091111,35.9411046],[139.009115,35.941082],[139.0091159,35.9410592],[139.0091137,35.9410365],[139.0091083,35.9410141],[139.0091002,35.9409923],[139.0090405,35.9408775],[139.0090202,35.9408844],[139.0090794,35.9409986],[139.0090869,35.9410184],[139.0090917,35.9410389],[139.0090937,35.9410597],[139.0090928,35.9410804],[139.0090894,35.9411011],[139.0090831,35.9411213],[139.0090741,35.9411407],[139.0090625,35.9411593],[139.0090484,35.9411768],[139.0090324,35.9411929],[139.0090141,35.9412075],[139.0089938,35.9412204],[139.0089721,35.9412314],[139.0089492,35.9412403],[139.0089488,35.9412405],[139.0089249,35.9412473],[139.0088999,35.9412521],[139.0088908,35.9412529],[139.0088745,35.9412545],[139.0088655,35.9412546],[139.0088489,35.9412548],[139.0088176,35.9412522],[139.0087969,35.9412581],[139.008777,35.9412696],[139.0087647,35.9412792],[139.0087634,35.9412794],[139.0087287,35.9412823],[139.0085653,35.941203],[139.0082952,35.9410906],[139.00828,35.9410847],[139.0082053,35.9410556],[139.0081904,35.9410503],[139.00819,35.9410502],[139.0081666,35.9410449],[139.008161,35.9410443],[139.0081425,35.9410425],[139.0081181,35.9410433],[139.0080947,35.941047],[139.0080719,35.9410537],[139.0080716,35.9410538],[139.0080504,35.9410633],[139.0080296,35.94108],[139.0080168,35.9410951],[139.0080044,35.9411169],[139.0079987,35.9411347],[139.0079967,35.941153],[139.0079992,35.9411839],[139.0080033,35.9412038],[139.0080099,35.9412231],[139.0080191,35.9412418],[139.0081015,35.9413572],[139.0081126,35.9414144],[139.0081124,35.9414316],[139.0081072,35.9414585],[139.0081029,35.9414655],[139.0080975,35.9414691],[139.0080971,35.9414691],[139.0080904,35.9414709],[139.0080885,35.941471],[139.008082,35.9414712],[139.0080475,35.9414602],[139.0079351,35.941361],[139.0078052,35.9412358],[139.007691,35.9411131],[139.007639,35.9410673],[139.0075926,35.9410312],[139.0075629,35.9410104],[139.0077026,35.9407711],[139.0068255,35.9405147],[139.0067738,35.940687],[139.0066383,35.9406387],[139.0065325,35.940601],[139.0064733,35.9405849],[139.0064729,35.9405848],[139.0064111,35.9405619],[139.0063602,35.9405373],[139.0063528,35.9405337],[139.006313,35.94051],[139.006262,35.9404734],[139.0062584,35.9404651],[139.0062391,35.9404287],[139.0062148,35.9403942],[139.0061897,35.9403657],[139.0061603,35.9403382],[139.0061243,35.9403113],[139.0060853,35.9402876],[139.006059,35.9402738],[139.0060271,35.9402592],[139.0059941,35.9402466],[139.00596,35.9402359],[139.0059253,35.9402273],[139.0059249,35.9402272],[139.0058899,35.9402206],[139.0058539,35.9402161],[139.0058536,35.940216],[139.0058176,35.9402136],[139.0058172,35.9402136],[139.0058037,35.9402134],[139.0058009,35.9402134],[139.0057809,35.9402132],[139.0057532,35.9402172],[139.0057528,35.9402173],[139.0057064,35.9402286],[139.0056624,35.9402452],[139.0056258,35.9402642],[139.0055887,35.9402897],[139.0055565,35.9403193],[139.0055337,35.9403439],[139.0055161,35.9403575],[139.0054962,35.9403691],[139.0054743,35.9403781],[139.0054515,35.9403846],[139.0054511,35.9403847],[139.005427,35.9403884],[139.0054179,35.9403888],[139.0054029,35.9403894],[139.0054025,35.9403894],[139.0053784,35.9403875],[139.0053549,35.9403829],[139.0053412,35.9403651],[139.0053301,35.9403449],[139.0053227,35.9403236],[139.005319,35.9403017],[139.0053193,35.9402797],[139.0053232,35.9402581],[139.0053311,35.9402369],[139.0053425,35.9402169],[139.0053573,35.9401984],[139.0053809,35.9401842],[139.0054163,35.9401654],[139.0054533,35.9401487],[139.0054914,35.9401342],[139.0055222,35.9401246],[139.0055546,35.9401158],[139.0055956,35.9401074],[139.0056372,35.9401013],[139.0058131,35.9400872],[139.0059361,35.9400702],[139.0060533,35.9400466],[139.0060537,35.9400466],[139.0060762,35.940042],[139.0060765,35.9400419],[139.0061053,35.9400337],[139.0061327,35.9400222],[139.0061577,35.9400076],[139.0061811,35.939989],[139.0061987,35.9399705],[139.0062152,35.9399468],[139.0062262,35.9399234],[139.0062328,35.939899],[139.0062482,35.9398676],[139.0062615,35.9398461],[139.0062766,35.9398254],[139.0063096,35.9397894],[139.0063295,35.9397716],[139.0063501,35.9397588],[139.006378,35.9397454],[139.0064082,35.9397357],[139.0064345,35.9397301],[139.0064349,35.9397301],[139.0064669,35.939727],[139.0064992,35.9397276],[139.0064996,35.9397276],[139.0065404,35.9397333],[139.006567,35.9397395],[139.0065674,35.9397397],[139.0065928,35.9397489],[139.0066161,35.9397611],[139.0066336,35.939773],[139.0066526,35.9397896],[139.0066708,35.9398118],[139.0066773,35.9398205],[139.0066959,35.9398358],[139.0067169,35.9398487],[139.0067398,35.9398592],[139.0067713,35.9398683],[139.0067767,35.9398692],[139.0067972,35.9398723],[139.0068234,35.9398731],[139.0068238,35.9398731],[139.0068518,35.9398705],[139.0068745,35.9398652],[139.0068962,35.9398574],[139.0069164,35.9398472],[139.0069345,35.9398348],[139.0069512,35.9398193],[139.0069641,35.939803],[139.0069739,35.9397855],[139.0069808,35.9397667],[139.0069842,35.9397488],[139.0069844,35.9397307],[139.0069815,35.9397128],[139.0069754,35.9396953],[139.0069664,35.9396788],[139.0069543,35.9396632],[139.0069398,35.9396494],[139.0069232,35.9396375],[139.006914,35.9396322],[139.0069082,35.9396126],[139.0069068,35.9395943],[139.0069091,35.9395761],[139.0069149,35.9395584],[139.006924,35.9395422],[139.0069365,35.9395271],[139.0069518,35.9395137],[139.0069697,35.9395026],[139.0069895,35.939494],[139.0071731,35.9394101],[139.0072171,35.9393882],[139.0072699,35.9393679],[139.0073268,35.9393519],[139.0073837,35.9393415],[139.0074124,35.9393381],[139.0074128,35.9393381],[139.0074598,35.939337],[139.0075128,35.9393318],[139.0075269,35.9393304],[139.0078363,35.9392731],[139.0078367,35.939273],[139.007864,35.9392662],[139.0078643,35.9392661],[139.0078894,35.9392573],[139.007913,35.9392462],[139.0079351,35.9392332],[139.0079553,35.9392182],[139.0079734,35.9392015],[139.0079883,35.9391843],[139.0080017,35.9391649],[139.0080124,35.9391445],[139.0080202,35.9391232],[139.0080251,35.9391014],[139.0080358,35.9390177],[139.0080467,35.9389799],[139.0080535,35.9389564],[139.0080748,35.9388958],[139.0080917,35.9388541],[139.0081188,35.938795],[139.0081495,35.9387371],[139.0081986,35.9386571],[139.0082411,35.9386001],[139.0082608,35.9385775],[139.008301,35.9385362],[139.0083571,35.9384876],[139.0084188,35.9384434],[139.0085079,35.9384047],[139.0085762,35.93837],[139.0086006,35.9383531],[139.0086215,35.9383337],[139.0086365,35.9383153],[139.0086505,35.9382921],[139.0086603,35.9382675],[139.0086658,35.9382421],[139.0086668,35.9382162],[139.0086636,35.9381925],[139.0085932,35.9379043],[139.0085379,35.937638],[139.0086773,35.9374978],[139.008708,35.9374931],[139.0087392,35.9374926],[139.0087396,35.9374926],[139.0087704,35.9374965],[139.0088013,35.9375049],[139.0088289,35.9375171],[139.0088537,35.9375329],[139.0089141,35.9375785],[139.0089704,35.9376256],[139.0090182,35.9376709],[139.0090629,35.9377183],[139.009104,35.9377677],[139.0091428,35.9378215],[139.0091783,35.9378644],[139.0092175,35.9379025],[139.0092638,35.937938],[139.0093144,35.9379691],[139.0093691,35.9379954],[139.0093843,35.9380015],[139.0094822,35.9380606],[139.0095811,35.9381255],[139.0095991,35.9381416],[139.0096148,35.9381593],[139.0096275,35.9381783],[139.0096381,35.9381988],[139.0096454,35.9382198],[139.0096496,35.9382412],[139.0096511,35.9382629],[139.0096495,35.9382845],[139.0096429,35.9383192],[139.0096415,35.9383469],[139.0096442,35.9383747],[139.0096501,35.9383994],[139.0096599,35.9384261],[139.0096736,35.9384516],[139.0096905,35.9384757],[139.0097108,35.9384981],[139.0097262,35.9385147],[139.0097409,35.9385398],[139.0097503,35.9385667],[139.0097535,35.9385878],[139.0097535,35.9386096],[139.009748,35.9386371],[139.0097372,35.9386636],[139.0097209,35.9386881],[139.0097014,35.9387084],[139.0096698,35.9387349],[139.0096423,35.9387641],[139.0096189,35.9387957],[139.0095998,35.9388293],[139.0095857,35.9388643],[139.0095777,35.9388957],[139.009573,35.9389324],[139.0095733,35.9389692],[139.0095788,35.9390059],[139.0095882,35.939039],[139.0096064,35.93906],[139.0096272,35.9390791],[139.0096489,35.9390953],[139.0096744,35.9391102],[139.0097015,35.9391227],[139.0097018,35.9391228],[139.0097305,35.9391328],[139.0097605,35.93914],[139.0097609,35.93914],[139.0097941,35.9391446],[139.0097944,35.9391447],[139.0098232,35.9391455],[139.0099694,35.9391275],[139.0099885,35.9391262],[139.0099889,35.9391262],[139.0100109,35.9391266],[139.0101067,35.9391311],[139.0101343,35.9391324],[139.0102201,35.9391365],[139.0102205,35.9391365],[139.010232,35.9391376],[139.0102749,35.9391414],[139.0102753,35.9391415],[139.0103301,35.9391415],[139.0103304,35.9391414],[139.0103818,35.939137],[139.0104357,35.9391277],[139.0104634,35.9391208],[139.0104637,35.9391207],[139.0105258,35.9391018],[139.0105513,35.9390967],[139.0105774,35.9390939],[139.0106057,35.9390934],[139.0106061,35.9390934],[139.0106226,35.9390947],[139.0106321,35.9390955],[139.0106577,35.9390997],[139.010658,35.9390998],[139.0106829,35.9391064],[139.0107071,35.9391151],[139.0107297,35.939126],[139.0107651,35.9391471],[139.0108176,35.9391738],[139.0108586,35.9391904],[139.0109161,35.9392085],[139.0109164,35.9392085],[139.0109759,35.9392213],[139.0109763,35.9392214],[139.0110092,35.9392261],[139.011104,35.9392228],[139.0112276,35.9392138],[139.011228,35.9392138],[139.0113,35.9392052],[139.0113269,35.9392038],[139.0113273,35.9392038],[139.011338,35.9392042],[139.0113541,35.9392047],[139.0113842,35.9392087],[139.0114101,35.9392147],[139.0114105,35.9392148],[139.011443,35.9392262],[139.0114707,35.9392395],[139.011492,35.939253],[139.0115664,35.9393168],[139.011647,35.9393785],[139.011676,35.9393942],[139.0117081,35.9394058],[139.0117317,35.9394113],[139.0117663,35.9394153],[139.0117666,35.9394153],[139.0118015,35.9394147],[139.0118266,35.9394112],[139.0119268,35.9394031],[139.0121143,35.9393837],[139.0121147,35.9393836],[139.0121817,35.9393755],[139.0122395,35.9393708],[139.0122708,35.9393696],[139.0123073,35.9393682],[139.0123695,35.939369],[139.0123986,35.9393694],[139.0125,35.93937504241935],[139.0125,35.940134822827346]]]},"properties":{"layer":"landuse","class_code":"203","class_label":"山林（樹林地）"}},{"type":"Feature","id":"luse_5c026a62-2d5e-4cf7-9809-e20a685bab4b","geometry":{"type":"Polygon","coordinates":[[[139.00235889504503,35.94166666666667],[139.0023474,35.9416554],[139.0023081,35.9416232],[139.0022722,35.9415983],[139.0022339,35.9415758],[139.0022018,35.9415596],[139.0021856,35.9415465],[139.0021706,35.9415273],[139.0021689,35.941524],[139.0021669,35.9415012],[139.0021693,35.9414851],[139.0021747,35.9414687],[139.0021896,35.9414445],[139.002202,35.9414316],[139.0022164,35.9414204],[139.0022285,35.9414132],[139.0024071,35.9413641],[139.002447,35.9413495],[139.0026122,35.9412418],[139.0026302,35.9412413],[139.0027181,35.9412391],[139.0028694,35.9411366],[139.0028819,35.9410719],[139.0029136,35.941052],[139.0029296,35.9410383],[139.0029436,35.941023],[139.0029555,35.9410067],[139.0029639,35.9409912],[139.0029711,35.9409732],[139.0029757,35.9409546],[139.0029725,35.9408739],[139.0029572,35.9407879],[139.0029269,35.9406965],[139.0029153,35.9406498],[139.002909,35.9405942],[139.0029105,35.9405383],[139.0029196,35.9404837],[139.0029274,35.9404588],[139.0029364,35.9404296],[139.0029492,35.9404118],[139.0029599,35.9403917],[139.0029679,35.9403708],[139.0029727,35.9403492],[139.0029746,35.9403274],[139.0029734,35.9403055],[139.0029692,35.9402838],[139.0029619,35.9402627],[139.0029517,35.9402423],[139.0029387,35.9402231],[139.0029231,35.9402052],[139.0029051,35.9401889],[139.002815,35.9401331],[139.0026962,35.9400489],[139.0026622,35.9400211],[139.0026321,35.9399904],[139.0026066,35.9399572],[139.0025861,35.9399217],[139.0025705,35.9398847],[139.0025603,35.9398463],[139.0025572,35.9398272],[139.0025524,35.9397301],[139.0025388,35.939651],[139.0025142,35.9395737],[139.0024841,35.9395083],[139.0024646,35.9394773],[139.0024542,35.9394532],[139.0024473,35.9394283],[139.002444,35.9394028],[139.0024441,35.9393773],[139.0024471,35.9393555],[139.0024541,35.9393305],[139.0024643,35.9393064],[139.0024756,35.9392883],[139.0025073,35.939246],[139.0025554,35.9391973],[139.0025994,35.939163],[139.0026478,35.939133],[139.0027002,35.9391076],[139.0027592,35.9390706],[139.0028379,35.939031],[139.0028649,35.9390195],[139.0029499,35.93899],[139.0029502,35.9389899],[139.0032656,35.9388878],[139.0034306,35.9388303],[139.0034653,35.9388214],[139.003501,35.9388158],[139.0035014,35.9388157],[139.0035376,35.9388135],[139.0035814,35.9388152],[139.0035817,35.9388152],[139.0036174,35.9388204],[139.0036523,35.9388289],[139.0036526,35.938829],[139.0036861,35.9388407],[139.0039107,35.9389367],[139.0041261,35.939049],[139.0043178,35.9391387],[139.0045179,35.9392092],[139.0046152,35.9392354],[139.0047567,35.9392733],[139.0048651,35.9392949],[139.0048654,35.9392949],[139.0049037,35.9392971],[139.0049279,35.9392956],[139.0049283,35.9392955],[139.0049523,35.9392918],[139.0049758,35.9392858],[139.0049983,35.9392776],[139.0050192,35.9392674],[139.0050471,35.9392496],[139.0050753,35.9392255],[139.005096,35.9392139],[139.0050963,35.9392137],[139.0051196,35.9392062],[139.0051446,35.9392032],[139.0051548,35.9392036],[139.0051567,35.9392037],[139.0051626,35.9392039],[139.0051869,35.9392088],[139.0051873,35.9392089],[139.0051999,35.9392179],[139.0052088,35.9392284],[139.0052149,35.9392402],[139.0052173,35.9392528],[139.0052166,35.9392643],[139.0052122,35.9392766],[139.0052047,35.9392878],[139.0051942,35.9392973],[139.0051812,35.9393047],[139.0051423,35.9393204],[139.0050394,35.9393552],[139.005039,35.9393553],[139.0049729,35.9393741],[139.004864,35.9393993],[139.0047983,35.939412],[139.0047541,35.9394172],[139.0047098,35.9394197],[139.0047094,35.9394197],[139.0046651,35.9394198],[139.0046647,35.9394198],[139.0046204,35.9394172],[139.0045763,35.9394121],[139.004576,35.939412],[139.0045344,35.9394048],[139.0044916,35.9393946],[139.0044498,35.939382],[139.0043454,35.9393452],[139.0042859,35.9393291],[139.0042254,35.9393165],[139.0041638,35.9393074],[139.0041021,35.939302],[139.004077,35.9393008],[139.0040698,35.9393005],[139.0040465,35.9393005],[139.0040079,35.9393005],[139.0040075,35.9393005],[139.0039821,35.9393019],[139.0039453,35.939304],[139.0039062,35.9393085],[139.0038658,35.9393088],[139.0038009,35.9393092],[139.0038005,35.9393092],[139.0036549,35.9393005],[139.003583,35.9392936],[139.0035732,35.9392944],[139.0035671,35.9392949],[139.0035403,35.9392997],[139.003515,35.9393074],[139.0034909,35.9393181],[139.0034691,35.9393313],[139.0034508,35.9393458],[139.0034343,35.9393635],[139.0034211,35.9393828],[139.0034197,35.9393931],[139.0034202,35.9394182],[139.0034246,35.939443],[139.003431,35.9394606],[139.003443,35.9394837],[139.0034589,35.9395051],[139.0034703,35.9395099],[139.0034941,35.9395171],[139.0034945,35.9395172],[139.0035192,35.9395216],[139.0035196,35.9395216],[139.0035448,35.9395231],[139.0035452,35.9395231],[139.0035706,35.9395216],[139.0035856,35.9395191],[139.0035917,35.9395181],[139.0036159,35.9395112],[139.0036788,35.9394895],[139.0036792,35.9394894],[139.0037201,35.9394788],[139.0037622,35.9394705],[139.0038047,35.9394647],[139.0038476,35.9394614],[139.0038479,35.9394614],[139.0038908,35.9394605],[139.0038912,35.9394605],[139.003931,35.939462],[139.0039739,35.939466],[139.0040164,35.9394725],[139.0041684,35.9395176],[139.0041687,35.9395177],[139.0043011,35.9395664],[139.004413,35.9396151],[139.0044762,35.9396354],[139.0045376,35.9396509],[139.0045379,35.939651],[139.0046006,35.9396629],[139.0046642,35.9396712],[139.0047183,35.9396753],[139.0048296,35.9396769],[139.0049125,35.9396803],[139.0050012,35.939684],[139.0051716,35.9397009],[139.0051719,35.939701],[139.0053497,35.9397296],[139.0054222,35.9397444],[139.0054226,35.9397445],[139.0054911,35.9397542],[139.0054914,35.9397543],[139.0055333,35.9397582],[139.0055924,35.9397542],[139.0055927,35.9397542],[139.0056649,35.9397454],[139.0057362,35.9397325],[139.0057366,35.9397324],[139.0058065,35.9397154],[139.0058468,35.9397032],[139.0059058,35.9396832],[139.0059714,35.9396565],[139.0060111,35.9396372],[139.0060732,35.939609],[139.0061241,35.9395899],[139.0061768,35.9395738],[139.0062225,35.9395628],[139.0062307,35.9395609],[139.0062471,35.939558],[139.0062854,35.9395511],[139.0062858,35.9395511],[139.0063411,35.9395445],[139.0063415,35.9395445],[139.0063665,35.9395432],[139.0064147,35.9395408],[139.0064709,35.9395417],[139.0065269,35.939546],[139.0067302,35.9395913],[139.0067305,35.9395914],[139.0067598,35.9396004],[139.0067602,35.9396005],[139.0067691,35.9396032],[139.0067845,35.9396127],[139.0068876,35.9396838],[139.0069007,35.9396953],[139.0069105,35.9397088],[139.0069163,35.9397237],[139.0069181,35.9397392],[139.0069156,35.939755],[139.0069089,35.9397719],[139.0068975,35.9397872],[139.0068826,35.9397999],[139.0068652,35.9398097],[139.0068648,35.9398097],[139.0068452,35.9398161],[139.0068307,35.9398185],[139.0068303,35.9398185],[139.0068048,35.9398185],[139.0068044,35.9398185],[139.0067842,35.9398152],[139.0067605,35.9398071],[139.0067601,35.9398069],[139.0067396,35.9397951],[139.0067299,35.9397872],[139.0067158,35.9397682],[139.0066925,35.9397444],[139.0066702,35.9397269],[139.0066406,35.9397091],[139.0066075,35.9396946],[139.0065726,35.9396841],[139.0065723,35.939684],[139.0065265,35.9396759],[139.0064847,35.9396727],[139.006443,35.9396743],[139.0064426,35.9396743],[139.0064076,35.9396796],[139.0063681,35.93969],[139.0063305,35.9397049],[139.006296,35.9397239],[139.0062834,35.9397324],[139.0062588,35.9397543],[139.0062377,35.9397761],[139.0062205,35.9397962],[139.0062032,35.9398201],[139.0061876,35.939845],[139.0061685,35.9398848],[139.0061624,35.9399078],[139.0061549,35.939924],[139.0061441,35.9399398],[139.0061303,35.939954],[139.0061149,35.939966],[139.0060976,35.939976],[139.0060788,35.939984],[139.0060513,35.9399913],[139.006051,35.9399914],[139.0059237,35.9400171],[139.0058045,35.9400336],[139.0058041,35.9400336],[139.0056277,35.9400477],[139.0055814,35.9400545],[139.0055358,35.940064],[139.0054917,35.940076],[139.0054653,35.9400846],[139.0054231,35.9401004],[139.0054228,35.9401005],[139.0053818,35.940119],[139.0053427,35.9401398],[139.0053091,35.9401602],[139.0052841,35.9401907],[139.0052689,35.9402178],[139.0052582,35.9402463],[139.0052528,35.9402753],[139.0052524,35.9403051],[139.0052573,35.9403346],[139.0052676,35.9403634],[139.0052823,35.9403906],[139.0053134,35.9404295],[139.0053673,35.9404409],[139.0054011,35.9404435],[139.0054349,35.9404422],[139.005453,35.9404398],[139.0054534,35.9404398],[139.0055084,35.94041],[139.005535,35.9403967],[139.0055353,35.9403966],[139.0055595,35.9403803],[139.0055823,35.9403596],[139.0056092,35.940331],[139.0056389,35.9403074],[139.0056562,35.9402968],[139.0056683,35.9402895],[139.0056686,35.9402893],[139.005705,35.940273],[139.0057437,35.9402611],[139.0057843,35.9402538],[139.005815,35.9402541],[139.0058478,35.9402563],[139.0058827,35.9402609],[139.0059605,35.9402942],[139.0060531,35.9403525],[139.0061262,35.9404164],[139.0062143,35.9404988],[139.00625,35.940526],[139.006292,35.9405538],[139.0063216,35.9405711],[139.0063532,35.9405872],[139.0063854,35.9406019],[139.0064187,35.9406151],[139.0064528,35.9406269],[139.0064531,35.940627],[139.0065132,35.9406434],[139.0069203,35.9407883],[139.0071917,35.9408845],[139.007192,35.9408847],[139.0072498,35.9409037],[139.0073052,35.9409248],[139.0073592,35.9409483],[139.0074102,35.9409737],[139.0074608,35.9410018],[139.0075092,35.9410321],[139.0075555,35.9410646],[139.0075996,35.941099],[139.007648,35.9411416],[139.0076687,35.9411639],[139.0076788,35.9411747],[139.0077619,35.9412639],[139.0078933,35.9413907],[139.0080156,35.9414982],[139.0080585,35.9415293],[139.0080635,35.9415312],[139.0081074,35.9415473],[139.008132,35.941545],[139.0081324,35.9415449],[139.0081562,35.9415394],[139.0081788,35.9415307],[139.0081996,35.9415191],[139.0082175,35.941505],[139.00823,35.9414917],[139.0082421,35.9414739],[139.0082483,35.94146],[139.0082527,35.9414324],[139.0082529,35.9414308],[139.0082517,35.9414015],[139.0082446,35.9413727],[139.0082346,35.9413503],[139.0082173,35.9413245],[139.0081952,35.9413013],[139.0081597,35.9412791],[139.0081185,35.9412501],[139.0080852,35.9412238],[139.0080697,35.9412026],[139.0080578,35.9411784],[139.0080553,35.9411706],[139.0080544,35.9411673],[139.0080536,35.9411533],[139.0080569,35.9411395],[139.0080604,35.9411333],[139.0080648,35.9411256],[139.0080756,35.9411148],[139.0080905,35.9411059],[139.0081095,35.9410983],[139.0081154,35.941096],[139.0081414,35.9410897],[139.0081518,35.9410918],[139.0081627,35.941094],[139.008268,35.9411349],[139.0082684,35.9411351],[139.0085356,35.9412465],[139.0086941,35.9413234],[139.0087231,35.9413417],[139.0087974,35.9414355],[139.0088194,35.9414508],[139.0088555,35.9414657],[139.008888,35.9414694],[139.0088884,35.9414694],[139.0088893,35.9414694],[139.0088931,35.9414694],[139.0089853,35.9414694],[139.0090129,35.9414694],[139.0092973,35.9414587],[139.0093692,35.9414607],[139.0093696,35.9414608],[139.0094422,35.9414661],[139.0095279,35.9414767],[139.0095993,35.941489],[139.0096425,35.941498],[139.0097048,35.9414947],[139.0097802,35.9414883],[139.0098651,35.9414811],[139.0098655,35.9414811],[139.0100248,35.9414604],[139.0101314,35.9414424],[139.0102147,35.9414252],[139.0102151,35.9414252],[139.010276,35.9414272],[139.0102868,35.9414302],[139.0103797,35.9414806],[139.0104824,35.9415546],[139.0104855,35.9415563],[139.0105359,35.9415835],[139.0105483,35.9415962],[139.0105754,35.9416197],[139.0106057,35.9416407],[139.0106385,35.941659],[139.01065623555556,35.94166666666667],[139.00235889504503,35.94166666666667]]]},"properties":{"layer":"landuse","class_code":"203","class_label":"山林（樹林地）"}},{"type":"Feature","id":"luse_c36046a9-3e99-4d92-9354-2e9ebad131a0","geometry":{"type":"MultiPolygon","coordinates":[[[[139.00045571362006,35.94166666666667],[139.0004754,35.9416554],[139.0005072,35.9416414],[139.0005075,35.9416413],[139.0005272,35.9416349],[139.0005275,35.9416348],[139.000548,35.9416305],[139.0005484,35.9416304],[139.0005696,35.9416282],[139.000606,35.9416293],[139.0006126,35.9416305],[139.0006271,35.941633],[139.0006475,35.9416387],[139.0006821,35.9416531],[139.00070324285716,35.94166666666667],[139.0022802393013,35.94166666666667],[139.002267,35.9416558],[139.0022361,35.9416354],[139.0021373,35.9415824],[139.0021166,35.941572],[139.0021062,35.9415469],[139.0021009,35.941523],[139.0021001,35.9414988],[139.0021036,35.9414747],[139.0021116,35.9414514],[139.0021195,35.9414356],[139.0021341,35.9414145],[139.0021524,35.9413954],[139.0021738,35.9413786],[139.002198,35.9413645],[139.0023827,35.9413137],[139.0024121,35.9413029],[139.0024125,35.9413028],[139.0026187,35.9411678],[139.0026289,35.9411613],[139.0028189,35.9410325],[139.002892,35.9409678],[139.0029139,35.9409378],[139.0029114,35.9408783],[139.0028971,35.9407966],[139.0028673,35.9407079],[139.0028549,35.940657],[139.0028479,35.9405959],[139.0028496,35.9405344],[139.0028596,35.9404743],[139.0028885,35.9403799],[139.0028918,35.9403482],[139.0028899,35.9403165],[139.0028814,35.9402828],[139.0028678,35.9402525],[139.0028492,35.9402246],[139.0028338,35.9402071],[139.0027766,35.9401715],[139.002668,35.9400948],[139.0026545,35.9400852],[139.0026164,35.9400542],[139.0025823,35.940019],[139.0025531,35.939981],[139.0025295,35.9399404],[139.0025104,35.9398932],[139.0025002,35.9398548],[139.0024965,35.9398315],[139.0024916,35.9397345],[139.002479,35.9396607],[139.0024561,35.9395887],[139.0024287,35.9395296],[139.0024082,35.9394963],[139.0023954,35.9394669],[139.0023869,35.9394364],[139.002383,35.9394054],[139.0023832,35.9393744],[139.0023869,35.9393472],[139.0023952,35.939317],[139.0024081,35.939287],[139.002422,35.9392642],[139.0024343,35.9392479],[139.0024571,35.9392177],[139.0024979,35.939175],[139.0025117,35.9391628],[139.0025597,35.9391252],[139.0026136,35.9390918],[139.0026661,35.9390666],[139.0027242,35.9390298],[139.0028077,35.9389879],[139.002839,35.9389747],[139.0029267,35.9389441],[139.002927,35.938944],[139.0032464,35.9388503],[139.0034134,35.9387921],[139.0035184,35.9387469],[139.003536,35.9387458],[139.0035933,35.9387483],[139.0036365,35.9387546],[139.0036369,35.9387546],[139.0036697,35.9387626],[139.0036701,35.9387627],[139.0038153,35.93885],[139.0039358,35.9389016],[139.0041524,35.9390146],[139.0043402,35.9391025],[139.0045357,35.9391713],[139.0047705,35.9392343],[139.0047882,35.9392378],[139.004817,35.9392399],[139.0048174,35.93924],[139.0048292,35.9392401],[139.0048461,35.9392402],[139.0048464,35.9392402],[139.0048556,35.9392396],[139.0048752,35.9392384],[139.0049043,35.9392348],[139.0049325,35.9392292],[139.0049601,35.9392218],[139.0049935,35.9392099],[139.0050247,35.9391833],[139.0050606,35.939161],[139.0050857,35.9391494],[139.0051272,35.9391356],[139.0051276,35.9391356],[139.0051714,35.9391275],[139.0051834,35.9391264],[139.0051866,35.9391267],[139.005203,35.9391287],[139.0052219,35.9391334],[139.0052396,35.9391407],[139.0052556,35.9391502],[139.0052697,35.9391616],[139.0052811,35.9391748],[139.005292,35.9391944],[139.0053232,35.9392098],[139.0053235,35.9392099],[139.0054063,35.9392255],[139.0054821,35.9392168],[139.0054954,35.9392161],[139.0055265,35.9392143],[139.0055268,35.9392142],[139.0055656,35.9392073],[139.0056036,35.9391957],[139.0056039,35.9391956],[139.0056393,35.9391796],[139.0056591,35.9391681],[139.0057232,35.9390876],[139.0057602,35.9390607],[139.0058314,35.9390149],[139.0059067,35.938973],[139.0059647,35.9389449],[139.0060482,35.9389176],[139.0060485,35.9389175],[139.0060743,35.9389109],[139.0063803,35.9388828],[139.006422,35.9388837],[139.0064756,35.938882],[139.0065287,35.9388772],[139.0065641,35.9388723],[139.0066161,35.9388625],[139.0066164,35.9388624],[139.0066674,35.9388496],[139.0070452,35.9387327],[139.0070706,35.9387212],[139.0070915,35.9387083],[139.007112,35.9386917],[139.0071293,35.9386729],[139.0071431,35.9386523],[139.0071532,35.9386303],[139.0071686,35.93857],[139.0071818,35.9385147],[139.0071998,35.9384135],[139.0072113,35.9383191],[139.0072263,35.9382601],[139.0072473,35.9382044],[139.0072694,35.9381589],[139.0072864,35.9380797],[139.007286,35.9380558],[139.0072815,35.9380205],[139.0072778,35.9380086],[139.0072727,35.9379983],[139.0072647,35.9379886],[139.0071605,35.9379203],[139.0070625,35.9378456],[139.0070268,35.9378137],[139.0069949,35.937779],[139.0069672,35.9377421],[139.0069406,35.9376991],[139.0069248,35.9376683],[139.0069127,35.9376365],[139.0069046,35.9376062],[139.0068992,35.9375659],[139.0068865,35.9375363],[139.0068695,35.9375088],[139.0068542,35.9374895],[139.0068365,35.9374714],[139.0068167,35.9374548],[139.0067833,35.9374324],[139.0067577,35.9374118],[139.0067359,35.9373903],[139.0067165,35.9373671],[139.0066998,35.9373427],[139.0066876,35.9373202],[139.0066764,35.9372937],[139.0066671,35.9372617],[139.0066652,35.9372434],[139.0066669,35.9372242],[139.0066711,35.9372066],[139.0066787,35.9371894],[139.0066895,35.9371732],[139.0067026,35.9371584],[139.0067182,35.9371452],[139.0067309,35.9371368],[139.0067562,35.9371238],[139.0067845,35.9371055],[139.006806,35.9370874],[139.0068188,35.9370094],[139.006818,35.936982],[139.0068171,35.9369764],[139.0067799,35.9369449],[139.0067333,35.9369122],[139.006709,35.9368974],[139.0066688,35.9368655],[139.0066216,35.9368241],[139.0064958,35.9367065],[139.0064781,35.9366934],[139.0064589,35.9366752],[139.0064432,35.9366549],[139.006431,35.9366331],[139.0064229,35.9366101],[139.0064187,35.9365859],[139.0064189,35.9365619],[139.0064231,35.9365382],[139.0064314,35.9365152],[139.0064439,35.9364935],[139.0064597,35.9364733],[139.0064689,35.9364616],[139.0064839,35.936432],[139.0064932,35.9364032],[139.0064979,35.9363715],[139.0064968,35.9363405],[139.0064673,35.9362861],[139.0064431,35.9362481],[139.0064169,35.9362114],[139.0063562,35.9361369],[139.0063277,35.936106],[139.0062756,35.9360564],[139.0062089,35.9360026],[139.0061876,35.9359814],[139.0061703,35.9359581],[139.0061578,35.9359345],[139.0061492,35.9359082],[139.006145,35.9358811],[139.0061456,35.9358538],[139.0061662,35.9357513],[139.0061771,35.9357246],[139.0061946,35.9356921],[139.0062153,35.9356628],[139.0062409,35.9356342],[139.0062693,35.9356086],[139.006354,35.9355456],[139.0064559,35.9354738],[139.0065047,35.9354444],[139.0065337,35.9354298],[139.0065902,35.935407],[139.0066232,35.9353966],[139.0067833,35.935358],[139.0068093,35.9353476],[139.0068401,35.9353316],[139.0068713,35.9353099],[139.0068991,35.9352845],[139.0069095,35.9352778],[139.0069358,35.9352578],[139.0069622,35.9352316],[139.0069904,35.9351945],[139.0070093,35.9351652],[139.007023,35.935135],[139.007033,35.9351003],[139.0070636,35.9350157],[139.0070978,35.93491],[139.007111,35.9348561],[139.0071178,35.9348209],[139.0071279,35.9347474],[139.0071269,35.9347268],[139.0071187,35.9346809],[139.0071081,35.9346483],[139.0070881,35.9346053],[139.0070287,35.9345077],[139.0069297,35.9343618],[139.0068159,35.9342349],[139.0067694,35.9341908],[139.0067424,35.9341614],[139.0067177,35.9341308],[139.0066961,35.9341009],[139.0066752,35.9340684],[139.0066567,35.9340349],[139.0066407,35.9340007],[139.006627,35.9339667],[139.0066692,35.9339556],[139.0066825,35.9339886],[139.0066978,35.9340211],[139.0067153,35.9340526],[139.0067349,35.9340835],[139.0067552,35.9341118],[139.0067788,35.9341407],[139.0068042,35.9341686],[139.0068502,35.934212],[139.0069657,35.9343406],[139.0070682,35.934491],[139.0071286,35.9345903],[139.0071506,35.9346376],[139.0071622,35.9346738],[139.007171,35.9347239],[139.0071725,35.9347485],[139.0071618,35.9348257],[139.0071547,35.9348624],[139.0071411,35.9349181],[139.0071062,35.9350255],[139.007076,35.935109],[139.0070654,35.9351455],[139.0070498,35.9351798],[139.0070285,35.935213],[139.0069985,35.9352523],[139.0069819,35.93527],[139.0069534,35.9352944],[139.0069302,35.9353105],[139.0069024,35.9353356],[139.0068711,35.9353577],[139.0068488,35.9353705],[139.0068122,35.9353869],[139.0067989,35.9353918],[139.0067985,35.9353919],[139.0066372,35.9354308],[139.006579,35.935451],[139.0065289,35.9354746],[139.0064842,35.9355016],[139.0063835,35.9355725],[139.0063013,35.9356336],[139.0062754,35.9356569],[139.0062526,35.9356824],[139.0062342,35.9357084],[139.0062186,35.9357373],[139.0062096,35.9357595],[139.0061898,35.935857],[139.0061893,35.9358792],[139.0061927,35.9359012],[139.0061999,35.9359226],[139.0062099,35.9359416],[139.006224,35.9359606],[139.0062413,35.9359778],[139.006308,35.9360318],[139.0063627,35.9360836],[139.0063925,35.9361158],[139.006455,35.9361926],[139.0064822,35.9362308],[139.0065191,35.9362908],[139.0065405,35.9363315],[139.0065425,35.936361],[139.0065411,35.9363855],[139.0065368,35.93641],[139.0065259,35.9364436],[139.0065151,35.9364666],[139.0065001,35.9364899],[139.0064866,35.9365053],[139.006476,35.9365221],[139.0064683,35.9365399],[139.0064639,35.9365584],[139.0064627,35.9365772],[139.0064648,35.9365964],[139.0064702,35.9366147],[139.0064788,35.9366323],[139.0064902,35.9366487],[139.0065044,35.9366635],[139.0065211,35.9366767],[139.0065271,35.9366806],[139.0066546,35.9368],[139.0066973,35.9368374],[139.006741,35.9368606],[139.0067932,35.9368939],[139.0068242,35.9369169],[139.0068695,35.9369564],[139.0068742,35.936989],[139.0068732,35.9370229],[139.0068669,35.9370543],[139.0068547,35.9370867],[139.0068434,35.9371073],[139.0068145,35.937132],[139.0067818,35.9371533],[139.0067521,35.9371692],[139.0067366,35.9371816],[139.0067244,35.9371961],[139.0067155,35.9372122],[139.0067106,35.9372297],[139.00671,35.9372474],[139.0067132,35.9372647],[139.0067237,35.9372955],[139.0067395,35.9373267],[139.0067541,35.9373482],[139.0067711,35.9373686],[139.0067906,35.9373874],[139.0068121,35.9374048],[139.0068351,35.9374197],[139.006859,35.9374379],[139.0068803,35.9374578],[139.0068994,35.9374793],[139.0069158,35.9375021],[139.0069335,35.9375346],[139.0069434,35.9375598],[139.0069458,35.9375854],[139.006952,35.937615],[139.0069607,35.9376418],[139.0069732,35.9376699],[139.0069948,35.9377071],[139.0070184,35.937742],[139.0070458,35.937775],[139.007077,35.9378057],[139.0071116,35.9378339],[139.0071449,35.9378566],[139.0071851,35.9378793],[139.0072226,35.9378973],[139.0073136,35.9379375],[139.0073689,35.9379599],[139.0073811,35.9379801],[139.0073888,35.938],[139.0073934,35.9380229],[139.0073936,35.9380438],[139.0073923,35.9380523],[139.0073763,35.9380866],[139.0073564,35.9381194],[139.007335,35.9381479],[139.0073082,35.9381774],[139.0072891,35.9382165],[139.0072692,35.9382691],[139.0072552,35.9383241],[139.0072439,35.9384179],[139.0072233,35.938531],[139.0072137,35.9385703],[139.0071984,35.9386325],[139.007188,35.9386586],[139.0071726,35.9386843],[139.007153,35.9387079],[139.0071376,35.9387223],[139.0071139,35.9387401],[139.0070849,35.9387563],[139.0070536,35.9387692],[139.0066413,35.9388965],[139.0065952,35.9389082],[139.0065949,35.9389083],[139.0065479,35.9389173],[139.0064882,35.9389247],[139.0063843,35.9389299],[139.006351,35.9389315],[139.0062709,35.93894],[139.0061918,35.9389532],[139.0061536,35.9389613],[139.0061532,35.9389614],[139.0060765,35.9389812],[139.0060015,35.9390056],[139.0059515,35.93903],[139.0058806,35.9390693],[139.0058135,35.9391126],[139.0057863,35.9391321],[139.0057247,35.9391807],[139.0056893,35.9392061],[139.0056494,35.9392274],[139.0056263,35.939237],[139.0055815,35.9392505],[139.0055811,35.9392506],[139.0055347,35.9392589],[139.005518,35.9392599],[139.0054872,35.9392618],[139.0054869,35.9392618],[139.0053022,35.9392829],[139.0052936,35.9392916],[139.0052607,35.9393176],[139.0051633,35.9393573],[139.0050572,35.9393932],[139.0049881,35.9394127],[139.0049878,35.9394128],[139.0048775,35.9394384],[139.0048167,35.9394501],[139.0048072,35.9394519],[139.0047893,35.939454],[139.0047596,35.9394575],[139.0047592,35.9394575],[139.0047116,35.9394603],[139.0047112,35.9394603],[139.0046634,35.9394603],[139.004663,35.9394603],[139.0046153,35.9394576],[139.0046149,35.9394576],[139.0045676,35.939452],[139.0045672,35.939452],[139.0045224,35.9394441],[139.0045221,35.939444],[139.0044761,35.9394332],[139.0044758,35.9394331],[139.0044309,35.9394195],[139.0043279,35.9393832],[139.004272,35.9393681],[139.0042716,35.939368],[139.0042148,35.9393562],[139.0042144,35.9393561],[139.0041566,35.9393476],[139.004098,35.9393424],[139.0040737,35.9393413],[139.0040684,35.939341],[139.0040094,35.939341],[139.0039508,35.9393444],[139.0039504,35.9393444],[139.0038924,35.9393512],[139.0038921,35.9393512],[139.0037831,35.9393662],[139.0037827,35.9393663],[139.0037384,35.9393693],[139.0036472,35.9393633],[139.0035821,35.9393571],[139.00357,35.9393586],[139.0035469,35.9393648],[139.003526,35.9393749],[139.0035091,35.9393877],[139.0034973,35.9394008],[139.0034987,35.939421],[139.0035033,35.9394373],[139.0035121,35.939455],[139.0035231,35.939458],[139.0035235,35.9394581],[139.0035448,35.93946],[139.0035452,35.93946],[139.0035549,35.9394592],[139.003564,35.9394585],[139.0035851,35.9394533],[139.0035855,35.9394531],[139.0036527,35.9394301],[139.003699,35.9394181],[139.0036994,35.939418],[139.0037464,35.9394087],[139.0037468,35.9394086],[139.0037757,35.9394047],[139.0038625,35.9394095],[139.0039811,35.9394258],[139.0039815,35.9394259],[139.0040285,35.939433],[139.0040289,35.9394331],[139.0041875,35.9394801],[139.0043234,35.9395299],[139.0044346,35.9395785],[139.0044349,35.9395786],[139.0044928,35.939597],[139.0045507,35.9396117],[139.004551,35.9396118],[139.0046102,35.939623],[139.0046703,35.9396309],[139.0046707,35.939631],[139.0047211,35.9396348],[139.0047215,35.9396348],[139.004831,35.9396364],[139.0049093,35.9396396],[139.0050053,35.9396435],[139.0050057,35.9396435],[139.0051787,35.9396608],[139.0053655,35.939677],[139.0054362,35.9396916],[139.0055008,35.9397007],[139.0055344,35.9397039],[139.0055848,35.9397004],[139.0056527,35.9396922],[139.0057196,35.9396801],[139.0058202,35.9396683],[139.005844,35.9396602],[139.005885,35.9396463],[139.0059474,35.9396209],[139.0060096,35.9395907],[139.0060508,35.9395727],[139.0061505,35.9395097],[139.00621,35.9394953],[139.0062558,35.9394872],[139.0062707,35.9394846],[139.0063311,35.9394774],[139.0063314,35.9394774],[139.0063806,35.9394748],[139.0064134,35.9394731],[139.0064755,35.9394742],[139.0065386,35.9394924],[139.006539,35.9394925],[139.0066971,35.9395278],[139.0067659,35.9395268],[139.0069155,35.9394677],[139.0069432,35.9394524],[139.0071114,35.9393762],[139.0071386,35.9393637],[139.0071855,35.9393407],[139.0072448,35.9393178],[139.0073057,35.9393005],[139.007306,35.9393004],[139.0073404,35.9392933],[139.0074079,35.9392841],[139.0074169,35.9392841],[139.0074237,35.939284],[139.0074614,35.939282],[139.0074863,35.9392807],[139.0075467,35.939272],[139.007821,35.9392204],[139.0078503,35.9392123],[139.0078769,35.9392008],[139.0079005,35.9391859],[139.007921,35.939168],[139.0079373,35.9391484],[139.0079498,35.9391261],[139.0079576,35.9391025],[139.0079708,35.9390053],[139.0079892,35.9389428],[139.0080112,35.9388798],[139.008029,35.9388362],[139.0080572,35.9387749],[139.008089,35.9387146],[139.0081239,35.938656],[139.0081622,35.9386001],[139.0081804,35.938577],[139.0082116,35.9385406],[139.0082505,35.9385008],[139.0082799,35.9384743],[139.0083108,35.9384487],[139.0083431,35.9384244],[139.0083823,35.9383978],[139.0084743,35.9383581],[139.0085368,35.9383266],[139.0085537,35.9383148],[139.0085683,35.938301],[139.0085826,35.9382828],[139.0085915,35.9382662],[139.0085974,35.9382486],[139.0086001,35.9382305],[139.0085996,35.9382123],[139.008544,35.9379799],[139.0084653,35.937907],[139.0083909,35.9376387],[139.0084281,35.9375908],[139.0085673,35.9374506],[139.0085993,35.9374251],[139.0086222,35.9374181],[139.0086458,35.9374131],[139.0086544,35.9374123],[139.0086807,35.9374097],[139.008681,35.9374097],[139.0086904,35.9374098],[139.0087052,35.93741],[139.0087055,35.93741],[139.0087297,35.9374125],[139.008763,35.9374195],[139.0087634,35.9374196],[139.0088039,35.9374375],[139.0088773,35.9374786],[139.008906,35.9374989],[139.0089607,35.9375397],[139.0090201,35.9375898],[139.0090699,35.9376368],[139.0091167,35.9376867],[139.00916,35.9377384],[139.0092002,35.937794],[139.0092314,35.9378319],[139.009266,35.9378653],[139.0093066,35.9378967],[139.0093515,35.9379241],[139.0094,35.9379474],[139.0094193,35.9379551],[139.009523,35.9380178],[139.0096265,35.9380856],[139.0096511,35.9381078],[139.009671,35.9381304],[139.0096876,35.9381548],[139.0097012,35.9381818],[139.0097104,35.9382079],[139.009716,35.9382354],[139.0097176,35.9382632],[139.0097155,35.938291],[139.0097092,35.9383241],[139.0097081,35.9383458],[139.0097103,35.9383674],[139.0097147,35.9383866],[139.0097225,35.9384075],[139.009733,35.9384274],[139.0097464,35.9384461],[139.0097621,35.9384637],[139.0097738,35.9384746],[139.0097909,35.9384982],[139.0098032,35.9385208],[139.0098123,35.9385444],[139.0098193,35.9385766],[139.0098202,35.9385882],[139.0098199,35.9386134],[139.0098159,35.9386379],[139.0098087,35.9386619],[139.0097982,35.9386851],[139.0097846,35.9387071],[139.0097678,35.9387279],[139.00975,35.9387455],[139.0097319,35.93876],[139.0096932,35.9388351],[139.0096767,35.9388691],[139.0096675,35.9388971],[139.0096628,35.9389216],[139.0096612,35.9389502],[139.0096635,35.9389789],[139.0096703,35.9390091],[139.0096903,35.9390285],[139.0097143,35.939045],[139.0097408,35.939058],[139.0097705,35.9390675],[139.0097708,35.9390675],[139.009803,35.9390729],[139.0099531,35.9390723],[139.0099536,35.9390723],[139.0100135,35.9390725],[139.0100968,35.9390765],[139.0101223,35.9390777],[139.0102268,35.9390827],[139.0102786,35.9390874],[139.010279,35.9390874],[139.0103104,35.9390874],[139.0103266,35.9390874],[139.010327,35.9390874],[139.0103714,35.9390836],[139.0103848,35.9390816],[139.0104999,35.9390328],[139.0105347,35.9390259],[139.0105705,35.939022],[139.0105793,35.9390218],[139.0106105,35.9390214],[139.0106252,35.9390225],[139.0106451,35.9390241],[139.0106455,35.9390242],[139.0106805,35.93903],[139.0107146,35.939039],[139.010715,35.9390391],[139.0107255,35.9390427],[139.0107802,35.9390887],[139.0108259,35.9391151],[139.0108263,35.9391153],[139.0108608,35.9391312],[139.010911,35.9391496],[139.010963,35.9391632],[139.0110133,35.9391718],[139.0110995,35.9391689],[139.0110999,35.9391688],[139.0112204,35.93916],[139.0112208,35.93916],[139.0112921,35.9391515],[139.0113263,35.9391496],[139.0113455,35.9391503],[139.0113604,35.9391509],[139.0113608,35.9391509],[139.0113988,35.9391559],[139.0113991,35.939156],[139.0114319,35.9391636],[139.0114637,35.9391741],[139.0114919,35.9391864],[139.0114941,35.9391874],[139.0115224,35.9392032],[139.0115374,35.9392133],[139.0115928,35.939261],[139.0116127,35.939278],[139.0116596,35.9393141],[139.0117247,35.9393395],[139.0117562,35.9393473],[139.0117941,35.9393504],[139.0118668,35.9393498],[139.0119192,35.9393493],[139.0121052,35.9393301],[139.0121056,35.93933],[139.0121735,35.9393218],[139.0122344,35.9393169],[139.0122348,35.9393169],[139.0122751,35.9393153],[139.012306,35.9393141],[139.0124043,35.9393155],[139.0125,35.939321305497636],[139.0125,35.94166666666667],[139.00045571362006,35.94166666666667]]],[[[139.0125,35.93937504241935],[139.0123986,35.9393694],[139.0123695,35.939369],[139.0123073,35.9393682],[139.0122708,35.9393696],[139.0122395,35.9393708],[139.0121817,35.9393755],[139.0121147,35.9393836],[139.0121143,35.9393837],[139.0119268,35.9394031],[139.0118266,35.9394112],[139.0118015,35.9394147],[139.0117666,35.9394153],[139.0117663,35.9394153],[139.0117317,35.9394113],[139.0117081,35.9394058],[139.011676,35.9393942],[139.011647,35.9393785],[139.0115664,35.9393168],[139.011492,35.939253],[139.0114707,35.9392395],[139.011443,35.9392262],[139.0114105,35.9392148],[139.0114101,35.9392147],[139.0113842,35.9392087],[139.0113541,35.9392047],[139.011338,35.9392042],[139.0113273,35.9392038],[139.0113269,35.9392038],[139.0113,35.9392052],[139.011228,35.9392138],[139.0112276,35.9392138],[139.011104,35.9392228],[139.0110092,35.9392261],[139.0109763,35.9392214],[139.0109759,35.9392213],[139.0109164,35.9392085],[139.0109161,35.9392085],[139.0108586,35.9391904],[139.0108176,35.9391738],[139.0107651,35.9391471],[139.0107297,35.939126],[139.0107071,35.9391151],[139.0106829,35.9391064],[139.010658,35.9390998],[139.0106577,35.9390997],[139.0106321,35.9390955],[139.0106226,35.9390947],[139.0106061,35.9390934],[139.0106057,35.9390934],[139.0105774,35.9390939],[139.0105513,35.9390967],[139.0105258,35.9391018],[139.0104637,35.9391207],[139.0104634,35.9391208],[139.0104357,35.9391277],[139.0103818,35.939137],[139.0103304,35.9391414],[139.0103301,35.9391415],[139.0102753,35.9391415],[139.0102749,35.9391414],[139.010232,35.9391376],[139.0102205,35.9391365],[139.0102201,35.9391365],[139.0101343,35.9391324],[139.0101067,35.9391311],[139.0100109,35.9391266],[139.0099889,35.9391262],[139.0099885,35.9391262],[139.0099694,35.9391275],[139.0098232,35.9391455],[139.0097944,35.9391447],[139.0097941,35.9391446],[139.0097609,35.93914],[139.0097605,35.93914],[139.0097305,35.9391328],[139.0097018,35.9391228],[139.0097015,35.9391227],[139.0096744,35.9391102],[139.0096489,35.9390953],[139.0096272,35.9390791],[139.0096064,35.93906],[139.0095882,35.939039],[139.0095788,35.9390059],[139.0095733,35.9389692],[139.009573,35.9389324],[139.0095777,35.9388957],[139.0095857,35.9388643],[139.0095998,35.9388293],[139.0096189,35.9387957],[139.0096423,35.9387641],[139.0096698,35.9387349],[139.0097014,35.9387084],[139.0097209,35.9386881],[139.0097372,35.9386636],[139.009748,35.9386371],[139.0097535,35.9386096],[139.0097535,35.9385878],[139.0097503,35.9385667],[139.0097409,35.9385398],[139.0097262,35.9385147],[139.0097108,35.9384981],[139.0096905,35.9384757],[139.0096736,35.9384516],[139.0096599,35.9384261],[139.0096501,35.9383994],[139.0096442,35.9383747],[139.0096415,35.9383469],[139.0096429,35.9383192],[139.0096495,35.9382845],[139.0096511,35.9382629],[139.0096496,35.9382412],[139.0096454,35.9382198],[139.0096381,35.9381988],[139.0096275,35.9381783],[139.0096148,35.9381593],[139.0095991,35.9381416],[139.0095811,35.9381255],[139.0094822,35.9380606],[139.0093843,35.9380015],[139.0093691,35.9379954],[139.0093144,35.9379691],[139.0092638,35.937938],[139.0092175,35.9379025],[139.0091783,35.9378644],[139.0091428,35.9378215],[139.009104,35.9377677],[139.0090629,35.9377183],[139.0090182,35.9376709],[139.0089704,35.9376256],[139.0089141,35.9375785],[139.0088537,35.9375329],[139.0088289,35.9375171],[139.0088013,35.9375049],[139.0087704,35.9374965],[139.0087396,35.9374926],[139.0087392,35.9374926],[139.008708,35.9374931],[139.0086773,35.9374978],[139.0085379,35.937638],[139.0085932,35.9379043],[139.0086636,35.9381925],[139.0086668,35.9382162],[139.0086658,35.9382421],[139.0086603,35.9382675],[139.0086505,35.9382921],[139.0086365,35.9383153],[139.0086215,35.9383337],[139.0086006,35.9383531],[139.0085762,35.93837],[139.0085079,35.9384047],[139.0084188,35.9384434],[139.0083571,35.9384876],[139.008301,35.9385362],[139.0082608,35.9385775],[139.0082411,35.9386001],[139.0081986,35.9386571],[139.0081495,35.9387371],[139.0081188,35.938795],[139.0080917,35.9388541],[139.0080748,35.9388958],[139.0080535,35.9389564],[139.0080467,35.9389799],[139.0080358,35.9390177],[139.0080251,35.9391014],[139.0080202,35.9391232],[139.0080124,35.9391445],[139.0080017,35.9391649],[139.0079883,35.9391843],[139.0079734,35.9392015],[139.0079553,35.9392182],[139.0079351,35.9392332],[139.007913,35.9392462],[139.0078894,35.9392573],[139.0078643,35.9392661],[139.007864,35.9392662],[139.0078367,35.939273],[139.0078363,35.9392731],[139.0075269,35.9393304],[139.0075128,35.9393318],[139.0074598,35.939337],[139.0074128,35.9393381],[139.0074124,35.9393381],[139.0073837,35.9393415],[139.0073268,35.9393519],[139.0072699,35.9393679],[139.0072171,35.9393882],[139.0071731,35.9394101],[139.0069895,35.939494],[139.0069697,35.9395026],[139.0069518,35.9395137],[139.0069365,35.9395271],[139.006924,35.9395422],[139.0069149,35.9395584],[139.0069091,35.9395761],[139.0069068,35.9395943],[139.0069082,35.9396126],[139.006914,35.9396322],[139.0069232,35.9396375],[139.0069398,35.9396494],[139.0069543,35.9396632],[139.0069664,35.9396788],[139.0069754,35.9396953],[139.0069815,35.9397128],[139.0069844,35.9397307],[139.0069842,35.9397488],[139.0069808,35.9397667],[139.0069739,35.9397855],[139.0069641,35.939803],[139.0069512,35.9398193],[139.0069345,35.9398348],[139.0069164,35.9398472],[139.0068962,35.9398574],[139.0068745,35.9398652],[139.0068518,35.9398705],[139.0068238,35.9398731],[139.0068234,35.9398731],[139.0067972,35.9398723],[139.0067767,35.9398692],[139.0067713,35.9398683],[139.0067398,35.9398592],[139.0067169,35.9398487],[139.0066959,35.9398358],[139.0066773,35.9398205],[139.0066708,35.9398118],[139.0066526,35.9397896],[139.0066336,35.939773],[139.0066161,35.9397611],[139.0065928,35.9397489],[139.0065674,35.9397397],[139.006567,35.9397395],[139.0065404,35.9397333],[139.0064996,35.9397276],[139.0064992,35.9397276],[139.0064669,35.939727],[139.0064349,35.9397301],[139.0064345,35.9397301],[139.0064082,35.9397357],[139.006378,35.9397454],[139.0063501,35.9397588],[139.0063295,35.9397716],[139.0063096,35.9397894],[139.0062766,35.9398254],[139.0062615,35.9398461],[139.0062482,35.9398676],[139.0062328,35.939899],[139.0062262,35.9399234],[139.0062152,35.9399468],[139.0061987,35.9399705],[139.0061811,35.939989],[139.0061577,35.9400076],[139.0061327,35.9400222],[139.0061053,35.9400337],[139.0060765,35.9400419],[139.0060762,35.940042],[139.0060537,35.9400466],[139.0060533,35.9400466],[139.0059361,35.9400702],[139.0058131,35.9400872],[139.0056372,35.9401013],[139.0055956,35.9401074],[139.0055546,35.9401158],[139.0055222,35.9401246],[139.0054914,35.9401342],[139.0054533,35.9401487],[139.0054163,35.9401654],[139.0053809,35.9401842],[139.0053573,35.9401984],[139.0053425,35.9402169],[139.0053311,35.9402369],[139.0053232,35.9402581],[139.0053193,35.9402797],[139.005319,35.9403017],[139.0053227,35.9403236],[139.0053301,35.9403449],[139.0053412,35.9403651],[139.0053549,35.9403829],[139.0053784,35.9403875],[139.0054025,35.9403894],[139.0054029,35.9403894],[139.0054179,35.9403888],[139.005427,35.9403884],[139.0054511,35.9403847],[139.0054515,35.9403846],[139.0054743,35.9403781],[139.0054962,35.9403691],[139.0055161,35.9403575],[139.0055337,35.9403439],[139.0055565,35.9403193],[139.0055887,35.9402897],[139.0056258,35.9402642],[139.0056624,35.9402452],[139.0057064,35.9402286],[139.0057528,35.9402173],[139.0057532,35.9402172],[139.0057809,35.9402132],[139.0058009,35.9402134],[139.0058037,35.9402134],[139.0058172,35.9402136],[139.0058176,35.9402136],[139.0058536,35.940216],[139.0058539,35.9402161],[139.0058899,35.9402206],[139.0059249,35.9402272],[139.0059253,35.9402273],[139.00596,35.9402359],[139.0059941,35.9402466],[139.0060271,35.9402592],[139.006059,35.9402738],[139.0060853,35.9402876],[139.0061243,35.9403113],[139.0061603,35.9403382],[139.0061897,35.9403657],[139.0062148,35.9403942],[139.0062391,35.9404287],[139.0062584,35.9404651],[139.006262,35.9404734],[139.006313,35.94051],[139.0063528,35.9405337],[139.0063602,35.9405373],[139.0064111,35.9405619],[139.0064729,35.9405848],[139.0064733,35.9405849],[139.0065325,35.940601],[139.0066383,35.9406387],[139.0067738,35.940687],[139.0069073,35.9407346],[139.0069076,35.9407347],[139.0070201,35.9407746],[139.0072126,35.9408428],[139.007272,35.9408624],[139.0073301,35.9408845],[139.0073867,35.9409092],[139.0074406,35.9409358],[139.0074932,35.9409654],[139.0075442,35.9409972],[139.0075629,35.9410104],[139.0075926,35.9410312],[139.007639,35.9410673],[139.007691,35.9411131],[139.0078052,35.9412358],[139.0079351,35.941361],[139.0080475,35.9414602],[139.008082,35.9414712],[139.0080885,35.941471],[139.0080904,35.9414709],[139.0080971,35.9414691],[139.0080975,35.9414691],[139.0081029,35.9414655],[139.0081072,35.9414585],[139.0081124,35.9414316],[139.0081126,35.9414144],[139.0081015,35.9413572],[139.0080191,35.9412418],[139.0080099,35.9412231],[139.0080033,35.9412038],[139.0079992,35.9411839],[139.0079967,35.941153],[139.0079987,35.9411347],[139.0080044,35.9411169],[139.0080168,35.9410951],[139.0080296,35.94108],[139.0080504,35.9410633],[139.0080716,35.9410538],[139.0080719,35.9410537],[139.0080947,35.941047],[139.0081181,35.9410433],[139.0081425,35.9410425],[139.008161,35.9410443],[139.0081666,35.9410449],[139.00819,35.9410502],[139.0081904,35.9410503],[139.0082053,35.9410556],[139.00828,35.9410847],[139.0082952,35.9410906],[139.0085653,35.941203],[139.0087287,35.9412823],[139.0087634,35.9412794],[139.0087647,35.9412792],[139.008777,35.9412696],[139.0087969,35.9412581],[139.0088176,35.9412522],[139.0088489,35.9412548],[139.0088655,35.9412546],[139.0088745,35.9412545],[139.0088908,35.9412529],[139.0088999,35.9412521],[139.0089249,35.9412473],[139.0089488,35.9412405],[139.0089492,35.9412403],[139.0089721,35.9412314],[139.0089938,35.9412204],[139.0090141,35.9412075],[139.0090324,35.9411929],[139.0090484,35.9411768],[139.0090625,35.9411593],[139.0090741,35.9411407],[139.0090831,35.9411213],[139.0090894,35.9411011],[139.0090928,35.9410804],[139.0090937,35.9410597],[139.0090917,35.9410389],[139.0090869,35.9410184],[139.0090794,35.9409986],[139.0090202,35.9408844],[139.0090405,35.9408775],[139.0091002,35.9409923],[139.0091083,35.9410141],[139.0091137,35.9410365],[139.0091159,35.9410592],[139.009115,35.941082],[139.0091111,35.9411046],[139.0091042,35.9411266],[139.0090944,35.941148],[139.0090818,35.9411684],[139.0090665,35.9411875],[139.0090487,35.9412051],[139.0090286,35.941221],[139.0090067,35.9412352],[139.0089829,35.9412472],[139.0089575,35.9412571],[139.008931,35.9412647],[139.008904,35.9412697],[139.0089036,35.9412698],[139.008876,35.9412726],[139.0088666,35.9412726],[139.0088481,35.9412728],[139.0088477,35.9412728],[139.00882,35.9412706],[139.0088074,35.9412743],[139.0087915,35.9412836],[139.0087777,35.9412941],[139.0087774,35.9412945],[139.0087557,35.9413245],[139.0088271,35.9414145],[139.0088413,35.9414243],[139.0088675,35.9414352],[139.008891,35.9414379],[139.0090122,35.9414378],[139.0090357,35.941437],[139.0092048,35.9414306],[139.0092971,35.9414272],[139.0093717,35.9414293],[139.009372,35.9414293],[139.0094611,35.9414362],[139.0095348,35.9414456],[139.0095351,35.9414457],[139.0096081,35.9414583],[139.0096462,35.9414662],[139.0096615,35.9414654],[139.0097015,35.9414632],[139.00986,35.9414498],[139.0098604,35.9414498],[139.0099152,35.9414427],[139.0100176,35.9414294],[139.010018,35.9414294],[139.0101226,35.9414117],[139.0102773,35.9413797],[139.0103268,35.9413811],[139.010355,35.9413863],[139.0103769,35.9413975],[139.0105658,35.9415477],[139.0105864,35.94157],[139.0106089,35.9415895],[139.01061,35.9415904],[139.0106359,35.9416086],[139.0106644,35.9416243],[139.0106999,35.9416394],[139.010732,35.9416493],[139.0107652,35.9416563],[139.0107992,35.9416602],[139.0108168,35.9416607],[139.0108332,35.9416611],[139.0108741,35.9416584],[139.0109427,35.941661],[139.01109187670687,35.94166666666667],[139.0125,35.94166666666667],[139.0125,35.94038863635186],[139.0123852,35.9403149],[139.0123678,35.9403051],[139.0123316,35.9402881],[139.0123312,35.9402879],[139.012319,35.9402835],[139.012293,35.9402742],[139.0122456,35.9402623],[139.0122453,35.9402623],[139.0122041,35.9402563],[139.0121702,35.9402544],[139.0121624,35.9402539],[139.012162,35.9402539],[139.0121391,35.9402547],[139.0121204,35.9402553],[139.01212,35.9402553],[139.0120937,35.9402581],[139.0119709,35.940271],[139.0115587,35.9403275],[139.0114864,35.9403375],[139.0114861,35.9403375],[139.0114512,35.9403413],[139.0113564,35.9403516],[139.011356,35.9403516],[139.0113368,35.9403521],[139.0113086,35.9403528],[139.0113082,35.9403528],[139.0112608,35.9403497],[139.0112307,35.9403455],[139.0112303,35.9403455],[139.0111844,35.9403356],[139.0111841,35.9403355],[139.0111396,35.9403216],[139.0111002,35.9403051],[139.0110998,35.940305],[139.0110227,35.9402769],[139.0110224,35.9402768],[139.0109436,35.9402521],[139.0109432,35.940252],[139.0108747,35.9402338],[139.0107927,35.9402157],[139.0107099,35.9402013],[139.0107095,35.9402012],[139.0106261,35.9401905],[139.0106257,35.9401905],[139.0105415,35.9401835],[139.0105203,35.9401826],[139.0105158,35.9401824],[139.0104769,35.9401807],[139.0102214,35.9401498],[139.0102211,35.9401497],[139.0097772,35.9401043],[139.0097769,35.9401043],[139.0097417,35.9400953],[139.0097414,35.9400952],[139.0097067,35.9400847],[139.0096728,35.9400725],[139.0096395,35.9400589],[139.0096057,35.9400429],[139.0095745,35.9400264],[139.0095742,35.9400263],[139.0095446,35.9400084],[139.0095159,35.9399891],[139.0094885,35.9399686],[139.0094417,35.9399278],[139.0092009,35.9396909],[139.0091694,35.9396657],[139.0091395,35.9396392],[139.0091114,35.9396114],[139.0090852,35.9395824],[139.009061,35.9395523],[139.0090364,35.9395177],[139.0090168,35.9394855],[139.0089991,35.9394524],[139.0089837,35.9394187],[139.0089631,35.93936],[139.0090003,35.9393522],[139.0090007,35.9393521],[139.0090206,35.9394085],[139.0090352,35.9394407],[139.009052,35.9394721],[139.0090708,35.9395028],[139.0090938,35.9395354],[139.0091171,35.9395644],[139.0091421,35.9395921],[139.0091687,35.9396186],[139.0091973,35.9396438],[139.0092296,35.9396694],[139.0094713,35.9399073],[139.0095156,35.939946],[139.0095682,35.9399835],[139.0096258,35.9400161],[139.0096577,35.9400309],[139.0097213,35.9400555],[139.0097854,35.9400734],[139.0101006,35.9401056],[139.0101472,35.9401104],[139.0102266,35.9401185],[139.0104806,35.9401492],[139.010481,35.9401493],[139.0105443,35.940152],[139.0105447,35.9401521],[139.0106307,35.9401592],[139.0106311,35.9401592],[139.0107166,35.9401702],[139.010717,35.9401702],[139.0108017,35.940185],[139.0108021,35.9401851],[139.0108857,35.9402036],[139.0109565,35.9402223],[139.0110375,35.9402477],[139.0111173,35.9402768],[139.0111556,35.9402928],[139.0111962,35.9403055],[139.0112381,35.9403146],[139.0112385,35.9403146],[139.0112876,35.9403203],[139.0113309,35.9403211],[139.0113313,35.9403211],[139.0113418,35.9403206],[139.0113525,35.9403202],[139.0113924,35.9403158],[139.0114802,35.9403063],[139.0114805,35.9403063],[139.0119652,35.9402398],[139.0121163,35.9402239],[139.0121167,35.9402238],[139.0121436,35.940223],[139.0121628,35.9402223],[139.0121934,35.9402241],[139.012197,35.9402243],[139.0122089,35.940225],[139.0122545,35.9402316],[139.0122852,35.9402385],[139.0123283,35.9402517],[139.0123693,35.9402689],[139.0124083,35.9402895],[139.0124449,35.940313],[139.0125,35.94034835238095],[139.0125,35.93937504241935]]],[[[139.0062834,35.9397324],[139.006296,35.9397239],[139.0063305,35.9397049],[139.0063681,35.93969],[139.0064076,35.9396796],[139.0064426,35.9396743],[139.006443,35.9396743],[139.0064847,35.9396727],[139.0065265,35.9396759],[139.0065723,35.939684],[139.0065726,35.9396841],[139.0066075,35.9396946],[139.0066406,35.9397091],[139.0066702,35.9397269],[139.0066925,35.9397444],[139.0067158,35.9397682],[139.0067299,35.9397872],[139.0067396,35.9397951],[139.0067601,35.9398069],[139.0067605,35.9398071],[139.0067842,35.9398152],[139.0068044,35.9398185],[139.0068048,35.9398185],[139.0068303,35.9398185],[139.0068307,35.9398185],[139.0068452,35.9398161],[139.0068648,35.9398097],[139.0068652,35.9398097],[139.0068826,35.9397999],[139.0068975,35.9397872],[139.0069089,35.9397719],[139.0069156,35.939755],[139.0069181,35.9397392],[139.0069163,35.9397237],[139.0069105,35.9397088],[139.0069007,35.9396953],[139.0068876,35.9396838],[139.0067845,35.9396127],[139.0067691,35.9396032],[139.0067602,35.9396005],[139.0067598,35.9396004],[139.0067305,35.9395914],[139.0067302,35.9395913],[139.0065269,35.939546],[139.0064709,35.9395417],[139.0064147,35.9395408],[139.0063665,35.9395432],[139.0063415,35.9395445],[139.0063411,35.9395445],[139.0062858,35.9395511],[139.0062854,35.9395511],[139.0062471,35.939558],[139.0062307,35.9395609],[139.0062225,35.9395628],[139.0061768,35.9395738],[139.0061241,35.9395899],[139.0060732,35.939609],[139.0060111,35.9396372],[139.0059714,35.9396565],[139.0059058,35.9396832],[139.0058468,35.9397032],[139.0058065,35.9397154],[139.0057366,35.9397324],[139.0057362,35.9397325],[139.0056649,35.9397454],[139.0055927,35.9397542],[139.0055924,35.9397542],[139.0055333,35.9397582],[139.0054914,35.9397543],[139.0054911,35.9397542],[139.0054226,35.9397445],[139.0054222,35.9397444],[139.0053497,35.9397296],[139.0051719,35.939701],[139.0051716,35.9397009],[139.0050012,35.939684],[139.0049125,35.9396803],[139.0048296,35.9396769],[139.0047183,35.9396753],[139.0046642,35.9396712],[139.0046006,35.9396629],[139.0045379,35.939651],[139.0045376,35.9396509],[139.0044762,35.9396354],[139.004413,35.9396151],[139.0043011,35.9395664],[139.0041687,35.9395177],[139.0041684,35.9395176],[139.0040164,35.9394725],[139.0039739,35.939466],[139.003931,35.939462],[139.0038912,35.9394605],[139.0038908,35.9394605],[139.0038479,35.9394614],[139.0038476,35.9394614],[139.0038047,35.9394647],[139.0037622,35.9394705],[139.0037201,35.9394788],[139.0036792,35.9394894],[139.0036788,35.9394895],[139.0036159,35.9395112],[139.0035917,35.9395181],[139.0035856,35.9395191],[139.0035706,35.9395216],[139.0035452,35.9395231],[139.0035448,35.9395231],[139.0035196,35.9395216],[139.0035192,35.9395216],[139.0034945,35.9395172],[139.0034941,35.9395171],[139.0034703,35.9395099],[139.0034589,35.9395051],[139.003443,35.9394837],[139.003431,35.9394606],[139.0034246,35.939443],[139.0034202,35.9394182],[139.0034197,35.9393931],[139.0034211,35.9393828],[139.0034343,35.9393635],[139.0034508,35.9393458],[139.0034691,35.9393313],[139.0034909,35.9393181],[139.003515,35.9393074],[139.0035403,35.9392997],[139.0035671,35.9392949],[139.0035732,35.9392944],[139.003583,35.9392936],[139.0036549,35.9393005],[139.0038005,35.9393092],[139.0038009,35.9393092],[139.0038658,35.9393088],[139.0039062,35.9393085],[139.0039453,35.939304],[139.0039821,35.9393019],[139.0040075,35.9393005],[139.0040079,35.9393005],[139.0040465,35.9393005],[139.0040698,35.9393005],[139.004077,35.9393008],[139.0041021,35.939302],[139.0041638,35.9393074],[139.0042254,35.9393165],[139.0042859,35.9393291],[139.0043454,35.9393452],[139.0044498,35.939382],[139.0044916,35.9393946],[139.0045344,35.9394048],[139.004576,35.939412],[139.0045763,35.9394121],[139.0046204,35.9394172],[139.0046647,35.9394198],[139.0046651,35.9394198],[139.0047094,35.9394197],[139.0047098,35.9394197],[139.0047541,35.9394172],[139.0047983,35.939412],[139.004864,35.9393993],[139.0049729,35.9393741],[139.005039,35.9393553],[139.0050394,35.9393552],[139.0051423,35.9393204],[139.0051812,35.9393047],[139.0051942,35.9392973],[139.0052047,35.9392878],[139.0052122,35.9392766],[139.0052166,35.9392643],[139.0052173,35.9392528],[139.0052149,35.9392402],[139.0052088,35.9392284],[139.0051999,35.9392179],[139.0051873,35.9392089],[139.0051869,35.9392088],[139.0051626,35.9392039],[139.0051567,35.9392037],[139.0051548,35.9392036],[139.0051446,35.9392032],[139.0051196,35.9392062],[139.0050963,35.9392137],[139.005096,35.9392139],[139.0050753,35.9392255],[139.0050471,35.9392496],[139.0050192,35.9392674],[139.0049983,35.9392776],[139.0049758,35.9392858],[139.0049523,35.9392918],[139.0049283,35.9392955],[139.0049279,35.9392956],[139.0049037,35.9392971],[139.0048654,35.9392949],[139.0048651,35.9392949],[139.0047567,35.9392733],[139.0046152,35.9392354],[139.0045179,35.9392092],[139.0043178,35.9391387],[139.0041261,35.939049],[139.0039107,35.9389367],[139.0036861,35.9388407],[139.0036526,35.938829],[139.0036523,35.9388289],[139.0036174,35.9388204],[139.0035817,35.9388152],[139.0035814,35.9388152],[139.0035376,35.9388135],[139.0035014,35.9388157],[139.003501,35.9388158],[139.0034653,35.9388214],[139.0034306,35.9388303],[139.0032656,35.9388878],[139.0029502,35.9389899],[139.0029499,35.93899],[139.0028649,35.9390195],[139.0028379,35.939031],[139.0027592,35.9390706],[139.0027002,35.9391076],[139.0026478,35.939133],[139.0025994,35.939163],[139.0025554,35.9391973],[139.0025073,35.939246],[139.0024756,35.9392883],[139.0024643,35.9393064],[139.0024541,35.9393305],[139.0024471,35.9393555],[139.0024441,35.9393773],[139.002444,35.9394028],[139.0024473,35.9394283],[139.0024542,35.9394532],[139.0024646,35.9394773],[139.0024841,35.9395083],[139.0025142,35.9395737],[139.0025388,35.939651],[139.0025524,35.9397301],[139.0025572,35.9398272],[139.0025603,35.9398463],[139.0025705,35.9398847],[139.0025861,35.9399217],[139.0026066,35.9399572],[139.0026321,35.9399904],[139.0026622,35.9400211],[139.0026962,35.9400489],[139.002815,35.9401331],[139.0029051,35.9401889],[139.0029231,35.9402052],[139.0029387,35.9402231],[139.0029517,35.9402423],[139.0029619,35.9402627],[139.0029692,35.9402838],[139.0029734,35.9403055],[139.0029746,35.9403274],[139.0029727,35.9403492],[139.0029679,35.9403708],[139.0029599,35.9403917],[139.0029492,35.9404118],[139.0029364,35.9404296],[139.0029274,35.9404588],[139.0029196,35.9404837],[139.0029105,35.9405383],[139.002909,35.9405942],[139.0029153,35.9406498],[139.0029269,35.9406965],[139.0029572,35.9407879],[139.0029725,35.9408739],[139.0029757,35.9409546],[139.0029711,35.9409732],[139.0029639,35.9409912],[139.0029555,35.9410067],[139.0029436,35.941023],[139.0029296,35.9410383],[139.0029136,35.941052],[139.0028819,35.9410719],[139.0028694,35.9411366],[139.0027181,35.9412391],[139.0026302,35.9412413],[139.0026122,35.9412418],[139.002447,35.9413495],[139.0024071,35.9413641],[139.0022285,35.9414132],[139.0022164,35.9414204],[139.002202,35.9414316],[139.0021896,35.9414445],[139.0021747,35.9414687],[139.0021693,35.9414851],[139.0021669,35.9415012],[139.0021689,35.941524],[139.0021706,35.9415273],[139.0021856,35.9415465],[139.0022018,35.9415596],[139.0022339,35.9415758],[139.0022722,35.9415983],[139.0023081,35.9416232],[139.0023474,35.9416554],[139.00235889504503,35.94166666666667],[139.01065623555556,35.94166666666667],[139.0106385,35.941659],[139.0106057,35.9416407],[139.0105754,35.9416197],[139.0105483,35.9415962],[139.0105359,35.9415835],[139.0104855,35.9415563],[139.0104824,35.9415546],[139.0103797,35.9414806],[139.0102868,35.9414302],[139.010276,35.9414272],[139.0102151,35.9414252],[139.0102147,35.9414252],[139.0101314,35.9414424],[139.0100248,35.9414604],[139.0098655,35.9414811],[139.0098651,35.9414811],[139.0097802,35.9414883],[139.0097048,35.9414947],[139.0096425,35.941498],[139.0095993,35.941489],[139.0095279,35.9414767],[139.0094422,35.9414661],[139.0093696,35.9414608],[139.0093692,35.9414607],[139.0092973,35.9414587],[139.0090129,35.9414694],[139.0089853,35.9414694],[139.0088931,35.9414694],[139.0088893,35.9414694],[139.0088884,35.9414694],[139.008888,35.9414694],[139.0088555,35.9414657],[139.0088194,35.9414508],[139.0087974,35.9414355],[139.0087231,35.9413417],[139.0086941,35.9413234],[139.0085356,35.9412465],[139.0082684,35.9411351],[139.008268,35.9411349],[139.0081627,35.941094],[139.0081518,35.9410918],[139.0081414,35.9410897],[139.0081154,35.941096],[139.0081095,35.9410983],[139.0080905,35.9411059],[139.0080756,35.9411148],[139.0080648,35.9411256],[139.0080604,35.9411333],[139.0080569,35.9411395],[139.0080536,35.9411533],[139.0080544,35.9411673],[139.0080553,35.9411706],[139.0080578,35.9411784],[139.0080697,35.9412026],[139.0080852,35.9412238],[139.0081185,35.9412501],[139.0081597,35.9412791],[139.0081952,35.9413013],[139.0082173,35.9413245],[139.0082346,35.9413503],[139.0082446,35.9413727],[139.0082517,35.9414015],[139.0082529,35.9414308],[139.0082527,35.9414324],[139.0082483,35.94146],[139.0082421,35.9414739],[139.00823,35.9414917],[139.0082175,35.941505],[139.0081996,35.9415191],[139.0081788,35.9415307],[139.0081562,35.9415394],[139.0081324,35.9415449],[139.008132,35.941545],[139.0081074,35.9415473],[139.0080635,35.9415312],[139.0080585,35.9415293],[139.0080156,35.9414982],[139.0078933,35.9413907],[139.0077619,35.9412639],[139.0076788,35.9411747],[139.0076687,35.9411639],[139.007648,35.9411416],[139.0075996,35.941099],[139.0075555,35.9410646],[139.0075092,35.9410321],[139.0074608,35.9410018],[139.0074102,35.9409737],[139.0073592,35.9409483],[139.0073052,35.9409248],[139.0072498,35.9409037],[139.007192,35.9408847],[139.0071917,35.9408845],[139.0069203,35.9407883],[139.0065132,35.9406434],[139.0064531,35.940627],[139.0064528,35.9406269],[139.0064187,35.9406151],[139.0063854,35.9406019],[139.0063532,35.9405872],[139.0063216,35.9405711],[139.006292,35.9405538],[139.00625,35.940526],[139.0062143,35.9404988],[139.0061262,35.9404164],[139.0060531,35.9403525],[139.0059605,35.9402942],[139.0058827,35.9402609],[139.0058478,35.9402563],[139.005815,35.9402541],[139.0057843,35.9402538],[139.0057437,35.9402611],[139.005705,35.940273],[139.0056686,35.9402893],[139.0056683,35.9402895],[139.0056562,35.9402968],[139.0056389,35.9403074],[139.0056092,35.940331],[139.0055823,35.9403596],[139.0055595,35.9403803],[139.0055353,35.9403966],[139.005535,35.9403967],[139.0055084,35.94041],[139.0054534,35.9404398],[139.005453,35.9404398],[139.0054349,35.9404422],[139.0054011,35.9404435],[139.0053673,35.9404409],[139.0053134,35.9404295],[139.0052823,35.9403906],[139.0052676,35.9403634],[139.0052573,35.9403346],[139.0052524,35.9403051],[139.0052528,35.9402753],[139.0052582,35.9402463],[139.0052689,35.9402178],[139.0052841,35.9401907],[139.0053091,35.9401602],[139.0053427,35.9401398],[139.0053818,35.940119],[139.0054228,35.9401005],[139.0054231,35.9401004],[139.0054653,35.9400846],[139.0054917,35.940076],[139.0055358,35.940064],[139.0055814,35.9400545],[139.0056277,35.9400477],[139.0058041,35.9400336],[139.0058045,35.9400336],[139.0059237,35.9400171],[139.006051,35.9399914],[139.0060513,35.9399913],[139.0060788,35.939984],[139.0060976,35.939976],[139.0061149,35.939966],[139.0061303,35.939954],[139.0061441,35.9399398],[139.0061549,35.939924],[139.0061624,35.9399078],[139.0061685,35.9398848],[139.0061876,35.939845],[139.0062032,35.9398201],[139.0062205,35.9397962],[139.0062377,35.9397761],[139.0062588,35.9397543],[139.0062834,35.9397324]]]]},"properties":{"layer":"landuse","class_code":"215","class_label":"道路用地（道路、駅前広場、私有地内に存在する沿道用途の「私道」または、私有地の一部分であるものの公共の通行に供されている土地の部分）"}}]}