{"type":"FeatureCollection","properties":{"mesh_code":"53397094","source":"PLATEAU秩父市2025","layer":"landuse"},"features":[{"type":"Feature","id":"luse_bc585c3c-f157-469d-9265-e508dbd63067","geometry":{"type":"Polygon","coordinates":[[[139.0514882,35.9952542],[139.050955,35.995285],[139.0508172,35.9949694],[139.0515035,35.994888],[139.0514882,35.9952542]]]},"properties":{"layer":"landuse","class_code":"202","class_label":"畑（畑、樹園地、採草地、養鶏（牛・豚）場）"}},{"type":"Feature","id":"luse_53ab25bc-e6f1-421b-b224-1f9bddd1a33a","geometry":{"type":"Polygon","coordinates":[[[139.05369539565217,36.0],[139.0536611,35.9999312],[139.0536603,35.9999289],[139.0537889,35.9998687],[139.0538391,35.9998451],[139.05388,35.9998015],[139.0539344,35.9998196],[139.0539676,35.9998424],[139.0540043,35.9998993],[139.0540267,35.9999475],[139.0540250125,36.0],[139.05369539565217,36.0]]]},"properties":{"layer":"landuse","class_code":"202","class_label":"畑（畑、樹園地、採草地、養鶏（牛・豚）場）"}},{"type":"Feature","id":"luse_3aeeb7b3-35ea-4483-a4f2-eef0df2496f9","geometry":{"type":"Polygon","coordinates":[[[139.0528834,35.9945732],[139.0526951,35.9948333],[139.0525647,35.9948966],[139.0525489,35.9948661],[139.0525383,35.9948374],[139.052532,35.9948041],[139.0525267,35.9947394],[139.0525238,35.9946592],[139.0525353,35.9946356],[139.0525411,35.9946212],[139.0525502,35.9946005],[139.0525493,35.994544],[139.0525438,35.9944894],[139.0525276,35.9944214],[139.0524984,35.9943623],[139.0524833,35.9943393],[139.0524553,35.9943227],[139.0524348,35.994308],[139.0524133,35.9942925],[139.0523658,35.9942533],[139.0523195,35.9942225],[139.0522782,35.9942011],[139.0522258,35.9941798],[139.0521769,35.9941637],[139.0521179,35.9941538],[139.0520525,35.9941506],[139.0519929,35.9941545],[139.0519042,35.9941722],[139.05188,35.9941653],[139.0517275,35.9937034],[139.0517855,35.9936841],[139.051799,35.9935773],[139.051618,35.993453],[139.0512617,35.9933838],[139.0512632,35.9933783],[139.0510563,35.9933398],[139.0509518,35.9933203],[139.0509555,35.9933052],[139.05098,35.9932945],[139.0509808,35.9932942],[139.0511571,35.9933067],[139.0512346,35.9933122],[139.0515184,35.9933356],[139.0516204,35.9933458],[139.0516208,35.9933458],[139.0519804,35.9934252],[139.0521338,35.9935605],[139.0521317,35.9936548],[139.0520913,35.9938405],[139.0521397,35.9940201],[139.0525858,35.9938705],[139.0528834,35.9945732]]]},"properties":{"layer":"landuse","class_code":"203","class_label":"山林（樹林地）"}},{"type":"Feature","id":"luse_73a5f62d-14ad-40f2-98dc-ea76b3b66bcb","geometry":{"type":"Polygon","coordinates":[[[139.0625,35.995845854533],[139.0620907,35.9957774],[139.0619115,35.9959358],[139.0617974,35.996125],[139.0616288,35.9961543],[139.0616008,35.9961541],[139.0616583,35.9960102],[139.0616972,35.9958585],[139.0617628,35.9958437],[139.0618777,35.9955708],[139.0617093,35.9955698],[139.0615041,35.9955152],[139.0613367,35.9954229],[139.061178,35.9954068],[139.0610185,35.9954513],[139.060804,35.9953891],[139.0607835,35.9953249],[139.0607781,35.9953251],[139.0606999,35.9953254],[139.0605912,35.9953102],[139.0604616,35.9952876],[139.0603335,35.9952662],[139.0601992,35.9952595],[139.0600407,35.9952323],[139.0599457,35.9952053],[139.0598386,35.9951605],[139.0597321,35.9951072],[139.0596543,35.9950495],[139.0595297,35.9949294],[139.0594144,35.9948183],[139.059288,35.9947413],[139.0591486,35.9946969],[139.0589408,35.9946456],[139.0588369,35.9946167],[139.0587386,35.9945672],[139.0586902,35.9944283],[139.0591766,35.993986],[139.0599774,35.9937029],[139.0602173,35.9933443],[139.0607203,35.9932754],[139.0606634,35.9930589],[139.0604591,35.9927934],[139.0598997,35.9925736],[139.0594581,35.9924027],[139.0591626,35.9924007],[139.0584289,35.9918676],[139.05836357958697,35.99166666666667],[139.0625,35.99166666666667],[139.0625,35.99215245031315],[139.0624946,35.9921505],[139.0624942,35.9921504],[139.0624654,35.9921438],[139.0624308,35.9921426],[139.0624058,35.9921433],[139.0623797,35.9921487],[139.0623794,35.9921488],[139.0623549,35.992158],[139.0623254,35.9921735],[139.062302,35.9921937],[139.0622802,35.9922267],[139.0622639,35.9922592],[139.0622541,35.9922968],[139.0622554,35.992352],[139.0622557,35.992379],[139.0622536,35.9924051],[139.062249,35.9924226],[139.062236,35.9924516],[139.0622095,35.9924848],[139.0621928,35.9925177],[139.0621825,35.9925449],[139.0621733,35.9925672],[139.0621642,35.9925988],[139.062158,35.9926278],[139.0621572,35.9926662],[139.0621578,35.9927027],[139.0621631,35.9927704],[139.0621785,35.9928335],[139.0622003,35.9928901],[139.0622325,35.992944],[139.062233,35.9929449],[139.0622531,35.9929371],[139.0622507,35.9929332],[139.062221,35.9928835],[139.0622001,35.9928291],[139.0621852,35.992768],[139.0621799,35.992702],[139.0621794,35.9926662],[139.0621802,35.9926296],[139.0621859,35.9926024],[139.0621946,35.9925722],[139.0622038,35.9925504],[139.0622137,35.9925238],[139.0622294,35.9924932],[139.062256,35.9924596],[139.0622703,35.9924276],[139.0622756,35.9924076],[139.0622779,35.9923796],[139.0622777,35.9923518],[139.0622763,35.9922985],[139.0622852,35.9922645],[139.0623003,35.9922344],[139.0623202,35.9922043],[139.0623397,35.9921874],[139.0623655,35.9921738],[139.0623869,35.9921658],[139.0624089,35.9921613],[139.0624092,35.9921613],[139.0624307,35.9921606],[139.0624619,35.9921617],[139.0624869,35.9921675],[139.0625,35.992172201805865],[139.0625,35.99240382857144],[139.0624864,35.992415],[139.0625,35.99242496196447],[139.0625,35.995845854533]]]},"properties":{"layer":"landuse","class_code":"203","class_label":"山林（樹林地）"}},{"type":"Feature","id":"luse_b52b4e7f-b4b0-4507-9e98-e9cc4ec611fe","geometry":{"type":"Polygon","coordinates":[[[139.0617722,35.9973986],[139.061835,35.9974257],[139.0618854,35.9974475],[139.0618857,35.9974476],[139.0619573,35.9974752],[139.0620182,35.997517],[139.0620705,35.9975558],[139.0621076,35.997611],[139.0621242,35.9976528],[139.0621353,35.9976969],[139.0621453,35.9977625],[139.0621582,35.9978472],[139.0621899,35.9979345],[139.0622342,35.9980132],[139.0622782,35.9981236],[139.06231,35.9982455],[139.0623357,35.9983655],[139.0623588,35.9984292],[139.0624011,35.9985107],[139.0624117,35.9985372],[139.0624112,35.9985372],[139.0623688,35.9985274],[139.0623685,35.9985273],[139.062325,35.998512],[139.0622784,35.9984921],[139.0622503,35.9984723],[139.0622326,35.9984478],[139.0621963,35.998384],[139.062147,35.9983033],[139.062059,35.9981631],[139.0619489,35.9979784],[139.0618988,35.9978903],[139.0618686,35.9978185],[139.061853,35.9977565],[139.06184,35.9977308],[139.0618158,35.9977075],[139.0617331,35.9976384],[139.0616799,35.9975869],[139.0616469,35.9975458],[139.0616176,35.9975035],[139.0616282,35.9975024],[139.0616646,35.9974873],[139.061703,35.9974583],[139.0617568,35.9973919],[139.0617722,35.9973986]]]},"properties":{"layer":"landuse","class_code":"203","class_label":"山林（樹林地）"}},{"type":"Feature","id":"luse_a68fdee5-5010-47f8-b2be-34a1f0ac0d1f","geometry":{"type":"Polygon","coordinates":[[[139.0625,35.99940071410702],[139.0624818,35.999407],[139.0619461,35.999363],[139.0614867,35.9991676],[139.0611893,35.9989732],[139.0610879,35.9988051],[139.0610746,35.9987738],[139.0610597,35.9987391],[139.0610385,35.9987196],[139.0610158,35.9987039],[139.0609928,35.9986869],[139.060973,35.9986707],[139.0609566,35.998654],[139.0609379,35.9986326],[139.0609242,35.9986091],[139.060914,35.9985803],[139.0608928,35.9985035],[139.0608723,35.9984533],[139.0608477,35.9984071],[139.0608055,35.9983659],[139.0607551,35.9983214],[139.0607545,35.9983208],[139.0607149,35.9982829],[139.0606968,35.998253],[139.0606904,35.9982302],[139.0606939,35.9981935],[139.0607133,35.9981569],[139.0607867,35.9980523],[139.0608332,35.997996],[139.0608587,35.9979573],[139.0608712,35.9979258],[139.0608782,35.9978846],[139.060878,35.9978459],[139.0608745,35.9978112],[139.0608998,35.9978012],[139.06094,35.9977783],[139.0609772,35.9977486],[139.061012,35.9977131],[139.06107,35.9976368],[139.0611092,35.9975905],[139.061145,35.9975587],[139.0611959,35.9975321],[139.0612402,35.9975166],[139.0612909,35.9975054],[139.0613365,35.9975026],[139.0613699,35.9975025],[139.0613894,35.9975023],[139.0614384,35.9975031],[139.0614388,35.9975031],[139.0614834,35.9975045],[139.0615799,35.9975076],[139.0615878,35.9975067],[139.0616232,35.9975575],[139.0616551,35.9975974],[139.0616574,35.9976003],[139.0617125,35.9976535],[139.0617952,35.9977226],[139.0618158,35.9977426],[139.0618263,35.9977631],[139.0618417,35.9978243],[139.0618729,35.9978987],[139.0619239,35.9979881],[139.0620342,35.9981731],[139.0621222,35.9983135],[139.0621714,35.9983937],[139.0622081,35.9984582],[139.0622288,35.9984868],[139.0622627,35.9985109],[139.0623132,35.9985323],[139.0623594,35.9985485],[139.0624214,35.998563],[139.062426,35.9985739],[139.0624428,35.9986427],[139.0624543,35.9987068],[139.0624714,35.9987048],[139.0624814,35.9987037],[139.0624817,35.9987036],[139.0624701,35.9986388],[139.0624528,35.9985683],[139.0624273,35.9985029],[139.0623849,35.9984216],[139.0623629,35.9983604],[139.0623372,35.9982411],[139.062305,35.9981178],[139.0622601,35.998005],[139.0622161,35.9979265],[139.0621854,35.9978426],[139.0621729,35.9977597],[139.0621628,35.9976933],[139.062151,35.997647],[139.062133,35.9976021],[139.0620926,35.9975417],[139.0620364,35.9974999],[139.0619724,35.9974561],[139.0619215,35.9974365],[139.0618982,35.9974276],[139.0618979,35.9974274],[139.0618518,35.9974075],[139.0617718,35.9973728],[139.0618181,35.9973035],[139.0618802,35.9972259],[139.0619715,35.9971254],[139.0621208,35.9969834],[139.0622305,35.9969013],[139.0623312,35.9968439],[139.0624023,35.9968158],[139.0624986,35.9967905],[139.0625,35.99679030080161],[139.0625,35.99940071410702]]]},"properties":{"layer":"landuse","class_code":"203","class_label":"山林（樹林地）"}},{"type":"Feature","id":"luse_1bfa9b43-9317-40a8-ab1f-e18e0dbace9d","geometry":{"type":"Polygon","coordinates":[[[139.0560031,35.9981726],[139.0560306,35.998221],[139.0559705,35.9982388],[139.0559545,35.9982436],[139.0560176,35.9984108],[139.0559855,35.9984212],[139.0558562,35.9984526],[139.0558679,35.998477],[139.0557056,35.9985161],[139.055627,35.9983341],[139.0556077,35.998282],[139.0555933,35.9982412],[139.0555782,35.9982169],[139.0555541,35.9981905],[139.0555107,35.9981464],[139.0554983,35.9981304],[139.0554964,35.9981279],[139.0554957,35.9981199],[139.0555143,35.9981201],[139.0555335,35.9981299],[139.0555455,35.9981359],[139.0555674,35.9981449],[139.0556316,35.9981658],[139.0556686,35.9981679],[139.0557081,35.9981656],[139.0557363,35.9981616],[139.0557735,35.9981545],[139.0557966,35.9981456],[139.0558156,35.9981377],[139.0558329,35.9981354],[139.0558392,35.9981355],[139.0558555,35.998136],[139.0558792,35.99814],[139.0559093,35.9981514],[139.05592,35.9981612],[139.0559422,35.9981675],[139.0559843,35.9981678],[139.0560031,35.9981726]]]},"properties":{"layer":"landuse","class_code":"204","class_label":"水面（河川水面、湖沼、ため池、用水路、濠、運河水面）"}},{"type":"Feature","id":"luse_7c705c66-617c-4018-b9c0-5ef50c5362c8","geometry":{"type":"Polygon","coordinates":[[[139.0533273,35.9984812],[139.0533659,35.9984938],[139.0533991,35.9985067],[139.0534193,35.9985185],[139.0534743,35.9985485],[139.0535147,35.9985718],[139.0536082,35.9986312],[139.0536326,35.9986605],[139.0536496,35.9986895],[139.0536629,35.9987239],[139.0536726,35.9987556],[139.0536786,35.9987835],[139.0536781,35.9988178],[139.0536729,35.9988661],[139.053673,35.9989128],[139.0536761,35.9989396],[139.0536891,35.9989746],[139.0537061,35.9989949],[139.0537428,35.9990211],[139.0537667,35.999051],[139.0537826,35.9990713],[139.0538084,35.9990966],[139.0538338,35.9991167],[139.0538759,35.999139],[139.0539056,35.9991547],[139.0539546,35.9991815],[139.0539993,35.9992151],[139.0540141,35.9992441],[139.0540234,35.9992753],[139.0540287,35.9993231],[139.054032,35.9993783],[139.0540284,35.9994579],[139.0538895,35.9995597],[139.0538398,35.9995198],[139.0537931,35.9994723],[139.0537199,35.9993917],[139.0536487,35.9993146],[139.0536385,35.9992987],[139.0536332,35.9992787],[139.0536369,35.9992492],[139.0536353,35.9992281],[139.0536111,35.9991899],[139.0535799,35.9991618],[139.0535471,35.999119],[139.0535302,35.9990795],[139.0535191,35.9990296],[139.053519,35.9989968],[139.0535259,35.9989451],[139.0535421,35.9988904],[139.0535542,35.9988427],[139.0535602,35.9988014],[139.0535554,35.9987529],[139.0535446,35.9987138],[139.0535205,35.9986749],[139.0534915,35.9986471],[139.0534406,35.9986199],[139.053374,35.9985863],[139.0533384,35.9985531],[139.0533215,35.9985399],[139.0532932,35.9985022],[139.0532751,35.9984745],[139.0532681,35.9984498],[139.0533273,35.9984812]]]},"properties":{"layer":"landuse","class_code":"204","class_label":"水面（河川水面、湖沼、ため池、用水路、濠、運河水面）"}},{"type":"Feature","id":"luse_d0ef2b0b-fb18-48ce-8d86-ded1a4f25ce8","geometry":{"type":"Polygon","coordinates":[[[139.0579274,35.9995794],[139.057952,35.999591],[139.0579545,35.9996601],[139.0579565,35.9996826],[139.0579598,35.9997212],[139.0579675,35.9997869],[139.0579785,35.9998636],[139.0579811,35.9998817],[139.0579931,35.9999968],[139.0579534,35.9999906],[139.0575447,35.9999266],[139.0575822,35.9998599],[139.0576378,35.9997579],[139.0576868,35.9996765],[139.0577394,35.9996038],[139.0578105,35.9995241],[139.0579274,35.9995794]]]},"properties":{"layer":"landuse","class_code":"204","class_label":"水面（河川水面、湖沼、ため池、用水路、濠、運河水面）"}},{"type":"Feature","id":"luse_d82b16fe-5899-45c6-9da0-bcaaa7bc53f2","geometry":{"type":"Polygon","coordinates":[[[139.0514793,35.9932416],[139.051476,35.9932596],[139.0512431,35.9932404],[139.0511628,35.9932347],[139.0511716,35.9932318],[139.0512155,35.9932173],[139.0512394,35.9932099],[139.0514793,35.9932416]]]},"properties":{"layer":"landuse","class_code":"205","class_label":"その他自然地（原野・牧野、荒れ地（耕作放棄地等自然的状況のもの）、低湿地、河川敷・河原、海浜、湖岸）"}},{"type":"Feature","id":"luse_e1ead44c-ac83-4dfb-82a3-fef33bbd7725","geometry":{"type":"Polygon","coordinates":[[[139.0516812,35.9931926],[139.0516208,35.9933458],[139.0516314,35.9932742],[139.0515283,35.9932639],[139.0515035,35.9932619],[139.0515108,35.9932229],[139.0515104,35.9932229],[139.051447,35.9932145],[139.0513395,35.9932003],[139.0512905,35.9931939],[139.051293,35.9931932],[139.0513055,35.9931893],[139.051487,35.9931922],[139.0515053,35.9931925],[139.0515119,35.9931937],[139.0515303,35.9931973],[139.0515426,35.9931687],[139.0516812,35.9931926]]]},"properties":{"layer":"landuse","class_code":"205","class_label":"その他自然地（原野・牧野、荒れ地（耕作放棄地等自然的状況のもの）、低湿地、河川敷・河原、海浜、湖岸）"}},{"type":"Feature","id":"luse_66c16c64-3615-494f-8424-8245b0a7fd69","geometry":{"type":"Polygon","coordinates":[[[139.0533841,35.999594],[139.0534668,35.9997106],[139.0535118,35.9997663],[139.0535565,35.9998255],[139.053598,35.9999486],[139.05362349988874,36.0],[139.0533541454824,36.0],[139.0532922,35.9999764],[139.0532919,35.9999763],[139.0531792,35.9999283],[139.0531592,35.9999161],[139.0531472,35.9999021],[139.0531395,35.9998871],[139.053119,35.9997637],[139.0531029,35.9997071],[139.0530982,35.9996982],[139.053375,35.9995802],[139.0533841,35.999594]]]},"properties":{"layer":"landuse","class_code":"211","class_label":"住宅用地（住宅、共同住宅、店舗等併用住宅、店舗等併用共同住宅、作業所併用住宅）"}},{"type":"Feature","id":"luse_5d9f5d56-d869-4b7b-b18f-2eef524df987","geometry":{"type":"Polygon","coordinates":[[[139.0515035,35.9932619],[139.0515283,35.9932639],[139.0516314,35.9932742],[139.0516208,35.9933458],[139.0516204,35.9933458],[139.0515184,35.9933356],[139.0512346,35.9933122],[139.0511571,35.9933067],[139.0509808,35.9932942],[139.0510091,35.9932853],[139.0511314,35.9932451],[139.0511628,35.9932347],[139.0512431,35.9932404],[139.051476,35.9932596],[139.0514793,35.9932416],[139.0512394,35.9932099],[139.0512905,35.9931939],[139.0513395,35.9932003],[139.051447,35.9932145],[139.0515104,35.9932229],[139.0515108,35.9932229],[139.0515035,35.9932619]]]},"properties":{"layer":"landuse","class_code":"215","class_label":"道路用地（道路、駅前広場、私有地内に存在する沿道用途の「私道」または、私有地の一部分であるものの公共の通行に供されている土地の部分）"}},{"type":"Feature","id":"luse_e7125978-8149-4b01-a915-cd5979f5fb21","geometry":{"type":"Polygon","coordinates":[[[139.0512617,35.9933838],[139.0512558,35.9934046],[139.0510037,35.9933578],[139.0509125,35.9933409],[139.0509174,35.9933219],[139.0509555,35.9933052],[139.0509518,35.9933203],[139.0510563,35.9933398],[139.0512632,35.9933783],[139.0512617,35.9933838]]]},"properties":{"layer":"landuse","class_code":"215","class_label":"道路用地（道路、駅前広場、私有地内に存在する沿道用途の「私道」または、私有地の一部分であるものの公共の通行に供されている土地の部分）"}},{"type":"Feature","id":"luse_43546d33-fdc6-425c-b511-77869257c354","geometry":{"type":"Polygon","coordinates":[[[139.05,35.99166666666667],[139.05024848021614,35.99166666666667],[139.0503159,35.9917172],[139.0505274,35.9918774],[139.0507668,35.9920553],[139.050747,35.9920708],[139.0507903,35.9921079],[139.0507983,35.9921165],[139.0508028,35.9921261],[139.0508061,35.9921385],[139.0508063,35.9921492],[139.0508025,35.9921693],[139.0507923,35.9922019],[139.0507468,35.9921811],[139.0506675,35.9921649],[139.0505944,35.9921317],[139.0505095,35.9921163],[139.0504279,35.9921009],[139.0501378,35.9919369],[139.0500814,35.9918366],[139.0500737,35.9918225],[139.05,35.99168893805535],[139.05,35.99166666666667]]]},"properties":{"layer":"landuse","class_code":"217","class_label":"公共空地（公園・緑地、広場、運動場、墓園）"}},{"type":"Feature","id":"luse_88399ed4-0a34-4328-9d05-c418aab3bc35","geometry":{"type":"Polygon","coordinates":[[[139.0509643,35.9922219],[139.0509832,35.9922269],[139.0510017,35.992237],[139.0510671,35.9922876],[139.0510175,35.9922719],[139.0509973,35.992249],[139.0509474,35.9922487],[139.0509078,35.9922378],[139.0509088,35.9922363],[139.0509245,35.9922255],[139.0509451,35.9922211],[139.0509643,35.9922219]]]},"properties":{"layer":"landuse","class_code":"217","class_label":"公共空地（公園・緑地、広場、運動場、墓園）"}},{"type":"Feature","id":"luse_63812329-4756-4924-a2ad-52b17b3df190","geometry":{"type":"Polygon","coordinates":[[[139.0512771,35.9924418],[139.051367,35.9925014],[139.0514647,35.992563],[139.0515394,35.9926046],[139.0516686,35.9926671],[139.0517354,35.9927008],[139.0517688,35.9927177],[139.051834,35.9927505],[139.051878,35.9927727],[139.0519399,35.9928028],[139.0519149,35.9927979],[139.0518244,35.992785],[139.0517423,35.9927544],[139.0516079,35.9926668],[139.0514734,35.9926142],[139.0513734,35.992557],[139.0513184,35.9924776],[139.0513099,35.9924702],[139.0513023,35.9924637],[139.0512903,35.9924539],[139.0512808,35.9924461],[139.0512694,35.9924365],[139.0512771,35.9924418]]]},"properties":{"layer":"landuse","class_code":"217","class_label":"公共空地（公園・緑地、広場、運動場、墓園）"}},{"type":"Feature","id":"luse_7583b7b3-b0a2-475b-bc42-36cf835de9e3","geometry":{"type":"Polygon","coordinates":[[[139.0520713,35.9928663],[139.0521184,35.9928904],[139.0521619,35.9929156],[139.0522212,35.9929538],[139.0522723,35.9929905],[139.0523283,35.9930357],[139.0524114,35.9931026],[139.0524447,35.9931294],[139.0525604,35.9932306],[139.0526772,35.993333],[139.0527564,35.9934038],[139.0528009,35.9934482],[139.0528439,35.9934992],[139.0528662,35.9935341],[139.0528851,35.993576],[139.052888,35.9935975],[139.0528865,35.9936265],[139.052878,35.9936596],[139.0528582,35.9936937],[139.0528256,35.9937616],[139.0528251,35.9937624],[139.0527627,35.9937644],[139.0526866,35.9936208],[139.0526043,35.993519],[139.0524939,35.9934021],[139.0523257,35.9932761],[139.0522431,35.9932099],[139.0521255,35.9931536],[139.0519513,35.9930894],[139.051757,35.9930344],[139.0518289,35.9930008],[139.0519293,35.9929528],[139.0520153,35.9929045],[139.0520649,35.9928631],[139.0520713,35.9928663]]]},"properties":{"layer":"landuse","class_code":"217","class_label":"公共空地（公園・緑地、広場、運動場、墓園）"}},{"type":"Feature","id":"luse_feecd12a-f67c-4787-8424-7b49ca2b3ccd","geometry":{"type":"Polygon","coordinates":[[[139.0519435,35.9932619],[139.052094,35.9933269],[139.0522304,35.9934114],[139.0523758,35.9935338],[139.0524878,35.9936693],[139.0525858,35.9938705],[139.0521397,35.9940201],[139.0520913,35.9938405],[139.0521317,35.9936548],[139.0521338,35.9935605],[139.0519804,35.9934252],[139.0516208,35.9933458],[139.0516812,35.9931926],[139.0519435,35.9932619]]]},"properties":{"layer":"landuse","class_code":"217","class_label":"公共空地（公園・緑地、広場、運動場、墓園）"}},{"type":"Feature","id":"luse_29b43eeb-8ecd-4b0f-92e8-a6a969965dda","geometry":{"type":"Polygon","coordinates":[[[139.0613354,35.9974756],[139.061335,35.9974756],[139.0613008,35.9974777],[139.0612853,35.9974786],[139.0612291,35.997491],[139.0611803,35.9975081],[139.0611234,35.9975379],[139.0610831,35.9975737],[139.0610421,35.997622],[139.0609838,35.9976989],[139.0609463,35.997731],[139.0609157,35.9977482],[139.0608775,35.9977701],[139.0608332,35.9977871],[139.0608328,35.9977872],[139.0607734,35.9977998],[139.0607435,35.9978035],[139.0607164,35.9978069],[139.0606704,35.9978103],[139.0606458,35.9978122],[139.0605848,35.9978135],[139.0605695,35.9978139],[139.0604993,35.9978125],[139.0604407,35.997807],[139.0604403,35.997807],[139.0603902,35.9977966],[139.0603513,35.997782],[139.060351,35.9977819],[139.0603154,35.9977613],[139.0602846,35.9977352],[139.0602675,35.9977137],[139.0602551,35.9976772],[139.060244,35.9976325],[139.0602393,35.9975868],[139.060232,35.997509],[139.0602213,35.9974473],[139.0602083,35.9974013],[139.0601906,35.997361],[139.0601644,35.9973189],[139.0601381,35.9972877],[139.0601137,35.9972621],[139.0601134,35.9972621],[139.0600671,35.9972388],[139.060064,35.9972372],[139.0600213,35.9972316],[139.0599739,35.9972321],[139.0599412,35.9972356],[139.0598639,35.9972541],[139.0598309,35.9972684],[139.0597938,35.9972846],[139.0597432,35.9973022],[139.0597429,35.9973024],[139.0597054,35.9973178],[139.0597051,35.9973179],[139.0596583,35.997336],[139.05959,35.997355],[139.0595895,35.9973551],[139.0594435,35.9973896],[139.0592996,35.9974269],[139.0592047,35.9974425],[139.0591596,35.9974498],[139.0589858,35.9974665],[139.0589855,35.9974665],[139.0587912,35.9974816],[139.0587291,35.9974864],[139.0587288,35.9974864],[139.0586955,35.9974887],[139.0586601,35.9974911],[139.0584905,35.9975028],[139.0584852,35.9975031],[139.0584828,35.9975032],[139.0584472,35.9975048],[139.0584285,35.997506],[139.0583917,35.9975085],[139.0583596,35.9975106],[139.0583398,35.9975107],[139.0583136,35.9975109],[139.0582732,35.997508],[139.05825,35.9975034],[139.0582497,35.9975033],[139.0582204,35.9974928],[139.0582001,35.9974779],[139.0581875,35.9974507],[139.0581863,35.9974273],[139.0581969,35.9973648],[139.0582503,35.9971575],[139.0582945,35.9970228],[139.0583329,35.9969097],[139.0583816,35.9967811],[139.0583948,35.9967596],[139.0584057,35.9967364],[139.0584234,35.9966953],[139.0584356,35.9966613],[139.0584426,35.9966289],[139.0584396,35.9966029],[139.0584264,35.9965778],[139.058414,35.996555],[139.0583631,35.9965231],[139.0583189,35.9965069],[139.058281,35.9965006],[139.0582806,35.9965005],[139.0582246,35.9964965],[139.0582049,35.996495],[139.0581394,35.9964922],[139.0581247,35.9964909],[139.0580792,35.9964869],[139.0580727,35.9964863],[139.0580723,35.9964863],[139.0579846,35.9964789],[139.057847,35.9964619],[139.0577442,35.9964387],[139.0576528,35.9964174],[139.0575349,35.9963848],[139.0575011,35.9963751],[139.0574383,35.9963569],[139.057438,35.9963568],[139.0573965,35.9963529],[139.0573783,35.9963512],[139.0573066,35.9963553],[139.0573063,35.9963554],[139.0572223,35.9963618],[139.0571116,35.9963763],[139.0570242,35.9963858],[139.0569947,35.9963849],[139.05699,35.9963848],[139.0569669,35.9963841],[139.0569329,35.9963773],[139.0569325,35.9963772],[139.0569044,35.9963647],[139.0568938,35.9963517],[139.0568871,35.9963324],[139.0568849,35.9963048],[139.0568917,35.9962291],[139.0568903,35.9961716],[139.0568795,35.9961047],[139.0568478,35.9960335],[139.0568009,35.9959698],[139.0567422,35.9958762],[139.0567018,35.9957897],[139.056676,35.995669],[139.056668,35.9956079],[139.0566493,35.995537],[139.056621,35.9954754],[139.0565918,35.9954273],[139.0565318,35.9953579],[139.0564533,35.9952774],[139.0564616,35.9952668],[139.0564761,35.9952633],[139.0565338,35.9952619],[139.0565342,35.9952619],[139.0565932,35.9952634],[139.0566073,35.9952638],[139.0566242,35.9952642],[139.0566612,35.995261],[139.0566862,35.9952588],[139.0567427,35.9952422],[139.0567431,35.9952422],[139.056781,35.9952105],[139.0568164,35.9951742],[139.0568347,35.9951345],[139.0568355,35.9950958],[139.0568138,35.9950335],[139.0567956,35.9949907],[139.0568128,35.9949902],[139.0568277,35.9949959],[139.0568281,35.994996],[139.0568462,35.9950096],[139.0568787,35.9950466],[139.0569242,35.9950958],[139.056973,35.9951253],[139.057035,35.9951511],[139.0571426,35.9951844],[139.057247,35.9952172],[139.0572473,35.9952172],[139.0573066,35.9952469],[139.0573703,35.9952891],[139.0574324,35.9953379],[139.0575229,35.9954096],[139.0576065,35.995489],[139.0576234,35.995508],[139.0576364,35.9955228],[139.0576708,35.9955618],[139.0576801,35.9955806],[139.0576842,35.9956014],[139.0576817,35.9956183],[139.0576701,35.9956346],[139.0576129,35.9956799],[139.0575931,35.9957095],[139.0575907,35.9957318],[139.0576027,35.9957557],[139.0576319,35.9957673],[139.0576562,35.9957669],[139.0576748,35.9957638],[139.0576752,35.9957638],[139.0578477,35.9956781],[139.0578841,35.9956462],[139.0579001,35.9956263],[139.0579136,35.9956094],[139.0579212,35.9955999],[139.0579627,35.9955408],[139.0579946,35.9954737],[139.0580206,35.9954175],[139.0580525,35.995368],[139.0581224,35.9953],[139.0581573,35.9952753],[139.0581839,35.9952662],[139.0581907,35.9952662],[139.0582268,35.9952659],[139.0582272,35.9952659],[139.0582443,35.9952676],[139.0582689,35.99527],[139.0582881,35.9952767],[139.058301,35.9952873],[139.0583065,35.9952968],[139.0583093,35.9953183],[139.0583051,35.9954459],[139.0583132,35.9954781],[139.0583285,35.9954974],[139.0583404,35.9955125],[139.0583422,35.9955145],[139.0583725,35.9955308],[139.058407,35.9955251],[139.0584271,35.9955039],[139.0584374,35.9954556],[139.0584489,35.9954151],[139.058467,35.9953618],[139.0584923,35.9952886],[139.0585004,35.9952537],[139.058499,35.9952222],[139.0584708,35.9951572],[139.058483,35.995131],[139.0584486,35.9950517],[139.0584482,35.9950517],[139.0583962,35.9950666],[139.0584659,35.9952273],[139.0584668,35.9952515],[139.0584598,35.9952824],[139.0584351,35.9953545],[139.0584166,35.9954085],[139.0584046,35.9954502],[139.0583955,35.9954928],[139.0583881,35.9955007],[139.0583793,35.9955021],[139.0583664,35.9954951],[139.0583446,35.9954678],[139.0583387,35.9954436],[139.0583426,35.9953172],[139.058339,35.9952895],[139.0583287,35.9952717],[139.0583073,35.995254],[139.0582776,35.9952437],[139.0582289,35.9952388],[139.0581772,35.9952392],[139.0581769,35.9952393],[139.0581395,35.9952521],[139.0580984,35.9952811],[139.0580654,35.9953134],[139.058051,35.9953273],[139.0580246,35.9953529],[139.05799,35.9954064],[139.0579635,35.9954641],[139.0579325,35.9955292],[139.0578926,35.9955858],[139.0578577,35.9956296],[139.0578265,35.995657],[139.0576628,35.9957383],[139.0576624,35.9957383],[139.0576526,35.9957399],[139.0576522,35.9957399],[139.0576441,35.9957401],[139.0576392,35.9957401],[139.0576286,35.995736],[139.0576245,35.9957276],[139.0576256,35.9957176],[139.0576398,35.9956964],[139.0576967,35.9956513],[139.0577139,35.9956271],[139.0577178,35.9956009],[139.0577124,35.9955733],[139.0577001,35.9955486],[139.0576326,35.9954722],[139.057629,35.9954686],[139.0576142,35.9954548],[139.0575473,35.9953912],[139.0574556,35.9953184],[139.0573923,35.9952687],[139.0573259,35.9952248],[139.0572622,35.995193],[139.0572618,35.9951929],[139.0571546,35.9951591],[139.0570487,35.9951264],[139.0570483,35.9951263],[139.0569906,35.9951022],[139.056948,35.9950765],[139.0569054,35.9950306],[139.0568712,35.9949916],[139.0568466,35.9949733],[139.0568237,35.9949645],[139.0567812,35.9949565],[139.0567092,35.9947855],[139.056655,35.9946372],[139.0566219,35.9945845],[139.0565849,35.9945409],[139.0565352,35.994508],[139.0564665,35.99448],[139.056402,35.9944626],[139.056318,35.9944566],[139.0561877,35.9944666],[139.0561873,35.9944667],[139.0560328,35.994478],[139.0560076,35.9944767],[139.0559789,35.9944751],[139.0559324,35.9944644],[139.0559252,35.9944628],[139.055883,35.9944374],[139.0558454,35.9944056],[139.0558266,35.9943617],[139.0558171,35.9943125],[139.0558165,35.9942125],[139.0558124,35.9939649],[139.0557949,35.9937952],[139.0557856,35.9937443],[139.0558081,35.9937372],[139.0558436,35.9937331],[139.0559098,35.9937256],[139.0559508,35.9937209],[139.0559511,35.9937209],[139.0560235,35.9937071],[139.0561019,35.9936817],[139.0561676,35.993645],[139.056209,35.9936101],[139.0562407,35.9935743],[139.0562595,35.9935439],[139.0562664,35.9935089],[139.0562663,35.9934803],[139.056261,35.9934509],[139.0562456,35.9934141],[139.0562189,35.9933659],[139.0561546,35.9932517],[139.0560849,35.9931499],[139.0560365,35.9930732],[139.0560056,35.993024],[139.0559922,35.9929955],[139.0559856,35.9929603],[139.0559794,35.9929213],[139.0559669,35.9928954],[139.0559379,35.9928652],[139.055858,35.9927974],[139.0557674,35.9927247],[139.0557126,35.99267],[139.055683,35.9926333],[139.0556708,35.9926028],[139.0556691,35.9925747],[139.0556778,35.9925299],[139.055693,35.9924879],[139.0557191,35.9924334],[139.0557345,35.9923808],[139.0557381,35.9923402],[139.0557354,35.9922797],[139.055719,35.9922197],[139.0557212,35.9921874],[139.0557369,35.9921694],[139.0557502,35.9921655],[139.0557506,35.9921655],[139.0557667,35.9921651],[139.0557802,35.9921668],[139.0557913,35.9921713],[139.0558693,35.9922308],[139.0559067,35.9922634],[139.0559288,35.9922899],[139.0559756,35.9923412],[139.05606,35.9924576],[139.0560727,35.9924684],[139.0560866,35.9924737],[139.0560947,35.9924741],[139.0561,35.9924744],[139.0561159,35.9924704],[139.0561163,35.9924703],[139.0561276,35.9924618],[139.0561359,35.9924511],[139.0561731,35.9923675],[139.056142,35.9923584],[139.0561056,35.9924393],[139.0561018,35.9924445],[139.0560991,35.9924464],[139.0560962,35.9924471],[139.0560958,35.9924471],[139.0560952,35.9924471],[139.0560947,35.992447],[139.0560925,35.9924462],[139.056087,35.9924413],[139.0560035,35.9923262],[139.055956,35.9922743],[139.0559327,35.9922465],[139.0558929,35.9922117],[139.0558105,35.9921488],[139.0557906,35.9921408],[139.0557903,35.9921407],[139.0557688,35.992138],[139.0557443,35.9921387],[139.0557439,35.9921387],[139.0557161,35.9921468],[139.0556883,35.992178],[139.0556856,35.992222],[139.0557023,35.9922831],[139.0557046,35.9923396],[139.0557015,35.9923767],[139.0556874,35.9924253],[139.0556615,35.9924791],[139.0556451,35.992524],[139.0556356,35.9925733],[139.0556376,35.9926078],[139.0556508,35.9926409],[139.0556527,35.9926451],[139.0556857,35.9926859],[139.0557427,35.9927429],[139.0558343,35.9928163],[139.0559127,35.992883],[139.0559377,35.992909],[139.0559468,35.9929281],[139.0559526,35.9929641],[139.0559599,35.9930025],[139.0559752,35.993035],[139.0560067,35.9930856],[139.0560565,35.9931643],[139.0561247,35.9932639],[139.0561663,35.9933373],[139.0561884,35.9933771],[139.0562144,35.993424],[139.0562286,35.9934573],[139.0562328,35.9934823],[139.0562332,35.9935069],[139.0562274,35.9935355],[139.0562122,35.9935603],[139.0561834,35.9935927],[139.0561458,35.9936243],[139.0560861,35.9936577],[139.0560134,35.9936812],[139.0559448,35.9936943],[139.0559079,35.9936985],[139.0558418,35.993706],[139.0558036,35.9937103],[139.0558032,35.9937103],[139.055779,35.9937082],[139.0557681,35.9936488],[139.055744,35.9935549],[139.0556955,35.9934452],[139.0556278,35.9933327],[139.055559,35.9932271],[139.0555022,35.993112],[139.0554553,35.9930175],[139.0554307,35.9929663],[139.0554105,35.9928971],[139.0553948,35.9928404],[139.0553697,35.9927882],[139.0553338,35.9927425],[139.0553098,35.9927168],[139.0552736,35.9926783],[139.0552213,35.9926265],[139.0551792,35.9925826],[139.0551495,35.9925347],[139.0551272,35.9924891],[139.0551118,35.9924252],[139.0551099,35.9924052],[139.0551053,35.9923594],[139.0550994,35.9923086],[139.055084,35.9922761],[139.0550559,35.9922521],[139.0550126,35.9922296],[139.0549553,35.9922097],[139.0548688,35.9921863],[139.0547816,35.9921588],[139.0547442,35.9921422],[139.0547277,35.9921242],[139.0547196,35.9920978],[139.0547199,35.9920735],[139.054725,35.9920344],[139.0547244,35.9919909],[139.0547157,35.9919442],[139.0547011,35.9919121],[139.0546748,35.9918771],[139.0546502,35.9918516],[139.0546065,35.9918792],[139.0546292,35.9919028],[139.0546509,35.9919318],[139.0546617,35.9919554],[139.0546689,35.9919945],[139.0546693,35.9920324],[139.0546646,35.9920709],[139.0546638,35.992103],[139.0546767,35.9921441],[139.0547072,35.9921771],[139.0547582,35.9921997],[139.0548509,35.992229],[139.0548513,35.9922291],[139.0549356,35.992252],[139.0549865,35.9922696],[139.0550203,35.992287],[139.055036,35.9923006],[139.0550449,35.992319],[139.0550501,35.9923634],[139.0550567,35.9924315],[139.0550736,35.9925019],[139.055099,35.9925532],[139.0551321,35.9926067],[139.0551779,35.9926546],[139.0552301,35.9927062],[139.0552881,35.9927683],[139.0553201,35.9928087],[139.0553415,35.9928536],[139.0553562,35.9929073],[139.0553654,35.9929377],[139.0553649,35.9929373],[139.0552709,35.9928579],[139.0551674,35.9927623],[139.055035,35.9926333],[139.0549701,35.9925537],[139.054908,35.9924506],[139.054885,35.9924198],[139.0548572,35.9923955],[139.0548186,35.9923789],[139.0547676,35.9923709],[139.0547672,35.9923708],[139.0547151,35.992373],[139.0545482,35.9924007],[139.0544099,35.9924113],[139.0542861,35.99241],[139.0541609,35.992407],[139.0540778,35.9924005],[139.0540774,35.9924005],[139.0540113,35.9923792],[139.0539644,35.992351],[139.0539303,35.9923066],[139.0539153,35.9922628],[139.0539087,35.9921721],[139.0539236,35.9919135],[139.0539268,35.9918232],[139.0539264,35.9917898],[139.0539021,35.9917329],[139.0538637,35.9916942],[139.0538379,35.9916746],[139.05382738934009,35.99166666666667],[139.05377685757577,35.99166666666667],[139.0537902,35.9916753],[139.0538375,35.9917111],[139.0538395,35.9917126],[139.0538725,35.9917462],[139.0538932,35.9917945],[139.0538933,35.9918229],[139.0538922,35.9918557],[139.0538903,35.9919125],[139.0538754,35.9921722],[139.0538824,35.9922673],[139.0538996,35.9923176],[139.0539395,35.9923698],[139.0539949,35.9924031],[139.0539952,35.9924032],[139.0540698,35.992427],[139.0541588,35.992434],[139.0542853,35.992437],[139.0544113,35.9924383],[139.0545532,35.9924274],[139.0547191,35.9924],[139.0547195,35.9924],[139.054765,35.992398],[139.0548073,35.9924046],[139.0548364,35.9924172],[139.0548583,35.9924362],[139.0548786,35.9924636],[139.0549411,35.9925672],[139.0550082,35.9926494],[139.0551422,35.9927799],[139.0552464,35.9928762],[139.0553278,35.9929738],[139.0553728,35.9930518],[139.0554393,35.993159],[139.0555153,35.9932632],[139.0555788,35.9933537],[139.0556442,35.9934628],[139.0556903,35.9935672],[139.055713,35.9936553],[139.0557376,35.9938907],[139.0557683,35.9939886],[139.0557722,35.9942128],[139.0557729,35.9943154],[139.0557833,35.9943705],[139.0558065,35.994425],[139.0558538,35.9944645],[139.0559053,35.9944957],[139.0559711,35.9945108],[139.0559715,35.9945108],[139.0560205,35.9945135],[139.0560334,35.9945142],[139.0561918,35.9945026],[139.0562004,35.9945023],[139.0562929,35.9944989],[139.0563415,35.9944972],[139.0563855,35.9945055],[139.0563858,35.9945056],[139.0564423,35.9945198],[139.0564894,35.9945394],[139.0565345,35.9945663],[139.056573,35.9946038],[139.0566018,35.9946501],[139.0566564,35.9947992],[139.0567609,35.995047],[139.05678,35.9951017],[139.0567794,35.995126],[139.0567674,35.9951518],[139.0567393,35.9951808],[139.0567123,35.9952033],[139.0567119,35.9952034],[139.0566736,35.9952146],[139.0566508,35.9952165],[139.0566221,35.995219],[139.0565679,35.9952177],[139.056536,35.9952169],[139.0565356,35.9952168],[139.0565089,35.9952136],[139.0564945,35.9952118],[139.0564634,35.9952003],[139.0564454,35.9951846],[139.0564316,35.9951636],[139.056391,35.9949691],[139.056371,35.9948705],[139.0563434,35.9948145],[139.0563019,35.9947734],[139.0562434,35.9947362],[139.0561584,35.994711],[139.0560929,35.9947028],[139.0560925,35.9947028],[139.0560781,35.994702],[139.0560349,35.9946995],[139.0560241,35.9946989],[139.0559573,35.9947043],[139.0559284,35.9947067],[139.0558412,35.9947322],[139.0557317,35.9947804],[139.0556278,35.9948311],[139.0555135,35.9948648],[139.0554502,35.9948834],[139.055349,35.9949085],[139.0553486,35.9949086],[139.0552261,35.9949273],[139.0551104,35.9949357],[139.0550237,35.9949349],[139.0549552,35.994929],[139.0549369,35.9949274],[139.0548798,35.9949225],[139.0547542,35.9948984],[139.0547538,35.9948984],[139.0546489,35.9948742],[139.0545894,35.9948533],[139.0545582,35.9948423],[139.0545579,35.9948422],[139.0544701,35.9948205],[139.0544698,35.9948204],[139.0544364,35.994818],[139.0544166,35.9948165],[139.0543873,35.9948189],[139.05435,35.994822],[139.0542866,35.9948359],[139.0541965,35.9948749],[139.0540949,35.994936],[139.0540765,35.9949499],[139.0540296,35.9949855],[139.0539964,35.9950044],[139.0539659,35.9950129],[139.0539655,35.995013],[139.0539331,35.9950133],[139.0539327,35.9950132],[139.0539114,35.9950067],[139.0538937,35.9949918],[139.053882,35.9949557],[139.0538734,35.9949011],[139.0538774,35.9947868],[139.0538723,35.9947277],[139.0538631,35.994679],[139.0538503,35.994635],[139.053826,35.9946022],[139.0538092,35.9945877],[139.0538037,35.994583],[139.0537692,35.9945644],[139.0537337,35.9945504],[139.0536902,35.9945409],[139.0536887,35.9945408],[139.053687,35.9945407],[139.0536665,35.9945395],[139.0536499,35.9945385],[139.0536276,35.9945342],[139.0536216,35.9945245],[139.0536236,35.9945029],[139.0536315,35.9944732],[139.0536351,35.994435],[139.0536259,35.9943879],[139.0536093,35.9943587],[139.0535854,35.9943315],[139.0535606,35.9943102],[139.0535383,35.9942655],[139.0535316,35.9942393],[139.0535356,35.994221],[139.0535476,35.9942117],[139.0535748,35.9941935],[139.0535781,35.9941914],[139.0536062,35.9941591],[139.0536097,35.9941224],[139.0536005,35.9940812],[139.0535845,35.9940099],[139.0535546,35.993906],[139.0535176,35.9938245],[139.053485,35.9937748],[139.053437,35.9937278],[139.0533944,35.9936992],[139.0533607,35.9936836],[139.0533392,35.9936735],[139.0532976,35.9936558],[139.0532883,35.9936518],[139.0531973,35.9936277],[139.0530776,35.9935979],[139.0530643,35.9935946],[139.053064,35.9935945],[139.0530406,35.993583],[139.0530247,35.9935678],[139.0530007,35.9935305],[139.0529558,35.9934636],[139.0529031,35.9934042],[139.0528399,35.993349],[139.0527507,35.9932782],[139.0526267,35.9931752],[139.0525072,35.993078],[139.0523907,35.9929845],[139.052333,35.9929379],[139.0522783,35.9928985],[139.0522642,35.9928894],[139.052256,35.9928842],[139.0522155,35.992858],[139.0521679,35.9928305],[139.0521178,35.9928048],[139.0519612,35.9927291],[139.0519544,35.9927258],[139.051924,35.9927112],[139.0519237,35.992711],[139.0517149,35.9926056],[139.0515874,35.9925439],[139.051587,35.9925437],[139.0515169,35.9925047],[139.0514223,35.992445],[139.0513341,35.9923866],[139.0512251,35.9923103],[139.0511328,35.9922388],[139.0509486,35.9920974],[139.0508268,35.9920021],[139.0505876,35.9918244],[139.0503793250052,35.99166666666667],[139.05836357958697,35.99166666666667],[139.0584289,35.9918676],[139.0591626,35.9924007],[139.0594581,35.9924027],[139.0598997,35.9925736],[139.0604591,35.9927934],[139.0606634,35.9930589],[139.0607203,35.9932754],[139.0602173,35.9933443],[139.0599774,35.9937029],[139.0591766,35.993986],[139.0586902,35.9944283],[139.0587386,35.9945672],[139.0588369,35.9946167],[139.0589408,35.9946456],[139.0591486,35.9946969],[139.059288,35.9947413],[139.0594144,35.9948183],[139.0595297,35.9949294],[139.0596543,35.9950495],[139.0597321,35.9951072],[139.0598386,35.9951605],[139.0599457,35.9952053],[139.0600407,35.9952323],[139.0601992,35.9952595],[139.0603335,35.9952662],[139.0604616,35.9952876],[139.0605912,35.9953102],[139.0606999,35.9953254],[139.0607781,35.9953251],[139.0607835,35.9953249],[139.060804,35.9953891],[139.0610185,35.9954513],[139.061178,35.9954068],[139.0613367,35.9954229],[139.0615041,35.9955152],[139.0617093,35.9955698],[139.0618777,35.9955708],[139.0617628,35.9958437],[139.0616972,35.9958585],[139.0616583,35.9960102],[139.0616008,35.9961541],[139.0616288,35.9961543],[139.0617974,35.996125],[139.0619115,35.9959358],[139.0620907,35.9957774],[139.0625,35.995845854533],[139.0625,35.99676279592233],[139.0624908,35.9967641],[139.0624904,35.9967642],[139.0623899,35.9967906],[139.062352,35.9968056],[139.0623144,35.9968205],[139.0623141,35.9968206],[139.0622095,35.9968802],[139.0620968,35.9969647],[139.0619454,35.9971086],[139.0618528,35.9972104],[139.0617895,35.9972896],[139.0617403,35.9973633],[139.0616774,35.9974408],[139.0616577,35.9974555],[139.0616454,35.9974649],[139.0616184,35.9974762],[139.061618,35.9974761],[139.0615784,35.9974805],[139.0615115,35.9974783],[139.0614397,35.9974761],[139.0614394,35.9974761],[139.0613898,35.9974753],[139.0613894,35.9974753],[139.0613354,35.9974756]]]},"properties":{"layer":"landuse","class_code":"217","class_label":"公共空地（公園・緑地、広場、運動場、墓園）"}},{"type":"Feature","id":"luse_10a9a6af-4a27-46b8-bd49-0d40cf7f4854","geometry":{"type":"Polygon","coordinates":[[[139.05,35.993829120034945],[139.0501187,35.9938108],[139.0501673,35.9938057],[139.0501889,35.9938035],[139.0502123,35.993795],[139.0503059,35.9937577],[139.0503912,35.9936977],[139.0504746,35.9936277],[139.0505661,35.9935499],[139.0506357,35.9934931],[139.0506483,35.9934843],[139.0507279,35.9935631],[139.050787,35.9936195],[139.0508039,35.9936409],[139.0508207,35.9936662],[139.0508339,35.9936897],[139.0508451,35.9937189],[139.0508516,35.9937468],[139.0508543,35.9937761],[139.0508515,35.9938015],[139.0508471,35.9938302],[139.0508366,35.9938611],[139.0508243,35.993887],[139.0508048,35.9939136],[139.0507853,35.9939374],[139.0507584,35.9939613],[139.0506032,35.994064],[139.0505017,35.9941329],[139.0504278,35.9941853],[139.0503756,35.9942268],[139.0503279,35.9942693],[139.0502819,35.9943159],[139.0502473,35.9943576],[139.0502128,35.9944035],[139.0501883,35.9944446],[139.0501639,35.9944899],[139.0501445,35.9945314],[139.0501255,35.9945769],[139.0501075,35.994631],[139.0500909,35.9947074],[139.0500806,35.9947609],[139.0500721,35.9948062],[139.0500569,35.9948901],[139.0500453,35.9949572],[139.0500376,35.9950133],[139.0500307,35.9950818],[139.0500285,35.9951576],[139.0500249,35.9952472],[139.0500244,35.9953468],[139.050025,35.9953738],[139.050026,35.9954139],[139.0500256,35.9954752],[139.0500233,35.9955178],[139.0500201,35.99556],[139.050013,35.9956058],[139.0500038,35.995649],[139.05,35.99566357165354],[139.05,35.993829120034945]]]},"properties":{"layer":"landuse","class_code":"217","class_label":"公共空地（公園・緑地、広場、運動場、墓園）"}},{"type":"Feature","id":"luse_7c475d57-5ae4-4ebe-9a3b-c058a3528f55","geometry":{"type":"Polygon","coordinates":[[[139.0540250125,36.0],[139.0540267,35.9999475],[139.0540043,35.9998993],[139.0539676,35.9998424],[139.0539344,35.9998196],[139.05388,35.9998015],[139.0538391,35.9998451],[139.0537889,35.9998687],[139.0536603,35.9999289],[139.0536407,35.9998703],[139.0536191,35.9998058],[139.0537611,35.9997405],[139.0540484,35.9995954],[139.0541047,35.9996336],[139.0541607,35.9996614],[139.0541937,35.9996776],[139.0542163,35.9996858],[139.054295,35.9997355],[139.0543114,35.9997573],[139.0543229,35.9997941],[139.0543282,35.9998461],[139.0543456,35.9998921],[139.054374,35.9999394],[139.054419,35.9999983],[139.05442030954632,36.0],[139.0540250125,36.0]]]},"properties":{"layer":"landuse","class_code":"217","class_label":"公共空地（公園・緑地、広場、運動場、墓園）"}},{"type":"Feature","id":"luse_b91caf99-83b8-407d-8951-391492285c50","geometry":{"type":"MultiPolygon","coordinates":[[[[139.0544466039085,36.0],[139.0544379,35.9999887],[139.0543934,35.9999306],[139.0543664,35.9998855],[139.0543501,35.9998427],[139.0543448,35.9997911],[139.0543321,35.9997502],[139.0543118,35.9997233],[139.054234,35.9996741],[139.0542233,35.999658],[139.0541952,35.9996296],[139.0541729,35.9995959],[139.0541144,35.9995476],[139.0542712,35.9993447],[139.0542596,35.999335],[139.0541227,35.9993889],[139.0540284,35.9994579],[139.054032,35.9993783],[139.0540287,35.9993231],[139.0540234,35.9992753],[139.0540141,35.9992441],[139.0539993,35.9992151],[139.0539546,35.9991815],[139.0539056,35.9991547],[139.0538759,35.999139],[139.0538338,35.9991167],[139.0538084,35.9990966],[139.0537826,35.9990713],[139.0537667,35.999051],[139.0537428,35.9990211],[139.0537061,35.9989949],[139.0536891,35.9989746],[139.0536761,35.9989396],[139.053673,35.9989128],[139.0536729,35.9988661],[139.0536781,35.9988178],[139.0536786,35.9987835],[139.0536726,35.9987556],[139.0536629,35.9987239],[139.0536496,35.9986895],[139.0536326,35.9986605],[139.0536082,35.9986312],[139.0535147,35.9985718],[139.0534743,35.9985485],[139.0534193,35.9985185],[139.0533991,35.9985067],[139.0533659,35.9984938],[139.0533273,35.9984812],[139.0532681,35.9984498],[139.0532751,35.9984745],[139.0532932,35.9985022],[139.0533215,35.9985399],[139.0533384,35.9985531],[139.053374,35.9985863],[139.0534406,35.9986199],[139.0534915,35.9986471],[139.0535205,35.9986749],[139.0535446,35.9987138],[139.0535554,35.9987529],[139.0535602,35.9988014],[139.0535542,35.9988427],[139.0535421,35.9988904],[139.0535259,35.9989451],[139.053519,35.9989968],[139.0535191,35.9990296],[139.0535302,35.9990795],[139.0535471,35.999119],[139.0535799,35.9991618],[139.0536111,35.9991899],[139.0536353,35.9992281],[139.0536369,35.9992492],[139.0536332,35.9992787],[139.0536385,35.9992987],[139.0536487,35.9993146],[139.0537199,35.9993917],[139.0537931,35.9994723],[139.0538398,35.9995198],[139.0538895,35.9995597],[139.0538256,35.999589],[139.053762,35.999641],[139.0535779,35.9997502],[139.0535681,35.9997373],[139.0535292,35.9996915],[139.0534963,35.9996534],[139.0534374,35.9995699],[139.0534014,35.9995152],[139.0533469,35.9994164],[139.0533052,35.9993391],[139.0532634,35.9992563],[139.0532238,35.9991781],[139.0531951,35.9991224],[139.0531339,35.9989851],[139.0530896,35.9988698],[139.0530288,35.9986962],[139.0529992,35.9986236],[139.0529803,35.9985836],[139.0529603,35.998551],[139.0529362,35.9985132],[139.0528656,35.9984209],[139.0527715,35.9982983],[139.05274,35.9982506],[139.0527131,35.9982031],[139.0526906,35.9981587],[139.0526349,35.9980336],[139.0525794,35.9979226],[139.0524944,35.9977562],[139.0523725,35.997549],[139.0522562,35.9973488],[139.0521539,35.9971435],[139.0520731,35.9969609],[139.0519938,35.9967819],[139.0519307,35.9966332],[139.051898,35.9965141],[139.051869,35.9964125],[139.0518492,35.9963243],[139.0518395,35.9962545],[139.0518368,35.9961874],[139.0518366,35.9961155],[139.0518465,35.9959631],[139.0518472,35.9957718],[139.0518397,35.9955851],[139.0518221,35.9953346],[139.0518093,35.9951574],[139.0517938,35.9949915],[139.0517887,35.9949271],[139.0517804,35.9948577],[139.0517791,35.994847],[139.0517676,35.9947869],[139.0517527,35.9947361],[139.0517301,35.9946701],[139.0517043,35.994617],[139.051674,35.9945732],[139.0516522,35.994544],[139.0516198,35.9945021],[139.0515865,35.9944608],[139.0514966,35.9943644],[139.0514452,35.9943122],[139.0513774,35.9942454],[139.0513543,35.9942202],[139.0513327,35.9941921],[139.0512912,35.994136],[139.0512434,35.9940591],[139.051173,35.9939251],[139.0511549,35.9938941],[139.0511541,35.9938931],[139.0511401,35.993875],[139.0511159,35.9938501],[139.0510595,35.9938008],[139.0510363,35.9937804],[139.051019,35.9937616],[139.0510031,35.9937395],[139.0509812,35.9936865],[139.0509626,35.9936416],[139.0509455,35.9936148],[139.0509282,35.9935899],[139.0509084,35.9935637],[139.0508815,35.9935338],[139.0508239,35.9934745],[139.0507598,35.9934098],[139.0507754,35.9934002],[139.0507943,35.993389],[139.0508079,35.9933808],[139.0508297,35.9933676],[139.0508369,35.9933633],[139.0508617,35.9933483],[139.0509078,35.9933261],[139.0509174,35.9933219],[139.0509125,35.9933409],[139.0510037,35.9933578],[139.0512558,35.9934046],[139.0512617,35.9933838],[139.051618,35.993453],[139.051799,35.9935773],[139.0517855,35.9936841],[139.0517275,35.9937034],[139.05188,35.9941653],[139.0519042,35.9941722],[139.0519929,35.9941545],[139.0520525,35.9941506],[139.0521179,35.9941538],[139.0521769,35.9941637],[139.0522258,35.9941798],[139.0522782,35.9942011],[139.0523195,35.9942225],[139.0523658,35.9942533],[139.0524133,35.9942925],[139.0524348,35.994308],[139.0524553,35.9943227],[139.0524833,35.9943393],[139.0524984,35.9943623],[139.0525276,35.9944214],[139.0525438,35.9944894],[139.0525493,35.994544],[139.0525502,35.9946005],[139.0525411,35.9946212],[139.0525353,35.9946356],[139.0525238,35.9946592],[139.0525267,35.9947394],[139.052532,35.9948041],[139.0525383,35.9948374],[139.0525489,35.9948661],[139.0525647,35.9948966],[139.0526951,35.9948333],[139.0528834,35.9945732],[139.053192,35.9952767],[139.0533024,35.9954229],[139.0534076,35.9955051],[139.0535157,35.9955711],[139.0536647,35.9956182],[139.0537958,35.9956244],[139.0539256,35.9956274],[139.0542397,35.9955915],[139.0543849,35.9955895],[139.054534,35.9955966],[139.0546719,35.9956182],[139.0548235,35.9956799],[139.0549601,35.9957592],[139.0550209,35.9957918],[139.0550666,35.9958359],[139.0551594,35.9959677],[139.0552222,35.9960969],[139.0552605,35.9963805],[139.0551799,35.9964252],[139.0551173,35.9964893],[139.0550931,35.9965853],[139.0551287,35.9966886],[139.0551655,35.9967425],[139.0552305,35.996779],[139.0553004,35.9968048],[139.0553957,35.9968111],[139.0554605,35.9969019],[139.0556503,35.9972132],[139.0558307,35.9973906],[139.0559655,35.9976126],[139.0560034,35.997639],[139.0560387,35.9976635],[139.0565425,35.9978918],[139.057033,35.9981142],[139.0580825,35.99859],[139.0588476,35.9989613],[139.0589685,35.9990344],[139.0590179,35.9990993],[139.0590773,35.999213],[139.0590899,35.9993199],[139.059085,35.9993878],[139.0590605,35.9994444],[139.0589625,35.9996142],[139.0588624,35.9997642],[139.0587656,35.9999712],[139.05876083812274,36.0],[139.05891777218721,36.0],[139.0589643,35.9999004],[139.0589989,35.9998089],[139.0590851,35.99967],[139.0591509,35.9995847],[139.0592003,35.9995191],[139.0592433,35.9994424],[139.0592556,35.9993444],[139.0592552,35.999255],[139.0592379,35.9991582],[139.0591991,35.9990857],[139.0591539,35.9990321],[139.0590583,35.9989402],[139.0588748,35.9988296],[139.0581639,35.9984694],[139.0570792,35.9979777],[139.0563716,35.9976283],[139.0561209,35.9974683],[139.0559846,35.9973369],[139.0558083,35.9971576],[139.0557087,35.9970421],[139.0556105,35.9968871],[139.0555646,35.9967179],[139.0556105,35.9966586],[139.0556352,35.9965855],[139.0555858,35.9964882],[139.055558,35.996393],[139.0554575,35.9961127],[139.0552407,35.9957805],[139.0551315,35.995676],[139.0550099,35.9955965],[139.0548473,35.9955124],[139.0546728,35.9954553],[139.0544241,35.9954257],[139.0540535,35.9954419],[139.053847,35.9954592],[139.0537414,35.9954538],[139.0536408,35.9954299],[139.0535269,35.9953546],[139.0535227,35.995345],[139.0535251,35.9953463],[139.0535712,35.9953654],[139.0536208,35.9953805],[139.053672,35.9953898],[139.0536724,35.9953898],[139.0537152,35.995392],[139.0537156,35.995392],[139.0537672,35.995389],[139.0538014,35.9953845],[139.0538367,35.9953798],[139.0539115,35.9953623],[139.0539225,35.9953596],[139.0539229,35.9953596],[139.0539339,35.9953569],[139.0540494,35.9953288],[139.0540751,35.9953234],[139.05408,35.9953224],[139.0541334,35.9953112],[139.0541338,35.9953111],[139.054191,35.995301],[139.0541914,35.995301],[139.0542394,35.9952966],[139.0542398,35.9952966],[139.0542939,35.9952942],[139.0542942,35.9952942],[139.0543244,35.9952959],[139.0543512,35.9952974],[139.0543516,35.9952975],[139.0543952,35.9953028],[139.0544143,35.9953051],[139.0544643,35.9953164],[139.054511,35.9953299],[139.0545604,35.9953476],[139.0546158,35.9953706],[139.0546766,35.9954022],[139.0547577,35.9954447],[139.0548664,35.9955029],[139.05503,35.9955931],[139.055131,35.9956501],[139.055189,35.9956876],[139.055244,35.995731],[139.0552901,35.9957664],[139.0553232,35.9958001],[139.0553437,35.9958297],[139.0553484,35.9958374],[139.0553652,35.9958649],[139.0553731,35.995878],[139.0554045,35.9959428],[139.0554329,35.9959977],[139.0554581,35.9960363],[139.0554871,35.9960765],[139.0555157,35.9961196],[139.0555346,35.9961482],[139.0555501,35.9961866],[139.0555732,35.9962496],[139.0555922,35.9963249],[139.05562,35.9964415],[139.0556574,35.9966097],[139.0556806,35.9967016],[139.0557017,35.9967843],[139.0557284,35.9968573],[139.0557499,35.9969086],[139.0557757,35.9969544],[139.0558091,35.9969995],[139.0558524,35.9970485],[139.0558993,35.9970991],[139.0559615,35.9971605],[139.0560668,35.9972636],[139.0561843,35.9973744],[139.0562743,35.9974544],[139.0563396,35.997503],[139.0563952,35.997541],[139.0564492,35.9975707],[139.0565094,35.9975987],[139.0565743,35.9976224],[139.0566434,35.9976423],[139.0566437,35.9976424],[139.0568393,35.9976991],[139.0568397,35.9976992],[139.0569519,35.9977332],[139.0569522,35.9977333],[139.057041,35.9977667],[139.0571045,35.9977969],[139.0571673,35.9978352],[139.0572397,35.9978857],[139.0574438,35.9980423],[139.0576188,35.9981738],[139.0577031,35.9982317],[139.0577687,35.9982697],[139.057769,35.9982698],[139.0578281,35.9982987],[139.0579032,35.9983256],[139.0579767,35.998344],[139.0580509,35.9983541],[139.0580513,35.9983541],[139.0580737,35.9983551],[139.0581191,35.9983571],[139.0581508,35.9983563],[139.0581982,35.9983551],[139.0581986,35.9983551],[139.0582664,35.9983504],[139.0584647,35.9983286],[139.0584651,35.9983285],[139.0585441,35.9983215],[139.0585445,35.9983215],[139.0585451,35.9983215],[139.0585455,35.9983214],[139.0585769,35.9983206],[139.0585947,35.9983202],[139.0586339,35.9983204],[139.0586342,35.9983204],[139.0586486,35.9983205],[139.058649,35.9983205],[139.0586919,35.9983228],[139.0587369,35.9983293],[139.0587822,35.998341],[139.0588188,35.9983531],[139.0588525,35.9983668],[139.0588802,35.9983812],[139.0589166,35.9984046],[139.0589523,35.9984339],[139.0590024,35.9984782],[139.0590779,35.9985446],[139.0592426,35.9986898],[139.0594137,35.9988439],[139.0594599,35.9988894],[139.0594829,35.9989178],[139.0594989,35.9989461],[139.0595131,35.9989784],[139.0595255,35.9990151],[139.0595331,35.9990522],[139.0595335,35.9990858],[139.059529,35.9991153],[139.0595236,35.9991423],[139.0595227,35.9991457],[139.0595116,35.9991836],[139.0594958,35.9992212],[139.0594717,35.9992659],[139.0594238,35.999348],[139.0592495,35.9995974],[139.0591646,35.9997189],[139.0591287,35.9997708],[139.0591064,35.9998063],[139.0590852,35.9998473],[139.0590702,35.9998824],[139.0590575,35.9999211],[139.0590484,35.9999592],[139.05904157354084,36.0],[139.0544466039085,36.0]]],[[[139.0560031,35.9981726],[139.0559843,35.9981678],[139.0559422,35.9981675],[139.05592,35.9981612],[139.0559093,35.9981514],[139.0558792,35.99814],[139.0558555,35.998136],[139.0558392,35.9981355],[139.0558329,35.9981354],[139.0558156,35.9981377],[139.0557966,35.9981456],[139.0557735,35.9981545],[139.0557363,35.9981616],[139.0557081,35.9981656],[139.0556686,35.9981679],[139.0556316,35.9981658],[139.0555674,35.9981449],[139.0555455,35.9981359],[139.0555335,35.9981299],[139.0555143,35.9981201],[139.0554957,35.9981199],[139.0554964,35.9981279],[139.0554983,35.9981304],[139.0555107,35.9981464],[139.0555541,35.9981905],[139.0555782,35.9982169],[139.0555933,35.9982412],[139.0556077,35.998282],[139.055627,35.9983341],[139.0557056,35.9985161],[139.0558679,35.998477],[139.0558562,35.9984526],[139.0559855,35.9984212],[139.0560176,35.9984108],[139.0559545,35.9982436],[139.0559705,35.9982388],[139.0560306,35.998221],[139.0560031,35.9981726]]],[[[139.0577394,35.9996038],[139.0576868,35.9996765],[139.0576378,35.9997579],[139.0575822,35.9998599],[139.0575447,35.9999266],[139.0579534,35.9999906],[139.0579931,35.9999968],[139.0579811,35.9998817],[139.0579785,35.9998636],[139.0579675,35.9997869],[139.0579598,35.9997212],[139.0579565,35.9996826],[139.0579545,35.9996601],[139.057952,35.999591],[139.0579274,35.9995794],[139.0578105,35.9995241],[139.0577394,35.9996038]]]]},"properties":{"layer":"landuse","class_code":"217","class_label":"公共空地（公園・緑地、広場、運動場、墓園）"}},{"type":"Feature","id":"luse_21131ea2-2a76-488f-9b0d-1b1fe4b0c3d7","geometry":{"type":"Polygon","coordinates":[[[139.0625,35.99242496196447],[139.0624864,35.992415],[139.0625,35.99240382857144],[139.0625,35.99242496196447]]]},"properties":{"layer":"landuse","class_code":"217","class_label":"公共空地（公園・緑地、広場、運動場、墓園）"}}]}