{"type":"FeatureCollection","properties":{"mesh_code":"53397183","source":"PLATEAU秩父市2025","layer":"landuse"},"features":[{"type":"Feature","id":"luse_9139efa7-e755-488f-aee5-7adc7dc210da","geometry":{"type":"Polygon","coordinates":[[[139.1731353,35.9902307],[139.1731287,35.9902319],[139.1730663,35.9902427],[139.1729971,35.9902688],[139.1729185,35.9903083],[139.1727242,35.9904278],[139.1726957,35.9904522],[139.1726825,35.9904641],[139.1726659,35.9904866],[139.1726565,35.9905118],[139.1726546,35.9905363],[139.1726574,35.9905733],[139.1726723,35.9906189],[139.1726939,35.9906679],[139.1726989,35.9906937],[139.1727024,35.9907134],[139.1727038,35.9909971],[139.1727111,35.991138],[139.1727108,35.9912273],[139.172702,35.9913521],[139.1727049,35.9914455],[139.172713,35.9915475],[139.1727122,35.9915704],[139.1727118,35.9915826],[139.1727027,35.991615],[139.1726845,35.991647],[139.17266811778683,35.99166666666667],[139.17234464229008,35.99166666666667],[139.1723293,35.9916494],[139.1722762,35.9916067],[139.1722503,35.9915809],[139.1722437,35.9915687],[139.1722393,35.9915503],[139.1722361,35.9915084],[139.1722356,35.9914323],[139.1722278,35.991362],[139.1722059,35.9912882],[139.172171,35.9912149],[139.1721317,35.9911444],[139.1721154,35.9911226],[139.1720997,35.991109],[139.172057,35.9910854],[139.1720307,35.9910657],[139.1720175,35.9910493],[139.1720144,35.9910426],[139.1720094,35.9910179],[139.1720036,35.9909683],[139.1720041,35.990921],[139.1720203,35.9908286],[139.1720215,35.9907955],[139.1720165,35.9907523],[139.1720089,35.9907247],[139.1719791,35.9906152],[139.1719773,35.990584],[139.1719764,35.9905587],[139.1719806,35.9905263],[139.1719967,35.9904657],[139.1720057,35.9904231],[139.1720051,35.9903852],[139.1719958,35.9903484],[139.1719907,35.9903378],[139.1720246,35.9903119],[139.1722237,35.990105],[139.1724226,35.9899703],[139.1725806,35.9899434],[139.1727845,35.989778],[139.1730401,35.9896964],[139.173185,35.9897189],[139.1732601,35.9896765],[139.1735387,35.9894846],[139.1736533,35.9893942],[139.1739825,35.989354],[139.1742096,35.98932],[139.1744054,35.9892664],[139.1744787,35.989194],[139.1744882,35.9891993],[139.1744815,35.9892352],[139.174475,35.9892697],[139.1744658,35.9892854],[139.1744424,35.9893061],[139.1743539,35.9893621],[139.1743025,35.9893962],[139.1742749,35.9894235],[139.1742605,35.9894488],[139.1742528,35.9894825],[139.174247,35.9895393],[139.1742423,35.9895776],[139.1742329,35.989605],[139.1742148,35.9896339],[139.1741921,35.9896547],[139.1741484,35.9896741],[139.1741481,35.9896742],[139.1741034,35.9896833],[139.174103,35.9896833],[139.1740815,35.9896818],[139.1740812,35.9896818],[139.174068,35.9896776],[139.1740332,35.9896545],[139.1740033,35.9896416],[139.1739863,35.9896342],[139.1739401,35.9896278],[139.1738836,35.9896295],[139.1738209,35.9896395],[139.1737802,35.9896567],[139.1736851,35.989697],[139.1735396,35.9898122],[139.1735101,35.9898493],[139.1734963,35.9898771],[139.1734872,35.9899082],[139.1734826,35.9899428],[139.1734842,35.9899808],[139.1735213,35.9901498],[139.1735203,35.990168],[139.1735142,35.9901861],[139.1734939,35.9902139],[139.1734725,35.9902364],[139.1734449,35.9902517],[139.1734141,35.9902595],[139.1733927,35.9902615],[139.173265,35.9902326],[139.1732496,35.9902315],[139.1731916,35.9902274],[139.1731353,35.9902307]]]},"properties":{"layer":"landuse","class_code":"203","class_label":"山林（樹林地）"}}]}