{"type":"FeatureCollection","properties":{"mesh_code":"53397009","source":"PLATEAU秩父市2025","layer":"landuse"},"features":[{"type":"Feature","id":"luse_92c789ed-03fc-4210-9256-5fc5b1e23433","geometry":{"type":"Polygon","coordinates":[[[139.1125,35.916666666666664],[139.11321605679393,35.916666666666664],[139.112932,35.9170289],[139.1127862,35.9174262],[139.112651,35.917918],[139.1126555,35.9180706],[139.1126721,35.9181684],[139.1128382,35.9185627],[139.1128606,35.9186749],[139.1128534,35.9188382],[139.1128165,35.91901],[139.112642,35.9196315],[139.1125,35.91980813028951],[139.1125,35.916666666666664]]]},"properties":{"layer":"landuse","class_code":"203","class_label":"山林（樹林地）"}}]}