{"type":"FeatureCollection","properties":{"mesh_code":"53397018","source":"PLATEAU秩父市2025","layer":"landuse"},"features":[{"type":"Feature","id":"luse_92c789ed-03fc-4210-9256-5fc5b1e23433","geometry":{"type":"Polygon","coordinates":[[[139.1,35.925],[139.1036083326969,35.925],[139.1034296,35.9251413],[139.1031699,35.9253559],[139.1031163,35.9254584],[139.1030923,35.9255529],[139.1030976,35.9258185],[139.1031091,35.926217],[139.1030374,35.9265993],[139.102997,35.9268708],[139.1028434,35.9273178],[139.1023329,35.9274163],[139.1017374,35.9276144],[139.1011503,35.9279139],[139.1010681,35.9279559],[139.1008227,35.9281446],[139.1006138,35.9284607],[139.1006095,35.9284672],[139.1003194,35.9288581],[139.1001177,35.9290459],[139.1000442,35.9291216],[139.1,35.929172397014945],[139.1,35.925]]]},"properties":{"layer":"landuse","class_code":"203","class_label":"山林（樹林地）"}}]}