{"type":"FeatureCollection","properties":{"mesh_code":"53397014","source":"PLATEAU秩父市2025","layer":"landuse"},"features":[{"type":"Feature","id":"luse_bc17c6c1-34af-4a12-891b-dc4ffb77ecba","geometry":{"type":"Polygon","coordinates":[[[139.0611807,35.9317853],[139.0611602,35.9317875],[139.0611486,35.9317931],[139.0611385,35.9318015],[139.0611239,35.931816],[139.0611236,35.931816],[139.061072,35.9318383],[139.0610559,35.9318421],[139.0610229,35.9318576],[139.061004,35.93187],[139.0609894,35.9318766],[139.060974,35.9318811],[139.0609506,35.9318841],[139.060928,35.9318841],[139.0609276,35.9318842],[139.0609051,35.9318871],[139.0608897,35.9318926],[139.0608529,35.931914],[139.0608395,35.9319242],[139.0607784,35.9319775],[139.0607556,35.9319951],[139.0607395,35.9320084],[139.0606758,35.9320687],[139.0606615,35.9320844],[139.0605877,35.9321494],[139.0605442,35.9321837],[139.0605299,35.9321986],[139.0604815,35.9322522],[139.0604183,35.9323087],[139.0603604,35.9323564],[139.0603428,35.9323688],[139.0603321,35.9323755],[139.0603184,35.9323852],[139.0603109,35.9323923],[139.0602739,35.9324544],[139.0602702,35.9324601],[139.0602549,35.9324743],[139.0602336,35.932485],[139.0602109,35.9324924],[139.0601743,35.932494],[139.060174,35.932494],[139.0601618,35.9324904],[139.0601519,35.9324852],[139.0601411,35.9324276],[139.0601411,35.9324199],[139.0601407,35.9324146],[139.0601376,35.9324063],[139.0601335,35.9323993],[139.0601264,35.9323875],[139.0601233,35.9323756],[139.0601244,35.9323715],[139.06013,35.9323588],[139.0601348,35.9323336],[139.060134,35.9323186],[139.0601267,35.9323001],[139.0601239,35.9322952],[139.0601179,35.9322892],[139.0600935,35.9322712],[139.0600822,35.9322599],[139.060074,35.9322459],[139.0600707,35.9322356],[139.0600669,35.9322248],[139.0600628,35.9322128],[139.0600607,35.9322015],[139.0600599,35.9321937],[139.0600624,35.9321803],[139.0600564,35.9321186],[139.060052,35.9321002],[139.0600492,35.9320884],[139.0600425,35.9320216],[139.0600427,35.9320106],[139.0600425,35.9319989],[139.0600399,35.9319864],[139.0600269,35.9319716],[139.0601674,35.931896],[139.0604431,35.9317472],[139.0604628,35.9317365],[139.0604816,35.9317249],[139.0604997,35.9317126],[139.0605115,35.9317037],[139.060528,35.93169],[139.0605437,35.9316756],[139.0605584,35.9316606],[139.060572,35.9316449],[139.0605846,35.9316287],[139.0605892,35.9316222],[139.0606074,35.9315872],[139.0606188,35.9315618],[139.0606332,35.9315256],[139.0606384,35.9315103],[139.0606449,35.9314813],[139.0606517,35.931458],[139.0606617,35.9314297],[139.0606736,35.9314019],[139.0606874,35.9313748],[139.0607006,35.9313519],[139.0607099,35.9313372],[139.0607202,35.9313228],[139.0607305,35.9313102],[139.0607427,35.9312967],[139.0607556,35.9312839],[139.0607694,35.9312717],[139.060784,35.9312601],[139.0607994,35.9312491],[139.060807,35.9312442],[139.060873,35.9312096],[139.0609711,35.9311609],[139.0609782,35.9311576],[139.060985,35.9311538],[139.0609914,35.9311499],[139.0609978,35.9311456],[139.0610024,35.9311421],[139.0610081,35.9311374],[139.0610136,35.9311324],[139.0610186,35.9311272],[139.0610233,35.9311217],[139.0610276,35.931116],[139.0610316,35.9311102],[139.0610351,35.9311042],[139.0610383,35.9310981],[139.061041,35.9310918],[139.0610433,35.9310854],[139.0610445,35.9310814],[139.0610529,35.9310671],[139.0610622,35.9310533],[139.0610724,35.9310398],[139.0610746,35.931037],[139.061086,35.9310241],[139.0610982,35.9310118],[139.0611097,35.9310013],[139.0611162,35.930996],[139.0611231,35.930991],[139.0611303,35.9309863],[139.0611346,35.9309838],[139.0611423,35.9309796],[139.0611501,35.9309757],[139.0611582,35.9309722],[139.0611667,35.9309691],[139.0611751,35.9309664],[139.0611755,35.9309663],[139.0611843,35.9309641],[139.0611929,35.9309621],[139.0611933,35.9309621],[139.0611955,35.9309617],[139.0612771,35.9309511],[139.0612774,35.9309511],[139.0613386,35.930942],[139.061339,35.930942],[139.0613509,35.9309389],[139.0613628,35.9309353],[139.0613743,35.9309312],[139.0613747,35.9309311],[139.0613858,35.9309265],[139.0613971,35.9309214],[139.0614004,35.9309197],[139.0614107,35.9309139],[139.061421,35.9309077],[139.0614307,35.9309011],[139.06144,35.9308939],[139.0614487,35.9308864],[139.061457,35.9308786],[139.0614647,35.9308704],[139.0614718,35.9308618],[139.0614783,35.9308529],[139.0614843,35.9308438],[139.0614896,35.9308344],[139.0614943,35.9308248],[139.0614983,35.930815],[139.0614989,35.9308131],[139.0615033,35.9307922],[139.0615062,35.9307712],[139.0615077,35.9307501],[139.0615077,35.930729],[139.0615076,35.9307255],[139.061506,35.9307044],[139.0614851,35.9306545],[139.0614824,35.9306352],[139.0615035,35.930598],[139.0615126,35.930331],[139.0615195,35.9302849],[139.0615294,35.9302391],[139.0615334,35.9302243],[139.0615473,35.9301792],[139.0615644,35.9301349],[139.061581,35.9300983],[139.0615932,35.9300863],[139.0616063,35.9300748],[139.0616202,35.9300639],[139.0616243,35.9300608],[139.0616389,35.9300507],[139.0616544,35.9300414],[139.0616702,35.9300327],[139.0616867,35.9300248],[139.0617037,35.9300176],[139.0617212,35.9300111],[139.0617391,35.9300054],[139.0617575,35.9300006],[139.0617637,35.9299992],[139.0617641,35.9299991],[139.0618197,35.929997],[139.0618294,35.9299969],[139.0618722,35.9299962],[139.0618882,35.9299964],[139.0618948,35.9299964],[139.0619172,35.9299957],[139.0619176,35.9299957],[139.0619396,35.9299939],[139.06194,35.9299939],[139.0619606,35.9299914],[139.0619827,35.9299877],[139.0620045,35.9299831],[139.062026,35.9299774],[139.0620471,35.9299709],[139.0620677,35.9299634],[139.0620878,35.929955],[139.0621075,35.9299458],[139.0621134,35.9299427],[139.0621437,35.9299237],[139.0621493,35.9299203],[139.0621835,35.9298963],[139.0621969,35.9298862],[139.0622289,35.9298601],[139.0622591,35.9298326],[139.0622873,35.9298038],[139.0623067,35.9297821],[139.0623793,35.9297013],[139.0624814,35.9295762],[139.0625,35.929551085433715],[139.0625,35.93059563902439],[139.0624729,35.9305963],[139.062463,35.9305958],[139.0624509,35.9305974],[139.0624439,35.9306016],[139.0624513,35.9306192],[139.0624562,35.9306257],[139.0624619,35.9306348],[139.0624772,35.9306737],[139.0624799,35.9306899],[139.062469,35.9307648],[139.062463,35.9307891],[139.0624587,35.9308066],[139.0624325,35.930871],[139.0624208,35.9308927],[139.0624023,35.9309635],[139.0623972,35.9309894],[139.0623829,35.931074],[139.0623826,35.9310987],[139.0623784,35.9311695],[139.0623781,35.9311956],[139.0623767,35.9312228],[139.0623653,35.9312879],[139.0623576,35.9313146],[139.0623225,35.9313875],[139.0623158,35.9313966],[139.0623068,35.9314072],[139.0623009,35.9314125],[139.0622927,35.9314165],[139.0622768,35.9314205],[139.0622765,35.9314206],[139.0622549,35.9314224],[139.0621583,35.931432],[139.0620802,35.9314382],[139.0620545,35.9314383],[139.0619475,35.9314416],[139.0619332,35.9314422],[139.0619329,35.9314422],[139.0618374,35.9314475],[139.0618144,35.9314482],[139.0617934,35.931449],[139.061703,35.9314693],[139.0616952,35.9314714],[139.061687,35.9314736],[139.06161,35.9314958],[139.0615357,35.9315223],[139.0615244,35.9315247],[139.0615081,35.9315307],[139.0614949,35.9315405],[139.0614912,35.9315441],[139.0614823,35.9315556],[139.061476,35.9315665],[139.061475,35.9316037],[139.0614779,35.9316141],[139.0614793,35.931634],[139.0614586,35.9316911],[139.0614464,35.931714],[139.0614342,35.9317321],[139.0614222,35.9317407],[139.0613804,35.9317557],[139.0612902,35.9317774],[139.0612506,35.9317847],[139.0611964,35.931786],[139.0611807,35.9317853]]]},"properties":{"layer":"landuse","class_code":"203","class_label":"山林（樹林地）"}},{"type":"Feature","id":"luse_d8449472-3073-4b4c-b454-1eb32709a824","geometry":{"type":"Polygon","coordinates":[[[139.0586977984568,35.93333333333333],[139.0586937,35.9333243],[139.0586809,35.9332915],[139.0586696,35.9332583],[139.0586599,35.9332247],[139.0586555,35.933207],[139.0586234,35.933053],[139.0586057,35.9329499],[139.0585956,35.9328912],[139.0585842,35.9328132],[139.0585995,35.93277],[139.0585888,35.9327514],[139.0586413,35.9327229],[139.0587057,35.9328147],[139.0590692,35.9328171],[139.0590976,35.9329174],[139.0591668,35.9330324],[139.0592997,35.9332431],[139.0593517,35.9333197],[139.05936157790762,35.93333333333333],[139.0586977984568,35.93333333333333]]]},"properties":{"layer":"landuse","class_code":"203","class_label":"山林（樹林地）"}},{"type":"Feature","id":"luse_c9dc9752-e556-4684-b505-c3a927af0adc","geometry":{"type":"Polygon","coordinates":[[[139.0599832,35.9319303],[139.0599362,35.9319556],[139.0595245,35.9321774],[139.0590409,35.9324403],[139.0590186,35.9324081],[139.0590095,35.9323962],[139.0589966,35.9323844],[139.0589962,35.9323844],[139.0589728,35.9323806],[139.0589681,35.9323808],[139.0589164,35.9323773],[139.0589034,35.9323754],[139.0588686,35.9323621],[139.0588703,35.9323551],[139.0588727,35.9323475],[139.0588713,35.9323348],[139.0588625,35.9323233],[139.0588511,35.9323145],[139.058831,35.9322931],[139.0587985,35.9322584],[139.0588004,35.9322535],[139.0588065,35.9322386],[139.058809,35.9322239],[139.0588082,35.9322141],[139.0588073,35.9322043],[139.0588145,35.9321669],[139.0588176,35.9321636],[139.0588256,35.9321513],[139.0588252,35.9321373],[139.0588225,35.9321265],[139.0588183,35.9321149],[139.0588055,35.9320915],[139.0588028,35.9320811],[139.0588054,35.9320719],[139.058809,35.9320635],[139.0588096,35.9320518],[139.0588036,35.9320394],[139.0587958,35.932029],[139.0587546,35.9319655],[139.0587522,35.9319504],[139.0587483,35.9319417],[139.0587472,35.9319335],[139.0587489,35.9319191],[139.0587485,35.9319084],[139.0587462,35.931892],[139.0587335,35.9318555],[139.0587034,35.9317856],[139.0586998,35.9317814],[139.0586892,35.9317693],[139.0586547,35.9317455],[139.0586544,35.9317456],[139.0586391,35.9317467],[139.0585547,35.9317471],[139.0585353,35.9317419],[139.0585045,35.931737],[139.0585042,35.931737],[139.0584786,35.9317336],[139.058399,35.9317138],[139.0583627,35.9317024],[139.0582796,35.9316823],[139.0582793,35.9316822],[139.0582569,35.9316796],[139.0582291,35.9316771],[139.0582287,35.9316771],[139.0581463,35.9316602],[139.058129,35.9316543],[139.0581042,35.9316425],[139.0580844,35.9316315],[139.0580523,35.931606],[139.0579933,35.9315555],[139.0579819,35.9315471],[139.0579548,35.9315286],[139.0578959,35.9314814],[139.0578778,35.9314581],[139.057835,35.9314051],[139.0578205,35.9313901],[139.0577988,35.9313671],[139.057752,35.9313129],[139.0577376,35.9312902],[139.0577278,35.9312641],[139.0577243,35.9312463],[139.0577215,35.9312283],[139.0577129,35.9311502],[139.0577092,35.931132],[139.0576885,35.931063],[139.0576759,35.9310347],[139.0576293,35.9309691],[139.0576176,35.9309599],[139.0576115,35.9309541],[139.0576073,35.9309479],[139.0576058,35.9309358],[139.0576056,35.9309205],[139.0575927,35.9308691],[139.0575827,35.9308544],[139.0575634,35.9308389],[139.0575496,35.9308293],[139.0575288,35.9308151],[139.0574603,35.9307788],[139.0574197,35.9307626],[139.0573912,35.9307432],[139.0573752,35.9307279],[139.0573694,35.9307233],[139.0573477,35.9307105],[139.0573222,35.9307012],[139.0573071,35.9306955],[139.0572853,35.9306822],[139.0572803,35.9306764],[139.0572796,35.930666],[139.0572835,35.9306584],[139.057294,35.9306453],[139.0573029,35.9306345],[139.0573395,35.9305689],[139.0573441,35.9305436],[139.0573431,35.9305271],[139.0573391,35.93051],[139.0573183,35.9304639],[139.0573007,35.9304421],[139.0572879,35.9304309],[139.0572789,35.9304234],[139.0572478,35.930389],[139.0572455,35.9303764],[139.0572496,35.9303623],[139.0572523,35.930357],[139.0572619,35.930341],[139.0572909,35.9302718],[139.0572915,35.9302572],[139.057285,35.9302384],[139.0572711,35.9302251],[139.057259,35.9302199],[139.0572466,35.9302174],[139.0572299,35.9302218],[139.0572161,35.9302321],[139.057148,35.9302704],[139.0571221,35.9302714],[139.0571027,35.9302706],[139.0569947,35.9302679],[139.0569689,35.9302756],[139.0569554,35.9302827],[139.0569424,35.9302904],[139.0568686,35.9303212],[139.0568475,35.9303253],[139.0568157,35.9303303],[139.0567961,35.9303319],[139.0567653,35.9303302],[139.056765,35.9303302],[139.0567435,35.9303271],[139.0566562,35.930311],[139.0566354,35.9303053],[139.0566086,35.9302979],[139.0565721,35.9302947],[139.0565718,35.9302947],[139.0565556,35.9302961],[139.0564727,35.930295],[139.0564547,35.9302922],[139.0564543,35.9302921],[139.0564446,35.9302899],[139.0564355,35.9302844],[139.056431,35.9302799],[139.0564268,35.9302763],[139.0564196,35.9302729],[139.0564103,35.9302727],[139.056407,35.9302733],[139.0564067,35.9302734],[139.0563952,35.9302765],[139.0563537,35.9302821],[139.0563459,35.9302764],[139.0563387,35.9302694],[139.0562836,35.9302206],[139.0562715,35.9302101],[139.0562111,35.9301579],[139.0561993,35.9301493],[139.0561503,35.9301257],[139.0561377,35.9301224],[139.0561262,35.9301177],[139.0561074,35.9301091],[139.0560901,35.9300988],[139.0560721,35.9300833],[139.0560488,35.930055],[139.0560471,35.9300428],[139.0560322,35.9300102],[139.0560162,35.9299985],[139.0560109,35.9299947],[139.0559758,35.9299633],[139.0559696,35.9299543],[139.0559603,35.9299398],[139.0559259,35.929907],[139.0559088,35.9299056],[139.0558947,35.9299056],[139.0558862,35.9299038],[139.0558758,35.9298995],[139.0558596,35.9298902],[139.0558429,35.9298772],[139.0558367,35.9298719],[139.0557815,35.9298196],[139.0557744,35.9298062],[139.0557738,35.9297977],[139.0557734,35.9297859],[139.0557708,35.9297783],[139.0557638,35.9297714],[139.0557481,35.9297608],[139.0557362,35.9297516],[139.055727,35.9297421],[139.0557149,35.9297276],[139.0556773,35.9296998],[139.0556582,35.9296915],[139.0556451,35.9296856],[139.055614,35.9296665],[139.055599,35.9296537],[139.0555937,35.9296487],[139.055552,35.929592],[139.0555511,35.9295819],[139.055552,35.9295727],[139.0555575,35.9294975],[139.0555604,35.9294867],[139.0555647,35.929476],[139.0555703,35.9294603],[139.0555691,35.9294463],[139.0555672,35.9294424],[139.0555573,35.9294326],[139.0555478,35.9294273],[139.0554799,35.9293955],[139.0554796,35.9293953],[139.055414,35.929374],[139.0553193,35.92935],[139.0552392,35.9293237],[139.0552224,35.9293165],[139.0552221,35.9293164],[139.0551438,35.9292747],[139.055066,35.9292403],[139.0549881,35.929211],[139.054969,35.9292053],[139.0548843,35.9291875],[139.0548631,35.9291838],[139.0548418,35.9291804],[139.0547601,35.9291644],[139.0547026,35.9291615],[139.0547023,35.9291616],[139.0546822,35.9291652],[139.0546739,35.9291658],[139.0546735,35.9291658],[139.0546545,35.9291655],[139.0546542,35.9291654],[139.0546082,35.9291597],[139.0545884,35.9291548],[139.0545747,35.9291512],[139.0545729,35.9291503],[139.0545217,35.9291288],[139.0545161,35.9291228],[139.0545078,35.9291155],[139.0545062,35.9291141],[139.0544933,35.9291075],[139.0544919,35.9291071],[139.0544891,35.9291062],[139.0544698,35.9291026],[139.0544561,35.9290984],[139.054445,35.929096],[139.0543988,35.9290796],[139.0543863,35.9290749],[139.0543482,35.9290664],[139.0543294,35.9290634],[139.0543179,35.9290614],[139.0542971,35.9290553],[139.0542594,35.9290442],[139.0542486,35.9290396],[139.0542313,35.929032],[139.0542011,35.9290231],[139.0541927,35.9290205],[139.0541904,35.9290196],[139.0541858,35.9290172],[139.0541111,35.9289757],[139.0540439,35.9289367],[139.0540393,35.928933],[139.0540294,35.9289252],[139.0540011,35.9288946],[139.053997,35.928888],[139.0539925,35.9288807],[139.0539854,35.9288691],[139.0539592,35.928809],[139.0539556,35.9288003],[139.0539519,35.9287913],[139.0539228,35.9287805],[139.0539199,35.9287782],[139.0539076,35.9287576],[139.0538815,35.9287298],[139.0538145,35.9286307],[139.0538558,35.928614],[139.05384,35.9285912],[139.0537185,35.928421],[139.0537093,35.9284125],[139.0536676,35.9284282],[139.053525,35.9282248],[139.0535615,35.9282066],[139.0535394,35.9281769],[139.053456,35.9280647],[139.0534411,35.9280722],[139.0534283,35.9280557],[139.0534683,35.9280363],[139.0534312,35.9279872],[139.0533903,35.9280066],[139.0533661,35.9279754],[139.0533019,35.9278877],[139.0532257,35.927768],[139.0532038,35.9277205],[139.0531431,35.9275114],[139.0531003,35.9273473],[139.0530951,35.9273077],[139.0530894,35.927267],[139.0530845,35.9272309],[139.0530818,35.9272006],[139.0530777,35.9271603],[139.053072,35.9271186],[139.0530653,35.9270763],[139.0530425,35.9270178],[139.0530295,35.9269853],[139.0529996,35.926914],[139.0529854,35.9268708],[139.0529768,35.9268384],[139.0529655,35.9267884],[139.0529609,35.926754],[139.052965,35.9267267],[139.0529866,35.9266894],[139.0529939,35.9266769],[139.0530402,35.9265971],[139.0530499,35.9265806],[139.05309,35.9265115],[139.0531117,35.9264788],[139.053125,35.9264589],[139.0531559,35.9264124],[139.0531597,35.9264021],[139.0531624,35.9263903],[139.0531672,35.9263705],[139.0531733,35.9263482],[139.0531869,35.926318],[139.0532037,35.9262972],[139.0532225,35.9262739],[139.0532766,35.9262317],[139.0532948,35.92622],[139.0533136,35.9262055],[139.0533284,35.9261886],[139.0533415,35.9261736],[139.0533717,35.9261475],[139.053393,35.9261252],[139.0533943,35.9261235],[139.0534775,35.9260622],[139.0535333,35.9260203],[139.0535456,35.9260081],[139.0535477,35.9259991],[139.0535476,35.9259865],[139.0535328,35.9259579],[139.0535209,35.9259502],[139.0534921,35.9259088],[139.0534676,35.9258809],[139.0534485,35.9258625],[139.0534244,35.9258366],[139.0534125,35.9258113],[139.0534032,35.9257807],[139.0533969,35.9257453],[139.0533969,35.9257445],[139.0533936,35.9257197],[139.0533908,35.9256994],[139.0533889,35.9256772],[139.0533882,35.9256555],[139.0533883,35.9256346],[139.0533875,35.9256105],[139.0533856,35.9255912],[139.0533843,35.925555],[139.0533872,35.9255211],[139.0533908,35.9254964],[139.0533949,35.9254558],[139.0533977,35.9254065],[139.0533966,35.925372],[139.0533905,35.9253327],[139.053387,35.9253093],[139.053383,35.9252946],[139.0533745,35.9252637],[139.0533737,35.9252455],[139.0534042,35.9252235],[139.0534225,35.9252106],[139.0534418,35.9251978],[139.053461,35.9251769],[139.0534746,35.9251578],[139.0534841,35.925139],[139.0534933,35.9251155],[139.0535037,35.9250932],[139.0535492,35.9250266],[139.0535498,35.9250241],[139.0535672,35.9250248],[139.053579,35.9250781],[139.0535788,35.925102],[139.0535826,35.9251198],[139.0535883,35.9251397],[139.053593,35.9251528],[139.0536004,35.9251687],[139.0536078,35.9251832],[139.05362,35.9252014],[139.0536319,35.9252236],[139.0536388,35.9252388],[139.0536435,35.925258],[139.0536416,35.9252906],[139.0535361,35.9252913],[139.0534806,35.9253521],[139.0534566,35.9253904],[139.053448,35.925433],[139.0534432,35.92549],[139.0534364,35.9255687],[139.0534366,35.9256254],[139.0534377,35.9256876],[139.0534392,35.9257186],[139.0534416,35.9257399],[139.0534439,35.9257596],[139.0534516,35.9257974],[139.0534592,35.925817],[139.0534806,35.9258544],[139.0535403,35.9259375],[139.0535481,35.925948],[139.0535659,35.9260037],[139.0535658,35.926016],[139.0535658,35.9260209],[139.0535699,35.9260242],[139.0535826,35.9260306],[139.0535959,35.9260303],[139.0536015,35.9260287],[139.0536125,35.9260272],[139.0536344,35.9260223],[139.0535929,35.926046],[139.0535602,35.9260594],[139.0535521,35.9260717],[139.0535438,35.9260814],[139.0535236,35.9261014],[139.0535193,35.9261057],[139.0534251,35.9261713],[139.0533907,35.926198],[139.0533674,35.9262173],[139.053348,35.9262337],[139.0533225,35.9262731],[139.0532657,35.9263776],[139.0532118,35.9264258],[139.0531872,35.92646],[139.0531281,35.9265717],[139.0530522,35.9267027],[139.0530191,35.9267336],[139.0530664,35.9269545],[139.0531808,35.9270705],[139.0532473,35.9273829],[139.053334,35.9277],[139.0533468,35.9277285],[139.0533916,35.9278025],[139.053506,35.9279481],[139.0534601,35.9279677],[139.0535022,35.92802],[139.0535457,35.9279989],[139.0535507,35.9280171],[139.0536375,35.9281295],[139.0536565,35.9281595],[139.0537056,35.9281351],[139.0537299,35.9281675],[139.0538565,35.9283365],[139.0538124,35.92836],[139.0539436,35.9285468],[139.0539538,35.9285741],[139.0540148,35.9286675],[139.0540371,35.9287008],[139.0540938,35.9287579],[139.0541103,35.9287769],[139.0541525,35.9288202],[139.0541781,35.9288394],[139.0542106,35.9288584],[139.0542359,35.928875],[139.0542676,35.928895],[139.0542922,35.9289122],[139.0543197,35.9289338],[139.0543387,35.9289473],[139.0543686,35.9289638],[139.0543998,35.9289765],[139.0544263,35.9289855],[139.0544608,35.9289948],[139.0544868,35.9290026],[139.0545221,35.9290128],[139.0545579,35.9290192],[139.0546028,35.9290285],[139.0546236,35.9290364],[139.0546393,35.9290423],[139.0546823,35.9290588],[139.0547175,35.9290675],[139.0547553,35.9290716],[139.0547978,35.9290753],[139.0548597,35.9290829],[139.0549041,35.9290882],[139.0549702,35.9290983],[139.0550057,35.9291068],[139.0550572,35.9291212],[139.0551041,35.9291332],[139.0551524,35.9291422],[139.0551782,35.9291456],[139.0552412,35.9291489],[139.0552579,35.9291498],[139.0552832,35.9291593],[139.0552944,35.9291649],[139.0553144,35.9291744],[139.0553961,35.9292073],[139.0554232,35.9292167],[139.0555034,35.9292407],[139.0555233,35.9292477],[139.0556173,35.9292767],[139.0556876,35.9293067],[139.0556989,35.9293139],[139.0557013,35.9293154],[139.0557846,35.9293562],[139.0558156,35.9293696],[139.0558813,35.9294121],[139.0558951,35.9294237],[139.055901,35.9294285],[139.0559084,35.9294345],[139.055962,35.9294813],[139.0559667,35.9294857],[139.055981,35.9294974],[139.0559977,35.9295059],[139.0560113,35.9295108],[139.0560866,35.9295346],[139.0560996,35.9295394],[139.0561956,35.9295692],[139.0562135,35.9295752],[139.0562756,35.9296059],[139.0562882,35.9296141],[139.056301,35.9296227],[139.0563881,35.9296717],[139.0564083,35.9296796],[139.0564878,35.9297056],[139.0565111,35.9297165],[139.056525,35.9297238],[139.0565686,35.9297547],[139.056575,35.9297607],[139.0566335,35.9298025],[139.0566489,35.9298135],[139.0566793,35.9298268],[139.0567002,35.9298337],[139.0567269,35.9298412],[139.0567898,35.929852],[139.0568271,35.9298542],[139.0568488,35.9298518],[139.0568651,35.9298481],[139.0568932,35.9298406],[139.0569837,35.9298079],[139.0570115,35.9297927],[139.0570815,35.9297453],[139.0570998,35.9297276],[139.057163,35.9296619],[139.0571802,35.9296469],[139.0572156,35.9296232],[139.0572241,35.9296174],[139.0572357,35.9296119],[139.0572381,35.9296107],[139.057253,35.9296081],[139.0573117,35.9296062],[139.0573248,35.9296021],[139.0573754,35.9295927],[139.0573911,35.9295951],[139.0573965,35.9295969],[139.0574134,35.9296054],[139.0574306,35.9296193],[139.0574877,35.9296687],[139.0574998,35.9296764],[139.0575841,35.9297232],[139.057597,35.9297321],[139.0576159,35.929747],[139.0576791,35.9297873],[139.0576933,35.9297955],[139.057721,35.9298078],[139.0577257,35.9298096],[139.0577297,35.929812],[139.0577316,35.9298138],[139.0577319,35.9298143],[139.0577352,35.9298177],[139.057739,35.9298192],[139.0577415,35.9298197],[139.0577468,35.9298205],[139.0577516,35.9298235],[139.0577627,35.929833],[139.0578024,35.9298674],[139.0578183,35.9298812],[139.0578208,35.9298853],[139.0578224,35.9298898],[139.057825,35.9298946],[139.0578269,35.9298963],[139.0578275,35.9298968],[139.0578297,35.9298988],[139.0578671,35.9299242],[139.0578769,35.9299287],[139.0578832,35.9299317],[139.0578894,35.9299352],[139.0579238,35.929961],[139.0579309,35.9299684],[139.0579421,35.9299818],[139.0579492,35.929992],[139.0579669,35.9300272],[139.0579694,35.9300336],[139.0579984,35.9300989],[139.0580057,35.9301107],[139.0580121,35.9301208],[139.0580466,35.9301788],[139.0580559,35.9302028],[139.0580644,35.9302518],[139.0580635,35.9302594],[139.0580579,35.9302707],[139.0580512,35.930278],[139.0580419,35.9302848],[139.0580269,35.9302945],[139.0580023,35.9303151],[139.0580009,35.9303236],[139.0580034,35.9303326],[139.0580117,35.9303464],[139.0580254,35.9303845],[139.0580243,35.9303901],[139.058021,35.9304098],[139.0580054,35.9304528],[139.0579987,35.9304669],[139.0579742,35.930534],[139.0579742,35.9305432],[139.0579743,35.930552],[139.0579797,35.9305824],[139.0579804,35.9305825],[139.0579823,35.9305831],[139.0579848,35.9305844],[139.0580037,35.9305912],[139.0580127,35.9305922],[139.0580187,35.9305922],[139.0580576,35.9305928],[139.0581493,35.9305967],[139.0582289,35.9305983],[139.0582388,35.930598],[139.0582538,35.9305983],[139.0582555,35.9305987],[139.0583111,35.9306192],[139.0583226,35.930624],[139.0583353,35.9306283],[139.0584259,35.9306585],[139.0584483,35.9306662],[139.0585253,35.9306918],[139.0585733,35.9307138],[139.058577,35.930718],[139.0585807,35.9307253],[139.0585837,35.9307352],[139.0585858,35.9307436],[139.0585888,35.9307568],[139.0586012,35.9308105],[139.0586078,35.9308335],[139.0586224,35.9308966],[139.0586395,35.9309308],[139.0586504,35.9309427],[139.0586817,35.9309696],[139.0586989,35.9309794],[139.0587108,35.930985],[139.0587775,35.9310194],[139.0587873,35.9310252],[139.0588544,35.9310531],[139.0588618,35.9310531],[139.0588808,35.931051],[139.0588864,35.9310492],[139.0588943,35.9310454],[139.0588996,35.9310428],[139.0589055,35.9310412],[139.0589169,35.9310406],[139.0589423,35.931041],[139.0590054,35.9310421],[139.0590231,35.9310443],[139.0590443,35.9310488],[139.0590602,35.9310532],[139.0591295,35.9310816],[139.0591418,35.9310873],[139.059216,35.9311166],[139.0592263,35.931123],[139.0592406,35.9311333],[139.0592526,35.9311433],[139.0592776,35.9311725],[139.0592773,35.9311786],[139.0592716,35.9311998],[139.0592693,35.9312037],[139.0592591,35.9312141],[139.0592472,35.9312232],[139.0592036,35.9312737],[139.0592023,35.9312872],[139.0592038,35.9312954],[139.0592075,35.9313033],[139.0592165,35.9313154],[139.0592686,35.931372],[139.0593171,35.9314354],[139.0593261,35.9314475],[139.059331,35.9314543],[139.0593436,35.9314724],[139.0593543,35.9314937],[139.0593605,35.9315096],[139.0593788,35.9315725],[139.0593799,35.931585],[139.0593798,35.9315947],[139.0593826,35.9316121],[139.0593874,35.9316185],[139.0593931,35.9316219],[139.0594071,35.9316242],[139.0594185,35.9316241],[139.0594307,35.9316239],[139.059456,35.9316242],[139.0594643,35.9316253],[139.0594673,35.9316259],[139.0594748,35.9316291],[139.0594747,35.9316347],[139.0594696,35.9316398],[139.0594561,35.931647],[139.0594447,35.9316509],[139.0594298,35.9316564],[139.0594244,35.9316606],[139.0594239,35.9316686],[139.0594272,35.9316772],[139.0594315,35.931682],[139.0594377,35.931686],[139.0594501,35.931687],[139.0594591,35.9316838],[139.0594728,35.9316747],[139.0594867,35.9316647],[139.0594971,35.9316588],[139.0595092,35.9316548],[139.0595295,35.9316534],[139.0595514,35.9316557],[139.0596372,35.9316605],[139.0596506,35.9316594],[139.0596557,35.931659],[139.0596665,35.9316579],[139.0597447,35.9316573],[139.0598255,35.9316622],[139.05984,35.9316666],[139.0598488,35.9316713],[139.0598577,35.9316777],[139.059871,35.9316897],[139.0598853,35.931704],[139.0599316,35.9317677],[139.059934,35.9317808],[139.0599452,35.9318538],[139.0599659,35.9319115],[139.0599724,35.9319193],[139.0599796,35.9319275],[139.0599832,35.9319303]]]},"properties":{"layer":"landuse","class_code":"204","class_label":"水面（河川水面、湖沼、ため池、用水路、濠、運河水面）"}},{"type":"Feature","id":"luse_89263b3d-f3ca-4c64-9dfe-a4c345282053","geometry":{"type":"Polygon","coordinates":[[[139.05957858556997,35.93333333333333],[139.0595765,35.9333301],[139.0595344,35.9332639],[139.059492,35.9332103],[139.0594701,35.9331932],[139.0593947,35.9331334],[139.0593857,35.9331256],[139.0593256,35.9330594],[139.0593142,35.9330377],[139.0592875,35.9329999],[139.0592784,35.9329878],[139.059276,35.9329807],[139.0592782,35.9329703],[139.0592832,35.9329627],[139.0592897,35.9329321],[139.0592867,35.9329277],[139.0592766,35.9329189],[139.0592761,35.9329186],[139.0592604,35.9329097],[139.0592389,35.9328937],[139.0592281,35.932878],[139.0592289,35.932867],[139.0592321,35.9328571],[139.0592328,35.9328501],[139.0592343,35.9328315],[139.0592345,35.9328299],[139.0592305,35.9328169],[139.0592229,35.9327985],[139.0592123,35.9327764],[139.0591758,35.9327089],[139.0591393,35.9326339],[139.0591069,35.93257],[139.0591008,35.9325564],[139.0590708,35.9324892],[139.0595614,35.9322224],[139.0599958,35.9319884],[139.0599984,35.931987],[139.0600269,35.9319716],[139.0600399,35.9319864],[139.0600425,35.9319989],[139.0600427,35.9320106],[139.0600425,35.9320216],[139.0600492,35.9320884],[139.060052,35.9321002],[139.0600564,35.9321186],[139.0600624,35.9321803],[139.0600599,35.9321937],[139.0600607,35.9322015],[139.0600628,35.9322128],[139.0600669,35.9322248],[139.0600707,35.9322356],[139.060074,35.9322459],[139.0600822,35.9322599],[139.0600935,35.9322712],[139.0601179,35.9322892],[139.0601239,35.9322952],[139.0601267,35.9323001],[139.060134,35.9323186],[139.0601348,35.9323336],[139.06013,35.9323588],[139.0601244,35.9323715],[139.0601233,35.9323756],[139.0601264,35.9323875],[139.0601335,35.9323993],[139.0601376,35.9324063],[139.0601407,35.9324146],[139.0601411,35.9324199],[139.0601411,35.9324276],[139.0601519,35.9324852],[139.0601618,35.9324904],[139.060174,35.932494],[139.0601743,35.932494],[139.0602109,35.9324924],[139.0602336,35.932485],[139.0602549,35.9324743],[139.0602702,35.9324601],[139.0602739,35.9324544],[139.0603109,35.9323923],[139.0603184,35.9323852],[139.0603321,35.9323755],[139.0603428,35.9323688],[139.0603604,35.9323564],[139.0604183,35.9323087],[139.0604815,35.9322522],[139.0605299,35.9321986],[139.0605442,35.9321837],[139.0605877,35.9321494],[139.0606615,35.9320844],[139.0606758,35.9320687],[139.0607395,35.9320084],[139.0607556,35.9319951],[139.0607784,35.9319775],[139.0608395,35.9319242],[139.0608529,35.931914],[139.0608897,35.9318926],[139.0609051,35.9318871],[139.0609276,35.9318842],[139.060928,35.9318841],[139.0609506,35.9318841],[139.060974,35.9318811],[139.0609894,35.9318766],[139.061004,35.93187],[139.0610229,35.9318576],[139.0610559,35.9318421],[139.061072,35.9318383],[139.0611236,35.931816],[139.0611239,35.931816],[139.0611385,35.9318015],[139.0611486,35.9317931],[139.0611602,35.9317875],[139.0611807,35.9317853],[139.0611964,35.931786],[139.0612506,35.9317847],[139.0612902,35.9317774],[139.0613804,35.9317557],[139.0614222,35.9317407],[139.0614342,35.9317321],[139.0614464,35.931714],[139.0614586,35.9316911],[139.0614793,35.931634],[139.0614779,35.9316141],[139.061475,35.9316037],[139.061476,35.9315665],[139.0614823,35.9315556],[139.0614912,35.9315441],[139.0614949,35.9315405],[139.0615081,35.9315307],[139.0615244,35.9315247],[139.0615357,35.9315223],[139.06161,35.9314958],[139.061687,35.9314736],[139.0616952,35.9314714],[139.061703,35.9314693],[139.0617934,35.931449],[139.0618144,35.9314482],[139.0618374,35.9314475],[139.0619329,35.9314422],[139.0619332,35.9314422],[139.0619475,35.9314416],[139.0620545,35.9314383],[139.0620802,35.9314382],[139.0621583,35.931432],[139.0622549,35.9314224],[139.0622765,35.9314206],[139.0622768,35.9314205],[139.0622927,35.9314165],[139.0623009,35.9314125],[139.0623068,35.9314072],[139.0623158,35.9313966],[139.0623225,35.9313875],[139.0623576,35.9313146],[139.0623653,35.9312879],[139.0623767,35.9312228],[139.0623781,35.9311956],[139.0623784,35.9311695],[139.0623826,35.9310987],[139.0623829,35.931074],[139.0623972,35.9309894],[139.0624023,35.9309635],[139.0624208,35.9308927],[139.0624325,35.930871],[139.0624587,35.9308066],[139.062463,35.9307891],[139.062469,35.9307648],[139.0624799,35.9306899],[139.0624772,35.9306737],[139.0624619,35.9306348],[139.0624562,35.9306257],[139.0624513,35.9306192],[139.0624439,35.9306016],[139.0624509,35.9305974],[139.062463,35.9305958],[139.0624729,35.9305963],[139.0625,35.93059563902439],[139.0625,35.932860559284116],[139.0624654,35.9328671],[139.0623885,35.9328822],[139.0622978,35.9329015],[139.0622975,35.9329015],[139.0622693,35.9329071],[139.0622324,35.9329161],[139.0622321,35.9329162],[139.0621531,35.9329345],[139.0621528,35.9329346],[139.062115,35.9329392],[139.0621146,35.9329392],[139.0620183,35.9329712],[139.0620008,35.9329794],[139.0619762,35.9329918],[139.0619043,35.9330316],[139.061893,35.9330394],[139.061867,35.9330586],[139.0618426,35.93308],[139.061799,35.9331341],[139.0617794,35.9331559],[139.0617241,35.9332064],[139.0616654,35.9332634],[139.0616191,35.9333077],[139.0615949,35.933324],[139.0615871,35.9333299],[139.06158138417132,35.93333333333333],[139.05957858556997,35.93333333333333]]]},"properties":{"layer":"landuse","class_code":"204","class_label":"水面（河川水面、湖沼、ため池、用水路、濠、運河水面）"}},{"type":"Feature","id":"luse_c6b7732b-5e42-42c1-8fa8-af47f215eeaf","geometry":{"type":"Polygon","coordinates":[[[139.0525698,35.9267373],[139.0518921,35.9271467],[139.0517941,35.9271953],[139.0517148,35.9272308],[139.0515954,35.9272873],[139.0512601,35.9268625],[139.0512804,35.9268397],[139.0513106,35.9268094],[139.05134,35.9267827],[139.0513739,35.9267552],[139.0514096,35.9267292],[139.0514467,35.9267047],[139.0514859,35.9266821],[139.0515181,35.9266652],[139.0516516,35.9266092],[139.0516759,35.9265998],[139.0516762,35.9265997],[139.0518135,35.9265509],[139.0518139,35.9265508],[139.051831,35.9265455],[139.0519377,35.926513],[139.0520909,35.9264627],[139.0520912,35.9264626],[139.0521016,35.9264591],[139.0524281,35.9263528],[139.0524284,35.9263527],[139.0526153,35.9263069],[139.0529822,35.9262249],[139.0530235,35.9262175],[139.0530566,35.9262102],[139.0530968,35.9261996],[139.0531094,35.9261958],[139.0531269,35.9261918],[139.0531272,35.9261917],[139.0531444,35.9261869],[139.0531614,35.9261812],[139.053171,35.9261777],[139.0531874,35.9261709],[139.0532033,35.9261635],[139.0532186,35.9261553],[139.0532335,35.9261464],[139.0532477,35.9261369],[139.0532612,35.9261268],[139.053266,35.9261229],[139.0532819,35.9261066],[139.0532967,35.9260897],[139.0533083,35.9260748],[139.0533415,35.9261736],[139.0533284,35.9261886],[139.0533136,35.9262055],[139.0532948,35.92622],[139.0532766,35.9262317],[139.0532225,35.9262739],[139.0532037,35.9262972],[139.0531869,35.926318],[139.0531733,35.9263482],[139.0531672,35.9263705],[139.0531624,35.9263903],[139.0531597,35.9264021],[139.0531559,35.9264124],[139.053125,35.9264589],[139.0531117,35.9264788],[139.05309,35.9265115],[139.0530499,35.9265806],[139.0530402,35.9265971],[139.0529939,35.9266769],[139.0529866,35.9266894],[139.0528755,35.9267112],[139.0526238,35.9267056],[139.0525698,35.9267373]]]},"properties":{"layer":"landuse","class_code":"205","class_label":"その他自然地（原野・牧野、荒れ地（耕作放棄地等自然的状況のもの）、低湿地、河川敷・河原、海浜、湖岸）"}},{"type":"Feature","id":"luse_6ecb90c3-66d7-4027-8d9c-14e7a9dec7de","geometry":{"type":"Polygon","coordinates":[[[139.0537299,35.9281675],[139.0537056,35.9281351],[139.0536565,35.9281595],[139.0536375,35.9281295],[139.0535507,35.9280171],[139.0535457,35.9279989],[139.0535022,35.92802],[139.0534601,35.9279677],[139.053506,35.9279481],[139.0533916,35.9278025],[139.0533468,35.9277285],[139.053334,35.9277],[139.0532473,35.9273829],[139.0531808,35.9270705],[139.0530664,35.9269545],[139.0530191,35.9267336],[139.0530522,35.9267027],[139.0531281,35.9265717],[139.0531872,35.92646],[139.0532118,35.9264258],[139.0532657,35.9263776],[139.0533225,35.9262731],[139.053348,35.9262337],[139.0533674,35.9262173],[139.0533907,35.926198],[139.0534251,35.9261713],[139.0535193,35.9261057],[139.0535236,35.9261014],[139.0535397,35.9261308],[139.0535577,35.9261638],[139.0536738,35.9262897],[139.05378,35.9262964],[139.0539158,35.9262704],[139.0541009,35.9260898],[139.0543285,35.9260495],[139.054487,35.9259552],[139.0545534,35.9259079],[139.0546083,35.9259142],[139.0546189,35.925956],[139.0545874,35.9261824],[139.0545117,35.9264293],[139.0544516,35.926572],[139.0544273,35.9268163],[139.0540887,35.9277039],[139.0539313,35.9280561],[139.0537299,35.9281675]]]},"properties":{"layer":"landuse","class_code":"205","class_label":"その他自然地（原野・牧野、荒れ地（耕作放棄地等自然的状況のもの）、低湿地、河川敷・河原、海浜、湖岸）"}},{"type":"Feature","id":"luse_992a0a42-8e40-4231-af38-10d8c7d75d20","geometry":{"type":"Polygon","coordinates":[[[139.0590409,35.9324403],[139.0585518,35.9327064],[139.0585357,35.9326904],[139.0585119,35.9326948],[139.0584163,35.9326042],[139.0584017,35.9325916],[139.0583881,35.9325782],[139.0583756,35.9325641],[139.0583642,35.9325494],[139.0583595,35.9325427],[139.0583498,35.9325273],[139.0583413,35.9325113],[139.058334,35.932495],[139.0583281,35.9324783],[139.0583235,35.9324614],[139.0583219,35.9324539],[139.0583155,35.9324292],[139.0583072,35.9324048],[139.058297,35.9323809],[139.0582912,35.9323693],[139.0582784,35.9323463],[139.0582638,35.932324],[139.0582473,35.9323025],[139.0582294,35.932282],[139.0582097,35.9322624],[139.0581887,35.9322438],[139.0580669,35.9321679],[139.0579264,35.9320885],[139.0579024,35.9320749],[139.0578884,35.9320662],[139.0578791,35.9320606],[139.0578563,35.9320456],[139.0578341,35.9320299],[139.0578131,35.9320136],[139.0578078,35.9320093],[139.0577876,35.9319921],[139.0577679,35.9319744],[139.0577493,35.931956],[139.0577316,35.9319372],[139.0577273,35.9319323],[139.0577177,35.931922],[139.0577133,35.9319177],[139.0577075,35.9319119],[139.0576968,35.9319021],[139.0576857,35.9318927],[139.0576742,35.9318836],[139.0576663,35.9318778],[139.0576541,35.9318693],[139.0576416,35.9318612],[139.0576287,35.9318535],[139.0576153,35.9318462],[139.0576135,35.9318453],[139.0576017,35.9318393],[139.0575878,35.9318328],[139.0575733,35.9318268],[139.0575589,35.9318212],[139.0575441,35.9318161],[139.0575291,35.9318114],[139.0575233,35.9318098],[139.057523,35.9318097],[139.0575105,35.931807],[139.0574979,35.9318039],[139.0574855,35.9318004],[139.0574734,35.9317966],[139.057473,35.9317965],[139.0574611,35.9317922],[139.0574495,35.9317876],[139.0574379,35.9317827],[139.0574375,35.9317826],[139.0574264,35.9317773],[139.0574152,35.9317716],[139.0574073,35.9317672],[139.0573968,35.9317609],[139.0573863,35.9317544],[139.0573763,35.9317475],[139.0573664,35.9317403],[139.0573572,35.9317328],[139.0573482,35.9317249],[139.0573395,35.9317169],[139.0573313,35.9317086],[139.0573234,35.9317],[139.057316,35.9316912],[139.0573089,35.9316821],[139.0573022,35.9316729],[139.0572961,35.9316635],[139.0572903,35.9316539],[139.057285,35.931644],[139.0572841,35.9316422],[139.0572811,35.9316371],[139.0572784,35.9316318],[139.057276,35.9316264],[139.0572738,35.931621],[139.0572718,35.9316156],[139.0572702,35.93161],[139.0572687,35.9316044],[139.0572674,35.9315987],[139.0572667,35.9315929],[139.057266,35.9315872],[139.0572657,35.9315815],[139.0572656,35.9315759],[139.0572657,35.9315702],[139.0572662,35.9315645],[139.0572666,35.9315613],[139.057267,35.9315588],[139.0572675,35.931555],[139.0572827,35.9314406],[139.0572862,35.9314065],[139.0572916,35.9313399],[139.0572908,35.9313306],[139.0572895,35.9313214],[139.057288,35.9313122],[139.0572859,35.9313031],[139.0572834,35.931294],[139.0572805,35.9312851],[139.0572771,35.9312763],[139.0572734,35.9312675],[139.0572693,35.9312588],[139.0572673,35.9312551],[139.0572627,35.9312467],[139.0572576,35.9312384],[139.0572521,35.9312303],[139.0572462,35.9312223],[139.0572399,35.9312145],[139.0572334,35.9312069],[139.0572265,35.9311996],[139.0572192,35.9311924],[139.0572116,35.9311855],[139.0572037,35.9311789],[139.0571955,35.9311724],[139.057187,35.9311663],[139.0571782,35.9311603],[139.0571751,35.9311585],[139.0571563,35.9311482],[139.0571371,35.9311384],[139.0571174,35.9311293],[139.0570974,35.9311207],[139.057077,35.9311128],[139.0570628,35.9311078],[139.0570624,35.9311077],[139.0570417,35.931101],[139.0570413,35.9311009],[139.0570204,35.9310948],[139.05702,35.9310947],[139.057011,35.9310923],[139.0569957,35.9310899],[139.0569807,35.931087],[139.0569803,35.9310869],[139.0569654,35.9310835],[139.0569505,35.9310797],[139.056936,35.9310754],[139.0569357,35.9310753],[139.0569234,35.9310713],[139.056923,35.9310712],[139.0569089,35.9310661],[139.056895,35.9310606],[139.0568947,35.9310604],[139.0568811,35.9310545],[139.0568678,35.931048],[139.0568547,35.9310412],[139.0568418,35.931034],[139.0568293,35.9310263],[139.0568172,35.9310183],[139.0568054,35.9310099],[139.0567941,35.9310012],[139.0567831,35.9309921],[139.0567727,35.9309827],[139.056763,35.9309734],[139.0566186,35.9308153],[139.0565864,35.9307782],[139.0564511,35.9306148],[139.0564399,35.9306006],[139.056424,35.9305882],[139.0564074,35.9305762],[139.0563903,35.9305647],[139.0563727,35.9305538],[139.0563545,35.9305435],[139.0563497,35.9305408],[139.0563307,35.9305312],[139.0563116,35.9305221],[139.056292,35.9305136],[139.0562721,35.9305057],[139.056252,35.9304985],[139.0562516,35.9304984],[139.0562419,35.9304951],[139.056092,35.9304337],[139.0558783,35.9303388],[139.0558179,35.9303103],[139.0557923,35.9302979],[139.0557677,35.9302843],[139.0557442,35.9302697],[139.055741,35.9302676],[139.0557186,35.9302517],[139.0556971,35.930235],[139.055677,35.9302173],[139.0556581,35.9301987],[139.0556446,35.9301841],[139.0556328,35.9301718],[139.055622,35.930159],[139.055612,35.9301458],[139.0556057,35.9301365],[139.0555972,35.9301225],[139.0555897,35.9301082],[139.0555832,35.9300937],[139.0555777,35.9300788],[139.0555765,35.9300753],[139.0555664,35.9300507],[139.0555547,35.9300266],[139.0555413,35.9300031],[139.0555264,35.9299802],[139.0555232,35.9299757],[139.0555065,35.9299536],[139.0554883,35.9299323],[139.0554688,35.9299119],[139.0554478,35.9298924],[139.0554256,35.9298737],[139.0554022,35.9298562],[139.0554015,35.9298556],[139.0552522,35.9297657],[139.0552087,35.9297413],[139.055016,35.9296311],[139.0548096,35.9295028],[139.0547751,35.9294778],[139.0547462,35.9294545],[139.0547152,35.9294267],[139.0546861,35.9293975],[139.0546782,35.9293891],[139.0546586,35.9293715],[139.0546378,35.9293548],[139.0546157,35.9293391],[139.0545928,35.9293243],[139.0545806,35.9293171],[139.0545565,35.9293039],[139.0545313,35.9292918],[139.0545052,35.9292809],[139.0544787,35.9292712],[139.0544784,35.9292711],[139.0544512,35.9292626],[139.0544507,35.9292625],[139.0544236,35.9292553],[139.0544233,35.9292552],[139.0544086,35.9292519],[139.054399,35.9292512],[139.0543959,35.929251],[139.0543766,35.9292497],[139.0543763,35.9292497],[139.0543445,35.9292461],[139.0543127,35.9292411],[139.0542923,35.9292371],[139.0542615,35.9292298],[139.0542611,35.9292297],[139.0542429,35.9292247],[139.0542425,35.9292246],[139.0542237,35.92922],[139.054205,35.9292146],[139.0541869,35.9292082],[139.0541691,35.9292011],[139.0541668,35.9292001],[139.0541493,35.9291921],[139.0541328,35.9291834],[139.0541167,35.9291739],[139.0541013,35.9291638],[139.0540866,35.9291529],[139.0540726,35.9291415],[139.0540594,35.9291294],[139.0540471,35.9291168],[139.0540453,35.9291148],[139.0539515,35.9290073],[139.0539314,35.9289827],[139.0538522,35.9288778],[139.0538466,35.9288704],[139.0537989,35.9288005],[139.0537019,35.9286178],[139.0536128,35.9284476],[139.0536053,35.9284377],[139.0535971,35.928428],[139.0535884,35.9284187],[139.053579,35.9284099],[139.053569,35.9284015],[139.0535583,35.9283936],[139.0535533,35.9283899],[139.0535419,35.9283826],[139.0535302,35.9283759],[139.0535179,35.9283698],[139.0535053,35.9283641],[139.053501,35.9283623],[139.0534877,35.9283602],[139.0534874,35.9283601],[139.0534741,35.9283586],[139.0534738,35.9283585],[139.0534712,35.9283584],[139.0534703,35.9283583],[139.0534602,35.9283576],[139.0534577,35.9283575],[139.053444,35.9283572],[139.0534305,35.9283576],[139.0534301,35.9283576],[139.0534166,35.9283586],[139.0534137,35.9283589],[139.053403,35.9283602],[139.0533898,35.9283624],[139.0533894,35.9283624],[139.0533763,35.9283651],[139.0533669,35.9283675],[139.0535109,35.9281951],[139.0534411,35.9280722],[139.053456,35.9280647],[139.0535394,35.9281769],[139.0535615,35.9282066],[139.053525,35.9282248],[139.0536676,35.9284282],[139.0537093,35.9284125],[139.0537185,35.928421],[139.05384,35.9285912],[139.0538558,35.928614],[139.0538145,35.9286307],[139.0538815,35.9287298],[139.0539076,35.9287576],[139.0539199,35.9287782],[139.0539228,35.9287805],[139.0539519,35.9287913],[139.0539556,35.9288003],[139.0539592,35.928809],[139.0539854,35.9288691],[139.0539925,35.9288807],[139.053997,35.928888],[139.0540011,35.9288946],[139.0540294,35.9289252],[139.0540393,35.928933],[139.0540439,35.9289367],[139.0541111,35.9289757],[139.0541858,35.9290172],[139.0541904,35.9290196],[139.0541927,35.9290205],[139.0542011,35.9290231],[139.0542313,35.929032],[139.0542486,35.9290396],[139.0542594,35.9290442],[139.0542971,35.9290553],[139.0543179,35.9290614],[139.0543294,35.9290634],[139.0543482,35.9290664],[139.0543863,35.9290749],[139.0543988,35.9290796],[139.054445,35.929096],[139.0544561,35.9290984],[139.0544698,35.9291026],[139.0544891,35.9291062],[139.0544919,35.9291071],[139.0544933,35.9291075],[139.0545062,35.9291141],[139.0545078,35.9291155],[139.0545161,35.9291228],[139.0545217,35.9291288],[139.0545729,35.9291503],[139.0545747,35.9291512],[139.0545884,35.9291548],[139.0546082,35.9291597],[139.0546542,35.9291654],[139.0546545,35.9291655],[139.0546735,35.9291658],[139.0546739,35.9291658],[139.0546822,35.9291652],[139.0547023,35.9291616],[139.0547026,35.9291615],[139.0547601,35.9291644],[139.0548418,35.9291804],[139.0548631,35.9291838],[139.0548843,35.9291875],[139.054969,35.9292053],[139.0549881,35.929211],[139.055066,35.9292403],[139.0551438,35.9292747],[139.0552221,35.9293164],[139.0552224,35.9293165],[139.0552392,35.9293237],[139.0553193,35.92935],[139.055414,35.929374],[139.0554796,35.9293953],[139.0554799,35.9293955],[139.0555478,35.9294273],[139.0555573,35.9294326],[139.0555672,35.9294424],[139.0555691,35.9294463],[139.0555703,35.9294603],[139.0555647,35.929476],[139.0555604,35.9294867],[139.0555575,35.9294975],[139.055552,35.9295727],[139.0555511,35.9295819],[139.055552,35.929592],[139.0555937,35.9296487],[139.055599,35.9296537],[139.055614,35.9296665],[139.0556451,35.9296856],[139.0556582,35.9296915],[139.0556773,35.9296998],[139.0557149,35.9297276],[139.055727,35.9297421],[139.0557362,35.9297516],[139.0557481,35.9297608],[139.0557638,35.9297714],[139.0557708,35.9297783],[139.0557734,35.9297859],[139.0557738,35.9297977],[139.0557744,35.9298062],[139.0557815,35.9298196],[139.0558367,35.9298719],[139.0558429,35.9298772],[139.0558596,35.9298902],[139.0558758,35.9298995],[139.0558862,35.9299038],[139.0558947,35.9299056],[139.0559088,35.9299056],[139.0559259,35.929907],[139.0559603,35.9299398],[139.0559696,35.9299543],[139.0559758,35.9299633],[139.0560109,35.9299947],[139.0560162,35.9299985],[139.0560322,35.9300102],[139.0560471,35.9300428],[139.0560488,35.930055],[139.0560721,35.9300833],[139.0560901,35.9300988],[139.0561074,35.9301091],[139.0561262,35.9301177],[139.0561377,35.9301224],[139.0561503,35.9301257],[139.0561993,35.9301493],[139.0562111,35.9301579],[139.0562715,35.9302101],[139.0562836,35.9302206],[139.0563387,35.9302694],[139.0563459,35.9302764],[139.0563537,35.9302821],[139.0563952,35.9302765],[139.0564067,35.9302734],[139.056407,35.9302733],[139.0564103,35.9302727],[139.0564196,35.9302729],[139.0564268,35.9302763],[139.056431,35.9302799],[139.0564355,35.9302844],[139.0564446,35.9302899],[139.0564543,35.9302921],[139.0564547,35.9302922],[139.0564727,35.930295],[139.0565556,35.9302961],[139.0565718,35.9302947],[139.0565721,35.9302947],[139.0566086,35.9302979],[139.0566354,35.9303053],[139.0566562,35.930311],[139.0567435,35.9303271],[139.056765,35.9303302],[139.0567653,35.9303302],[139.0567961,35.9303319],[139.0568157,35.9303303],[139.0568475,35.9303253],[139.0568686,35.9303212],[139.0569424,35.9302904],[139.0569554,35.9302827],[139.0569689,35.9302756],[139.0569947,35.9302679],[139.0571027,35.9302706],[139.0571221,35.9302714],[139.057148,35.9302704],[139.0572161,35.9302321],[139.0572299,35.9302218],[139.0572466,35.9302174],[139.057259,35.9302199],[139.0572711,35.9302251],[139.057285,35.9302384],[139.0572915,35.9302572],[139.0572909,35.9302718],[139.0572619,35.930341],[139.0572523,35.930357],[139.0572496,35.9303623],[139.0572455,35.9303764],[139.0572478,35.930389],[139.0572789,35.9304234],[139.0572879,35.9304309],[139.0573007,35.9304421],[139.0573183,35.9304639],[139.0573391,35.93051],[139.0573431,35.9305271],[139.0573441,35.9305436],[139.0573395,35.9305689],[139.0573029,35.9306345],[139.057294,35.9306453],[139.0572835,35.9306584],[139.0572796,35.930666],[139.0572803,35.9306764],[139.0572853,35.9306822],[139.0573071,35.9306955],[139.0573222,35.9307012],[139.0573477,35.9307105],[139.0573694,35.9307233],[139.0573752,35.9307279],[139.0573912,35.9307432],[139.0574197,35.9307626],[139.0574603,35.9307788],[139.0575288,35.9308151],[139.0575496,35.9308293],[139.0575634,35.9308389],[139.0575827,35.9308544],[139.0575927,35.9308691],[139.0576056,35.9309205],[139.0576058,35.9309358],[139.0576073,35.9309479],[139.0576115,35.9309541],[139.0576176,35.9309599],[139.0576293,35.9309691],[139.0576759,35.9310347],[139.0576885,35.931063],[139.0577092,35.931132],[139.0577129,35.9311502],[139.0577215,35.9312283],[139.0577243,35.9312463],[139.0577278,35.9312641],[139.0577376,35.9312902],[139.057752,35.9313129],[139.0577988,35.9313671],[139.0578205,35.9313901],[139.057835,35.9314051],[139.0578778,35.9314581],[139.0578959,35.9314814],[139.0579548,35.9315286],[139.0579819,35.9315471],[139.0579933,35.9315555],[139.0580523,35.931606],[139.0580844,35.9316315],[139.0581042,35.9316425],[139.058129,35.9316543],[139.0581463,35.9316602],[139.0582287,35.9316771],[139.0582291,35.9316771],[139.0582569,35.9316796],[139.0582793,35.9316822],[139.0582796,35.9316823],[139.0583627,35.9317024],[139.058399,35.9317138],[139.0584786,35.9317336],[139.0585042,35.931737],[139.0585045,35.931737],[139.0585353,35.9317419],[139.0585547,35.9317471],[139.0586391,35.9317467],[139.0586544,35.9317456],[139.0586547,35.9317455],[139.0586892,35.9317693],[139.0586998,35.9317814],[139.0587034,35.9317856],[139.0587335,35.9318555],[139.0587462,35.931892],[139.0587485,35.9319084],[139.0587489,35.9319191],[139.0587472,35.9319335],[139.0587483,35.9319417],[139.0587522,35.9319504],[139.0587546,35.9319655],[139.0587958,35.932029],[139.0588036,35.9320394],[139.0588096,35.9320518],[139.058809,35.9320635],[139.0588054,35.9320719],[139.0588028,35.9320811],[139.0588055,35.9320915],[139.0588183,35.9321149],[139.0588225,35.9321265],[139.0588252,35.9321373],[139.0588256,35.9321513],[139.0588176,35.9321636],[139.0588145,35.9321669],[139.0588073,35.9322043],[139.0588082,35.9322141],[139.058809,35.9322239],[139.0588065,35.9322386],[139.0588004,35.9322535],[139.0587985,35.9322584],[139.058831,35.9322931],[139.0588511,35.9323145],[139.0588625,35.9323233],[139.0588713,35.9323348],[139.0588727,35.9323475],[139.0588703,35.9323551],[139.0588686,35.9323621],[139.0589034,35.9323754],[139.0589164,35.9323773],[139.0589681,35.9323808],[139.0589728,35.9323806],[139.0589962,35.9323844],[139.0589966,35.9323844],[139.0590095,35.9323962],[139.0590186,35.9324081],[139.0590409,35.9324403]]]},"properties":{"layer":"landuse","class_code":"205","class_label":"その他自然地（原野・牧野、荒れ地（耕作放棄地等自然的状況のもの）、低湿地、河川敷・河原、海浜、湖岸）"}},{"type":"Feature","id":"luse_9832e9c0-bea4-4d1d-92a4-9c52eb7e4f4b","geometry":{"type":"Polygon","coordinates":[[[139.0575836,35.9319389],[139.0575931,35.9319454],[139.0575981,35.9319493],[139.0576069,35.9319562],[139.0576153,35.9319632],[139.057623,35.9319704],[139.0576307,35.9319779],[139.0576385,35.9319861],[139.0576426,35.931991],[139.0576626,35.9320121],[139.0576837,35.9320331],[139.057706,35.9320534],[139.0577289,35.9320726],[139.057736,35.9320783],[139.0577597,35.9320966],[139.0577849,35.9321145],[139.0578109,35.9321316],[139.0578375,35.932148],[139.0578632,35.9321624],[139.0580013,35.9322406],[139.0581136,35.9323107],[139.058126,35.9323215],[139.0581409,35.9323366],[139.0581551,35.9323525],[139.0581675,35.9323691],[139.058179,35.9323864],[139.0581894,35.9324047],[139.0581932,35.9324124],[139.0582013,35.9324316],[139.0582078,35.9324504],[139.058213,35.9324709],[139.0582147,35.9324789],[139.0582207,35.9325007],[139.0582286,35.9325228],[139.0582381,35.9325446],[139.0582494,35.9325657],[139.0582617,35.9325855],[139.0582691,35.9325959],[139.0582836,35.9326147],[139.0583004,35.9326334],[139.0583185,35.9326512],[139.0583339,35.9326645],[139.0584225,35.9327484],[139.0584313,35.9327602],[139.0584397,35.9327722],[139.0584473,35.9327844],[139.0584545,35.9327969],[139.0584571,35.9328015],[139.0584634,35.9328143],[139.0584691,35.9328273],[139.0584744,35.9328405],[139.0584788,35.9328537],[139.0584829,35.9328672],[139.058486,35.9328807],[139.0584863,35.932881],[139.0585055,35.9329424],[139.0585168,35.9329849],[139.0585314,35.9330471],[139.0585429,35.9331099],[139.0585478,35.9331436],[139.0585475,35.9331434],[139.0585186,35.9331187],[139.0585129,35.9331085],[139.0584813,35.932992],[139.0584788,35.9329738],[139.0584756,35.9329557],[139.0584714,35.9329376],[139.0584663,35.9329197],[139.0584604,35.932902],[139.0584535,35.9328845],[139.0584506,35.9328779],[139.0584426,35.9328607],[139.0584337,35.9328439],[139.058424,35.9328273],[139.0584134,35.932811],[139.058402,35.9327952],[139.0583898,35.9327797],[139.058377,35.9327647],[139.0583678,35.9327547],[139.0583487,35.9327398],[139.0583341,35.9327291],[139.0583137,35.9327152],[139.0582924,35.9327021],[139.0582869,35.9326989],[139.0582752,35.932693],[139.058264,35.9326866],[139.058253,35.93268],[139.0582423,35.9326729],[139.0582319,35.9326655],[139.0582219,35.9326578],[139.0582124,35.9326497],[139.0582032,35.9326413],[139.0582016,35.9326398],[139.0581929,35.9326311],[139.0581848,35.9326221],[139.058177,35.9326128],[139.0581697,35.9326033],[139.0581629,35.9325937],[139.0581566,35.9325837],[139.0581507,35.9325736],[139.0581455,35.9325633],[139.0581406,35.9325528],[139.0581364,35.9325421],[139.0581326,35.9325313],[139.0581295,35.9325204],[139.0581269,35.9325094],[139.0581247,35.9324983],[139.0581243,35.9324957],[139.0581197,35.9324858],[139.0581145,35.9324762],[139.058109,35.9324667],[139.0581029,35.9324573],[139.0580964,35.9324483],[139.0580894,35.9324394],[139.0580843,35.9324333],[139.0580766,35.9324249],[139.0580685,35.9324167],[139.05806,35.9324088],[139.0580511,35.9324011],[139.0580418,35.9323938],[139.0580322,35.9323868],[139.0580222,35.93238],[139.0580118,35.9323737],[139.0580011,35.9323677],[139.0579903,35.9323619],[139.0579815,35.9323577],[139.0578568,35.9323169],[139.0578312,35.932309],[139.0577791,35.9322943],[139.0577745,35.932293],[139.0577046,35.9322732],[139.0577042,35.9322731],[139.0576176,35.9322514],[139.0576092,35.9322492],[139.0576088,35.9322491],[139.0575948,35.9322458],[139.0575807,35.9322419],[139.057567,35.9322375],[139.0575667,35.9322374],[139.0575535,35.9322327],[139.0575532,35.9322326],[139.0575401,35.9322274],[139.0575269,35.9322217],[139.0575141,35.9322156],[139.0575017,35.932209],[139.0574984,35.9322072],[139.0574864,35.9322001],[139.0574748,35.9321927],[139.0574634,35.9321849],[139.0574524,35.9321767],[139.0574421,35.9321682],[139.0574321,35.9321593],[139.0574224,35.93215],[139.0574133,35.9321405],[139.0574116,35.9321386],[139.0574014,35.9321143],[139.0573924,35.9320872],[139.0573851,35.9320785],[139.0573762,35.9320751],[139.0573685,35.9320736],[139.0573075,35.9320635],[139.0572992,35.9320625],[139.0572989,35.9320624],[139.0572907,35.9320608],[139.0572826,35.9320585],[139.0572748,35.9320556],[139.0572674,35.9320521],[139.0572668,35.9320518],[139.0572599,35.9320477],[139.0572537,35.9320431],[139.0572477,35.932038],[139.0572425,35.9320325],[139.057238,35.9320266],[139.0572348,35.9320218],[139.057214,35.9319809],[139.0571988,35.9319468],[139.0571969,35.9319448],[139.0571947,35.9319431],[139.0571924,35.9319414],[139.0571897,35.93194],[139.0571871,35.9319388],[139.0571844,35.9319379],[139.0571841,35.9319378],[139.0571815,35.9319371],[139.0571811,35.931937],[139.0571807,35.9319369],[139.0571778,35.9319364],[139.057175,35.9319361],[139.0571747,35.9319361],[139.0571731,35.9319361],[139.0571719,35.9319361],[139.0571716,35.9319361],[139.0571687,35.9319363],[139.0571657,35.9319367],[139.0571629,35.9319373],[139.0571626,35.9319374],[139.0571599,35.9319382],[139.0571575,35.9319393],[139.0571169,35.9319484],[139.0570906,35.9319564],[139.0570526,35.9319707],[139.057038,35.9319771],[139.0570206,35.9319769],[139.0570174,35.9319769],[139.0570077,35.9319768],[139.0569775,35.9319743],[139.0569478,35.9319694],[139.0569188,35.9319622],[139.0569023,35.9319571],[139.0568751,35.9319464],[139.0568498,35.9319341],[139.0568491,35.9319337],[139.0568245,35.9319191],[139.0568021,35.9319027],[139.0567816,35.9318845],[139.0567733,35.9318762],[139.0567657,35.9318528],[139.0567608,35.9318288],[139.0567595,35.9318168],[139.0567589,35.9317925],[139.056761,35.9317683],[139.0567638,35.9317533],[139.0567628,35.9317098],[139.056762,35.9316578],[139.0567555,35.9316381],[139.0567493,35.9316286],[139.0567377,35.9316224],[139.0567225,35.9316184],[139.0567222,35.9316183],[139.0566126,35.9316085],[139.0564601,35.9316053],[139.0564478,35.9316031],[139.056436,35.9316002],[139.0564356,35.9316001],[139.0564244,35.9315963],[139.0564241,35.9315961],[139.0564132,35.9315914],[139.0564028,35.9315857],[139.0563984,35.931583],[139.0563891,35.9315761],[139.0563805,35.9315687],[139.0563728,35.9315606],[139.0563661,35.931552],[139.0563605,35.9315429],[139.0563559,35.9315333],[139.0563525,35.9315235],[139.0563512,35.9315182],[139.0563468,35.9314359],[139.0563413,35.931307],[139.0563325,35.931268],[139.0563262,35.9312578],[139.0563185,35.9312425],[139.0562918,35.9312118],[139.0561308,35.9310376],[139.0560909,35.9309809],[139.056052,35.9309305],[139.0559375,35.9309469],[139.0559372,35.9309469],[139.0558643,35.9309572],[139.0558321,35.9309575],[139.0558318,35.9309575],[139.0558155,35.9309567],[139.0557999,35.9309561],[139.0557995,35.930956],[139.0557911,35.9309552],[139.0557863,35.9309548],[139.0557676,35.930953],[139.0557358,35.9309482],[139.0557044,35.9309419],[139.0556738,35.930934],[139.0556734,35.9309339],[139.0556435,35.9309244],[139.0556144,35.9309133],[139.0555859,35.9309008],[139.0555618,35.9308879],[139.0555362,35.9308764],[139.0555101,35.9308662],[139.0555088,35.9308657],[139.0555084,35.9308656],[139.0554816,35.9308569],[139.0554541,35.9308495],[139.0554493,35.9308485],[139.0554473,35.9308481],[139.055426,35.9308436],[139.0553975,35.9308391],[139.0553796,35.9308371],[139.0553616,35.9308379],[139.0553437,35.9308377],[139.0553259,35.9308366],[139.0553255,35.9308366],[139.0553189,35.9308359],[139.0553144,35.9308354],[139.055314,35.9308354],[139.0553098,35.9308347],[139.0553084,35.9308345],[139.0552965,35.9308328],[139.055279,35.9308293],[139.0552757,35.9308284],[139.0552688,35.9308268],[139.0552684,35.9308267],[139.0552617,35.9308247],[139.0552549,35.9308223],[139.0552485,35.9308196],[139.0552421,35.9308165],[139.055236,35.9308131],[139.0552301,35.9308093],[139.0552246,35.9308053],[139.0552193,35.930801],[139.0552145,35.9307965],[139.05521,35.9307917],[139.0552059,35.9307867],[139.0552022,35.9307814],[139.0551989,35.9307761],[139.0551961,35.9307705],[139.0551936,35.9307649],[139.0551917,35.930759],[139.0551904,35.9307545],[139.0551689,35.9306914],[139.0551457,35.9306323],[139.055113,35.9305772],[139.0550999,35.9305573],[139.0550614,35.9305048],[139.0550218,35.9304575],[139.0550143,35.9304465],[139.0550077,35.9304351],[139.0550019,35.9304233],[139.0549971,35.9304113],[139.0549946,35.9304042],[139.0549913,35.9303918],[139.054989,35.9303793],[139.0549877,35.9303667],[139.0549873,35.9303541],[139.054988,35.9303415],[139.0549883,35.9303384],[139.0549895,35.930329],[139.0549899,35.9303269],[139.054991,35.9303117],[139.0549911,35.9302964],[139.0549899,35.9302812],[139.0549875,35.930266],[139.0549839,35.930251],[139.0549804,35.9302397],[139.0549748,35.9302251],[139.0549681,35.9302108],[139.0549602,35.930197],[139.0549513,35.9301835],[139.0549414,35.9301705],[139.0549305,35.9301581],[139.0549186,35.9301462],[139.0549091,35.930138],[139.0548978,35.9301323],[139.0548862,35.9301273],[139.0548859,35.9301272],[139.0548739,35.9301228],[139.0548654,35.9301202],[139.0548529,35.9301169],[139.0548526,35.9301168],[139.0548399,35.9301141],[139.0548268,35.9301121],[139.0548138,35.9301108],[139.0548134,35.9301107],[139.0548084,35.9301105],[139.0548003,35.9301101],[139.0547871,35.9301101],[139.0547737,35.9301108],[139.0547608,35.9301121],[139.0547604,35.9301122],[139.0547556,35.9301129],[139.0547552,35.930113],[139.0547375,35.9301167],[139.0547197,35.9301212],[139.0547194,35.9301213],[139.0547039,35.9301262],[139.054687,35.9301326],[139.0546705,35.9301398],[139.0546548,35.9301479],[139.0546445,35.9301538],[139.0544831,35.9302332],[139.054441,35.9302531],[139.0543035,35.9303181],[139.0542485,35.9303462],[139.0541961,35.9303771],[139.0541901,35.9303809],[139.0541402,35.9304148],[139.0540935,35.9304511],[139.0540494,35.9304899],[139.0540233,35.9305152],[139.0540117,35.9305293],[139.0539989,35.9305427],[139.0539909,35.9305505],[139.0539764,35.9305628],[139.053961,35.9305744],[139.0539451,35.9305851],[139.0539281,35.930595],[139.0539104,35.930604],[139.0538921,35.9306121],[139.0538801,35.9306166],[139.053856,35.9306258],[139.0538311,35.9306336],[139.0538081,35.9306397],[139.0537824,35.9306451],[139.0537821,35.9306451],[139.053756,35.9306492],[139.0537295,35.9306519],[139.0537029,35.9306532],[139.0536763,35.9306532],[139.0536759,35.9306532],[139.0536616,35.9306525],[139.053659,35.930702],[139.0536742,35.9307027],[139.0536745,35.9307028],[139.0537047,35.9307028],[139.0537352,35.9307012],[139.0537655,35.9306982],[139.0537954,35.9306935],[139.0537957,35.9306935],[139.0538251,35.9306873],[139.0538515,35.9306803],[139.0538799,35.9306713],[139.0539063,35.9306614],[139.0539197,35.9306563],[139.053941,35.9306469],[139.0539621,35.9306362],[139.0539821,35.9306244],[139.0540013,35.9306118],[139.054032,35.9305806],[139.054042,35.9305711],[139.0540566,35.9305557],[139.0540678,35.9305423],[139.054091,35.9305196],[139.0541329,35.9304827],[139.0541774,35.9304484],[139.0542249,35.930416],[139.0542294,35.9304131],[139.0542797,35.9303836],[139.054332,35.9303566],[139.0544404,35.9303054],[139.0545113,35.9302719],[139.0546748,35.9301915],[139.0546855,35.9301854],[139.0546985,35.9301788],[139.0547119,35.9301729],[139.0547255,35.9301678],[139.0547523,35.9301684],[139.0547571,35.9301685],[139.0547806,35.9301691],[139.054781,35.9301691],[139.0547871,35.9301688],[139.0547893,35.9301687],[139.0547896,35.9301687],[139.0547982,35.9301686],[139.0548067,35.9301691],[139.0548071,35.9301691],[139.0548154,35.9301699],[139.0548158,35.93017],[139.0548242,35.9301713],[139.0548326,35.9301731],[139.054841,35.9301753],[139.0548414,35.9301754],[139.0548461,35.9301769],[139.0548544,35.9301799],[139.0548621,35.9301833],[139.0548628,35.9301836],[139.054864,35.9301846],[139.054873,35.9301937],[139.0548815,35.9302031],[139.0548888,35.9302128],[139.0548957,35.9302231],[139.0549016,35.9302336],[139.0549067,35.9302443],[139.0549109,35.9302556],[139.0549136,35.9302637],[139.0549164,35.9302753],[139.0549181,35.9302868],[139.0549189,35.9302983],[139.054919,35.9303098],[139.054918,35.930321],[139.054918,35.9303218],[139.0549268,35.9303695],[139.0549283,35.9303852],[139.0549314,35.9304009],[139.0549355,35.9304159],[139.0549387,35.9304255],[139.0549445,35.9304402],[139.0549517,35.9304549],[139.0549599,35.9304691],[139.0549697,35.9304836],[139.05501,35.9305315],[139.0550466,35.9305818],[139.0550587,35.9305998],[139.0550887,35.9306507],[139.0551106,35.9307057],[139.0551312,35.9307665],[139.0551325,35.930771],[139.0551354,35.9307796],[139.0551389,35.9307882],[139.0551434,35.9307967],[139.0551484,35.930805],[139.055154,35.9308129],[139.0551602,35.9308205],[139.0551672,35.9308278],[139.0551746,35.9308347],[139.0551826,35.9308412],[139.05519,35.9308468],[139.0551917,35.9308479],[139.0551999,35.9308531],[139.0552092,35.9308583],[139.0552187,35.9308629],[139.0552288,35.9308672],[139.0552391,35.9308708],[139.0552495,35.9308738],[139.0552498,35.9308739],[139.0552585,35.9308761],[139.0552589,35.9308761],[139.0552631,35.9308771],[139.0552634,35.9308772],[139.0552835,35.9308812],[139.0552839,35.9308813],[139.0553047,35.9308844],[139.055305,35.9308844],[139.0553194,35.9308859],[139.0553198,35.9308859],[139.055341,35.9308872],[139.0553628,35.9308875],[139.0553768,35.9308869],[139.0553771,35.9308869],[139.0554138,35.9308877],[139.0554385,35.9308928],[139.0554627,35.9308993],[139.055487,35.9309072],[139.0555108,35.9309164],[139.0555331,35.9309265],[139.0555576,35.9309395],[139.0555892,35.9309536],[139.0556217,35.9309659],[139.0556552,35.9309765],[139.0556892,35.9309852],[139.0557232,35.9309921],[139.0557248,35.9309925],[139.0557252,35.9309925],[139.0557594,35.9309976],[139.0558375,35.9310063],[139.0558404,35.9310067],[139.0558751,35.9310105],[139.0558823,35.9310107],[139.0558827,35.9310107],[139.0558947,35.9310115],[139.0559148,35.9310129],[139.0559468,35.9310175],[139.0559779,35.9310246],[139.0560082,35.9310341],[139.0560346,35.9310446],[139.0560349,35.9310448],[139.0560626,35.9310584],[139.0560885,35.9310742],[139.0562424,35.9312411],[139.0562649,35.9312666],[139.0562708,35.9312782],[139.0562739,35.9312837],[139.0562804,35.9313123],[139.056279,35.9315208],[139.056282,35.9315394],[139.0562877,35.9315608],[139.0562998,35.931579],[139.0563037,35.9315836],[139.0563093,35.9315903],[139.056315,35.9315967],[139.0563213,35.931603],[139.0563279,35.931609],[139.0563349,35.9316148],[139.0563421,35.9316204],[139.0563493,35.9316258],[139.056357,35.9316309],[139.0563649,35.9316357],[139.0563731,35.9316403],[139.0563818,35.9316446],[139.0563903,35.9316486],[139.0563988,35.9316524],[139.0564073,35.9316556],[139.0564162,35.9316588],[139.0564166,35.9316589],[139.0564255,35.9316616],[139.0564259,35.9316617],[139.0564349,35.9316642],[139.0564353,35.9316643],[139.0564447,35.9316665],[139.0564543,35.9316683],[139.056461,35.9316694],[139.0564638,35.9316699],[139.0564642,35.93167],[139.0564683,35.9316705],[139.0564738,35.9316712],[139.0564764,35.9316712],[139.0564847,35.9316711],[139.0564851,35.9316711],[139.0564934,35.9316715],[139.0565016,35.931672],[139.056502,35.931672],[139.0565103,35.9316728],[139.0565187,35.9316739],[139.056527,35.9316753],[139.0565352,35.931677],[139.0565434,35.9316788],[139.0565514,35.931681],[139.0565592,35.9316835],[139.0565596,35.9316836],[139.0565672,35.9316862],[139.0565747,35.9316891],[139.056575,35.9316892],[139.0565824,35.9316924],[139.0565898,35.9316958],[139.0565969,35.9316995],[139.0566041,35.9317035],[139.0566109,35.9317076],[139.0566175,35.931712],[139.0566237,35.9317165],[139.0566298,35.9317214],[139.0566302,35.9317218],[139.0566362,35.9317268],[139.0566416,35.931732],[139.0566472,35.9317373],[139.0566522,35.931743],[139.0566568,35.9317487],[139.0566612,35.9317545],[139.0566657,35.9317605],[139.0566665,35.9317676],[139.0566683,35.9317792],[139.0566707,35.9317909],[139.0566736,35.9318024],[139.0566771,35.9318138],[139.0566812,35.9318251],[139.0566859,35.9318362],[139.0566911,35.9318471],[139.0566968,35.931858],[139.0567029,35.9318686],[139.0567089,35.9318774],[139.0567161,35.9318875],[139.0567237,35.9318975],[139.0567319,35.9319072],[139.0567374,35.9319124],[139.0567456,35.9319201],[139.0567546,35.9319275],[139.0567637,35.9319346],[139.0567732,35.9319414],[139.056783,35.9319479],[139.0565964,35.9319481],[139.0564794,35.9319146],[139.0563987,35.931914],[139.0563214,35.9319523],[139.0562515,35.9319787],[139.0561562,35.931981],[139.0560536,35.9319804],[139.055988,35.9319352],[139.0559998,35.9318548],[139.0560775,35.9317868],[139.0561186,35.9317006],[139.0561491,35.9315845],[139.0560984,35.9315186],[139.0558725,35.93138],[139.0556204,35.9312979],[139.0554745,35.9312314],[139.0553211,35.9311738],[139.0550321,35.9311123],[139.0548351,35.9310186],[139.0548172,35.9309797],[139.0548984,35.9309236],[139.0549574,35.9308852],[139.0550127,35.9308528],[139.0550279,35.9307948],[139.0549997,35.9306873],[139.0549084,35.9306509],[139.0547291,35.93062],[139.0546265,35.9306163],[139.0546081,35.9306251],[139.0545414,35.9307022],[139.0545188,35.9307617],[139.0544629,35.9308507],[139.0544,35.9309099],[139.0543667,35.9309485],[139.0542893,35.9309867],[139.0542379,35.9309953],[139.0541131,35.9310214],[139.0539115,35.9310171],[139.0537209,35.9310188],[139.0534909,35.9309338],[139.0534183,35.9308529],[139.0534266,35.9307546],[139.0535272,35.9305913],[139.0538144,35.9300819],[139.0538863,35.9298588],[139.0538876,35.9297217],[139.0537422,35.9296015],[139.0537062,35.9295357],[139.0536268,35.92941],[139.0535111,35.9292423],[139.0533943,35.9291998],[139.0532316,35.9293359],[139.0531775,35.9296277],[139.0529539,35.9300018],[139.0526565,35.9304291],[139.0522792,35.9307784],[139.0517646,35.9309301],[139.0513609,35.930987],[139.0508916,35.9309959],[139.050652,35.9307678],[139.0507717,35.9305182],[139.0508017,35.9304498],[139.0507625,35.9303363],[139.0507484,35.9302796],[139.050749,35.93022],[139.0508027,35.930081],[139.0508091,35.9300923],[139.0508181,35.9301055],[139.0510115,35.9303134],[139.0510557,35.9302787],[139.0508695,35.9300786],[139.0508638,35.9300699],[139.0508586,35.9300611],[139.050854,35.9300519],[139.0508501,35.9300426],[139.0508468,35.9300332],[139.0508441,35.9300236],[139.0508432,35.9300196],[139.0508415,35.9300099],[139.0508404,35.9300001],[139.05084,35.9299903],[139.0508402,35.9299804],[139.0508411,35.9299707],[139.0508426,35.9299608],[139.0508448,35.9299512],[139.0508477,35.9299416],[139.0508512,35.9299322],[139.0508535,35.9299268],[139.0508631,35.9299011],[139.0508712,35.929875],[139.0508718,35.9298725],[139.0508779,35.9298461],[139.0508821,35.9298193],[139.0508846,35.9297925],[139.0508852,35.9297655],[139.050885,35.9297547],[139.0508904,35.9296905],[139.0508956,35.929639],[139.050896,35.9296062],[139.0508926,35.9295947],[139.0508872,35.9295898],[139.0508801,35.9295872],[139.0508734,35.9295868],[139.0508678,35.9295872],[139.0508646,35.9295874],[139.050715,35.9296382],[139.0506984,35.9296416],[139.0506832,35.9296449],[139.0504309,35.929655],[139.0504305,35.929655],[139.0504209,35.9296551],[139.0504112,35.9296548],[139.0504013,35.9296541],[139.0503918,35.929653],[139.0503914,35.9296529],[139.0503822,35.9296514],[139.0503819,35.9296514],[139.0503725,35.9296493],[139.0503633,35.9296468],[139.050354,35.9296441],[139.050345,35.9296408],[139.0503363,35.9296371],[139.0503278,35.9296331],[139.0503218,35.9296298],[139.0503139,35.9296252],[139.0503063,35.9296202],[139.050299,35.9296148],[139.0502921,35.9296092],[139.0502855,35.9296032],[139.0502794,35.929597],[139.0502738,35.9295905],[139.0502685,35.9295837],[139.0502637,35.9295767],[139.0502593,35.9295696],[139.0502555,35.9295622],[139.0502523,35.9295547],[139.0502495,35.929547],[139.0502471,35.9295393],[139.0502454,35.9295314],[139.0502442,35.9295235],[139.0502435,35.9295155],[139.0502432,35.9295084],[139.0502753,35.9294926],[139.05028,35.9293925],[139.050251,35.9293705],[139.0502612,35.9293354],[139.050269,35.9293],[139.0502726,35.9292773],[139.0502765,35.9292415],[139.0502781,35.9292055],[139.0502771,35.9291694],[139.0502764,35.9291604],[139.0502713,35.9291439],[139.050265,35.9291276],[139.0502605,35.9291172],[139.0502524,35.9291015],[139.0502433,35.9290861],[139.0502332,35.9290711],[139.0502278,35.9290638],[139.0501555,35.9289747],[139.0500166,35.928797],[139.05,35.92877677072246],[139.05,35.92756724239298],[139.0500194,35.9275626],[139.0502316,35.9274591],[139.0503609,35.9274218],[139.0503902,35.9274267],[139.050519,35.9274466],[139.0507773,35.9274245],[139.0510555,35.9273642],[139.0510567,35.9273827],[139.0510601,35.9274075],[139.0510636,35.9274476],[139.0510643,35.9274875],[139.0510624,35.9275274],[139.0510575,35.9275671],[139.0510519,35.9275978],[139.0510509,35.9276045],[139.0510411,35.9276436],[139.0510358,35.9276599],[139.0510002,35.9276813],[139.0509514,35.9279012],[139.0509731,35.9279312],[139.0509558,35.9280086],[139.0509124,35.9282106],[139.050912,35.9282112],[139.0509053,35.9282399],[139.0509001,35.9282695],[139.0508973,35.9282993],[139.0508962,35.9283291],[139.0508973,35.9283589],[139.0509002,35.9283887],[139.0509051,35.9284177],[139.0509057,35.9284215],[139.0509129,35.9284502],[139.0509218,35.9284791],[139.0509329,35.9285076],[139.0509457,35.9285356],[139.0509596,35.9285609],[139.0509601,35.928562],[139.0509738,35.9285874],[139.0509894,35.9286128],[139.051007,35.9286374],[139.0510259,35.9286612],[139.0510468,35.9286842],[139.051069,35.9287062],[139.0510926,35.9287271],[139.0511175,35.928747],[139.0511429,35.9287653],[139.0511449,35.9287667],[139.0511719,35.9287838],[139.0512006,35.9288],[139.0512301,35.9288151],[139.0512608,35.9288287],[139.0512899,35.92884],[139.0514779,35.928918],[139.0516017,35.9289847],[139.0517277,35.9290428],[139.0517281,35.929043],[139.0518957,35.9291117],[139.0519759,35.9291416],[139.0519977,35.9291481],[139.0520292,35.9291561],[139.0520296,35.9291562],[139.0520616,35.9291628],[139.0520942,35.9291681],[139.0521269,35.9291719],[139.0521272,35.9291719],[139.052147,35.9291733],[139.0521491,35.9291735],[139.0521601,35.9291743],[139.0521645,35.9291744],[139.0521699,35.9291746],[139.0521805,35.9291748],[139.0521855,35.9291748],[139.0522031,35.9291751],[139.0522362,35.929174],[139.0522635,35.9291719],[139.0522692,35.9291715],[139.0523021,35.9291675],[139.0523108,35.9291665],[139.0523112,35.9291664],[139.0523424,35.929162],[139.0523736,35.9291562],[139.0524038,35.929149],[139.0524041,35.9291489],[139.0524342,35.9291404],[139.0524636,35.9291305],[139.0524923,35.9291193],[139.0525201,35.9291068],[139.0525365,35.9290987],[139.0525632,35.9290843],[139.0525886,35.9290687],[139.052613,35.9290521],[139.0526362,35.9290344],[139.0526583,35.9290156],[139.0527425,35.9289271],[139.0527766,35.9288949],[139.0528373,35.9288387],[139.0529457,35.9287467],[139.0530605,35.9286594],[139.0530663,35.9286552],[139.0531899,35.9285715],[139.0532575,35.9285228],[139.0534008,35.9284669],[139.053559,35.9285294],[139.0536202,35.9286462],[139.0537191,35.9288325],[139.0537699,35.9289068],[139.0538427,35.9290288],[139.0538644,35.9290558],[139.05396,35.9291651],[139.0539636,35.929169],[139.0539786,35.9291845],[139.0539956,35.9292001],[139.0540138,35.9292148],[139.0540328,35.9292288],[139.0540525,35.9292419],[139.0540733,35.9292542],[139.0540948,35.9292654],[139.0541158,35.9292752],[139.0541161,35.9292753],[139.0541214,35.9292774],[139.0541432,35.9292861],[139.0541666,35.9292943],[139.0541907,35.9293014],[139.0542107,35.9293062],[139.0542297,35.9293115],[139.0542652,35.9293199],[139.0542876,35.9293242],[139.0542903,35.9293247],[139.0543272,35.9293306],[139.0543646,35.9293348],[139.0543651,35.9293349],[139.0543899,35.9293366],[139.0543931,35.9293373],[139.054416,35.9293433],[139.0544382,35.9293502],[139.0544498,35.9293545],[139.0544593,35.929358],[139.0544801,35.9293668],[139.0545004,35.9293765],[139.0545205,35.9293874],[139.0545294,35.9293925],[139.0545483,35.9294047],[139.0545657,35.9294174],[139.0545824,35.9294308],[139.0545972,35.9294437],[139.0546396,35.9294795],[139.0546741,35.9295105],[139.0547067,35.9295368],[139.0547459,35.9295654],[139.0549571,35.9296966],[139.0551517,35.9298078],[139.0551938,35.9298317],[139.0553377,35.9299183],[139.055338,35.9299185],[139.055356,35.9299319],[139.0553742,35.9299472],[139.0553917,35.9299635],[139.055408,35.9299804],[139.0554228,35.929998],[139.0554373,35.930017],[139.0554558,35.9300385],[139.0554681,35.9300568],[139.0554778,35.930077],[139.055486,35.9300973],[139.055487,35.9300998],[139.0554936,35.9301179],[139.0555019,35.9301364],[139.0555116,35.9301546],[139.0555221,35.930172],[139.0555307,35.9301844],[139.0555431,35.9302009],[139.0555567,35.9302171],[139.0555697,35.9302306],[139.0555842,35.9302463],[139.0556063,35.9302679],[139.0556298,35.9302887],[139.055655,35.9303083],[139.0556805,35.9303263],[139.055686,35.9303299],[139.0557126,35.9303465],[139.0557415,35.9303625],[139.0557706,35.9303767],[139.0558322,35.9304056],[139.0560482,35.9305016],[139.0561941,35.9305614],[139.056224,35.9305773],[139.0562524,35.9305946],[139.0562797,35.9306128],[139.0563037,35.9306309],[139.0563056,35.9306324],[139.0563306,35.9306532],[139.056354,35.9306751],[139.0563664,35.9306878],[139.0565333,35.9308655],[139.0566802,35.9310265],[139.0566932,35.9310392],[139.0567065,35.9310508],[139.0567201,35.9310623],[139.0567345,35.9310733],[139.0567493,35.9310837],[139.0567642,35.9310938],[139.0567799,35.9311034],[139.0567962,35.9311124],[139.0568126,35.9311211],[139.0568294,35.9311291],[139.0568297,35.9311292],[139.056847,35.9311367],[139.0568642,35.9311436],[139.0568646,35.9311437],[139.0568761,35.9311478],[139.0569325,35.9311741],[139.0569854,35.9311992],[139.0570417,35.9312293],[139.0570485,35.9312321],[139.0570632,35.931239],[139.0570777,35.9312464],[139.057078,35.9312465],[139.0570895,35.9312529],[139.0570931,35.9312551],[139.0570976,35.9312584],[139.0571017,35.9312618],[139.057106,35.9312652],[139.05711,35.9312689],[139.0571136,35.9312726],[139.0571172,35.9312764],[139.0571206,35.9312804],[139.057124,35.9312844],[139.0571271,35.9312885],[139.0571299,35.9312928],[139.0571326,35.9312971],[139.0571352,35.9313021],[139.0571358,35.9313028],[139.0571382,35.931308],[139.0571401,35.9313125],[139.0571417,35.9313171],[139.0571432,35.9313218],[139.0571448,35.9313266],[139.0571564,35.9313633],[139.0571605,35.9313917],[139.0571594,35.931433],[139.0571555,35.9315587],[139.0571551,35.9315663],[139.0571547,35.9315754],[139.0571547,35.9315845],[139.0571553,35.9315936],[139.0571565,35.9316027],[139.0571578,35.9316109],[139.0571582,35.9316129],[139.0571599,35.931621],[139.0571621,35.9316299],[139.0571648,35.9316388],[139.0571679,35.9316475],[139.0571714,35.9316562],[139.0571751,35.9316648],[139.0571796,35.9316732],[139.0571824,35.9316783],[139.0571831,35.9316794],[139.0571897,35.9316917],[139.0571971,35.9317044],[139.0572053,35.9317169],[139.0572141,35.931729],[139.0572233,35.931741],[139.0572332,35.9317526],[139.0572438,35.9317639],[139.0572546,35.9317749],[139.0572661,35.9317855],[139.0572779,35.9317958],[139.0572903,35.9318057],[139.057303,35.9318151],[139.0573162,35.9318243],[139.0573299,35.931833],[139.0573439,35.9318411],[139.0573548,35.9318471],[139.0573692,35.9318545],[139.0573842,35.9318615],[139.0573997,35.9318681],[139.0574151,35.9318742],[139.057431,35.9318799],[139.0574472,35.931885],[139.0574636,35.9318896],[139.0574802,35.9318937],[139.0574906,35.931896],[139.0574909,35.9318961],[139.0575024,35.9318996],[139.0575131,35.9319034],[139.0575134,35.9319035],[139.057524,35.9319076],[139.0575347,35.931912],[139.057545,35.9319167],[139.0575551,35.9319219],[139.0575649,35.9319272],[139.0575743,35.931933],[139.0575836,35.9319389]]]},"properties":{"layer":"landuse","class_code":"205","class_label":"その他自然地（原野・牧野、荒れ地（耕作放棄地等自然的状況のもの）、低湿地、河川敷・河原、海浜、湖岸）"}},{"type":"Feature","id":"luse_1c81a558-1659-4541-affc-d51fc33f032d","geometry":{"type":"Polygon","coordinates":[[[139.0625,35.93305761703669],[139.0621695,35.9331252],[139.0620769,35.9331551],[139.0620358,35.9331693],[139.0619868,35.9331983],[139.0618463,35.9333262],[139.0618367942503,35.93333333333333],[139.06158138417132,35.93333333333333],[139.0615871,35.9333299],[139.0615949,35.933324],[139.0616191,35.9333077],[139.0616654,35.9332634],[139.0617241,35.9332064],[139.0617794,35.9331559],[139.061799,35.9331341],[139.0618426,35.93308],[139.061867,35.9330586],[139.061893,35.9330394],[139.0619043,35.9330316],[139.0619762,35.9329918],[139.0620008,35.9329794],[139.0620183,35.9329712],[139.0621146,35.9329392],[139.062115,35.9329392],[139.0621528,35.9329346],[139.0621531,35.9329345],[139.0622321,35.9329162],[139.0622324,35.9329161],[139.0622693,35.9329071],[139.0622975,35.9329015],[139.0622978,35.9329015],[139.0623885,35.9328822],[139.0624654,35.9328671],[139.0625,35.932860559284116],[139.0625,35.93305761703669]]]},"properties":{"layer":"landuse","class_code":"205","class_label":"その他自然地（原野・牧野、荒れ地（耕作放棄地等自然的状況のもの）、低湿地、河川敷・河原、海浜、湖岸）"}},{"type":"Feature","id":"luse_ca734d16-ceb0-4da2-88e3-b37f1845b66b","geometry":{"type":"Polygon","coordinates":[[[139.05849615808486,35.93333333333333],[139.0584831,35.9333011],[139.0583195,35.9332698],[139.0581228,35.9332147],[139.05811,35.933201],[139.0581023,35.9331806],[139.0580974,35.9331578],[139.0580959,35.9331324],[139.0580961,35.9330851],[139.0580938,35.9330672],[139.0580863,35.9330582],[139.0579325,35.9330459],[139.0578044,35.9330321],[139.0577697,35.9330283],[139.0577185,35.9329736],[139.0577044,35.9329477],[139.0576942,35.9329246],[139.0576956,35.932901],[139.0577705,35.9328023],[139.057819,35.9326803],[139.057853,35.9325933],[139.0578887,35.9325224],[139.0578852,35.9325097],[139.0578705,35.9325025],[139.0577151,35.9324566],[139.0575042,35.9323997],[139.0574578,35.9323809],[139.057365,35.9323332],[139.0573513,35.9323281],[139.0573457,35.9323168],[139.0573321,35.9323118],[139.0573264,35.9323005],[139.0573127,35.9322954],[139.0573071,35.9322841],[139.0572936,35.9322789],[139.0572883,35.9322675],[139.0572763,35.9322602],[139.0572736,35.9322482],[139.0572617,35.9322409],[139.0572592,35.9322288],[139.0572468,35.9322222],[139.0572435,35.9322103],[139.0572231,35.932195],[139.0572026,35.9321796],[139.0571874,35.9321682],[139.0571813,35.9321651],[139.0571666,35.9321629],[139.0571579,35.932153],[139.057143,35.9321507],[139.0571425,35.9321502],[139.0571343,35.9321409],[139.0571108,35.9321288],[139.0570918,35.932119],[139.057087,35.932117],[139.0570621,35.9321068],[139.0570373,35.9320965],[139.0570223,35.9320961],[139.0570117,35.9320875],[139.0569856,35.9320798],[139.0569594,35.932072],[139.0569333,35.9320643],[139.0569071,35.9320565],[139.0569254,35.9320187],[139.0569348,35.9319993],[139.056936,35.9319994],[139.0569364,35.9319995],[139.0569486,35.9320005],[139.056949,35.9320005],[139.0570016,35.9320088],[139.057002,35.9320089],[139.0570767,35.93202],[139.0570957,35.932025],[139.0571219,35.9320329],[139.0571222,35.932033],[139.057148,35.9320418],[139.0571738,35.9320513],[139.0571984,35.9320618],[139.0571987,35.9320619],[139.0572232,35.9320731],[139.0572472,35.9320852],[139.0572596,35.9320919],[139.0572826,35.9321052],[139.0573048,35.9321192],[139.0573263,35.932134],[139.0573471,35.9321494],[139.0573671,35.9321654],[139.0573693,35.9321678],[139.0573795,35.9321785],[139.0573905,35.9321891],[139.0574021,35.9321993],[139.0574139,35.9322092],[139.0574266,35.9322186],[139.0574396,35.9322276],[139.0574531,35.9322361],[139.0574666,35.932244],[139.057471,35.9322466],[139.057485,35.932254],[139.0574997,35.932261],[139.0575148,35.9322676],[139.0575301,35.9322736],[139.0575458,35.9322792],[139.0575615,35.9322842],[139.0575619,35.9322843],[139.0575779,35.9322887],[139.0575928,35.9322923],[139.0576872,35.932316],[139.0577266,35.9323271],[139.0578125,35.9323514],[139.057837,35.9323588],[139.0578455,35.9323617],[139.0579568,35.9323983],[139.0579613,35.9324004],[139.0579702,35.9324051],[139.0579792,35.93241],[139.0579875,35.9324153],[139.0579958,35.9324209],[139.058004,35.9324267],[139.0580114,35.9324328],[139.0580189,35.932439],[139.0580261,35.9324457],[139.0580328,35.9324525],[139.0580392,35.9324595],[139.0580432,35.9324643],[139.0580491,35.9324718],[139.0580544,35.9324793],[139.0580595,35.932487],[139.0580639,35.9324948],[139.0580683,35.9325028],[139.0580701,35.932507],[139.0580722,35.9325172],[139.0580753,35.93253],[139.058079,35.9325426],[139.0580834,35.9325552],[139.0580881,35.9325676],[139.0580939,35.9325798],[139.0581001,35.9325918],[139.0581069,35.9326036],[139.058114,35.9326151],[139.0581222,35.9326265],[139.0581304,35.9326375],[139.0581397,35.9326483],[139.0581492,35.9326587],[139.058159,35.9326685],[139.0581613,35.9326709],[139.0581719,35.9326803],[139.0581828,35.9326898],[139.0581945,35.9326987],[139.0582064,35.9327073],[139.0582188,35.9327155],[139.0582315,35.9327232],[139.0582318,35.9327234],[139.058245,35.9327306],[139.0582561,35.9327362],[139.0582592,35.9327383],[139.0582791,35.9327505],[139.0582977,35.9327632],[139.058311,35.9327728],[139.0583262,35.9327846],[139.0583321,35.932791],[139.0583436,35.9328048],[139.0583545,35.9328187],[139.058365,35.9328329],[139.0583745,35.9328476],[139.0583832,35.9328625],[139.0583912,35.9328777],[139.0583986,35.9328933],[139.0584007,35.9328988],[139.058407,35.9329149],[139.0584124,35.9329307],[139.058417,35.9329469],[139.058421,35.9329631],[139.0584239,35.9329795],[139.0584265,35.9329993],[139.05846,35.9331228],[139.0584721,35.9331444],[139.0584897,35.9331695],[139.0584991,35.9331818],[139.0585146,35.9331928],[139.0585563,35.9332159],[139.0585575,35.9332218],[139.0585623,35.9332419],[139.0585727,35.9332783],[139.0585851,35.9333147],[139.05859250157405,35.93333333333333],[139.05849615808486,35.93333333333333]]]},"properties":{"layer":"landuse","class_code":"205","class_label":"その他自然地（原野・牧野、荒れ地（耕作放棄地等自然的状況のもの）、低湿地、河川敷・河原、海浜、湖岸）"}},{"type":"Feature","id":"luse_c108dd79-98b9-4a70-b24c-f95f1f124d4e","geometry":{"type":"Polygon","coordinates":[[[139.05936157790762,35.93333333333333],[139.0593517,35.9333197],[139.0592997,35.9332431],[139.0591668,35.9330324],[139.0590976,35.9329174],[139.0590692,35.9328171],[139.0587057,35.9328147],[139.0586413,35.9327229],[139.0590708,35.9324892],[139.0591008,35.9325564],[139.0591069,35.93257],[139.0591393,35.9326339],[139.0591758,35.9327089],[139.0592123,35.9327764],[139.0592229,35.9327985],[139.0592305,35.9328169],[139.0592345,35.9328299],[139.0592343,35.9328315],[139.0592328,35.9328501],[139.0592321,35.9328571],[139.0592289,35.932867],[139.0592281,35.932878],[139.0592389,35.9328937],[139.0592604,35.9329097],[139.0592761,35.9329186],[139.0592766,35.9329189],[139.0592867,35.9329277],[139.0592897,35.9329321],[139.0592832,35.9329627],[139.0592782,35.9329703],[139.059276,35.9329807],[139.0592784,35.9329878],[139.0592875,35.9329999],[139.0593142,35.9330377],[139.0593256,35.9330594],[139.0593857,35.9331256],[139.0593947,35.9331334],[139.0594701,35.9331932],[139.059492,35.9332103],[139.0595344,35.9332639],[139.0595765,35.9333301],[139.05957858556997,35.93333333333333],[139.05936157790762,35.93333333333333]]]},"properties":{"layer":"landuse","class_code":"205","class_label":"その他自然地（原野・牧野、荒れ地（耕作放棄地等自然的状況のもの）、低湿地、河川敷・河原、海浜、湖岸）"}},{"type":"Feature","id":"luse_ed6fc5a4-994f-45a0-8398-1a56f30527e8","geometry":{"type":"Polygon","coordinates":[[[139.0533669,35.9283675],[139.0533079,35.928403],[139.0532038,35.9284711],[139.0531356,35.9285202],[139.0530123,35.9286038],[139.0530046,35.9286093],[139.0528871,35.9286986],[139.0527759,35.928793],[139.0527139,35.9288503],[139.052681,35.9288816],[139.0526456,35.9289113],[139.052609,35.9289391],[139.0525703,35.9289655],[139.0525296,35.9289902],[139.0524874,35.9290131],[139.0524435,35.929034],[139.0523986,35.929053],[139.0523975,35.9290532],[139.052366,35.9290624],[139.0523338,35.92907],[139.0523334,35.9290701],[139.0523011,35.9290763],[139.0522681,35.929081],[139.0522677,35.9290811],[139.0522576,35.9290823],[139.0522573,35.9290823],[139.0522243,35.9290851],[139.0522239,35.9290851],[139.0521907,35.9290864],[139.0521903,35.9290864],[139.052157,35.9290863],[139.0521234,35.9290846],[139.0520901,35.9290815],[139.0520625,35.9290777],[139.0520571,35.929077],[139.0520568,35.9290769],[139.0520433,35.9290746],[139.0520429,35.9290745],[139.0519843,35.9290575],[139.0519094,35.9290323],[139.0518434,35.9290068],[139.0517991,35.9289891],[139.0517533,35.9289707],[139.0516779,35.9289404],[139.0513194,35.9287915],[139.0512911,35.9287805],[139.0512636,35.9287684],[139.051237,35.9287549],[139.0512115,35.9287402],[139.0511868,35.9287246],[139.0511862,35.9287242],[139.0511627,35.9287074],[139.0511404,35.9286896],[139.0511192,35.9286708],[139.0510993,35.9286511],[139.0510808,35.9286305],[139.0510637,35.9286091],[139.0510481,35.928587],[139.051034,35.9285643],[139.0510214,35.928541],[139.0510208,35.9285398],[139.0510074,35.9285152],[139.0509958,35.92849],[139.0509859,35.9284643],[139.0509777,35.9284382],[139.0509713,35.9284119],[139.0509708,35.9284095],[139.0509663,35.9283829],[139.0509637,35.928356],[139.0509627,35.9283292],[139.0509637,35.9283022],[139.0509664,35.9282754],[139.0509709,35.9282487],[139.0509772,35.9282223],[139.0509775,35.9282212],[139.0510214,35.9280181],[139.0510925,35.9276973],[139.0511059,35.9276558],[139.0511164,35.9276139],[139.0511192,35.9275982],[139.0511238,35.9275737],[139.0511287,35.927531],[139.0511308,35.9274882],[139.05113,35.9274454],[139.0511263,35.9274026],[139.051123,35.9273783],[139.0511202,35.9273313],[139.0511199,35.9273209],[139.051121,35.9272738],[139.0511251,35.9272268],[139.0511324,35.92718],[139.0511428,35.9271337],[139.0511538,35.9270879],[139.0511678,35.9270427],[139.0511847,35.9269981],[139.0511866,35.9269937],[139.0512068,35.9269501],[139.05123,35.9269075],[139.0512524,35.9268713],[139.0512601,35.9268625],[139.0515954,35.9272873],[139.0517148,35.9272308],[139.0517941,35.9271953],[139.0518921,35.9271467],[139.0525698,35.9267373],[139.0526238,35.9267056],[139.0528755,35.9267112],[139.0529866,35.9266894],[139.052965,35.9267267],[139.0529609,35.926754],[139.0529655,35.9267884],[139.0529768,35.9268384],[139.0529854,35.9268708],[139.0529996,35.926914],[139.0530295,35.9269853],[139.0530425,35.9270178],[139.0530653,35.9270763],[139.053072,35.9271186],[139.0530777,35.9271603],[139.0530818,35.9272006],[139.0530845,35.9272309],[139.0530894,35.927267],[139.0530951,35.9273077],[139.0531003,35.9273473],[139.0531431,35.9275114],[139.0532038,35.9277205],[139.0532257,35.927768],[139.0533019,35.9278877],[139.0533661,35.9279754],[139.0533903,35.9280066],[139.0534312,35.9279872],[139.0534683,35.9280363],[139.0534283,35.9280557],[139.0534411,35.9280722],[139.0535109,35.9281951],[139.0533669,35.9283675]]]},"properties":{"layer":"landuse","class_code":"212","class_label":"商業用地（業務施設、商業施設、宿泊施設、商業系複合施設）"}},{"type":"Feature","id":"luse_fbd4f8c9-c4c7-4ecd-b4ef-dbc9700ac35d","geometry":{"type":"Polygon","coordinates":[[[139.050885,35.9297547],[139.0508852,35.9297655],[139.0508846,35.9297925],[139.0508821,35.9298193],[139.0508779,35.9298461],[139.0508718,35.9298725],[139.0508712,35.929875],[139.0508631,35.9299011],[139.0508535,35.9299268],[139.0508512,35.9299322],[139.0508477,35.9299416],[139.0508448,35.9299512],[139.0508426,35.9299608],[139.0508411,35.9299707],[139.0508402,35.9299804],[139.05084,35.9299903],[139.0508404,35.9300001],[139.0508415,35.9300099],[139.0508432,35.9300196],[139.0508441,35.9300236],[139.0508468,35.9300332],[139.0508501,35.9300426],[139.050854,35.9300519],[139.0508586,35.9300611],[139.0508638,35.9300699],[139.0508695,35.9300786],[139.0510557,35.9302787],[139.0510115,35.9303134],[139.0508181,35.9301055],[139.0508091,35.9300923],[139.0508027,35.930081],[139.050797,35.9300694],[139.0507919,35.9300575],[139.0507875,35.9300455],[139.0507845,35.9300335],[139.0507831,35.9300277],[139.0507808,35.9300157],[139.0507796,35.9300032],[139.050779,35.9299907],[139.0507791,35.9299781],[139.0507803,35.9299656],[139.0507822,35.9299532],[139.0507852,35.9299408],[139.0507888,35.9299287],[139.050793,35.9299169],[139.0507956,35.9299114],[139.0508044,35.9298879],[139.0508116,35.9298638],[139.0508121,35.9298627],[139.0508177,35.9298383],[139.0508215,35.9298143],[139.0508237,35.9297901],[139.0508237,35.9297877],[139.0508228,35.9297846],[139.0508192,35.9297744],[139.0508144,35.9297644],[139.0508084,35.9297549],[139.0508014,35.929746],[139.0507933,35.9297375],[139.0507843,35.9297298],[139.0507744,35.9297228],[139.0507675,35.9297187],[139.0507562,35.929713],[139.0507445,35.9297083],[139.0507325,35.9297045],[139.0507322,35.9297044],[139.0507197,35.9297015],[139.050707,35.9296997],[139.0507066,35.9296996],[139.0506938,35.9296988],[139.0504329,35.929709],[139.0504204,35.9297092],[139.0504201,35.9297092],[139.050407,35.9297088],[139.0504066,35.9297088],[139.0503936,35.9297078],[139.0503933,35.9297078],[139.0503803,35.9297063],[139.05038,35.9297062],[139.0503669,35.929704],[139.0503541,35.9297012],[139.0503412,35.9296979],[139.0503286,35.929694],[139.0503163,35.9296895],[139.0503044,35.9296846],[139.0502928,35.9296791],[139.0502842,35.9296745],[139.0502735,35.9296682],[139.0502631,35.9296613],[139.0502529,35.929654],[139.0502436,35.9296462],[139.0502345,35.9296381],[139.0502263,35.9296296],[139.0502185,35.9296206],[139.0502113,35.9296113],[139.0502048,35.9296021],[139.0501906,35.9295384],[139.0501888,35.929528],[139.0501879,35.9295176],[139.050187,35.9294833],[139.0501897,35.9293856],[139.0502069,35.9293262],[139.0502141,35.929293],[139.0502176,35.9292724],[139.0502213,35.9292387],[139.0502226,35.9292052],[139.0502216,35.9291712],[139.0502215,35.9291672],[139.050218,35.9291561],[139.0502126,35.929142],[139.0502088,35.9291335],[139.0502018,35.9291199],[139.0501941,35.9291068],[139.0501852,35.9290936],[139.0501809,35.9290878],[139.0501088,35.9289991],[139.05,35.928859763780686],[139.05,35.92877677072246],[139.0500166,35.928797],[139.0501555,35.9289747],[139.0502278,35.9290638],[139.0502332,35.9290711],[139.0502433,35.9290861],[139.0502524,35.9291015],[139.0502605,35.9291172],[139.050265,35.9291276],[139.0502713,35.9291439],[139.0502764,35.9291604],[139.0502771,35.9291694],[139.0502781,35.9292055],[139.0502765,35.9292415],[139.0502726,35.9292773],[139.050269,35.9293],[139.0502612,35.9293354],[139.050251,35.9293705],[139.05028,35.9293925],[139.0502753,35.9294926],[139.0502432,35.9295084],[139.0502435,35.9295155],[139.0502442,35.9295235],[139.0502454,35.9295314],[139.0502471,35.9295393],[139.0502495,35.929547],[139.0502523,35.9295547],[139.0502555,35.9295622],[139.0502593,35.9295696],[139.0502637,35.9295767],[139.0502685,35.9295837],[139.0502738,35.9295905],[139.0502794,35.929597],[139.0502855,35.9296032],[139.0502921,35.9296092],[139.050299,35.9296148],[139.0503063,35.9296202],[139.0503139,35.9296252],[139.0503218,35.9296298],[139.0503278,35.9296331],[139.0503363,35.9296371],[139.050345,35.9296408],[139.050354,35.9296441],[139.0503633,35.9296468],[139.0503725,35.9296493],[139.0503819,35.9296514],[139.0503822,35.9296514],[139.0503914,35.9296529],[139.0503918,35.929653],[139.0504013,35.9296541],[139.0504112,35.9296548],[139.0504209,35.9296551],[139.0504305,35.929655],[139.0504309,35.929655],[139.0506832,35.9296449],[139.0506984,35.9296416],[139.050715,35.9296382],[139.0508646,35.9295874],[139.0508678,35.9295872],[139.0508734,35.9295868],[139.0508801,35.9295872],[139.0508872,35.9295898],[139.0508926,35.9295947],[139.050896,35.9296062],[139.0508956,35.929639],[139.0508904,35.9296905],[139.050885,35.9297547]]]},"properties":{"layer":"landuse","class_code":"215","class_label":"道路用地（道路、駅前広場、私有地内に存在する沿道用途の「私道」または、私有地の一部分であるものの公共の通行に供されている土地の部分）"}},{"type":"Feature","id":"luse_9a6ec9d9-e62a-4dfe-b4f1-f8ae728336b7","geometry":{"type":"Polygon","coordinates":[[[139.0601822,35.9299768],[139.0601059,35.9299399],[139.0601784,35.9298716],[139.0602472,35.9299077],[139.0601822,35.9299768]]]},"properties":{"layer":"landuse","class_code":"214","class_label":"公益施設用地（官公庁施設、文教厚生施設、供給処理施設）"}},{"type":"Feature","id":"luse_92c789ed-03fc-4210-9256-5fc5b1e23433","geometry":{"type":"Polygon","coordinates":[[[139.0618367942503,35.93333333333333],[139.0618463,35.9333262],[139.0619868,35.9331983],[139.0620358,35.9331693],[139.0620769,35.9331551],[139.0621695,35.9331252],[139.0625,35.93305761703669],[139.0625,35.93333333333333],[139.0618367942503,35.93333333333333]]]},"properties":{"layer":"landuse","class_code":"203","class_label":"山林（樹林地）"}}]}