{"type":"FeatureCollection","properties":{"mesh_code":"53397070","source":"PLATEAU秩父市2025","layer":"landuse"},"features":[{"type":"Feature","id":"luse_c36046a9-3e99-4d92-9354-2e9ebad131a0","geometry":{"type":"Polygon","coordinates":[[[139.00665955741326,35.975],[139.0066491,35.9750195],[139.006575,35.9751239],[139.0065457,35.9751489],[139.0065218,35.9751623],[139.006402,35.9751893],[139.0062467,35.9752163],[139.0062359,35.9752182],[139.0062218,35.9752261],[139.0061876,35.9752479],[139.0061562,35.9752722],[139.0061277,35.9752988],[139.0061024,35.9753275],[139.0060827,35.9753546],[139.0060641,35.9753864],[139.0060493,35.9754195],[139.0060383,35.9754537],[139.0060314,35.9754885],[139.0060286,35.9755237],[139.0060187,35.975616],[139.0060139,35.9757123],[139.0060141,35.9757892],[139.0060384,35.9763979],[139.0060704,35.9769665],[139.0060746,35.977112],[139.0060754,35.9772576],[139.0060701,35.9774788],[139.0060624,35.9776242],[139.0060457,35.9777155],[139.0060276,35.9778432],[139.0060152,35.9779716],[139.006009,35.9781002],[139.0060083,35.9782021],[139.0060127,35.9783307],[139.0060232,35.9784591],[139.0060396,35.9785871],[139.0060071,35.9786288],[139.0059868,35.9786431],[139.0057338,35.9787629],[139.0055888,35.9788258],[139.0055844,35.9788277],[139.0055383,35.9788499],[139.0054984,35.9788653],[139.0054574,35.9788783],[139.0054126,35.9788894],[139.0053696,35.978897],[139.0053274,35.9789019],[139.005327,35.978902],[139.0049976,35.9789528],[139.0049957,35.9789531],[139.0049776,35.9789559],[139.0049606,35.9789606],[139.0049589,35.978961],[139.0048563,35.9789891],[139.004724,35.9790296],[139.0046002,35.9790718],[139.0045221,35.979101],[139.0044815,35.9791143],[139.0044395,35.9791245],[139.0043965,35.9791314],[139.0043548,35.9791349],[139.0043436,35.979135],[139.004311,35.9791352],[139.0042902,35.9791338],[139.0042873,35.9791337],[139.0042674,35.9791323],[139.0042243,35.9791261],[139.0041824,35.9791165],[139.0038172,35.9790551],[139.0037652,35.9790475],[139.0037648,35.9790474],[139.0037058,35.9790362],[139.0037054,35.9790361],[139.003654,35.9790237],[139.0036471,35.979022],[139.0035897,35.9790054],[139.0035894,35.9790053],[139.0035335,35.9789861],[139.0035332,35.9789859],[139.0034744,35.9789623],[139.0034216,35.9789378],[139.0033703,35.9789108],[139.0032788,35.9788562],[139.0031211,35.9787668],[139.0030034,35.9787034],[139.0028157,35.9786085],[139.0028154,35.9786084],[139.0027518,35.9785805],[139.0026863,35.9785557],[139.002686,35.9785555],[139.0026189,35.9785338],[139.0025501,35.9785151],[139.002487,35.9785009],[139.0024165,35.9784883],[139.0024161,35.9784882],[139.0023448,35.9784789],[139.0021842,35.9784646],[139.0020974,35.9784586],[139.002097,35.9784586],[139.0020103,35.9784545],[139.0020099,35.9784545],[139.0019229,35.9784524],[139.0017767,35.9784535],[139.0017763,35.9784535],[139.0016895,35.9784567],[139.0016891,35.9784567],[139.0016025,35.9784621],[139.0016021,35.9784621],[139.0015337,35.9784679],[139.0015157,35.9784694],[139.0015153,35.9784694],[139.0014688,35.9784696],[139.0014345,35.9784698],[139.0014196,35.978469],[139.0014176,35.9784689],[139.0013735,35.9784668],[139.0013129,35.978461],[139.0012348,35.9784493],[139.0011756,35.9784372],[139.0011175,35.9784223],[139.0010889,35.9784136],[139.0010964,35.9783971],[139.001153,35.9784129],[139.0012105,35.9784261],[139.0012866,35.9784393],[139.0013456,35.9784463],[139.001346,35.9784464],[139.0014052,35.9784506],[139.0014056,35.9784506],[139.0014248,35.9784511],[139.0014652,35.9784522],[139.0014907,35.9784518],[139.001514,35.9784514],[139.0016003,35.9784441],[139.0016589,35.9784405],[139.0016878,35.9784388],[139.0016881,35.9784388],[139.001725,35.9784374],[139.0017757,35.9784354],[139.0019233,35.9784344],[139.0019545,35.9784351],[139.0020109,35.9784365],[139.0020113,35.9784365],[139.002067,35.9784391],[139.0020738,35.9784394],[139.0020988,35.9784406],[139.0021171,35.9784419],[139.0021864,35.9784467],[139.0023474,35.978461],[139.0023478,35.9784611],[139.0024204,35.9784706],[139.0024924,35.9784834],[139.0025566,35.9784978],[139.0026266,35.9785168],[139.0026949,35.9785391],[139.0027615,35.9785644],[139.0027618,35.9785645],[139.0028266,35.9785927],[139.0030156,35.9786883],[139.0031336,35.978752],[139.0032917,35.9788416],[139.003383,35.978896],[139.0034331,35.9789224],[139.0034849,35.9789465],[139.0035424,35.9789696],[139.0035974,35.9789885],[139.0035978,35.9789886],[139.0036539,35.9790049],[139.0037112,35.9790187],[139.0037695,35.9790298],[139.0038213,35.9790374],[139.0040424,35.979075],[139.004119,35.9790881],[139.0041971,35.9791015],[139.0042372,35.9791099],[139.0042376,35.97911],[139.0042784,35.9791152],[139.0042788,35.9791153],[139.00432,35.9791174],[139.0043204,35.9791174],[139.0043275,35.9791173],[139.0043619,35.9791164],[139.0044014,35.9791125],[139.0044422,35.9791052],[139.0044819,35.9790949],[139.0045201,35.9790817],[139.0045204,35.9790816],[139.0045913,35.9790553],[139.0047157,35.9790129],[139.0047218,35.979011],[139.0048489,35.9789721],[139.0049719,35.9789384],[139.0053182,35.978885],[139.0053236,35.9788842],[139.005324,35.9788841],[139.0053657,35.9788793],[139.005407,35.9788719],[139.0054501,35.9788613],[139.0054896,35.9788488],[139.0054903,35.9788485],[139.0055279,35.9788339],[139.0055734,35.9788122],[139.005723,35.9787471],[139.005763,35.9787281],[139.005974,35.9786284],[139.00599,35.9786169],[139.0059915,35.9786151],[139.006012,35.9785897],[139.0059954,35.978461],[139.0059851,35.9783317],[139.0059805,35.9782023],[139.0059813,35.9780997],[139.0059877,35.9779702],[139.006,35.9778411],[139.0060182,35.9777124],[139.0060348,35.9776219],[139.0060422,35.977478],[139.0060476,35.9772575],[139.0060467,35.9771123],[139.0060427,35.9769672],[139.0060108,35.9763988],[139.0059862,35.9757897],[139.005986,35.975712],[139.0059911,35.9756146],[139.0060009,35.9755222],[139.0060039,35.9754859],[139.0060111,35.9754491],[139.0060226,35.9754129],[139.0060385,35.9753777],[139.0060583,35.975344],[139.006079,35.9753152],[139.0061058,35.9752848],[139.006136,35.9752566],[139.0061695,35.9752308],[139.0062055,35.9752077],[139.0062254,35.9751968],[139.006248,35.9751933],[139.0062684,35.9751901],[139.0062718,35.9751894],[139.0063896,35.9751636],[139.0064313,35.9751507],[139.0064725,35.9751341],[139.0065104,35.9751148],[139.0065458,35.9750928],[139.00658,35.9750669],[139.0066049,35.9750378],[139.006624,35.9750095],[139.00662910067112,35.975],[139.00665955741326,35.975]]]},"properties":{"layer":"landuse","class_code":"215","class_label":"道路用地（道路、駅前広場、私有地内に存在する沿道用途の「私道」または、私有地の一部分であるものの公共の通行に供されている土地の部分）"}}]}