{"type":"FeatureCollection","properties":{"mesh_code":"53397099","source":"PLATEAU秩父市2025","layer":"landuse"},"features":[{"type":"Feature","id":"luse_640721ac-c8b8-417d-988f-f0e6256e81c3","geometry":{"type":"Polygon","coordinates":[[[139.1194381,35.9981358],[139.1194363,35.9981939],[139.1194288,35.9982148],[139.119418,35.9982197],[139.1192696,35.9981452],[139.1190047,35.998056],[139.1187616,35.9979911],[139.1185512,35.9979584],[139.1185194,35.9979105],[139.1185677,35.9978318],[139.11858,35.9978328],[139.1186253,35.9978363],[139.1185964,35.9977854],[139.1186531,35.9977871],[139.1186145,35.9977189],[139.118695,35.9976828],[139.1188038,35.9976341],[139.1189728,35.997568],[139.1190454,35.9975492],[139.1191957,35.9975252],[139.1192776,35.9975308],[139.1193657,35.9975637],[139.1194732,35.9976184],[139.1197184,35.9977202],[139.1197807,35.9977599],[139.1198974,35.9978562],[139.1200909,35.9979898],[139.1202279,35.998065],[139.1203486,35.998134],[139.120378,35.9981525],[139.1203216,35.9981741],[139.1202883,35.9981801],[139.1202443,35.9981689],[139.1202026,35.9981425],[139.1202022,35.9981424],[139.1201468,35.998132],[139.1199794,35.99814],[139.1198293,35.9981408],[139.119652,35.9981331],[139.1194702,35.9981189],[139.1194381,35.9981358]]]},"properties":{"layer":"landuse","class_code":"203","class_label":"山林（樹林地）"}},{"type":"Feature","id":"luse_df202e75-a1a8-49ab-bb9a-7ab624d7af8b","geometry":{"type":"Polygon","coordinates":[[[139.1194476,35.9982269],[139.1194175,35.9982406],[139.1192595,35.9981613],[139.1189969,35.9980731],[139.1189966,35.998073],[139.1187562,35.9980086],[139.1187558,35.9980085],[139.1185228,35.9979723],[139.1185225,35.9979723],[139.1185051,35.9979711],[139.1185527,35.9979606],[139.1185512,35.9979584],[139.1187616,35.9979911],[139.1190047,35.998056],[139.1192696,35.9981452],[139.119418,35.9982197],[139.1194288,35.9982148],[139.1194363,35.9981939],[139.1194381,35.9981358],[139.1194702,35.9981189],[139.119652,35.9981331],[139.1198293,35.9981408],[139.1199794,35.99814],[139.1201468,35.998132],[139.1202022,35.9981424],[139.1202026,35.9981425],[139.1202443,35.9981689],[139.1202883,35.9981801],[139.1203216,35.9981741],[139.120378,35.9981525],[139.1203838,35.9981561],[139.1204099,35.9981591],[139.120394,35.9981663],[139.1203288,35.9981912],[139.1202874,35.9981987],[139.1202338,35.998185],[139.1201928,35.9981591],[139.120145,35.9981502],[139.1199801,35.998158],[139.1198288,35.9981588],[139.1196506,35.9981511],[139.1196502,35.9981511],[139.1194757,35.9981374],[139.1194599,35.9981458],[139.1194585,35.9981966],[139.1194476,35.9982269]]]},"properties":{"layer":"landuse","class_code":"215","class_label":"道路用地（道路、駅前広場、私有地内に存在する沿道用途の「私道」または、私有地の一部分であるものの公共の通行に供されている土地の部分）"}}]}