{"type":"FeatureCollection","properties":{"mesh_code":"53397045","source":"PLATEAU秩父市2025","layer":"landuse"},"features":[{"type":"Feature","id":"luse_35d306e6-9796-4e12-b843-ef8a2e45143d","geometry":{"type":"Polygon","coordinates":[[[139.075,35.95282725986478],[139.0748137,35.9528631],[139.0747517,35.9528717],[139.0743812,35.95293],[139.0742896,35.9529575],[139.0739748,35.9529999],[139.0738596,35.9530263],[139.0737291,35.9530524],[139.0736769,35.9530878],[139.0734449,35.9531767],[139.0734168,35.9531795],[139.0733829,35.9531804],[139.0733414,35.9531754],[139.0732643,35.9531519],[139.073221,35.953128],[139.0731637,35.9531001],[139.0731302,35.9530855],[139.0730754,35.9530645],[139.0730599,35.9530544],[139.0730415,35.9530438],[139.0730224,35.9530341],[139.0730025,35.9530255],[139.0729821,35.953018],[139.0729611,35.9530115],[139.0729396,35.953006],[139.072928,35.9530037],[139.0729594,35.9529669],[139.0729724,35.9529494],[139.0729746,35.9529365],[139.0729758,35.9529231],[139.0729759,35.9529096],[139.072975,35.9528962],[139.0729732,35.9528831],[139.0729716,35.9528753],[139.0729682,35.9528625],[139.0729636,35.9528496],[139.0729581,35.9528369],[139.0729517,35.9528246],[139.0729443,35.9528125],[139.0729344,35.9527989],[139.0729261,35.9527912],[139.0729074,35.9527752],[139.072887,35.9527599],[139.0728827,35.9527571],[139.0728657,35.9527459],[139.0728509,35.952737],[139.0728279,35.9527248],[139.0728038,35.9527138],[139.0728035,35.9527137],[139.0727792,35.9527041],[139.0727779,35.9527036],[139.0727613,35.9526972],[139.072746,35.9526901],[139.0727311,35.9526824],[139.0727169,35.9526739],[139.0727032,35.9526646],[139.0726902,35.9526547],[139.0726791,35.9526448],[139.0726678,35.9526338],[139.0726574,35.9526221],[139.072648,35.9526099],[139.0726398,35.9525977],[139.0725917,35.9525073],[139.0725535,35.9524335],[139.072549,35.9524279],[139.0725263,35.9524018],[139.0725012,35.9523765],[139.0724754,35.9523534],[139.0724467,35.9523309],[139.072443,35.9523282],[139.0724246,35.9523174],[139.0723775,35.9522958],[139.0723772,35.9522957],[139.0723762,35.9522953],[139.072362,35.9522896],[139.0723617,35.9522894],[139.0723613,35.9522893],[139.0723477,35.9522827],[139.0723352,35.9522757],[139.072323,35.9522681],[139.0723115,35.9522598],[139.0723006,35.952251],[139.0722905,35.9522416],[139.0722789,35.9522295],[139.0722693,35.9522213],[139.0722615,35.9522138],[139.0722542,35.9522058],[139.0722473,35.9521972],[139.0722468,35.9521965],[139.0722407,35.9521874],[139.0722355,35.9521785],[139.0722312,35.9521693],[139.0722274,35.95216],[139.0722245,35.9521505],[139.0722215,35.9521376],[139.0722008,35.952083],[139.0721778,35.952027],[139.0721386,35.9519497],[139.0721377,35.9519479],[139.0721341,35.9519417],[139.0721197,35.9519146],[139.0721075,35.9518869],[139.0721008,35.9518687],[139.0720922,35.95184],[139.0720859,35.9518111],[139.0720857,35.9518104],[139.0720845,35.951807],[139.0720835,35.9518035],[139.0720829,35.9517999],[139.0720825,35.9517963],[139.0720823,35.9517927],[139.0720825,35.951789],[139.0720829,35.9517854],[139.0720836,35.9517818],[139.0720846,35.9517783],[139.0720859,35.9517748],[139.0720875,35.9517714],[139.0720892,35.9517681],[139.0720913,35.9517649],[139.0720936,35.9517618],[139.072096,35.9517588],[139.0720988,35.9517559],[139.0721012,35.9517538],[139.0721042,35.9517512],[139.0721075,35.9517488],[139.0721111,35.9517466],[139.0721145,35.9517444],[139.0721182,35.9517426],[139.0721185,35.9517425],[139.0721223,35.9517409],[139.0721266,35.9517395],[139.0721305,35.9517382],[139.0721349,35.9517371],[139.0721392,35.9517363],[139.0721435,35.9517357],[139.0721444,35.9517357],[139.072148,35.9517353],[139.0721509,35.9517353],[139.0721523,35.9517352],[139.0721527,35.9517353],[139.0721548,35.9517353],[139.0721569,35.9517353],[139.0721614,35.9517356],[139.0721658,35.9517362],[139.0721699,35.9517369],[139.0721703,35.9517369],[139.0721742,35.9517379],[139.0721746,35.951738],[139.0721786,35.9517391],[139.0721827,35.9517405],[139.0721887,35.9517421],[139.0721891,35.9517422],[139.0721987,35.9517451],[139.0722077,35.9517485],[139.072208,35.9517486],[139.0722168,35.9517524],[139.0722171,35.9517526],[139.0722258,35.9517569],[139.0722343,35.9517617],[139.0722423,35.951767],[139.0722497,35.9517726],[139.0722561,35.9517778],[139.0722627,35.9517842],[139.0722691,35.9517908],[139.0722747,35.9517977],[139.0722798,35.951805],[139.0722845,35.9518125],[139.0722885,35.9518202],[139.0722919,35.9518281],[139.0722947,35.9518362],[139.0722968,35.9518444],[139.0722983,35.9518526],[139.0722992,35.951861],[139.0722995,35.9518694],[139.0722996,35.9518758],[139.0722987,35.951938],[139.0722933,35.9519999],[139.0722929,35.9520087],[139.0722932,35.9520205],[139.0722941,35.9520323],[139.0722964,35.952044],[139.0722994,35.9520556],[139.0723031,35.952067],[139.0723079,35.9520783],[139.0723103,35.9520832],[139.0723161,35.9520941],[139.0723229,35.9521045],[139.0723305,35.9521146],[139.0723374,35.9521228],[139.0723388,35.9521243],[139.072348,35.9521336],[139.0723578,35.9521423],[139.0723683,35.9521506],[139.0723792,35.9521583],[139.072391,35.9521654],[139.0724294,35.9521851],[139.0724561,35.9521987],[139.0725783,35.9522544],[139.0726693,35.9522907],[139.0727981,35.9523353],[139.0728182,35.9523408],[139.0728862,35.952362],[139.0728865,35.9523621],[139.0729174,35.9523717],[139.0730011,35.9524028],[139.0730139,35.9524076],[139.0731016,35.9524454],[139.0731919,35.9524905],[139.0732788,35.9525402],[139.0732812,35.9525419],[139.0733141,35.9525641],[139.0733538,35.9525882],[139.0733957,35.9526101],[139.0734388,35.9526299],[139.0734706,35.9526426],[139.073471,35.9526427],[139.0735166,35.9526584],[139.0735632,35.952672],[139.073611,35.952683],[139.0736593,35.9526916],[139.0736596,35.9526917],[139.0738003,35.9527178],[139.0739022,35.9527321],[139.073955,35.9527373],[139.0740509,35.9527467],[139.0740513,35.9527467],[139.0740796,35.9527489],[139.0741413,35.9527517],[139.0741492,35.9527521],[139.0741767,35.9527533],[139.074177,35.9527533],[139.0742234,35.9527531],[139.0742742,35.9527528],[139.0743282,35.95275],[139.0743545,35.9527486],[139.0743549,35.9527486],[139.0744514,35.9527389],[139.0745469,35.9527245],[139.0745472,35.9527244],[139.0747049,35.9526938],[139.0747661,35.95268],[139.0749208,35.9526403],[139.075,35.95261682741936],[139.075,35.95137536555716],[139.0749314,35.9513432],[139.0748648,35.9513078],[139.0748005,35.9512698],[139.0747971,35.9512677],[139.0747575,35.9512415],[139.0747051,35.9511829],[139.0746971,35.9511662],[139.0746918,35.9511353],[139.0746844,35.9510689],[139.074681,35.9509993],[139.074682,35.9509295],[139.0746874,35.95086],[139.0746973,35.9507907],[139.0747115,35.950722],[139.074724,35.9506744],[139.0747391,35.9506225],[139.0747454,35.9505944],[139.0747492,35.9505693],[139.0747528,35.9505565],[139.074756,35.9505498],[139.074761,35.9505428],[139.0747663,35.9505381],[139.074778,35.9505285],[139.074786,35.9505221],[139.0747872,35.9505211],[139.0747991,35.9505133],[139.0748154,35.9505039],[139.0748405,35.9504892],[139.0749142,35.9504637],[139.0749831,35.9504405],[139.075,35.950435203703705],[139.075,35.95061472090396],[139.0748757,35.9506958],[139.0748552,35.9507148],[139.0748355,35.9507474],[139.0748293,35.9507955],[139.0748359,35.9508647],[139.0748397,35.9509004],[139.0748607,35.9509881],[139.0748775,35.9510371],[139.0749043,35.9510887],[139.0749532,35.9511449],[139.074986,35.9511712],[139.075,35.951180905989105],[139.075,35.95282725986478]]]},"properties":{"layer":"landuse","class_code":"203","class_label":"山林（樹林地）"}},{"type":"Feature","id":"luse_80ca3564-43e1-40b8-8d67-9e412f65aac0","geometry":{"type":"Polygon","coordinates":[[[139.0673046,35.95429],[139.0673042,35.95429],[139.0672849,35.9542914],[139.0672497,35.954294],[139.0671957,35.9543008],[139.0671954,35.9543008],[139.06716,35.9543067],[139.0671211,35.9543167],[139.0670841,35.9543283],[139.0670837,35.9543284],[139.0670476,35.9543419],[139.0670209,35.9543534],[139.0669868,35.95437],[139.0669541,35.9543885],[139.0669231,35.9544084],[139.066918,35.9544118],[139.0668487,35.954469],[139.0668131,35.9544958],[139.0667392,35.9545462],[139.0667221,35.9545569],[139.0665901,35.9546193],[139.0665869,35.9546207],[139.0664491,35.9546767],[139.0664194,35.9546874],[139.0663997,35.9546947],[139.0663556,35.9547142],[139.0663153,35.9547355],[139.0662733,35.9547592],[139.0661696,35.9548232],[139.0660753,35.954888],[139.0659668,35.9549522],[139.0658708,35.9550126],[139.0658578,35.9550203],[139.0657884,35.9550618],[139.0656978,35.9551215],[139.0656067,35.9551845],[139.0655178,35.9552434],[139.0654374,35.9552975],[139.0653773,35.955326],[139.0653045,35.9553507],[139.065264,35.9553596],[139.0652333,35.9553663],[139.0651716,35.9553809],[139.0651227,35.9553967],[139.0651223,35.9553968],[139.065043,35.9554248],[139.0650264,35.9554321],[139.0649965,35.9553333],[139.0650161,35.9553229],[139.065132,35.9552947],[139.0652247,35.9552503],[139.0653175,35.9552043],[139.0654316,35.9551629],[139.0655391,35.9551124],[139.0656513,35.955053],[139.0657605,35.9549923],[139.0658669,35.9549231],[139.0659634,35.9548618],[139.0660581,35.9547935],[139.0661497,35.9547345],[139.0662342,35.9546789],[139.0662677,35.9546541],[139.0663031,35.9546311],[139.0663402,35.9546099],[139.0663756,35.9545922],[139.0664156,35.9545747],[139.0664567,35.9545594],[139.0664806,35.9545517],[139.0665083,35.9545489],[139.0665356,35.9545447],[139.0665626,35.9545391],[139.066589,35.9545321],[139.0666149,35.9545238],[139.0666333,35.9545169],[139.0666579,35.9545064],[139.0666817,35.9544946],[139.0667045,35.9544817],[139.0667131,35.9544763],[139.0667746,35.9544431],[139.0668333,35.9544069],[139.0668442,35.9543997],[139.0668994,35.9543599],[139.0669393,35.9543279],[139.0669726,35.9543047],[139.0670077,35.9542833],[139.0670396,35.9542662],[139.0670512,35.9542606],[139.0670775,35.9542483],[139.0671167,35.9542324],[139.0671242,35.9542297],[139.0671629,35.9542147],[139.0672026,35.9542018],[139.0672087,35.9542002],[139.0672432,35.9541909],[139.06727,35.9541853],[139.0672861,35.9541819],[139.0672871,35.9541817],[139.0673292,35.9541753],[139.0673717,35.9541709],[139.0674144,35.9541688],[139.0674188,35.9541686],[139.06749,35.9541556],[139.06756,35.9541388],[139.0675676,35.9541368],[139.0676361,35.9541161],[139.067692,35.9540961],[139.0678204,35.9540119],[139.0679328,35.9539386],[139.0679869,35.9538962],[139.0680443,35.9538566],[139.0680757,35.9538369],[139.0681375,35.9538021],[139.068199,35.9537716],[139.0682475,35.9537554],[139.0682971,35.9537415],[139.0683477,35.9537304],[139.0683884,35.9537233],[139.0684403,35.9537168],[139.0684925,35.9537129],[139.0685216,35.9537119],[139.0686722,35.9537044],[139.0688546,35.9536959],[139.0690141,35.9536961],[139.069042,35.9536953],[139.0691743,35.9536879],[139.0692068,35.9536842],[139.0692391,35.9536789],[139.0692709,35.9536719],[139.0693021,35.9536634],[139.0693173,35.9536585],[139.0693474,35.9536476],[139.0693765,35.9536352],[139.0694047,35.9536213],[139.0694317,35.953606],[139.0694575,35.9535894],[139.0694819,35.9535714],[139.0694853,35.9535688],[139.0695295,35.9535398],[139.0695716,35.9535086],[139.069598,35.9534868],[139.0696358,35.9534522],[139.0696424,35.9534437],[139.0697516,35.9533463],[139.0698503,35.9532525],[139.06988,35.9532252],[139.0699117,35.9531996],[139.0699352,35.9531826],[139.0699701,35.9531599],[139.0700068,35.953139],[139.0700298,35.9531271],[139.0700754,35.9531022],[139.0700924,35.953094],[139.0701068,35.9530872],[139.0701228,35.9530795],[139.0701664,35.9530614],[139.0702168,35.9530434],[139.0702685,35.9530282],[139.07031,35.953018],[139.0704197,35.9529849],[139.0704575,35.952972],[139.0705633,35.9529315],[139.0705707,35.9529284],[139.0706706,35.9528849],[139.0707261,35.9528578],[139.0708363,35.9527985],[139.0710512,35.952701],[139.0710869,35.9526834],[139.0712169,35.9526155],[139.0712872,35.9525855],[139.0713596,35.9525591],[139.0714273,35.9525384],[139.0715032,35.9525192],[139.0715804,35.952504],[139.0715877,35.9525028],[139.0716108,35.9524993],[139.0716341,35.9524969],[139.0716576,35.9524957],[139.071681,35.9524958],[139.0717045,35.952497],[139.0717232,35.952499],[139.0717464,35.9525024],[139.0717691,35.9525069],[139.0717915,35.9525126],[139.0718135,35.9525195],[139.0718348,35.9525274],[139.0718554,35.9525365],[139.0718721,35.9525447],[139.0719604,35.9525974],[139.0719764,35.9526078],[139.0720595,35.9526658],[139.0721148,35.9527087],[139.0721913,35.9527566],[139.0722639,35.9528085],[139.0722881,35.9528274],[139.072355,35.9528841],[139.0723799,35.952907],[139.0724013,35.9529272],[139.0724242,35.9529461],[139.0724485,35.952964],[139.0724741,35.9529805],[139.072501,35.9529956],[139.0725073,35.9529989],[139.0725354,35.9530124],[139.0725647,35.9530244],[139.0725835,35.9530312],[139.0725931,35.9530362],[139.0726032,35.9530407],[139.0726135,35.9530448],[139.0726242,35.9530483],[139.072635,35.9530512],[139.0726462,35.9530536],[139.0726574,35.9530555],[139.0726585,35.9530556],[139.0726698,35.9530568],[139.0726813,35.9530574],[139.0726927,35.9530574],[139.0727042,35.9530569],[139.0727155,35.9530557],[139.0727269,35.953054],[139.0727353,35.9530523],[139.0727594,35.9530446],[139.0727842,35.9530381],[139.0728093,35.9530329],[139.0728146,35.9530321],[139.0728401,35.9530284],[139.0728529,35.9530271],[139.0728607,35.9530275],[139.0728581,35.9530307],[139.072804,35.9530814],[139.0727885,35.9530903],[139.0727722,35.9530984],[139.0727553,35.9531056],[139.0727377,35.953112],[139.0727198,35.9531174],[139.0727016,35.953122],[139.072696,35.9531231],[139.0726832,35.9531256],[139.0726828,35.9531256],[139.072679,35.9531262],[139.0726602,35.9531287],[139.0726414,35.9531301],[139.072641,35.9531301],[139.072622,35.9531306],[139.0726029,35.9531301],[139.0725842,35.9531288],[139.0725838,35.9531287],[139.0725651,35.9531263],[139.0725466,35.953123],[139.0725462,35.9531229],[139.0725329,35.9531199],[139.0725013,35.9531099],[139.0725009,35.9531098],[139.0724701,35.9530982],[139.0724401,35.953085],[139.0724123,35.953071],[139.0723847,35.9530549],[139.0723582,35.9530375],[139.0723331,35.9530187],[139.0723257,35.9530127],[139.072228,35.9529327],[139.0720865,35.9528147],[139.0720627,35.9527946],[139.0720375,35.9527759],[139.0720108,35.9527585],[139.0720041,35.9527546],[139.0719759,35.9527389],[139.0719467,35.9527246],[139.0719163,35.9527121],[139.0719159,35.9527119],[139.0719002,35.9527061],[139.0718947,35.9527045],[139.0718602,35.9526966],[139.0718389,35.9526929],[139.0718299,35.9526833],[139.0718194,35.9526749],[139.0718075,35.9526675],[139.0717998,35.9526635],[139.0717863,35.9526582],[139.0717723,35.9526544],[139.0717623,35.9526525],[139.0717231,35.9526467],[139.0716904,35.952645],[139.0716506,35.9526467],[139.0716469,35.9526472],[139.071644,35.9526477],[139.0716117,35.9526524],[139.0715893,35.9526575],[139.0715873,35.952658],[139.071568,35.9526718],[139.0715089,35.9527143],[139.0715085,35.9527143],[139.0713786,35.9527527],[139.0713372,35.9527664],[139.0713369,35.9527665],[139.0712006,35.9528165],[139.0712003,35.9528166],[139.071056,35.9528708],[139.0710083,35.952865],[139.0709234,35.9528991],[139.070816,35.9529423],[139.0705996,35.9530294],[139.0705993,35.9530295],[139.0704361,35.9531034],[139.0702489,35.9531881],[139.0702254,35.9532002],[139.0701809,35.953226],[139.0701383,35.9532539],[139.0701192,35.9532676],[139.07008,35.9532986],[139.0700433,35.9533316],[139.0700134,35.9533541],[139.0699567,35.9534025],[139.0698698,35.9534983],[139.0697872,35.9535818],[139.0697419,35.9536159],[139.0696927,35.9536486],[139.0696406,35.9536788],[139.0696322,35.9536833],[139.0695776,35.9537104],[139.069521,35.9537345],[139.0695015,35.9537419],[139.0694475,35.9537633],[139.0693932,35.9537813],[139.0693376,35.9537967],[139.0693373,35.9537967],[139.0693134,35.9538023],[139.0693131,35.9538024],[139.0692561,35.9538135],[139.0692557,35.9538136],[139.0692007,35.9538214],[139.0691982,35.9538218],[139.0691393,35.9538271],[139.0691352,35.9538273],[139.0689812,35.9538419],[139.0688817,35.9538513],[139.0688814,35.9538513],[139.0688696,35.9538521],[139.0688692,35.9538521],[139.0687669,35.9538569],[139.0686831,35.9538609],[139.0686731,35.9538615],[139.0686721,35.9538616],[139.0685376,35.9538701],[139.0685212,35.9538716],[139.0683768,35.9538891],[139.0683765,35.9538891],[139.0683585,35.9538918],[139.0683582,35.9538919],[139.0683304,35.9538978],[139.06833,35.9538978],[139.0683027,35.9539051],[139.0682758,35.9539138],[139.0682498,35.9539238],[139.0682245,35.9539352],[139.0682001,35.9539478],[139.068177,35.9539616],[139.0681635,35.9539703],[139.0681422,35.9539858],[139.0681218,35.9540025],[139.0681028,35.9540202],[139.0680142,35.9541138],[139.0680044,35.9541226],[139.0679708,35.9541492],[139.067938,35.9541723],[139.0679008,35.9541953],[139.067862,35.9542163],[139.0678214,35.9542355],[139.0678014,35.9542441],[139.0677508,35.9542597],[139.0676984,35.954273],[139.0676447,35.9542836],[139.067615,35.9542883],[139.0676146,35.9542883],[139.0675601,35.9542946],[139.0675287,35.9542967],[139.0675283,35.9542967],[139.06747,35.9542952],[139.0674695,35.9542952],[139.0674557,35.9542937],[139.0674479,35.9542928],[139.0673932,35.9542895],[139.0673928,35.9542895],[139.0673524,35.9542891],[139.0673445,35.954289],[139.0673383,35.954289],[139.0673379,35.954289],[139.0673046,35.95429]]]},"properties":{"layer":"landuse","class_code":"203","class_label":"山林（樹林地）"}},{"type":"Feature","id":"luse_fcfaadea-095e-46aa-84c0-cac21564245a","geometry":{"type":"Polygon","coordinates":[[[139.075,35.950649243958345],[139.0748987,35.9507153],[139.0748831,35.9507299],[139.074868,35.950755],[139.0748626,35.9507959],[139.0748691,35.9508625],[139.0748727,35.9508967],[139.0748931,35.9509819],[139.074909,35.9510282],[139.0749335,35.9510756],[139.0749786,35.9511273],[139.075,35.95114446308724],[139.075,35.952855098016485],[139.0748203,35.9528897],[139.0747576,35.9528983],[139.0743901,35.9529562],[139.0742981,35.9529838],[139.073982,35.9530264],[139.0738681,35.9530524],[139.0737445,35.9530772],[139.0736949,35.9531107],[139.0734543,35.9532031],[139.0734195,35.9532064],[139.073381,35.9532075],[139.0733329,35.9532017],[139.0732426,35.953178],[139.0732001,35.9531546],[139.0731446,35.9531275],[139.0731127,35.9531137],[139.0730542,35.9530913],[139.0730521,35.9530897],[139.0730365,35.9530795],[139.07302,35.9530701],[139.0730031,35.9530615],[139.0729854,35.9530538],[139.072967,35.9530471],[139.0729484,35.9530413],[139.0729292,35.9530364],[139.0729098,35.9530326],[139.0729042,35.9530317],[139.072928,35.9530037],[139.0729396,35.953006],[139.0729611,35.9530115],[139.0729821,35.953018],[139.0730025,35.9530255],[139.0730224,35.9530341],[139.0730415,35.9530438],[139.0730599,35.9530544],[139.0730754,35.9530645],[139.0731302,35.9530855],[139.0731637,35.9531001],[139.073221,35.953128],[139.0732643,35.9531519],[139.0733414,35.9531754],[139.0733829,35.9531804],[139.0734168,35.9531795],[139.0734449,35.9531767],[139.0736769,35.9530878],[139.0737291,35.9530524],[139.0738596,35.9530263],[139.0739748,35.9529999],[139.0742896,35.9529575],[139.0743812,35.95293],[139.0747517,35.9528717],[139.0748137,35.9528631],[139.075,35.95282725986478],[139.075,35.951180905989105],[139.074986,35.9511712],[139.0749532,35.9511449],[139.0749043,35.9510887],[139.0748775,35.9510371],[139.0748607,35.9509881],[139.0748397,35.9509004],[139.0748359,35.9508647],[139.0748293,35.9507955],[139.0748355,35.9507474],[139.0748552,35.9507148],[139.0748757,35.9506958],[139.075,35.95061472090396],[139.075,35.950649243958345]]]},"properties":{"layer":"landuse","class_code":"204","class_label":"水面（河川水面、湖沼、ため池、用水路、濠、運河水面）"}},{"type":"Feature","id":"luse_67184de1-7b61-4192-b2a7-e272781ea097","geometry":{"type":"Polygon","coordinates":[[[139.06756,35.9541388],[139.06749,35.9541556],[139.0674188,35.9541686],[139.0674144,35.9541688],[139.0673717,35.9541709],[139.0673292,35.9541753],[139.0672871,35.9541817],[139.0672861,35.9541819],[139.06727,35.9541853],[139.0672432,35.9541909],[139.0672087,35.9542002],[139.0672026,35.9542018],[139.0671629,35.9542147],[139.0671242,35.9542297],[139.0671167,35.9542324],[139.0670775,35.9542483],[139.0670512,35.9542606],[139.0670396,35.9542662],[139.0670077,35.9542833],[139.0669726,35.9543047],[139.0669393,35.9543279],[139.0668994,35.9543599],[139.0668442,35.9543997],[139.0668333,35.9544069],[139.0667746,35.9544431],[139.0667131,35.9544763],[139.0667045,35.9544817],[139.0666817,35.9544946],[139.0666579,35.9545064],[139.0666333,35.9545169],[139.0666149,35.9545238],[139.066589,35.9545321],[139.0665626,35.9545391],[139.0665356,35.9545447],[139.0665083,35.9545489],[139.0664806,35.9545517],[139.0664567,35.9545594],[139.0664156,35.9545747],[139.0663756,35.9545922],[139.0663402,35.9546099],[139.0663031,35.9546311],[139.0662677,35.9546541],[139.0662342,35.9546789],[139.0661497,35.9547345],[139.0660581,35.9547935],[139.0659634,35.9548618],[139.0658669,35.9549231],[139.0657605,35.9549923],[139.0656513,35.955053],[139.0655391,35.9551124],[139.0654316,35.9551629],[139.0653175,35.9552043],[139.0652247,35.9552503],[139.065132,35.9552947],[139.0650161,35.9553229],[139.0649965,35.9553333],[139.0649662,35.9553494],[139.0648567,35.9554106],[139.0647583,35.9554427],[139.0646684,35.9554741],[139.0645518,35.9555149],[139.0644458,35.9555445],[139.0643509,35.9555751],[139.0642648,35.9556017],[139.0641914,35.9556422],[139.0641352,35.9556926],[139.0641006,35.9557455],[139.0640897,35.9558248],[139.0640956,35.9558934],[139.0641037,35.9559597],[139.0641014,35.9560388],[139.0640914,35.9561144],[139.0640537,35.9561996],[139.0639995,35.9562724],[139.0639429,35.9563408],[139.0638734,35.9564074],[139.0638145,35.9564667],[139.0637402,35.956509],[139.0636277,35.9565559],[139.0635213,35.956596],[139.0634119,35.9566299],[139.0633184,35.9566729],[139.0632328,35.9567293],[139.0631569,35.956795],[139.0630664,35.9568544],[139.0629856,35.9569267],[139.0629264,35.9569872],[139.0628903,35.9570565],[139.0628683,35.9571287],[139.0628663,35.9571952],[139.062874,35.9572907],[139.0628799,35.9573255],[139.0628903,35.9573874],[139.0628952,35.9574525],[139.0628886,35.9575059],[139.0628878,35.9575123],[139.0628769,35.9575518],[139.0628474,35.9575788],[139.0628054,35.9576116],[139.0627486,35.9576408],[139.062704,35.957685],[139.062658,35.9577391],[139.0626438,35.957793],[139.0626294,35.9578559],[139.0625948,35.9579079],[139.0625444,35.9579533],[139.0625094,35.9579993],[139.0625,35.95801077558387],[139.0625,35.95794313351498],[139.0625088,35.9579316],[139.0625583,35.957887],[139.0625872,35.9578438],[139.0626003,35.9577859],[139.0626166,35.9577245],[139.0626685,35.9576633],[139.0627188,35.9576135],[139.0627778,35.957583],[139.0628154,35.9575538],[139.0628514,35.9575209],[139.062855,35.957508],[139.0628618,35.957452],[139.0628571,35.9573901],[139.0628408,35.9572933],[139.062833,35.9571958],[139.0628352,35.9571251],[139.0628585,35.957048],[139.0628976,35.9569732],[139.0629603,35.9569092],[139.0630435,35.9568347],[139.0631341,35.9567753],[139.0632101,35.9567094],[139.0632995,35.9566505],[139.0633977,35.9566054],[139.0635083,35.9565712],[139.063613,35.9565316],[139.063723,35.9564857],[139.0637917,35.9564467],[139.0638479,35.9563901],[139.0639163,35.9563245],[139.0639713,35.9562578],[139.0640236,35.956188],[139.0640588,35.9561084],[139.0640681,35.956037],[139.0640703,35.9559608],[139.0640625,35.9558958],[139.0640562,35.9558243],[139.0640682,35.9557374],[139.0641079,35.9556769],[139.0641694,35.9556215],[139.0642494,35.9555776],[139.0643388,35.95555],[139.0644343,35.9555192],[139.0645397,35.9554896],[139.0646553,35.9554493],[139.0647455,35.9554178],[139.064841,35.9553867],[139.0649477,35.9553269],[139.0649881,35.9553055],[139.0650019,35.9552981],[139.0651186,35.9552697],[139.0652076,35.9552271],[139.0653019,35.9551803],[139.0654164,35.9551387],[139.0655216,35.9550894],[139.0656328,35.9550304],[139.0657406,35.9549705],[139.0658463,35.9549019],[139.0659421,35.954841],[139.0660366,35.9547727],[139.0660966,35.9547341],[139.066208,35.9546555],[139.0662425,35.9546301],[139.0662798,35.9546058],[139.0663188,35.9545835],[139.0663562,35.9545648],[139.0663983,35.9545465],[139.0664415,35.9545305],[139.066471,35.9545209],[139.0665023,35.9545177],[139.0665272,35.9545139],[139.0665518,35.9545087],[139.0665759,35.9545024],[139.0665997,35.9544948],[139.0666162,35.9544886],[139.0666388,35.9544789],[139.0666605,35.9544682],[139.0666815,35.9544562],[139.0666905,35.9544507],[139.066752,35.9544175],[139.0668093,35.9543821],[139.066819,35.9543756],[139.0668729,35.9543368],[139.066913,35.9543046],[139.0669483,35.9542801],[139.0669634,35.954271],[139.0669853,35.9542576],[139.0670191,35.9542394],[139.0670591,35.9542205],[139.0671,35.9542039],[139.0671078,35.954201],[139.0671473,35.9541857],[139.0671807,35.9541749],[139.0671893,35.9541721],[139.0672324,35.9541607],[139.0672601,35.9541548],[139.0672762,35.9541514],[139.0672792,35.9541509],[139.0673232,35.954144],[139.067368,35.9541395],[139.0674127,35.9541372],[139.0674139,35.9541372],[139.0674802,35.954125],[139.0675485,35.9541087],[139.0675547,35.954107],[139.0676215,35.9540868],[139.0676717,35.9540689],[139.067796,35.9539873],[139.0679071,35.9539148],[139.0679609,35.9538728],[139.0680199,35.953832],[139.0680528,35.9538114],[139.0681163,35.9537756],[139.0681814,35.9537434],[139.0682338,35.9537258],[139.0682857,35.9537114],[139.0683386,35.9536997],[139.0683814,35.9536923],[139.0684356,35.9536854],[139.0684899,35.9536814],[139.0685195,35.9536805],[139.0686699,35.953673],[139.0688535,35.9536644],[139.0690134,35.9536645],[139.0690399,35.9536637],[139.0691703,35.9536565],[139.0692003,35.9536531],[139.0692302,35.9536482],[139.0692596,35.9536417],[139.0692888,35.9536337],[139.0693023,35.9536294],[139.0693216,35.9536225],[139.0693305,35.9536192],[139.0693574,35.9536078],[139.0693835,35.9535949],[139.0694085,35.9535807],[139.0694324,35.9535652],[139.0694554,35.9535483],[139.0694596,35.9535451],[139.0695043,35.9535159],[139.0695447,35.9534858],[139.0695697,35.9534653],[139.069606,35.953432],[139.0696137,35.9534225],[139.0697224,35.9533254],[139.0698211,35.9532317],[139.0698518,35.9532035],[139.0698851,35.9531766],[139.0699101,35.9531585],[139.0699468,35.9531346],[139.0699852,35.9531127],[139.0700087,35.9531008],[139.0700547,35.9530755],[139.070071,35.9530677],[139.0700853,35.9530608],[139.0701041,35.9530518],[139.0701499,35.9530328],[139.0702025,35.9530141],[139.0702563,35.9529983],[139.0702976,35.9529881],[139.0704055,35.9529556],[139.0704417,35.9529432],[139.0705462,35.9529032],[139.070553,35.9529004],[139.0706514,35.9528575],[139.0707054,35.9528312],[139.0708161,35.9527715],[139.0710316,35.9526738],[139.0710664,35.9526567],[139.0711974,35.9525883],[139.0712702,35.9525571],[139.0713449,35.95253],[139.0714147,35.9525085],[139.0714929,35.9524889],[139.0715719,35.9524732],[139.0715803,35.9524718],[139.0716049,35.9524681],[139.0716305,35.9524655],[139.0716565,35.9524642],[139.0716824,35.9524643],[139.0717081,35.9524656],[139.0717291,35.9524677],[139.0717544,35.9524714],[139.0717796,35.9524765],[139.0718043,35.9524828],[139.0718285,35.9524904],[139.071852,35.9524992],[139.0718748,35.9525091],[139.0718937,35.9525185],[139.0719839,35.9525725],[139.072001,35.9525835],[139.0720855,35.9526423],[139.0721401,35.9526847],[139.0722159,35.9527323],[139.07229,35.9527852],[139.0723156,35.952805],[139.0723836,35.9528627],[139.0724091,35.9528863],[139.0724299,35.9529058],[139.072451,35.9529234],[139.0724736,35.9529399],[139.0724972,35.9529552],[139.0725225,35.9529694],[139.0725275,35.952972],[139.072554,35.9529846],[139.0725812,35.9529958],[139.072602,35.9530033],[139.0726131,35.9530092],[139.0726211,35.9530127],[139.0726293,35.9530159],[139.0726375,35.9530187],[139.0726462,35.953021],[139.0726549,35.9530229],[139.0726642,35.9530245],[139.0726735,35.9530254],[139.0726826,35.9530258],[139.0726916,35.9530259],[139.0727007,35.9530254],[139.0727096,35.9530246],[139.0727186,35.9530232],[139.0727235,35.9530221],[139.0727464,35.9530149],[139.0727734,35.9530078],[139.0728005,35.9530022],[139.0728071,35.9530011],[139.0728343,35.9529972],[139.0728517,35.9529955],[139.0728765,35.9529967],[139.0728804,35.9529971],[139.072886,35.9529976],[139.0728803,35.9530046],[139.0728607,35.9530275],[139.0728529,35.9530271],[139.0728401,35.9530284],[139.0728146,35.9530321],[139.0728093,35.9530329],[139.0727842,35.9530381],[139.0727594,35.9530446],[139.0727353,35.9530523],[139.0727269,35.953054],[139.0727155,35.9530557],[139.0727042,35.9530569],[139.0726927,35.9530574],[139.0726813,35.9530574],[139.0726698,35.9530568],[139.0726585,35.9530556],[139.0726574,35.9530555],[139.0726462,35.9530536],[139.072635,35.9530512],[139.0726242,35.9530483],[139.0726135,35.9530448],[139.0726032,35.9530407],[139.0725931,35.9530362],[139.0725835,35.9530312],[139.0725647,35.9530244],[139.0725354,35.9530124],[139.0725073,35.9529989],[139.072501,35.9529956],[139.0724741,35.9529805],[139.0724485,35.952964],[139.0724242,35.9529461],[139.0724013,35.9529272],[139.0723799,35.952907],[139.072355,35.9528841],[139.0722881,35.9528274],[139.0722639,35.9528085],[139.0721913,35.9527566],[139.0721148,35.9527087],[139.0720595,35.9526658],[139.0719764,35.9526078],[139.0719604,35.9525974],[139.0718721,35.9525447],[139.0718554,35.9525365],[139.0718348,35.9525274],[139.0718135,35.9525195],[139.0717915,35.9525126],[139.0717691,35.9525069],[139.0717464,35.9525024],[139.0717232,35.952499],[139.0717045,35.952497],[139.071681,35.9524958],[139.0716576,35.9524957],[139.0716341,35.9524969],[139.0716108,35.9524993],[139.0715877,35.9525028],[139.0715804,35.952504],[139.0715032,35.9525192],[139.0714273,35.9525384],[139.0713596,35.9525591],[139.0712872,35.9525855],[139.0712169,35.9526155],[139.0710869,35.9526834],[139.0710512,35.952701],[139.0708363,35.9527985],[139.0707261,35.9528578],[139.0706706,35.9528849],[139.0705707,35.9529284],[139.0705633,35.9529315],[139.0704575,35.952972],[139.0704197,35.9529849],[139.07031,35.953018],[139.0702685,35.9530282],[139.0702168,35.9530434],[139.0701664,35.9530614],[139.0701228,35.9530795],[139.0701068,35.9530872],[139.0700924,35.953094],[139.0700754,35.9531022],[139.0700298,35.9531271],[139.0700068,35.953139],[139.0699701,35.9531599],[139.0699352,35.9531826],[139.0699117,35.9531996],[139.06988,35.9532252],[139.0698503,35.9532525],[139.0697516,35.9533463],[139.0696424,35.9534437],[139.0696358,35.9534522],[139.069598,35.9534868],[139.0695716,35.9535086],[139.0695295,35.9535398],[139.0694853,35.9535688],[139.0694819,35.9535714],[139.0694575,35.9535894],[139.0694317,35.953606],[139.0694047,35.9536213],[139.0693765,35.9536352],[139.0693474,35.9536476],[139.0693173,35.9536585],[139.0693021,35.9536634],[139.0692709,35.9536719],[139.0692391,35.9536789],[139.0692068,35.9536842],[139.0691743,35.9536879],[139.069042,35.9536953],[139.0690141,35.9536961],[139.0688546,35.9536959],[139.0686722,35.9537044],[139.0685216,35.9537119],[139.0684925,35.9537129],[139.0684403,35.9537168],[139.0683884,35.9537233],[139.0683477,35.9537304],[139.0682971,35.9537415],[139.0682475,35.9537554],[139.068199,35.9537716],[139.0681375,35.9538021],[139.0680757,35.9538369],[139.0680443,35.9538566],[139.0679869,35.9538962],[139.0679328,35.9539386],[139.0678204,35.9540119],[139.067692,35.9540961],[139.0676361,35.9541161],[139.0675676,35.9541368],[139.06756,35.9541388]]]},"properties":{"layer":"landuse","class_code":"204","class_label":"水面（河川水面、湖沼、ため池、用水路、濠、運河水面）"}},{"type":"Feature","id":"luse_98b5093d-9a6f-4b09-b9ca-4d798d92b93b","geometry":{"type":"Polygon","coordinates":[[[139.0649881,35.9553055],[139.0649477,35.9553269],[139.064841,35.9553867],[139.0647455,35.9554178],[139.0646553,35.9554493],[139.0645397,35.9554896],[139.0644343,35.9555192],[139.0643388,35.95555],[139.0642494,35.9555776],[139.0641694,35.9556215],[139.0641079,35.9556769],[139.0640682,35.9557374],[139.0640562,35.9558243],[139.0640625,35.9558958],[139.0640703,35.9559608],[139.0640681,35.956037],[139.0640588,35.9561084],[139.0640236,35.956188],[139.0639713,35.9562578],[139.0639163,35.9563245],[139.0638479,35.9563901],[139.0637917,35.9564467],[139.063723,35.9564857],[139.063613,35.9565316],[139.0635083,35.9565712],[139.0633977,35.9566054],[139.0632995,35.9566505],[139.0632101,35.9567094],[139.0631341,35.9567753],[139.0630435,35.9568347],[139.0629603,35.9569092],[139.0628976,35.9569732],[139.0628585,35.957048],[139.0628352,35.9571251],[139.062833,35.9571958],[139.0628408,35.9572933],[139.0628571,35.9573901],[139.0628618,35.957452],[139.062855,35.957508],[139.0628514,35.9575209],[139.0628154,35.9575538],[139.0627778,35.957583],[139.0627188,35.9576135],[139.0626685,35.9576633],[139.0626166,35.9577245],[139.0626003,35.9577859],[139.0625872,35.9578438],[139.0625583,35.957887],[139.0625088,35.9579316],[139.0625,35.95794313351498],[139.0625,35.95770458545897],[139.0625269,35.9576578],[139.0626194,35.9574642],[139.0626003,35.9572578],[139.0626522,35.9570806],[139.0627291,35.9569612],[139.0628157,35.9569038],[139.0629177,35.9568341],[139.0631009,35.9567357],[139.0633404,35.9565799],[139.0636002,35.9564118],[139.0638091,35.9562806],[139.0639067,35.9560952],[139.063943,35.9559593],[139.0640309,35.9557037],[139.0640931,35.9556037],[139.0641128,35.955572],[139.0642198,35.9555147],[139.0646722,35.9553927],[139.0648555,35.9553027],[139.0649097,35.9552772],[139.0649709,35.9552484],[139.0649881,35.9553055]]]},"properties":{"layer":"landuse","class_code":"205","class_label":"その他自然地（原野・牧野、荒れ地（耕作放棄地等自然的状況のもの）、低湿地、河川敷・河原、海浜、湖岸）"}},{"type":"Feature","id":"luse_01665236-a0a3-4f39-b0a6-7978b425c8a4","geometry":{"type":"Polygon","coordinates":[[[139.0625,35.958333333333336],[139.0625,35.95801077558387],[139.0625094,35.9579993],[139.0625444,35.9579533],[139.0625948,35.9579079],[139.0626294,35.9578559],[139.0626438,35.957793],[139.062658,35.9577391],[139.062704,35.957685],[139.0627486,35.9576408],[139.0628054,35.9576116],[139.0628474,35.9575788],[139.0628769,35.9575518],[139.0628878,35.9575123],[139.0628886,35.9575059],[139.0628952,35.9574525],[139.0628903,35.9573874],[139.0628799,35.9573255],[139.062874,35.9572907],[139.0628663,35.9571952],[139.0628683,35.9571287],[139.0628903,35.9570565],[139.0629264,35.9569872],[139.0629856,35.9569267],[139.0630664,35.9568544],[139.0631569,35.956795],[139.0632328,35.9567293],[139.0633184,35.9566729],[139.0634119,35.9566299],[139.0635213,35.956596],[139.0636277,35.9565559],[139.0637402,35.956509],[139.0638145,35.9564667],[139.0638734,35.9564074],[139.0639429,35.9563408],[139.0639995,35.9562724],[139.0640537,35.9561996],[139.0640914,35.9561144],[139.0641014,35.9560388],[139.0641037,35.9559597],[139.0640956,35.9558934],[139.0640897,35.9558248],[139.0641006,35.9557455],[139.0641352,35.9556926],[139.0641914,35.9556422],[139.0642648,35.9556017],[139.0643509,35.9555751],[139.0644458,35.9555445],[139.0645518,35.9555149],[139.0646684,35.9554741],[139.0647583,35.9554427],[139.0648567,35.9554106],[139.0649662,35.9553494],[139.0649965,35.9553333],[139.0650264,35.9554321],[139.0650183,35.9554357],[139.0649219,35.9554784],[139.0648271,35.9555147],[139.0647296,35.9555511],[139.0646327,35.9555796],[139.0645239,35.9556106],[139.0644191,35.9556334],[139.0643432,35.9556566],[139.0643076,35.9556718],[139.0643062,35.9556728],[139.0642809,35.9556862],[139.0642615,35.955699],[139.0642473,35.9557171],[139.0642324,35.955757],[139.064229,35.9557905],[139.0642292,35.955795],[139.0642301,35.9558272],[139.0642344,35.955866],[139.0642451,35.9559061],[139.064259,35.9559405],[139.0642745,35.9559783],[139.0642865,35.9560126],[139.0642981,35.9560574],[139.0643061,35.9561275],[139.0643032,35.95619],[139.0642835,35.9562411],[139.0642721,35.9562576],[139.0642458,35.9562958],[139.0642043,35.9563551],[139.064158,35.9564065],[139.0641124,35.9564508],[139.0640484,35.9564985],[139.0639747,35.9565513],[139.0638892,35.9566084],[139.0637996,35.9566797],[139.0637153,35.9567601],[139.0636526,35.9568149],[139.0636023,35.9568653],[139.0635274,35.9569207],[139.0634507,35.9569731],[139.0633921,35.95701],[139.0633294,35.9570635],[139.0632869,35.9571169],[139.063244,35.9571798],[139.0631912,35.9572572],[139.0631544,35.9573117],[139.0631235,35.9573714],[139.063105,35.9574213],[139.063093,35.9574608],[139.063075,35.9575098],[139.0630606,35.9575646],[139.0630405,35.9576215],[139.0630293,35.9576711],[139.0630073,35.9577206],[139.0629789,35.9577758],[139.0629521,35.9578206],[139.0629102,35.9578804],[139.062856,35.9579229],[139.0627989,35.9579634],[139.0627439,35.9580178],[139.0627115,35.958071],[139.0626912,35.9581215],[139.0626788,35.9581608],[139.0626705,35.9582047],[139.0626624,35.9582616],[139.0626566,35.9583176],[139.06265362257636,35.958333333333336],[139.0625,35.958333333333336]]]},"properties":{"layer":"landuse","class_code":"205","class_label":"その他自然地（原野・牧野、荒れ地（耕作放棄地等自然的状況のもの）、低湿地、河川敷・河原、海浜、湖岸）"}},{"type":"Feature","id":"luse_350b6a7c-13f1-4d7f-8d08-a1bb4289daea","geometry":{"type":"Polygon","coordinates":[[[139.07099903457166,35.958333333333336],[139.0710184,35.9582117],[139.0710303,35.9581366],[139.070968,35.9580866],[139.0709577,35.958015],[139.0709225,35.9578658],[139.0708207,35.9577757],[139.070666,35.9578433],[139.0705597,35.9578456],[139.070241,35.9578197],[139.0699604,35.9580236],[139.0697728,35.958079],[139.0696891,35.9580159],[139.0697563,35.9578971],[139.0698754,35.9577071],[139.0700424,35.9574995],[139.07015,35.957372],[139.0702639,35.9573429],[139.0703372,35.9573493],[139.0705211,35.9573836],[139.070525,35.9573819],[139.0705506,35.9573709],[139.0705705,35.9573623],[139.0705824,35.9573571],[139.0706719,35.9573412],[139.0707682,35.9573464],[139.0708579,35.9573598],[139.0709434,35.9574006],[139.0710379,35.957466],[139.071116,35.9575322],[139.071172,35.9575761],[139.0711918,35.9576047],[139.0712328,35.957705],[139.0712657,35.9578258],[139.0713078,35.9579585],[139.0713516,35.9581109],[139.0713818,35.9582128],[139.0714042,35.9582849],[139.07142189391126,35.958333333333336],[139.0718620867059,35.958333333333336],[139.0718664,35.9582963],[139.0718761,35.9581847],[139.0718796,35.9580774],[139.0718873,35.9579838],[139.0718997,35.9579119],[139.071918,35.9578586],[139.0719432,35.9578204],[139.0719714,35.9577935],[139.0720257,35.9577551],[139.0721228,35.9576874],[139.0722456,35.9576075],[139.0723323,35.9575473],[139.0724369,35.9574876],[139.0725446,35.9574382],[139.072672,35.9573879],[139.0727931,35.9573472],[139.0728388,35.9573352],[139.0731004,35.9572666],[139.0732139,35.9572411],[139.0732903,35.9572244],[139.0733509,35.957218],[139.0734178,35.9572159],[139.0735268,35.957215],[139.0738943,35.9572168],[139.0739503,35.9572194],[139.0740364,35.9572249],[139.0742356,35.9572354],[139.0743649,35.9572413],[139.0744509,35.9572535],[139.0745397,35.9572805],[139.0746057,35.9573021],[139.0747426,35.9573386],[139.0748389,35.9573586],[139.0749451,35.9573716],[139.075,35.957376475666074],[139.075,35.958333333333336],[139.07099903457166,35.958333333333336]]]},"properties":{"layer":"landuse","class_code":"213","class_label":"工業用地（工場）"}},{"type":"Feature","id":"luse_92c789ed-03fc-4210-9256-5fc5b1e23433","geometry":{"type":"Polygon","coordinates":[[[139.0626928962677,35.958333333333336],[139.0626952,35.9583214],[139.0627011,35.9582648],[139.0627089,35.9582089],[139.0627168,35.9581672],[139.0627286,35.9581304],[139.0627475,35.9580828],[139.0627767,35.9580351],[139.0628268,35.9579854],[139.0628823,35.9579461],[139.0629412,35.9578999],[139.0629865,35.9578353],[139.0630142,35.9577888],[139.0630435,35.9577321],[139.063067,35.9576794],[139.0630784,35.9576287],[139.0630982,35.9575723],[139.0631126,35.9575176],[139.0631303,35.9574691],[139.0631424,35.9574298],[139.0631603,35.9573821],[139.0631895,35.9573254],[139.0632252,35.9572725],[139.0632779,35.9571951],[139.0633202,35.9571332],[139.0633599,35.9570831],[139.0634182,35.9570335],[139.0634753,35.9569976],[139.0635528,35.9569444],[139.0636305,35.9568871],[139.0636822,35.9568357],[139.0637442,35.956781],[139.063828,35.9567013],[139.0639152,35.9566319],[139.0639998,35.9565752],[139.0640743,35.956522],[139.0641403,35.9564726],[139.0641887,35.956426],[139.064237,35.9563723],[139.0642797,35.9563113],[139.0643196,35.9562537],[139.0643418,35.9561953],[139.064345,35.9561267],[139.0643365,35.9560526],[139.0643175,35.9559791],[139.0642916,35.9559024],[139.0642789,35.9558459],[139.0642761,35.9557769],[139.0642852,35.955747],[139.0642912,35.9557389],[139.0643042,35.9557212],[139.0643314,35.9556971],[139.0643588,35.9556854],[139.0644308,35.9556635],[139.0644311,35.9556635],[139.0645353,35.9556407],[139.0646457,35.9556094],[139.0647446,35.9555804],[139.0648433,35.9555434],[139.0648437,35.9555433],[139.0649395,35.9555065],[139.0650359,35.9554638],[139.0650602,35.9554531],[139.0651376,35.9554259],[139.0651843,35.9554107],[139.0652439,35.9553967],[139.0653173,35.9553806],[139.065375,35.9553611],[139.0653753,35.9553608],[139.0653948,35.9553543],[139.0654596,35.9553234],[139.0655425,35.9552678],[139.0656315,35.9552088],[139.0657226,35.9551457],[139.0658119,35.9550867],[139.0658943,35.9550378],[139.0659901,35.9549775],[139.0660995,35.9549128],[139.0661939,35.9548479],[139.0662961,35.9547848],[139.0663827,35.954736],[139.0664655,35.9547052],[139.066605,35.9546488],[139.0666093,35.9546468],[139.0667438,35.9545832],[139.0667636,35.9545707],[139.0668387,35.9545195],[139.0668758,35.9544917],[139.0669445,35.9544349],[139.0669476,35.9544328],[139.0669772,35.9544139],[139.0670079,35.9543966],[139.0670402,35.9543809],[139.067065,35.9543702],[139.0670991,35.9543575],[139.0671338,35.9543465],[139.0671341,35.9543464],[139.0671698,35.9543373],[139.0672024,35.9543318],[139.0672545,35.9543253],[139.0673067,35.9543215],[139.0673071,35.9543215],[139.0673386,35.9543205],[139.0673538,35.9543207],[139.0673913,35.954321],[139.0674182,35.9543226],[139.0674436,35.9543242],[139.0674439,35.9543242],[139.0674665,35.9543267],[139.0674669,35.9543268],[139.0674868,35.9543271],[139.0674894,35.9543272],[139.0675336,35.9543279],[139.067534,35.9543279],[139.0675643,35.954326],[139.0675646,35.954326],[139.0676212,35.9543195],[139.0676532,35.9543145],[139.0677086,35.9543035],[139.0677089,35.9543034],[139.0677634,35.9542896],[139.0677637,35.9542895],[139.067817,35.9542729],[139.0678173,35.9542728],[139.0678402,35.9542632],[139.0678827,35.9542432],[139.0679235,35.954221],[139.0679625,35.9541968],[139.0679972,35.9541724],[139.0680323,35.9541445],[139.0680524,35.9541264],[139.068134,35.9540394],[139.0681504,35.954024],[139.068169,35.9540087],[139.0681888,35.9539944],[139.0682006,35.9539866],[139.068222,35.9539739],[139.0682443,35.9539624],[139.0682675,35.953952],[139.0682913,35.9539427],[139.0683159,35.9539348],[139.0683411,35.9539281],[139.0683667,35.9539227],[139.0683829,35.9539203],[139.0683832,35.9539202],[139.0685261,35.953903],[139.0685265,35.9539029],[139.0685414,35.9539015],[139.0686857,35.9538923],[139.0687567,35.953889],[139.0688719,35.9538836],[139.0688723,35.9538836],[139.0688854,35.9538827],[139.0688959,35.9538817],[139.0689068,35.9538807],[139.0691389,35.9538587],[139.0691429,35.9538585],[139.0692035,35.953853],[139.0692038,35.953853],[139.0692638,35.9538444],[139.0693232,35.9538328],[139.069349,35.9538268],[139.0694068,35.9538109],[139.0694632,35.9537921],[139.0694636,35.953792],[139.0695185,35.9537704],[139.0695383,35.9537628],[139.0695967,35.9537378],[139.069653,35.95371],[139.0696626,35.9537048],[139.069716,35.9536736],[139.0697674,35.9536398],[139.0698157,35.9536034],[139.0699006,35.9535176],[139.0699864,35.9534228],[139.0700407,35.9533765],[139.0701005,35.9533315],[139.0701614,35.9532909],[139.0702275,35.9532522],[139.0702964,35.953217],[139.0704965,35.9531251],[139.0707103,35.9530367],[139.0709394,35.952951],[139.0712167,35.9528452],[139.0713526,35.9527955],[139.0713925,35.9527821],[139.0715516,35.9527352],[139.0715803,35.9527285],[139.0715901,35.9527267],[139.0716413,35.952722],[139.0716576,35.9527206],[139.0716654,35.95272],[139.0716791,35.9527191],[139.0716994,35.9527182],[139.0717356,35.9527165],[139.071736,35.9527165],[139.0717508,35.952717],[139.071775,35.9527179],[139.0717942,35.9527186],[139.0717946,35.9527186],[139.071817,35.9527213],[139.0718173,35.9527214],[139.0718509,35.9527273],[139.0718842,35.9527349],[139.0718994,35.9527404],[139.0719277,35.9527523],[139.071955,35.9527655],[139.0719817,35.9527803],[139.0719869,35.9527835],[139.0720122,35.9527999],[139.0720355,35.9528173],[139.0720585,35.9528366],[139.0722006,35.9529548],[139.0722981,35.9530349],[139.0723063,35.9530415],[139.0723329,35.9530613],[139.0723613,35.95308],[139.072391,35.9530973],[139.0724207,35.9531123],[139.0724529,35.9531264],[139.0724859,35.9531389],[139.0725206,35.9531498],[139.072537,35.9531535],[139.0725578,35.9531573],[139.072579,35.95316],[139.0725793,35.95316],[139.072596,35.9531614],[139.0726005,35.9531617],[139.0726221,35.9531622],[139.0726434,35.9531617],[139.0726438,35.9531617],[139.0726648,35.95316],[139.0726652,35.95316],[139.0726858,35.9531573],[139.0726913,35.9531564],[139.0727118,35.9531524],[139.0727322,35.9531474],[139.0727325,35.9531473],[139.0727525,35.9531412],[139.0727721,35.953134],[139.0727912,35.9531258],[139.0728098,35.9531167],[139.0728303,35.953105],[139.0728798,35.9530585],[139.07289,35.9530487],[139.0729042,35.9530317],[139.0729098,35.9530326],[139.0729292,35.9530364],[139.0729484,35.9530413],[139.072967,35.9530471],[139.0729854,35.9530538],[139.0730031,35.9530615],[139.07302,35.9530701],[139.0730365,35.9530795],[139.0730521,35.9530897],[139.0730542,35.9530913],[139.0731127,35.9531137],[139.0731446,35.9531275],[139.0732001,35.9531546],[139.0732426,35.953178],[139.0733329,35.9532017],[139.073381,35.9532075],[139.0734195,35.9532064],[139.0734543,35.9532031],[139.0736949,35.9531107],[139.0737445,35.9530772],[139.0738681,35.9530524],[139.073982,35.9530264],[139.0742981,35.9529838],[139.0743901,35.9529562],[139.0747576,35.9528983],[139.0748203,35.9528897],[139.075,35.952855098016485],[139.075,35.95114446308724],[139.0749786,35.9511273],[139.0749335,35.9510756],[139.074909,35.9510282],[139.0748931,35.9509819],[139.0748727,35.9508967],[139.0748691,35.9508625],[139.0748626,35.9507959],[139.074868,35.950755],[139.0748831,35.9507299],[139.0748987,35.9507153],[139.075,35.950649243958345],[139.075,35.95039217931035],[139.0749658,35.9504024],[139.0749654,35.9504024],[139.0748947,35.9504263],[139.0748157,35.9504536],[139.0747864,35.9504709],[139.0747691,35.950481],[139.0747538,35.9504908],[139.0747428,35.9504999],[139.0747302,35.9505099],[139.0747205,35.9505186],[139.0747185,35.9505214],[139.0747107,35.9505324],[139.0747065,35.9505416],[139.0747051,35.9505445],[139.0747,35.9505622],[139.0746959,35.9505883],[139.0746903,35.950614],[139.0746774,35.9506569],[139.0746623,35.9507144],[139.0746479,35.950785],[139.0746378,35.9508563],[139.0746321,35.950928],[139.0746311,35.9509999],[139.0746346,35.9510716],[139.0746422,35.9511399],[139.0746498,35.9511838],[139.0746744,35.9512245],[139.0746767,35.9512267],[139.0747248,35.9512722],[139.0747663,35.9512995],[139.0747706,35.9513022],[139.0748366,35.9513412],[139.0749053,35.9513777],[139.0749731,35.9514095],[139.0749819,35.9514149],[139.075,35.951425006598974],[139.075,35.95257356545455],[139.0749046,35.9526018],[139.0747535,35.9526406],[139.0747517,35.9526411],[139.0746927,35.9526545],[139.074539,35.952689],[139.0744949,35.9526957],[139.0744448,35.9527033],[139.0744444,35.9527033],[139.0743508,35.9527126],[139.0743504,35.9527127],[139.0742726,35.9527168],[139.0741779,35.9527173],[139.0741377,35.9527155],[139.074083,35.952713],[139.074056,35.9527108],[139.0740556,35.9527108],[139.0739088,35.9526965],[139.0739084,35.9526965],[139.0738092,35.9526824],[139.0738089,35.9526824],[139.0736691,35.9526564],[139.0736218,35.952648],[139.0735767,35.9526376],[139.0735328,35.9526249],[139.0735324,35.9526248],[139.0734895,35.9526099],[139.0734596,35.952598],[139.0734593,35.9525979],[139.0734186,35.9525793],[139.0734183,35.9525791],[139.0733792,35.9525585],[139.0733415,35.9525358],[139.0733339,35.9525305],[139.073306,35.9525115],[139.0732164,35.9524604],[139.0731237,35.9524141],[139.0730338,35.9523753],[139.0729345,35.9523384],[139.0728867,35.9523235],[139.0728333,35.9523069],[139.072814,35.9523016],[139.0726879,35.9522579],[139.0726876,35.9522578],[139.0726828,35.9522559],[139.0726806,35.9522549],[139.0725992,35.9522224],[139.072479,35.9521677],[139.0724161,35.9521357],[139.0724072,35.9521302],[139.0723981,35.952124],[139.0723898,35.9521173],[139.0723819,35.9521102],[139.0723745,35.9521028],[139.0723678,35.9520949],[139.0723617,35.9520867],[139.0723561,35.9520783],[139.0723512,35.9520693],[139.0723495,35.9520657],[139.0723471,35.95206],[139.0723456,35.9520564],[139.0723425,35.9520472],[139.0723401,35.9520378],[139.0723384,35.9520283],[139.0723375,35.9520188],[139.0723373,35.952009],[139.0723376,35.9520019],[139.0723431,35.9519395],[139.072344,35.9518755],[139.0723437,35.9518685],[139.0723435,35.951859],[139.0723424,35.9518485],[139.0723405,35.9518379],[139.0723378,35.9518275],[139.0723342,35.9518173],[139.0723299,35.9518073],[139.0723248,35.9517974],[139.072319,35.9517879],[139.0723124,35.9517787],[139.0723052,35.9517699],[139.0722973,35.9517614],[139.0722888,35.9517534],[139.0722808,35.9517467],[139.0722713,35.9517396],[139.0722608,35.9517329],[139.0722503,35.9517267],[139.0722392,35.9517212],[139.0722275,35.9517162],[139.0722156,35.9517118],[139.0722035,35.9517081],[139.0721984,35.9517068],[139.072198,35.9517067],[139.0721946,35.9517054],[139.0721878,35.9517035],[139.0721808,35.9517019],[139.0721737,35.9517007],[139.0721665,35.9516998],[139.0721593,35.9516993],[139.0721522,35.9516991],[139.0721519,35.9516991],[139.0721468,35.9516993],[139.072145,35.9516994],[139.0721447,35.9516994],[139.0721378,35.9517],[139.0721374,35.9517],[139.0721305,35.951701],[139.0721238,35.9517022],[139.0721233,35.9517023],[139.0721165,35.951704],[139.0721097,35.951706],[139.0721032,35.9517083],[139.0721029,35.9517085],[139.0720966,35.9517112],[139.0720904,35.9517142],[139.0720847,35.9517176],[139.072079,35.9517212],[139.0720736,35.9517252],[139.0720685,35.9517293],[139.0720647,35.9517329],[139.0720602,35.9517375],[139.072056,35.9517423],[139.0720523,35.9517473],[139.0720492,35.9517526],[139.0720462,35.951758],[139.0720436,35.9517635],[139.0720416,35.9517691],[139.07204,35.9517749],[139.0720388,35.9517807],[139.0720382,35.9517866],[139.072038,35.9517924],[139.072038,35.9517983],[139.0720388,35.9518042],[139.0720399,35.95181],[139.0720415,35.9518158],[139.0720425,35.9518193],[139.0720487,35.9518474],[139.0720581,35.9518781],[139.0720654,35.9518981],[139.0720784,35.9519278],[139.0720934,35.9519566],[139.0720976,35.9519634],[139.0721362,35.9520397],[139.0721586,35.9520941],[139.0721784,35.9521464],[139.0721811,35.9521582],[139.0721849,35.9521699],[139.0721894,35.9521815],[139.0721948,35.9521927],[139.0722012,35.9522038],[139.0722083,35.9522143],[139.0722097,35.9522163],[139.0722178,35.9522264],[139.0722267,35.9522361],[139.0722363,35.9522454],[139.072245,35.9522531],[139.0722564,35.9522647],[139.0722683,35.9522757],[139.0722812,35.9522861],[139.0722947,35.9522958],[139.0723088,35.9523048],[139.0723091,35.952305],[139.0723242,35.9523132],[139.0723396,35.9523207],[139.0723414,35.9523215],[139.0723575,35.952328],[139.0723578,35.9523281],[139.0723621,35.9523296],[139.0723931,35.9523432],[139.0724106,35.9523531],[139.0724167,35.9523575],[139.0724436,35.9523785],[139.0724675,35.9524],[139.0724908,35.9524234],[139.0725123,35.9524481],[139.072514,35.9524505],[139.0725508,35.9525214],[139.0725997,35.9526136],[139.0726095,35.9526282],[139.0726208,35.9526423],[139.0726327,35.9526558],[139.0726458,35.9526686],[139.0726589,35.9526801],[139.0726736,35.9526916],[139.0726893,35.9527022],[139.072706,35.9527122],[139.0727231,35.9527211],[139.0727409,35.9527292],[139.0727596,35.9527364],[139.0727607,35.9527368],[139.072783,35.9527457],[139.0728046,35.9527557],[139.0728255,35.9527667],[139.0728385,35.9527745],[139.0728579,35.9527872],[139.072876,35.9528009],[139.0728822,35.952806],[139.0728935,35.9528155],[139.0728983,35.9528201],[139.0729053,35.9528297],[139.0729113,35.9528397],[139.0729169,35.9528499],[139.0729214,35.9528605],[139.0729252,35.9528713],[139.0729281,35.9528822],[139.0729291,35.9528881],[139.0729309,35.9528992],[139.0729314,35.9529104],[139.0729313,35.9529216],[139.0729305,35.9529328],[139.0729287,35.9529438],[139.0729275,35.952949],[139.072886,35.9529976],[139.0728804,35.9529971],[139.0728765,35.9529967],[139.0728517,35.9529955],[139.0728343,35.9529972],[139.0728071,35.9530011],[139.0728005,35.9530022],[139.0727734,35.9530078],[139.0727464,35.9530149],[139.0727235,35.9530221],[139.0727186,35.9530232],[139.0727096,35.9530246],[139.0727007,35.9530254],[139.0726916,35.9530259],[139.0726826,35.9530258],[139.0726735,35.9530254],[139.0726642,35.9530245],[139.0726549,35.9530229],[139.0726462,35.953021],[139.0726375,35.9530187],[139.0726293,35.9530159],[139.0726211,35.9530127],[139.0726131,35.9530092],[139.072602,35.9530033],[139.0725812,35.9529958],[139.072554,35.9529846],[139.0725275,35.952972],[139.0725225,35.9529694],[139.0724972,35.9529552],[139.0724736,35.9529399],[139.072451,35.9529234],[139.0724299,35.9529058],[139.0724091,35.9528863],[139.0723836,35.9528627],[139.0723156,35.952805],[139.07229,35.9527852],[139.0722159,35.9527323],[139.0721401,35.9526847],[139.0720855,35.9526423],[139.072001,35.9525835],[139.0719839,35.9525725],[139.0718937,35.9525185],[139.0718748,35.9525091],[139.071852,35.9524992],[139.0718285,35.9524904],[139.0718043,35.9524828],[139.0717796,35.9524765],[139.0717544,35.9524714],[139.0717291,35.9524677],[139.0717081,35.9524656],[139.0716824,35.9524643],[139.0716565,35.9524642],[139.0716305,35.9524655],[139.0716049,35.9524681],[139.0715803,35.9524718],[139.0715719,35.9524732],[139.0714929,35.9524889],[139.0714147,35.9525085],[139.0713449,35.95253],[139.0712702,35.9525571],[139.0711974,35.9525883],[139.0710664,35.9526567],[139.0710316,35.9526738],[139.0708161,35.9527715],[139.0707054,35.9528312],[139.0706514,35.9528575],[139.070553,35.9529004],[139.0705462,35.9529032],[139.0704417,35.9529432],[139.0704055,35.9529556],[139.0702976,35.9529881],[139.0702563,35.9529983],[139.0702025,35.9530141],[139.0701499,35.9530328],[139.0701041,35.9530518],[139.0700853,35.9530608],[139.070071,35.9530677],[139.0700547,35.9530755],[139.0700087,35.9531008],[139.0699852,35.9531127],[139.0699468,35.9531346],[139.0699101,35.9531585],[139.0698851,35.9531766],[139.0698518,35.9532035],[139.0698211,35.9532317],[139.0697224,35.9533254],[139.0696137,35.9534225],[139.069606,35.953432],[139.0695697,35.9534653],[139.0695447,35.9534858],[139.0695043,35.9535159],[139.0694596,35.9535451],[139.0694554,35.9535483],[139.0694324,35.9535652],[139.0694085,35.9535807],[139.0693835,35.9535949],[139.0693574,35.9536078],[139.0693305,35.9536192],[139.0693216,35.9536225],[139.0693023,35.9536294],[139.0692888,35.9536337],[139.0692596,35.9536417],[139.0692302,35.9536482],[139.0692003,35.9536531],[139.0691703,35.9536565],[139.0690399,35.9536637],[139.0690134,35.9536645],[139.0688535,35.9536644],[139.0686699,35.953673],[139.0685195,35.9536805],[139.0684899,35.9536814],[139.0684356,35.9536854],[139.0683814,35.9536923],[139.0683386,35.9536997],[139.0682857,35.9537114],[139.0682338,35.9537258],[139.0681814,35.9537434],[139.0681163,35.9537756],[139.0680528,35.9538114],[139.0680199,35.953832],[139.0679609,35.9538728],[139.0679071,35.9539148],[139.067796,35.9539873],[139.0676717,35.9540689],[139.0676215,35.9540868],[139.0675547,35.954107],[139.0675485,35.9541087],[139.0674802,35.954125],[139.0674139,35.9541372],[139.0674127,35.9541372],[139.067368,35.9541395],[139.0673232,35.954144],[139.0672792,35.9541509],[139.0672762,35.9541514],[139.0672601,35.9541548],[139.0672324,35.9541607],[139.0671893,35.9541721],[139.0671807,35.9541749],[139.0671473,35.9541857],[139.0671078,35.954201],[139.0671,35.9542039],[139.0670591,35.9542205],[139.0670191,35.9542394],[139.0669853,35.9542576],[139.0669634,35.954271],[139.0669483,35.9542801],[139.066913,35.9543046],[139.0668729,35.9543368],[139.066819,35.9543756],[139.0668093,35.9543821],[139.066752,35.9544175],[139.0666905,35.9544507],[139.0666815,35.9544562],[139.0666605,35.9544682],[139.0666388,35.9544789],[139.0666162,35.9544886],[139.0665997,35.9544948],[139.0665759,35.9545024],[139.0665518,35.9545087],[139.0665272,35.9545139],[139.0665023,35.9545177],[139.066471,35.9545209],[139.0664415,35.9545305],[139.0663983,35.9545465],[139.0663562,35.9545648],[139.0663188,35.9545835],[139.0662798,35.9546058],[139.0662425,35.9546301],[139.066208,35.9546555],[139.0660966,35.9547341],[139.0660366,35.9547727],[139.0659421,35.954841],[139.0658463,35.9549019],[139.0657406,35.9549705],[139.0656328,35.9550304],[139.0655216,35.9550894],[139.0654164,35.9551387],[139.0653019,35.9551803],[139.0652076,35.9552271],[139.0651186,35.9552697],[139.0650019,35.9552981],[139.0649881,35.9553055],[139.0649709,35.9552484],[139.0649097,35.9552772],[139.0648555,35.9553027],[139.0646722,35.9553927],[139.0642198,35.9555147],[139.0641128,35.955572],[139.0640931,35.9556037],[139.0640309,35.9557037],[139.063943,35.9559593],[139.0639067,35.9560952],[139.0638091,35.9562806],[139.0636002,35.9564118],[139.0633404,35.9565799],[139.0631009,35.9567357],[139.0629177,35.9568341],[139.0628157,35.9569038],[139.0627291,35.9569612],[139.0626522,35.9570806],[139.0626003,35.9572578],[139.0626194,35.9574642],[139.0625269,35.9576578],[139.0625,35.95770458545897],[139.0625,35.95],[139.075,35.95],[139.075,35.957376475666074],[139.0749451,35.9573716],[139.0748389,35.9573586],[139.0747426,35.9573386],[139.0746057,35.9573021],[139.0745397,35.9572805],[139.0744509,35.9572535],[139.0743649,35.9572413],[139.0742356,35.9572354],[139.0740364,35.9572249],[139.0739503,35.9572194],[139.0738943,35.9572168],[139.0735268,35.957215],[139.0734178,35.9572159],[139.0733509,35.957218],[139.0732903,35.9572244],[139.0732139,35.9572411],[139.0731004,35.9572666],[139.0728388,35.9573352],[139.0727931,35.9573472],[139.072672,35.9573879],[139.0725446,35.9574382],[139.0724369,35.9574876],[139.0723323,35.9575473],[139.0722456,35.9576075],[139.0721228,35.9576874],[139.0720257,35.9577551],[139.0719714,35.9577935],[139.0719432,35.9578204],[139.071918,35.9578586],[139.0718997,35.9579119],[139.0718873,35.9579838],[139.0718796,35.9580774],[139.0718761,35.9581847],[139.0718664,35.9582963],[139.0718620867059,35.958333333333336],[139.07142189391126,35.958333333333336],[139.0714042,35.9582849],[139.0713818,35.9582128],[139.0713516,35.9581109],[139.0713078,35.9579585],[139.0712657,35.9578258],[139.0712328,35.957705],[139.0711918,35.9576047],[139.071172,35.9575761],[139.071116,35.9575322],[139.0710379,35.957466],[139.0709434,35.9574006],[139.0708579,35.9573598],[139.0707682,35.9573464],[139.0706719,35.9573412],[139.0705824,35.9573571],[139.0705705,35.9573623],[139.0705506,35.9573709],[139.070525,35.9573819],[139.0705211,35.9573836],[139.0703372,35.9573493],[139.0702639,35.9573429],[139.07015,35.957372],[139.0700424,35.9574995],[139.0698754,35.9577071],[139.0697563,35.9578971],[139.0696891,35.9580159],[139.0697728,35.958079],[139.0699604,35.9580236],[139.070241,35.9578197],[139.0705597,35.9578456],[139.070666,35.9578433],[139.0708207,35.9577757],[139.0709225,35.9578658],[139.0709577,35.958015],[139.070968,35.9580866],[139.0710303,35.9581366],[139.0710184,35.9582117],[139.07099903457166,35.958333333333336],[139.0626928962677,35.958333333333336]]]},"properties":{"layer":"landuse","class_code":"203","class_label":"山林（樹林地）"}},{"type":"Feature","id":"luse_11397a40-bec3-40f6-9b68-38396f8d832c","geometry":{"type":"Polygon","coordinates":[[[139.06265362257636,35.958333333333336],[139.0626566,35.9583176],[139.0626624,35.9582616],[139.0626705,35.9582047],[139.0626788,35.9581608],[139.0626912,35.9581215],[139.0627115,35.958071],[139.0627439,35.9580178],[139.0627989,35.9579634],[139.062856,35.9579229],[139.0629102,35.9578804],[139.0629521,35.9578206],[139.0629789,35.9577758],[139.0630073,35.9577206],[139.0630293,35.9576711],[139.0630405,35.9576215],[139.0630606,35.9575646],[139.063075,35.9575098],[139.063093,35.9574608],[139.063105,35.9574213],[139.0631235,35.9573714],[139.0631544,35.9573117],[139.0631912,35.9572572],[139.063244,35.9571798],[139.0632869,35.9571169],[139.0633294,35.9570635],[139.0633921,35.95701],[139.0634507,35.9569731],[139.0635274,35.9569207],[139.0636023,35.9568653],[139.0636526,35.9568149],[139.0637153,35.9567601],[139.0637996,35.9566797],[139.0638892,35.9566084],[139.0639747,35.9565513],[139.0640484,35.9564985],[139.0641124,35.9564508],[139.064158,35.9564065],[139.0642043,35.9563551],[139.0642458,35.9562958],[139.0642721,35.9562576],[139.0642835,35.9562411],[139.0643032,35.95619],[139.0643061,35.9561275],[139.0642981,35.9560574],[139.0642865,35.9560126],[139.0642745,35.9559783],[139.064259,35.9559405],[139.0642451,35.9559061],[139.0642344,35.955866],[139.0642301,35.9558272],[139.0642292,35.955795],[139.064229,35.9557905],[139.0642324,35.955757],[139.0642473,35.9557171],[139.0642615,35.955699],[139.0642809,35.9556862],[139.0643062,35.9556728],[139.0643076,35.9556718],[139.0643432,35.9556566],[139.0644191,35.9556334],[139.0645239,35.9556106],[139.0646327,35.9555796],[139.0647296,35.9555511],[139.0648271,35.9555147],[139.0649219,35.9554784],[139.0650183,35.9554357],[139.0650264,35.9554321],[139.065043,35.9554248],[139.0651223,35.9553968],[139.0651227,35.9553967],[139.0651716,35.9553809],[139.0652333,35.9553663],[139.065264,35.9553596],[139.0653045,35.9553507],[139.0653773,35.955326],[139.0654374,35.9552975],[139.0655178,35.9552434],[139.0656067,35.9551845],[139.0656978,35.9551215],[139.0657884,35.9550618],[139.0658578,35.9550203],[139.0658708,35.9550126],[139.0659668,35.9549522],[139.0660753,35.954888],[139.0661696,35.9548232],[139.0662733,35.9547592],[139.0663153,35.9547355],[139.0663556,35.9547142],[139.0663997,35.9546947],[139.0664194,35.9546874],[139.0664491,35.9546767],[139.0665869,35.9546207],[139.0665901,35.9546193],[139.0667221,35.9545569],[139.0667392,35.9545462],[139.0668131,35.9544958],[139.0668487,35.954469],[139.066918,35.9544118],[139.0669231,35.9544084],[139.0669541,35.9543885],[139.0669868,35.95437],[139.0670209,35.9543534],[139.0670476,35.9543419],[139.0670837,35.9543284],[139.0670841,35.9543283],[139.0671211,35.9543167],[139.06716,35.9543067],[139.0671954,35.9543008],[139.0671957,35.9543008],[139.0672497,35.954294],[139.0672849,35.9542914],[139.0673042,35.95429],[139.0673046,35.95429],[139.0673379,35.954289],[139.0673383,35.954289],[139.0673445,35.954289],[139.0673524,35.9542891],[139.0673928,35.9542895],[139.0673932,35.9542895],[139.0674479,35.9542928],[139.0674557,35.9542937],[139.0674695,35.9542952],[139.06747,35.9542952],[139.0675283,35.9542967],[139.0675287,35.9542967],[139.0675601,35.9542946],[139.0676146,35.9542883],[139.067615,35.9542883],[139.0676447,35.9542836],[139.0676984,35.954273],[139.0677508,35.9542597],[139.0678014,35.9542441],[139.0678214,35.9542355],[139.067862,35.9542163],[139.0679008,35.9541953],[139.067938,35.9541723],[139.0679708,35.9541492],[139.0680044,35.9541226],[139.0680142,35.9541138],[139.0681028,35.9540202],[139.0681218,35.9540025],[139.0681422,35.9539858],[139.0681635,35.9539703],[139.068177,35.9539616],[139.0682001,35.9539478],[139.0682245,35.9539352],[139.0682498,35.9539238],[139.0682758,35.9539138],[139.0683027,35.9539051],[139.06833,35.9538978],[139.0683304,35.9538978],[139.0683582,35.9538919],[139.0683585,35.9538918],[139.0683765,35.9538891],[139.0683768,35.9538891],[139.0685212,35.9538716],[139.0685376,35.9538701],[139.0686721,35.9538616],[139.0686731,35.9538615],[139.0686831,35.9538609],[139.0687669,35.9538569],[139.0688692,35.9538521],[139.0688696,35.9538521],[139.0688814,35.9538513],[139.0688817,35.9538513],[139.0689812,35.9538419],[139.0691352,35.9538273],[139.0691393,35.9538271],[139.0691982,35.9538218],[139.0692007,35.9538214],[139.0692557,35.9538136],[139.0692561,35.9538135],[139.0693131,35.9538024],[139.0693134,35.9538023],[139.0693373,35.9537967],[139.0693376,35.9537967],[139.0693932,35.9537813],[139.0694475,35.9537633],[139.0695015,35.9537419],[139.069521,35.9537345],[139.0695776,35.9537104],[139.0696322,35.9536833],[139.0696406,35.9536788],[139.0696927,35.9536486],[139.0697419,35.9536159],[139.0697872,35.9535818],[139.0698698,35.9534983],[139.0699567,35.9534025],[139.0700134,35.9533541],[139.0700433,35.9533316],[139.07008,35.9532986],[139.0701192,35.9532676],[139.0701383,35.9532539],[139.0701809,35.953226],[139.0702254,35.9532002],[139.0702489,35.9531881],[139.0704361,35.9531034],[139.0705993,35.9530295],[139.0705996,35.9530294],[139.070816,35.9529423],[139.0709234,35.9528991],[139.0710083,35.952865],[139.071056,35.9528708],[139.0712003,35.9528166],[139.0712006,35.9528165],[139.0713369,35.9527665],[139.0713372,35.9527664],[139.0713786,35.9527527],[139.0715085,35.9527143],[139.0715089,35.9527143],[139.071568,35.9526718],[139.0715873,35.952658],[139.0715893,35.9526575],[139.0716117,35.9526524],[139.071644,35.9526477],[139.0716469,35.9526472],[139.0716506,35.9526467],[139.0716904,35.952645],[139.0717231,35.9526467],[139.0717623,35.9526525],[139.0717723,35.9526544],[139.0717863,35.9526582],[139.0717998,35.9526635],[139.0718075,35.9526675],[139.0718194,35.9526749],[139.0718299,35.9526833],[139.0718389,35.9526929],[139.0718602,35.9526966],[139.0718947,35.9527045],[139.0719002,35.9527061],[139.0719159,35.9527119],[139.0719163,35.9527121],[139.0719467,35.9527246],[139.0719759,35.9527389],[139.0720041,35.9527546],[139.0720108,35.9527585],[139.0720375,35.9527759],[139.0720627,35.9527946],[139.0720865,35.9528147],[139.072228,35.9529327],[139.0723257,35.9530127],[139.0723331,35.9530187],[139.0723582,35.9530375],[139.0723847,35.9530549],[139.0724123,35.953071],[139.0724401,35.953085],[139.0724701,35.9530982],[139.0725009,35.9531098],[139.0725013,35.9531099],[139.0725329,35.9531199],[139.0725462,35.9531229],[139.0725466,35.953123],[139.0725651,35.9531263],[139.0725838,35.9531287],[139.0725842,35.9531288],[139.0726029,35.9531301],[139.072622,35.9531306],[139.072641,35.9531301],[139.0726414,35.9531301],[139.0726602,35.9531287],[139.072679,35.9531262],[139.0726828,35.9531256],[139.0726832,35.9531256],[139.072696,35.9531231],[139.0727016,35.953122],[139.0727198,35.9531174],[139.0727377,35.953112],[139.0727553,35.9531056],[139.0727722,35.9530984],[139.0727885,35.9530903],[139.072804,35.9530814],[139.0728581,35.9530307],[139.0728607,35.9530275],[139.0728803,35.9530046],[139.072886,35.9529976],[139.0729275,35.952949],[139.0729287,35.9529438],[139.0729305,35.9529328],[139.0729313,35.9529216],[139.0729314,35.9529104],[139.0729309,35.9528992],[139.0729291,35.9528881],[139.0729281,35.9528822],[139.0729252,35.9528713],[139.0729214,35.9528605],[139.0729169,35.9528499],[139.0729113,35.9528397],[139.0729053,35.9528297],[139.0728983,35.9528201],[139.0728935,35.9528155],[139.0728822,35.952806],[139.072876,35.9528009],[139.0728579,35.9527872],[139.0728385,35.9527745],[139.0728255,35.9527667],[139.0728046,35.9527557],[139.072783,35.9527457],[139.0727607,35.9527368],[139.0727596,35.9527364],[139.0727409,35.9527292],[139.0727231,35.9527211],[139.072706,35.9527122],[139.0726893,35.9527022],[139.0726736,35.9526916],[139.0726589,35.9526801],[139.0726458,35.9526686],[139.0726327,35.9526558],[139.0726208,35.9526423],[139.0726095,35.9526282],[139.0725997,35.9526136],[139.0725508,35.9525214],[139.072514,35.9524505],[139.0725123,35.9524481],[139.0724908,35.9524234],[139.0724675,35.9524],[139.0724436,35.9523785],[139.0724167,35.9523575],[139.0724106,35.9523531],[139.0723931,35.9523432],[139.0723621,35.9523296],[139.0723578,35.9523281],[139.0723575,35.952328],[139.0723414,35.9523215],[139.0723396,35.9523207],[139.0723242,35.9523132],[139.0723091,35.952305],[139.0723088,35.9523048],[139.0722947,35.9522958],[139.0722812,35.9522861],[139.0722683,35.9522757],[139.0722564,35.9522647],[139.072245,35.9522531],[139.0722363,35.9522454],[139.0722267,35.9522361],[139.0722178,35.9522264],[139.0722097,35.9522163],[139.0722083,35.9522143],[139.0722012,35.9522038],[139.0721948,35.9521927],[139.0721894,35.9521815],[139.0721849,35.9521699],[139.0721811,35.9521582],[139.0721784,35.9521464],[139.0721586,35.9520941],[139.0721362,35.9520397],[139.0720976,35.9519634],[139.0720934,35.9519566],[139.0720784,35.9519278],[139.0720654,35.9518981],[139.0720581,35.9518781],[139.0720487,35.9518474],[139.0720425,35.9518193],[139.0720415,35.9518158],[139.0720399,35.95181],[139.0720388,35.9518042],[139.072038,35.9517983],[139.072038,35.9517924],[139.0720382,35.9517866],[139.0720388,35.9517807],[139.07204,35.9517749],[139.0720416,35.9517691],[139.0720436,35.9517635],[139.0720462,35.951758],[139.0720492,35.9517526],[139.0720523,35.9517473],[139.072056,35.9517423],[139.0720602,35.9517375],[139.0720647,35.9517329],[139.0720685,35.9517293],[139.0720736,35.9517252],[139.072079,35.9517212],[139.0720847,35.9517176],[139.0720904,35.9517142],[139.0720966,35.9517112],[139.0721029,35.9517085],[139.0721032,35.9517083],[139.0721097,35.951706],[139.0721165,35.951704],[139.0721233,35.9517023],[139.0721238,35.9517022],[139.0721305,35.951701],[139.0721374,35.9517],[139.0721378,35.9517],[139.0721447,35.9516994],[139.072145,35.9516994],[139.0721468,35.9516993],[139.0721519,35.9516991],[139.0721522,35.9516991],[139.0721593,35.9516993],[139.0721665,35.9516998],[139.0721737,35.9517007],[139.0721808,35.9517019],[139.0721878,35.9517035],[139.0721946,35.9517054],[139.072198,35.9517067],[139.0721984,35.9517068],[139.0722035,35.9517081],[139.0722156,35.9517118],[139.0722275,35.9517162],[139.0722392,35.9517212],[139.0722503,35.9517267],[139.0722608,35.9517329],[139.0722713,35.9517396],[139.0722808,35.9517467],[139.0722888,35.9517534],[139.0722973,35.9517614],[139.0723052,35.9517699],[139.0723124,35.9517787],[139.072319,35.9517879],[139.0723248,35.9517974],[139.0723299,35.9518073],[139.0723342,35.9518173],[139.0723378,35.9518275],[139.0723405,35.9518379],[139.0723424,35.9518485],[139.0723435,35.951859],[139.0723437,35.9518685],[139.072344,35.9518755],[139.0723431,35.9519395],[139.0723376,35.9520019],[139.0723373,35.952009],[139.0723375,35.9520188],[139.0723384,35.9520283],[139.0723401,35.9520378],[139.0723425,35.9520472],[139.0723456,35.9520564],[139.0723471,35.95206],[139.0723495,35.9520657],[139.0723512,35.9520693],[139.0723561,35.9520783],[139.0723617,35.9520867],[139.0723678,35.9520949],[139.0723745,35.9521028],[139.0723819,35.9521102],[139.0723898,35.9521173],[139.0723981,35.952124],[139.0724072,35.9521302],[139.0724161,35.9521357],[139.072479,35.9521677],[139.0725992,35.9522224],[139.0726806,35.9522549],[139.0726828,35.9522559],[139.0726876,35.9522578],[139.0726879,35.9522579],[139.072814,35.9523016],[139.0728333,35.9523069],[139.0728867,35.9523235],[139.0729345,35.9523384],[139.0730338,35.9523753],[139.0731237,35.9524141],[139.0732164,35.9524604],[139.073306,35.9525115],[139.0733339,35.9525305],[139.0733415,35.9525358],[139.0733792,35.9525585],[139.0734183,35.9525791],[139.0734186,35.9525793],[139.0734593,35.9525979],[139.0734596,35.952598],[139.0734895,35.9526099],[139.0735324,35.9526248],[139.0735328,35.9526249],[139.0735767,35.9526376],[139.0736218,35.952648],[139.0736691,35.9526564],[139.0738089,35.9526824],[139.0738092,35.9526824],[139.0739084,35.9526965],[139.0739088,35.9526965],[139.0740556,35.9527108],[139.074056,35.9527108],[139.074083,35.952713],[139.0741377,35.9527155],[139.0741779,35.9527173],[139.0742726,35.9527168],[139.0743504,35.9527127],[139.0743508,35.9527126],[139.0744444,35.9527033],[139.0744448,35.9527033],[139.0744949,35.9526957],[139.074539,35.952689],[139.0746927,35.9526545],[139.0747517,35.9526411],[139.0747535,35.9526406],[139.0749046,35.9526018],[139.075,35.95257356545455],[139.075,35.951425006598974],[139.0749819,35.9514149],[139.0749731,35.9514095],[139.0749053,35.9513777],[139.0748366,35.9513412],[139.0747706,35.9513022],[139.0747663,35.9512995],[139.0747248,35.9512722],[139.0746767,35.9512267],[139.0746744,35.9512245],[139.0746498,35.9511838],[139.0746422,35.9511399],[139.0746346,35.9510716],[139.0746311,35.9509999],[139.0746321,35.950928],[139.0746378,35.9508563],[139.0746479,35.950785],[139.0746623,35.9507144],[139.0746774,35.9506569],[139.0746903,35.950614],[139.0746959,35.9505883],[139.0747,35.9505622],[139.0747051,35.9505445],[139.0747065,35.9505416],[139.0747107,35.9505324],[139.0747185,35.9505214],[139.0747205,35.9505186],[139.0747302,35.9505099],[139.0747428,35.9504999],[139.0747538,35.9504908],[139.0747691,35.950481],[139.0747864,35.9504709],[139.0748157,35.9504536],[139.0748947,35.9504263],[139.0749654,35.9504024],[139.0749658,35.9504024],[139.075,35.95039217931035],[139.075,35.950435203703705],[139.0749831,35.9504405],[139.0749142,35.9504637],[139.0748405,35.9504892],[139.0748154,35.9505039],[139.0747991,35.9505133],[139.0747872,35.9505211],[139.074786,35.9505221],[139.074778,35.9505285],[139.0747663,35.9505381],[139.074761,35.9505428],[139.074756,35.9505498],[139.0747528,35.9505565],[139.0747492,35.9505693],[139.0747454,35.9505944],[139.0747391,35.9506225],[139.074724,35.9506744],[139.0747115,35.950722],[139.0746973,35.9507907],[139.0746874,35.95086],[139.074682,35.9509295],[139.074681,35.9509993],[139.0746844,35.9510689],[139.0746918,35.9511353],[139.0746971,35.9511662],[139.0747051,35.9511829],[139.0747575,35.9512415],[139.0747971,35.9512677],[139.0748005,35.9512698],[139.0748648,35.9513078],[139.0749314,35.9513432],[139.075,35.95137536555716],[139.075,35.95261682741936],[139.0749208,35.9526403],[139.0747661,35.95268],[139.0747049,35.9526938],[139.0745472,35.9527244],[139.0745469,35.9527245],[139.0744514,35.9527389],[139.0743549,35.9527486],[139.0743545,35.9527486],[139.0743282,35.95275],[139.0742742,35.9527528],[139.0742234,35.9527531],[139.074177,35.9527533],[139.0741767,35.9527533],[139.0741492,35.9527521],[139.0741413,35.9527517],[139.0740796,35.9527489],[139.0740513,35.9527467],[139.0740509,35.9527467],[139.073955,35.9527373],[139.0739022,35.9527321],[139.0738003,35.9527178],[139.0736596,35.9526917],[139.0736593,35.9526916],[139.073611,35.952683],[139.0735632,35.952672],[139.0735166,35.9526584],[139.073471,35.9526427],[139.0734706,35.9526426],[139.0734388,35.9526299],[139.0733957,35.9526101],[139.0733538,35.9525882],[139.0733141,35.9525641],[139.0732812,35.9525419],[139.0732788,35.9525402],[139.0731919,35.9524905],[139.0731016,35.9524454],[139.0730139,35.9524076],[139.0730011,35.9524028],[139.0729174,35.9523717],[139.0728865,35.9523621],[139.0728862,35.952362],[139.0728182,35.9523408],[139.0727981,35.9523353],[139.0726693,35.9522907],[139.0725783,35.9522544],[139.0724561,35.9521987],[139.0724294,35.9521851],[139.072391,35.9521654],[139.0723792,35.9521583],[139.0723683,35.9521506],[139.0723578,35.9521423],[139.072348,35.9521336],[139.0723388,35.9521243],[139.0723374,35.9521228],[139.0723305,35.9521146],[139.0723229,35.9521045],[139.0723161,35.9520941],[139.0723103,35.9520832],[139.0723079,35.9520783],[139.0723031,35.952067],[139.0722994,35.9520556],[139.0722964,35.952044],[139.0722941,35.9520323],[139.0722932,35.9520205],[139.0722929,35.9520087],[139.0722933,35.9519999],[139.0722987,35.951938],[139.0722996,35.9518758],[139.0722995,35.9518694],[139.0722992,35.951861],[139.0722983,35.9518526],[139.0722968,35.9518444],[139.0722947,35.9518362],[139.0722919,35.9518281],[139.0722885,35.9518202],[139.0722845,35.9518125],[139.0722798,35.951805],[139.0722747,35.9517977],[139.0722691,35.9517908],[139.0722627,35.9517842],[139.0722561,35.9517778],[139.0722497,35.9517726],[139.0722423,35.951767],[139.0722343,35.9517617],[139.0722258,35.9517569],[139.0722171,35.9517526],[139.0722168,35.9517524],[139.072208,35.9517486],[139.0722077,35.9517485],[139.0721987,35.9517451],[139.0721891,35.9517422],[139.0721887,35.9517421],[139.0721827,35.9517405],[139.0721786,35.9517391],[139.0721746,35.951738],[139.0721742,35.9517379],[139.0721703,35.9517369],[139.0721699,35.9517369],[139.0721658,35.9517362],[139.0721614,35.9517356],[139.0721569,35.9517353],[139.0721548,35.9517353],[139.0721527,35.9517353],[139.0721523,35.9517352],[139.0721509,35.9517353],[139.072148,35.9517353],[139.0721444,35.9517357],[139.0721435,35.9517357],[139.0721392,35.9517363],[139.0721349,35.9517371],[139.0721305,35.9517382],[139.0721266,35.9517395],[139.0721223,35.9517409],[139.0721185,35.9517425],[139.0721182,35.9517426],[139.0721145,35.9517444],[139.0721111,35.9517466],[139.0721075,35.9517488],[139.0721042,35.9517512],[139.0721012,35.9517538],[139.0720988,35.9517559],[139.072096,35.9517588],[139.0720936,35.9517618],[139.0720913,35.9517649],[139.0720892,35.9517681],[139.0720875,35.9517714],[139.0720859,35.9517748],[139.0720846,35.9517783],[139.0720836,35.9517818],[139.0720829,35.9517854],[139.0720825,35.951789],[139.0720823,35.9517927],[139.0720825,35.9517963],[139.0720829,35.9517999],[139.0720835,35.9518035],[139.0720845,35.951807],[139.0720857,35.9518104],[139.0720859,35.9518111],[139.0720922,35.95184],[139.0721008,35.9518687],[139.0721075,35.9518869],[139.0721197,35.9519146],[139.0721341,35.9519417],[139.0721377,35.9519479],[139.0721386,35.9519497],[139.0721778,35.952027],[139.0722008,35.952083],[139.0722215,35.9521376],[139.0722245,35.9521505],[139.0722274,35.95216],[139.0722312,35.9521693],[139.0722355,35.9521785],[139.0722407,35.9521874],[139.0722468,35.9521965],[139.0722473,35.9521972],[139.0722542,35.9522058],[139.0722615,35.9522138],[139.0722693,35.9522213],[139.0722789,35.9522295],[139.0722905,35.9522416],[139.0723006,35.952251],[139.0723115,35.9522598],[139.072323,35.9522681],[139.0723352,35.9522757],[139.0723477,35.9522827],[139.0723613,35.9522893],[139.0723617,35.9522894],[139.072362,35.9522896],[139.0723762,35.9522953],[139.0723772,35.9522957],[139.0723775,35.9522958],[139.0724246,35.9523174],[139.072443,35.9523282],[139.0724467,35.9523309],[139.0724754,35.9523534],[139.0725012,35.9523765],[139.0725263,35.9524018],[139.072549,35.9524279],[139.0725535,35.9524335],[139.0725917,35.9525073],[139.0726398,35.9525977],[139.072648,35.9526099],[139.0726574,35.9526221],[139.0726678,35.9526338],[139.0726791,35.9526448],[139.0726902,35.9526547],[139.0727032,35.9526646],[139.0727169,35.9526739],[139.0727311,35.9526824],[139.072746,35.9526901],[139.0727613,35.9526972],[139.0727779,35.9527036],[139.0727792,35.9527041],[139.0728035,35.9527137],[139.0728038,35.9527138],[139.0728279,35.9527248],[139.0728509,35.952737],[139.0728657,35.9527459],[139.0728827,35.9527571],[139.072887,35.9527599],[139.0729074,35.9527752],[139.0729261,35.9527912],[139.0729344,35.9527989],[139.0729443,35.9528125],[139.0729517,35.9528246],[139.0729581,35.9528369],[139.0729636,35.9528496],[139.0729682,35.9528625],[139.0729716,35.9528753],[139.0729732,35.9528831],[139.072975,35.9528962],[139.0729759,35.9529096],[139.0729758,35.9529231],[139.0729746,35.9529365],[139.0729724,35.9529494],[139.0729594,35.9529669],[139.072928,35.9530037],[139.0729042,35.9530317],[139.07289,35.9530487],[139.0728798,35.9530585],[139.0728303,35.953105],[139.0728098,35.9531167],[139.0727912,35.9531258],[139.0727721,35.953134],[139.0727525,35.9531412],[139.0727325,35.9531473],[139.0727322,35.9531474],[139.0727118,35.9531524],[139.0726913,35.9531564],[139.0726858,35.9531573],[139.0726652,35.95316],[139.0726648,35.95316],[139.0726438,35.9531617],[139.0726434,35.9531617],[139.0726221,35.9531622],[139.0726005,35.9531617],[139.072596,35.9531614],[139.0725793,35.95316],[139.072579,35.95316],[139.0725578,35.9531573],[139.072537,35.9531535],[139.0725206,35.9531498],[139.0724859,35.9531389],[139.0724529,35.9531264],[139.0724207,35.9531123],[139.072391,35.9530973],[139.0723613,35.95308],[139.0723329,35.9530613],[139.0723063,35.9530415],[139.0722981,35.9530349],[139.0722006,35.9529548],[139.0720585,35.9528366],[139.0720355,35.9528173],[139.0720122,35.9527999],[139.0719869,35.9527835],[139.0719817,35.9527803],[139.071955,35.9527655],[139.0719277,35.9527523],[139.0718994,35.9527404],[139.0718842,35.9527349],[139.0718509,35.9527273],[139.0718173,35.9527214],[139.071817,35.9527213],[139.0717946,35.9527186],[139.0717942,35.9527186],[139.071775,35.9527179],[139.0717508,35.952717],[139.071736,35.9527165],[139.0717356,35.9527165],[139.0716994,35.9527182],[139.0716791,35.9527191],[139.0716654,35.95272],[139.0716576,35.9527206],[139.0716413,35.952722],[139.0715901,35.9527267],[139.0715803,35.9527285],[139.0715516,35.9527352],[139.0713925,35.9527821],[139.0713526,35.9527955],[139.0712167,35.9528452],[139.0709394,35.952951],[139.0707103,35.9530367],[139.0704965,35.9531251],[139.0702964,35.953217],[139.0702275,35.9532522],[139.0701614,35.9532909],[139.0701005,35.9533315],[139.0700407,35.9533765],[139.0699864,35.9534228],[139.0699006,35.9535176],[139.0698157,35.9536034],[139.0697674,35.9536398],[139.069716,35.9536736],[139.0696626,35.9537048],[139.069653,35.95371],[139.0695967,35.9537378],[139.0695383,35.9537628],[139.0695185,35.9537704],[139.0694636,35.953792],[139.0694632,35.9537921],[139.0694068,35.9538109],[139.069349,35.9538268],[139.0693232,35.9538328],[139.0692638,35.9538444],[139.0692038,35.953853],[139.0692035,35.953853],[139.0691429,35.9538585],[139.0691389,35.9538587],[139.0689068,35.9538807],[139.0688959,35.9538817],[139.0688854,35.9538827],[139.0688723,35.9538836],[139.0688719,35.9538836],[139.0687567,35.953889],[139.0686857,35.9538923],[139.0685414,35.9539015],[139.0685265,35.9539029],[139.0685261,35.953903],[139.0683832,35.9539202],[139.0683829,35.9539203],[139.0683667,35.9539227],[139.0683411,35.9539281],[139.0683159,35.9539348],[139.0682913,35.9539427],[139.0682675,35.953952],[139.0682443,35.9539624],[139.068222,35.9539739],[139.0682006,35.9539866],[139.0681888,35.9539944],[139.068169,35.9540087],[139.0681504,35.954024],[139.068134,35.9540394],[139.0680524,35.9541264],[139.0680323,35.9541445],[139.0679972,35.9541724],[139.0679625,35.9541968],[139.0679235,35.954221],[139.0678827,35.9542432],[139.0678402,35.9542632],[139.0678173,35.9542728],[139.067817,35.9542729],[139.0677637,35.9542895],[139.0677634,35.9542896],[139.0677089,35.9543034],[139.0677086,35.9543035],[139.0676532,35.9543145],[139.0676212,35.9543195],[139.0675646,35.954326],[139.0675643,35.954326],[139.067534,35.9543279],[139.0675336,35.9543279],[139.0674894,35.9543272],[139.0674868,35.9543271],[139.0674669,35.9543268],[139.0674665,35.9543267],[139.0674439,35.9543242],[139.0674436,35.9543242],[139.0674182,35.9543226],[139.0673913,35.954321],[139.0673538,35.9543207],[139.0673386,35.9543205],[139.0673071,35.9543215],[139.0673067,35.9543215],[139.0672545,35.9543253],[139.0672024,35.9543318],[139.0671698,35.9543373],[139.0671341,35.9543464],[139.0671338,35.9543465],[139.0670991,35.9543575],[139.067065,35.9543702],[139.0670402,35.9543809],[139.0670079,35.9543966],[139.0669772,35.9544139],[139.0669476,35.9544328],[139.0669445,35.9544349],[139.0668758,35.9544917],[139.0668387,35.9545195],[139.0667636,35.9545707],[139.0667438,35.9545832],[139.0666093,35.9546468],[139.066605,35.9546488],[139.0664655,35.9547052],[139.0663827,35.954736],[139.0662961,35.9547848],[139.0661939,35.9548479],[139.0660995,35.9549128],[139.0659901,35.9549775],[139.0658943,35.9550378],[139.0658119,35.9550867],[139.0657226,35.9551457],[139.0656315,35.9552088],[139.0655425,35.9552678],[139.0654596,35.9553234],[139.0653948,35.9553543],[139.0653753,35.9553608],[139.065375,35.9553611],[139.0653173,35.9553806],[139.0652439,35.9553967],[139.0651843,35.9554107],[139.0651376,35.9554259],[139.0650602,35.9554531],[139.0650359,35.9554638],[139.0649395,35.9555065],[139.0648437,35.9555433],[139.0648433,35.9555434],[139.0647446,35.9555804],[139.0646457,35.9556094],[139.0645353,35.9556407],[139.0644311,35.9556635],[139.0644308,35.9556635],[139.0643588,35.9556854],[139.0643314,35.9556971],[139.0643042,35.9557212],[139.0642912,35.9557389],[139.0642852,35.955747],[139.0642761,35.9557769],[139.0642789,35.9558459],[139.0642916,35.9559024],[139.0643175,35.9559791],[139.0643365,35.9560526],[139.064345,35.9561267],[139.0643418,35.9561953],[139.0643196,35.9562537],[139.0642797,35.9563113],[139.064237,35.9563723],[139.0641887,35.956426],[139.0641403,35.9564726],[139.0640743,35.956522],[139.0639998,35.9565752],[139.0639152,35.9566319],[139.063828,35.9567013],[139.0637442,35.956781],[139.0636822,35.9568357],[139.0636305,35.9568871],[139.0635528,35.9569444],[139.0634753,35.9569976],[139.0634182,35.9570335],[139.0633599,35.9570831],[139.0633202,35.9571332],[139.0632779,35.9571951],[139.0632252,35.9572725],[139.0631895,35.9573254],[139.0631603,35.9573821],[139.0631424,35.9574298],[139.0631303,35.9574691],[139.0631126,35.9575176],[139.0630982,35.9575723],[139.0630784,35.9576287],[139.063067,35.9576794],[139.0630435,35.9577321],[139.0630142,35.9577888],[139.0629865,35.9578353],[139.0629412,35.9578999],[139.0628823,35.9579461],[139.0628268,35.9579854],[139.0627767,35.9580351],[139.0627475,35.9580828],[139.0627286,35.9581304],[139.0627168,35.9581672],[139.0627089,35.9582089],[139.0627011,35.9582648],[139.0626952,35.9583214],[139.0626928962677,35.958333333333336],[139.06265362257636,35.958333333333336]]]},"properties":{"layer":"landuse","class_code":"215","class_label":"道路用地（道路、駅前広場、私有地内に存在する沿道用途の「私道」または、私有地の一部分であるものの公共の通行に供されている土地の部分）"}}]}