{"type":"FeatureCollection","properties":{"mesh_code":"53397013","source":"PLATEAU秩父市2025","layer":"landuse"},"features":[{"type":"Feature","id":"luse_9832e9c0-bea4-4d1d-92a4-9c52eb7e4f4b","geometry":{"type":"Polygon","coordinates":[[[139.05,35.92877677072246],[139.049964,35.9287329],[139.0499199,35.9286843],[139.0498598,35.9286247],[139.049796,35.9285678],[139.0497934,35.9285655],[139.049787,35.9285598],[139.0497812,35.9285537],[139.0497757,35.9285475],[139.0497707,35.9285409],[139.049766,35.9285342],[139.049762,35.9285273],[139.0497597,35.9285232],[139.0497563,35.928516],[139.0497534,35.9285087],[139.049751,35.9285012],[139.0497491,35.9284937],[139.0497477,35.928486],[139.0497468,35.9284783],[139.0497466,35.9284707],[139.0497466,35.9284629],[139.0497474,35.9284553],[139.0497486,35.9284476],[139.0497502,35.92844],[139.0497521,35.9284336],[139.0497566,35.9284224],[139.0497602,35.928411],[139.0497631,35.9283996],[139.0497652,35.928388],[139.0497666,35.9283762],[139.0497671,35.9283644],[139.0497671,35.9283632],[139.0497668,35.9283514],[139.0497657,35.9283397],[139.0497638,35.9283281],[139.0497611,35.9283165],[139.0497577,35.9283051],[139.0497535,35.9282939],[139.0497486,35.9282829],[139.0497429,35.9282721],[139.0497366,35.9282615],[139.0497294,35.9282513],[139.0497217,35.9282414],[139.0497176,35.9282367],[139.0496525,35.9281882],[139.0496338,35.9281792],[139.0496039,35.9281702],[139.0495916,35.9281681],[139.0495793,35.9281672],[139.049579,35.9281672],[139.0495594,35.9281666],[139.049559,35.9281666],[139.049544,35.9281665],[139.0495436,35.9281665],[139.0495001,35.9281684],[139.0493419,35.9281946],[139.0493432,35.9282287],[139.049064,35.9282515],[139.0490636,35.9282515],[139.0490295,35.9282555],[139.0489951,35.9282576],[139.0489606,35.9282576],[139.0489602,35.9282576],[139.048926,35.9282556],[139.0489089,35.9282539],[139.0488751,35.9282489],[139.0488747,35.9282489],[139.0488413,35.928242],[139.0488341,35.9282402],[139.0488171,35.9282343],[139.0488006,35.9282275],[139.0487847,35.9282197],[139.0487695,35.928211],[139.0487597,35.9282046],[139.048746,35.9281946],[139.048733,35.9281837],[139.0487211,35.9281721],[139.0487103,35.9281599],[139.0487005,35.928147],[139.0486919,35.9281336],[139.0486845,35.9281198],[139.0486783,35.9281055],[139.0486735,35.928091],[139.0486699,35.9280762],[139.0486676,35.9280612],[139.0486668,35.9280522],[139.0486651,35.9280307],[139.0486653,35.9280091],[139.0486675,35.9279876],[139.0486687,35.9279797],[139.0486734,35.9279586],[139.04868,35.9279376],[139.0486883,35.9279172],[139.0486985,35.9278973],[139.0487098,35.9278786],[139.0487508,35.9278463],[139.0487895,35.9278122],[139.0488259,35.9277766],[139.0488283,35.927774],[139.0488621,35.9277366],[139.0488757,35.9277197],[139.0488843,35.9279034],[139.048936,35.9280182],[139.0490235,35.9280569],[139.0491763,35.9280293],[139.0494241,35.9278687],[139.0495256,35.9276929],[139.0496498,35.927584],[139.0498255,35.927609],[139.05,35.92756724239298],[139.05,35.92877677072246]]]},"properties":{"layer":"landuse","class_code":"205","class_label":"その他自然地（原野・牧野、荒れ地（耕作放棄地等自然的状況のもの）、低湿地、河川敷・河原、海浜、湖岸）"}},{"type":"Feature","id":"luse_fbd4f8c9-c4c7-4ecd-b4ef-dbc9700ac35d","geometry":{"type":"Polygon","coordinates":[[[139.05,35.928859763780686],[139.0499702,35.9288216],[139.0499187,35.9287589],[139.0498759,35.928712],[139.049818,35.9286542],[139.0497554,35.9285987],[139.0497525,35.9285962],[139.0497446,35.9285887],[139.0497368,35.9285808],[139.0497296,35.9285725],[139.0497229,35.9285639],[139.0497169,35.928555],[139.0497116,35.9285461],[139.0497084,35.9285402],[139.0497041,35.928531],[139.0497002,35.9285213],[139.0496969,35.9285114],[139.0496943,35.9285015],[139.0496927,35.9284914],[139.0496922,35.9284865],[139.049687,35.9284724],[139.0496859,35.9284556],[139.0496855,35.9284129],[139.049687,35.9283873],[139.049688,35.9283803],[139.0496891,35.9283721],[139.0496894,35.9283633],[139.0496893,35.9283546],[139.0496886,35.9283463],[139.0496872,35.9283381],[139.0496853,35.9283298],[139.0496829,35.9283218],[139.04968,35.9283139],[139.0496765,35.9283061],[139.0496725,35.9282985],[139.0496679,35.9282911],[139.0496627,35.9282838],[139.0496572,35.9282764],[139.0496538,35.9282728],[139.0496378,35.9282591],[139.049625,35.928253],[139.0496246,35.9282529],[139.0496014,35.9282467],[139.0495839,35.9282442],[139.0495835,35.9282442],[139.049544,35.928244],[139.0495437,35.928244],[139.0493472,35.9282601],[139.0490687,35.9282828],[139.0490683,35.9282829],[139.0490337,35.9282869],[139.0489965,35.9282891],[139.0489591,35.9282892],[139.0489222,35.928287],[139.048903,35.928285],[139.0488668,35.9282798],[139.0488664,35.9282797],[139.0488312,35.9282724],[139.0488308,35.9282724],[139.0488211,35.92827],[139.0488207,35.9282699],[139.0488007,35.928263],[139.0487818,35.9282551],[139.0487634,35.9282461],[139.0487461,35.9282363],[139.0487346,35.9282287],[139.0487188,35.9282173],[139.0487042,35.9282048],[139.0486903,35.9281915],[139.0486778,35.9281774],[139.0486667,35.9281626],[139.0486567,35.9281472],[139.0486484,35.9281313],[139.0486413,35.9281149],[139.0486357,35.9280982],[139.0486316,35.9280812],[139.048629,35.9280642],[139.0486279,35.9280543],[139.0486262,35.9280315],[139.0486265,35.9280077],[139.0486287,35.9279843],[139.0486304,35.927975],[139.0486355,35.9279518],[139.0486427,35.9279288],[139.0486711,35.9278462],[139.0487111,35.9278148],[139.0487476,35.9277826],[139.0487827,35.9277483],[139.048784,35.9277467],[139.0488165,35.9277109],[139.0488461,35.9276742],[139.048873,35.9276362],[139.0488974,35.9275971],[139.0489047,35.9275838],[139.0489192,35.9275568],[139.0489384,35.9275156],[139.0489487,35.9274899],[139.0489604,35.9274532],[139.0489753,35.9274149],[139.0489809,35.9274018],[139.0489994,35.9273646],[139.0490202,35.9273278],[139.0490439,35.9272919],[139.0490695,35.9272573],[139.0490975,35.9272238],[139.0491281,35.9271916],[139.0491605,35.9271608],[139.0491945,35.9271317],[139.0492091,35.9271203],[139.0492332,35.9271228],[139.0492456,35.9271241],[139.049246,35.9271242],[139.0492477,35.9271527],[139.049234,35.9271635],[139.0492015,35.927191],[139.0491711,35.92722],[139.0491427,35.9272502],[139.0491162,35.9272817],[139.0490921,35.9273143],[139.04907,35.9273479],[139.0490503,35.9273824],[139.0490329,35.9274178],[139.0490278,35.9274294],[139.0490136,35.9274656],[139.0490019,35.9275025],[139.0489906,35.9275305],[139.0489705,35.9275739],[139.048965,35.9275842],[139.0489476,35.9276163],[139.0489218,35.9276577],[139.0488932,35.9276978],[139.0488757,35.9277197],[139.0488621,35.9277366],[139.0488283,35.927774],[139.0488259,35.9277766],[139.0487895,35.9278122],[139.0487508,35.9278463],[139.0487098,35.9278786],[139.0486985,35.9278973],[139.0486883,35.9279172],[139.04868,35.9279376],[139.0486734,35.9279586],[139.0486687,35.9279797],[139.0486675,35.9279876],[139.0486653,35.9280091],[139.0486651,35.9280307],[139.0486668,35.9280522],[139.0486676,35.9280612],[139.0486699,35.9280762],[139.0486735,35.928091],[139.0486783,35.9281055],[139.0486845,35.9281198],[139.0486919,35.9281336],[139.0487005,35.928147],[139.0487103,35.9281599],[139.0487211,35.9281721],[139.048733,35.9281837],[139.048746,35.9281946],[139.0487597,35.9282046],[139.0487695,35.928211],[139.0487847,35.9282197],[139.0488006,35.9282275],[139.0488171,35.9282343],[139.0488341,35.9282402],[139.0488413,35.928242],[139.0488747,35.9282489],[139.0488751,35.9282489],[139.0489089,35.9282539],[139.048926,35.9282556],[139.0489602,35.9282576],[139.0489606,35.9282576],[139.0489951,35.9282576],[139.0490295,35.9282555],[139.0490636,35.9282515],[139.049064,35.9282515],[139.0493432,35.9282287],[139.0493419,35.9281946],[139.0495001,35.9281684],[139.0495436,35.9281665],[139.049544,35.9281665],[139.049559,35.9281666],[139.0495594,35.9281666],[139.049579,35.9281672],[139.0495793,35.9281672],[139.0495916,35.9281681],[139.0496039,35.9281702],[139.0496338,35.9281792],[139.0496525,35.9281882],[139.0497176,35.9282367],[139.0497217,35.9282414],[139.0497294,35.9282513],[139.0497366,35.9282615],[139.0497429,35.9282721],[139.0497486,35.9282829],[139.0497535,35.9282939],[139.0497577,35.9283051],[139.0497611,35.9283165],[139.0497638,35.9283281],[139.0497657,35.9283397],[139.0497668,35.9283514],[139.0497671,35.9283632],[139.0497671,35.9283644],[139.0497666,35.9283762],[139.0497652,35.928388],[139.0497631,35.9283996],[139.0497602,35.928411],[139.0497566,35.9284224],[139.0497521,35.9284336],[139.0497502,35.92844],[139.0497486,35.9284476],[139.0497474,35.9284553],[139.0497466,35.9284629],[139.0497466,35.9284707],[139.0497468,35.9284783],[139.0497477,35.928486],[139.0497491,35.9284937],[139.049751,35.9285012],[139.0497534,35.9285087],[139.0497563,35.928516],[139.0497597,35.9285232],[139.049762,35.9285273],[139.049766,35.9285342],[139.0497707,35.9285409],[139.0497757,35.9285475],[139.0497812,35.9285537],[139.049787,35.9285598],[139.0497934,35.9285655],[139.049796,35.9285678],[139.0498598,35.9286247],[139.0499199,35.9286843],[139.049964,35.9287329],[139.05,35.92877677072246],[139.05,35.928859763780686]]]},"properties":{"layer":"landuse","class_code":"215","class_label":"道路用地（道路、駅前広場、私有地内に存在する沿道用途の「私道」または、私有地の一部分であるものの公共の通行に供されている土地の部分）"}}]}