{"type":"FeatureCollection","properties":{"mesh_code":"53397022","source":"PLATEAU秩父市2025","layer":"landuse"},"features":[{"type":"Feature","id":"luse_965763db-66e5-46fe-b8a6-29c3a123796d","geometry":{"type":"Polygon","coordinates":[[[139.027932,35.9412973],[139.02779795078808,35.94166666666667],[139.02758137392155,35.94166666666667],[139.027584,35.9416591],[139.0276199,35.9415868],[139.0277039,35.941408],[139.027754,35.9413187],[139.027799,35.9412847],[139.027932,35.9412973]]]},"properties":{"layer":"landuse","class_code":"211","class_label":"住宅用地（住宅、共同住宅、店舗等併用住宅、店舗等併用共同住宅、作業所併用住宅）"}},{"type":"Feature","id":"luse_74898cf7-bd8b-4e8d-b7fc-5f870c8d7c18","geometry":{"type":"Polygon","coordinates":[[[139.02852579078652,35.94166666666667],[139.02830844784947,35.94166666666667],[139.0283633,35.9413575],[139.0283249,35.941353],[139.0283014,35.941485],[139.0280393,35.9414531],[139.0279763,35.9414454],[139.027921,35.9414387],[139.0279703,35.9413027],[139.0280386,35.9413092],[139.0282715,35.9413394],[139.0285176,35.9413554],[139.0285349,35.9413841],[139.0285158,35.9415378],[139.02852579078652,35.94166666666667]]]},"properties":{"layer":"landuse","class_code":"211","class_label":"住宅用地（住宅、共同住宅、店舗等併用住宅、店舗等併用共同住宅、作業所併用住宅）"}},{"type":"Feature","id":"luse_ffd46e7c-bf60-4443-8b44-1fdd36eb47ca","geometry":{"type":"Polygon","coordinates":[[[139.0279672,35.9414762],[139.0280323,35.9414841],[139.0281087,35.9414934],[139.0282959,35.9415162],[139.02826919998023,35.94166666666667],[139.0278384061999,35.94166666666667],[139.02791,35.9414692],[139.0279672,35.9414762]]]},"properties":{"layer":"landuse","class_code":"211","class_label":"住宅用地（住宅、共同住宅、店舗等併用住宅、店舗等併用共同住宅、作業所併用住宅）"}},{"type":"Feature","id":"luse_c36046a9-3e99-4d92-9354-2e9ebad131a0","geometry":{"type":"MultiPolygon","coordinates":[[[[139.02707691210358,35.94166666666667],[139.0270428,35.9416384],[139.027035,35.9416323],[139.0269407,35.9415647],[139.0268818,35.9415293],[139.02682,35.9414977],[139.0268197,35.9414976],[139.0267549,35.9414701],[139.0267542,35.9414698],[139.0266868,35.9414465],[139.0266173,35.9414276],[139.0265465,35.9414132],[139.0265461,35.9414131],[139.026474,35.9414033],[139.0264048,35.9413982],[139.0264072,35.9413758],[139.0264776,35.9413809],[139.026552,35.9413911],[139.0266251,35.9414059],[139.0266966,35.9414254],[139.0267655,35.9414492],[139.0267671,35.9414498],[139.0267674,35.9414499],[139.0268338,35.941478],[139.0268977,35.9415106],[139.0269583,35.9415471],[139.0270537,35.9416157],[139.0270624,35.9416222],[139.02711596503363,35.94166666666667],[139.02779795078808,35.94166666666667],[139.027932,35.9412973],[139.0279703,35.9413027],[139.027921,35.9414387],[139.0279763,35.9414454],[139.0280393,35.9414531],[139.0283014,35.941485],[139.0283249,35.941353],[139.0283633,35.9413575],[139.02830844784947,35.94166666666667],[139.02707691210358,35.94166666666667]]],[[[139.02826919998023,35.94166666666667],[139.0282959,35.9415162],[139.0281087,35.9414934],[139.0280323,35.9414841],[139.0279672,35.9414762],[139.02791,35.9414692],[139.0278384061999,35.94166666666667],[139.02826919998023,35.94166666666667]]]]},"properties":{"layer":"landuse","class_code":"215","class_label":"道路用地（道路、駅前広場、私有地内に存在する沿道用途の「私道」または、私有地の一部分であるものの公共の通行に供されている土地の部分）"}}]}