{"type":"FeatureCollection","properties":{"mesh_code":"53397017","source":"PLATEAU秩父市2025","layer":"landuse"},"features":[{"type":"Feature","id":"luse_92c789ed-03fc-4210-9256-5fc5b1e23433","geometry":{"type":"Polygon","coordinates":[[[139.0875,35.93333333333333],[139.0875,35.925],[139.1,35.925],[139.1,35.929172397014945],[139.0999705,35.9292063],[139.0998912,35.9292962],[139.0998572,35.9293315],[139.0996017,35.9296586],[139.0994458,35.9298721],[139.0993764,35.9299323],[139.0993416,35.9299676],[139.0993096,35.9300404],[139.0992964,35.9301251],[139.099292,35.9302047],[139.0993084,35.9303383],[139.0993488,35.9304604],[139.0993786,35.9305487],[139.0993773,35.9306361],[139.0993285,35.9307107],[139.0992805,35.9307828],[139.0992545,35.9308694],[139.0992412,35.9309656],[139.0992302,35.9310691],[139.0991948,35.9311471],[139.0991061,35.9312804],[139.0990329,35.931336],[139.0989732,35.9313872],[139.0989443,35.9314588],[139.0989388,35.9315041],[139.0989553,35.9316305],[139.0989574,35.9317049],[139.0989569,35.931793],[139.0989451,35.9318952],[139.0989037,35.9320029],[139.0988657,35.9320991],[139.0988221,35.9321951],[139.0987742,35.9322626],[139.0987231,35.9323243],[139.0986609,35.9323871],[139.0986027,35.9324448],[139.0985869,35.9324946],[139.098583,35.9325438],[139.098582,35.9326066],[139.0985804,35.9326648],[139.098578,35.9327231],[139.0985641,35.9328563],[139.0985545,35.9331839],[139.0985507,35.9332835],[139.09854939074987,35.93333333333333],[139.0875,35.93333333333333]]]},"properties":{"layer":"landuse","class_code":"203","class_label":"山林（樹林地）"}}]}