{"type":"FeatureCollection","properties":{"mesh_code":"54380747","source":"PLATEAU秩父市2025","layer":"landuse"},"features":[{"type":"Feature","id":"luse_8d8ae654-3b52-4f6e-a351-12b249cb2c36","geometry":{"type":"Polygon","coordinates":[[[138.975,36.041666666666664],[138.97454377171172,36.041666666666664],[138.9745664,36.0416589],[138.9746288,36.0416226],[138.9746962,36.0415705],[138.9746809,36.0415575],[138.9747165,36.0414757],[138.9747229,36.0413881],[138.974714,36.0413754],[138.9746428,36.0413432],[138.9744932,36.0414982],[138.9744225,36.0415826],[138.9744171,36.0416018],[138.9744211,36.0416226],[138.97444324950206,36.041666666666664],[138.97265655800655,36.041666666666664],[138.9726881,36.0416507],[138.9726982,36.0416437],[138.9727162,36.041631],[138.972737,36.0416127],[138.9727571,36.041597],[138.9727883,36.0415671],[138.9728349,36.0415196],[138.9728848,36.0414759],[138.972913,36.0414525],[138.9729353,36.0414364],[138.9730167,36.0413942],[138.9731368,36.0413373],[138.9735344,36.0412082],[138.9739221,36.0409627],[138.974192,36.0407043],[138.9744919,36.0404924],[138.9745156,36.0404725],[138.9745562,36.0404374],[138.9745906,36.0404116],[138.9746193,36.0403946],[138.9746861,36.040363],[138.9747201,36.0403486],[138.9747438,36.0403375],[138.9747873,36.0403061],[138.9749132,36.0401683],[138.975,36.04003969352051],[138.975,36.041666666666664]]]},"properties":{"layer":"landuse","class_code":"203","class_label":"山林（樹林地）"}},{"type":"Feature","id":"luse_d5be16a0-7da1-41c4-abea-6e9de6bd408e","geometry":{"type":"Polygon","coordinates":[[[138.974714,36.0413754],[138.9747229,36.0413881],[138.9747165,36.0414757],[138.9746809,36.0415575],[138.9746206,36.0416038],[138.9746143,36.0416086],[138.9746073,36.0416127],[138.9745555,36.0416432],[138.9745324,36.0416511],[138.9744869778607,36.041666666666664],[138.97444324950206,36.041666666666664],[138.9744211,36.0416226],[138.9744171,36.0416018],[138.9744225,36.0415826],[138.9744932,36.0414982],[138.9746428,36.0413432],[138.974714,36.0413754]]]},"properties":{"layer":"landuse","class_code":"211","class_label":"住宅用地（住宅、共同住宅、店舗等併用住宅、店舗等併用共同住宅、作業所併用住宅）"}}]}