{"type":"FeatureCollection","properties":{"mesh_code":"54380749","source":"PLATEAU秩父市2025","layer":"landuse"},"features":[{"type":"Feature","id":"luse_0ec8a5e9-2676-4d91-9d72-af0e08a8f489","geometry":{"type":"Polygon","coordinates":[[[138.9944132,36.0349727],[138.9945104,36.0350954],[138.9945627,36.0352894],[138.9944639,36.0353224],[138.9944943,36.0353878],[138.9944753,36.035476],[138.99453,36.0356889],[138.9944643,36.0357789],[138.9943497,36.0358328],[138.9942726,36.0357734],[138.9942248,36.0356426],[138.9942243,36.035449],[138.9941403,36.0353075],[138.9941259,36.0351958],[138.9941246,36.0350738],[138.9941386,36.0349729],[138.9942927,36.034854],[138.9944132,36.0349727]]]},"properties":{"layer":"landuse","class_code":"202","class_label":"畑（畑、樹園地、採草地、養鶏（牛・豚）場）"}},{"type":"Feature","id":"luse_beab24e6-b372-4ce7-9239-d9b2ef86797c","geometry":{"type":"Polygon","coordinates":[[[138.9944465,36.0388215],[138.9944241,36.038846],[138.9942943,36.0389658],[138.9941735,36.0390615],[138.9941741,36.0390623],[138.9939879,36.0389214],[138.9940652,36.0388011],[138.9941462,36.0388132],[138.9941968,36.0388068],[138.9942158,36.0387812],[138.9942348,36.0387661],[138.9942772,36.0387568],[138.9943029,36.0387646],[138.9943719,36.0387899],[138.9944465,36.0388215]]]},"properties":{"layer":"landuse","class_code":"202","class_label":"畑（畑、樹園地、採草地、養鶏（牛・豚）場）"}},{"type":"Feature","id":"luse_efc91e38-84c2-4e46-b800-72d048e60bc2","geometry":{"type":"Polygon","coordinates":[[[138.9950928,36.0391053],[138.9951576,36.0391502],[138.9951513,36.0391614],[138.9951408,36.0391674],[138.9951145,36.0391791],[138.9950438,36.0392056],[138.9949382,36.0392465],[138.9948684,36.0392722],[138.9948245,36.0392904],[138.9948175,36.0392938],[138.994805,36.0392914],[138.994799,36.0392866],[138.994744,36.0392177],[138.9946818,36.0391297],[138.9946352,36.039068],[138.9947377,36.0390946],[138.9949208,36.0389838],[138.9949871,36.0390303],[138.9950928,36.0391053]]]},"properties":{"layer":"landuse","class_code":"202","class_label":"畑（畑、樹園地、採草地、養鶏（牛・豚）場）"}},{"type":"Feature","id":"luse_1ecd895c-5fb8-4b0e-a661-3291857eb967","geometry":{"type":"Polygon","coordinates":[[[138.9945715,36.039399],[138.9945425,36.0394119],[138.9944853,36.0394167],[138.9944119,36.0393923],[138.9943478,36.0393398],[138.994385,36.0392742],[138.9944388,36.0391546],[138.9944503,36.0391181],[138.9944995,36.0390886],[138.9945699,36.0391168],[138.9946118,36.0390797],[138.994658,36.0391412],[138.9947204,36.0392294],[138.9947758,36.039299],[138.9947859,36.0393112],[138.9945715,36.039399]]]},"properties":{"layer":"landuse","class_code":"202","class_label":"畑（畑、樹園地、採草地、養鶏（牛・豚）場）"}},{"type":"Feature","id":"luse_8ac62fec-6b5d-445a-a7da-60a3f6785d4f","geometry":{"type":"Polygon","coordinates":[[[138.9952747,36.0392331],[138.9952617,36.0392934],[138.995234,36.0393272],[138.9950631,36.0394429],[138.9949509,36.0392666],[138.9950558,36.039226],[138.9951254,36.0391998],[138.9951766,36.0391831],[138.9951861,36.0391832],[138.9952107,36.0391898],[138.9952166,36.0391913],[138.9952747,36.0392331]]]},"properties":{"layer":"landuse","class_code":"202","class_label":"畑（畑、樹園地、採草地、養鶏（牛・豚）場）"}},{"type":"Feature","id":"luse_298e7529-2db5-402a-a41f-fa8247ef2fe3","geometry":{"type":"Polygon","coordinates":[[[138.9877691,36.0363671],[138.9877058,36.0363787],[138.9876632,36.0363912],[138.9876221,36.0364048],[138.9875618,36.0364337],[138.9875166,36.0364651],[138.9875,36.03647931826085],[138.9875,36.03345403568773],[138.9875474,36.0334543],[138.9880005,36.0333848],[138.9881616,36.03335],[138.9882389,36.0333383],[138.98826999671593,36.03333333333333],[138.99088652807018,36.03333333333333],[138.9908328,36.033375],[138.9907488,36.0334359],[138.9906461,36.0335046],[138.9905388,36.0335723],[138.9904877,36.0335974],[138.9904836,36.0335995],[138.9904388,36.0336112],[138.9904179,36.0336147],[138.9903885,36.0336191],[138.9903396,36.0336202],[138.9903217,36.0336173],[138.9902591,36.033607],[138.99019,36.0336043],[138.9901896,36.0336043],[138.9901429,36.0336062],[138.9901425,36.0336063],[138.9901268,36.033607],[138.9900907,36.0336191],[138.9900831,36.0336219],[138.9900584,36.033631],[138.9900095,36.0336592],[138.9900001,36.0336663],[138.9899864,36.033678],[138.9899575,36.0337026],[138.9899569,36.0337031],[138.9899168,36.0337473],[138.9898863,36.0337944],[138.9898678,36.0338247],[138.9898609,36.0338381],[138.9898555,36.0338481],[138.9898272,36.0339105],[138.9898182,36.0339444],[138.9898155,36.0339776],[138.9898208,36.0340079],[138.989836,36.0340719],[138.9898813,36.0341662],[138.9899584,36.034308],[138.9899611,36.0343134],[138.9899736,36.0343386],[138.9899849,36.0343571],[138.9900153,36.034407],[138.990038,36.0344539],[138.990061,36.0345193],[138.9900757,36.0345998],[138.9900834,36.0346809],[138.990081,36.0347138],[138.9900782,36.0347537],[138.9900575,36.0348039],[138.9899943,36.0348911],[138.9899865,36.0349019],[138.9899743,36.0349184],[138.989952,36.0349514],[138.9899318,36.0349778],[138.9898879,36.0350156],[138.9898533,36.0350386],[138.989853,36.0350387],[138.9898081,36.0350572],[138.9897767,36.0350674],[138.9897737,36.0350683],[138.989722,36.0350705],[138.9895711,36.0350636],[138.9894878,36.0350619],[138.9894874,36.0350618],[138.9893684,36.0350572],[138.9892668,36.0350632],[138.9892665,36.0350632],[138.9891565,36.035064],[138.9891561,36.035064],[138.9890661,36.0350608],[138.9890658,36.0350608],[138.9889893,36.035058],[138.988989,36.035058],[138.9888677,36.0350542],[138.9888626,36.0350539],[138.9887057,36.035048],[138.9887054,36.035048],[138.9886253,36.0350461],[138.9885184,36.0350417],[138.988386,36.0350538],[138.9883856,36.0350539],[138.9883252,36.0350685],[138.9883248,36.0350686],[138.9882907,36.0350769],[138.9881998,36.0351164],[138.9881524,36.0351468],[138.988118,36.0351793],[138.9880832,36.0352232],[138.9880625,36.0352751],[138.9880583,36.0353173],[138.9880726,36.0353767],[138.9880897,36.0354278],[138.9881237,36.035481],[138.988138,36.0355025],[138.9881406,36.0355063],[138.9881417,36.0355079],[138.9881769,36.0355435],[138.988225,36.0355762],[138.9882506,36.0355897],[138.9882722,36.0356011],[138.9883179,36.0356144],[138.9883496,36.0356217],[138.9883558,36.0356232],[138.9883622,36.0356246],[138.9884076,36.0356308],[138.9884603,36.0356328],[138.9884607,36.0356328],[138.9887136,36.0356355],[138.988714,36.0356355],[138.9888021,36.0356362],[138.9888615,36.0356379],[138.9889387,36.03564],[138.9891701,36.0356471],[138.9892631,36.0356465],[138.9893306,36.035644],[138.9893919,36.0356404],[138.9894369,36.0356378],[138.9895368,36.0356334],[138.9895485,36.0356329],[138.9896004,36.0356306],[138.9897165,36.0356367],[138.9897711,36.0356417],[138.9898281,36.035647],[138.9898284,36.035647],[138.9898975,36.0356558],[138.9899506,36.0356649],[138.9899735,36.0356709],[138.9899902,36.0356757],[138.9900316,36.0356874],[138.9901147,36.0357146],[138.9901209,36.035716],[138.9902118,36.0357377],[138.9902797,36.0357588],[138.9903154,36.0357699],[138.9903932,36.0357943],[138.9904292,36.0358117],[138.9904599,36.0358293],[138.9904676,36.0358445],[138.9905192,36.0359357],[138.990586,36.0360419],[138.990677,36.0361749],[138.990732,36.0362589],[138.9907816,36.0363279],[138.9907636,36.0363605],[138.990747,36.036376],[138.9907278,36.0363891],[138.9907112,36.0363995],[138.9906928,36.0364052],[138.9906691,36.0364067],[138.9906441,36.0364051],[138.9906218,36.0364016],[138.9905977,36.0363916],[138.9905747,36.0363783],[138.9905581,36.0363611],[138.9905432,36.0363327],[138.9905326,36.0362986],[138.9905225,36.0362447],[138.9905112,36.0361939],[138.9904887,36.0361431],[138.9904549,36.0360874],[138.9904227,36.0360351],[138.9903774,36.0359835],[138.9903317,36.0359427],[138.9902927,36.0359079],[138.9902426,36.0358691],[138.9901829,36.0358353],[138.9901259,36.0358096],[138.9900565,36.0357821],[138.9900138,36.0357644],[138.9899643,36.0357502],[138.989964,36.0357501],[138.9899035,36.0357376],[138.9898365,36.035728],[138.9898362,36.035728],[138.9898192,36.0357271],[138.9897955,36.035726],[138.9897826,36.0357254],[138.9897749,36.0357251],[138.9897547,36.0357246],[138.9896684,36.0357232],[138.9895863,36.0357216],[138.9893863,36.0357261],[138.9891652,36.0357287],[138.9890501,36.0357284],[138.9890497,36.0357284],[138.9888987,36.0357283],[138.9888605,36.0357282],[138.9887293,36.0357283],[138.9884026,36.0357304],[138.9884022,36.0357304],[138.9881944,36.0357293],[138.9880678,36.0357305],[138.9880674,36.0357305],[138.9879988,36.0357407],[138.9879464,36.0357569],[138.9878984,36.0357819],[138.9878642,36.0358136],[138.9878421,36.0358424],[138.9878144,36.0359024],[138.9878037,36.0359468],[138.9878049,36.0359847],[138.9878217,36.0360284],[138.9878513,36.0360664],[138.9878738,36.0360925],[138.987952,36.0361454],[138.9879611,36.0361505],[138.9880374,36.0361929],[138.9880766,36.0362255],[138.9880889,36.0362425],[138.9880937,36.0362629],[138.9880976,36.0362919],[138.9880931,36.0363216],[138.9880784,36.0363444],[138.9880511,36.0363637],[138.9880198,36.0363771],[138.9879929,36.036382],[138.9879659,36.0363819],[138.9879622,36.0363816],[138.9879339,36.0363783],[138.9879336,36.0363783],[138.9878646,36.0363669],[138.9878087,36.036364],[138.9878083,36.036364],[138.9877691,36.0363671]]]},"properties":{"layer":"landuse","class_code":"203","class_label":"山林（樹林地）"}},{"type":"Feature","id":"luse_78bccf0c-c4fc-43e4-abb5-6ab0bba5d003","geometry":{"type":"Polygon","coordinates":[[[138.9875,36.03722511890359],[138.9875519,36.0372261],[138.9875522,36.0372261],[138.9876115,36.0372196],[138.9876119,36.0372197],[138.9876569,36.0372035],[138.9876801,36.0371818],[138.9876928,36.0371699],[138.9877187,36.0371159],[138.9877458,36.0370539],[138.9877841,36.0370122],[138.9878094,36.036999],[138.9878454,36.0369883],[138.987915,36.0369786],[138.988017,36.0369717],[138.9880858,36.0369712],[138.988089,36.0369712],[138.9881388,36.0369729],[138.9881392,36.0369729],[138.9881926,36.0369786],[138.9882276,36.0369866],[138.9882392,36.0369937],[138.9882502,36.0370049],[138.9882596,36.0370262],[138.9882632,36.037047],[138.988263,36.0370612],[138.9882594,36.0370798],[138.9882433,36.0371388],[138.9881957,36.0372098],[138.9881483,36.037296],[138.9881104,36.0373735],[138.9881036,36.0374136],[138.9881047,36.0374501],[138.988109,36.0374857],[138.9881274,36.0375342],[138.988178,36.0375928],[138.9882493,36.0376467],[138.9883453,36.037716],[138.988393,36.0377711],[138.9883953,36.0377762],[138.9883918,36.0377799],[138.9883914,36.0377799],[138.9883853,36.03778],[138.9883585,36.0377662],[138.9882618,36.0377104],[138.9881699,36.0376699],[138.9880969,36.0376313],[138.9880721,36.0376082],[138.9880395,36.0375724],[138.9880119,36.0375314],[138.9879796,36.0374868],[138.9879615,36.0374737],[138.9879379,36.0374675],[138.987937,36.0374673],[138.9879286,36.0374661],[138.9878718,36.0374683],[138.9878189,36.0374769],[138.9877938,36.037481],[138.9876844,36.0375071],[138.9875346,36.0375586],[138.9875,36.03756985991379],[138.9875,36.03722511890359]]]},"properties":{"layer":"landuse","class_code":"203","class_label":"山林（樹林地）"}},{"type":"Feature","id":"luse_b844aa59-b23a-4f0e-b81f-9032a4076c38","geometry":{"type":"Polygon","coordinates":[[[138.996236,36.0412921],[138.9962588,36.0413365],[138.9962719,36.0413621],[138.9963017,36.0414115],[138.9963088,36.0414233],[138.9963406,36.0414794],[138.9963782,36.0415333],[138.9964239,36.0415882],[138.9964941,36.0416434],[138.99652059486746,36.041666666666664],[138.99629331240422,36.041666666666664],[138.9962776,36.0416575],[138.9961913,36.0415919],[138.996127,36.0415429],[138.9960916,36.0414899],[138.9960777,36.0414477],[138.996076,36.0414105],[138.9960926,36.0413632],[138.9961224,36.0413216],[138.9961709,36.0412647],[138.9961847,36.0412546],[138.9962015,36.0412468],[138.9962118,36.0412441],[138.9962167,36.0412429],[138.996236,36.0412921]]]},"properties":{"layer":"landuse","class_code":"203","class_label":"山林（樹林地）"}},{"type":"Feature","id":"luse_8d8ae654-3b52-4f6e-a351-12b249cb2c36","geometry":{"type":"Polygon","coordinates":[[[138.9875,36.041666666666664],[138.9875,36.0375893289886],[138.9875431,36.0375753],[138.9876919,36.0375241],[138.9877991,36.0374986],[138.9878579,36.037489],[138.9878745,36.0374863],[138.9879261,36.0374842],[138.9879305,36.0374847],[138.9879309,36.0374848],[138.9879503,36.0374898],[138.9879507,36.0374898],[138.9879621,36.0374984],[138.9879924,36.03754],[138.9880207,36.0375821],[138.9880548,36.0376195],[138.9880819,36.0376451],[138.9881587,36.0376854],[138.98825,36.0377257],[138.9883457,36.0377809],[138.9883736,36.0377991],[138.9883827,36.0378068],[138.988387,36.0378138],[138.9883872,36.0378224],[138.9883845,36.0378306],[138.9883649,36.037858],[138.988342,36.0378835],[138.9883105,36.0379127],[138.9882237,36.0380078],[138.9881905,36.0380677],[138.9881745,36.0381068],[138.9881621,36.0381552],[138.9881508,36.0382115],[138.9881553,36.0382666],[138.9881625,36.0383646],[138.9881739,36.0385564],[138.9881753,36.0387091],[138.9881718,36.0387561],[138.9881578,36.038791],[138.9881439,36.0388113],[138.988124,36.0388285],[138.9880946,36.0388493],[138.9880727,36.0388608],[138.9880634,36.0388636],[138.9880484,36.0388682],[138.9880248,36.0388711],[138.9880244,36.0388711],[138.9879916,36.0388717],[138.987956,36.0388715],[138.9879231,36.0388684],[138.9879079,36.0388654],[138.9878736,36.0388499],[138.9877713,36.0387972],[138.987708,36.0387602],[138.9877074,36.0387598],[138.9877,36.0387555],[138.9876676,36.0387292],[138.9876376,36.0387013],[138.9876086,36.0386743],[138.9875939,36.0386585],[138.9875125,36.0385706],[138.9875,36.03855639873126],[138.9875,36.039486400211125],[138.9876091,36.039535],[138.9876889,36.0395663],[138.9877733,36.0395993],[138.9879107,36.039651],[138.9879696,36.0396891],[138.9880172,36.0397197],[138.988108,36.0397966],[138.9882876,36.0399426],[138.9883917,36.0400292],[138.9884855,36.0401132],[138.988583,36.0401831],[138.9885848,36.0402069],[138.9885889,36.0402271],[138.9885933,36.04024],[138.9886063,36.0402505],[138.9886266,36.0402597],[138.9886507,36.0402695],[138.9886721,36.0402727],[138.9886725,36.0402728],[138.9886998,36.0402762],[138.9887002,36.0402762],[138.9887267,36.0402822],[138.9888074,36.0403041],[138.9888117,36.0403053],[138.9890399,36.0403785],[138.9893009,36.0404663],[138.9893081,36.0404695],[138.9893547,36.0404948],[138.9894778,36.0405615],[138.9895317,36.0405932],[138.9895524,36.0406083],[138.9895648,36.0406241],[138.9895853,36.0406575],[138.989614,36.04072],[138.9896672,36.04087],[138.989702,36.0409137],[138.9897343,36.04095],[138.9897541,36.0409707],[138.989771,36.0409881],[138.9898249,36.0409928],[138.9898621,36.0409968],[138.989897,36.0410055],[138.9899193,36.0410131],[138.9899418,36.0410228],[138.9899662,36.0410427],[138.9899828,36.0410669],[138.989995,36.0411021],[138.9900014,36.0411383],[138.9899994,36.0411739],[138.9899884,36.0412199],[138.9899688,36.0412639],[138.9899446,36.0413286],[138.9899337,36.0413739],[138.9899241,36.0414223],[138.98992,36.0414754],[138.9899095,36.0415691],[138.9899003,36.0416607],[138.98989850358421,36.041666666666664],[138.9875,36.041666666666664]]]},"properties":{"layer":"landuse","class_code":"203","class_label":"山林（樹林地）"}},{"type":"Feature","id":"luse_2e809159-ae22-493a-bfdc-03abfe658d7f","geometry":{"type":"MultiPolygon","coordinates":[[[[138.98994994310405,36.041666666666664],[138.9899593,36.0415726],[138.98997,36.0414784],[138.9899737,36.0414268],[138.9899829,36.041381],[138.9899931,36.0413385],[138.9900163,36.0412767],[138.9900387,36.0412314],[138.9900584,36.0411789],[138.9900665,36.0411353],[138.9900588,36.0410921],[138.9900437,36.0410518],[138.9900214,36.0410209],[138.9899961,36.0409891],[138.9899803,36.0409723],[138.9899685,36.0409598],[138.9899595,36.0409545],[138.9899507,36.0409493],[138.9899504,36.0409492],[138.9899134,36.04094],[138.9898675,36.0409338],[138.9898345,36.0409293],[138.9898116,36.0409228],[138.9897834,36.0409076],[138.9897581,36.0408824],[138.98974,36.0408526],[138.9896825,36.0407011],[138.9896515,36.0406341],[138.9896277,36.0405953],[138.9896081,36.0405702],[138.9895773,36.0405475],[138.9895168,36.040512],[138.9893251,36.0404257],[138.9892593,36.0404035],[138.9890602,36.0403365],[138.9889528,36.0403021],[138.9889512,36.0403015],[138.9888314,36.0402631],[138.9888123,36.0402559],[138.9887593,36.0402358],[138.9887189,36.0402171],[138.9886817,36.0401928],[138.9886674,36.0401834],[138.9885246,36.040081],[138.9884321,36.0399983],[138.9883278,36.0399117],[138.9882716,36.0398617],[138.9881566,36.0397596],[138.988062,36.0396796],[138.9880071,36.0396443],[138.9879765,36.0396299],[138.9879365,36.0396111],[138.9877975,36.0395587],[138.987772,36.0395488],[138.9877715,36.0395485],[138.9876345,36.0394948],[138.9875,36.03943493639627],[138.9875,36.03863213333336],[138.9875654,36.0387028],[138.987627,36.03876],[138.987664,36.03879],[138.9877402,36.0388346],[138.9878453,36.0388887],[138.9878869,36.0389074],[138.9878876,36.0389076],[138.9879134,36.0389129],[138.9879528,36.0389165],[138.9879921,36.0389168],[138.9880294,36.0389161],[138.9880652,36.0389112],[138.9880981,36.0389013],[138.9881283,36.0388853],[138.9881595,36.0388632],[138.9881627,36.0388609],[138.9881889,36.0388381],[138.9882089,36.0388093],[138.988227,36.0387645],[138.9882287,36.0387398],[138.9882288,36.0387395],[138.9882288,36.0387379],[138.9882307,36.0387102],[138.9882293,36.0385542],[138.9882181,36.0383652],[138.9882134,36.0383005],[138.9882107,36.0382637],[138.9882066,36.0382137],[138.9882162,36.0381656],[138.988224,36.0381455],[138.9882279,36.0381355],[138.988233,36.038122],[138.9882468,36.0380958],[138.9882488,36.0380933],[138.9882856,36.0380476],[138.9883778,36.0379598],[138.988388,36.0379503],[138.9884113,36.0379286],[138.9884366,36.0379007],[138.9884527,36.0378852],[138.988468,36.0378665],[138.9884766,36.037811],[138.9884817,36.0377874],[138.9884723,36.0377578],[138.9884444,36.0377256],[138.9883847,36.0376788],[138.988286,36.0376128],[138.9882202,36.0375631],[138.9881779,36.0375141],[138.9881637,36.0374768],[138.9881601,36.0374474],[138.9881593,36.0374162],[138.9881642,36.0373875],[138.9881994,36.0373135],[138.9882454,36.0372298],[138.988292,36.0371604],[138.9883279,36.0370924],[138.9883334,36.0370602],[138.9883305,36.0370346],[138.9883205,36.0370083],[138.9883032,36.0369759],[138.98828,36.0369539],[138.9882515,36.0369407],[138.988205,36.03693],[138.9882046,36.0369299],[138.9881443,36.0369235],[138.9881247,36.0369228],[138.9881126,36.0369224],[138.988104,36.0369221],[138.9880901,36.0369217],[138.9880143,36.0369221],[138.988014,36.0369221],[138.9879072,36.0369294],[138.9878297,36.0369402],[138.9878293,36.0369403],[138.987782,36.0369543],[138.987742,36.0369753],[138.9876949,36.0370264],[138.9876531,36.0370841],[138.9876207,36.0371271],[138.9875994,36.0371474],[138.9875728,36.03716],[138.9875404,36.0371664],[138.9875401,36.0371664],[138.9875,36.037168952236236],[138.9875,36.03663365960912],[138.9875211,36.0365817],[138.9875224,36.0365785],[138.9875415,36.0365421],[138.9875738,36.0365142],[138.9876104,36.036489],[138.9876645,36.036463],[138.9876941,36.0364529],[138.9877272,36.0364435],[138.9877818,36.0364333],[138.9878075,36.0364311],[138.9878578,36.0364315],[138.9878581,36.0364315],[138.9879217,36.0364361],[138.9879607,36.0364405],[138.987981,36.0364406],[138.9879813,36.0364406],[138.9880006,36.0364407],[138.9880448,36.0364326],[138.9880452,36.0364327],[138.9880925,36.0364123],[138.9881361,36.0363813],[138.9881631,36.0363393],[138.9881702,36.0362923],[138.9881652,36.0362541],[138.9881572,36.0362215],[138.9881345,36.0361897],[138.9880892,36.0361521],[138.9880026,36.0360973],[138.9879369,36.0360477],[138.9879205,36.0360289],[138.987898,36.0359999],[138.987888,36.0359735],[138.9878871,36.0359523],[138.9878948,36.0359209],[138.987917,36.0358727],[138.9879328,36.0358523],[138.9879528,36.0358312],[138.9879828,36.0358161],[138.9880213,36.0358036],[138.9880761,36.035796],[138.9881937,36.0357969],[138.988194,36.0357969],[138.9882893,36.0357975],[138.9882897,36.0357975],[138.9883968,36.035798],[138.9887293,36.0357959],[138.9888598,36.0357958],[138.9888985,36.0357959],[138.9888989,36.0357959],[138.9889247,36.0357959],[138.9889251,36.0357959],[138.9891655,36.0357962],[138.9891659,36.0357962],[138.989388,36.0357937],[138.9895866,36.0357892],[138.9896421,36.0357903],[138.9896663,36.0357908],[138.9896667,36.0357908],[138.9897717,36.0357925],[138.9898266,36.0357952],[138.9898269,36.0357953],[138.989886,36.0358037],[138.9899399,36.0358149],[138.9899808,36.0358267],[138.9900194,36.0358426],[138.9900874,36.0358696],[138.990126,36.035887],[138.9901388,36.0358927],[138.9901898,36.0359216],[138.9902331,36.0359551],[138.9902702,36.0359883],[138.9903126,36.0360261],[138.9903512,36.03607],[138.9903804,36.0361173],[138.990412,36.0361696],[138.9904306,36.0362115],[138.9904403,36.0362557],[138.9904527,36.0363179],[138.9904604,36.0363615],[138.9904606,36.0363625],[138.9904651,36.0363944],[138.9904717,36.0364163],[138.9904643,36.0364426],[138.9904578,36.036452],[138.9904572,36.0364522],[138.9904907,36.036478],[138.990566,36.0364739],[138.9906773,36.0364648],[138.9906872,36.036464],[138.9907328,36.0364535],[138.9907565,36.0364493],[138.9907613,36.0364484],[138.9908028,36.0365047],[138.99081,36.0365147],[138.9908489,36.0365781],[138.9909296,36.036708],[138.990932,36.036733],[138.990931,36.0367367],[138.9909277,36.0367462],[138.9909261,36.0367503],[138.990885,36.0368034],[138.9908024,36.0368865],[138.990676,36.0370079],[138.990578,36.0370769],[138.9904139,36.037185],[138.9903194,36.0372515],[138.990318,36.0372561],[138.9903382,36.0372637],[138.9903385,36.0372637],[138.9903392,36.0372615],[138.9904282,36.0371988],[138.9905922,36.0370907],[138.9906919,36.0370205],[138.9908195,36.036898],[138.9909031,36.0368139],[138.9909466,36.0367576],[138.9909482,36.0367548],[138.990953,36.0367405],[138.9909544,36.0367348],[138.9909516,36.0367031],[138.9909143,36.0366432],[138.9909129,36.0366408],[138.9908688,36.0365699],[138.9908575,36.0365517],[138.9908298,36.0365067],[138.9908284,36.0365045],[138.9907925,36.0364367],[138.9908022,36.0364326],[138.9908292,36.0364252],[138.9909183,36.0365505],[138.9909699,36.0366196],[138.9909832,36.0366375],[138.9910269,36.0366968],[138.9910526,36.0367316],[138.9910605,36.0367425],[138.9910672,36.0367516],[138.9911496,36.0368583],[138.991233,36.0369561],[138.9913019,36.0370307],[138.9913604,36.0370851],[138.991421,36.0371369],[138.9915268,36.0372179],[138.9916003,36.037268],[138.9917135,36.0373408],[138.991925,36.0374819],[138.9920475,36.037564],[138.9920581,36.0375711],[138.9920952,36.037596],[138.9922583,36.037701],[138.992397,36.0377926],[138.9924892,36.0378565],[138.992538,36.0378907],[138.9926143,36.0379413],[138.9927493,36.0380304],[138.9928171,36.0380757],[138.9928488,36.0380958],[138.9929011,36.0381293],[138.9929662,36.0381714],[138.9930735,36.038243],[138.993188,36.0383123],[138.9932662,36.0383597],[138.9932906,36.0383728],[138.9933441,36.0384009],[138.9933776,36.0384178],[138.9934163,36.0384372],[138.9934713,36.0384607],[138.9935132,36.0384787],[138.9936158,36.0385179],[138.9937096,36.0385461],[138.993733,36.0385531],[138.9937333,36.0385532],[138.9938263,36.0385799],[138.9939228,36.0386015],[138.9940979,36.0386413],[138.9941066,36.0386435],[138.9942764,36.0386852],[138.9943561,36.0387058],[138.9944703,36.0387433],[138.994505,36.0387575],[138.9944465,36.0388215],[138.9943719,36.0387899],[138.9943029,36.0387646],[138.9942772,36.0387568],[138.9942348,36.0387661],[138.9942158,36.0387812],[138.9941968,36.0388068],[138.9941462,36.0388132],[138.9940652,36.0388011],[138.9939879,36.0389214],[138.9941741,36.0390623],[138.9942869,36.0392163],[138.9943478,36.0393398],[138.9944119,36.0393923],[138.9944853,36.0394167],[138.9945425,36.0394119],[138.9945715,36.039399],[138.9946357,36.0395293],[138.9947256,36.039626],[138.9948324,36.0395878],[138.9949275,36.0395386],[138.9949745,36.0395055],[138.9950546,36.0395594],[138.9951412,36.0395802],[138.9952653,36.0395634],[138.9953972,36.0396087],[138.9954938,36.0397696],[138.9955581,36.0397883],[138.9956154,36.0397904],[138.9957035,36.0397697],[138.9957763,36.0397454],[138.9957998,36.0397871],[138.9958476,36.0398866],[138.9958572,36.0399138],[138.9955944,36.0400056],[138.9956693,36.0401315],[138.9958944,36.0400687],[138.9959103,36.0401653],[138.9959453,36.0402778],[138.9959415,36.0403427],[138.9959475,36.0403748],[138.9959607,36.0404035],[138.996002,36.0404472],[138.9960112,36.0405012],[138.9960197,36.0405345],[138.9960243,36.0405522],[138.9960449,36.0406276],[138.9960562,36.0406795],[138.9960687,36.0407264],[138.9961168,36.0409074],[138.9961433,36.0410154],[138.9961493,36.0410409],[138.9961746,36.0411223],[138.996173,36.0411414],[138.9961716,36.0411581],[138.9961571,36.0411755],[138.9961281,36.0411974],[138.9960994,36.0412195],[138.9960475,36.041283],[138.9960102,36.0413348],[138.9959868,36.0414018],[138.9959895,36.0414584],[138.9960092,36.0415188],[138.9960595,36.0415847],[138.9961288,36.0416434],[138.99616860607028,36.041666666666664],[138.98994994310405,36.041666666666664]]],[[[138.9892174,36.0374775],[138.9891062,36.0374977],[138.9890025,36.0375128],[138.9887656,36.0375368],[138.9887877,36.0377379],[138.9893233,36.0376994],[138.9893378,36.0376769],[138.9893594,36.0375965],[138.989403,36.0374957],[138.9894386,36.037432],[138.9894717,36.0374065],[138.9895209,36.0373759],[138.9894676,36.0373272],[138.989433,36.0373237],[138.9892174,36.0374775]]]]},"properties":{"layer":"landuse","class_code":"203","class_label":"山林（樹林地）"}},{"type":"Feature","id":"luse_5f79d793-a3b5-42a7-b53f-c25e487fa01d","geometry":{"type":"Polygon","coordinates":[[[138.9991731,36.0360632],[138.9991773,36.036074],[138.9991848,36.0360931],[138.9991829,36.0361021],[138.9991795,36.0361118],[138.9991603,36.0361236],[138.9991345,36.0361302],[138.9991159,36.036135],[138.9990659,36.0361437],[138.9990119,36.0361439],[138.998995,36.0361404],[138.9989883,36.036132],[138.9989721,36.0360472],[138.9989646,36.036043],[138.9989511,36.0360422],[138.998869,36.0360479],[138.9988192,36.0360482],[138.9988073,36.0360446],[138.9988033,36.0360273],[138.9987932,36.0360161],[138.9987806,36.0360146],[138.9987545,36.0360054],[138.9987411,36.035995],[138.998737,36.0359727],[138.9987374,36.0359304],[138.9987408,36.0359207],[138.9987536,36.0359082],[138.9987621,36.0359069],[138.9987908,36.035912],[138.9987975,36.03591],[138.998801,36.0359031],[138.9988037,36.0358885],[138.9988113,36.0358747],[138.9988149,36.0358601],[138.9988158,36.0358476],[138.9988413,36.0358284],[138.998855,36.0358229],[138.9988821,36.0358148],[138.9988864,36.0358092],[138.9988864,36.0358071],[138.9988797,36.0357932],[138.9988764,36.0357855],[138.998879,36.0357828],[138.9988967,36.0357809],[138.9989144,36.0357803],[138.998923,36.0357776],[138.998929,36.0357686],[138.9989375,36.0357624],[138.9989493,36.0357618],[138.9989611,36.0357639],[138.9989704,36.0357689],[138.9989862,36.0357954],[138.9989869,36.0358134],[138.9990012,36.0358143],[138.999014,36.0358123],[138.9990275,36.0358012],[138.9990369,36.0357943],[138.9990538,36.0357924],[138.99908,36.0357932],[138.9991129,36.0358025],[138.9991668,36.0358154],[138.99923,36.0358408],[138.9992325,36.0358491],[138.9992279,36.0358852],[138.9991801,36.0359494],[138.9991578,36.0359798],[138.9991526,36.0360013],[138.9991566,36.03602],[138.9991731,36.0360632]]]},"properties":{"layer":"landuse","class_code":"204","class_label":"水面（河川水面、湖沼、ため池、用水路、濠、運河水面）"}},{"type":"Feature","id":"luse_695d177c-c8e0-43e8-88cf-95201a370c0b","geometry":{"type":"Polygon","coordinates":[[[138.9925643,36.037302],[138.9925924,36.0373424],[138.9926167,36.0373935],[138.9926556,36.0374732],[138.9926602,36.0374825],[138.9926963,36.0375203],[138.9927446,36.0375707],[138.992779,36.0376067],[138.9928474,36.037658],[138.9928649,36.0376643],[138.9928703,36.0376661],[138.9929259,36.0376767],[138.9929444,36.0376782],[138.992999,36.0376796],[138.9930572,36.0376876],[138.9930688,36.0376896],[138.9930791,36.0376936],[138.9931066,36.0377095],[138.9931524,36.0377432],[138.9931561,36.0377462],[138.9931626,36.0377532],[138.9931894,36.0377942],[138.9932052,36.0378369],[138.9932086,36.0378481],[138.993213,36.0378751],[138.9932213,36.0379253],[138.9932295,36.0379746],[138.9932299,36.0379776],[138.9932425,36.0380625],[138.9932479,36.0380651],[138.9932892,36.0380942],[138.9933048,36.0380994],[138.9933581,36.0381124],[138.9933828,36.0381156],[138.9933873,36.0381171],[138.9933991,36.0381229],[138.9934668,36.0381565],[138.9935227,36.0381842],[138.9935224,36.0381955],[138.9934797,36.038189],[138.9934005,36.0381824],[138.9933175,36.0381753],[138.9932729,36.0381611],[138.9932291,36.0381428],[138.9931934,36.0381232],[138.9931725,36.0380895],[138.9931709,36.0380468],[138.9931656,36.0379978],[138.9931533,36.0379198],[138.9931466,36.0378794],[138.9931328,36.037824],[138.9930978,36.0377754],[138.9930592,36.0377493],[138.992991,36.0377302],[138.9929471,36.0377282],[138.9928998,36.0377256],[138.992834,36.0377152],[138.9927892,36.0376907],[138.9927612,36.0376716],[138.9927348,36.0376464],[138.992633,36.0375293],[138.9926035,36.0374889],[138.9925808,36.0374429],[138.9925373,36.0373515],[138.9925107,36.037318],[138.9924904,36.0372944],[138.9924525,36.0372791],[138.9924094,36.0372955],[138.9923208,36.0373786],[138.9922718,36.0374224],[138.9922277,36.0374459],[138.9921977,36.0374439],[138.9921502,36.0374304],[138.9920844,36.0373956],[138.9920594,36.0373775],[138.9920361,36.0373525],[138.9920188,36.0373276],[138.9920023,36.0373023],[138.9919813,36.0372583],[138.9920201,36.0371195],[138.9920017,36.0370735],[138.9919499,36.0370465],[138.9918372,36.0370171],[138.9917562,36.0369966],[138.9917114,36.0369741],[138.9915435,36.0368006],[138.9915141,36.036777],[138.9914804,36.0367551],[138.9914477,36.0367258],[138.9914258,36.0366945],[138.9913843,36.0366354],[138.9913556,36.0365955],[138.9913507,36.0365914],[138.9913259,36.0365773],[138.9913225,36.0365743],[138.9913179,36.036568],[138.9913142,36.0365564],[138.9913144,36.0365451],[138.9913113,36.0365206],[138.9913091,36.0364864],[138.9913082,36.0364661],[138.9913108,36.0364436],[138.9913163,36.0364176],[138.9913183,36.0364125],[138.9913467,36.0363696],[138.9913725,36.0363237],[138.9913839,36.0363001],[138.9913854,36.0362955],[138.9913848,36.036275],[138.991377,36.0362452],[138.9913629,36.0362174],[138.9913505,36.0362038],[138.9913191,36.0361854],[138.9913003,36.0361745],[138.9912927,36.0361705],[138.9912542,36.0361545],[138.9912415,36.0361519],[138.9912141,36.0361503],[138.9911864,36.036152],[138.9911378,36.0361581],[138.9910769,36.0361632],[138.9910616,36.0361626],[138.9909466,36.0361403],[138.9909059,36.0360931],[138.9908621,36.0360381],[138.9908324,36.0359913],[138.99083,36.0359754],[138.9908334,36.0359428],[138.9908486,36.0358845],[138.9908497,36.0358803],[138.9908722,36.0357994],[138.9908754,36.0357732],[138.9908405,36.0357556],[138.9908178,36.0357446],[138.9907949,36.0357358],[138.9906545,36.0356947],[138.9906407,36.0356907],[138.9906548,36.0356567],[138.9908043,36.0356971],[138.9908448,36.0357082],[138.9908692,36.0357171],[138.9909067,36.035736],[138.990934,36.0357497],[138.9909358,36.0357566],[138.9909355,36.0357714],[138.9909271,36.0358066],[138.9909027,36.0358941],[138.9908898,36.035944],[138.9908917,36.0359865],[138.9909102,36.0360155],[138.9909519,36.0360679],[138.9909638,36.0360816],[138.9910011,36.0361045],[138.9910563,36.0361152],[138.9911139,36.0361164],[138.9911682,36.0361093],[138.9912252,36.0361059],[138.9912525,36.0361088],[138.9912782,36.0361124],[138.9912868,36.0361144],[138.9912981,36.0361202],[138.9913323,36.0361375],[138.9913534,36.0361499],[138.9913985,36.0361806],[138.991409,36.0361901],[138.9914132,36.0361969],[138.99142,36.0362108],[138.9914365,36.0362555],[138.9914426,36.0362857],[138.9914424,36.036296],[138.9913913,36.0363974],[138.9913718,36.036427],[138.9913698,36.0364377],[138.9913695,36.0365007],[138.9913699,36.036515],[138.9913717,36.0365386],[138.9913748,36.0365493],[138.9913826,36.036558],[138.9913897,36.0365658],[138.9914306,36.0366106],[138.9914313,36.0366114],[138.9915026,36.0367108],[138.9915063,36.0367143],[138.9915165,36.0367218],[138.9915667,36.0367536],[138.9916098,36.0367937],[138.9916311,36.0368278],[138.9916322,36.0368289],[138.9917067,36.0369017],[138.9917175,36.0369123],[138.991743,36.0369382],[138.9917859,36.0369577],[138.9918362,36.0369701],[138.9918729,36.0369783],[138.9920974,36.0370311],[138.9921076,36.037034],[138.9921187,36.0370382],[138.9921233,36.0370484],[138.9921257,36.0370551],[138.9921251,36.0370619],[138.9921208,36.0370731],[138.9920921,36.0371398],[138.9920874,36.0371501],[138.9920719,36.0372062],[138.9920696,36.0372348],[138.9920722,36.037258],[138.9920878,36.0372846],[138.99211,36.0373103],[138.9921365,36.037335],[138.9921475,36.037341],[138.9922064,36.037366],[138.9922148,36.0373665],[138.9922382,36.0373646],[138.9922548,36.0373532],[138.9922978,36.0373224],[138.9923452,36.0372834],[138.9923872,36.0372488],[138.9924176,36.037233],[138.9924252,36.0372319],[138.9924453,36.0372292],[138.9924595,36.0372321],[138.9925235,36.0372582],[138.9925329,36.0372639],[138.9925643,36.037302]]]},"properties":{"layer":"landuse","class_code":"204","class_label":"水面（河川水面、湖沼、ため池、用水路、濠、運河水面）"}},{"type":"Feature","id":"luse_15eb759a-47e7-4b66-877f-583ad76fde46","geometry":{"type":"Polygon","coordinates":[[[138.9958934,36.03948],[138.9958819,36.0395025],[138.9958461,36.0395615],[138.9958415,36.0395647],[138.9958182,36.0395748],[138.9958132,36.0395748],[138.9958129,36.0395748],[138.9958097,36.0395747],[138.9958041,36.0395691],[138.9957779,36.0395286],[138.9957525,36.0395003],[138.9957412,36.0394878],[138.995683,36.0394277],[138.9956238,36.039371],[138.9955719,36.0393214],[138.9955207,36.0392796],[138.9954319,36.0392137],[138.9953597,36.0391585],[138.9953002,36.0391131],[138.9952873,36.0391045],[138.9951732,36.0390283],[138.9950686,36.0389541],[138.9949829,36.0388941],[138.9948797,36.0388253],[138.9947765,36.0387666],[138.9947134,36.0387365],[138.9947635,36.0387043],[138.9948079,36.03867],[138.9948317,36.0386452],[138.9948601,36.0385965],[138.9948846,36.0385631],[138.9949133,36.038578],[138.9950252,36.0386821],[138.9950544,36.0387114],[138.9951077,36.0387713],[138.9951366,36.0388339],[138.9951516,36.0388806],[138.9951816,36.0389078],[138.9952142,36.038929],[138.9952377,36.0389362],[138.995299,36.0389233],[138.9953198,36.0389247],[138.995369,36.0389915],[138.9953978,36.039019],[138.9954658,36.0390434],[138.9955642,36.0390503],[138.995726,36.03905],[138.9958182,36.0390735],[138.9958794,36.0391127],[138.9958986,36.039161],[138.9959101,36.0392415],[138.995897,36.0393009],[138.9958654,36.0393618],[138.9958568,36.0394194],[138.9958646,36.0394475],[138.9958667,36.0394508],[138.9958762,36.0394611],[138.9958934,36.03948]]]},"properties":{"layer":"landuse","class_code":"205","class_label":"その他自然地（原野・牧野、荒れ地（耕作放棄地等自然的状況のもの）、低湿地、河川敷・河原、海浜、湖岸）"}},{"type":"Feature","id":"luse_8e98a53a-0fc7-4181-bdbb-8f67d3545c24","geometry":{"type":"Polygon","coordinates":[[[138.9944052,36.0381829],[138.9944254,36.0382307],[138.9944483,36.0382863],[138.9944666,36.0383168],[138.9943622,36.0383981],[138.9943514,36.0383835],[138.9943417,36.0383575],[138.994333,36.0383232],[138.9943297,36.0382993],[138.9943336,36.0382667],[138.9943529,36.0382065],[138.9943678,36.0381555],[138.9943786,36.0381181],[138.9944052,36.0381829]]]},"properties":{"layer":"landuse","class_code":"211","class_label":"住宅用地（住宅、共同住宅、店舗等併用住宅、店舗等併用共同住宅、作業所併用住宅）"}},{"type":"Feature","id":"luse_d63e7709-61e2-4b2e-a8f5-200e2295dd33","geometry":{"type":"Polygon","coordinates":[[[138.9943459,36.0381522],[138.9943312,36.0382022],[138.9943117,36.0382636],[138.9943074,36.0382995],[138.994311,36.038326],[138.9943201,36.0383619],[138.9943307,36.0383908],[138.9943436,36.0384081],[138.9943612,36.0384275],[138.994377,36.0384409],[138.9944243,36.0384814],[138.9944248,36.0384815],[138.9945263,36.0385629],[138.9945307,36.038568],[138.9945626,36.0386059],[138.9946014,36.0386522],[138.9946191,36.0386805],[138.994617,36.0386861],[138.9946123,36.0386884],[138.9946114,36.0386881],[138.9945217,36.0386513],[138.9944703,36.0386344],[138.99447,36.0386343],[138.9943983,36.0386108],[138.9943132,36.0385887],[138.9941962,36.03856],[138.9942024,36.0385217],[138.9941351,36.0382762],[138.9941914,36.0381927],[138.9942481,36.0381587],[138.9943571,36.0381139],[138.9943459,36.0381522]]]},"properties":{"layer":"landuse","class_code":"211","class_label":"住宅用地（住宅、共同住宅、店舗等併用住宅、店舗等併用共同住宅、作業所併用住宅）"}},{"type":"Feature","id":"luse_903c53b4-70f7-470a-b703-1900cd0971da","geometry":{"type":"Polygon","coordinates":[[[138.9947185,36.0384658],[138.994764,36.0384998],[138.9948056,36.0385267],[138.9948555,36.0385499],[138.9948813,36.0385614],[138.9948846,36.0385631],[138.9948601,36.0385965],[138.9948317,36.0386452],[138.9948079,36.03867],[138.9947635,36.0387043],[138.9947134,36.0387365],[138.9947107,36.0387353],[138.9946747,36.0386654],[138.9946579,36.0386505],[138.9946498,36.0386432],[138.9946231,36.0386171],[138.9945928,36.0385851],[138.9945521,36.0385454],[138.9944474,36.038462],[138.9944398,36.0384684],[138.9944108,36.0384437],[138.9944675,36.0383885],[138.9945108,36.0383525],[138.9945283,36.0383526],[138.9945539,36.0383626],[138.9946004,36.0383874],[138.9946419,36.0384095],[138.9946802,36.0384325],[138.9947185,36.0384658]]]},"properties":{"layer":"landuse","class_code":"211","class_label":"住宅用地（住宅、共同住宅、店舗等併用住宅、店舗等併用共同住宅、作業所併用住宅）"}},{"type":"Feature","id":"luse_98733dc0-2e6d-44b8-84f1-97031317969a","geometry":{"type":"Polygon","coordinates":[[[138.9944503,36.0391181],[138.9944388,36.0391546],[138.994385,36.0392742],[138.9943478,36.0393398],[138.9942869,36.0392163],[138.9941741,36.0390623],[138.9941735,36.0390615],[138.9942943,36.0389658],[138.9944241,36.038846],[138.9944465,36.0388215],[138.994505,36.0387575],[138.994553,36.0387771],[138.9947094,36.0388517],[138.9947882,36.0388964],[138.9948044,36.0389058],[138.9948722,36.0389508],[138.994903,36.0389713],[138.9949208,36.0389838],[138.9947377,36.0390946],[138.9946352,36.039068],[138.9946238,36.0390737],[138.9946118,36.0390797],[138.9945699,36.0391168],[138.9944995,36.0390886],[138.9944503,36.0391181]]]},"properties":{"layer":"landuse","class_code":"211","class_label":"住宅用地（住宅、共同住宅、店舗等併用住宅、店舗等併用共同住宅、作業所併用住宅）"}},{"type":"Feature","id":"luse_4a2722e2-f2f9-42a9-bbc4-3c5d1560fb13","geometry":{"type":"Polygon","coordinates":[[[138.9957763,36.0397454],[138.9957035,36.0397697],[138.9956154,36.0397904],[138.9955581,36.0397883],[138.9954938,36.0397696],[138.9953972,36.0396087],[138.9952653,36.0395634],[138.9951412,36.0395802],[138.9950546,36.0395594],[138.9949745,36.0395055],[138.9949275,36.0395386],[138.9948324,36.0395878],[138.9947256,36.039626],[138.9946357,36.0395293],[138.9945715,36.039399],[138.9947859,36.0393112],[138.994804,36.0393202],[138.9948174,36.0393208],[138.9948275,36.0393191],[138.9948278,36.0393191],[138.9948783,36.0392995],[138.9949509,36.0392666],[138.9950631,36.0394429],[138.995234,36.0393272],[138.9952617,36.0392934],[138.9952747,36.0392331],[138.9953503,36.0392874],[138.9954362,36.0393512],[138.9954819,36.0393887],[138.9955308,36.0394352],[138.9955548,36.0394577],[138.9955715,36.039474],[138.9956438,36.0395477],[138.995674,36.0395812],[138.9956961,36.0396153],[138.9957007,36.0396226],[138.9957542,36.0397061],[138.9957763,36.0397454]]]},"properties":{"layer":"landuse","class_code":"211","class_label":"住宅用地（住宅、共同住宅、店舗等併用住宅、店舗等併用共同住宅、作業所併用住宅）"}},{"type":"Feature","id":"luse_3ccb5fe6-9011-4ee5-87e1-6d2de1255073","geometry":{"type":"Polygon","coordinates":[[[138.9894676,36.0373272],[138.9895209,36.0373759],[138.9894717,36.0374065],[138.9894386,36.037432],[138.989403,36.0374957],[138.9893594,36.0375965],[138.9893378,36.0376769],[138.9893233,36.0376994],[138.9887877,36.0377379],[138.9887656,36.0375368],[138.9890025,36.0375128],[138.9891062,36.0374977],[138.9892174,36.0374775],[138.989433,36.0373237],[138.9894676,36.0373272]]]},"properties":{"layer":"landuse","class_code":"212","class_label":"商業用地（業務施設、商業施設、宿泊施設、商業系複合施設）"}},{"type":"Feature","id":"luse_4bdbe284-d7db-4398-ae33-d8d9f6205ca8","geometry":{"type":"Polygon","coordinates":[[[138.9979765,36.0367667],[138.9978781,36.0368498],[138.9978699,36.0368548],[138.9978566,36.0368617],[138.9978484,36.0368648],[138.9978405,36.0368663],[138.9978239,36.0368636],[138.9978236,36.0368635],[138.9978125,36.036861],[138.9978054,36.036857],[138.9977943,36.0368514],[138.997791,36.0368491],[138.9977874,36.0368451],[138.9977523,36.0367683],[138.9977482,36.0367635],[138.9977426,36.0367627],[138.997685,36.0367627],[138.9976846,36.0367627],[138.997641,36.0367671],[138.9976295,36.0367683],[138.9976301,36.0367725],[138.9972148,36.036763],[138.9972197,36.0362945],[138.9973306,36.0362273],[138.9974223,36.0358756],[138.9973845,36.0357037],[138.9974165,36.035593],[138.9975938,36.0354833],[138.9977283,36.0348458],[138.9971225,36.0346663],[138.9967909,36.0339521],[138.9969201,36.03381],[138.99684893160298,36.03333333333333],[138.9977422505102,36.03333333333333],[138.9977376,36.0335764],[138.9978506,36.0338097],[138.9983211,36.0339292],[138.9987739,36.034147],[138.9989574,36.034497],[138.9992874,36.0345202],[138.9990803,36.035021],[138.9989785,36.0352796],[138.9987543,36.0353079],[138.9986029,36.0353933],[138.9986054,36.0355096],[138.9986302,36.0359419],[138.9986747,36.0362555],[138.9982477,36.0364478],[138.9981265,36.0366655],[138.9980688,36.0366951],[138.9980597,36.0366999],[138.9980538,36.036704],[138.9979765,36.0367667]]]},"properties":{"layer":"landuse","class_code":"213","class_label":"工業用地（工場）"}},{"type":"Feature","id":"luse_8deecdc3-89dd-459f-af94-a8408b46b9e7","geometry":{"type":"Polygon","coordinates":[[[138.9989652,36.0398556],[138.9989592,36.0399427],[138.9988939,36.039939],[138.9988121,36.0399254],[138.9988244,36.0398403],[138.9989652,36.0398556]]]},"properties":{"layer":"landuse","class_code":"214","class_label":"公益施設用地（官公庁施設、文教厚生施設、供給処理施設）"}},{"type":"Feature","id":"luse_c6288231-52be-49e5-b10c-7c39a1ec1719","geometry":{"type":"Polygon","coordinates":[[[138.999033,36.0399438],[138.9990159,36.0400563],[138.9986871,36.0399924],[138.9987064,36.0399265],[138.9987869,36.0399442],[138.9988902,36.0399614],[138.9989623,36.0399655],[138.9989627,36.0399655],[138.9989963,36.0399597],[138.9990251,36.0399486],[138.999033,36.0399438]]]},"properties":{"layer":"landuse","class_code":"214","class_label":"公益施設用地（官公庁施設、文教厚生施設、供給処理施設）"}},{"type":"Feature","id":"luse_257ac062-fd5b-4e75-a852-13b3c202aa8b","geometry":{"type":"Polygon","coordinates":[[[138.9958944,36.0400687],[138.9956693,36.0401315],[138.9955944,36.0400056],[138.9958572,36.0399138],[138.9958698,36.0399501],[138.9958863,36.040019],[138.9958944,36.0400687]]]},"properties":{"layer":"landuse","class_code":"214","class_label":"公益施設用地（官公庁施設、文教厚生施設、供給処理施設）"}}]}