{"type":"FeatureCollection","properties":{"mesh_code":"54380797","source":"PLATEAU秩父市2025","layer":"landuse"},"features":[{"type":"Feature","id":"luse_4587e19b-8e50-4e51-a8bc-8770e21902d3","geometry":{"type":"Polygon","coordinates":[[[138.9671653,36.0755342],[138.9671403,36.0755449],[138.9671284,36.0755572],[138.9671072,36.0755857],[138.9670965,36.0756026],[138.967107,36.0756585],[138.9672996,36.0756981],[138.9673712,36.0757328],[138.9674181,36.0757978],[138.9674256,36.0758248],[138.9674114,36.0758565],[138.9673711,36.0758579],[138.9673056,36.0758553],[138.967162,36.0758133],[138.9669827,36.0757407],[138.9668221,36.0756555],[138.966728,36.0755788],[138.9666916,36.0754902],[138.9666647,36.0753988],[138.9666408,36.0752629],[138.9666242,36.0752465],[138.9665575,36.0752259],[138.9665416,36.0751922],[138.9665419,36.0751214],[138.9665609,36.0750417],[138.9665883,36.075039],[138.9666299,36.0750683],[138.9666096723668,36.075],[138.96668359562045,36.075],[138.966692,36.0750114],[138.9667248,36.0750026],[138.9668102,36.0750996],[138.9668795,36.0751198],[138.9669425,36.0751345],[138.9668984,36.0750852],[138.96699296614617,36.075],[138.96734437574693,36.075],[138.9673567,36.0750825],[138.9674499,36.0752637],[138.9675448,36.0753169],[138.9677021,36.0754226],[138.9677233,36.0754725],[138.9677125,36.0755242],[138.9676876,36.0755531],[138.9676326,36.0755855],[138.967594,36.0755797],[138.9673814,36.0754928],[138.9673559,36.0755131],[138.9672754,36.0755286],[138.9672133,36.0755251],[138.9671653,36.0755342]]]},"properties":{"layer":"landuse","class_code":"202","class_label":"畑（畑、樹園地、採草地、養鶏（牛・豚）場）"}},{"type":"Feature","id":"luse_7b326537-4780-4103-9899-a25d91904efc","geometry":{"type":"Polygon","coordinates":[[[138.9625,36.075],[138.96262859239985,36.075],[138.9626125,36.0750714],[138.9625574,36.0751277],[138.9625,36.07509391727317],[138.9625,36.075]]]},"properties":{"layer":"landuse","class_code":"202","class_label":"畑（畑、樹園地、採草地、養鶏（牛・豚）場）"}},{"type":"Feature","id":"luse_49878bcf-4c28-4f91-8c4b-234a5bad3eba","geometry":{"type":"Polygon","coordinates":[[[138.962666,36.0762911],[138.9626681,36.0763087],[138.9626036,36.076368],[138.9625617,36.0764067],[138.9625311,36.0764348],[138.9625059,36.076458],[138.9625,36.076459360321714],[138.9625,36.075868377108435],[138.9625085,36.0758736],[138.9625331,36.0758546],[138.9625,36.07583558510638],[138.9625,36.07581541793103],[138.9625179,36.0758248],[138.9625206,36.0758261],[138.9625487,36.0758386],[138.9625638,36.075843],[138.9625848,36.0758491],[138.9625866,36.0758494],[138.9626788,36.0758723],[138.9627519,36.0758924],[138.962762,36.0758961],[138.9627844,36.0759043],[138.9627895,36.0759073],[138.9626478,36.0759735],[138.9626416,36.0760512],[138.9625019,36.0762272],[138.962666,36.0762911]]]},"properties":{"layer":"landuse","class_code":"202","class_label":"畑（畑、樹園地、採草地、養鶏（牛・豚）場）"}},{"type":"Feature","id":"luse_5cd700af-533d-4754-bfed-a13ec87bf61d","geometry":{"type":"Polygon","coordinates":[[[138.9645385,36.0765659],[138.9645016,36.0765802],[138.9644511,36.0766572],[138.9644212,36.0767447],[138.9644143,36.0767864],[138.9644036,36.0768127],[138.9643591,36.0768363],[138.9643157,36.0768557],[138.9642613,36.076855],[138.9641857,36.0768431],[138.9640443,36.0767766],[138.9640208,36.0767403],[138.9640047,36.0766947],[138.9640064,36.076652],[138.9640191,36.0765877],[138.9640233,36.0765619],[138.9640573,36.0764113],[138.9640967,36.076341],[138.9641353,36.0762486],[138.9641843,36.076229],[138.9642438,36.076241],[138.964383,36.0762971],[138.9645813,36.0764102],[138.9647229,36.0764748],[138.9647652,36.0765099],[138.9647753,36.0765613],[138.9647503,36.0765825],[138.9647089,36.0765826],[138.9646655,36.0765666],[138.9645951,36.076564],[138.9645385,36.0765659]]]},"properties":{"layer":"landuse","class_code":"202","class_label":"畑（畑、樹園地、採草地、養鶏（牛・豚）場）"}},{"type":"Feature","id":"luse_b7ecef1a-fa23-449a-9678-619912ac6c27","geometry":{"type":"Polygon","coordinates":[[[138.9631024043411,36.075],[138.9630912,36.0750203],[138.9629519,36.0751943],[138.962801,36.0753352],[138.9626687,36.0754667],[138.9626296,36.0755429],[138.9626275,36.0755469],[138.9626264,36.0755483],[138.9625837,36.0756016],[138.9625,36.075691208235305],[138.9625,36.07558934813218],[138.9625619,36.0755206],[138.9625697,36.0755141],[138.9626387,36.0754466],[138.9627712,36.0753148],[138.9629208,36.0751752],[138.9630209,36.0750502],[138.9630571,36.075005],[138.9630599206239,36.075],[138.9631024043411,36.075]]]},"properties":{"layer":"landuse","class_code":"204","class_label":"水面（河川水面、湖沼、ため池、用水路、濠、運河水面）"}},{"type":"Feature","id":"luse_9049ce6f-fc51-4571-acd3-f83415ce8f69","geometry":{"type":"Polygon","coordinates":[[[138.9625,36.07583558510638],[138.9625331,36.0758546],[138.9625085,36.0758736],[138.9625,36.075868377108435],[138.9625,36.07583558510638]]]},"properties":{"layer":"landuse","class_code":"204","class_label":"水面（河川水面、湖沼、ため池、用水路、濠、運河水面）"}},{"type":"Feature","id":"luse_8d9df991-2c6c-4514-8e17-8e00385ac8fa","geometry":{"type":"Polygon","coordinates":[[[138.9630599206239,36.075],[138.9630571,36.075005],[138.9630209,36.0750502],[138.9629208,36.0751752],[138.9627712,36.0753148],[138.9626387,36.0754466],[138.9625697,36.0755141],[138.9625619,36.0755206],[138.9625,36.07558934813218],[138.9625,36.075498487096766],[138.9625368,36.0754697],[138.9625946,36.0754251],[138.9626499,36.0753819],[138.962677,36.0753603],[138.9627067,36.0753366],[138.9627636,36.0752955],[138.9628322,36.0752405],[138.9628731,36.0751943],[138.9629311,36.0751329],[138.9629775,36.0750827],[138.963022,36.0750282],[138.96304270685715,36.075],[138.9630599206239,36.075]]]},"properties":{"layer":"landuse","class_code":"205","class_label":"その他自然地（原野・牧野、荒れ地（耕作放棄地等自然的状況のもの）、低湿地、河川敷・河原、海浜、湖岸）"}},{"type":"Feature","id":"luse_65ad2eb4-0097-4ff6-b6e2-50dde93d2f11","geometry":{"type":"Polygon","coordinates":[[[138.9625178,36.0753599],[138.9625,36.075373696539785],[138.9625,36.07509391727317],[138.9625574,36.0751277],[138.9626125,36.0750714],[138.96262859239985,36.075],[138.96291163913043,36.075],[138.9628865,36.0750308],[138.9628425,36.0750784],[138.9627974,36.0751263],[138.9627252,36.0750765],[138.9627108,36.0750903],[138.9627529,36.0751198],[138.9627873,36.0751439],[138.9627476,36.0751817],[138.9626876,36.0752298],[138.9626308,36.0752708],[138.9625726,36.0753172],[138.9625716,36.0753181],[138.9625178,36.0753599]]]},"properties":{"layer":"landuse","class_code":"211","class_label":"住宅用地（住宅、共同住宅、店舗等併用住宅、店舗等併用共同住宅、作業所併用住宅）"}},{"type":"Feature","id":"luse_a0146448-6e83-44e1-90ba-18034dff5b17","geometry":{"type":"Polygon","coordinates":[[[138.9627722,36.0756493],[138.9627772,36.0756691],[138.9627122,36.0758529],[138.962689,36.0758465],[138.9625984,36.0758217],[138.9625883,36.0758182],[138.9625643,36.0758084],[138.9625393,36.0757929],[138.9625234,36.0757801],[138.9625099,36.0757698],[138.9625,36.07576227939916],[138.9625,36.075691208235305],[138.9625837,36.0756016],[138.9626264,36.0755483],[138.9626275,36.0755469],[138.9627722,36.0756493]]]},"properties":{"layer":"landuse","class_code":"211","class_label":"住宅用地（住宅、共同住宅、店舗等併用住宅、店舗等併用共同住宅、作業所併用住宅）"}},{"type":"Feature","id":"luse_58196754-7675-4e9a-b0a4-0a2c67cdd047","geometry":{"type":"Polygon","coordinates":[[[138.9629436,36.0759908],[138.9629063,36.0760772],[138.9628809,36.0760976],[138.9628209,36.0761474],[138.9627375,36.0762505],[138.9627087,36.0762814],[138.962666,36.0762911],[138.9625019,36.0762272],[138.9626416,36.0760512],[138.9626478,36.0759735],[138.9627895,36.0759073],[138.9627965,36.0759114],[138.9628061,36.075917],[138.9628295,36.0759383],[138.9628396,36.0759542],[138.9628692,36.0759421],[138.9628573,36.0759228],[138.962831,36.075899],[138.9628346,36.0758977],[138.962881,36.0759004],[138.962954,36.0759416],[138.9629436,36.0759908]]]},"properties":{"layer":"landuse","class_code":"211","class_label":"住宅用地（住宅、共同住宅、店舗等併用住宅、店舗等併用共同住宅、作業所併用住宅）"}}]}