{"type":"FeatureCollection","properties":{"mesh_code":"54380748","source":"PLATEAU秩父市2025","layer":"landuse"},"features":[{"type":"Feature","id":"luse_298e7529-2db5-402a-a41f-fa8247ef2fe3","geometry":{"type":"Polygon","coordinates":[[[138.9875,36.03647931826085],[138.9874706,36.0365045],[138.9874444,36.0365547],[138.9874431,36.0365581],[138.9874097,36.0366402],[138.9873795,36.0367683],[138.9873783,36.0367734],[138.9873542,36.0368587],[138.9873403,36.0368891],[138.9873099,36.0369229],[138.9872701,36.0369524],[138.9872347,36.0369691],[138.9872003,36.036978],[138.9871651,36.0369831],[138.9871605,36.0369829],[138.9871208,36.0369811],[138.9870371,36.0369724],[138.9867768,36.0369365],[138.9865649,36.0369174],[138.9864237,36.0368972],[138.9862536,36.0368779],[138.9862112,36.0368657],[138.9862087,36.036864],[138.9861898,36.0368511],[138.9861755,36.0368281],[138.9861696,36.0367983],[138.9861658,36.0367695],[138.986168,36.0367465],[138.9861777,36.0367228],[138.9861935,36.0367042],[138.9862106,36.0366924],[138.9862394,36.0366722],[138.9863302,36.0366082],[138.9863731,36.0365669],[138.9864068,36.0365229],[138.9864334,36.0364611],[138.9864496,36.0364043],[138.9864491,36.0363559],[138.9864092,36.0362146],[138.9863818,36.0361627],[138.986345,36.0361175],[138.9862706,36.0360428],[138.9862042,36.0359978],[138.9861229,36.0359646],[138.9861161,36.0359618],[138.9860409,36.035932],[138.9859712,36.0359167],[138.9859143,36.0359086],[138.9858237,36.035905],[138.9858234,36.035905],[138.9857621,36.035908],[138.9856937,36.0359206],[138.9856006,36.035958],[138.9856003,36.0359581],[138.9855428,36.035988],[138.9854936,36.0360183],[138.9854364,36.0360636],[138.9853546,36.0361508],[138.9853034,36.0362141],[138.9852645,36.0362621],[138.9851943,36.0363415],[138.9851406,36.0363884],[138.9850729,36.0364237],[138.9850208,36.0364412],[138.9849803,36.0364495],[138.9849502,36.0364493],[138.9849193,36.0364482],[138.9849189,36.0364482],[138.9848891,36.0364464],[138.9848582,36.0364403],[138.9848579,36.0364402],[138.9848442,36.0364366],[138.984825,36.0364315],[138.984791,36.0364186],[138.9847581,36.0363997],[138.9847273,36.036375],[138.9846987,36.0363433],[138.984667,36.036299],[138.9846164,36.0361925],[138.9845627,36.0360776],[138.9845354,36.0360197],[138.9845253,36.035996],[138.9845265,36.0359892],[138.9845348,36.0359808],[138.9846264,36.0359304],[138.9846413,36.0359152],[138.9846498,36.0358999],[138.9846552,36.0358838],[138.9846563,36.0358652],[138.9847342,36.0358061],[138.9848399,36.035807],[138.9848952,36.0358489],[138.9849974,36.0359093],[138.9850922,36.0359636],[138.9852847,36.0359538],[138.9854331,36.0358876],[138.9855566,36.0358398],[138.9857374,36.0357522],[138.9858072,36.0356991],[138.9858287,36.0356468],[138.9857992,36.0355352],[138.9857495,36.0354385],[138.9856213,36.0352162],[138.9854753,36.0351436],[138.9852796,36.0351329],[138.9851379,36.0351262],[138.9849888,36.0351149],[138.9848842,36.0350557],[138.9848438,36.0349923],[138.9848405,36.0348718],[138.9848119,36.0348342],[138.98474,36.0348067],[138.9846475,36.0348061],[138.9845372,36.0348525],[138.9844657,36.0349216],[138.9844086,36.035112],[138.984363,36.0352607],[138.9843218,36.0353349],[138.9842736,36.0354303],[138.9842663,36.0354152],[138.9842165,36.0353232],[138.9841905,36.0352919],[138.9841381,36.035246],[138.9840689,36.035208],[138.9840411,36.0351966],[138.9840014,36.0351801],[138.9839423,36.0351651],[138.9839228,36.0351602],[138.983917,36.0351591],[138.9839134,36.0351585],[138.9839236,36.0350934],[138.9839315,36.0349478],[138.9839463,36.0347493],[138.9839501,36.0346223],[138.9839487,36.0345169],[138.9839512,36.0344809],[138.9839535,36.0344672],[138.9839578,36.0344562],[138.9839675,36.0344434],[138.9839728,36.0344383],[138.983977,36.0344375],[138.9839838,36.0344347],[138.9839876,36.0344328],[138.9841445,36.0343868],[138.9843031,36.0343357],[138.9844415,36.0342939],[138.9845113,36.0342721],[138.9845954,36.0342367],[138.9848784,36.034213],[138.985038,36.0341731],[138.9851079,36.0341453],[138.985165,36.0341192],[138.9853902,36.033994],[138.9856274,36.0338793],[138.9856953,36.0338588],[138.9857449,36.033845],[138.985809,36.0338429],[138.9859112,36.0338427],[138.9860142,36.0338554],[138.9860679,36.0338558],[138.9861282,36.0338434],[138.9862058,36.0338242],[138.9862685,36.0337665],[138.9863711,36.0336533],[138.9864108,36.0336197],[138.9864448,36.0335991],[138.986494,36.0335719],[138.986648,36.0335255],[138.9868418,36.0334794],[138.9870839,36.0334391],[138.9874936,36.033454],[138.9875,36.03345403568773],[138.9875,36.03647931826085]]]},"properties":{"layer":"landuse","class_code":"203","class_label":"山林（樹林地）"}},{"type":"Feature","id":"luse_78bccf0c-c4fc-43e4-abb5-6ab0bba5d003","geometry":{"type":"Polygon","coordinates":[[[138.9871778,36.0377309],[138.9870523,36.0377814],[138.9868943,36.0378252],[138.986894,36.0378253],[138.9867588,36.0378571],[138.9866576,36.0378746],[138.9865546,36.0378835],[138.9865542,36.0378835],[138.9864419,36.0378838],[138.9862761,36.0378761],[138.9861018,36.0378629],[138.9859155,36.037836],[138.9858171,36.0378199],[138.9857614,36.0378108],[138.9856907,36.0377993],[138.9856903,36.0377992],[138.9855338,36.0377687],[138.9854101,36.0377371],[138.9854049,36.0377358],[138.9854046,36.0377357],[138.9852367,36.0376928],[138.9852163,36.0376888],[138.9852159,36.0376887],[138.9851724,36.0376829],[138.9851498,36.0376777],[138.9851346,36.0376716],[138.9851258,36.0376632],[138.9851148,36.0376373],[138.985102,36.0375526],[138.9850614,36.037434],[138.9850236,36.0373431],[138.9849623,36.0372312],[138.9849298,36.0371752],[138.9848971,36.0371223],[138.9848617,36.0370895],[138.9847957,36.0370581],[138.9847327,36.0370448],[138.9846548,36.0370337],[138.9845808,36.0370225],[138.9845803,36.0370224],[138.9844866,36.0370082],[138.984427,36.0369883],[138.9843911,36.0369636],[138.9843901,36.0369629],[138.9843845,36.036959],[138.9843359,36.0368999],[138.9843285,36.0368908],[138.9842549,36.0367548],[138.9841959,36.0366324],[138.9841522,36.036528],[138.9840237,36.0362863],[138.9839964,36.0362349],[138.983957,36.0361795],[138.9839352,36.0361621],[138.9839137,36.0361448],[138.9839026,36.0361398],[138.9838958,36.0361367],[138.9838955,36.0361367],[138.9838752,36.0361321],[138.9838542,36.0361273],[138.9837862,36.0361225],[138.9837508,36.036124],[138.9837503,36.0361187],[138.9837407,36.0359866],[138.9837251,36.0358277],[138.9839319,36.0359482],[138.9843311,36.0359672],[138.9843794,36.0358376],[138.9843796,36.035838],[138.9844577,36.0360438],[138.984485,36.0361016],[138.9845387,36.0362167],[138.9845918,36.0363283],[138.9846289,36.0363804],[138.984664,36.0364192],[138.9847043,36.0364517],[138.9847491,36.0364773],[138.9847945,36.0364946],[138.9848241,36.0365024],[138.9848352,36.0365053],[138.9848356,36.0365054],[138.9848759,36.0365134],[138.984914,36.0365157],[138.9849143,36.0365157],[138.9849483,36.0365168],[138.9849902,36.0365171],[138.985047,36.0365056],[138.9851117,36.0364839],[138.9851945,36.0364407],[138.9852589,36.0363844],[138.9853332,36.0363004],[138.9854226,36.0361898],[138.985499,36.0361085],[138.985548,36.0360697],[138.9855882,36.0360449],[138.9856446,36.0360175],[138.9857134,36.0359909],[138.9857746,36.0359796],[138.985824,36.0359773],[138.9859045,36.0359805],[138.985952,36.0359871],[138.9860094,36.0359998],[138.9860765,36.0360265],[138.9861592,36.03606],[138.986214,36.0360904],[138.9862801,36.0361523],[138.9863131,36.0361928],[138.9863349,36.0362343],[138.9863714,36.0363633],[138.9863719,36.0363973],[138.9863587,36.0364436],[138.9863363,36.0364955],[138.9863102,36.0365296],[138.9862748,36.0365638],[138.9862345,36.036592],[138.9861887,36.0366244],[138.9861352,36.0366617],[138.9861073,36.0366945],[138.9860914,36.036734],[138.9860878,36.0367702],[138.9860926,36.0368067],[138.9861006,36.0368478],[138.9861277,36.0368912],[138.9861723,36.0369215],[138.986196,36.0369283],[138.9862351,36.0369394],[138.986409,36.0369545],[138.9864261,36.0369589],[138.9864264,36.0369589],[138.986435,36.036966],[138.9864504,36.037013],[138.98646,36.0370481],[138.9864837,36.0370716],[138.9865289,36.0370887],[138.9866567,36.0371303],[138.9866934,36.0371399],[138.986809,36.0371703],[138.9868507,36.0371807],[138.9868922,36.037191],[138.9868926,36.0371911],[138.9869425,36.0371984],[138.9869872,36.037205],[138.9871021,36.0372125],[138.9872002,36.0372155],[138.9872006,36.0372155],[138.9873664,36.0372226],[138.9873667,36.0372226],[138.9874986,36.0372251],[138.987499,36.0372251],[138.9875,36.03722511890359],[138.9875,36.03756985991379],[138.9873954,36.0376039],[138.9873712,36.0376086],[138.9873402,36.0376108],[138.9873398,36.0376108],[138.9873114,36.0376138],[138.9872328,36.0376222],[138.9871892,36.03763],[138.9871645,36.0376345],[138.9870275,36.0376763],[138.9870272,36.0376764],[138.9869176,36.0376884],[138.9867892,36.0376987],[138.9867023,36.0376953],[138.986609,36.0376853],[138.9865418,36.0376721],[138.9864394,36.0376394],[138.9862772,36.0375782],[138.9861339,36.0375336],[138.9859315,36.0374695],[138.9858369,36.0374367],[138.985708,36.0373905],[138.9856645,36.0373701],[138.9854924,36.0372796],[138.9853606,36.0371863],[138.9853003,36.0371235],[138.985243,36.0370678],[138.9852392,36.0370615],[138.9852254,36.0370322],[138.9852251,36.0370323],[138.9852046,36.0370386],[138.9852197,36.0370706],[138.9852243,36.0370769],[138.9852829,36.0371346],[138.9853443,36.0371988],[138.9854791,36.037294],[138.9856529,36.0373856],[138.985698,36.0374067],[138.9858281,36.0374532],[138.9859226,36.0374861],[138.986126,36.0375504],[138.9862683,36.0375947],[138.9862687,36.0375948],[138.9864307,36.037656],[138.9865352,36.0376894],[138.9866051,36.037703],[138.9867003,36.0377132],[138.9867915,36.0377166],[138.9869202,36.0377062],[138.9870306,36.0376941],[138.9871667,36.0376531],[138.9871709,36.0376519],[138.9872366,36.03764],[138.9872677,36.0376366],[138.9872934,36.037634],[138.987301,36.0376377],[138.9873042,36.0376431],[138.9873042,36.0376489],[138.9873031,36.0376561],[138.9872956,36.0376661],[138.9871778,36.0377309]]]},"properties":{"layer":"landuse","class_code":"203","class_label":"山林（樹林地）"}},{"type":"Feature","id":"luse_8d8ae654-3b52-4f6e-a351-12b249cb2c36","geometry":{"type":"Polygon","coordinates":[[[138.975,36.041666666666664],[138.975,36.04003969352051],[138.9750058,36.0400311],[138.9751616,36.039849],[138.9751904,36.0398115],[138.9752083,36.0397679],[138.9752826,36.0396388],[138.9753163,36.0395936],[138.9753682,36.0395631],[138.975418,36.039543],[138.9754771,36.0395314],[138.97552,36.0395221],[138.9755837,36.0395131],[138.9757749,36.0394837],[138.9758539,36.039467],[138.9759265,36.0394573],[138.9759717,36.0394619],[138.9760158,36.039475],[138.9760578,36.0394899],[138.9761071,36.0395125],[138.9761416,36.0395316],[138.976338,36.0396375],[138.9764082,36.0396697],[138.9764555,36.0396829],[138.9765062,36.0396942],[138.9765502,36.0397034],[138.9765836,36.0397037],[138.9766144,36.0396992],[138.9766755,36.0396905],[138.9768022,36.0396777],[138.9768084,36.0396761],[138.9768824,36.0396577],[138.9771631,36.0396391],[138.9772913,36.0396206],[138.9774371,36.0395955],[138.9775689,36.0395793],[138.9776163,36.0395651],[138.9776566,36.0395527],[138.9777683,36.0394967],[138.9778563,36.0394495],[138.9779367,36.0393884],[138.9780451,36.0393034],[138.9780533,36.039297],[138.978114,36.0392443],[138.9781459,36.0392145],[138.9781819,36.0391941],[138.9782147,36.039172],[138.9782791,36.0391286],[138.9783294,36.0390994],[138.9784252,36.0390256],[138.978525,36.0389633],[138.9787206,36.0388449],[138.9788028,36.0387939],[138.9789389,36.038711],[138.9791284,36.0386164],[138.979168,36.0385911],[138.9792332,36.0385548],[138.9794283,36.0384825],[138.9795519,36.0384518],[138.9800191,36.0383558],[138.9802674,36.0383302],[138.9804479,36.0383128],[138.9806168,36.0382941],[138.9807806,36.0382647],[138.9809326,36.0382358],[138.9810016,36.0382186],[138.9810658,36.0381981],[138.9811471,36.0381842],[138.9811971,36.0381841],[138.9813849,36.0381893],[138.9817136,36.0381804],[138.9818701,36.0381825],[138.9819345,36.0381692],[138.9819986,36.0381474],[138.9820638,36.0381226],[138.9821147,36.0380935],[138.9821946,36.0380485],[138.9822803,36.0379987],[138.98243,36.037885],[138.9826091,36.0377626],[138.9827292,36.0377231],[138.9827872,36.0377167],[138.9828535,36.0377206],[138.9829155,36.037733],[138.9830901,36.0378113],[138.983213,36.0378481],[138.9832358,36.0378423],[138.9832801,36.0378307],[138.9833139,36.0378095],[138.9835218,36.0376363],[138.9835912,36.0375452],[138.9836,36.0375194],[138.9836179,36.0374666],[138.9836397,36.0374042],[138.9836515,36.0372784],[138.9837139,36.0370134],[138.9837223,36.0369478],[138.9837384,36.0368372],[138.9837796,36.0365848],[138.9837712,36.0363365],[138.9837559,36.036178],[138.9837852,36.0361767],[138.9838125,36.0361788],[138.9838349,36.0361805],[138.9838392,36.0361808],[138.9838446,36.0361813],[138.983884,36.0362056],[138.9839115,36.0362274],[138.9839378,36.036262],[138.9839723,36.0363154],[138.9841175,36.0366184],[138.9841934,36.0367755],[138.98427,36.0369169],[138.9843343,36.0369954],[138.9843927,36.0370413],[138.9844622,36.0370632],[138.9846395,36.0371046],[138.9846609,36.0371077],[138.9847137,36.0371152],[138.9847141,36.0371153],[138.9847635,36.0371257],[138.9848141,36.0371473],[138.9848471,36.0371688],[138.9848871,36.0372041],[138.9849314,36.0372518],[138.9849878,36.037355],[138.9850235,36.0374435],[138.9850471,36.0375589],[138.9850591,36.0376388],[138.9850558,36.0376853],[138.9850308,36.0377299],[138.985015,36.0377447],[138.984971,36.0377647],[138.9848649,36.0377925],[138.984633,36.0378427],[138.9846327,36.0378428],[138.9845977,36.0378538],[138.9845054,36.0378827],[138.9844636,36.0379108],[138.984439,36.0379401],[138.9844284,36.0379762],[138.9844235,36.0380255],[138.9844255,36.0380747],[138.9844387,36.0381262],[138.9844645,36.0382004],[138.984179,36.0381903],[138.9838915,36.0382781],[138.9837936,36.038297],[138.9837537,36.0383071],[138.9837138,36.0383333],[138.9836805,36.0383779],[138.9836598,36.0384325],[138.9836731,36.038522],[138.9837345,36.0386264],[138.9837707,36.0386722],[138.9839069,36.0388203],[138.9840517,36.0389769],[138.9842702,36.0391099],[138.9844622,36.0392141],[138.984571,36.0392601],[138.9846694,36.039307],[138.9847618,36.039356],[138.9848239,36.0394159],[138.9848953,36.0394401],[138.9849651,36.0394678],[138.9850126,36.0394948],[138.9851955,36.0396024],[138.9853354,36.0396784],[138.9854155,36.0397377],[138.9855629,36.0397815],[138.9856479,36.0398074],[138.9857095,36.0398138],[138.9857771,36.0398054],[138.9857714,36.0397266],[138.9857555,36.0396602],[138.9857764,36.0396058],[138.985794,36.0395936],[138.9858125,36.0395692],[138.985811,36.039546],[138.9858044,36.0394779],[138.9858248,36.0394207],[138.9858448,36.0393156],[138.9858558,36.0392129],[138.9858106,36.0391406],[138.9857,36.03903],[138.9856904,36.0388958],[138.9858261,36.0389086],[138.9858489,36.0389662],[138.9859378,36.0389821],[138.9861216,36.0387668],[138.9863114,36.0385546],[138.9863452,36.0384812],[138.9863568,36.0384298],[138.9863408,36.0384031],[138.9862937,36.0383942],[138.9861806,36.0383903],[138.9859816,36.0383682],[138.9858569,36.0383145],[138.9856796,36.0382028],[138.9855841,36.0381645],[138.9855058,36.0381512],[138.9853242,36.0381428],[138.98517,36.038143],[138.9850383,36.038149],[138.9849183,36.0381637],[138.9848469,36.0381724],[138.9847416,36.0381843],[138.984696,36.0381691],[138.9846648,36.0381376],[138.9846034,36.0381122],[138.9845506,36.0381204],[138.9845526,36.0381064],[138.9845447,36.0380873],[138.9845208,36.0380481],[138.984505,36.0380192],[138.9844859,36.0379766],[138.9844887,36.0379532],[138.984503,36.0379349],[138.9845352,36.0379069],[138.9845966,36.0378857],[138.9846307,36.037888],[138.9846417,36.0378875],[138.9848805,36.0378358],[138.9849933,36.0378062],[138.9850507,36.0377801],[138.985078,36.0377544],[138.9851299,36.0377325],[138.9851647,36.0377212],[138.9851953,36.0377139],[138.9851957,36.0377139],[138.9852246,36.0377127],[138.985225,36.0377127],[138.9853982,36.037753],[138.985528,36.037786],[138.9856858,36.0378169],[138.9859113,36.0378536],[138.9860986,36.0378808],[138.986099,36.0378809],[138.9862744,36.037894],[138.9864411,36.0379018],[138.9864414,36.0379018],[138.9865555,36.0379015],[138.9865558,36.0379015],[138.9866611,36.0378925],[138.9867642,36.0378746],[138.9869009,36.0378424],[138.9870609,36.0377981],[138.9871893,36.0377464],[138.9873375,36.037661],[138.9873922,36.0376893],[138.987417,36.0377082],[138.9874391,36.0377409],[138.9874472,36.0377714],[138.9874495,36.0377989],[138.9874481,36.0378357],[138.9874392,36.0378821],[138.9874255,36.0379196],[138.9873949,36.03797],[138.9873393,36.038031],[138.9873572,36.0380417],[138.9874139,36.0379794],[138.9874462,36.0379262],[138.987461,36.0378861],[138.9874705,36.0378374],[138.9874719,36.0377985],[138.9874693,36.0377689],[138.98746,36.0377346],[138.9874349,36.037697],[138.9874057,36.037675],[138.9873571,36.0376498],[138.9874027,36.037621],[138.9875,36.0375893289886],[138.9875,36.03855639873126],[138.9874258,36.0384721],[138.9873962,36.0384295],[138.9873749,36.0383869],[138.9873559,36.0383265],[138.9873502,36.0382831],[138.9873484,36.0382665],[138.9873477,36.0382597],[138.9873456,36.0382389],[138.9873375,36.0382109],[138.9873182,36.0381819],[138.9872903,36.0381613],[138.98729,36.0381612],[138.9872531,36.0381441],[138.987218,36.0381338],[138.9872033,36.0381324],[138.9871879,36.038131],[138.9871507,36.0381308],[138.9871227,36.038134],[138.9870394,36.038153],[138.9869802,36.03818],[138.9869429,36.0382071],[138.9869038,36.038239],[138.9868696,36.0382646],[138.9868397,36.0382948],[138.9868241,36.0383259],[138.9868222,36.0383645],[138.986833,36.0384117],[138.9868747,36.0384642],[138.9869328,36.0385248],[138.9869742,36.0385915],[138.9869954,36.0386441],[138.987036,36.0387769],[138.9870539,36.038853],[138.9870936,36.0389726],[138.9871063,36.0390338],[138.9871064,36.0391179],[138.9871135,36.0391825],[138.9871254,36.0392236],[138.9871634,36.0392769],[138.9872091,36.0393219],[138.9872208,36.0393303],[138.9872302,36.0393371],[138.9872575,36.0393564],[138.987276,36.0393675],[138.987335,36.039403],[138.987467,36.0394717],[138.9875,36.039486400211125],[138.9875,36.041666666666664],[138.975,36.041666666666664]]]},"properties":{"layer":"landuse","class_code":"203","class_label":"山林（樹林地）"}},{"type":"Feature","id":"luse_2e809159-ae22-493a-bfdc-03abfe658d7f","geometry":{"type":"Polygon","coordinates":[[[138.9875,36.03943493639627],[138.9874952,36.0394328],[138.9873665,36.0393659],[138.9872924,36.0393213],[138.9872492,36.0392904],[138.9872092,36.0392511],[138.9871775,36.0392068],[138.9871685,36.0391753],[138.9871668,36.0391592],[138.9871619,36.0391159],[138.9871619,36.0390301],[138.987148,36.0389629],[138.9871215,36.0388836],[138.9871079,36.0388429],[138.9870901,36.0387672],[138.9870655,36.0386864],[138.9870492,36.0386328],[138.98703,36.0385758],[138.9869891,36.0385035],[138.9869421,36.0384344],[138.9869276,36.0384122],[138.9869126,36.0383892],[138.9869105,36.03838],[138.9869056,36.0383586],[138.9869059,36.0383331],[138.9869113,36.0383102],[138.986923,36.0382865],[138.9869419,36.0382654],[138.9869784,36.0382357],[138.9870099,36.0382173],[138.9870606,36.0381951],[138.9871054,36.0381937],[138.9871455,36.0381981],[138.9871725,36.0382038],[138.9871728,36.0382039],[138.9871929,36.0382101],[138.9871932,36.0382103],[138.9872109,36.038218],[138.9872397,36.0382302],[138.987256,36.0382405],[138.9872762,36.0382593],[138.9872948,36.0382875],[138.9873011,36.0383345],[138.98731,36.0383628],[138.9873222,36.038401],[138.9873462,36.0384491],[138.9873788,36.0384964],[138.9874673,36.0385968],[138.9875,36.03863213333336],[138.9875,36.037168952236236],[138.9873657,36.0371775],[138.9872009,36.0371793],[138.9871047,36.0371766],[138.986993,36.0371691],[138.986903,36.037156],[138.9869027,36.0371559],[138.9868498,36.0371428],[138.9868223,36.0371359],[138.9866703,36.037096],[138.9865487,36.0370563],[138.9865168,36.0370408],[138.9865085,36.0370314],[138.9865076,36.0370203],[138.9865284,36.0369941],[138.9865475,36.0369824],[138.9865649,36.0369809],[138.9867667,36.036999],[138.9870328,36.0370326],[138.987115,36.0370429],[138.9871153,36.0370429],[138.9871718,36.0370465],[138.9871722,36.0370465],[138.9872219,36.037045],[138.9872703,36.0370305],[138.9873196,36.0370071],[138.9873722,36.0369683],[138.9874145,36.0369214],[138.9874246,36.0368989],[138.9874341,36.036878],[138.9874599,36.0367861],[138.987461,36.0367816],[138.9874904,36.0366573],[138.9875,36.03663365960912],[138.9875,36.03943493639627]]]},"properties":{"layer":"landuse","class_code":"203","class_label":"山林（樹林地）"}},{"type":"Feature","id":"luse_7608efab-e87d-4cb1-b711-695a93c31c31","geometry":{"type":"Polygon","coordinates":[[[138.9858106,36.0391406],[138.9857663,36.0391656],[138.9857402,36.0391732],[138.985725,36.0391588],[138.9856449,36.0391159],[138.9856335,36.0390959],[138.9855621,36.0390716],[138.9855151,36.0390727],[138.9855129,36.039071],[138.9855126,36.0390709],[138.9854467,36.039036],[138.9853997,36.0390139],[138.9853897,36.0390093],[138.9853892,36.039009],[138.9853453,36.038989],[138.9852801,36.0389557],[138.9852262,36.0389183],[138.9851852,36.0388758],[138.9851571,36.0388466],[138.9850759,36.0387601],[138.9850134,36.0387103],[138.9849562,36.038676],[138.9849382,36.0386652],[138.9848841,36.0386324],[138.9847957,36.0385626],[138.9847882,36.0385561],[138.9847055,36.0384847],[138.9846625,36.038449],[138.9846378,36.0384243],[138.9846189,36.0384053],[138.9845921,36.0383744],[138.9845514,36.038293],[138.9845233,36.038204],[138.9845235,36.0381913],[138.9845271,36.0381755],[138.9845498,36.0381263],[138.9845506,36.0381204],[138.9846034,36.0381122],[138.9846648,36.0381376],[138.984696,36.0381691],[138.9847416,36.0381843],[138.9848469,36.0381724],[138.9849183,36.0381637],[138.9850383,36.038149],[138.98517,36.038143],[138.9853242,36.0381428],[138.9855058,36.0381512],[138.9855841,36.0381645],[138.9856796,36.0382028],[138.9858569,36.0383145],[138.9859816,36.0383682],[138.9861806,36.0383903],[138.9862937,36.0383942],[138.9863408,36.0384031],[138.9863568,36.0384298],[138.9863452,36.0384812],[138.9863114,36.0385546],[138.9861216,36.0387668],[138.9859378,36.0389821],[138.9858489,36.0389662],[138.9858261,36.0389086],[138.9856904,36.0388958],[138.9857,36.03903],[138.9858106,36.0391406]]]},"properties":{"layer":"landuse","class_code":"205","class_label":"その他自然地（原野・牧野、荒れ地（耕作放棄地等自然的状況のもの）、低湿地、河川敷・河原、海浜、湖岸）"}},{"type":"Feature","id":"luse_38eac41f-213e-48e8-b26f-b8b51a341e04","geometry":{"type":"Polygon","coordinates":[[[138.9855566,36.0358398],[138.9854331,36.0358876],[138.9852847,36.0359538],[138.9850922,36.0359636],[138.9849974,36.0359093],[138.9848952,36.0358489],[138.9848399,36.035807],[138.9847342,36.0358061],[138.9846563,36.0358652],[138.984656,36.0358652],[138.9845873,36.0358632],[138.9845861,36.0358739],[138.9845836,36.0358798],[138.9845815,36.0358839],[138.9845767,36.0358869],[138.9845099,36.03592],[138.9845096,36.03592],[138.9844989,36.0359206],[138.9844919,36.0359166],[138.9844569,36.0358249],[138.984402,36.0357039],[138.9843777,36.0356514],[138.984316,36.0355183],[138.9842736,36.0354303],[138.9843218,36.0353349],[138.984363,36.0352607],[138.9844086,36.035112],[138.9844657,36.0349216],[138.9845372,36.0348525],[138.9846475,36.0348061],[138.98474,36.0348067],[138.9848119,36.0348342],[138.9848405,36.0348718],[138.9848438,36.0349923],[138.9848842,36.0350557],[138.9849888,36.0351149],[138.9851379,36.0351262],[138.9852796,36.0351329],[138.9854753,36.0351436],[138.9856213,36.0352162],[138.9857495,36.0354385],[138.9857992,36.0355352],[138.9858287,36.0356468],[138.9858072,36.0356991],[138.9857374,36.0357522],[138.9855566,36.0358398]]]},"properties":{"layer":"landuse","class_code":"214","class_label":"公益施設用地（官公庁施設、文教厚生施設、供給処理施設）"}},{"type":"Feature","id":"luse_df1b4cee-dda4-4b15-85ec-d4160e778fc4","geometry":{"type":"Polygon","coordinates":[[[138.9843794,36.0358376],[138.9843311,36.0359672],[138.9839319,36.0359482],[138.9837251,36.0358277],[138.9837258,36.0357608],[138.9837252,36.0357128],[138.9837374,36.0356641],[138.9837861,36.0354837],[138.9838556,36.035328],[138.983899,36.0352251],[138.9839016,36.0352256],[138.9839019,36.0352257],[138.9839697,36.0352429],[138.9840046,36.0352556],[138.9840308,36.0352651],[138.9840855,36.0352978],[138.9841167,36.0353291],[138.984145,36.0353603],[138.9841752,36.0354155],[138.9841894,36.0354411],[138.9842382,36.0355425],[138.984324,36.035728],[138.9843794,36.0358376]]]},"properties":{"layer":"landuse","class_code":"214","class_label":"公益施設用地（官公庁施設、文教厚生施設、供給処理施設）"}},{"type":"Feature","id":"luse_682122a2-e387-4e21-82e7-b63416f8207d","geometry":{"type":"Polygon","coordinates":[[[138.9858248,36.0394207],[138.9858044,36.0394779],[138.985811,36.039546],[138.9858125,36.0395692],[138.985794,36.0395936],[138.9857764,36.0396058],[138.9857555,36.0396602],[138.9857714,36.0397266],[138.9857771,36.0398054],[138.9857095,36.0398138],[138.9856479,36.0398074],[138.9855629,36.0397815],[138.9854155,36.0397377],[138.9853354,36.0396784],[138.9851955,36.0396024],[138.9850126,36.0394948],[138.9849651,36.0394678],[138.9848953,36.0394401],[138.9848239,36.0394159],[138.9847618,36.039356],[138.9846694,36.039307],[138.984571,36.0392601],[138.9844622,36.0392141],[138.9842702,36.0391099],[138.9840517,36.0389769],[138.9839069,36.0388203],[138.9837707,36.0386722],[138.9837345,36.0386264],[138.9836731,36.038522],[138.9836598,36.0384325],[138.9836805,36.0383779],[138.9837138,36.0383333],[138.9837537,36.0383071],[138.9837936,36.038297],[138.9838915,36.0382781],[138.984179,36.0381903],[138.9844645,36.0382004],[138.9844666,36.0382066],[138.9844985,36.0383072],[138.9845407,36.0383914],[138.9845745,36.0384324],[138.984621,36.038479],[138.9846654,36.0385159],[138.9847561,36.0385942],[138.9848481,36.0386667],[138.9848594,36.0386736],[138.9849232,36.0387122],[138.9849774,36.0387447],[138.9850341,36.03879],[138.9851132,36.0388741],[138.985186,36.0389497],[138.9852469,36.038992],[138.9853166,36.0390278],[138.9853177,36.0390283],[138.9853723,36.0390531],[138.9854177,36.0390743],[138.9854824,36.0391087],[138.985554,36.0391627],[138.9855933,36.0392017],[138.9856022,36.0392207],[138.9856029,36.0392404],[138.9855993,36.0392553],[138.9855908,36.0392655],[138.9855726,36.0392769],[138.9855442,36.0392889],[138.9855274,36.0392939],[138.985515,36.0392976],[138.9854824,36.0393],[138.9854493,36.0392991],[138.985449,36.039299],[138.9854177,36.0392921],[138.9854073,36.0392883],[138.9853632,36.0392721],[138.9853089,36.0392399],[138.9852813,36.0392147],[138.985236,36.0391735],[138.9851436,36.0391105],[138.9850242,36.039037],[138.9849079,36.0389847],[138.9848026,36.0389229],[138.9847225,36.0388925],[138.9846464,36.0388683],[138.984602,36.0388489],[138.9845774,36.0388382],[138.984495,36.0387928],[138.9844143,36.0387407],[138.9843383,36.0386932],[138.9842889,36.0386569],[138.9842824,36.0386523],[138.9842551,36.0386329],[138.9842294,36.0386128],[138.9841727,36.0385806],[138.9840921,36.0385406],[138.9840728,36.0385737],[138.9841519,36.0386122],[138.9841967,36.0386367],[138.9842235,36.0386584],[138.9842593,36.0386838],[138.9843096,36.0387209],[138.9843608,36.0387561],[138.9843663,36.0387654],[138.9843756,36.0387857],[138.984387,36.0387967],[138.9844556,36.0388365],[138.9844981,36.0388523],[138.9844984,36.0388524],[138.9845626,36.0388669],[138.9845878,36.0388745],[138.9846354,36.0388941],[138.9846474,36.0388988],[138.9846638,36.0389051],[138.9847084,36.0389222],[138.98478,36.0389541],[138.9848542,36.0389976],[138.9848841,36.0390151],[138.9849999,36.0390673],[138.985116,36.0391386],[138.9851419,36.0391564],[138.9852048,36.0391994],[138.9852789,36.0392667],[138.9853407,36.0393034],[138.985379,36.0393175],[138.9854026,36.0393262],[138.9854162,36.0393292],[138.9854423,36.039335],[138.9854821,36.0393362],[138.9855248,36.0393331],[138.9855621,36.039322],[138.9855966,36.0393074],[138.9856238,36.0392905],[138.9856413,36.0392693],[138.9856474,36.0392433],[138.9856465,36.0392137],[138.9856322,36.0391833],[138.9855918,36.0391346],[138.9855151,36.0390727],[138.9855621,36.0390716],[138.9856335,36.0390959],[138.9856449,36.0391159],[138.985725,36.0391588],[138.9857402,36.0391732],[138.9857663,36.0391656],[138.9858106,36.0391406],[138.9858558,36.0392129],[138.9858448,36.0393156],[138.9858248,36.0394207]]]},"properties":{"layer":"landuse","class_code":"214","class_label":"公益施設用地（官公庁施設、文教厚生施設、供給処理施設）"}}]}