{"type":"FeatureCollection","properties":{"mesh_code":"54380757","source":"PLATEAU秩父市2025","layer":"landuse"},"features":[{"type":"Feature","id":"luse_b2503c3f-b41c-4b87-857b-c7e85248c28d","geometry":{"type":"Polygon","coordinates":[[[138.975,36.04316766212678],[138.9746797,36.0432285],[138.9747584,36.0430049],[138.9747895,36.0428477],[138.9748382,36.0426653],[138.9748621,36.0426708],[138.974931,36.0426758],[138.9749316,36.0426758],[138.975,36.04269296705883],[138.975,36.04316766212678]]]},"properties":{"layer":"landuse","class_code":"202","class_label":"畑（畑、樹園地、採草地、養鶏（牛・豚）場）"}},{"type":"Feature","id":"luse_1c3cab38-bef8-4a8a-97e1-0cdb9e2db78e","geometry":{"type":"Polygon","coordinates":[[[138.9716931,36.0437934],[138.9716821,36.0438332],[138.9716799,36.0438688],[138.9716809,36.0438999],[138.9716795,36.0439103],[138.9716746,36.0439172],[138.9716008,36.0438726],[138.9715706,36.0438544],[138.9714672,36.0437957],[138.9714346,36.0437799],[138.9714029,36.0437693],[138.9713777,36.043764],[138.9713773,36.043764],[138.971356,36.0437611],[138.9713546,36.043761],[138.9713438,36.0437595],[138.9713258,36.0437563],[138.9713013,36.0437636],[138.9712225,36.0437672],[138.9712036,36.0437721],[138.9712072,36.0437396],[138.9712476,36.0437189],[138.9712908,36.0437127],[138.9713548,36.0437407],[138.9714365,36.0437629],[138.971548,36.0437254],[138.9717113,36.0436794],[138.9717228,36.0436773],[138.9717118,36.0437214],[138.9716931,36.0437934]]]},"properties":{"layer":"landuse","class_code":"202","class_label":"畑（畑、樹園地、採草地、養鶏（牛・豚）場）"}},{"type":"Feature","id":"luse_30c6f016-e3cb-4a32-a2f5-f1c1bdfbda55","geometry":{"type":"Polygon","coordinates":[[[138.9726555,36.0439498],[138.9726881,36.04402],[138.9727207,36.0440899],[138.9727458,36.0441674],[138.9727573,36.0442339],[138.9728026,36.0443596],[138.9728124,36.0443947],[138.9728138,36.0444085],[138.9728123,36.0444172],[138.9728078,36.0444251],[138.9728025,36.0444292],[138.972795,36.044436],[138.9727578,36.0444515],[138.9727319,36.0444587],[138.9726989,36.0444626],[138.972695,36.0444621],[138.9726766,36.0444594],[138.9726694,36.0444583],[138.9726419,36.0444459],[138.9726211,36.0444266],[138.9725986,36.0443916],[138.9725846,36.0443748],[138.972555,36.0443395],[138.972519,36.0443141],[138.9724652,36.0442889],[138.9724608,36.0442871],[138.9723573,36.044247],[138.9723058,36.0442306],[138.9722396,36.0442097],[138.9721775,36.0441831],[138.9720941,36.0441473],[138.971972,36.0440861],[138.9719048,36.0440485],[138.9719032,36.0440476],[138.9718656,36.0440265],[138.9717371,36.043953],[138.97171,36.0439272],[138.9717077,36.0439168],[138.9717132,36.0438693],[138.9717154,36.0438371],[138.971833,36.0438882],[138.9719679,36.0437968],[138.9720102,36.0437556],[138.971917,36.0436413],[138.9717572,36.0436709],[138.9717533,36.0436494],[138.9717508,36.0436442],[138.9717443,36.0436302],[138.9717379,36.043619],[138.9720309,36.043563],[138.9719633,36.0433555],[138.9719748,36.0432477],[138.9720113,36.0431503],[138.9720924,36.0431122],[138.9720965,36.0431106],[138.9720618,36.0431304],[138.9720291,36.0431584],[138.9720113,36.0431999],[138.971997,36.0433256],[138.9720027,36.0433589],[138.9720141,36.043386],[138.9720314,36.0434072],[138.9720532,36.0434252],[138.9720718,36.0434353],[138.9720874,36.0434417],[138.9721644,36.0434638],[138.9722258,36.0434805],[138.9722807,36.0435016],[138.9723101,36.0435148],[138.9723354,36.0435313],[138.9723764,36.0435671],[138.972432,36.0436221],[138.9724612,36.0436532],[138.9724739,36.0436666],[138.9724955,36.043691],[138.9725148,36.0437128],[138.9725368,36.0437424],[138.9725929,36.0438366],[138.9726555,36.0439498]]]},"properties":{"layer":"landuse","class_code":"202","class_label":"畑（畑、樹園地、採草地、養鶏（牛・豚）場）"}},{"type":"Feature","id":"luse_8b089deb-ab95-405b-a0f2-8c64adae5b04","geometry":{"type":"Polygon","coordinates":[[[138.9712364,36.0441042],[138.9712808,36.0441602],[138.9713349,36.0442141],[138.9713949,36.0442903],[138.97141,36.0443119],[138.9714221,36.0443295],[138.9714357,36.0443669],[138.9714412,36.0444045],[138.9714309,36.0444355],[138.9714126,36.0444632],[138.9713838,36.0444882],[138.9713517,36.0444984],[138.9713453,36.0444988],[138.9713244,36.0445001],[138.971281,36.0444982],[138.9712471,36.0444893],[138.9712137,36.0444711],[138.9711736,36.0444491],[138.9710293,36.0443739],[138.970929,36.044314],[138.9708479,36.044262],[138.9707794,36.0442186],[138.9707117,36.0441758],[138.9706286,36.0441182],[138.9706035,36.0440937],[138.9705754,36.0440567],[138.9705553,36.044004],[138.9705386,36.0439359],[138.9705393,36.0439033],[138.9705747,36.0438658],[138.970687,36.0438022],[138.9707169,36.0437718],[138.9707319,36.0437565],[138.9707281,36.0437781],[138.9707325,36.0438867],[138.9707583,36.0439527],[138.9708105,36.0440274],[138.9709024,36.0441004],[138.9711638,36.0439436],[138.9711672,36.0439626],[138.9711857,36.0440032],[138.9712364,36.0441042]]]},"properties":{"layer":"landuse","class_code":"202","class_label":"畑（畑、樹園地、採草地、養鶏（牛・豚）場）"}},{"type":"Feature","id":"luse_18201e13-bd0a-4c49-9ffa-80d621ca7ae1","geometry":{"type":"Polygon","coordinates":[[[138.9727726,36.0446091],[138.9725588,36.0446234],[138.9724603,36.0446229],[138.9723861,36.044653],[138.9723201,36.0446741],[138.9721897,36.0446845],[138.9720411,36.0447051],[138.9719273,36.0446861],[138.971927,36.044686],[138.9717275,36.0446626],[138.9716156,36.0446308],[138.9715588,36.0446028],[138.9714871,36.0445599],[138.9714484,36.044532],[138.9714431,36.0445241],[138.9714431,36.044522],[138.9714432,36.0445154],[138.9714454,36.0445059],[138.9714528,36.0444962],[138.9714553,36.0444928],[138.9714919,36.0444546],[138.9715139,36.0444078],[138.971512,36.0443542],[138.9714943,36.0443049],[138.9714533,36.0442634],[138.9714409,36.0442527],[138.9713693,36.0441913],[138.9713168,36.044139],[138.971294,36.0441103],[138.9712759,36.0440876],[138.9712271,36.0439901],[138.9712105,36.0439535],[138.9712044,36.0439205],[138.9712068,36.0438901],[138.9712166,36.0438606],[138.9712423,36.0438313],[138.9712665,36.0438148],[138.9712678,36.043814],[138.9712898,36.0438064],[138.9713049,36.0438012],[138.9713435,36.0437954],[138.9713638,36.043796],[138.9713739,36.0437962],[138.9713898,36.0437997],[138.9713938,36.0438005],[138.9714196,36.0438079],[138.9714477,36.0438231],[138.971452,36.0438253],[138.9715511,36.0438763],[138.9715816,36.0438947],[138.9716549,36.043939],[138.9717,36.0439735],[138.9717116,36.0439825],[138.9718402,36.0440561],[138.9719477,36.0441163],[138.9720721,36.0441787],[138.9722212,36.0442425],[138.9723382,36.0442795],[138.9724446,36.0443208],[138.9724932,36.0443436],[138.9725215,36.0443637],[138.9725323,36.0443766],[138.9725603,36.0444099],[138.9725802,36.0444423],[138.9725822,36.0444456],[138.9726137,36.0444744],[138.972646,36.0444889],[138.9726506,36.044491],[138.9726679,36.0444965],[138.9726843,36.0445016],[138.9727062,36.0445017],[138.9727341,36.0445018],[138.9727504,36.0444998],[138.9727687,36.0444976],[138.9727691,36.0444976],[138.9728072,36.044484],[138.9728336,36.0444745],[138.9728617,36.0444551],[138.972868,36.0444487],[138.9728723,36.0444442],[138.9728746,36.0444293],[138.9728746,36.0444261],[138.9728745,36.0444107],[138.972875,36.04439],[138.972868,36.0443483],[138.9728472,36.0442909],[138.9728205,36.0442169],[138.9727572,36.0440787],[138.9726913,36.0439376],[138.9727575,36.0439015],[138.9727981,36.0438779],[138.9729238,36.0440285],[138.9729915,36.0440764],[138.9730159,36.0440938],[138.9731199,36.0441462],[138.9731777,36.0440831],[138.9731768,36.0440727],[138.9731306,36.0440308],[138.9731332,36.04401],[138.9731302,36.0439882],[138.9732173,36.043986],[138.9732533,36.0439881],[138.9732772,36.0439916],[138.9732964,36.0439988],[138.9733312,36.0440602],[138.9733479,36.044109],[138.9733404,36.0441839],[138.9732589,36.044205],[138.9732182,36.0442373],[138.9731962,36.0442616],[138.9731977,36.0443019],[138.9731824,36.0443584],[138.9731781,36.044412],[138.9732105,36.0444719],[138.9732973,36.0445858],[138.9732671,36.044669],[138.9731167,36.044656],[138.9730031,36.0446462],[138.9728653,36.044628],[138.9727729,36.0446079],[138.9727726,36.0446091]]]},"properties":{"layer":"landuse","class_code":"202","class_label":"畑（畑、樹園地、採草地、養鶏（牛・豚）場）"}},{"type":"Feature","id":"luse_40524737-7a2c-401f-8be9-69a0cfc34cbd","geometry":{"type":"Polygon","coordinates":[[[138.9731578,36.0432696],[138.9730156,36.0433212],[138.9729761,36.0433431],[138.9729664,36.0433676],[138.9730049,36.0434163],[138.9730135,36.0434311],[138.9729976,36.0435094],[138.9729631,36.043471],[138.9729117,36.0434213],[138.9728767,36.0433888],[138.9728336,36.0433574],[138.9727934,36.0433338],[138.9727439,36.0433171],[138.9726078,36.0432844],[138.9726074,36.0432843],[138.9725158,36.0432597],[138.9724692,36.0432534],[138.972443,36.0432532],[138.9724427,36.0432533],[138.9724174,36.0432549],[138.9723665,36.0432677],[138.9723411,36.0432832],[138.9722507,36.0433444],[138.972224,36.0433582],[138.9721741,36.0433727],[138.9721468,36.0433756],[138.9721202,36.0433785],[138.9721199,36.0433785],[138.9721,36.0433759],[138.9720779,36.0433697],[138.9720612,36.0433575],[138.9720528,36.043347],[138.9720523,36.0433297],[138.9720665,36.043204],[138.9720736,36.0431812],[138.9720744,36.0431787],[138.9720947,36.0431613],[138.9721521,36.0431286],[138.9722016,36.0431021],[138.9722584,36.0430733],[138.9722939,36.0430437],[138.9723268,36.0430064],[138.972368,36.0429435],[138.9723949,36.0429147],[138.9724119,36.0429052],[138.9724385,36.0429007],[138.972482,36.0428988],[138.9725221,36.0429042],[138.9725987,36.0429295],[138.9727202,36.0429697],[138.9727588,36.0429821],[138.9728161,36.0430004],[138.9729162,36.0430336],[138.9730474,36.0430846],[138.9731232,36.0431206],[138.9732211,36.043174],[138.9732389,36.0431836],[138.9732997,36.0432031],[138.9733866,36.0432214],[138.9734379,36.043228],[138.9734612,36.0432308],[138.9734816,36.0432319],[138.9733963,36.043244],[138.9731578,36.0432696]]]},"properties":{"layer":"landuse","class_code":"203","class_label":"山林（樹林地）"}},{"type":"Feature","id":"luse_8d8ae654-3b52-4f6e-a351-12b249cb2c36","geometry":{"type":"Polygon","coordinates":[[[138.975,36.041666666666664],[138.975,36.042173910843374],[138.9749678,36.0421554],[138.9748422,36.042106],[138.9747108,36.0420756],[138.9745638,36.042051],[138.9743486,36.0420511],[138.9742882,36.0420548],[138.9742795,36.0420554],[138.9742787,36.0420543],[138.9742625,36.0420268],[138.9742617,36.0420254],[138.9742493,36.042003],[138.9742146,36.0419331],[138.9741988,36.0418932],[138.9741903,36.0418576],[138.9741914,36.0418366],[138.9741984,36.041817],[138.9742124,36.0417996],[138.9742567,36.0417751],[138.9742709,36.0417692],[138.9743512,36.0417365],[138.9744104,36.0417141],[138.9744586,36.0416959],[138.97454377171172,36.041666666666664],[138.97444324950206,36.041666666666664],[138.9744497,36.0416795],[138.9743415,36.0417202],[138.9742553,36.0417554],[138.9742454,36.0417595],[138.9741962,36.0417868],[138.9741781,36.0418095],[138.9741694,36.0418337],[138.974168,36.041859],[138.9741771,36.0418976],[138.9741936,36.0419392],[138.9742288,36.0420102],[138.9742538,36.0420551],[138.9742108,36.0420699],[138.9742081,36.0420671],[138.9741616,36.0420979],[138.9742147,36.0422047],[138.9741767,36.0422233],[138.9741529,36.0422565],[138.9741436,36.0422946],[138.9741663,36.0423735],[138.97422,36.0425599],[138.9742831,36.042701],[138.9743544,36.0428971],[138.9744375,36.0430813],[138.9745451,36.0431798],[138.9746797,36.0432285],[138.975,36.04316766212678],[138.975,36.04398032620545],[138.9749524,36.0439928],[138.9749181,36.0440107],[138.9748996,36.0440251],[138.9748889,36.0440334],[138.974869,36.0440489],[138.9747836,36.0441389],[138.9747703,36.0441438],[138.9747305,36.0441495],[138.9747199,36.0441509],[138.9747091,36.0441509],[138.9747087,36.0441508],[138.9746973,36.0441486],[138.974639,36.0441096],[138.9744697,36.0439803],[138.9743952,36.0439062],[138.9743597,36.0438574],[138.9743221,36.0437912],[138.9742701,36.0436894],[138.9742635,36.0436775],[138.974191,36.0435457],[138.9741658,36.0435074],[138.9741324,36.0434638],[138.9740776,36.043408],[138.9740674,36.0433976],[138.9739623,36.0433137],[138.9739223,36.0432884],[138.9738653,36.0432612],[138.9737639,36.0432261],[138.9736779,36.0432047],[138.9736653,36.0432016],[138.9736649,36.0432015],[138.9735475,36.0431846],[138.9735009,36.0431801],[138.9734916,36.0431793],[138.9734703,36.0431772],[138.9734002,36.0431685],[138.9733206,36.0431516],[138.9732669,36.0431342],[138.9731467,36.04309],[138.9731419,36.0430877],[138.9731404,36.0430871],[138.9730694,36.0430535],[138.972934,36.0430006],[138.9728325,36.0429669],[138.9727366,36.0429363],[138.9726153,36.0428961],[138.9725501,36.0428746],[138.9725498,36.0428745],[138.972534,36.0428693],[138.9724844,36.0428626],[138.9724326,36.0428649],[138.9723939,36.0428714],[138.9723637,36.0428884],[138.9723305,36.042924],[138.9722891,36.0429873],[138.9722598,36.0430205],[138.9722304,36.043045],[138.9721793,36.0430709],[138.9721233,36.0430954],[138.9720965,36.0431106],[138.9720924,36.0431122],[138.9720113,36.0431503],[138.9719748,36.0432477],[138.9719633,36.0433555],[138.9720309,36.043563],[138.9718976,36.0434808],[138.9718627,36.0434482],[138.9716849,36.0433847],[138.9716427,36.0433799],[138.9716148,36.0433797],[138.9715823,36.0433855],[138.9715449,36.0433957],[138.9714797,36.043426],[138.9713674,36.0434497],[138.9713,36.0434542],[138.9712149,36.0434483],[138.9711147,36.0434449],[138.9710137,36.0434655],[138.9709559,36.0434875],[138.9708938,36.0435257],[138.9708536,36.0435594],[138.9708106,36.0436132],[138.9707702,36.0436728],[138.9707499,36.0437055],[138.9707319,36.0437565],[138.9707169,36.0437718],[138.970687,36.0438022],[138.9705747,36.0438658],[138.9705393,36.0439033],[138.9705386,36.0439359],[138.9705553,36.044004],[138.9705754,36.0440567],[138.9705731,36.0440536],[138.9705596,36.044024],[138.9705267,36.0439214],[138.9705104,36.043844],[138.9705149,36.0438076],[138.9705229,36.0437512],[138.970535,36.043716],[138.9705626,36.0436367],[138.9705754,36.0435758],[138.9705744,36.0435339],[138.9705526,36.0434718],[138.9704956,36.0433578],[138.9704853,36.0433221],[138.9704751,36.0432868],[138.9704682,36.0432312],[138.9704675,36.0431956],[138.9704732,36.0431522],[138.9704749,36.0431471],[138.9704829,36.0431244],[138.9704947,36.0431054],[138.9705171,36.0430881],[138.9705394,36.0430787],[138.970604,36.0430685],[138.9707344,36.0430518],[138.9707493,36.0430487],[138.9708231,36.0430332],[138.9708258,36.0430323],[138.9708265,36.043032],[138.9708878,36.0430109],[138.970927,36.0429846],[138.9709634,36.0429601],[138.971134,36.0428193],[138.9712948,36.0426984],[138.971345,36.0426439],[138.9713921,36.0425764],[138.9714641,36.0424412],[138.9715598,36.0422784],[138.9716134,36.0422013],[138.9716432,36.0421728],[138.9717071,36.0421236],[138.971871,36.0420106],[138.971875,36.0420065],[138.9719148,36.0419657],[138.9719299,36.0419344],[138.9719346,36.0418832],[138.9719347,36.0418759],[138.9720308,36.0418641],[138.9722139,36.0418295],[138.9723196,36.0417985],[138.9723841,36.0417759],[138.9726478,36.0416711],[138.97265655800655,36.041666666666664],[138.975,36.041666666666664]]]},"properties":{"layer":"landuse","class_code":"203","class_label":"山林（樹林地）"}},{"type":"Feature","id":"luse_cb50905d-6b55-42d2-b0d0-4da13cbff9e6","geometry":{"type":"Polygon","coordinates":[[[138.9740171,36.0455184],[138.9738285,36.045542],[138.9735585,36.0455737],[138.9734601,36.0455884],[138.9733308,36.0456089],[138.9732943,36.0456154],[138.9732939,36.0456155],[138.9731908,36.045634],[138.9729065,36.0456836],[138.972865,36.0456947],[138.9728198,36.0457074],[138.9727811,36.0457263],[138.9727553,36.0457478],[138.9727311,36.0457769],[138.9726862,36.0458306],[138.972648,36.0458764],[138.9726203,36.0458957],[138.972616,36.0458988],[138.9725867,36.0459091],[138.9725611,36.0459106],[138.9725197,36.0459015],[138.9724821,36.0458793],[138.9724596,36.045847],[138.972437,36.0457781],[138.9724185,36.0457213],[138.9723922,36.0456721],[138.9723584,36.0456307],[138.9723195,36.0455975],[138.9723043,36.0455832],[138.9722973,36.0455766],[138.9722859,36.0455623],[138.9722782,36.0455437],[138.9722776,36.045529],[138.9722802,36.0455202],[138.9722904,36.045509],[138.9723058,36.0455002],[138.9723477,36.0454874],[138.9724277,36.0454777],[138.9725685,36.0454687],[138.972678,36.0454548],[138.9727579,36.045435],[138.9727935,36.0454239],[138.9727942,36.0454236],[138.9728405,36.0454093],[138.9728716,36.0453907],[138.9729093,36.0453681],[138.9729655,36.0453323],[138.9730255,36.0452933],[138.9730837,36.0452613],[138.9731382,36.0452421],[138.9731861,36.0452254],[138.9732626,36.0452027],[138.9733489,36.0451865],[138.9734372,36.0451662],[138.9735277,36.0451436],[138.973633,36.0451146],[138.9737492,36.0450781],[138.973852,36.0450386],[138.973855,36.0450376],[138.9738556,36.0450373],[138.9739205,36.0450152],[138.9739636,36.0449787],[138.9740021,36.0449337],[138.9740023,36.0449333],[138.9740187,36.0449009],[138.9740354,36.044868],[138.9740694,36.0447746],[138.9740754,36.0447425],[138.9740846,36.0446933],[138.9740971,36.0446225],[138.9740978,36.0446088],[138.9741007,36.0445548],[138.9740935,36.0444897],[138.9740594,36.0444136],[138.9739926,36.0443262],[138.9739151,36.0442674],[138.973786,36.0442221],[138.9737692,36.0442159],[138.9737683,36.0442155],[138.9736932,36.0441876],[138.9736543,36.0441634],[138.9736183,36.0441314],[138.9736041,36.0441183],[138.9735929,36.0441079],[138.9735644,36.04405],[138.9735313,36.0439978],[138.9734925,36.0439636],[138.9734415,36.0439362],[138.9733467,36.0438894],[138.9732565,36.0438542],[138.9731919,36.0438304],[138.9731666,36.0438207],[138.9732524,36.0437824],[138.9735207,36.0436992],[138.9735905,36.0437179],[138.9736569,36.0437934],[138.9737649,36.0439011],[138.9738704,36.0439883],[138.9739177,36.0440204],[138.9740685,36.0440442],[138.9741917,36.0440451],[138.9743703,36.0441033],[138.9744599,36.0440864],[138.9745032,36.0441247],[138.9746118,36.0441942],[138.9746738,36.0441949],[138.9746749,36.0441957],[138.9746893,36.0442002],[138.9747124,36.0442021],[138.9747127,36.044202],[138.9747443,36.0441979],[138.9747856,36.0441876],[138.9747941,36.0441868],[138.9748363,36.0441647],[138.974899,36.0440987],[138.9749136,36.0440833],[138.9749175,36.0440792],[138.9749529,36.0440409],[138.9749742,36.0440297],[138.975,36.04402296333334],[138.975,36.045309473560536],[138.974984,36.045326],[138.9749483,36.0453627],[138.9748874,36.0454175],[138.9748845,36.0454194],[138.9748455,36.0454443],[138.9748098,36.045457],[138.9747753,36.045464],[138.9747463,36.0454662],[138.9747413,36.0454666],[138.9747351,36.045467],[138.9747347,36.045467],[138.9746995,36.0454643],[138.9746991,36.0454643],[138.9746594,36.0454589],[138.974659,36.0454588],[138.974564,36.0454338],[138.9745636,36.0454337],[138.9745023,36.0454214],[138.9745019,36.0454213],[138.974456,36.0454123],[138.9744236,36.0454106],[138.9744232,36.0454106],[138.9743838,36.0454169],[138.9743272,36.0454295],[138.9741644,36.045474],[138.9740809,36.0455067],[138.9740805,36.0455067],[138.9740171,36.0455184]]]},"properties":{"layer":"landuse","class_code":"203","class_label":"山林（樹林地）"}},{"type":"Feature","id":"luse_2568ceaf-af0e-4f32-baea-707cfa482ec4","geometry":{"type":"Polygon","coordinates":[[[138.97219606415584,36.05],[138.9721507,36.0498142],[138.9721162,36.0496657],[138.9720761,36.0495649],[138.972038,36.0494852],[138.9719928,36.0494111],[138.9718154,36.049192],[138.9717374,36.0491088],[138.9716697,36.0490358],[138.9716331,36.0489631],[138.9716151,36.048904],[138.9715968,36.0487772],[138.9716855,36.0488202],[138.9718041,36.0488461],[138.9718789,36.0488538],[138.9718767,36.0486571],[138.9718515,36.0485353],[138.9718702,36.0484353],[138.9718003,36.0483883],[138.9717636,36.0483519],[138.9717533,36.048252],[138.9717993,36.0481818],[138.9717557,36.0481104],[138.9717379,36.0480786],[138.9717257,36.0480348],[138.9717246,36.0479916],[138.9717759,36.0480014],[138.971828,36.047973],[138.9718984,36.0479607],[138.9719346,36.0479458],[138.9719575,36.047928],[138.9719649,36.0478949],[138.9719509,36.0478525],[138.9719243,36.047796],[138.9719114,36.0477685],[138.9719596,36.0477332],[138.9720087,36.0477078],[138.9720582,36.0476886],[138.9720859,36.0478323],[138.9721089,36.0478736],[138.9721365,36.047911],[138.9721715,36.0479315],[138.9722154,36.0479473],[138.9722432,36.0479511],[138.9723034,36.0479503],[138.9723132,36.0479933],[138.9723291,36.0480209],[138.9723329,36.0480722],[138.9723249,36.0481329],[138.9723257,36.0481997],[138.9723273,36.0482371],[138.9723315,36.0482849],[138.9723573,36.0482869],[138.9723812,36.0482547],[138.9723885,36.048228],[138.9724309,36.0482169],[138.9725037,36.0482155],[138.9725316,36.0482424],[138.9725347,36.0481776],[138.9725469,36.0481395],[138.9725894,36.048115],[138.972592,36.0480883],[138.9725996,36.0480407],[138.972621,36.0480199],[138.9726586,36.0480163],[138.9726755,36.0479706],[138.9726736,36.0479363],[138.9727069,36.0478946],[138.9727371,36.0478719],[138.9727375,36.0478356],[138.9727379,36.0478032],[138.9727383,36.0477651],[138.9727041,36.047719],[138.9726855,36.0477017],[138.9726577,36.0476729],[138.9726248,36.0476669],[138.9725968,36.0476534],[138.9725877,36.0476247],[138.9725718,36.0475769],[138.972572,36.047554],[138.9725686,36.0475207],[138.9725683,36.047517],[138.9725955,36.0475041],[138.9725162,36.0473724],[138.9724953,36.0472709],[138.9724675,36.0471276],[138.972432,36.0470141],[138.9723819,36.0469004],[138.9723536,36.0467989],[138.9725534,36.0466513],[138.9724299,36.0465371],[138.9723861,36.0462459],[138.9724817,36.0461703],[138.9725046,36.0461182],[138.9724895,36.0461097],[138.9724596,36.046104],[138.9724449,36.0461048],[138.9724384,36.0461066],[138.9723067,36.0461666],[138.9721726,36.0462236],[138.9721026,36.0462554],[138.9718246,36.0463936],[138.971795,36.0464088],[138.971674,36.046495],[138.971626,36.0465343],[138.9714273,36.0466877],[138.9714253,36.0466893],[138.9713347,36.0467642],[138.971255,36.0468098],[138.9711678,36.0468431],[138.9710764,36.046864],[138.9710365,36.0468663],[138.9709629,36.0468571],[138.9709205,36.0468467],[138.9708397,36.0468134],[138.9707672,36.0467622],[138.9707283,36.0467288],[138.9706705,36.0466768],[138.9706292,36.046642],[138.970574,36.0465825],[138.97051,36.0465008],[138.9703114,36.0461821],[138.9702702,36.0461259],[138.9702455,36.0460892],[138.970224,36.0460703],[138.9701917,36.0460559],[138.9701518,36.0460499],[138.9701257,36.0460487],[138.9700903,36.0460467],[138.9699344,36.0460478],[138.9697968,36.046048],[138.9697778,36.046048],[138.9697082,36.0460463],[138.9696324,36.0460294],[138.9695643,36.0459935],[138.9693206,36.0457193],[138.9692655,36.0456461],[138.9692104,36.0455438],[138.969135,36.0453934],[138.9690098,36.0451313],[138.9689152,36.0448713],[138.968792,36.0446323],[138.968759,36.0445601],[138.9687516,36.044471],[138.9687478,36.0444265],[138.9687491,36.04431],[138.9687624,36.0442519],[138.9688056,36.0441495],[138.9688442,36.0440915],[138.9689394,36.0439586],[138.9692343,36.0434829],[138.9694503,36.0431882],[138.9695162,36.0431507],[138.9696407,36.0430825],[138.9699528,36.0429041],[138.9703338,36.042751],[138.9707056,36.0426141],[138.9707501,36.0425979],[138.9707944,36.042584],[138.9708645,36.0425391],[138.9709371,36.0424895],[138.9710496,36.0423853],[138.9711941,36.0422421],[138.9713205,36.0421182],[138.9714841,36.0420167],[138.9715859,36.0419641],[138.9717222,36.0419021],[138.9718903,36.0418814],[138.9718861,36.0419263],[138.9718759,36.0419474],[138.971839,36.0419854],[138.9716774,36.0420968],[138.971611,36.042148],[138.9715767,36.0421806],[138.9715204,36.0422618],[138.9714238,36.0424263],[138.9713523,36.0425603],[138.9713078,36.0426241],[138.9712615,36.0426741],[138.9712114,36.0427118],[138.971103,36.0427933],[138.9709332,36.0429334],[138.9708644,36.0429798],[138.9708087,36.0429989],[138.9707232,36.0430168],[138.97065,36.0430261],[138.9706266,36.0430291],[138.9705961,36.043033],[138.9705244,36.0430442],[138.9704827,36.0430504],[138.9704403,36.0430727],[138.9704206,36.0431047],[138.9704156,36.0431434],[138.9704231,36.043194],[138.9704239,36.0432333],[138.9704312,36.0432927],[138.9704543,36.0433714],[138.9705105,36.0434836],[138.9705302,36.0435393],[138.9705305,36.0435553],[138.9705309,36.0435732],[138.9705199,36.043627],[138.9704791,36.0437442],[138.9704708,36.0438037],[138.9704656,36.0438452],[138.9704832,36.043929],[138.9705171,36.0440349],[138.9705329,36.0440694],[138.9705673,36.0441148],[138.9705969,36.0441435],[138.9706836,36.0442037],[138.9708013,36.0442783],[138.9708204,36.0442903],[138.9708609,36.0443162],[138.9709021,36.0443426],[138.9710039,36.0444037],[138.9711491,36.0444792],[138.9712274,36.044522],[138.9712277,36.0445221],[138.9712728,36.0445339],[138.9713248,36.0445362],[138.9713616,36.044534],[138.971362,36.044534],[138.9713842,36.0445324],[138.9714013,36.0445342],[138.9714016,36.0445343],[138.9714045,36.0445354],[138.9714143,36.0445389],[138.9714261,36.0445461],[138.9714697,36.0445774],[138.9715432,36.0446215],[138.9716036,36.0446513],[138.9717206,36.0446845],[138.9717209,36.0446845],[138.9719231,36.0447083],[138.9719234,36.0447083],[138.9719273,36.0446861],[138.9720411,36.0447051],[138.9721897,36.0446845],[138.9723201,36.0446741],[138.9723861,36.044653],[138.9724603,36.0446229],[138.9725588,36.0446234],[138.9727726,36.0446091],[138.9727729,36.0446079],[138.9728653,36.044628],[138.9730031,36.0446462],[138.9731167,36.044656],[138.9732671,36.044669],[138.9732973,36.0445858],[138.9732105,36.0444719],[138.9731781,36.044412],[138.9731824,36.0443584],[138.9731977,36.0443019],[138.9731962,36.0442616],[138.9732182,36.0442373],[138.9732589,36.044205],[138.9733404,36.0441839],[138.9733479,36.044109],[138.9733312,36.0440602],[138.9732964,36.0439988],[138.9732772,36.0439916],[138.9732533,36.0439881],[138.9732173,36.043986],[138.9731302,36.0439882],[138.9731146,36.0439509],[138.9730613,36.043882],[138.9730195,36.0438193],[138.9729872,36.043754],[138.9729645,36.0436948],[138.9729522,36.0436453],[138.9729534,36.0436263],[138.9729612,36.0435889],[138.9729656,36.0435724],[138.9729709,36.0435663],[138.9729774,36.0435637],[138.9729882,36.0435627],[138.9730235,36.0436639],[138.9730723,36.0437615],[138.9731064,36.0438236],[138.9731397,36.0438559],[138.9731732,36.043873],[138.9732351,36.0438907],[138.9733231,36.0439251],[138.9734149,36.0439704],[138.9734598,36.0439946],[138.9734782,36.0440108],[138.9734899,36.0440213],[138.9735189,36.0440669],[138.9735497,36.0441293],[138.973581,36.0441584],[138.9736205,36.0441934],[138.9736673,36.0442225],[138.9737656,36.0442591],[138.9738874,36.0443019],[138.9739097,36.0443186],[138.9739418,36.0443427],[138.9739525,36.0443507],[138.9739891,36.0443986],[138.9740142,36.0444316],[138.9740408,36.0444908],[138.9740443,36.0444986],[138.9740485,36.044536],[138.9740507,36.0445558],[138.9740505,36.04456],[138.9740473,36.0446187],[138.9740352,36.0446876],[138.9740106,36.0447611],[138.9739778,36.0448516],[138.9739482,36.0449098],[138.9739163,36.0449472],[138.973882,36.0449763],[138.9738282,36.0450028],[138.9737296,36.0450408],[138.9736874,36.045054],[138.9736158,36.0450765],[138.973577,36.0450872],[138.9735122,36.045105],[138.9734229,36.0451274],[138.9733364,36.0451472],[138.973336,36.0451472],[138.9732784,36.0451581],[138.9732482,36.0451637],[138.9731883,36.0451815],[138.9731674,36.0451877],[138.9731182,36.0452049],[138.9730594,36.0452256],[138.9729959,36.0452607],[138.9729344,36.0453005],[138.9728789,36.0453359],[138.9728162,36.0453733],[138.9727416,36.0453966],[138.9727413,36.0453967],[138.972682,36.0454114],[138.9726666,36.0454151],[138.9726023,36.0454233],[138.9725625,36.0454283],[138.9724218,36.0454373],[138.9724145,36.0454383],[138.972335,36.0454479],[138.9722821,36.045464],[138.972255,36.0454796],[138.972234,36.0455028],[138.9722275,36.0455249],[138.9722283,36.0455494],[138.9722367,36.0455756],[138.97225,36.0455986],[138.9722776,36.045627],[138.9723149,36.0456589],[138.9723434,36.0456938],[138.9723648,36.0457329],[138.9724078,36.0458642],[138.9724398,36.0459101],[138.9724877,36.0459526],[138.9725542,36.0459698],[138.9726044,36.0459667],[138.972655,36.045949],[138.9726607,36.045945],[138.9727026,36.0459156],[138.9727713,36.0458221],[138.9728028,36.0457792],[138.9728193,36.0457656],[138.972846,36.0457526],[138.9728847,36.0457417],[138.9729227,36.0457315],[138.973204,36.0456825],[138.9733434,36.0456574],[138.9734716,36.0456371],[138.9735685,36.0456227],[138.9736532,36.0456127],[138.9738377,36.045591],[138.9739285,36.0455797],[138.9740287,36.0455672],[138.9740462,36.0455639],[138.974076,36.0455584],[138.9740826,36.0455572],[138.9741011,36.0455537],[138.9741879,36.0455199],[138.9743452,36.0454817],[138.9743991,36.0454696],[138.9744322,36.0454644],[138.9744605,36.0454628],[138.9744935,36.0454649],[138.9745524,36.0454752],[138.9746463,36.0455028],[138.9746925,36.045509],[138.9747349,36.0455123],[138.9747659,36.04551],[138.9747849,36.0455086],[138.9747984,36.0455058],[138.974799,36.0455057],[138.9748279,36.0454996],[138.9748743,36.0454832],[138.974884,36.0454781],[138.9749293,36.045454],[138.9749951,36.0453946],[138.975,36.045389548123985],[138.975,36.05],[138.97219606415584,36.05]]]},"properties":{"layer":"landuse","class_code":"203","class_label":"山林（樹林地）"}},{"type":"Feature","id":"luse_f00217f5-5043-44b3-a188-7d2a7026b0ea","geometry":{"type":"Polygon","coordinates":[[[138.9742233,36.042222],[138.9742871,36.0423205],[138.9743476,36.0424088],[138.9744417,36.0424945],[138.9745545,36.0425714],[138.9747468,36.0426442],[138.9748382,36.0426653],[138.9747895,36.0428477],[138.9747584,36.0430049],[138.9746797,36.0432285],[138.9745451,36.0431798],[138.9744375,36.0430813],[138.9743544,36.0428971],[138.9742831,36.042701],[138.97422,36.0425599],[138.9741663,36.0423735],[138.9741436,36.0422946],[138.9741529,36.0422565],[138.9741767,36.0422233],[138.9742147,36.0422047],[138.9742233,36.042222]]]},"properties":{"layer":"landuse","class_code":"205","class_label":"その他自然地（原野・牧野、荒れ地（耕作放棄地等自然的状況のもの）、低湿地、河川敷・河原、海浜、湖岸）"}},{"type":"Feature","id":"luse_fc2e2ea7-5ed5-4ef4-8246-184509e061a4","geometry":{"type":"Polygon","coordinates":[[[138.9724093,36.0475817],[138.9722769,36.0476072],[138.9721613,36.0476318],[138.9720456,36.0476635],[138.9719926,36.0476841],[138.9719394,36.0477116],[138.9718648,36.047766],[138.9717794,36.047855],[138.9717686,36.0478628],[138.9717347,36.0478756],[138.9717344,36.0478757],[138.9717076,36.0478836],[138.971601,36.047915],[138.9714387,36.0479688],[138.9713816,36.0479821],[138.9713627,36.0479836],[138.9712128,36.0477015],[138.9709108,36.0473715],[138.9709035,36.0473636],[138.9706926,36.0471823],[138.970457,36.0470486],[138.9703779,36.0470062],[138.9702392,36.0469324],[138.9701727,36.0468446],[138.9700896,36.0467361],[138.9697676,36.0462378],[138.9695938,36.0460267],[138.9695643,36.0459935],[138.9696324,36.0460294],[138.9697082,36.0460463],[138.9697778,36.046048],[138.9697968,36.046048],[138.9699344,36.0460478],[138.9700903,36.0460467],[138.9701257,36.0460487],[138.9701518,36.0460499],[138.9701917,36.0460559],[138.970224,36.0460703],[138.9702455,36.0460892],[138.9702702,36.0461259],[138.9703114,36.0461821],[138.97051,36.0465008],[138.970574,36.0465825],[138.9706292,36.046642],[138.9706705,36.0466768],[138.9707283,36.0467288],[138.9707672,36.0467622],[138.9708397,36.0468134],[138.9709205,36.0468467],[138.9709629,36.0468571],[138.9710365,36.0468663],[138.9710764,36.046864],[138.9711678,36.0468431],[138.971255,36.0468098],[138.9713347,36.0467642],[138.9714253,36.0466893],[138.9714273,36.0466877],[138.971626,36.0465343],[138.971674,36.046495],[138.971795,36.0464088],[138.9718246,36.0463936],[138.9721026,36.0462554],[138.9721726,36.0462236],[138.9723067,36.0461666],[138.9724384,36.0461066],[138.9724449,36.0461048],[138.9724596,36.046104],[138.9724895,36.0461097],[138.9725046,36.0461182],[138.9724817,36.0461703],[138.9723861,36.0462459],[138.9724299,36.0465371],[138.9725534,36.0466513],[138.9723536,36.0467989],[138.9723819,36.0469004],[138.972432,36.0470141],[138.9724675,36.0471276],[138.9724953,36.0472709],[138.9725162,36.0473724],[138.9725955,36.0475041],[138.9725683,36.047517],[138.9724779,36.0475599],[138.9724093,36.0475817]]]},"properties":{"layer":"landuse","class_code":"205","class_label":"その他自然地（原野・牧野、荒れ地（耕作放棄地等自然的状況のもの）、低湿地、河川敷・河原、海浜、湖岸）"}},{"type":"Feature","id":"luse_f4ba7a90-a3c0-4f98-bd68-be8a82caf909","geometry":{"type":"Polygon","coordinates":[[[138.9716902,36.0479735],[138.9717209,36.0479909],[138.9717246,36.0479916],[138.9717257,36.0480348],[138.9717379,36.0480786],[138.9717557,36.0481104],[138.9717993,36.0481818],[138.9717533,36.048252],[138.9717636,36.0483519],[138.9718003,36.0483883],[138.9718702,36.0484353],[138.9718515,36.0485353],[138.9718767,36.0486571],[138.9718789,36.0488538],[138.9718041,36.0488461],[138.9716855,36.0488202],[138.9715968,36.0487772],[138.9715939,36.0487573],[138.9715927,36.0487434],[138.9715914,36.0487278],[138.9715882,36.0486838],[138.971518,36.0484384],[138.9714901,36.0483431],[138.9714745,36.0482861],[138.9714467,36.0481638],[138.971379,36.0480185],[138.9713903,36.0480175],[138.9714534,36.0480029],[138.9716171,36.0479487],[138.9716761,36.0479313],[138.9716902,36.0479735]]]},"properties":{"layer":"landuse","class_code":"205","class_label":"その他自然地（原野・牧野、荒れ地（耕作放棄地等自然的状況のもの）、低湿地、河川敷・河原、海浜、湖岸）"}},{"type":"Feature","id":"luse_d5be16a0-7da1-41c4-abea-6e9de6bd408e","geometry":{"type":"Polygon","coordinates":[[[138.9744869778607,36.041666666666664],[138.9744542,36.0416779],[138.9744497,36.0416795],[138.97444324950206,36.041666666666664],[138.9744869778607,36.041666666666664]]]},"properties":{"layer":"landuse","class_code":"211","class_label":"住宅用地（住宅、共同住宅、店舗等併用住宅、店舗等併用共同住宅、作業所併用住宅）"}},{"type":"Feature","id":"luse_b57cbb18-12df-4884-b8c0-bc80660f6c14","geometry":{"type":"Polygon","coordinates":[[[138.975,36.04251295364238],[138.9749877,36.0425066],[138.9749464,36.0424866],[138.9749166,36.0424705],[138.9748931,36.0424578],[138.9748617,36.0424491],[138.9748145,36.0424408],[138.974764,36.0424329],[138.9747118,36.0424189],[138.9745868,36.0423607],[138.9743909,36.0421924],[138.9743161,36.0421067],[138.9742795,36.0420554],[138.9742882,36.0420548],[138.9743486,36.0420511],[138.9745638,36.042051],[138.9747108,36.0420756],[138.9748422,36.042106],[138.9749678,36.0421554],[138.975,36.042173910843374],[138.975,36.04251295364238]]]},"properties":{"layer":"landuse","class_code":"211","class_label":"住宅用地（住宅、共同住宅、店舗等併用住宅、店舗等併用共同住宅、作業所併用住宅）"}},{"type":"Feature","id":"luse_09c79dcb-99cc-46b2-a297-55ecb1a5ed93","geometry":{"type":"Polygon","coordinates":[[[138.975,36.04269296705883],[138.9749316,36.0426758],[138.974931,36.0426758],[138.9748621,36.0426708],[138.9748382,36.0426653],[138.9747468,36.0426442],[138.9745545,36.0425714],[138.9744417,36.0424945],[138.9743476,36.0424088],[138.9742871,36.0423205],[138.9742233,36.042222],[138.9742147,36.0422047],[138.9741616,36.0420979],[138.9742081,36.0420671],[138.9742108,36.0420699],[138.9742538,36.0420551],[138.9742547,36.0420568],[138.974259,36.0420627],[138.9743567,36.0421869],[138.9744284,36.0422564],[138.9745675,36.0423706],[138.9746354,36.0424074],[138.9747071,36.0424366],[138.9747565,36.0424499],[138.9747826,36.042458],[138.9748103,36.0424666],[138.9748796,36.0424968],[138.9749162,36.0425122],[138.9749651,36.0425327],[138.9749671,36.0425336],[138.9749867,36.0425425],[138.9749958,36.0425466],[138.9749965,36.0425469],[138.975,36.04254847831325],[138.975,36.04269296705883]]]},"properties":{"layer":"landuse","class_code":"211","class_label":"住宅用地（住宅、共同住宅、店舗等併用住宅、店舗等併用共同住宅、作業所併用住宅）"}},{"type":"Feature","id":"luse_7570fc2c-8382-48c5-a2be-f100578ae6bc","geometry":{"type":"Polygon","coordinates":[[[138.9720102,36.0437556],[138.9719679,36.0437968],[138.971833,36.0438882],[138.9717154,36.0438371],[138.9717257,36.0437991],[138.9717445,36.0437268],[138.9717577,36.0436736],[138.9717572,36.0436709],[138.971917,36.0436413],[138.9720102,36.0437556]]]},"properties":{"layer":"landuse","class_code":"211","class_label":"住宅用地（住宅、共同住宅、店舗等併用住宅、店舗等併用共同住宅、作業所併用住宅）"}},{"type":"Feature","id":"luse_29f60bde-f1c8-47ad-b9f6-200d3e4d60c0","geometry":{"type":"Polygon","coordinates":[[[138.9711638,36.0439436],[138.9709024,36.0441004],[138.9708105,36.0440274],[138.9707583,36.0439527],[138.9707325,36.0438867],[138.9707281,36.0437781],[138.9707319,36.0437565],[138.9707499,36.0437055],[138.9707702,36.0436728],[138.9708106,36.0436132],[138.9708536,36.0435594],[138.9708938,36.0435257],[138.9709559,36.0434875],[138.9710137,36.0434655],[138.9711147,36.0434449],[138.9712149,36.0434483],[138.9713,36.0434542],[138.9713674,36.0434497],[138.9714797,36.043426],[138.9715449,36.0433957],[138.9715823,36.0433855],[138.9716148,36.0433797],[138.9716427,36.0433799],[138.9716849,36.0433847],[138.9718627,36.0434482],[138.9718976,36.0434808],[138.9720309,36.043563],[138.9717379,36.043619],[138.9717228,36.0435928],[138.9716927,36.043604],[138.9717134,36.0436406],[138.9717208,36.0436563],[138.9717238,36.0436729],[138.9717228,36.0436773],[138.9717113,36.0436794],[138.971548,36.0437254],[138.9714365,36.0437629],[138.9713548,36.0437407],[138.9712908,36.0437127],[138.9712476,36.0437189],[138.9712072,36.0437396],[138.9712036,36.0437721],[138.9712225,36.0437672],[138.9713013,36.0437636],[138.9712879,36.0437675],[138.9712442,36.0437829],[138.9712093,36.0438065],[138.9711756,36.0438451],[138.9711626,36.0438842],[138.9711597,36.0439221],[138.9711638,36.0439436]]]},"properties":{"layer":"landuse","class_code":"211","class_label":"住宅用地（住宅、共同住宅、店舗等併用住宅、店舗等併用共同住宅、作業所併用住宅）"}},{"type":"Feature","id":"luse_3fb9332b-0238-4227-ba78-3f31f835e9b6","geometry":{"type":"Polygon","coordinates":[[[138.9730421,36.0438911],[138.9730742,36.0439328],[138.9730943,36.0439587],[138.9731084,36.0439922],[138.9731109,36.0440102],[138.9731087,36.0440292],[138.9731306,36.0440308],[138.9731768,36.0440727],[138.9731777,36.0440831],[138.9731199,36.0441462],[138.9730159,36.0440938],[138.9729915,36.0440764],[138.9729238,36.0440285],[138.9727981,36.0438779],[138.9727575,36.0439015],[138.9726913,36.0439376],[138.9726281,36.0438233],[138.9725817,36.0437184],[138.9725611,36.043688],[138.9725051,36.0436478],[138.9724756,36.0436164],[138.9724624,36.0436025],[138.9724056,36.0435463],[138.972362,36.0435083],[138.9723319,36.0434885],[138.9722983,36.0434735],[138.9722404,36.0434512],[138.9722023,36.0434285],[138.9721987,36.0434205],[138.9721996,36.043411],[138.9722373,36.0434029],[138.9722376,36.0434028],[138.9722802,36.0433772],[138.972288,36.0433719],[138.9723721,36.043315],[138.9723897,36.0433043],[138.972427,36.043295],[138.9724446,36.0432938],[138.9724651,36.0432939],[138.9725037,36.0432991],[138.9725927,36.0433231],[138.9727272,36.0433553],[138.9727548,36.0433646],[138.9727689,36.0433695],[138.9728021,36.043389],[138.9728197,36.0434019],[138.9728409,36.0434174],[138.9728777,36.0434445],[138.9729282,36.0434933],[138.97295,36.0435175],[138.97295,36.0435341],[138.9729474,36.0435552],[138.9729448,36.043565],[138.9729393,36.0435855],[138.9729314,36.0436243],[138.9729299,36.0436466],[138.9729374,36.0436772],[138.972943,36.0436994],[138.9729663,36.0437601],[138.9729993,36.0438269],[138.9730421,36.0438911]]]},"properties":{"layer":"landuse","class_code":"211","class_label":"住宅用地（住宅、共同住宅、店舗等併用住宅、店舗等併用共同住宅、作業所併用住宅）"}},{"type":"Feature","id":"luse_60ee977e-cfa5-49ce-b25f-3bb7186fb9fa","geometry":{"type":"Polygon","coordinates":[[[138.9746047,36.0441391],[138.9746738,36.0441949],[138.9746118,36.0441942],[138.9745032,36.0441247],[138.9744599,36.0440864],[138.9743703,36.0441033],[138.9741917,36.0440451],[138.9740685,36.0440442],[138.9739177,36.0440204],[138.9738704,36.0439883],[138.9737649,36.0439011],[138.9736569,36.0437934],[138.9735905,36.0437179],[138.9735207,36.0436992],[138.9732524,36.0437824],[138.9731666,36.0438207],[138.9731457,36.0438016],[138.9731219,36.0437519],[138.9730895,36.0436487],[138.9730914,36.0436396],[138.9730992,36.0436216],[138.9731077,36.0436062],[138.973119,36.0435864],[138.9731215,36.0435827],[138.9731245,36.0435801],[138.9731597,36.0435757],[138.9731948,36.0435714],[138.9731952,36.0435714],[138.9731931,36.0435597],[138.9731909,36.0435491],[138.9731557,36.0435534],[138.9731553,36.0435534],[138.9731202,36.0435578],[138.9731089,36.0435663],[138.9730994,36.0435788],[138.9730898,36.0436028],[138.9730857,36.0436122],[138.9730824,36.0436153],[138.9730777,36.0436166],[138.9730714,36.0436159],[138.9730218,36.0435364],[138.9729976,36.0435094],[138.9730135,36.0434311],[138.9730049,36.0434163],[138.9729664,36.0433676],[138.9729761,36.0433431],[138.9730156,36.0433212],[138.9731578,36.0432696],[138.9733963,36.043244],[138.9734816,36.0432319],[138.9735406,36.043235],[138.9736535,36.043241],[138.9737467,36.0432642],[138.9738429,36.0432974],[138.9738942,36.043322],[138.9739293,36.0433443],[138.9739421,36.0433544],[138.9740302,36.0434248],[138.9740916,36.0434873],[138.9741226,36.0435277],[138.974146,36.0435636],[138.974223,36.0437031],[138.9742243,36.0437055],[138.9742763,36.0438074],[138.9743064,36.0438766],[138.9743476,36.0439319],[138.9743697,36.0439515],[138.9744331,36.044008],[138.9746047,36.0441391]]]},"properties":{"layer":"landuse","class_code":"211","class_label":"住宅用地（住宅、共同住宅、店舗等併用住宅、店舗等併用共同住宅、作業所併用住宅）"}},{"type":"Feature","id":"luse_f6b4d953-42d7-41c7-89dc-39f597a4b21c","geometry":{"type":"Polygon","coordinates":[[[138.9724309,36.0482169],[138.9723885,36.048228],[138.9723812,36.0482547],[138.9723573,36.0482869],[138.9723315,36.0482849],[138.9723273,36.0482371],[138.9723257,36.0481997],[138.9723249,36.0481329],[138.9723329,36.0480722],[138.9723291,36.0480209],[138.9723132,36.0479933],[138.9723034,36.0479503],[138.9722432,36.0479511],[138.9722154,36.0479473],[138.9721715,36.0479315],[138.9721365,36.047911],[138.9721089,36.0478736],[138.9720859,36.0478323],[138.9720582,36.0476886],[138.9721709,36.0476578],[138.9722647,36.0476378],[138.9722849,36.0476334],[138.972417,36.0476081],[138.9724093,36.0475817],[138.9724779,36.0475599],[138.9725683,36.047517],[138.9725686,36.0475207],[138.972572,36.047554],[138.9725718,36.0475769],[138.9725877,36.0476247],[138.9725968,36.0476534],[138.9726248,36.0476669],[138.9726577,36.0476729],[138.9726855,36.0477017],[138.9727041,36.047719],[138.9727383,36.0477651],[138.9727379,36.0478032],[138.9727375,36.0478356],[138.9727371,36.0478719],[138.9727069,36.0478946],[138.9726736,36.0479363],[138.9726755,36.0479706],[138.9726586,36.0480163],[138.972621,36.0480199],[138.9725996,36.0480407],[138.972592,36.0480883],[138.9725894,36.048115],[138.9725469,36.0481395],[138.9725347,36.0481776],[138.9725316,36.0482424],[138.9725037,36.0482155],[138.9724309,36.0482169]]]},"properties":{"layer":"landuse","class_code":"211","class_label":"住宅用地（住宅、共同住宅、店舗等併用住宅、店舗等併用共同住宅、作業所併用住宅）"}},{"type":"Feature","id":"luse_24a85f77-7fc9-4e8c-8107-9b39c12b52b8","geometry":{"type":"Polygon","coordinates":[[[138.9719243,36.047796],[138.9719509,36.0478525],[138.9719649,36.0478949],[138.9719575,36.047928],[138.9719346,36.0479458],[138.9718984,36.0479607],[138.971828,36.047973],[138.9717759,36.0480014],[138.9717246,36.0479916],[138.9717209,36.0479909],[138.9716902,36.0479735],[138.9716761,36.0479313],[138.9717324,36.0479147],[138.97175,36.0479095],[138.9717897,36.0478886],[138.9718039,36.0478736],[138.971819,36.0478578],[138.9718566,36.0478186],[138.9718894,36.0477845],[138.9719114,36.0477685],[138.9719243,36.047796]]]},"properties":{"layer":"landuse","class_code":"214","class_label":"公益施設用地（官公庁施設、文教厚生施設、供給処理施設）"}},{"type":"Feature","id":"luse_cb8b5b0d-b180-42d5-802d-7e11941e04af","geometry":{"type":"Polygon","coordinates":[[[138.9716761,36.0479313],[138.9716171,36.0479487],[138.9714534,36.0480029],[138.9713903,36.0480175],[138.971379,36.0480185],[138.9713627,36.0479836],[138.9713816,36.0479821],[138.9714387,36.0479688],[138.971601,36.047915],[138.9717076,36.0478836],[138.9717344,36.0478757],[138.9717347,36.0478756],[138.9717686,36.0478628],[138.9717794,36.047855],[138.9718648,36.047766],[138.9719394,36.0477116],[138.9719926,36.0476841],[138.9720456,36.0476635],[138.9721613,36.0476318],[138.9722769,36.0476072],[138.9724093,36.0475817],[138.972417,36.0476081],[138.9722849,36.0476334],[138.9722647,36.0476378],[138.9721709,36.0476578],[138.9720582,36.0476886],[138.9720087,36.0477078],[138.9719596,36.0477332],[138.9719114,36.0477685],[138.9718894,36.0477845],[138.9718566,36.0478186],[138.971819,36.0478578],[138.9718039,36.0478736],[138.9717897,36.0478886],[138.97175,36.0479095],[138.9717324,36.0479147],[138.9716761,36.0479313]]]},"properties":{"layer":"landuse","class_code":"215","class_label":"道路用地（道路、駅前広場、私有地内に存在する沿道用途の「私道」または、私有地の一部分であるものの公共の通行に供されている土地の部分）"}}]}