{"type":"FeatureCollection","properties":{"mesh_code":"54380788","source":"PLATEAU秩父市2025","layer":"landuse"},"features":[{"type":"Feature","id":"luse_af09e687-7a14-45b0-a59c-12de2ef5c2bd","geometry":{"type":"Polygon","coordinates":[[[138.9866639,36.0729429],[138.9867877,36.0731857],[138.9867477,36.0732673],[138.9866973,36.073361],[138.9866812,36.0734159],[138.9866908,36.0734501],[138.9867267,36.0734729],[138.9867588,36.073531],[138.986666,36.073589],[138.986652,36.0735977],[138.9866261,36.0735945],[138.986443,36.0734655],[138.9864394,36.0734629],[138.9864428,36.0734609],[138.9865303,36.0733165],[138.9863662,36.0731971],[138.9866055,36.0729735],[138.9865639,36.0729059],[138.9862676,36.0730242],[138.9862799,36.0729843],[138.9862562,36.0728911],[138.9863964,36.0727837],[138.9866585,36.0725945],[138.9868087,36.0724797],[138.9868713,36.0724752],[138.9868702,36.0724954],[138.9868701,36.0725003],[138.9868817,36.0725223],[138.986935,36.0725363],[138.9869774,36.072543],[138.9869311,36.0726],[138.9870009,36.0726644],[138.9870156,36.0726985],[138.9870125,36.0727289],[138.9866639,36.0729429]]]},"properties":{"layer":"landuse","class_code":"202","class_label":"畑（畑、樹園地、採草地、養鶏（牛・豚）場）"}},{"type":"Feature","id":"luse_efa5deff-b0f6-4423-929c-fb27a232a47d","geometry":{"type":"Polygon","coordinates":[[[138.9855422,36.0736302],[138.9855114,36.0736334],[138.9854563,36.0736505],[138.9854142,36.0736607],[138.9853835,36.0736628],[138.9853604,36.07366],[138.9853601,36.07366],[138.9853373,36.073652],[138.9853113,36.0736345],[138.9852917,36.0736067],[138.985293,36.0735865],[138.985307,36.0735753],[138.9853462,36.0735562],[138.9854726,36.0735127],[138.9855422,36.0736302]]]},"properties":{"layer":"landuse","class_code":"202","class_label":"畑（畑、樹園地、採草地、養鶏（牛・豚）場）"}},{"type":"Feature","id":"luse_3b1fdf04-8c98-48b2-8634-14aab9dcde1e","geometry":{"type":"Polygon","coordinates":[[[138.9875,36.07383868657466],[138.9874311,36.0738201],[138.987375,36.0737968],[138.9873082,36.0737769],[138.987269,36.0737647],[138.98719,36.0737383],[138.9871362,36.0737112],[138.9870849,36.0736765],[138.9870266,36.0736379],[138.986875,36.0736737],[138.9868733,36.0736718],[138.9872323,36.0732623],[138.9872441,36.0732152],[138.9874433,36.0732492],[138.9875,36.07324356080794],[138.9875,36.07383868657466]]]},"properties":{"layer":"landuse","class_code":"202","class_label":"畑（畑、樹園地、採草地、養鶏（牛・豚）場）"}},{"type":"Feature","id":"luse_b2cd2d1d-5e0e-4060-b63a-0b9128b171a9","geometry":{"type":"Polygon","coordinates":[[[138.9861274,36.0741393],[138.9860484,36.074151],[138.9859818,36.0741662],[138.9859815,36.0741663],[138.9859458,36.0741789],[138.9859099,36.0741916],[138.9857962,36.0742279],[138.9857734,36.0742324],[138.9857524,36.0742302],[138.9857313,36.074223],[138.9856906,36.0742],[138.9857826,36.0741065],[138.9858086,36.074081],[138.9858329,36.0740649],[138.9858608,36.074051],[138.9858992,36.074041],[138.9858995,36.074041],[138.9860245,36.0740143],[138.9860589,36.0739978],[138.9860743,36.0739807],[138.9860867,36.0740198],[138.9861697,36.0741028],[138.9861875,36.0741265],[138.9861887,36.0741363],[138.9861797,36.074136],[138.9861274,36.0741393]]]},"properties":{"layer":"landuse","class_code":"202","class_label":"畑（畑、樹園地、採草地、養鶏（牛・豚）場）"}},{"type":"Feature","id":"luse_afc3f5ac-50e6-41e1-b649-668b3b337466","geometry":{"type":"Polygon","coordinates":[[[138.9866469,36.0743451],[138.9864733,36.0743946],[138.9863749,36.0744231],[138.9863202,36.0744327],[138.9862158,36.0744499],[138.9861754,36.0744566],[138.986146,36.0744635],[138.9860753,36.0744852],[138.9860185,36.0745268],[138.9859887,36.0745406],[138.9859387,36.0745268],[138.9858523,36.0744755],[138.985871,36.0744456],[138.9858892,36.0744141],[138.9858985,36.074395],[138.9859051,36.0743813],[138.9858445,36.0743528],[138.9858067,36.0742974],[138.9856955,36.0743357],[138.9856693,36.07432],[138.9856737,36.0742948],[138.9856926,36.0742876],[138.9857151,36.0742935],[138.9857154,36.0742936],[138.9857485,36.0742952],[138.985783,36.0742906],[138.9857834,36.0742905],[138.9857987,36.0742856],[138.9858233,36.0742778],[138.9859311,36.0742332],[138.9860003,36.0742088],[138.9860609,36.0741949],[138.9861344,36.074184],[138.9861347,36.074184],[138.986181,36.0741811],[138.986227,36.0741823],[138.9862855,36.0741876],[138.9862859,36.0741877],[138.9863275,36.074196],[138.9863703,36.0742076],[138.9863711,36.0742079],[138.9864373,36.0742318],[138.9864935,36.0742584],[138.9865107,36.0742666],[138.9866469,36.0743451]]]},"properties":{"layer":"landuse","class_code":"202","class_label":"畑（畑、樹園地、採草地、養鶏（牛・豚）場）"}},{"type":"Feature","id":"luse_595352ac-897b-40d0-bc38-49ed70016fc4","geometry":{"type":"Polygon","coordinates":[[[138.984445,36.0746991],[138.9843227,36.0747747],[138.9843175,36.0747553],[138.9843089,36.0747023],[138.9843051,36.0746788],[138.9842828,36.0745689],[138.9842605,36.0744866],[138.9842552,36.0744575],[138.9842467,36.0744105],[138.9842444,36.0743254],[138.9842252,36.0742443],[138.9842166,36.0742007],[138.9843949,36.0742308],[138.9843767,36.0743272],[138.9843692,36.0744046],[138.9843756,36.0744738],[138.984393,36.0745408],[138.984415,36.0746072],[138.9844299,36.0746686],[138.984445,36.0746991]]]},"properties":{"layer":"landuse","class_code":"202","class_label":"畑（畑、樹園地、採草地、養鶏（牛・豚）場）"}},{"type":"Feature","id":"luse_ecaa979d-87b0-4052-ac32-7addaf63e1cb","geometry":{"type":"Polygon","coordinates":[[[138.9846567,36.0746472],[138.9846697,36.07465],[138.9846749,36.0746511],[138.9847043,36.0746564],[138.9846595,36.0747172],[138.9846117,36.0747842],[138.9846115,36.074784],[138.984516,36.0746504],[138.9845511,36.0746492],[138.984553,36.0746491],[138.9846238,36.0746467],[138.9846567,36.0746472]]]},"properties":{"layer":"landuse","class_code":"202","class_label":"畑（畑、樹園地、採草地、養鶏（牛・豚）場）"}},{"type":"Feature","id":"luse_1501a117-d87b-410a-a1c3-e59482190c1c","geometry":{"type":"Polygon","coordinates":[[[138.9852694,36.074819],[138.9852183,36.0749126],[138.9852424,36.0749226],[138.9852354,36.0749402],[138.98518592317262,36.075],[138.98507142588653,36.075],[138.9850723,36.0749915],[138.9848779,36.0749186],[138.9849344,36.0748054],[138.9849994,36.0747076],[138.9852694,36.074819]]]},"properties":{"layer":"landuse","class_code":"202","class_label":"畑（畑、樹園地、採草地、養鶏（牛・豚）場）"}},{"type":"Feature","id":"luse_7440bc12-ceb3-4edc-acef-241486712e9d","geometry":{"type":"Polygon","coordinates":[[[138.9874195,36.0707209],[138.9874075,36.0707368],[138.9873915,36.0707582],[138.9873758,36.0707781],[138.9872926,36.0708531],[138.9872214,36.0709145],[138.9871735,36.070954],[138.9871293,36.0709968],[138.9870916,36.0710404],[138.9870518,36.0710954],[138.9870312,36.0711283],[138.9870202,36.0711721],[138.987017,36.0712187],[138.9870026,36.0713489],[138.9869926,36.0714184],[138.9869546,36.0716061],[138.9869214,36.0717508],[138.9868915,36.0718597],[138.9868757,36.0719285],[138.986848,36.0720143],[138.9868207,36.0720777],[138.9867696,36.0721642],[138.9867124,36.0722422],[138.9867069,36.0722466],[138.9866411,36.0722053],[138.9866598,36.0721942],[138.9866933,36.0721703],[138.9867315,36.0721431],[138.9867712,36.072106],[138.9867865,36.0720883],[138.9867992,36.0720736],[138.9868187,36.0720334],[138.9868193,36.0720321],[138.9868537,36.0719256],[138.9868835,36.0718138],[138.9868946,36.0717324],[138.986903,36.0716544],[138.9869078,36.0716039],[138.9869115,36.0715628],[138.9869291,36.0714668],[138.9869511,36.0713463],[138.9869601,36.0712974],[138.9869823,36.0711824],[138.9870128,36.0711051],[138.9870446,36.0710511],[138.9870852,36.0709958],[138.9871266,36.0709483],[138.9871929,36.070888],[138.9873028,36.0707816],[138.987351,36.070729],[138.9873631,36.0707135],[138.9873672,36.0707063],[138.9873686,36.0707022],[138.9873693,36.0706942],[138.9873688,36.0706836],[138.9874195,36.0707209]]]},"properties":{"layer":"landuse","class_code":"203","class_label":"山林（樹林地）"}},{"type":"Feature","id":"luse_a4942b67-7e68-42dd-a6fa-65823ad844dd","geometry":{"type":"Polygon","coordinates":[[[138.98461505833336,36.075],[138.98459109496403,36.075],[138.9845908,36.0749959],[138.98461505833336,36.075]]]},"properties":{"layer":"landuse","class_code":"203","class_label":"山林（樹林地）"}},{"type":"Feature","id":"luse_d68bd8a0-82c3-430d-ac4e-ee97913ca29b","geometry":{"type":"Polygon","coordinates":[[[138.9845464,36.0749996],[138.9845464300242,36.075],[138.98435461458334,36.075],[138.9843402,36.0749889],[138.9843361,36.0749858],[138.9842846,36.0749251],[138.9842661,36.0748798],[138.9842625,36.0748708],[138.9842601,36.0748086],[138.9842615,36.074793],[138.9842655,36.0747499],[138.9842647,36.0747398],[138.9842609,36.0746919],[138.9842592,36.0746713],[138.984239,36.0745687],[138.9842326,36.0745449],[138.9842162,36.0744832],[138.9842111,36.0744156],[138.9842071,36.0743179],[138.9841938,36.0742515],[138.98418,36.0742187],[138.9841656,36.0741843],[138.9841535,36.0741383],[138.9841633,36.0740789],[138.9841816,36.0739686],[138.9841886,36.0739494],[138.9841892,36.0739484],[138.984197,36.0739345],[138.9842085,36.0739168],[138.9842559,36.073879],[138.9842928,36.0738505],[138.9843147,36.0738237],[138.9843745,36.0737991],[138.9844015,36.0737919],[138.9844227,36.0737863],[138.9844675,36.0737737],[138.9845146,36.0737628],[138.9845661,36.0737465],[138.9845908,36.0737359],[138.9846616,36.0737054],[138.984719,36.0736835],[138.9848607,36.0735953],[138.9848759,36.0735807],[138.9848943,36.0735631],[138.9849644,36.0735218],[138.9849887,36.0735071],[138.9849945,36.0734941],[138.9849906,36.0734725],[138.985127,36.0734224],[138.9852329,36.0733946],[138.9853762,36.0733679],[138.9855055,36.0733251],[138.9855814,36.0732847],[138.9856573,36.0732423],[138.9857252,36.0731892],[138.9857669,36.0731164],[138.9857905,36.0730268],[138.9858155,36.0729016],[138.9858415,36.0728487],[138.9858663,36.072818],[138.9858764,36.0727964],[138.985888,36.0727017],[138.9859133,36.0726264],[138.9859716,36.0725567],[138.9859858,36.0725454],[138.9860557,36.0724897],[138.9860879,36.072464],[138.9862884,36.07235],[138.9864006,36.0722932],[138.9864277,36.0722791],[138.9865392,36.0722211],[138.9866069,36.072181],[138.9866321,36.072166],[138.9866999,36.0721177],[138.9867361,36.0720837],[138.9867598,36.0720564],[138.9867771,36.0720209],[138.9868105,36.0719172],[138.9868153,36.0718989],[138.9868396,36.071808],[138.9868457,36.0717635],[138.9868505,36.0717288],[138.9868587,36.0716515],[138.9868674,36.071559],[138.9869138,36.0712814],[138.9869392,36.0711734],[138.9869714,36.0710917],[138.9869773,36.0710816],[138.9870053,36.071034],[138.987048,36.0709761],[138.9870917,36.0709258],[138.9871517,36.0708637],[138.9872252,36.0707917],[138.9872586,36.070759],[138.9872604,36.0707569],[138.9872867,36.0707246],[138.9872967,36.0707105],[138.9873008,36.0707032],[138.9873061,36.0706914],[138.9873114,36.0706739],[138.9873121,36.0706694],[138.9873132,36.0706632],[138.9873135,36.0706584],[138.9873146,36.0706422],[138.9873121,36.0706374],[138.9872793,36.070576],[138.9872788,36.070575],[138.9872292,36.0704865],[138.9872124,36.0704552],[138.9872033,36.0704372],[138.9871899,36.0704073],[138.9871818,36.0703834],[138.9871796,36.0703728],[138.9871782,36.0703577],[138.987179,36.0703426],[138.9871847,36.0703148],[138.9871884,36.0703032],[138.9871973,36.0702844],[138.9872027,36.0702763],[138.9872167,36.0702604],[138.9872312,36.0702476],[138.9872432,36.0702386],[138.9872714,36.070219],[138.9873702,36.0701525],[138.9874331,36.0701102],[138.9875,36.07005937848738],[138.9875,36.07011001253534],[138.9874624,36.0701373],[138.9873296,36.0702267],[138.987305,36.0702435],[138.9872825,36.0702589],[138.9872656,36.0702709],[138.9872513,36.0702829],[138.987241,36.0702945],[138.9872371,36.0703004],[138.9872305,36.0703144],[138.9872276,36.0703232],[138.9872233,36.0703452],[138.9872226,36.0703571],[138.9872245,36.0703732],[138.9872269,36.0703822],[138.9872327,36.070398],[138.9872375,36.0704081],[138.9872525,36.0704401],[138.987266,36.0704655],[138.9873132,36.0705488],[138.9873281,36.0705761],[138.9873512,36.0706217],[138.9873579,36.0706372],[138.987365,36.0706602],[138.9873688,36.0706836],[138.9873693,36.0706942],[138.9873686,36.0707022],[138.9873672,36.0707063],[138.9873631,36.0707135],[138.987351,36.070729],[138.9873028,36.0707816],[138.9871929,36.070888],[138.9871266,36.0709483],[138.9870852,36.0709958],[138.9870446,36.0710511],[138.9870128,36.0711051],[138.9869823,36.0711824],[138.9869601,36.0712974],[138.9869511,36.0713463],[138.9869291,36.0714668],[138.9869115,36.0715628],[138.9869078,36.0716039],[138.986903,36.0716544],[138.9868946,36.0717324],[138.9868835,36.0718138],[138.9868537,36.0719256],[138.9868193,36.0720321],[138.9868187,36.0720334],[138.9867992,36.0720736],[138.9867865,36.0720883],[138.9867712,36.072106],[138.9867315,36.0721431],[138.9866933,36.0721703],[138.9866598,36.0721942],[138.9866411,36.0722053],[138.9865643,36.0722509],[138.9864241,36.0723237],[138.9863304,36.0723712],[138.9863128,36.0723801],[138.9862925,36.0723916],[138.9861192,36.0724901],[138.9860895,36.07251],[138.9860178,36.0725581],[138.9859674,36.0726056],[138.9859597,36.0726206],[138.9859404,36.0726583],[138.9859323,36.0726882],[138.9859308,36.0727037],[138.985929,36.0727225],[138.9859459,36.072849],[138.985946,36.0728494],[138.9859149,36.0729307],[138.9858926,36.0730259],[138.9858605,36.0731415],[138.9858337,36.0731999],[138.985785,36.0732591],[138.9857196,36.07331],[138.9856577,36.0733477],[138.9855732,36.0733869],[138.9855331,36.0734027],[138.9855265,36.0734054],[138.9854795,36.0734239],[138.985369,36.0734651],[138.9852582,36.0735063],[138.9852519,36.0734875],[138.9852507,36.0734837],[138.9852411,36.0734562],[138.9850736,36.073513],[138.984986,36.0735545],[138.9849201,36.073584],[138.9849032,36.0735995],[138.9848863,36.0736151],[138.9848508,36.0736434],[138.9848187,36.0736637],[138.9846939,36.0737142],[138.9845624,36.0737647],[138.9845432,36.0737713],[138.9844902,36.0737896],[138.9844375,36.073793],[138.9844176,36.0737994],[138.9843927,36.0738075],[138.9843353,36.073835],[138.9843055,36.0738596],[138.9843041,36.0738607],[138.9842949,36.0738696],[138.9842671,36.0738967],[138.9842579,36.0739103],[138.9842545,36.0739155],[138.9842252,36.0739596],[138.9842098,36.0740124],[138.984205,36.0741406],[138.9842052,36.0741418],[138.9842069,36.0741507],[138.9842166,36.0742007],[138.9842252,36.0742443],[138.9842444,36.0743254],[138.9842467,36.0744105],[138.9842552,36.0744575],[138.9842605,36.0744866],[138.9842828,36.0745689],[138.9843051,36.0746788],[138.9843089,36.0747023],[138.9843175,36.0747553],[138.9843227,36.0747747],[138.9843335,36.074815],[138.9843549,36.0748542],[138.9843571,36.0748583],[138.9843848,36.0749003],[138.9844351,36.0749402],[138.9844947,36.0749764],[138.9845377,36.0749976],[138.9845464,36.0749996]]]},"properties":{"layer":"landuse","class_code":"204","class_label":"水面（河川水面、湖沼、ため池、用水路、濠、運河水面）"}},{"type":"Feature","id":"luse_a5a5882f-1da0-40d3-a613-68d6f98a99ec","geometry":{"type":"Polygon","coordinates":[[[138.9849162,36.0736274],[138.9849132,36.0736286],[138.9848971,36.073665],[138.9848194,36.0737017],[138.9846793,36.0737571],[138.9845996,36.0738035],[138.9845624,36.0737647],[138.9846939,36.0737142],[138.9848187,36.0736637],[138.9848508,36.0736434],[138.9848863,36.0736151],[138.9849032,36.0735995],[138.9849162,36.0736274]]]},"properties":{"layer":"landuse","class_code":"205","class_label":"その他自然地（原野・牧野、荒れ地（耕作放棄地等自然的状況のもの）、低湿地、河川敷・河原、海浜、湖岸）"}},{"type":"Feature","id":"luse_140fbfa7-a931-43d1-addb-64e47d640d26","geometry":{"type":"Polygon","coordinates":[[[138.9875,36.07049971272722],[138.9874943,36.0705421],[138.9874878,36.0705947],[138.9874687,36.0706408],[138.9874526,36.0706704],[138.9874347,36.0706991],[138.9874195,36.0707209],[138.9873688,36.0706836],[138.987365,36.0706602],[138.9873579,36.0706372],[138.9873512,36.0706217],[138.9873281,36.0705761],[138.9873132,36.0705488],[138.987266,36.0704655],[138.9872525,36.0704401],[138.9872375,36.0704081],[138.9872327,36.070398],[138.9872269,36.0703822],[138.9872245,36.0703732],[138.9872226,36.0703571],[138.9872233,36.0703452],[138.9872276,36.0703232],[138.9872305,36.0703144],[138.9872371,36.0703004],[138.987241,36.0702945],[138.9872513,36.0702829],[138.9872656,36.0702709],[138.9872825,36.0702589],[138.987305,36.0702435],[138.9873296,36.0702267],[138.9874624,36.0701373],[138.9875,36.07011001253534],[138.9875,36.07049971272722]]]},"properties":{"layer":"landuse","class_code":"211","class_label":"住宅用地（住宅、共同住宅、店舗等併用住宅、店舗等併用共同住宅、作業所併用住宅）"}},{"type":"Feature","id":"luse_2148ac3e-85f0-41d8-b2d0-04d82a09e19a","geometry":{"type":"Polygon","coordinates":[[[138.9863711,36.0724768],[138.9863495,36.0724918],[138.9861973,36.0726116],[138.986052,36.0727252],[138.9859862,36.0727849],[138.985946,36.0728494],[138.9859459,36.072849],[138.985929,36.0727225],[138.9859308,36.0727037],[138.9859323,36.0726882],[138.9859404,36.0726583],[138.9859597,36.0726206],[138.9859674,36.0726056],[138.9860178,36.0725581],[138.9860895,36.07251],[138.9861192,36.0724901],[138.9862925,36.0723916],[138.9863711,36.0724768]]]},"properties":{"layer":"landuse","class_code":"211","class_label":"住宅用地（住宅、共同住宅、店舗等併用住宅、店舗等併用共同住宅、作業所併用住宅）"}},{"type":"Feature","id":"luse_18bee7a5-68b1-4aab-b755-c4d7eb710851","geometry":{"type":"Polygon","coordinates":[[[138.987225,36.0729887],[138.9872935,36.0730178],[138.9872441,36.0732152],[138.9872323,36.0732623],[138.9868733,36.0736718],[138.9868299,36.0736259],[138.9868021,36.0735756],[138.9867588,36.073531],[138.9867267,36.0734729],[138.9866908,36.0734501],[138.9866812,36.0734159],[138.9866973,36.073361],[138.9867477,36.0732673],[138.9867877,36.0731857],[138.9868218,36.073116],[138.9868989,36.0730541],[138.987002,36.0730054],[138.9870945,36.0729795],[138.98715,36.0729706],[138.987225,36.0729887]]]},"properties":{"layer":"landuse","class_code":"211","class_label":"住宅用地（住宅、共同住宅、店舗等併用住宅、店舗等併用共同住宅、作業所併用住宅）"}},{"type":"Feature","id":"luse_939398ac-a2d1-4c46-b05c-9163ffa07c64","geometry":{"type":"Polygon","coordinates":[[[138.986203,36.0736096],[138.9859726,36.0738113],[138.985959,36.0738078],[138.9859432,36.0738033],[138.9859157,36.0737954],[138.9858742,36.07378],[138.9858698,36.0737759],[138.9858678,36.0737709],[138.9858679,36.0737657],[138.9858734,36.0737566],[138.9859044,36.0737136],[138.9859148,36.0736976],[138.9859163,36.0736742],[138.9859094,36.0736509],[138.9858837,36.0736124],[138.9858463,36.0735596],[138.9858449,36.0735494],[138.9858488,36.0735401],[138.9858717,36.0735169],[138.9858531,36.0735046],[138.9858371,36.0734943],[138.9858091,36.0735225],[138.9857977,36.0735369],[138.9857997,36.0735539],[138.9858059,36.0735681],[138.9858506,36.0736226],[138.985874,36.0736587],[138.9858771,36.0736711],[138.9858727,36.0736834],[138.9858652,36.0736968],[138.9858351,36.0737384],[138.9858285,36.0737459],[138.9858279,36.0737467],[138.9858238,36.0737479],[138.9858182,36.073747],[138.9857432,36.073716],[138.9856562,36.0736688],[138.9856059,36.0736404],[138.9855738,36.0736295],[138.9855422,36.0736302],[138.9854726,36.0735127],[138.985518,36.0734971],[138.9856182,36.0734573],[138.9857266,36.0734122],[138.9858026,36.073375],[138.9858787,36.0733183],[138.9859433,36.0732453],[138.9859777,36.0731698],[138.9859828,36.0731249],[138.9859911,36.0730486],[138.9860066,36.0729492],[138.9860338,36.0728782],[138.9860648,36.0728285],[138.9861198,36.0727786],[138.9861249,36.0727735],[138.986146,36.072752],[138.9861678,36.0727327],[138.9861733,36.0727278],[138.9862102,36.0727],[138.9862528,36.072668],[138.9863689,36.0725926],[138.9864197,36.0725597],[138.9864578,36.0725327],[138.9865114,36.0724929],[138.9865569,36.0724591],[138.9866618,36.0723896],[138.9867369,36.0723404],[138.9867871,36.0722812],[138.9868481,36.0721983],[138.9869029,36.0721053],[138.9869332,36.0720354],[138.9869625,36.0719441],[138.9869785,36.0718741],[138.9870084,36.0717653],[138.987042,36.0716186],[138.9870799,36.0714312],[138.9871265,36.0712436],[138.9871274,36.0712413],[138.9871151,36.0714359],[138.987152,36.0713027],[138.987252,36.071092],[138.9873837,36.0711335],[138.987453,36.07116],[138.9874051,36.0713169],[138.9872555,36.0716935],[138.9871544,36.0716966],[138.987116,36.071961],[138.9871043,36.0722056],[138.9869202,36.0723127],[138.9868087,36.0724797],[138.9866585,36.0725945],[138.9863964,36.0727837],[138.9862562,36.0728911],[138.9862799,36.0729843],[138.9862676,36.0730242],[138.9865639,36.0729059],[138.9866055,36.0729735],[138.9863662,36.0731971],[138.9865303,36.0733165],[138.9864428,36.0734609],[138.9864394,36.0734629],[138.986203,36.0736096]]]},"properties":{"layer":"landuse","class_code":"211","class_label":"住宅用地（住宅、共同住宅、店舗等併用住宅、店舗等併用共同住宅、作業所併用住宅）"}},{"type":"Feature","id":"luse_71c7abb3-a900-4795-a032-43ddd81b9fd4","geometry":{"type":"Polygon","coordinates":[[[138.9847223,36.074611],[138.9846992,36.0746269],[138.9846779,36.0746312],[138.9846739,36.0746296],[138.9846607,36.0746239],[138.9846496,36.0746099],[138.984632,36.0745972],[138.9845997,36.0745966],[138.984524,36.074602],[138.9844919,36.0746043],[138.9844558,36.0745371],[138.9844359,36.0744698],[138.9844258,36.0744025],[138.9844368,36.0743307],[138.984454,36.0742347],[138.9844665,36.0741575],[138.9844975,36.074047],[138.9845015,36.0740387],[138.9845093,36.074032],[138.9845208,36.0740293],[138.9845211,36.0740293],[138.9845348,36.0740291],[138.9845351,36.0740291],[138.9845478,36.0740385],[138.9846991,36.074151],[138.9847993,36.0742202],[138.9848386,36.0742474],[138.9849667,36.0743436],[138.9850009,36.0743714],[138.98503,36.0743951],[138.98501,36.0744135],[138.9850096,36.0744136],[138.9849415,36.0744461],[138.984872,36.0744813],[138.984813,36.0745199],[138.9848127,36.0745201],[138.9847223,36.074611]]]},"properties":{"layer":"landuse","class_code":"211","class_label":"住宅用地（住宅、共同住宅、店舗等併用住宅、店舗等併用共同住宅、作業所併用住宅）"}},{"type":"Feature","id":"luse_6de25880-c472-4d8a-9207-69a93e7e3225","geometry":{"type":"Polygon","coordinates":[[[138.9855067,36.0747753],[138.9854795,36.0747944],[138.9854791,36.0747944],[138.9854582,36.0747974],[138.9854375,36.0747923],[138.9854298,36.0747794],[138.9854302,36.0747538],[138.9854492,36.07471],[138.9854486,36.0746888],[138.9854424,36.0746659],[138.9854277,36.074645],[138.9854159,36.0746342],[138.9854039,36.0746233],[138.9853791,36.0746088],[138.9852834,36.0745524],[138.9851803,36.0744879],[138.9851723,36.0744829],[138.985153,36.0744733],[138.9851527,36.0744732],[138.9851359,36.0744647],[138.9850866,36.0744377],[138.985054,36.0744128],[138.9850518,36.0744008],[138.9850671,36.0743874],[138.9850304,36.0743594],[138.9850145,36.0743417],[138.9850185,36.074329],[138.9850301,36.0743152],[138.985122,36.0742421],[138.9850943,36.0742273],[138.9852194,36.0740956],[138.9852209,36.0740972],[138.9852631,36.0740695],[138.9852511,36.0740571],[138.9851915,36.0739975],[138.9851436,36.0739398],[138.9851082,36.0738867],[138.9850689,36.0738308],[138.9852433,36.0737571],[138.9851716,36.0736534],[138.9851577,36.0736334],[138.9852183,36.0736191],[138.9852337,36.0736183],[138.985247,36.0736214],[138.9852661,36.0736529],[138.9853002,36.073683],[138.9853408,36.0737031],[138.9853817,36.0737082],[138.9854246,36.0737052],[138.9854742,36.0736931],[138.9855289,36.073677],[138.9855526,36.0736745],[138.985574,36.0736779],[138.9856321,36.0737052],[138.9857015,36.0737381],[138.9857202,36.0737468],[138.9858013,36.0737847],[138.9858366,36.0738085],[138.9858765,36.0738273],[138.9858971,36.0738344],[138.9859148,36.0738407],[138.9859496,36.073852],[138.9859816,36.0738659],[138.9860028,36.0738883],[138.9860164,36.0739104],[138.9860219,36.0739356],[138.9860186,36.073953],[138.9860093,36.0739698],[138.9859864,36.0739812],[138.9858801,36.0740038],[138.9858797,36.0740039],[138.9858394,36.0740143],[138.9858197,36.0740168],[138.9857747,36.0740449],[138.9857502,36.0740652],[138.9856305,36.0741726],[138.9855591,36.0742394],[138.9854512,36.074342],[138.9854778,36.074362],[138.9854595,36.0743809],[138.9854299,36.0743961],[138.9853715,36.0744253],[138.9853891,36.0744474],[138.9854554,36.074418],[138.9854898,36.0743953],[138.9855197,36.0743671],[138.985625,36.0742528],[138.9856883,36.0742865],[138.9856926,36.0742876],[138.9856737,36.0742948],[138.9856693,36.07432],[138.9856955,36.0743357],[138.9858067,36.0742974],[138.9858445,36.0743528],[138.9857471,36.0744542],[138.9856515,36.0744276],[138.9855434,36.0746417],[138.9856083,36.0746637],[138.9855936,36.0746812],[138.9855861,36.0747518],[138.9855583,36.0747778],[138.9855701,36.0747634],[138.9855287,36.0747422],[138.9855067,36.0747753]]]},"properties":{"layer":"landuse","class_code":"211","class_label":"住宅用地（住宅、共同住宅、店舗等併用住宅、店舗等併用共同住宅、作業所併用住宅）"}},{"type":"Feature","id":"luse_040a1eda-11fc-49d2-b9c2-eccb9c158092","geometry":{"type":"Polygon","coordinates":[[[138.98507142588653,36.075],[138.98476497687074,36.075],[138.9847274,36.0749611],[138.9846246,36.0748134],[138.9846228,36.0747997],[138.9846274,36.0747883],[138.984663,36.0747355],[138.9846711,36.0747233],[138.9847183,36.0746617],[138.9847462,36.0746271],[138.9848291,36.074539],[138.984892,36.0744961],[138.9849609,36.0744602],[138.9849644,36.0744584],[138.9850079,36.0744356],[138.9850128,36.0744355],[138.9850258,36.0744353],[138.9850688,36.0744517],[138.9851239,36.0744799],[138.9851597,36.0744978],[138.9852702,36.0745668],[138.9853891,36.0746368],[138.9853994,36.0746495],[138.9854102,36.0746628],[138.9854126,36.0746775],[138.9854135,36.0746903],[138.9854046,36.0747084],[138.9853834,36.0747538],[138.9853852,36.0747875],[138.9854062,36.0748222],[138.9854555,36.0748344],[138.9852424,36.0749226],[138.9852183,36.0749126],[138.9852694,36.074819],[138.9849994,36.0747076],[138.9849344,36.0748054],[138.9848779,36.0749186],[138.9850723,36.0749915],[138.98507142588653,36.075]]]},"properties":{"layer":"landuse","class_code":"211","class_label":"住宅用地（住宅、共同住宅、店舗等併用住宅、店舗等併用共同住宅、作業所併用住宅）"}},{"type":"Feature","id":"luse_c5582cde-9cbd-4b9f-acad-c40b85edb700","geometry":{"type":"Polygon","coordinates":[[[138.9852582,36.0735063],[138.9852569,36.0735068],[138.985111,36.0735561],[138.9850651,36.0735716],[138.9850625,36.0735726],[138.9849162,36.0736274],[138.9849032,36.0735995],[138.9849201,36.073584],[138.984986,36.0735545],[138.9850736,36.073513],[138.9852411,36.0734562],[138.9852507,36.0734837],[138.9852519,36.0734875],[138.9852582,36.0735063]]]},"properties":{"layer":"landuse","class_code":"212","class_label":"商業用地（業務施設、商業施設、宿泊施設、商業系複合施設）"}},{"type":"Feature","id":"luse_9c4d37a2-602c-4d89-a2aa-2d5e6b8ece49","geometry":{"type":"Polygon","coordinates":[[[138.9851716,36.0736534],[138.9852433,36.0737571],[138.9850689,36.0738308],[138.9849979,36.0737172],[138.9849952,36.073711],[138.9849868,36.0736913],[138.9851053,36.0736458],[138.9851577,36.0736334],[138.9851716,36.0736534]]]},"properties":{"layer":"landuse","class_code":"212","class_label":"商業用地（業務施設、商業施設、宿泊施設、商業系複合施設）"}},{"type":"Feature","id":"luse_7053746a-59e7-429a-99f0-36027dbc48a8","geometry":{"type":"Polygon","coordinates":[[[138.9864948,36.0723919],[138.9863711,36.0724768],[138.9862925,36.0723916],[138.9863128,36.0723801],[138.9863304,36.0723712],[138.9864241,36.0723237],[138.9864948,36.0723919]]]},"properties":{"layer":"landuse","class_code":"214","class_label":"公益施設用地（官公庁施設、文教厚生施設、供給処理施設）"}},{"type":"Feature","id":"luse_44a897a2-7087-46d2-bd9a-4d4496393dcf","geometry":{"type":"Polygon","coordinates":[[[138.9845996,36.0738035],[138.9845391,36.0738613],[138.9844903,36.0739247],[138.9844529,36.0739958],[138.9844431,36.0740194],[138.9844402,36.0740468],[138.9844133,36.0741449],[138.9843959,36.0742262],[138.9843949,36.0742308],[138.9842166,36.0742007],[138.9842069,36.0741507],[138.9842052,36.0741418],[138.984205,36.0741406],[138.9842098,36.0740124],[138.9842252,36.0739596],[138.9842545,36.0739155],[138.9842579,36.0739103],[138.9842671,36.0738967],[138.9842949,36.0738696],[138.9843041,36.0738607],[138.9843055,36.0738596],[138.9843353,36.073835],[138.9843927,36.0738075],[138.9844176,36.0737994],[138.9844375,36.073793],[138.9844902,36.0737896],[138.9845432,36.0737713],[138.9845624,36.0737647],[138.9845996,36.0738035]]]},"properties":{"layer":"landuse","class_code":"214","class_label":"公益施設用地（官公庁施設、文教厚生施設、供給処理施設）"}},{"type":"Feature","id":"luse_ea023e84-8f8b-44c9-8c5c-0a93f3ae0360","geometry":{"type":"Polygon","coordinates":[[[138.9849989,36.0742986],[138.9849883,36.0743044],[138.9849763,36.0743061],[138.9849605,36.0743022],[138.9848607,36.0742272],[138.9847212,36.0741308],[138.9845249,36.0739855],[138.9845497,36.073937],[138.9846008,36.073886],[138.9846451,36.0738454],[138.9847145,36.0738058],[138.984848,36.0737454],[138.9849507,36.0737013],[138.984965,36.0737289],[138.9850394,36.0738435],[138.9850756,36.0738931],[138.9850624,36.0739119],[138.9851005,36.0739653],[138.985163,36.0740359],[138.9852194,36.0740956],[138.9850943,36.0742273],[138.9850907,36.0742255],[138.9849989,36.0742986]]]},"properties":{"layer":"landuse","class_code":"214","class_label":"公益施設用地（官公庁施設、文教厚生施設、供給処理施設）"}},{"type":"Feature","id":"luse_afeff8bd-f8eb-440d-b329-f4fe8c797687","geometry":{"type":"Polygon","coordinates":[[[138.9856689,36.0746716],[138.9856163,36.0746541],[138.9856083,36.0746637],[138.9855434,36.0746417],[138.9856515,36.0744276],[138.9857471,36.0744542],[138.9857708,36.0744608],[138.9857162,36.0745789],[138.9856689,36.0746716]]]},"properties":{"layer":"landuse","class_code":"214","class_label":"公益施設用地（官公庁施設、文教厚生施設、供給処理施設）"}},{"type":"Feature","id":"luse_a86c3a1c-8541-4585-b765-32b6daaca77f","geometry":{"type":"Polygon","coordinates":[[[138.98518592317262,36.075],[138.9852354,36.0749402],[138.9852424,36.0749226],[138.9854555,36.0748344],[138.985476,36.0748315],[138.9854991,36.0748282],[138.9855407,36.0747991],[138.9855444,36.0747946],[138.9855306,36.074836],[138.9855319,36.0749222],[138.9855136,36.0749477],[138.98541336266135,36.075],[138.98518592317262,36.075]]]},"properties":{"layer":"landuse","class_code":"214","class_label":"公益施設用地（官公庁施設、文教厚生施設、供給処理施設）"}},{"type":"Feature","id":"luse_536da41f-ab64-4a59-a1d4-b5c20539dbb9","geometry":{"type":"Polygon","coordinates":[[[138.9867069,36.0722466],[138.986668,36.0722781],[138.986599,36.0723217],[138.9865128,36.0723798],[138.9864948,36.0723919],[138.9864241,36.0723237],[138.9865643,36.0722509],[138.9866411,36.0722053],[138.9867069,36.0722466]]]},"properties":{"layer":"landuse","class_code":"223","class_label":"その他④（その他①～③以外の用途に供されている都市的土地利用（建物跡地、資材置場、改変工事中の土地）、法面（道路、造成地等の主利用に含まれない法面））"}},{"type":"Feature","id":"luse_afb8c80a-51a1-40db-a50b-56d062129a25","geometry":{"type":"Polygon","coordinates":[[[138.984445,36.0746991],[138.9845119,36.0747703],[138.9845388,36.0748017],[138.9845616,36.0748313],[138.9845759,36.0748536],[138.9845764,36.0748698],[138.9845708,36.0748908],[138.9845607,36.0749411],[138.9845465,36.074998],[138.9845464,36.0749996],[138.9845377,36.0749976],[138.9844947,36.0749764],[138.9844351,36.0749402],[138.9843848,36.0749003],[138.9843571,36.0748583],[138.9843549,36.0748542],[138.9843335,36.074815],[138.9843227,36.0747747],[138.984445,36.0746991]]]},"properties":{"layer":"landuse","class_code":"219","class_label":"農林漁業施設用地（農林漁業用施設）"}}]}