{"type":"FeatureCollection","properties":{"mesh_code":"54390090","source":"PLATEAU秩父市2025","layer":"landuse"},"features":[{"type":"Feature","id":"luse_3b1e9504-f08b-496f-981a-465628604192","geometry":{"type":"Polygon","coordinates":[[[139.00303688816936,36.075],[139.0030014,36.075059],[139.0029757,36.0750973],[139.0029693,36.0751232],[139.0029604,36.0752304],[139.0029469,36.0752678],[139.0029331,36.0752915],[139.002915,36.0753087],[139.0029087,36.0753149],[139.0028186,36.0753771],[139.0027761,36.0754185],[139.0027514,36.0754387],[139.0027337,36.0754531],[139.002687,36.0754797],[139.0026349,36.0754943],[139.0025905,36.075496],[139.0025901,36.075496],[139.0025141,36.0754913],[139.0025135,36.0754912],[139.0024574,36.0754805],[139.0024288,36.0754695],[139.0024048,36.0754579],[139.0023776,36.0754386],[139.0023618,36.0754037],[139.0023414,36.0753385],[139.0023163,36.0752435],[139.0023076,36.0752105],[139.0022808,36.0751084],[139.0022497299363,36.075],[139.00303688816936,36.075]]]},"properties":{"layer":"landuse","class_code":"203","class_label":"山林（樹林地）"}},{"type":"Feature","id":"luse_d6c85c0c-8944-4889-a16d-fc26380ede87","geometry":{"type":"Polygon","coordinates":[[[139.0,36.083333333333336],[139.0,36.075],[139.0022033875,36.075],[139.0022065,36.075008],[139.0022374,36.0751162],[139.0022641,36.075218],[139.0022982,36.0753467],[139.0023145,36.0754049],[139.0023173,36.0754142],[139.0023274,36.0754513],[139.0023362,36.0754685],[139.0023388,36.0754736],[139.0023606,36.075495],[139.0023805,36.075507],[139.0023974,36.0755172],[139.0024251,36.0755279],[139.002435,36.0755317],[139.0024353,36.0755318],[139.0025033,36.0755448],[139.0025891,36.0755501],[139.0025894,36.0755501],[139.0026475,36.0755479],[139.0027178,36.0755284],[139.0027717,36.0754975],[139.0027768,36.0754946],[139.0028254,36.0754549],[139.0028698,36.0754117],[139.0029403,36.0753404],[139.0029709,36.0753111],[139.0029885,36.0752807],[139.0030044,36.0752369],[139.0030136,36.0751279],[139.003018,36.0751098],[139.003041,36.0750756],[139.00308628560884,36.075],[139.01042596558705,36.075],[139.0104245,36.0750005],[139.010188,36.0750644],[139.0101571,36.0750727],[139.0100858,36.0750977],[139.0100366,36.0751303],[139.0099866,36.0751853],[139.0098848,36.0753157],[139.0097979,36.0754222],[139.0096876,36.0755632],[139.009677,36.075567],[139.009666,36.0755624],[139.0096432,36.0754517],[139.0095803,36.0751955],[139.00952863656894,36.075],[139.00950586455195,36.075],[139.0095586,36.0751991],[139.0096213,36.0754549],[139.0096441,36.0755648],[139.009651,36.075621],[139.0096005,36.0757007],[139.0095426,36.0758167],[139.0095072,36.0759118],[139.0094961,36.0759671],[139.0094943,36.0760029],[139.0094928,36.0760386],[139.0094885,36.0760656],[139.0094841,36.0760925],[139.0094712,36.0761203],[139.0094422,36.0761508],[139.0093468,36.0762212],[139.0092797,36.076271],[139.0092321,36.0763158],[139.0091824,36.0763666],[139.0091326,36.0764117],[139.0091054,36.0764364],[139.0087738,36.0766749],[139.0085831,36.0768119],[139.0084867,36.07689],[139.0084375,36.0769349],[139.0083481,36.0770744],[139.0082922,36.0771259],[139.0082417,36.0771653],[139.0082378,36.0771685],[139.0081167,36.0772698],[139.0080367,36.077352],[139.0079858,36.0774043],[139.0079526,36.0774444],[139.0079026,36.0775048],[139.00786,36.0775853],[139.0078583,36.0775884],[139.0078225,36.0776576],[139.0077605,36.0778106],[139.007741,36.0778412],[139.007717,36.077869],[139.0076935,36.0778896],[139.007653,36.0779084],[139.0076376,36.0779241],[139.0075751,36.0780436],[139.0075268,36.0781356],[139.0075984,36.0781603],[139.0077085,36.0779501],[139.0077494,36.0778869],[139.0077698,36.0778552],[139.0077912,36.0778211],[139.0078538,36.0776672],[139.007889,36.0775989],[139.0078902,36.0775968],[139.0079319,36.0775177],[139.0079962,36.0774401],[139.0080127,36.0774202],[139.0080423,36.0773898],[139.0081428,36.0772865],[139.0082609,36.0771879],[139.0082644,36.077185],[139.0083165,36.0771446],[139.0083758,36.0770898],[139.0084653,36.0769504],[139.0085109,36.0769087],[139.0085716,36.0768596],[139.0086062,36.0768316],[139.0091289,36.0764556],[139.0092079,36.0763839],[139.0092577,36.076333],[139.0092766,36.0763153],[139.0093036,36.0762898],[139.0093692,36.0762412],[139.0094669,36.0761691],[139.0095009,36.0761336],[139.0095167,36.0760991],[139.0095261,36.0760409],[139.0095294,36.0759698],[139.0095397,36.0759179],[139.009574,36.0758257],[139.009631,36.075712],[139.0097165,36.0755766],[139.0097713,36.0755068],[139.009826,36.0754369],[139.0099128,36.0753304],[139.0100142,36.0752005],[139.0100609,36.0751491],[139.0100818,36.0751352],[139.0101033,36.0751211],[139.0101686,36.0750981],[139.0104362,36.0750259],[139.0105119,36.075],[139.0105119,36.075],[139.0125,36.075],[139.0125,36.083333333333336],[139.0,36.083333333333336]]]},"properties":{"layer":"landuse","class_code":"203","class_label":"山林（樹林地）"}},{"type":"Feature","id":"luse_ceced96a-6f6f-441f-8972-6ee9d5cd897b","geometry":{"type":"MultiPolygon","coordinates":[[[[139.0105119,36.075],[139.0105119,36.075],[139.0104362,36.0750259],[139.0101686,36.0750981],[139.0101033,36.0751211],[139.0100818,36.0751352],[139.0100609,36.0751491],[139.0100142,36.0752005],[139.0099128,36.0753304],[139.009826,36.0754369],[139.0097713,36.0755068],[139.0097165,36.0755766],[139.009631,36.075712],[139.009574,36.0758257],[139.0095397,36.0759179],[139.0095294,36.0759698],[139.0095261,36.0760409],[139.0095167,36.0760991],[139.0095009,36.0761336],[139.0094669,36.0761691],[139.0093692,36.0762412],[139.0093036,36.0762898],[139.0092766,36.0763153],[139.0092577,36.076333],[139.0092079,36.0763839],[139.0091289,36.0764556],[139.0086062,36.0768316],[139.0085716,36.0768596],[139.0085109,36.0769087],[139.0084653,36.0769504],[139.0083758,36.0770898],[139.0083165,36.0771446],[139.0082644,36.077185],[139.0082609,36.0771879],[139.0081428,36.0772865],[139.0080423,36.0773898],[139.0080127,36.0774202],[139.0079962,36.0774401],[139.0079319,36.0775177],[139.0078902,36.0775968],[139.007889,36.0775989],[139.0078538,36.0776672],[139.0077912,36.0778211],[139.0077698,36.0778552],[139.0077494,36.0778869],[139.0077085,36.0779501],[139.0075984,36.0781603],[139.0075268,36.0781356],[139.0075751,36.0780436],[139.0076376,36.0779241],[139.007653,36.0779084],[139.0076935,36.0778896],[139.007717,36.077869],[139.007741,36.0778412],[139.0077605,36.0778106],[139.0078225,36.0776576],[139.0078583,36.0775884],[139.00786,36.0775853],[139.0079026,36.0775048],[139.0079526,36.0774444],[139.0079858,36.0774043],[139.0080367,36.077352],[139.0081167,36.0772698],[139.0082378,36.0771685],[139.0082417,36.0771653],[139.0082922,36.0771259],[139.0083481,36.0770744],[139.0084375,36.0769349],[139.0084867,36.07689],[139.0085831,36.0768119],[139.0087738,36.0766749],[139.0091054,36.0764364],[139.0091326,36.0764117],[139.0091824,36.0763666],[139.0092321,36.0763158],[139.0092797,36.076271],[139.0093468,36.0762212],[139.0094422,36.0761508],[139.0094712,36.0761203],[139.0094841,36.0760925],[139.0094885,36.0760656],[139.0094928,36.0760386],[139.0094943,36.0760029],[139.0094961,36.0759671],[139.0095072,36.0759118],[139.0095426,36.0758167],[139.0096005,36.0757007],[139.009651,36.075621],[139.0096441,36.0755648],[139.0096213,36.0754549],[139.0095586,36.0751991],[139.00950586455195,36.075],[139.00952863656894,36.075],[139.0095803,36.0751955],[139.0096432,36.0754517],[139.009666,36.0755624],[139.009677,36.075567],[139.0096876,36.0755632],[139.0097979,36.0754222],[139.0098848,36.0753157],[139.0099866,36.0751853],[139.0100366,36.0751303],[139.0100858,36.0750977],[139.0101571,36.0750727],[139.010188,36.0750644],[139.0104245,36.0750005],[139.01042596558705,36.075],[139.00308628560884,36.075],[139.003041,36.0750756],[139.003018,36.0751098],[139.0030136,36.0751279],[139.0030044,36.0752369],[139.0029885,36.0752807],[139.0029709,36.0753111],[139.0029403,36.0753404],[139.0028698,36.0754117],[139.0028254,36.0754549],[139.0027768,36.0754946],[139.0027717,36.0754975],[139.0027178,36.0755284],[139.0026475,36.0755479],[139.0025894,36.0755501],[139.0025891,36.0755501],[139.0025033,36.0755448],[139.0024353,36.0755318],[139.002435,36.0755317],[139.0024251,36.0755279],[139.0023974,36.0755172],[139.0023805,36.075507],[139.0023606,36.075495],[139.0023388,36.0754736],[139.0023362,36.0754685],[139.0023274,36.0754513],[139.0023173,36.0754142],[139.0023145,36.0754049],[139.0022982,36.0753467],[139.0022641,36.075218],[139.0022374,36.0751162],[139.0022065,36.075008],[139.0022033875,36.075],[139.0105119,36.075]]],[[[139.0022497299363,36.075],[139.0022808,36.0751084],[139.0023076,36.0752105],[139.0023163,36.0752435],[139.0023414,36.0753385],[139.0023618,36.0754037],[139.0023776,36.0754386],[139.0024048,36.0754579],[139.0024288,36.0754695],[139.0024574,36.0754805],[139.0025135,36.0754912],[139.0025141,36.0754913],[139.0025901,36.075496],[139.0025905,36.075496],[139.0026349,36.0754943],[139.002687,36.0754797],[139.0027337,36.0754531],[139.0027514,36.0754387],[139.0027761,36.0754185],[139.0028186,36.0753771],[139.0029087,36.0753149],[139.002915,36.0753087],[139.0029331,36.0752915],[139.0029469,36.0752678],[139.0029604,36.0752304],[139.0029693,36.0751232],[139.0029757,36.0750973],[139.0030014,36.075059],[139.00303688816936,36.075],[139.0022497299363,36.075]]]]},"properties":{"layer":"landuse","class_code":"215","class_label":"道路用地（道路、駅前広場、私有地内に存在する沿道用途の「私道」または、私有地の一部分であるものの公共の通行に供されている土地の部分）"}}]}