{"type":"FeatureCollection","properties":{"mesh_code":"54390113","source":"PLATEAU秩父市2025","layer":"landuse"},"features":[{"type":"Feature","id":"luse_f6789c83-379e-4386-9bba-c18a5456a7c4","geometry":{"type":"Polygon","coordinates":[[[139.16464501201642,36.00833333333333],[139.1645058,36.0084629],[139.1644958,36.0084712],[139.1644805,36.00851],[139.164473,36.0085344],[139.1644675,36.0085615],[139.1644622,36.008594],[139.1644624,36.0086211],[139.1644606,36.0086888],[139.1644656,36.0087798],[139.1644659,36.0088339],[139.1644727,36.0088655],[139.1644866,36.0089439],[139.1644991,36.0089889],[139.1645013,36.0089938],[139.1645687,36.0091434],[139.1646004,36.0092089],[139.1646109,36.0092794],[139.1646113,36.0093064],[139.1645329,36.0096083],[139.1644955,36.0096826],[139.1644923,36.0096888],[139.1644869,36.0097095],[139.1644792,36.0097384],[139.1644084,36.0101149],[139.1643808,36.0101582],[139.164337,36.0102414],[139.1642093,36.0104069],[139.1639837,36.0107128],[139.1639395,36.0107841],[139.1639002,36.0108475],[139.1638738,36.0108783],[139.1638829,36.0109233],[139.1638056,36.0109777],[139.1637734,36.0109715],[139.1637626,36.0110356],[139.1636911,36.0111333],[139.1636907,36.0113729],[139.1636437,36.011359],[139.1636434,36.0113589],[139.1636309,36.0113572],[139.1635647,36.0113483],[139.1635643,36.0113482],[139.1635576,36.0113479],[139.1635013,36.0113448],[139.1634882,36.0113462],[139.1634826,36.0113144],[139.1634797,36.011277],[139.1634808,36.0112254],[139.1634786,36.0111999],[139.1634639,36.0111228],[139.1634587,36.0110931],[139.1634586,36.0110657],[139.163463,36.0110386],[139.163488,36.0109752],[139.1634962,36.0109557],[139.16351,36.0109225],[139.1635161,36.0108869],[139.1635179,36.0108312],[139.1635135,36.0107226],[139.1635181,36.010607],[139.1635277,36.0105197],[139.1635457,36.0104144],[139.1635482,36.0103818],[139.1635456,36.0103374],[139.1635447,36.0102851],[139.163549,36.0102489],[139.1635595,36.0102204],[139.1635755,36.0101957],[139.163602,36.0101712],[139.1636655,36.0101312],[139.1636659,36.010131],[139.1637248,36.0101071],[139.1637829,36.010081],[139.1638161,36.0100603],[139.1638401,36.0100343],[139.1638593,36.009999],[139.1638703,36.0099586],[139.1638864,36.0098692],[139.1638861,36.0098154],[139.1638734,36.009785],[139.163851,36.0097609],[139.1638174,36.0097443],[139.1637921,36.0097375],[139.1637878,36.0097363],[139.1637874,36.0097363],[139.1637396,36.0097335],[139.163716,36.0097341],[139.16359,36.0097371],[139.1635455,36.0097368],[139.1635132,36.0097329],[139.1634892,36.0097243],[139.1634643,36.0097098],[139.1634419,36.0096865],[139.163413,36.0096449],[139.1633896,36.0096062],[139.1633658,36.0095748],[139.163334,36.0095484],[139.1632935,36.0095246],[139.163254,36.0095078],[139.1632204,36.0094992],[139.1632026,36.0094945],[139.1631721,36.0094827],[139.163143,36.0094633],[139.163074,36.009403],[139.1629929,36.0093279],[139.1629508,36.0092865],[139.1629387,36.0092697],[139.1629358,36.0092493],[139.1629382,36.0092286],[139.1629595,36.0091688],[139.1629728,36.0091315],[139.1629752,36.0091077],[139.1629704,36.0090799],[139.1629568,36.0090447],[139.1629194,36.0089701],[139.1629084,36.0089335],[139.1629057,36.0089067],[139.1629138,36.0088415],[139.1629203,36.0087955],[139.1629189,36.0087698],[139.1629098,36.008703],[139.1629073,36.0086583],[139.1629102,36.0086185],[139.1629182,36.0085919],[139.162936,36.0085646],[139.1629749,36.0085177],[139.1629885,36.0084987],[139.1630004,36.0084821],[139.1630124,36.0084459],[139.1630142,36.0084188],[139.1630108,36.0083968],[139.1630005,36.0083676],[139.1629755318258,36.00833333333333],[139.16464501201642,36.00833333333333]]]},"properties":{"layer":"landuse","class_code":"203","class_label":"山林（樹林地）"}},{"type":"Feature","id":"luse_81e62771-5ec8-45dd-a7df-fbf7c9b87430","geometry":{"type":"Polygon","coordinates":[[[139.1636452,36.0115167],[139.1636168,36.011672],[139.1636101,36.0116865],[139.163463,36.0119397],[139.1634324,36.0120164],[139.1634125,36.0121435],[139.1634029,36.01224],[139.1633712,36.0123218],[139.1633747,36.0123084],[139.1633781,36.0122898],[139.1633782,36.0122731],[139.1633772,36.0122543],[139.1633583,36.0121584],[139.1633525,36.012128],[139.1633515,36.0121101],[139.1633521,36.0120868],[139.1633738,36.0119587],[139.1633801,36.0119382],[139.1633991,36.0118945],[139.1634733,36.0117651],[139.1636035,36.0115333],[139.1636166,36.0115242],[139.1636337,36.0115165],[139.1636452,36.0115167]]]},"properties":{"layer":"landuse","class_code":"203","class_label":"山林（樹林地）"}},{"type":"Feature","id":"luse_46163df1-1e49-4229-8670-544eae4c2309","geometry":{"type":"Polygon","coordinates":[[[139.1631931,36.0129858],[139.1631696,36.0132465],[139.1631399,36.0132639],[139.1630438,36.0132989],[139.1629714,36.0133205],[139.1630442,36.013291],[139.1631341,36.0132471],[139.163148,36.0132382],[139.1631578,36.0132297],[139.1631636,36.0132215],[139.1631665,36.013213],[139.1631677,36.0132027],[139.16317,36.0131072],[139.1631727,36.0130804],[139.1631921,36.012954],[139.1631976,36.0129289],[139.1632643,36.012675],[139.1631931,36.0129858]]]},"properties":{"layer":"landuse","class_code":"203","class_label":"山林（樹林地）"}},{"type":"Feature","id":"luse_3455100f-fcf4-4fd9-9fee-34b102b20c5e","geometry":{"type":"Polygon","coordinates":[[[139.1625,36.00833333333333],[139.16294818995766,36.00833333333333],[139.1629534,36.0083383],[139.1629797,36.0083748],[139.162989,36.0084004],[139.1629921,36.0084194],[139.1629904,36.008443],[139.1629798,36.0084752],[139.1629561,36.0085081],[139.1629168,36.0085554],[139.1628972,36.0085855],[139.1628882,36.0086157],[139.162885,36.0086582],[139.1628877,36.0087044],[139.1628968,36.0087712],[139.1628981,36.008795],[139.1628916,36.0088396],[139.1628835,36.0089064],[139.1628864,36.0089363],[139.1628983,36.0089757],[139.1629359,36.0090508],[139.1629484,36.0090839],[139.1629529,36.0091082],[139.1629507,36.0091283],[139.1629382,36.0091637],[139.1629163,36.0092251],[139.1629135,36.0092495],[139.1629171,36.0092755],[139.1629324,36.0092969],[139.162976,36.0093396],[139.1630574,36.0094151],[139.1630631,36.0094201],[139.1631278,36.0094765],[139.1631601,36.0094981],[139.1631945,36.0095113],[139.1632353,36.0095219],[139.1632455,36.0095245],[139.1632818,36.00954],[139.1633195,36.0095621],[139.163348,36.0095859],[139.1633701,36.0096149],[139.1633934,36.0096533],[139.1634233,36.0096966],[139.1634489,36.0097229],[139.163478,36.0097399],[139.1635069,36.0097505],[139.1635438,36.0097548],[139.1635902,36.0097552],[139.1637269,36.0097518],[139.1637391,36.0097515],[139.1637831,36.0097541],[139.1637834,36.0097542],[139.1638064,36.0097603],[139.1638081,36.0097607],[139.1638359,36.0097745],[139.1638534,36.0097935],[139.1638639,36.0098184],[139.1638643,36.0098679],[139.1638483,36.0099553],[139.1638381,36.0099933],[139.1638209,36.0100251],[139.1638003,36.0100475],[139.1637707,36.0100659],[139.1637146,36.0100912],[139.163654,36.0101158],[139.1635865,36.010158],[139.1635569,36.0101853],[139.1635389,36.0102135],[139.1635272,36.0102454],[139.1635225,36.0102843],[139.1635234,36.010338],[139.163526,36.0103817],[139.1635236,36.0104127],[139.1635056,36.0105177],[139.1634959,36.0106058],[139.1634913,36.0107226],[139.1634957,36.0108313],[139.1634937,36.0108854],[139.1634883,36.0109183],[139.163467,36.0109695],[139.1634413,36.0110346],[139.1634363,36.0110645],[139.1634365,36.0110943],[139.1634419,36.0111255],[139.1634565,36.0112019],[139.1634585,36.011225],[139.1634532,36.01126],[139.1634391,36.0112919],[139.1634328,36.0113301],[139.1634322,36.0113554],[139.1634043,36.0113634],[139.163347,36.0113869],[139.1632661,36.0114263],[139.1631784,36.0114641],[139.1631087,36.0114929],[139.1630603,36.0115103],[139.1629901,36.0115278],[139.1629898,36.0115279],[139.1629424,36.0115367],[139.1627427,36.0115607],[139.1625415,36.0115933],[139.1625,36.01160014994641],[139.1625,36.00833333333333]]]},"properties":{"layer":"landuse","class_code":"203","class_label":"山林（樹林地）"}},{"type":"Feature","id":"luse_05639082-a818-4b2f-ba50-35e0daeb5260","geometry":{"type":"Polygon","coordinates":[[[139.1625,36.01164611777864],[139.1625329,36.0116407],[139.1625522,36.0116375],[139.1625526,36.0116374],[139.1627519,36.0116051],[139.1627523,36.0116051],[139.1629527,36.0115811],[139.1630625,36.0115604],[139.1630628,36.0115604],[139.1631421,36.0115391],[139.1632092,36.011512],[139.163299,36.0114733],[139.1633791,36.0114343],[139.1634303,36.0114133],[139.1634667,36.0114028],[139.1634859,36.0114009],[139.1635031,36.0113992],[139.1635568,36.011402],[139.163606,36.0114087],[139.1636263,36.0114114],[139.1636267,36.0114115],[139.163681,36.0114277],[139.1636501,36.0114897],[139.1636468,36.0115078],[139.1636311,36.0115074],[139.1636103,36.0115168],[139.1635944,36.0115276],[139.1634632,36.0117613],[139.1633888,36.0118911],[139.1633695,36.0119356],[139.1633629,36.0119571],[139.163341,36.0120861],[139.1633403,36.0121103],[139.1633414,36.0121289],[139.1633474,36.0121598],[139.1633663,36.0122552],[139.163367,36.0122732],[139.1633669,36.0122892],[139.1633636,36.0123069],[139.1633594,36.0123229],[139.1633057,36.0124904],[139.1633041,36.0124954],[139.1632679,36.0125889],[139.1632629,36.0126018],[139.1632701,36.0126068],[139.1632626,36.0126382],[139.1631866,36.0129272],[139.1631811,36.0129527],[139.1631617,36.0130794],[139.1631589,36.0131068],[139.1631566,36.0132022],[139.1631555,36.0132114],[139.1631533,36.013218],[139.1631487,36.0132244],[139.1631405,36.0132315],[139.1631279,36.0132396],[139.1630388,36.0132831],[139.1629386,36.0133238],[139.1628917,36.0133403],[139.1628445,36.0133526],[139.162786,36.0133657],[139.1626362,36.0133939],[139.1625968,36.0134043],[139.1625568,36.0134119],[139.1625205,36.0134257],[139.1625157,36.0134282],[139.1625,36.01343324384464],[139.1625,36.01164611777864]]]},"properties":{"layer":"landuse","class_code":"203","class_label":"山林（樹林地）"}},{"type":"Feature","id":"luse_80a5adc0-9aac-4f5f-858f-91de60328491","geometry":{"type":"Polygon","coordinates":[[[139.1636166,36.0115242],[139.1636035,36.0115333],[139.1634733,36.0117651],[139.1633991,36.0118945],[139.1633801,36.0119382],[139.1633738,36.0119587],[139.1633521,36.0120868],[139.1633515,36.0121101],[139.1633525,36.012128],[139.1633583,36.0121584],[139.1633772,36.0122543],[139.1633782,36.0122731],[139.1633781,36.0122898],[139.1633747,36.0123084],[139.1633712,36.0123218],[139.1633041,36.0124954],[139.1633057,36.0124904],[139.1633594,36.0123229],[139.1633636,36.0123069],[139.1633669,36.0122892],[139.163367,36.0122732],[139.1633663,36.0122552],[139.1633474,36.0121598],[139.1633414,36.0121289],[139.1633403,36.0121103],[139.163341,36.0120861],[139.1633629,36.0119571],[139.1633695,36.0119356],[139.1633888,36.0118911],[139.1634632,36.0117613],[139.1635944,36.0115276],[139.1636103,36.0115168],[139.1636311,36.0115074],[139.1636468,36.0115078],[139.1636452,36.0115167],[139.1636337,36.0115165],[139.1636166,36.0115242]]]},"properties":{"layer":"landuse","class_code":"215","class_label":"道路用地（道路、駅前広場、私有地内に存在する沿道用途の「私道」または、私有地の一部分であるものの公共の通行に供されている土地の部分）"}},{"type":"Feature","id":"luse_83840244-9016-4ed8-86f3-8b1547995ea0","geometry":{"type":"Polygon","coordinates":[[[139.1632786,36.0126126],[139.1632643,36.012675],[139.1631976,36.0129289],[139.1631921,36.012954],[139.1631727,36.0130804],[139.16317,36.0131072],[139.1631677,36.0132027],[139.1631665,36.013213],[139.1631636,36.0132215],[139.1631578,36.0132297],[139.163148,36.0132382],[139.1631341,36.0132471],[139.1630442,36.013291],[139.1629714,36.0133205],[139.1628602,36.0133536],[139.1625968,36.0134043],[139.1626362,36.0133939],[139.162786,36.0133657],[139.1628445,36.0133526],[139.1628917,36.0133403],[139.1629386,36.0133238],[139.1630388,36.0132831],[139.1631279,36.0132396],[139.1631405,36.0132315],[139.1631487,36.0132244],[139.1631533,36.013218],[139.1631555,36.0132114],[139.1631566,36.0132022],[139.1631589,36.0131068],[139.1631617,36.0130794],[139.1631811,36.0129527],[139.1631866,36.0129272],[139.1632626,36.0126382],[139.1632701,36.0126068],[139.1632786,36.0126126]]]},"properties":{"layer":"landuse","class_code":"215","class_label":"道路用地（道路、駅前広場、私有地内に存在する沿道用途の「私道」または、私有地の一部分であるものの公共の通行に供されている土地の部分）"}},{"type":"Feature","id":"luse_801871fd-d6db-4619-8503-c22a429830b8","geometry":{"type":"Polygon","coordinates":[[[139.1625,36.013436399297426],[139.1625,36.01343324384464],[139.1625157,36.0134282],[139.1625,36.013436399297426]]]},"properties":{"layer":"landuse","class_code":"215","class_label":"道路用地（道路、駅前広場、私有地内に存在する沿道用途の「私道」または、私有地の一部分であるものの公共の通行に供されている土地の部分）"}}]}