{"type":"FeatureCollection","properties":{"mesh_code":"54390070","source":"PLATEAU秩父市2025","layer":"landuse"},"features":[{"type":"Feature","id":"luse_d59791ac-a0a0-49db-a2b2-86625df1f593","geometry":{"type":"Polygon","coordinates":[[[139.0028429,36.0597894],[139.0028149,36.0598214],[139.0027957,36.0598434],[139.0027208,36.0599275],[139.0027193,36.059929],[139.0026664,36.0599828],[139.0026489,36.0600119],[139.0026349,36.0600354],[139.0025441,36.059931],[139.002645,36.0597103],[139.0026572,36.0596942],[139.0028429,36.0597894]]]},"properties":{"layer":"landuse","class_code":"202","class_label":"畑（畑、樹園地、採草地、養鶏（牛・豚）場）"}},{"type":"Feature","id":"luse_1d8a0bc4-c03d-4d2d-80bd-e8fd491929ee","geometry":{"type":"Polygon","coordinates":[[[139.0125,36.06102213604309],[139.0124616,36.0610013],[139.0124148,36.0609215],[139.0123829,36.0608198],[139.0123719,36.0607355],[139.0124306,36.0606673],[139.0125,36.060650199640286],[139.0125,36.06102213604309]]]},"properties":{"layer":"landuse","class_code":"202","class_label":"畑（畑、樹園地、採草地、養鶏（牛・豚）場）"}},{"type":"Feature","id":"luse_1c2fb752-3ab6-424b-ba3f-0120240feb7c","geometry":{"type":"Polygon","coordinates":[[[139.0003742,36.0625566],[139.0000863,36.062827],[139.0,36.06279204090019],[139.0,36.062770972],[139.0000466,36.0627281],[139.0001638,36.0626204],[139.0001467,36.0626075],[139.0001944,36.0625606],[139.0001684,36.0625428],[139.0001146,36.0625051],[139.0001332,36.062489],[139.0000747,36.0624489],[139.0000406,36.062422],[139.0000915,36.0623788],[139.0001318,36.0623484],[139.0001479,36.0623374],[139.0001788,36.0623414],[139.0001916,36.0623511],[139.0002183,36.0623736],[139.0002438,36.0623974],[139.0002717,36.0624245],[139.0003024,36.0624426],[139.000414,36.0623873],[139.0004368,36.0623747],[139.0004697,36.0623567],[139.0005737,36.0623222],[139.0005316,36.0624054],[139.0003742,36.0625566]]]},"properties":{"layer":"landuse","class_code":"202","class_label":"畑（畑、樹園地、採草地、養鶏（牛・豚）場）"}},{"type":"Feature","id":"luse_27592f95-844d-4cdf-9457-214935cd1681","geometry":{"type":"Polygon","coordinates":[[[139.0026892,36.0595136],[139.0026325,36.0595279],[139.0026209,36.0595407],[139.0026194,36.0595598],[139.0026218,36.059587],[139.0026302,36.0596054],[139.0025998,36.0596648],[139.0026572,36.0596942],[139.002645,36.0597103],[139.0025441,36.059931],[139.0025284,36.0599129],[139.0025362,36.0598821],[139.0025352,36.0598816],[139.0024781,36.0598567],[139.0024005,36.0598228],[139.002293,36.0597216],[139.0022569,36.05968],[139.0022379,36.0596582],[139.0022199,36.059628],[139.0022176,36.0596235],[139.002217,36.0596213],[139.002216,36.0596004],[139.0022157,36.0595932],[139.0022159,36.0595866],[139.0022163,36.0595829],[139.0022263,36.0595478],[139.0022288,36.0595417],[139.0022446,36.0595139],[139.0022509,36.0595058],[139.0022558,36.0595005],[139.0023069,36.059457],[139.0023782,36.0594182],[139.0024447,36.0594023],[139.0024829,36.0594049],[139.0024868,36.0594052],[139.0025058,36.0594065],[139.0026275,36.0594233],[139.0027144,36.0594333],[139.0027751,36.0594403],[139.0028488,36.0594449],[139.0029204,36.0594336],[139.0029887,36.0594162],[139.0030406,36.0594006],[139.0031041,36.0593753],[139.0031446,36.0593586],[139.0031747,36.0593462],[139.0032413,36.0592761],[139.0033082,36.0592021],[139.0034337,36.0590632],[139.0035437,36.0589386],[139.0035521,36.058903],[139.0035567,36.0588835],[139.0035677,36.0588442],[139.0035922,36.058811],[139.0037056,36.0587173],[139.0037134,36.0587108],[139.0039599,36.0585174],[139.0041164,36.0583999],[139.0041326,36.0583877],[139.00421853588236,36.05833333333333],[139.0044195322321,36.05833333333333],[139.0043876,36.0583536],[139.0042746,36.0584245],[139.0040928,36.0585391],[139.004002,36.0585999],[139.0038398,36.0587081],[139.0037309,36.0587947],[139.0036668,36.0588585],[139.0035948,36.0589271],[139.0035347,36.0589977],[139.0034688,36.0590732],[139.0034037,36.0591476],[139.0032821,36.0592865],[139.0032799,36.059289],[139.0032169,36.0593613],[139.0031559,36.0594315],[139.003084,36.0595149],[139.0030503,36.059554],[139.0030144,36.0595619],[139.0029221,36.0595786],[139.0028663,36.0595807],[139.0028251,36.0595748],[139.0027971,36.0595576],[139.0027751,36.0595331],[139.0027571,36.0594993],[139.0026892,36.0595136]]]},"properties":{"layer":"landuse","class_code":"203","class_label":"山林（樹林地）"}},{"type":"Feature","id":"luse_91d52bab-b2ae-414c-af7d-44c4a5d828dc","geometry":{"type":"Polygon","coordinates":[[[139.0031371,36.0614741],[139.0030957,36.0615016],[139.0030719,36.0615175],[139.0030092,36.0615385],[139.0029257,36.0615484],[139.0028208,36.0615512],[139.0027469,36.0615466],[139.002665,36.0615273],[139.0025833,36.0614999],[139.0024904,36.0614548],[139.0024615,36.0614366],[139.0024126,36.0614056],[139.0024108,36.0614043],[139.0024619,36.061389],[139.0025485,36.0614282],[139.002633,36.0614331],[139.0027026,36.0614379],[139.0027451,36.0614167],[139.0028471,36.0614374],[139.0030064,36.0614493],[139.0030843,36.0614198],[139.0030764,36.0613303],[139.0029497,36.0612328],[139.0027611,36.0610449],[139.0027505,36.0610663],[139.002765,36.0609637],[139.0027553,36.0608951],[139.0027403,36.060827],[139.0027404,36.0608256],[139.0027177,36.0606958],[139.0026762,36.060595],[139.0026481,36.0605015],[139.0026384,36.0604576],[139.0026344,36.060401],[139.0026313,36.0603341],[139.0026366,36.0602756],[139.0026372,36.0602682],[139.0026378,36.0602617],[139.0026466,36.060229],[139.0026565,36.0601922],[139.0026681,36.0602089],[139.0026761,36.0602206],[139.0026946,36.0602639],[139.0026987,36.0602909],[139.0027053,36.0603356],[139.0027108,36.0603727],[139.0027795,36.0605932],[139.0027884,36.0606504],[139.0027955,36.0606941],[139.0027978,36.0607082],[139.0027933,36.0608075],[139.0027725,36.0609048],[139.0027737,36.0609474],[139.0027906,36.0609732],[139.0027941,36.0609786],[139.0028017,36.0609902],[139.0028679,36.0610478],[139.0029402,36.0611105],[139.002987,36.0611614],[139.003002,36.0611776],[139.0030355,36.061214],[139.0031002,36.0612638],[139.0031681,36.061316],[139.0031709,36.0613198],[139.003187,36.0613418],[139.0031962,36.0613624],[139.0032,36.0613748],[139.0031996,36.0613918],[139.0031973,36.061399],[139.0031791,36.0614373],[139.0031371,36.0614741]]]},"properties":{"layer":"landuse","class_code":"203","class_label":"山林（樹林地）"}},{"type":"Feature","id":"luse_3b1e9504-f08b-496f-981a-465628604192","geometry":{"type":"MultiPolygon","coordinates":[[[[139.0,36.06666666666667],[139.0,36.06449789004947],[139.0000295,36.064518],[139.000108,36.0645187],[139.0001545,36.0645343],[139.0001539,36.0645367],[139.000152,36.0645596],[139.0001517,36.0645839],[139.0001666,36.0646758],[139.0001695,36.0646939],[139.0001713,36.0647023],[139.0001858,36.0647705],[139.0001984,36.0648077],[139.0002182,36.0648388],[139.0002355,36.064858],[139.0002595,36.0648745],[139.0003166,36.0649086],[139.0003188,36.0649098],[139.0004183,36.0649691],[139.0004281,36.0649586],[139.0004382,36.0649473],[139.0003386,36.0648881],[139.00028,36.0648532],[139.00026,36.0648395],[139.0002468,36.0648246],[139.0002296,36.0647977],[139.0002261,36.0647876],[139.0002183,36.0647646],[139.0002051,36.0647026],[139.0002024,36.0646898],[139.0001852,36.0645824],[139.0001855,36.0645599],[139.000187,36.0645403],[139.0001927,36.0645178],[139.0002027,36.0644794],[139.0002096,36.0644585],[139.0002165,36.064448],[139.0002433,36.0644437],[139.0002469,36.0644389],[139.0002466,36.0644279],[139.000241,36.0644009],[139.0002331,36.064364],[139.0002151,36.0643435],[139.0002013,36.0643241],[139.0001913,36.0643027],[139.000161,36.0642024],[139.000132,36.0641231],[139.0000963,36.0640438],[139.0000578,36.0639481],[139.0000164,36.0638522],[139.0,36.06381911010101],[139.0,36.06304768059574],[139.0000174,36.0630369],[139.0001138,36.0629547],[139.0000863,36.062827],[139.0003742,36.0625566],[139.0005316,36.0624054],[139.0005737,36.0623222],[139.0005717,36.0622513],[139.000566,36.0622411],[139.0006233,36.0622268],[139.000656,36.0621872],[139.000682,36.0621474],[139.0006834,36.0621449],[139.0007051,36.0621064],[139.0007294,36.0620525],[139.0007535,36.0619901],[139.0007551,36.0619858],[139.0007647,36.0619612],[139.0008063,36.0618461],[139.0008459,36.0617301],[139.0008648,36.0616809],[139.0008921,36.0616206],[139.0009189,36.0615742],[139.0009215,36.0615698],[139.0009436,36.0615375],[139.0009491,36.0615294],[139.000981,36.0614906],[139.0010199,36.0614534],[139.0010668,36.0614169],[139.0011144,36.0613845],[139.0011858,36.0613464],[139.0012013,36.06134],[139.0014556,36.0613184],[139.001456,36.0613184],[139.0014827,36.0613206],[139.0014887,36.0613626],[139.0015213,36.061386],[139.0015573,36.0614157],[139.0015779,36.0614382],[139.0015952,36.0614587],[139.0016094,36.0614749],[139.0016291,36.061493],[139.0016587,36.0615168],[139.0017302,36.0615765],[139.0017223,36.0615828],[139.0017152,36.0615989],[139.0017149,36.0616196],[139.0017414,36.0616473],[139.0017925,36.0616779],[139.0018319,36.0616934],[139.0018621,36.0616978],[139.0019833,36.0617216],[139.0020573,36.0617423],[139.0020741,36.0617424],[139.0022453,36.0617923],[139.0022924,36.0618016],[139.0023229,36.0617947],[139.0023468,36.061777],[139.0023602,36.0617491],[139.0023607,36.0617168],[139.002348,36.0616854],[139.0024072,36.0616821],[139.0024161,36.0616816],[139.0024383,36.0616837],[139.0024588,36.0616929],[139.0025617,36.0617192],[139.0027001,36.061772],[139.0028873,36.0617769],[139.0030321,36.0617616],[139.0030696,36.0617322],[139.002832,36.0616118],[139.0028032,36.0616043],[139.0028193,36.0616053],[139.0029167,36.0616027],[139.0029317,36.0616023],[139.003027,36.0615911],[139.0031063,36.0615644],[139.0031829,36.0615137],[139.0032032,36.0614957],[139.0032142,36.0614861],[139.0032367,36.0614663],[139.0032404,36.0614585],[139.0032495,36.0614394],[139.0032643,36.0614083],[139.0032671,36.0614013],[139.0032667,36.0613686],[139.0032656,36.0613639],[139.0032623,36.0613492],[139.0032584,36.0613396],[139.0032472,36.0613194],[139.0032405,36.0613071],[139.0032375,36.0613016],[139.0032226,36.0612834],[139.003146,36.0612245],[139.0030854,36.061178],[139.0030403,36.061129],[139.0029913,36.0610757],[139.0028782,36.060964],[139.0028632,36.0609423],[139.0028673,36.0609161],[139.002895,36.0608084],[139.002894,36.0607852],[139.0028904,36.0607034],[139.0028702,36.0606416],[139.0028518,36.0605814],[139.0028282,36.0604551],[139.0028169,36.0603904],[139.0028106,36.0603543],[139.0027889,36.0602447],[139.0027647,36.0602013],[139.0027056,36.0601223],[139.002696,36.0601095],[139.0027107,36.0600837],[139.0027436,36.0600294],[139.0027543,36.0600154],[139.0027798,36.0600269],[139.0028377,36.0600528],[139.002838,36.0600529],[139.0028553,36.0600073],[139.0028761,36.0599602],[139.0029597,36.0597725],[139.0031002,36.0596303],[139.003131,36.0596013],[139.0031704,36.059564],[139.0032126,36.0595236],[139.0032524,36.0594853],[139.0033167,36.0594186],[139.0033742,36.0593443],[139.0034418,36.059252],[139.0034845,36.0591936],[139.0035457,36.0591176],[139.003612,36.0590417],[139.0036734,36.0589814],[139.0037461,36.0589122],[139.0038073,36.0588513],[139.0038592,36.0588082],[139.0039058,36.0587696],[139.0040585,36.0586556],[139.0041484,36.0585955],[139.004329,36.0584815],[139.004442,36.0584105],[139.00456387822956,36.05833333333333],[139.0125,36.05833333333333],[139.0125,36.06666666666667],[139.0,36.06666666666667]]],[[[139.0125,36.060650199640286],[139.0124306,36.0606673],[139.0123719,36.0607355],[139.0123829,36.0608198],[139.0124148,36.0609215],[139.0124616,36.0610013],[139.0125,36.06102213604309],[139.0125,36.060650199640286]]]]},"properties":{"layer":"landuse","class_code":"203","class_label":"山林（樹林地）"}},{"type":"Feature","id":"luse_6b1feaaf-8816-41dd-8ece-cb82e485fce8","geometry":{"type":"Polygon","coordinates":[[[139.0023782,36.0594182],[139.0023069,36.059457],[139.0022558,36.0595005],[139.0022509,36.0595058],[139.0022446,36.0595139],[139.0022288,36.0595417],[139.0022263,36.0595478],[139.0022163,36.0595829],[139.0022159,36.0595866],[139.0022157,36.0595932],[139.002216,36.0596004],[139.002217,36.0596213],[139.0022176,36.0596235],[139.0022199,36.059628],[139.0022379,36.0596582],[139.0022569,36.05968],[139.002293,36.0597216],[139.0024005,36.0598228],[139.0024781,36.0598567],[139.0025352,36.0598816],[139.0025362,36.0598821],[139.0025284,36.0599129],[139.0025441,36.059931],[139.0026349,36.0600354],[139.0026206,36.060059],[139.0026165,36.0600665],[139.0025948,36.0601054],[139.0025921,36.0601101],[139.0024767,36.0599971],[139.0024608,36.0599816],[139.0023654,36.0598878],[139.0023422,36.059865],[139.0022722,36.0597996],[139.0022324,36.0597623],[139.0022298,36.0597586],[139.0022005,36.0597152],[139.0021979,36.0597114],[139.0021786,36.0596828],[139.0021532,36.0596418],[139.0021516,36.0596367],[139.0021512,36.0596318],[139.0021488,36.0595844],[139.002149,36.0595819],[139.0021495,36.0595786],[139.0021628,36.0595301],[139.0021651,36.0595252],[139.0021909,36.0594808],[139.0021952,36.0594749],[139.002202,36.0594679],[139.0022635,36.0594156],[139.0023495,36.0593687],[139.0024339,36.0593485],[139.0024835,36.059347],[139.0025003,36.0593464],[139.0026328,36.0593521],[139.0027788,36.0593677],[139.0029052,36.0593646],[139.0030061,36.0593347],[139.003095,36.0592926],[139.0031775,36.059231],[139.0033608,36.0590344],[139.0034687,36.0589129],[139.0034879,36.0588742],[139.0035038,36.0588286],[139.0035361,36.0587804],[139.003648,36.0586693],[139.0037744,36.058572],[139.0039034,36.0584727],[139.0039687,36.0584284],[139.0040693,36.0583602],[139.0040908,36.0583456],[139.00411020041295,36.05833333333333],[139.00421853588236,36.05833333333333],[139.0041326,36.0583877],[139.0041164,36.0583999],[139.0039599,36.0585174],[139.0037134,36.0587108],[139.0037056,36.0587173],[139.0035922,36.058811],[139.0035677,36.0588442],[139.0035567,36.0588835],[139.0035521,36.058903],[139.0035437,36.0589386],[139.0034337,36.0590632],[139.0033082,36.0592021],[139.0032413,36.0592761],[139.0031747,36.0593462],[139.0031446,36.0593586],[139.0031041,36.0593753],[139.0030406,36.0594006],[139.0029887,36.0594162],[139.0029204,36.0594336],[139.0028488,36.0594449],[139.0027751,36.0594403],[139.0027144,36.0594333],[139.0026275,36.0594233],[139.0025058,36.0594065],[139.0024868,36.0594052],[139.0024829,36.0594049],[139.0024447,36.0594023],[139.0023782,36.0594182]]]},"properties":{"layer":"landuse","class_code":"204","class_label":"水面（河川水面、湖沼、ため池、用水路、濠、運河水面）"}},{"type":"Feature","id":"luse_da550a98-6624-400e-9556-19f18144e426","geometry":{"type":"Polygon","coordinates":[[[139.0031063,36.0615644],[139.003027,36.0615911],[139.0029317,36.0616023],[139.0029167,36.0616027],[139.0028193,36.0616053],[139.0028032,36.0616043],[139.0027349,36.0616001],[139.0026659,36.06159],[139.0026465,36.0615873],[139.0025277,36.0615643],[139.0024605,36.0615342],[139.002443,36.0615265],[139.0023426,36.0614692],[139.0022891,36.0614296],[139.0022957,36.0614288],[139.0023421,36.0614212],[139.0024016,36.0614071],[139.0024108,36.0614043],[139.0024126,36.0614056],[139.0024615,36.0614366],[139.0024904,36.0614548],[139.0025833,36.0614999],[139.002665,36.0615273],[139.0027469,36.0615466],[139.0028208,36.0615512],[139.0029257,36.0615484],[139.0030092,36.0615385],[139.0030719,36.0615175],[139.0030957,36.0615016],[139.0031371,36.0614741],[139.0031791,36.0614373],[139.0031973,36.061399],[139.0031996,36.0613918],[139.0032,36.0613748],[139.0031962,36.0613624],[139.003187,36.0613418],[139.0031709,36.0613198],[139.0031681,36.061316],[139.0031002,36.0612638],[139.0030355,36.061214],[139.003002,36.0611776],[139.002987,36.0611614],[139.0029402,36.0611105],[139.0028679,36.0610478],[139.0028017,36.0609902],[139.0027941,36.0609786],[139.0027906,36.0609732],[139.0027737,36.0609474],[139.0027725,36.0609048],[139.0027933,36.0608075],[139.0027978,36.0607082],[139.0027955,36.0606941],[139.0027884,36.0606504],[139.0027795,36.0605932],[139.0027108,36.0603727],[139.0027053,36.0603356],[139.0026987,36.0602909],[139.0026946,36.0602639],[139.0026761,36.0602206],[139.0026681,36.0602089],[139.0026565,36.0601922],[139.002657,36.0601905],[139.0026797,36.0601387],[139.002696,36.0601095],[139.0027056,36.0601223],[139.0027647,36.0602013],[139.0027889,36.0602447],[139.0028106,36.0603543],[139.0028169,36.0603904],[139.0028282,36.0604551],[139.0028518,36.0605814],[139.0028702,36.0606416],[139.0028904,36.0607034],[139.002894,36.0607852],[139.002895,36.0608084],[139.0028673,36.0609161],[139.0028632,36.0609423],[139.0028782,36.060964],[139.0029913,36.0610757],[139.0030403,36.061129],[139.0030854,36.061178],[139.003146,36.0612245],[139.0032226,36.0612834],[139.0032375,36.0613016],[139.0032405,36.0613071],[139.0032472,36.0613194],[139.0032584,36.0613396],[139.0032623,36.0613492],[139.0032656,36.0613639],[139.0032667,36.0613686],[139.0032671,36.0614013],[139.0032643,36.0614083],[139.0032495,36.0614394],[139.0032404,36.0614585],[139.0032367,36.0614663],[139.0032142,36.0614861],[139.0032032,36.0614957],[139.0031829,36.0615137],[139.0031063,36.0615644]]]},"properties":{"layer":"landuse","class_code":"204","class_label":"水面（河川水面、湖沼、ため池、用水路、濠、運河水面）"}},{"type":"Feature","id":"luse_406c7dac-e9fa-4f01-8d98-b08b3b3d5d1a","geometry":{"type":"Polygon","coordinates":[[[139.0015596,36.0610411],[139.0014728,36.0610508],[139.0013812,36.0610811],[139.0013065,36.0611307],[139.0012942,36.0611427],[139.0012768,36.0611596],[139.0012665,36.0611696],[139.0012235,36.061208],[139.0010925,36.0612687],[139.0009888,36.0613328],[139.0009088,36.0614021],[139.0008233,36.0614941],[139.0007913,36.0615257],[139.0007383,36.0615863],[139.0006931,36.06165],[139.0006893,36.0616553],[139.0006873,36.0616551],[139.000638,36.0616504],[139.0006397,36.0616473],[139.000679,36.0615739],[139.0006951,36.0615475],[139.0007168,36.061512],[139.0007569,36.061454],[139.0007998,36.0614008],[139.0008545,36.0613483],[139.0009392,36.0612767],[139.0010415,36.0612092],[139.0010537,36.0612013],[139.0011507,36.0611377],[139.0012157,36.0610985],[139.001284,36.0610637],[139.0013656,36.0610318],[139.0014604,36.0610067],[139.0015452,36.060994],[139.0016308,36.0609919],[139.0017087,36.0609953],[139.0017748,36.0610056],[139.0018586,36.0610302],[139.0019497,36.061069],[139.0020387,36.0611164],[139.0020971,36.0611563],[139.0021632,36.061209],[139.0022291,36.0612639],[139.0022526,36.0612834],[139.0023223,36.0613367],[139.0023192,36.0613374],[139.0023145,36.0613385],[139.0022987,36.0613423],[139.0022777,36.0613456],[139.0022773,36.0613456],[139.0022564,36.0613489],[139.0022359,36.0613499],[139.0022355,36.0613499],[139.002215,36.0613509],[139.0022031,36.0613509],[139.0021957,36.0613508],[139.0021827,36.0613508],[139.0021639,36.0613368],[139.0020927,36.061271],[139.0020225,36.0612114],[139.0019711,36.0611684],[139.0019592,36.0611602],[139.0018974,36.0611176],[139.0018225,36.0610771],[139.0017621,36.0610543],[139.0016996,36.06104],[139.0016313,36.061037],[139.0015596,36.0610411]]]},"properties":{"layer":"landuse","class_code":"204","class_label":"水面（河川水面、湖沼、ため池、用水路、濠、運河水面）"}},{"type":"Feature","id":"luse_475c481a-88ee-45a0-8b36-43dd7bced400","geometry":{"type":"Polygon","coordinates":[[[139.0022324,36.0597623],[139.0022722,36.0597996],[139.0023422,36.059865],[139.0023654,36.0598878],[139.0024608,36.0599816],[139.0024767,36.0599971],[139.0025921,36.0601101],[139.0025789,36.0601403],[139.0025661,36.0601694],[139.0025584,36.060198],[139.002558,36.0601997],[139.0025514,36.0602236],[139.0021642,36.0597799],[139.0022298,36.0597586],[139.0022324,36.0597623]]]},"properties":{"layer":"landuse","class_code":"205","class_label":"その他自然地（原野・牧野、荒れ地（耕作放棄地等自然的状況のもの）、低湿地、河川敷・河原、海浜、湖岸）"}},{"type":"Feature","id":"luse_1b018a3d-653d-4b6c-b2be-6fe06004787b","geometry":{"type":"Polygon","coordinates":[[[139.0014994,36.0611591],[139.001499,36.0611592],[139.0014537,36.0611699],[139.0014534,36.06117],[139.0013698,36.0611982],[139.0013165,36.0612154],[139.0012909,36.0612237],[139.0011996,36.0612549],[139.0011288,36.0612851],[139.001058,36.0613229],[139.0010038,36.0613598],[139.000951,36.0614009],[139.0009055,36.0614445],[139.0008685,36.0614895],[139.0008375,36.0615349],[139.0008049,36.061591],[139.000784,36.0616374],[139.0007754,36.0616562],[139.0007638,36.0616586],[139.0007506,36.0616614],[139.0006893,36.0616553],[139.0006931,36.06165],[139.0007383,36.0615863],[139.0007913,36.0615257],[139.0008233,36.0614941],[139.0009088,36.0614021],[139.0009888,36.0613328],[139.0010925,36.0612687],[139.0012235,36.061208],[139.0012665,36.0611696],[139.0012768,36.0611596],[139.0012942,36.0611427],[139.0013065,36.0611307],[139.0013812,36.0610811],[139.0014728,36.0610508],[139.0015596,36.0610411],[139.0016313,36.061037],[139.0016996,36.06104],[139.0017621,36.0610543],[139.0018225,36.0610771],[139.0018974,36.0611176],[139.0019592,36.0611602],[139.0019711,36.0611684],[139.0020225,36.0612114],[139.0020927,36.061271],[139.0021639,36.0613368],[139.0021827,36.0613508],[139.0021764,36.0613508],[139.002176,36.0613508],[139.0021455,36.0613472],[139.0021452,36.0613472],[139.0021224,36.0613445],[139.0021146,36.0613436],[139.0020428,36.0613288],[139.0019816,36.0613086],[139.0019685,36.0613038],[139.0019671,36.0613034],[139.0018668,36.0612669],[139.0017975,36.0612373],[139.0017345,36.0612102],[139.0016615,36.0611825],[139.0015954,36.0611626],[139.0015634,36.0611568],[139.0015293,36.061156],[139.0014994,36.0611591]]]},"properties":{"layer":"landuse","class_code":"205","class_label":"その他自然地（原野・牧野、荒れ地（耕作放棄地等自然的状況のもの）、低湿地、河川敷・河原、海浜、湖岸）"}},{"type":"Feature","id":"luse_31f1e320-1af1-46c0-8015-d3c88fbebbb2","geometry":{"type":"Polygon","coordinates":[[[139.0001668,36.062105],[139.0001173,36.0621167],[139.0000528,36.0621424],[139.0,36.06216346840391],[139.0,36.0619955587156],[139.0000365,36.0619681],[139.0001052,36.0619175],[139.0001328,36.0619007],[139.000138,36.061898],[139.0002739,36.0620396],[139.000287,36.0620512],[139.0004535,36.0619693],[139.0003267,36.0618199],[139.0003513,36.0618081],[139.0003991,36.0617781],[139.000428,36.0617572],[139.0004497,36.0617416],[139.0004927,36.0617102],[139.0005225,36.0616952],[139.000549,36.0616867],[139.0005772,36.0616822],[139.0005775,36.0616822],[139.000619,36.0616803],[139.0006247,36.0616808],[139.0006196,36.0616927],[139.0006083,36.0617423],[139.0006074,36.0617461],[139.0006034,36.0618183],[139.0006011,36.0618811],[139.0006007,36.0619159],[139.0006089,36.0619647],[139.0006034,36.0619815],[139.000581,36.0620062],[139.0005661,36.0620247],[139.0005535,36.0620397],[139.0005452,36.0620467],[139.0005262,36.0620583],[139.0004988,36.0620682],[139.0004914,36.0620709],[139.00049,36.0620716],[139.0004382,36.0620966],[139.0003977,36.0621078],[139.0003608,36.0621128],[139.0003509,36.0621142],[139.0003137,36.0621134],[139.0002583,36.0620996],[139.0002285,36.0620932],[139.0001668,36.062105]]]},"properties":{"layer":"landuse","class_code":"205","class_label":"その他自然地（原野・牧野、荒れ地（耕作放棄地等自然的状況のもの）、低湿地、河川敷・河原、海浜、湖岸）"}},{"type":"Feature","id":"luse_41adeefc-c517-4dc1-ab98-954d3cd0d4f8","geometry":{"type":"Polygon","coordinates":[[[139.0,36.06219794125231],[139.0000503,36.0621884],[139.0001076,36.0621784],[139.0002139,36.0621625],[139.0002632,36.0621552],[139.0003784,36.0621372],[139.0004127,36.0621277],[139.0004389,36.0621168],[139.0004982,36.0620911],[139.0005278,36.0620822],[139.0005545,36.0620772],[139.0005876,36.0620707],[139.0005988,36.0620647],[139.0006277,36.0620138],[139.0006426,36.061976],[139.000647,36.0619645],[139.0006465,36.0619026],[139.0006485,36.0618321],[139.000649,36.0618141],[139.0006568,36.0617571],[139.0006653,36.0617062],[139.0006688,36.0616978],[139.0006738,36.0616856],[139.0006826,36.0616865],[139.0007197,36.0616901],[139.0007458,36.0616927],[139.0007553,36.0617084],[139.0007156,36.0618251],[139.0006744,36.061939],[139.0006733,36.0619418],[139.00064,36.0620279],[139.0006194,36.0620733],[139.0005985,36.062102],[139.0005754,36.0621259],[139.0005438,36.0621512],[139.0005432,36.0621517],[139.0005142,36.0621696],[139.0005016,36.0621774],[139.0004908,36.0621824],[139.0004521,36.0622003],[139.0003971,36.0622194],[139.0003454,36.0622328],[139.0002906,36.0622416],[139.0002306,36.062252],[139.0002303,36.0622521],[139.0001794,36.0622671],[139.0001791,36.0622673],[139.0001779,36.0622679],[139.0001355,36.062287],[139.0000938,36.0623155],[139.0000518,36.0623512],[139.0000045,36.062398],[139.0000023,36.0624002],[139.0,36.062402532394366],[139.0,36.06219794125231]]]},"properties":{"layer":"landuse","class_code":"205","class_label":"その他自然地（原野・牧野、荒れ地（耕作放棄地等自然的状況のもの）、低湿地、河川敷・河原、海浜、湖岸）"}},{"type":"Feature","id":"luse_f9e05211-7642-43c2-9477-ae0cd79d890f","geometry":{"type":"Polygon","coordinates":[[[139.0025514,36.0602236],[139.0025455,36.0602453],[139.0025414,36.0602663],[139.00253,36.0603234],[139.0025281,36.0603238],[139.0025253,36.0603244],[139.002516,36.0603178],[139.002504,36.0603078],[139.0025009,36.0603053],[139.0024804,36.0602901],[139.0024736,36.0602857],[139.0024573,36.0602748],[139.0024028,36.0602581],[139.0023661,36.060254],[139.0023109,36.0602517],[139.0022339,36.0602471],[139.0022336,36.0602471],[139.0021535,36.0602377],[139.0020872,36.0602278],[139.0020868,36.0602277],[139.0020517,36.0602184],[139.0020075,36.0602004],[139.0019705,36.0601761],[139.001928,36.0601433],[139.001905,36.0601628],[139.0019152,36.0601707],[139.0017398,36.0601773],[139.0017318,36.0599206],[139.0021642,36.0597799],[139.0025514,36.0602236]]]},"properties":{"layer":"landuse","class_code":"211","class_label":"住宅用地（住宅、共同住宅、店舗等併用住宅、店舗等併用共同住宅、作業所併用住宅）"}},{"type":"Feature","id":"luse_4fd1b86d-9b92-48fa-906f-ec48dbb2cb3b","geometry":{"type":"Polygon","coordinates":[[[139.0025591,36.0605827],[139.002491,36.0605872],[139.0021457,36.0603063],[139.0021128,36.0602586],[139.0021478,36.0602643],[139.00223,36.060274],[139.0022303,36.060274],[139.0023088,36.0602787],[139.0023629,36.060281],[139.0023878,36.0602869],[139.0024142,36.0603006],[139.002439,36.0603173],[139.0024635,36.0603362],[139.0024729,36.0603421],[139.0024931,36.0603546],[139.0025194,36.06037],[139.0025274,36.0603757],[139.0025265,36.0604023],[139.0025311,36.0604654],[139.0025436,36.0605248],[139.002557,36.0605745],[139.0025591,36.0605827]]]},"properties":{"layer":"landuse","class_code":"211","class_label":"住宅用地（住宅、共同住宅、店舗等併用住宅、店舗等併用共同住宅、作業所併用住宅）"}},{"type":"Feature","id":"luse_9dd540cc-a268-4bf5-80d9-b5266f4b637e","geometry":{"type":"Polygon","coordinates":[[[139.0003656,36.0617535],[139.0003262,36.0617783],[139.0002897,36.0617974],[139.0002483,36.0618159],[139.0002021,36.0618342],[139.0001524,36.0618553],[139.000116,36.0618738],[139.0000845,36.0618936],[139.0000175,36.0619393],[139.0000085,36.0619453],[139.0,36.061951378787874],[139.0,36.0616725996875],[139.0000433,36.0616316],[139.0001514,36.0615498],[139.0003656,36.0617535]]]},"properties":{"layer":"landuse","class_code":"211","class_label":"住宅用地（住宅、共同住宅、店舗等併用住宅、店舗等併用共同住宅、作業所併用住宅）"}},{"type":"Feature","id":"luse_9f6a71fe-f7f9-4a82-8c50-c6c1ad55f9f7","geometry":{"type":"Polygon","coordinates":[[[139.0004535,36.0619693],[139.000287,36.0620512],[139.0002739,36.0620396],[139.000138,36.061898],[139.0001667,36.0618831],[139.0002147,36.0618652],[139.0002674,36.0618458],[139.000309,36.0618284],[139.0003252,36.0618206],[139.0003267,36.0618199],[139.0004535,36.0619693]]]},"properties":{"layer":"landuse","class_code":"211","class_label":"住宅用地（住宅、共同住宅、店舗等併用住宅、店舗等併用共同住宅、作業所併用住宅）"}},{"type":"Feature","id":"luse_56c941da-5289-4819-99cb-5d2cc3bd90da","geometry":{"type":"Polygon","coordinates":[[[139.0005737,36.0623222],[139.0004697,36.0623567],[139.0004368,36.0623747],[139.000414,36.0623873],[139.0003024,36.0624426],[139.0002717,36.0624245],[139.0002438,36.0623974],[139.0002183,36.0623736],[139.0001916,36.0623511],[139.0001788,36.0623414],[139.0001479,36.0623374],[139.0001598,36.0623292],[139.0001729,36.0623217],[139.0002025,36.0623084],[139.0002454,36.0622956],[139.0002459,36.0622954],[139.0003015,36.0622857],[139.0003582,36.0622767],[139.0004294,36.062266],[139.0004838,36.062258],[139.000564,36.0622416],[139.0005643,36.0622415],[139.000566,36.0622411],[139.0005717,36.0622513],[139.0005737,36.0623222]]]},"properties":{"layer":"landuse","class_code":"211","class_label":"住宅用地（住宅、共同住宅、店舗等併用住宅、店舗等併用共同住宅、作業所併用住宅）"}},{"type":"Feature","id":"luse_b182b148-c36b-44bc-aba7-34e950254aef","geometry":{"type":"Polygon","coordinates":[[[139.00411020041295,36.05833333333333],[139.0040908,36.0583456],[139.0040693,36.0583602],[139.0039687,36.0584284],[139.0039456,36.058402],[139.00388581372192,36.05833333333333],[139.00411020041295,36.05833333333333]]]},"properties":{"layer":"landuse","class_code":"223","class_label":"その他④（その他①～③以外の用途に供されている都市的土地利用（建物跡地、資材置場、改変工事中の土地）、法面（道路、造成地等の主利用に含まれない法面））"}},{"type":"Feature","id":"luse_d234965a-22e1-4e02-b677-0136585110b0","geometry":{"type":"Polygon","coordinates":[[[139.0030843,36.0614198],[139.0030064,36.0614493],[139.0028471,36.0614374],[139.0027451,36.0614167],[139.0027026,36.0614379],[139.002633,36.0614331],[139.0025485,36.0614282],[139.0024619,36.061389],[139.0025365,36.0613562],[139.0025959,36.0613163],[139.0026438,36.0612663],[139.002692,36.0612002],[139.0027206,36.0611419],[139.0027505,36.0610663],[139.0027611,36.0610449],[139.0029497,36.0612328],[139.0030764,36.0613303],[139.0030843,36.0614198]]]},"properties":{"layer":"landuse","class_code":"223","class_label":"その他④（その他①～③以外の用途に供されている都市的土地利用（建物跡地、資材置場、改変工事中の土地）、法面（道路、造成地等の主利用に含まれない法面））"}},{"type":"Feature","id":"luse_8d0f6787-d338-4f10-8ae7-a3c361d63300","geometry":{"type":"Polygon","coordinates":[[[139.0024072,36.0616821],[139.002348,36.0616854],[139.0023607,36.0617168],[139.0023602,36.0617491],[139.0023468,36.061777],[139.0023229,36.0617947],[139.0022924,36.0618016],[139.0022453,36.0617923],[139.0020741,36.0617424],[139.0020573,36.0617423],[139.0019833,36.0617216],[139.0018621,36.0616978],[139.0018319,36.0616934],[139.0017925,36.0616779],[139.0017414,36.0616473],[139.0017149,36.0616196],[139.0017152,36.0615989],[139.0017223,36.0615828],[139.0017302,36.0615765],[139.0016587,36.0615168],[139.0016291,36.061493],[139.0016094,36.0614749],[139.0015952,36.0614587],[139.0015779,36.0614382],[139.0015573,36.0614157],[139.0015213,36.061386],[139.0014887,36.0613626],[139.0014827,36.0613206],[139.001456,36.0613184],[139.0014556,36.0613184],[139.0012013,36.06134],[139.0012378,36.0613251],[139.0013119,36.0613032],[139.0014183,36.0612797],[139.0014186,36.0612796],[139.0014379,36.0612773],[139.0014833,36.0612719],[139.0015124,36.0612694],[139.0015332,36.0612692],[139.0015473,36.0612693],[139.0015824,36.0612712],[139.0015828,36.0612712],[139.0016253,36.0612771],[139.0016257,36.0612772],[139.0016934,36.0612946],[139.0017569,36.0613157],[139.0018259,36.0613408],[139.0019421,36.0613832],[139.0019752,36.0613941],[139.0020114,36.0614061],[139.0020951,36.0614233],[139.0021579,36.061427],[139.0021583,36.061427],[139.0021876,36.0614273],[139.002188,36.0614273],[139.0022176,36.0614276],[139.0022427,36.0614263],[139.0022673,36.0614323],[139.0022891,36.0614296],[139.0023426,36.0614692],[139.002443,36.0615265],[139.0024605,36.0615342],[139.0025277,36.0615643],[139.0026465,36.0615873],[139.0026659,36.06159],[139.0027349,36.0616001],[139.0028032,36.0616043],[139.002832,36.0616118],[139.0030696,36.0617322],[139.0030321,36.0617616],[139.0028873,36.0617769],[139.0027001,36.061772],[139.0025617,36.0617192],[139.0024588,36.0616929],[139.0024383,36.0616837],[139.0024161,36.0616816],[139.0024072,36.0616821]]]},"properties":{"layer":"landuse","class_code":"223","class_label":"その他④（その他①～③以外の用途に供されている都市的土地利用（建物跡地、資材置場、改変工事中の土地）、法面（道路、造成地等の主利用に含まれない法面））"}},{"type":"Feature","id":"luse_76f19801-b32d-4316-acc8-a63dfd43c2e5","geometry":{"type":"Polygon","coordinates":[[[139.0030237,36.059585],[139.0028919,36.0597332],[139.0028429,36.0597894],[139.0026572,36.0596942],[139.0025998,36.0596648],[139.0026302,36.0596054],[139.0026218,36.059587],[139.0026194,36.0595598],[139.0026209,36.0595407],[139.0026325,36.0595279],[139.0026892,36.0595136],[139.0027571,36.0594993],[139.0027751,36.0595331],[139.0027971,36.0595576],[139.0028251,36.0595748],[139.0028663,36.0595807],[139.0029221,36.0595786],[139.0030144,36.0595619],[139.0030503,36.059554],[139.0030237,36.059585]]]},"properties":{"layer":"landuse","class_code":"219","class_label":"農林漁業施設用地（農林漁業用施設）"}},{"type":"Feature","id":"luse_ceced96a-6f6f-441f-8972-6ee9d5cd897b","geometry":{"type":"MultiPolygon","coordinates":[[[[139.0,36.06666666666667],[139.0,36.061951378787874],[139.0000085,36.0619453],[139.0000175,36.0619393],[139.0000845,36.0618936],[139.000116,36.0618738],[139.0001524,36.0618553],[139.0002021,36.0618342],[139.0002483,36.0618159],[139.0002897,36.0617974],[139.0003262,36.0617783],[139.0003656,36.0617535],[139.0003707,36.0617503],[139.0004199,36.0617147],[139.0004403,36.0616999],[139.0004407,36.0616994],[139.0004412,36.0616988],[139.000465,36.0616698],[139.0005021,36.061663],[139.0005026,36.0616628],[139.0005346,36.0616547],[139.000535,36.0616547],[139.0005711,36.0616505],[139.0005821,36.0616502],[139.0006061,36.0616496],[139.000608,36.0616495],[139.0006239,36.061649],[139.000638,36.0616504],[139.0006873,36.0616551],[139.0006893,36.0616553],[139.0007506,36.0616614],[139.0007638,36.0616586],[139.0007754,36.0616562],[139.000784,36.0616374],[139.0008049,36.061591],[139.0008375,36.0615349],[139.0008685,36.0614895],[139.0009055,36.0614445],[139.000951,36.0614009],[139.0010038,36.0613598],[139.001058,36.0613229],[139.0011288,36.0612851],[139.0011996,36.0612549],[139.0012909,36.0612237],[139.0013165,36.0612154],[139.0013698,36.0611982],[139.0014534,36.06117],[139.0014537,36.0611699],[139.001499,36.0611592],[139.0014994,36.0611591],[139.0015293,36.061156],[139.0015634,36.0611568],[139.0015954,36.0611626],[139.0016615,36.0611825],[139.0017345,36.0612102],[139.0017975,36.0612373],[139.0018668,36.0612669],[139.0019671,36.0613034],[139.0019685,36.0613038],[139.0019816,36.0613086],[139.0020428,36.0613288],[139.0021146,36.0613436],[139.0021224,36.0613445],[139.0021452,36.0613472],[139.0021455,36.0613472],[139.002176,36.0613508],[139.0021764,36.0613508],[139.0021827,36.0613508],[139.0021957,36.0613508],[139.0022031,36.0613509],[139.002215,36.0613509],[139.0022355,36.0613499],[139.0022359,36.0613499],[139.0022564,36.0613489],[139.0022773,36.0613456],[139.0022777,36.0613456],[139.0022987,36.0613423],[139.0023145,36.0613385],[139.0023192,36.0613374],[139.0023223,36.0613367],[139.0023398,36.0613325],[139.0023408,36.0613322],[139.0023565,36.0613259],[139.0023729,36.0613192],[139.0023889,36.0613116],[139.002405,36.061304],[139.0024633,36.0612719],[139.002469,36.0612688],[139.0024739,36.0612656],[139.0025205,36.0612348],[139.0025651,36.061192],[139.0025989,36.0611474],[139.0026002,36.0611456],[139.0026184,36.061112],[139.0026335,36.0610731],[139.0026481,36.0610183],[139.0026512,36.0609603],[139.0026471,36.0609156],[139.0026362,36.0608416],[139.0026043,36.0607176],[139.0025687,36.0606182],[139.0025591,36.0605827],[139.002557,36.0605745],[139.0025436,36.0605248],[139.0025311,36.0604654],[139.0025265,36.0604023],[139.0025274,36.0603757],[139.0025194,36.06037],[139.0024931,36.0603546],[139.0024729,36.0603421],[139.0024635,36.0603362],[139.002439,36.0603173],[139.0024142,36.0603006],[139.0023878,36.0602869],[139.0023629,36.060281],[139.0023088,36.0602787],[139.0022303,36.060274],[139.00223,36.060274],[139.0021478,36.0602643],[139.0021128,36.0602586],[139.0021006,36.0602566],[139.0020814,36.0602535],[139.0020396,36.0602437],[139.0019894,36.0602233],[139.0019485,36.0601965],[139.0019152,36.0601707],[139.001905,36.0601628],[139.001928,36.0601433],[139.0019705,36.0601761],[139.0020075,36.0602004],[139.0020517,36.0602184],[139.0020868,36.0602277],[139.0020872,36.0602278],[139.0021535,36.0602377],[139.0022336,36.0602471],[139.0022339,36.0602471],[139.0023109,36.0602517],[139.0023661,36.060254],[139.0024028,36.0602581],[139.0024573,36.0602748],[139.0024736,36.0602857],[139.0024804,36.0602901],[139.0025009,36.0603053],[139.002504,36.0603078],[139.002516,36.0603178],[139.0025253,36.0603244],[139.0025281,36.0603238],[139.00253,36.0603234],[139.0025414,36.0602663],[139.0025455,36.0602453],[139.0025514,36.0602236],[139.002558,36.0601997],[139.0025584,36.060198],[139.0025661,36.0601694],[139.0025789,36.0601403],[139.0025921,36.0601101],[139.0025948,36.0601054],[139.0026165,36.0600665],[139.0026206,36.060059],[139.0026349,36.0600354],[139.0026489,36.0600119],[139.0026664,36.0599828],[139.0027193,36.059929],[139.0027208,36.0599275],[139.0027957,36.0598434],[139.0028149,36.0598214],[139.0028429,36.0597894],[139.0028919,36.0597332],[139.0030237,36.059585],[139.0030503,36.059554],[139.003084,36.0595149],[139.0031559,36.0594315],[139.0032169,36.0593613],[139.0032799,36.059289],[139.0032821,36.0592865],[139.0034037,36.0591476],[139.0034688,36.0590732],[139.0035347,36.0589977],[139.0035948,36.0589271],[139.0036668,36.0588585],[139.0037309,36.0587947],[139.0038398,36.0587081],[139.004002,36.0585999],[139.0040928,36.0585391],[139.0042746,36.0584245],[139.0043876,36.0583536],[139.0044195322321,36.05833333333333],[139.0125,36.05833333333333],[139.0125,36.06666666666667],[139.0,36.06666666666667]]],[[[139.0006247,36.0616808],[139.000619,36.0616803],[139.0005775,36.0616822],[139.0005772,36.0616822],[139.000549,36.0616867],[139.0005225,36.0616952],[139.0004927,36.0617102],[139.0004497,36.0617416],[139.000428,36.0617572],[139.0003991,36.0617781],[139.0003513,36.0618081],[139.0003267,36.0618199],[139.0003252,36.0618206],[139.000309,36.0618284],[139.0002674,36.0618458],[139.0002147,36.0618652],[139.0001667,36.0618831],[139.000138,36.061898],[139.0001328,36.0619007],[139.0001052,36.0619175],[139.0000365,36.0619681],[139.0,36.0619955587156],[139.0,36.062402532394366],[139.0000023,36.0624002],[139.0000045,36.062398],[139.0000518,36.0623512],[139.0000938,36.0623155],[139.0001355,36.062287],[139.0001779,36.0622679],[139.0001791,36.0622673],[139.0001794,36.0622671],[139.0002303,36.0622521],[139.0002306,36.062252],[139.0002906,36.0622416],[139.0003454,36.0622328],[139.0003971,36.0622194],[139.0004521,36.0622003],[139.0004908,36.0621824],[139.0005016,36.0621774],[139.0005142,36.0621696],[139.0005432,36.0621517],[139.0005438,36.0621512],[139.0005754,36.0621259],[139.0005985,36.062102],[139.0006194,36.0620733],[139.00064,36.0620279],[139.0006733,36.0619418],[139.0006744,36.061939],[139.0007156,36.0618251],[139.0007553,36.0617084],[139.0007458,36.0616927],[139.0007197,36.0616901],[139.0006826,36.0616865],[139.0006738,36.0616856],[139.0006247,36.0616808]]],[[[139.0,36.06666666666667],[139.0125,36.06666666666667],[139.0125,36.05833333333333],[139.00456387822956,36.05833333333333],[139.004442,36.0584105],[139.004329,36.0584815],[139.0041484,36.0585955],[139.0040585,36.0586556],[139.0039058,36.0587696],[139.0038592,36.0588082],[139.0038073,36.0588513],[139.0037461,36.0589122],[139.0036734,36.0589814],[139.003612,36.0590417],[139.0035457,36.0591176],[139.0034845,36.0591936],[139.0034418,36.059252],[139.0033742,36.0593443],[139.0033167,36.0594186],[139.0032524,36.0594853],[139.0032126,36.0595236],[139.0031704,36.059564],[139.003131,36.0596013],[139.0031002,36.0596303],[139.0029597,36.0597725],[139.0028761,36.0599602],[139.0028553,36.0600073],[139.002838,36.0600529],[139.0028377,36.0600528],[139.0027798,36.0600269],[139.0027543,36.0600154],[139.0027436,36.0600294],[139.0027107,36.0600837],[139.002696,36.0601095],[139.0026797,36.0601387],[139.002657,36.0601905],[139.0026565,36.0601922],[139.0026466,36.060229],[139.0026378,36.0602617],[139.0026372,36.0602682],[139.0026366,36.0602756],[139.0026313,36.0603341],[139.0026344,36.060401],[139.0026384,36.0604576],[139.0026481,36.0605015],[139.0026762,36.060595],[139.0027177,36.0606958],[139.0027404,36.0608256],[139.0027403,36.060827],[139.0027553,36.0608951],[139.002765,36.0609637],[139.0027505,36.0610663],[139.0027206,36.0611419],[139.002692,36.0612002],[139.0026438,36.0612663],[139.0025959,36.0613163],[139.0025365,36.0613562],[139.0024619,36.061389],[139.0024108,36.0614043],[139.0024016,36.0614071],[139.0023421,36.0614212],[139.0022957,36.0614288],[139.0022891,36.0614296],[139.0022673,36.0614323],[139.0022427,36.0614263],[139.0022176,36.0614276],[139.002188,36.0614273],[139.0021876,36.0614273],[139.0021583,36.061427],[139.0021579,36.061427],[139.0020951,36.0614233],[139.0020114,36.0614061],[139.0019752,36.0613941],[139.0019421,36.0613832],[139.0018259,36.0613408],[139.0017569,36.0613157],[139.0016934,36.0612946],[139.0016257,36.0612772],[139.0016253,36.0612771],[139.0015828,36.0612712],[139.0015824,36.0612712],[139.0015473,36.0612693],[139.0015332,36.0612692],[139.0015124,36.0612694],[139.0014833,36.0612719],[139.0014379,36.0612773],[139.0014186,36.0612796],[139.0014183,36.0612797],[139.0013119,36.0613032],[139.0012378,36.0613251],[139.0012013,36.06134],[139.0011858,36.0613464],[139.0011144,36.0613845],[139.0010668,36.0614169],[139.0010199,36.0614534],[139.000981,36.0614906],[139.0009491,36.0615294],[139.0009436,36.0615375],[139.0009215,36.0615698],[139.0009189,36.0615742],[139.0008921,36.0616206],[139.0008648,36.0616809],[139.0008459,36.0617301],[139.0008063,36.0618461],[139.0007647,36.0619612],[139.0007551,36.0619858],[139.0007535,36.0619901],[139.0007294,36.0620525],[139.0007051,36.0621064],[139.0006834,36.0621449],[139.000682,36.0621474],[139.000656,36.0621872],[139.0006233,36.0622268],[139.000566,36.0622411],[139.0005643,36.0622415],[139.000564,36.0622416],[139.0004838,36.062258],[139.0004294,36.062266],[139.0003582,36.0622767],[139.0003015,36.0622857],[139.0002459,36.0622954],[139.0002454,36.0622956],[139.0002025,36.0623084],[139.0001729,36.0623217],[139.0001598,36.0623292],[139.0001479,36.0623374],[139.0001318,36.0623484],[139.0000915,36.0623788],[139.0000406,36.062422],[139.0000385,36.0624239],[139.0,36.06246110708954],[139.0,36.06381911010101],[139.0000164,36.0638522],[139.0000578,36.0639481],[139.0000963,36.0640438],[139.000132,36.0641231],[139.000161,36.0642024],[139.0001913,36.0643027],[139.0002013,36.0643241],[139.0002151,36.0643435],[139.0002331,36.064364],[139.000241,36.0644009],[139.0002466,36.0644279],[139.0002469,36.0644389],[139.0002433,36.0644437],[139.0002165,36.064448],[139.0002096,36.0644585],[139.0002027,36.0644794],[139.0001927,36.0645178],[139.000187,36.0645403],[139.0001855,36.0645599],[139.0001852,36.0645824],[139.0002024,36.0646898],[139.0002051,36.0647026],[139.0002183,36.0647646],[139.0002261,36.0647876],[139.0002296,36.0647977],[139.0002468,36.0648246],[139.00026,36.0648395],[139.00028,36.0648532],[139.0003386,36.0648881],[139.0004382,36.0649473],[139.0004281,36.0649586],[139.0004183,36.0649691],[139.0003188,36.0649098],[139.0003166,36.0649086],[139.0002595,36.0648745],[139.0002355,36.064858],[139.0002182,36.0648388],[139.0001984,36.0648077],[139.0001858,36.0647705],[139.0001713,36.0647023],[139.0001695,36.0646939],[139.0001666,36.0646758],[139.0001517,36.0645839],[139.000152,36.0645596],[139.0001539,36.0645367],[139.0001545,36.0645343],[139.0001599,36.0645123],[139.0001697,36.0644756],[139.0001714,36.0644568],[139.0001711,36.0644445],[139.0001644,36.0644114],[139.0001565,36.0643745],[139.0001442,36.0643206],[139.0001338,36.064276],[139.0001091,36.0642859],[139.0000841,36.0642958],[139.0000596,36.0642554],[139.0000844,36.0642455],[139.0001092,36.0642356],[139.0001141,36.0642328],[139.000119,36.06423],[139.0001211,36.0642285],[139.0001227,36.0642273],[139.0001261,36.0642244],[139.0001274,36.0642219],[139.0001288,36.0642192],[139.0001289,36.0642146],[139.0001291,36.06421],[139.0001004,36.0641316],[139.0000648,36.0640526],[139.0000261,36.0639567],[139.0000092,36.0639171],[139.0,36.06389586333334],[139.0,36.06666666666667]]]]},"properties":{"layer":"landuse","class_code":"215","class_label":"道路用地（道路、駅前広場、私有地内に存在する沿道用途の「私道」または、私有地の一部分であるものの公共の通行に供されている土地の部分）"}}]}