{"type":"FeatureCollection","properties":{"mesh_code":"54390091","source":"PLATEAU秩父市2025","layer":"landuse"},"features":[{"type":"Feature","id":"luse_d6c85c0c-8944-4889-a16d-fc26380ede87","geometry":{"type":"Polygon","coordinates":[[[139.0125,36.083333333333336],[139.0125,36.075],[139.025,36.075],[139.025,36.07538836337662],[139.0247434,36.075504],[139.0244077,36.075629],[139.0242373,36.0756593],[139.0241419,36.0756108],[139.0238815,36.0755365],[139.0237438,36.0754986],[139.0236088,36.075532],[139.0232051,36.0757303],[139.0228873,36.0760017],[139.0223841,36.076551],[139.022324,36.0766142],[139.0221817,36.076694],[139.02186,36.076819],[139.0216861,36.0769068],[139.0216299,36.076951],[139.0216004,36.0769741],[139.0215456,36.0770355],[139.021489,36.0771566],[139.0214032,36.0773446],[139.0213554,36.0775741],[139.0212955,36.0776653],[139.0212325,36.0777306],[139.0211938,36.0777389],[139.0211636,36.0777425],[139.0210635,36.0777353],[139.0209727,36.0777299],[139.0207938,36.0777451],[139.0204918,36.0777775],[139.0202459,36.0778635],[139.0201018,36.077961],[139.0199828,36.0780512],[139.019815,36.0781655],[139.0197228,36.078288],[139.0196616,36.0786652],[139.0196618,36.0788964],[139.0196309,36.079115],[139.0195675,36.0792227],[139.0194084,36.079461],[139.0193523,36.0796686],[139.0191862,36.0798467],[139.0190978,36.0799788],[139.0190515,36.080048],[139.0189647,36.0802049],[139.018881,36.0804214],[139.0187986,36.0805956],[139.018795,36.0806029],[139.018756,36.0806839],[139.0186951,36.0807519],[139.0186345,36.0807943],[139.0184702,36.0808679],[139.01834,36.0809264],[139.0182841,36.080956],[139.0182485,36.0809919],[139.0182325,36.0810234],[139.0182139,36.0811227],[139.0182157,36.0812955],[139.0182378,36.0813979],[139.0182786,36.0815737],[139.0183366,36.0818251],[139.018363,36.0819104],[139.0184211,36.0820562],[139.0184566,36.0821415],[139.018465,36.0821758],[139.0184565,36.0822216],[139.0184381,36.0822563],[139.0184013,36.0822856],[139.0183759,36.0822976],[139.0182972,36.0823084],[139.0180819,36.0823304],[139.0179274,36.0823475],[139.0175936,36.0824164],[139.0172505,36.0824703],[139.0171417,36.0824946],[139.0169667,36.0825373],[139.0166718,36.0826302],[139.016478,36.0827051],[139.0163225,36.0827943],[139.0162432,36.0828403],[139.0161422,36.0829393],[139.0161141,36.0829825],[139.015978,36.0830968],[139.015909,36.0831744],[139.0158247,36.083216],[139.0157511,36.0832607],[139.01566824640256,36.083333333333336],[139.0125,36.083333333333336]]]},"properties":{"layer":"landuse","class_code":"203","class_label":"山林（樹林地）"}}]}