{"type":"FeatureCollection","properties":{"mesh_code":"54390140","source":"PLATEAU秩父市2025","layer":"landuse"},"features":[{"type":"Feature","id":"luse_133d5ff1-aa4b-45ee-a3e6-f2e1265db748","geometry":{"type":"Polygon","coordinates":[[[139.1286212,36.0339815],[139.1279911,36.0340675],[139.1279824,36.0339777],[139.1279829,36.0339777],[139.1279764,36.0339017],[139.1279697,36.0338256],[139.1279652,36.033715],[139.1279566,36.0335022],[139.127949,36.0334205],[139.1279265,36.0333759],[139.12788948550727,36.03333333333333],[139.12983152736987,36.03333333333333],[139.1297565,36.0334667],[139.1297328,36.0334863],[139.1297181,36.0335023],[139.1296551,36.0335539],[139.1296631,36.033582],[139.1287847,36.0335769],[139.1287835,36.0337129],[139.1287819,36.03389],[139.1286212,36.0339815]]]},"properties":{"layer":"landuse","class_code":"203","class_label":"山林（樹林地）"}},{"type":"Feature","id":"luse_b17fc614-2ba4-4d9f-81b0-e89a33e8a05a","geometry":{"type":"Polygon","coordinates":[[[139.1259601,36.0389791],[139.1259493,36.0390407],[139.125776,36.0391063],[139.125486,36.0392374],[139.1254636,36.0391181],[139.1252926,36.0391466],[139.1252516,36.0390259],[139.1252843,36.0389783],[139.1255105,36.0388864],[139.1256705,36.0388761],[139.1256732,36.0388759],[139.1256866,36.0388751],[139.1256872,36.038875],[139.1256903,36.0388752],[139.1257309,36.0388789],[139.1258452,36.0388893],[139.1258634,36.0388875],[139.1258638,36.0388875],[139.1258701,36.0388865],[139.1258705,36.0388864],[139.1258754,36.0388856],[139.1258767,36.0388855],[139.1258804,36.0388853],[139.1258826,36.0388852],[139.1258837,36.0388852],[139.1258867,36.0388852],[139.1258901,36.0388852],[139.1258928,36.0388853],[139.1258955,36.0388853],[139.1259144,36.0388882],[139.1259158,36.0388883],[139.1259217,36.038898],[139.1259393,36.038931],[139.125941,36.0389349],[139.1259561,36.0389686],[139.1259599,36.0389784],[139.1259601,36.0389791]]]},"properties":{"layer":"landuse","class_code":"213","class_label":"工業用地（工場）"}}]}