{"type":"FeatureCollection","properties":{"mesh_code":"54390086","source":"PLATEAU秩父市2025","layer":"landuse"},"features":[{"type":"Feature","id":"luse_5f4b667d-00b0-4270-aa8c-c970bbcb5d39","geometry":{"type":"Polygon","coordinates":[[[139.08598240687604,36.06666666666667],[139.0859064,36.0667539],[139.0858303,36.0668693],[139.0857344,36.0669908],[139.0856713,36.0670439],[139.0855965,36.0669779],[139.0855513,36.0669417],[139.0854944,36.0669069],[139.0854446,36.0668623],[139.0854808,36.0668099],[139.0854947,36.0667898],[139.0855795326512,36.06666666666667],[139.0856597968474,36.06666666666667],[139.0858123,36.0667225],[139.0858318,36.0667214],[139.08587681152844,36.06666666666667],[139.08598240687604,36.06666666666667]]]},"properties":{"layer":"landuse","class_code":"202","class_label":"畑（畑、樹園地、採草地、養鶏（牛・豚）場）"}},{"type":"Feature","id":"luse_37533095-77c2-47de-89ff-68d76fea7a5c","geometry":{"type":"Polygon","coordinates":[[[139.08535559963636,36.06666666666667],[139.0853965,36.0667422],[139.0853949,36.0667444],[139.0853342,36.066832],[139.0852954,36.0667857],[139.08520003482775,36.06666666666667],[139.08535559963636,36.06666666666667]]]},"properties":{"layer":"landuse","class_code":"203","class_label":"山林（樹林地）"}},{"type":"Feature","id":"luse_06b2f55f-a029-4778-8e7c-54cc4dacf8fb","geometry":{"type":"Polygon","coordinates":[[[139.08520003482775,36.06666666666667],[139.0852954,36.0667857],[139.0853342,36.066832],[139.085209,36.0670132],[139.085204,36.0670069],[139.0851672,36.0669509],[139.0851106,36.0668688],[139.0850292,36.0667478],[139.0849878,36.0666883],[139.0849730072464,36.06666666666667],[139.08520003482775,36.06666666666667]]]},"properties":{"layer":"landuse","class_code":"204","class_label":"水面（河川水面、湖沼、ため池、用水路、濠、運河水面）"}},{"type":"Feature","id":"luse_c2057fa7-874e-4cf3-910d-7b09c3aeb4ef","geometry":{"type":"Polygon","coordinates":[[[139.086271,36.0675498],[139.0862595,36.0675766],[139.0862286,36.0676418],[139.0861862,36.0677365],[139.0861092,36.0678478],[139.0859995,36.0679948],[139.0859516,36.0679262],[139.0855037,36.0673829],[139.0853196,36.0671506],[139.0852797,36.067101],[139.0853527,36.0669953],[139.0853566,36.0669897],[139.0854062,36.0669179],[139.085409,36.0669213],[139.0854381,36.066956],[139.0855227,36.0669959],[139.0855404,36.067003],[139.0855485,36.0670079],[139.0855469,36.0670142],[139.0855461,36.0670374],[139.0855457,36.0670716],[139.0855461,36.0670916],[139.0855416,36.0671084],[139.0855347,36.0671252],[139.0855265,36.0671394],[139.0855265,36.0671404],[139.0855266,36.0671514],[139.0855523,36.0671701],[139.0855663,36.0671813],[139.0855747,36.067193],[139.0855932,36.0672154],[139.0856063,36.0672274],[139.0856151,36.0672382],[139.0856258,36.06725],[139.0856429,36.0672619],[139.0856593,36.0672702],[139.0856657,36.0672746],[139.0856732,36.0672798],[139.0856846,36.067289],[139.0856866,36.0672956],[139.0856907,36.0673093],[139.0856907,36.0673177],[139.0856923,36.0673318],[139.0856968,36.0673436],[139.0857056,36.0673524],[139.0857188,36.0673616],[139.0857306,36.0673715],[139.0857455,36.0673851],[139.0857553,36.0673988],[139.0857739,36.0674109],[139.0857909,36.0674267],[139.0858053,36.0674382],[139.0858237,36.0674513],[139.0858318,36.0674585],[139.0858409,36.0674666],[139.0858532,36.0674809],[139.0858651,36.0674843],[139.0858696,36.0674856],[139.0858874,36.0674858],[139.0859076,36.0674897],[139.0859219,36.0675006],[139.0859376,36.0675118],[139.0859544,36.0675257],[139.085973,36.0675342],[139.0859951,36.0675376],[139.0860155,36.0675342],[139.0860286,36.0675281],[139.0860397,36.0675143],[139.086042,36.0674971],[139.0860397,36.0674845],[139.0860322,36.0674767],[139.0860222,36.0674597],[139.0860248,36.0674472],[139.0860327,36.0674374],[139.086042,36.0674292],[139.0860547,36.0674142],[139.0860608,36.0673936],[139.0860618,36.0673748],[139.0860616,36.0673643],[139.0860614,36.0673558],[139.0860599,36.0673305],[139.0860579,36.0673133],[139.0860505,36.0672831],[139.0860497,36.06728],[139.0860768,36.0672316],[139.0860861,36.0672155],[139.0860933,36.0672066],[139.0861015,36.0671952],[139.0861116,36.067169],[139.0861203,36.0671417],[139.0861269,36.0671176],[139.0861354,36.0670922],[139.086143,36.0670693],[139.0861483,36.06705],[139.0861536,36.0670278],[139.0861593,36.067009],[139.0861681,36.0669866],[139.0861745,36.0669726],[139.0861782,36.0669645],[139.0861873,36.0669445],[139.0861977,36.0669183],[139.0862082,36.0668931],[139.0862239,36.0668377],[139.0862299,36.0668146],[139.0862437,36.0667666],[139.0862515,36.0667432],[139.0862605,36.0667174],[139.0862682,36.0666916],[139.0862751,36.0666707],[139.08627680481098,36.06666666666667],[139.08662899771713,36.06666666666667],[139.086581,36.0668182],[139.0865245,36.066962],[139.0865083,36.0670103],[139.0864852,36.0670729],[139.0864646,36.0671175],[139.0864348,36.067189],[139.0864142,36.0672363],[139.0863729,36.0673221],[139.0863443,36.0673873],[139.0863157,36.0674507],[139.0862916,36.0675078],[139.086271,36.0675498]]]},"properties":{"layer":"landuse","class_code":"204","class_label":"水面（河川水面、湖沼、ため池、用水路、濠、運河水面）"}},{"type":"Feature","id":"luse_20921408-da73-4148-bb8c-23d82d41007a","geometry":{"type":"Polygon","coordinates":[[[139.0861483,36.06705],[139.086143,36.0670693],[139.0861354,36.0670922],[139.0861269,36.0671176],[139.0861203,36.0671417],[139.0861116,36.067169],[139.0861015,36.0671952],[139.0860933,36.0672066],[139.0860861,36.0672155],[139.0860768,36.0672316],[139.0860497,36.06728],[139.0860505,36.0672831],[139.0860579,36.0673133],[139.0860599,36.0673305],[139.0860614,36.0673558],[139.0860616,36.0673643],[139.0860618,36.0673748],[139.0860608,36.0673936],[139.0860547,36.0674142],[139.086042,36.0674292],[139.0860327,36.0674374],[139.0860248,36.0674472],[139.0860222,36.0674597],[139.0860322,36.0674767],[139.0860397,36.0674845],[139.086042,36.0674971],[139.0860397,36.0675143],[139.0860286,36.0675281],[139.0860155,36.0675342],[139.0859951,36.0675376],[139.085973,36.0675342],[139.0859544,36.0675257],[139.0859376,36.0675118],[139.0859219,36.0675006],[139.0859076,36.0674897],[139.0858874,36.0674858],[139.0858696,36.0674856],[139.0858651,36.0674843],[139.0858532,36.0674809],[139.0858409,36.0674666],[139.0858318,36.0674585],[139.0858237,36.0674513],[139.0858053,36.0674382],[139.0857909,36.0674267],[139.0857739,36.0674109],[139.0857553,36.0673988],[139.0857455,36.0673851],[139.0857306,36.0673715],[139.0857188,36.0673616],[139.0857056,36.0673524],[139.0856968,36.0673436],[139.0856923,36.0673318],[139.0856907,36.0673177],[139.0856907,36.0673093],[139.0856866,36.0672956],[139.0856846,36.067289],[139.0856732,36.0672798],[139.0856657,36.0672746],[139.0856593,36.0672702],[139.0856429,36.0672619],[139.0856258,36.06725],[139.0856151,36.0672382],[139.0856063,36.0672274],[139.0855932,36.0672154],[139.0855747,36.067193],[139.0855663,36.0671813],[139.0855523,36.0671701],[139.0855266,36.0671514],[139.0855265,36.0671404],[139.0855265,36.0671394],[139.0855347,36.0671252],[139.0855416,36.0671084],[139.0855461,36.0670916],[139.0855457,36.0670716],[139.0855461,36.0670374],[139.0855469,36.0670142],[139.0855485,36.0670079],[139.0855404,36.067003],[139.0855227,36.0669959],[139.0854381,36.066956],[139.085409,36.0669213],[139.0854062,36.0669179],[139.0854446,36.0668623],[139.0854944,36.0669069],[139.0855513,36.0669417],[139.0855965,36.0669779],[139.0856713,36.0670439],[139.0857344,36.0669908],[139.0858303,36.0668693],[139.0859064,36.0667539],[139.08598240687604,36.06666666666667],[139.08627680481098,36.06666666666667],[139.0862751,36.0666707],[139.0862682,36.0666916],[139.0862605,36.0667174],[139.0862515,36.0667432],[139.0862437,36.0667666],[139.0862299,36.0668146],[139.0862239,36.0668377],[139.0862082,36.0668931],[139.0861977,36.0669183],[139.0861873,36.0669445],[139.0861782,36.0669645],[139.0861745,36.0669726],[139.0861681,36.0669866],[139.0861593,36.067009],[139.0861536,36.0670278],[139.0861483,36.06705]]]},"properties":{"layer":"landuse","class_code":"205","class_label":"その他自然地（原野・牧野、荒れ地（耕作放棄地等自然的状況のもの）、低湿地、河川敷・河原、海浜、湖岸）"}},{"type":"Feature","id":"luse_91fec149-e5ee-454c-bad4-00c39a19c1c1","geometry":{"type":"Polygon","coordinates":[[[139.08587681152844,36.06666666666667],[139.0858318,36.0667214],[139.0858123,36.0667225],[139.0856597968474,36.06666666666667],[139.08587681152844,36.06666666666667]]]},"properties":{"layer":"landuse","class_code":"211","class_label":"住宅用地（住宅、共同住宅、店舗等併用住宅、店舗等併用共同住宅、作業所併用住宅）"}},{"type":"Feature","id":"luse_f8e3c7d5-e957-44d3-8702-58ce1b10981a","geometry":{"type":"Polygon","coordinates":[[[139.08544905726038,36.06666666666667],[139.0853965,36.0667422],[139.08535559963636,36.06666666666667],[139.08544905726038,36.06666666666667]]]},"properties":{"layer":"landuse","class_code":"212","class_label":"商業用地（業務施設、商業施設、宿泊施設、商業系複合施設）"}},{"type":"Feature","id":"luse_144bbcca-16c1-447a-bf29-1c22ed7d93ca","geometry":{"type":"Polygon","coordinates":[[[139.0854062,36.0669179],[139.0853566,36.0669897],[139.0853527,36.0669953],[139.0852797,36.067101],[139.085209,36.0670132],[139.0853342,36.066832],[139.0853949,36.0667444],[139.0853965,36.0667422],[139.08544905726038,36.06666666666667],[139.0855795326512,36.06666666666667],[139.0854947,36.0667898],[139.0854808,36.0668099],[139.0854446,36.0668623],[139.0854062,36.0669179]]]},"properties":{"layer":"landuse","class_code":"215","class_label":"道路用地（道路、駅前広場、私有地内に存在する沿道用途の「私道」または、私有地の一部分であるものの公共の通行に供されている土地の部分）"}}]}