{"type":"FeatureCollection","properties":{"mesh_code":"54390023","source":"PLATEAU秩父市2025","layer":"landuse"},"features":[{"type":"Feature","id":"luse_c3df8bac-996d-4d08-b2f5-cce1338fa14b","geometry":{"type":"Polygon","coordinates":[[[139.0404161,36.024019],[139.0402601,36.0242537],[139.0402467,36.0242734],[139.0402383,36.0242864],[139.0398551,36.0238791],[139.0399194,36.0238633],[139.0399987,36.0238446],[139.0401376,36.0238122],[139.0401979,36.0238017],[139.0404161,36.024019]]]},"properties":{"layer":"landuse","class_code":"201","class_label":"田（水田）"}},{"type":"Feature","id":"luse_89ca3889-2b91-4ddd-8906-6ec92853d530","geometry":{"type":"Polygon","coordinates":[[[139.0394298,36.0217609],[139.0394386,36.0217646],[139.0394246,36.0218049],[139.0394133,36.0218376],[139.0392379,36.021877],[139.0392375,36.0218771],[139.0392235,36.0218788],[139.0392352,36.0216754],[139.0394298,36.0217609]]]},"properties":{"layer":"landuse","class_code":"202","class_label":"畑（畑、樹園地、採草地、養鶏（牛・豚）場）"}},{"type":"Feature","id":"luse_f48fd8c4-fbed-4c12-8888-a40be1e86c4e","geometry":{"type":"Polygon","coordinates":[[[139.0388147,36.0219241],[139.0388395,36.0219266],[139.0388398,36.0219266],[139.03892,36.0219307],[139.0391144,36.0219152],[139.0391148,36.0219151],[139.0392435,36.0218991],[139.0392752,36.0218921],[139.0392762,36.021892],[139.0393109,36.0218843],[139.0393112,36.0218842],[139.0393952,36.0218658],[139.0394031,36.0218641],[139.0394008,36.0218861],[139.0393686,36.0219893],[139.0393086,36.0221684],[139.0393029,36.0221853],[139.0392892,36.0222476],[139.0392287,36.0224728],[139.0391673,36.0226762],[139.0391504,36.0227323],[139.0391349,36.0227899],[139.0391042,36.0229018],[139.0387834,36.0228062],[139.0387595,36.022848],[139.0386094,36.0228222],[139.0384313,36.0227924],[139.0385002,36.0227051],[139.0385266,36.0226537],[139.0385323,36.0225527],[139.0387955,36.0225372],[139.038813,36.0224267],[139.0389525,36.0220995],[139.0388917,36.0220781],[139.0388402,36.0220568],[139.0388216,36.0220357],[139.0388151,36.021986],[139.0388147,36.0219241]]]},"properties":{"layer":"landuse","class_code":"202","class_label":"畑（畑、樹園地、採草地、養鶏（牛・豚）場）"}},{"type":"Feature","id":"luse_11b5b09d-3b18-4fbf-b25f-459a004aa9bb","geometry":{"type":"Polygon","coordinates":[[[139.0387417,36.0233295],[139.0388157,36.0233826],[139.0388527,36.0234041],[139.03888,36.0234199],[139.0388588,36.0234566],[139.038838,36.0234903],[139.0387768,36.0235838],[139.0386783,36.0237218],[139.0384947,36.0236588],[139.0386961,36.0232876],[139.0387417,36.0233295]]]},"properties":{"layer":"landuse","class_code":"202","class_label":"畑（畑、樹園地、採草地、養鶏（牛・豚）場）"}},{"type":"Feature","id":"luse_3bbe6793-2514-42da-93a7-e8fd1f6bc282","geometry":{"type":"Polygon","coordinates":[[[139.0380671,36.0240281],[139.0381461,36.0240561],[139.038346,36.0241773],[139.0383143,36.0242217],[139.0382712,36.0242687],[139.0379835,36.0241294],[139.0380261,36.0240255],[139.0380671,36.0240281]]]},"properties":{"layer":"landuse","class_code":"202","class_label":"畑（畑、樹園地、採草地、養鶏（牛・豚）場）"}},{"type":"Feature","id":"luse_f45f09a7-fd74-437d-918c-492eea8d4467","geometry":{"type":"Polygon","coordinates":[[[139.0402922,36.0244102],[139.0403035,36.0244111],[139.0403181,36.0244156],[139.0404219,36.0244967],[139.0405244,36.0245988],[139.0405469,36.0246286],[139.0405547,36.0246451],[139.0405562,36.0246606],[139.0405557,36.024674],[139.0405502,36.0246843],[139.0405366,36.0247074],[139.0403466,36.0248346],[139.0403063,36.0248693],[139.0400737,36.0247185],[139.0401539,36.0246074],[139.0402865,36.0244097],[139.0402922,36.0244102]]]},"properties":{"layer":"landuse","class_code":"202","class_label":"畑（畑、樹園地、採草地、養鶏（牛・豚）場）"}},{"type":"Feature","id":"luse_7705fec7-3554-4c1a-9110-ce51350a7fc7","geometry":{"type":"Polygon","coordinates":[[[139.0379595,36.0246288],[139.0379124,36.0246875],[139.0378707,36.024739],[139.0378474,36.0247793],[139.0378344,36.0248146],[139.0378273,36.024847],[139.0378253,36.0248836],[139.0378261,36.024925],[139.0378286,36.0249658],[139.03783258594308,36.025],[139.03758181993356,36.025],[139.0375494,36.0249786],[139.0376409,36.0246368],[139.0375,36.02460980243544],[139.0375,36.02424132535939],[139.0375989,36.0242916],[139.0375129,36.0244773],[139.0377294,36.0245477],[139.0378303,36.0244441],[139.0378778,36.0244594],[139.0379656,36.0244962],[139.0380178,36.0245193],[139.0380419,36.0245299],[139.0380279,36.024545],[139.0379595,36.0246288]]]},"properties":{"layer":"landuse","class_code":"202","class_label":"畑（畑、樹園地、採草地、養鶏（牛・豚）場）"}},{"type":"Feature","id":"luse_6ce8ea50-844c-4024-b944-a193c8e69995","geometry":{"type":"Polygon","coordinates":[[[139.0400613047976,36.025],[139.03983258339798,36.025],[139.0399182,36.0249037],[139.0400429,36.0249876],[139.0400613047976,36.025]]]},"properties":{"layer":"landuse","class_code":"202","class_label":"畑（畑、樹園地、採草地、養鶏（牛・豚）場）"}},{"type":"Feature","id":"luse_8b578fa9-4e6c-493a-b58d-4258841a9f42","geometry":{"type":"Polygon","coordinates":[[[139.039177,36.0249074],[139.0391983,36.0249741],[139.0392065941061,36.025],[139.03831641348313,36.025],[139.0382416,36.0249959],[139.0382198,36.0247815],[139.0381646,36.0247865],[139.0381253,36.0247965],[139.0380965,36.0248113],[139.0380694,36.0248251],[139.0379452,36.0247928],[139.0379316,36.0247767],[139.0379363,36.0247666],[139.0379684,36.0247167],[139.0380151,36.0246586],[139.0381412,36.0247312],[139.0382154,36.0246532],[139.03848,36.0245555],[139.0381948,36.0244426],[139.0383702,36.0242515],[139.0383801,36.0242376],[139.0384154,36.024188],[139.038482,36.0241716],[139.0385469,36.024254],[139.03863,36.0243957],[139.0386925,36.0244953],[139.0388807,36.0244366],[139.0389172,36.0246088],[139.0391214,36.024591],[139.039177,36.0249074]]]},"properties":{"layer":"landuse","class_code":"202","class_label":"畑（畑、樹園地、採草地、養鶏（牛・豚）場）"}},{"type":"Feature","id":"luse_e3a38454-3630-4430-84e5-e57cb76fd9da","geometry":{"type":"Polygon","coordinates":[[[139.04083659906252,36.025],[139.0409064,36.0249643],[139.0409096,36.0249622],[139.0410299,36.0248747],[139.0410695,36.0248459],[139.0411103,36.0247644],[139.0411139,36.0247576],[139.0411199,36.0247461],[139.0411546,36.0246798],[139.0411272,36.024611],[139.0410075,36.0245411],[139.0408872,36.0244708],[139.040997,36.024353],[139.0410826,36.0242893],[139.0411352,36.0243057],[139.0411529,36.0243112],[139.0411759,36.0243183],[139.0411809,36.024313],[139.0412196,36.0242519],[139.0412815,36.0241544],[139.041044,36.0240889],[139.0410375,36.024086],[139.041011,36.0240783],[139.0410045,36.0240739],[139.0409931,36.0240684],[139.0409728,36.0240613],[139.0409521,36.0240541],[139.0408536,36.02402],[139.0407301,36.0239807],[139.0406031,36.0239403],[139.0406157,36.0239197],[139.0406978,36.0237859],[139.0407288,36.0237331],[139.0408158,36.0237334],[139.0409785,36.0237427],[139.0411532,36.0237514],[139.0413306,36.0237665],[139.0414727,36.0237761],[139.041436,36.023841],[139.0413008,36.0240227],[139.0414498,36.0240846],[139.0414498,36.0241135],[139.0414158,36.0241955],[139.0414194,36.024254],[139.0413906,36.0243144],[139.0413454,36.0243745],[139.0412899,36.0244481],[139.0412807,36.0245308],[139.0412957,36.0245764],[139.0412987,36.0245855],[139.0413129,36.0245917],[139.0413824,36.0246221],[139.0413444,36.0247952],[139.0413337,36.0248441],[139.0412932,36.0249171],[139.04123002037701,36.025],[139.04083659906252,36.025]]]},"properties":{"layer":"landuse","class_code":"202","class_label":"畑（畑、樹園地、採草地、養鶏（牛・豚）場）"}},{"type":"Feature","id":"luse_ee672142-93ea-4534-ac9a-9f1e7da4c6b1","geometry":{"type":"Polygon","coordinates":[[[139.04439138543847,36.025],[139.0443931,36.0249904],[139.0441589,36.0249448],[139.0442331,36.0246864],[139.0443935,36.0247115],[139.0444295,36.0246907],[139.0445283,36.0246963],[139.0445594,36.024548],[139.044275,36.0244478],[139.04409562483733,36.025],[139.0437337625,36.025],[139.0437587,36.0249354],[139.0438456,36.0247595],[139.0439142,36.0246479],[139.0440068,36.0244911],[139.0441468,36.0242822],[139.0442738,36.0242091],[139.0444115,36.024241],[139.0446514,36.0243141],[139.0449053,36.0244708],[139.0450453,36.0245576],[139.0449534,36.0246763],[139.044858,36.0247996],[139.0448722,36.024845],[139.0449306,36.0248764],[139.0449834,36.0248815],[139.0449829,36.0249292],[139.0449775435955,36.025],[139.04439138543847,36.025]]]},"properties":{"layer":"landuse","class_code":"202","class_label":"畑（畑、樹園地、採草地、養鶏（牛・豚）場）"}},{"type":"Feature","id":"luse_d75a4d6f-ed35-4c4c-aeb2-c4e1d8c2efe9","geometry":{"type":"Polygon","coordinates":[[[139.0375,36.02016038769414],[139.0375709,36.020193],[139.0377954,36.0202884],[139.0381511,36.02044],[139.03822,36.0204872],[139.0382937,36.0205674],[139.0383593,36.0206523],[139.0382569,36.0206577],[139.0382429,36.0206101],[139.0382287,36.0205505],[139.0382143,36.020522],[139.0382126,36.0205187],[139.0381934,36.02049],[139.0381778,36.020473],[139.038177,36.020472],[139.0381673,36.0204643],[139.0381462,36.020453],[139.0378782,36.020341],[139.0378184,36.020316],[139.0375,36.02018285451151],[139.0375,36.02016038769414]]]},"properties":{"layer":"landuse","class_code":"203","class_label":"山林（樹林地）"}},{"type":"Feature","id":"luse_befea5e5-5fa9-4d09-8b0b-4fee7ab6294d","geometry":{"type":"Polygon","coordinates":[[[139.0392235,36.0218788],[139.0391111,36.0218928],[139.0389195,36.0219081],[139.0388648,36.0219053],[139.0388422,36.0219042],[139.0387912,36.0218991],[139.0387531,36.0218887],[139.0387338,36.0218782],[139.0387055,36.0218459],[139.0386685,36.0218026],[139.0386232,36.0217758],[139.0386019,36.0217656],[139.0385801,36.0217582],[139.0385384,36.0217485],[139.0385313,36.0217468],[139.0385131,36.0217426],[139.0385048,36.0217385],[139.0385003,36.021733],[139.0384849,36.0217089],[139.0384653,36.0216721],[139.0384299,36.0216294],[139.0384019,36.0216023],[139.0383693,36.0215711],[139.0383132,36.0215223],[139.0382979,36.0215088],[139.0383165,36.021434],[139.0383339,36.0213635],[139.0383407,36.0213359],[139.038499,36.0214034],[139.0386917,36.0214848],[139.0387103,36.0214926],[139.0387436,36.0214977],[139.0388258,36.021494],[139.0390611,36.0216007],[139.0392094,36.021664],[139.0392352,36.0216754],[139.0392235,36.0218788]]]},"properties":{"layer":"landuse","class_code":"203","class_label":"山林（樹林地）"}},{"type":"Feature","id":"luse_817233a6-ef2e-4ed1-bc13-14ca1562a9b7","geometry":{"type":"Polygon","coordinates":[[[139.0375,36.02106489882158],[139.0378419,36.0212525],[139.0379621,36.0213205],[139.0380319,36.0213396],[139.0380846,36.0213509],[139.038085,36.0213509],[139.038153,36.0213549],[139.0381534,36.0213549],[139.038189,36.0213529],[139.0382037,36.0213495],[139.0382178,36.0213463],[139.0382525,36.0213255],[139.0382964,36.0212823],[139.0382998,36.0212817],[139.0383089,36.0212801],[139.0383092,36.02128],[139.0382847,36.0213796],[139.0382542,36.0215026],[139.0382465,36.0215396],[139.0380635,36.0215024],[139.0379319,36.0214515],[139.0378294,36.0214222],[139.0376449,36.0213804],[139.0375485,36.0213369],[139.0375,36.02129687425896],[139.0375,36.02182148826794],[139.0376399,36.0219086],[139.0376821,36.0219328],[139.0380471,36.0220768],[139.0381494,36.0221171],[139.0381758,36.0221286],[139.038188,36.0221465],[139.0381436,36.0222249],[139.0380728,36.0223055],[139.0380189,36.022357],[139.0379569,36.0224002],[139.0379005,36.022428],[139.0378642,36.022437],[139.0378284,36.0224459],[139.0378281,36.0224459],[139.0377704,36.0224517],[139.03777,36.0224517],[139.0376369,36.0224534],[139.0375,36.02245502976191],[139.0375,36.02106489882158]]]},"properties":{"layer":"landuse","class_code":"203","class_label":"山林（樹林地）"}},{"type":"Feature","id":"luse_ed8ed18a-b913-42f0-b4b7-9f29894e0793","geometry":{"type":"Polygon","coordinates":[[[139.0379835,36.0241294],[139.0378052,36.0243973],[139.0377985,36.0243951],[139.037751,36.0243798],[139.0376444,36.0243093],[139.0375989,36.0242916],[139.0375,36.02424132535939],[139.0375,36.02386598709681],[139.0375488,36.023731],[139.0379061,36.0238069],[139.0380167,36.0234612],[139.0378375,36.0234397],[139.0378716,36.0233706],[139.0378418,36.023338],[139.0376993,36.0231818],[139.0376115,36.0230856],[139.0375034,36.0229606],[139.0375,36.022956674396134],[139.0375,36.022491045991565],[139.0376374,36.0224895],[139.0376377,36.0224895],[139.0377732,36.0224876],[139.0378376,36.0224813],[139.0379189,36.0224611],[139.0379829,36.0224294],[139.0380505,36.0223826],[139.0381079,36.0223277],[139.0381292,36.0223035],[139.0382081,36.022363],[139.0383008,36.0224045],[139.0384023,36.0224155],[139.0384788,36.0223892],[139.0385329,36.0223692],[139.0385301,36.0222142],[139.0385183,36.0221927],[139.0385149,36.0221358],[139.0385027,36.022103],[139.0385048,36.0220202],[139.038522,36.0219421],[139.0385343,36.0218869],[139.0382534,36.0218885],[139.0382605,36.0217929],[139.0382609,36.0217812],[139.0382628,36.021722],[139.0382677,36.021662],[139.0382686,36.0216511],[139.0382693,36.0216476],[139.0382714,36.0216376],[139.0382793,36.0216084],[139.0382915,36.0215455],[139.038293,36.0215377],[139.0383485,36.0215861],[139.0383806,36.0216169],[139.0384078,36.0216429],[139.0384406,36.0216829],[139.0384598,36.0217185],[139.038478,36.021747],[139.0384874,36.0217558],[139.0384993,36.0217628],[139.0385162,36.0217668],[139.0385166,36.0217669],[139.03857,36.0217793],[139.0385907,36.021786],[139.0386087,36.021795],[139.0386342,36.0218102],[139.0386481,36.0218185],[139.0386547,36.0218262],[139.0386827,36.0218589],[139.038688,36.0218649],[139.0387142,36.0218947],[139.0387408,36.0219092],[139.0387851,36.0219212],[139.0388143,36.0219241],[139.0388147,36.0219241],[139.0388151,36.021986],[139.0388216,36.0220357],[139.0388402,36.0220568],[139.0388917,36.0220781],[139.0389525,36.0220995],[139.038813,36.0224267],[139.0387955,36.0225372],[139.0385323,36.0225527],[139.0385266,36.0226537],[139.0385002,36.0227051],[139.0384313,36.0227924],[139.0383889,36.0227959],[139.0383366,36.0228623],[139.0382953,36.0229994],[139.038299,36.0230494],[139.0380983,36.0232985],[139.0382991,36.0234012],[139.0382352,36.0235558],[139.0384947,36.0236588],[139.0386783,36.0237218],[139.0386548,36.0237545],[139.0386074,36.0238131],[139.0385543,36.0238868],[139.0385155,36.0239454],[139.0384526,36.0240293],[139.0384313,36.024058],[139.038346,36.0241773],[139.0381461,36.0240561],[139.0380671,36.0240281],[139.0380261,36.0240255],[139.0379835,36.0241294]]]},"properties":{"layer":"landuse","class_code":"203","class_label":"山林（樹林地）"}},{"type":"Feature","id":"luse_b4170100-f724-40c0-9677-8f67aa33754d","geometry":{"type":"Polygon","coordinates":[[[139.0375,36.025],[139.0375,36.02499845142857],[139.03750235652174,36.025],[139.0375,36.025]]]},"properties":{"layer":"landuse","class_code":"203","class_label":"山林（樹林地）"}},{"type":"Feature","id":"luse_cfa2f5e7-5a75-41a0-88bf-cce1a5414b9b","geometry":{"type":"Polygon","coordinates":[[[139.04123002037701,36.025],[139.0412932,36.0249171],[139.0413337,36.0248441],[139.0413444,36.0247952],[139.0413824,36.0246221],[139.0413129,36.0245917],[139.0412987,36.0245855],[139.0412957,36.0245764],[139.0412807,36.0245308],[139.0412899,36.0244481],[139.0413454,36.0243745],[139.0413906,36.0243144],[139.0414194,36.024254],[139.0414158,36.0241955],[139.0414498,36.0241135],[139.0414498,36.0240846],[139.0413008,36.0240227],[139.041436,36.023841],[139.0414727,36.0237761],[139.0414916,36.0237774],[139.0415288,36.0237805],[139.0416076,36.0237724],[139.0417631,36.0237467],[139.0418309,36.0238128],[139.0418734,36.0238732],[139.0418419,36.0239454],[139.041768,36.0240021],[139.0417676,36.0240403],[139.0417575,36.0241129],[139.0417283,36.0241369],[139.0416576,36.0241993],[139.0415933,36.0242919],[139.0415763,36.024331],[139.041565,36.0243925],[139.0415737,36.0244499],[139.0415741,36.0244523],[139.0415877,36.0244892],[139.0415904,36.0244947],[139.0416078,36.0245307],[139.0416343,36.0245933],[139.0416369,36.0245994],[139.0416741,36.0246386],[139.0417036,36.0247125],[139.0417208,36.0247664],[139.0416383,36.0249178],[139.0416199,36.0249735],[139.0416143718543,36.025],[139.04123002037701,36.025]]]},"properties":{"layer":"landuse","class_code":"203","class_label":"山林（樹林地）"}},{"type":"Feature","id":"luse_99f9b5dd-6b10-40d4-91c9-2b69ea27ea80","geometry":{"type":"Polygon","coordinates":[[[139.04212279347826,36.025],[139.042104,36.024987],[139.0420756,36.0249519],[139.0420123,36.0248596],[139.0420065,36.0248511],[139.0420043,36.0248476],[139.0420142,36.0247764],[139.0419802,36.0246483],[139.0419384,36.0245003],[139.0419427,36.0244397],[139.0420032,36.0242612],[139.0421603,36.0241096],[139.0422698,36.024015],[139.0426031,36.0238622],[139.0429238,36.0237856],[139.0429943,36.023786],[139.0431972,36.0237445],[139.0432491,36.0237415],[139.0432858,36.0237411],[139.0433623,36.0237292],[139.0434566,36.0241927],[139.0434609,36.0242044],[139.0434696,36.0242293],[139.0434705,36.0242311],[139.0434785,36.0242477],[139.0434839,36.0242589],[139.0434994,36.0242909],[139.0435156,36.0243473],[139.0435186,36.0243579],[139.0434546,36.0243678],[139.0433791,36.0243387],[139.0432946,36.0243353],[139.0431719,36.0242815],[139.0430847,36.0243711],[139.0431195,36.0245903],[139.0432036,36.0246437],[139.0431472,36.0247311],[139.0430671,36.024814],[139.0430025,36.024816],[139.0429296,36.024763],[139.0429036,36.0247199],[139.0428603,36.0246481],[139.0428169,36.0245858],[139.0427648,36.0245163],[139.0427179,36.0245017],[139.0426474,36.0245108],[139.0425706,36.0245556],[139.0425318,36.0246197],[139.0424665,36.0246908],[139.0424421,36.0247837],[139.0424411,36.0248838],[139.0424522,36.024953],[139.04247537256165,36.025],[139.04212279347826,36.025]]]},"properties":{"layer":"landuse","class_code":"203","class_label":"山林（樹林地）"}},{"type":"Feature","id":"luse_5ce17339-f01e-493f-a01d-7cfe2be6c851","geometry":{"type":"Polygon","coordinates":[[[139.05,36.016666666666666],[139.05,36.01742052033899],[139.0498964,36.0173849],[139.0497911,36.0173477],[139.0497713,36.0173405],[139.0497457,36.017327],[139.0496442,36.0172674],[139.0495932,36.017235],[139.0495622,36.0172151],[139.0495159,36.0171826],[139.0495037,36.0171754],[139.0494438,36.0171752],[139.0493408,36.0171336],[139.0492781,36.0170563],[139.0491974,36.0170066],[139.0491675,36.0169868],[139.0491476,36.0169696],[139.0491278,36.0169471],[139.0491167,36.0169291],[139.0490818,36.0168598],[139.0490613,36.016823],[139.0491069,36.016678],[139.04910143290644,36.016666666666666],[139.05,36.016666666666666]]]},"properties":{"layer":"landuse","class_code":"203","class_label":"山林（樹林地）"}},{"type":"Feature","id":"luse_1bd406af-000f-4d11-9e3c-3b7e0bfbd923","geometry":{"type":"Polygon","coordinates":[[[139.0452137739366,36.025],[139.0451997,36.0246826],[139.0449534,36.0246763],[139.0450453,36.0245576],[139.0449053,36.0244708],[139.0446514,36.0243141],[139.0444115,36.024241],[139.0442738,36.0242091],[139.0441468,36.0242822],[139.0440068,36.0244911],[139.0439142,36.0246479],[139.0438456,36.0247595],[139.0437587,36.0249354],[139.0437337625,36.025],[139.04362053018866,36.025],[139.0435867,36.0249837],[139.0435757,36.0249698],[139.0435753,36.0249692],[139.0435746,36.0249684],[139.0435982,36.0248986],[139.0436165,36.0248457],[139.0436242,36.0248015],[139.0436392,36.0247521],[139.04364,36.0247495],[139.0436363,36.0246262],[139.0436352,36.0246139],[139.0436271,36.0245156],[139.0436274,36.0244783],[139.0436275,36.0244734],[139.0436281,36.0244374],[139.0436194,36.0243871],[139.0436037,36.0243354],[139.0435841,36.0242768],[139.0435725,36.0242498],[139.0435633,36.0242286],[139.0435413,36.0241773],[139.0434478,36.0237182],[139.0434405,36.0236794],[139.0434566,36.0236765],[139.0434895,36.0236699],[139.0436228,36.0236428],[139.0438497,36.0236023],[139.0438957,36.023599],[139.0439425,36.0236029],[139.0440281,36.0236169],[139.0440955,36.0236142],[139.0441996,36.0236018],[139.0443113,36.0235895],[139.0444655,36.0235698],[139.0445633,36.023555],[139.0446779,36.0235445],[139.0447759,36.0235434],[139.0448598,36.0235406],[139.0449244,36.0235371],[139.0449557,36.0235335],[139.0450034,36.0235214],[139.0450202,36.0235112],[139.0450346,36.0234908],[139.045051,36.0234717],[139.0450783,36.0234503],[139.0451077,36.0234356],[139.0451914,36.0234053],[139.0452864,36.0233762],[139.045415,36.0233429],[139.045469,36.0233189],[139.0455124,36.0233007],[139.0456082,36.0232555],[139.04569,36.0232083],[139.0457973,36.0231525],[139.0458959,36.0231062],[139.0459264,36.0230859],[139.0459354,36.0230769],[139.0459448,36.0230652],[139.0459537,36.0230482],[139.0459606,36.0230327],[139.0459835,36.0229749],[139.0459946,36.0229578],[139.046017,36.0229373],[139.0460456,36.0229182],[139.0460684,36.0229057],[139.0460875,36.0228954],[139.0461128,36.0228866],[139.0461322,36.0228771],[139.0461449,36.0228633],[139.0461494,36.0228428],[139.0461499,36.0228291],[139.0461549,36.0227517],[139.0461354,36.022616],[139.0461049,36.0225258],[139.0460698,36.0224271],[139.0460396,36.0223023],[139.046023,36.022242],[139.0459984,36.0221842],[139.0459698,36.0221258],[139.045941,36.0220583],[139.04593,36.0220205],[139.0459288,36.0220128],[139.0459297,36.0220106],[139.0459521,36.0219902],[139.046309,36.0219487],[139.0465038,36.0219475],[139.0466728,36.0220052],[139.0467091,36.022017],[139.0470051,36.0220318],[139.0472416,36.0220604],[139.0474047,36.022073],[139.0475835,36.0220858],[139.0476691,36.0220825],[139.0477872,36.0220632],[139.0478902,36.022025],[139.0480325,36.0219614],[139.0481247,36.0218868],[139.0481658,36.0218426],[139.0482357,36.0217496],[139.0483053,36.0216339],[139.0483383,36.0215219],[139.0483758,36.0214406],[139.0484823,36.021304],[139.0486041,36.0211971],[139.0486959,36.0211114],[139.0487449,36.0210628],[139.0488112,36.0209362],[139.048836,36.0208242],[139.048982,36.020757],[139.0491427,36.0206599],[139.0492926,36.0205467],[139.0493764,36.020473],[139.0495124,36.0204992],[139.0496069,36.0205451],[139.0497434,36.020623],[139.0498256,36.0206721],[139.0498786,36.0207276],[139.0498865,36.0206717],[139.0499035,36.0205981],[139.0499294,36.0205219],[139.0499823,36.0203668],[139.05,36.02031462136985],[139.05,36.025],[139.0452137739366,36.025]]]},"properties":{"layer":"landuse","class_code":"203","class_label":"山林（樹林地）"}},{"type":"Feature","id":"luse_d4d93fbc-3169-48eb-b5e4-e78366ced902","geometry":{"type":"Polygon","coordinates":[[[139.0438497,36.0236023],[139.0436228,36.0236428],[139.0434895,36.0236699],[139.0434566,36.0236765],[139.0434405,36.0236794],[139.0434293,36.0236177],[139.04403,36.0235419],[139.0444664,36.0234846],[139.0445742,36.023467],[139.0447112,36.0234285],[139.0449166,36.0233707],[139.0450431,36.0233222],[139.0452041,36.0232608],[139.0453761,36.0231918],[139.0455505,36.0230674],[139.045589,36.0230366],[139.0456908,36.0229553],[139.0457855,36.0228728],[139.0458341,36.0228305],[139.0458346,36.02283],[139.0458747,36.0227921],[139.0459684,36.0227035],[139.0460342,36.0226362],[139.0460648,36.0226048],[139.0460155,36.0224589],[139.0459786,36.0223285],[139.0459758,36.0223184],[139.0459336,36.0221777],[139.0459328,36.0221753],[139.0459232,36.0220273],[139.0459288,36.0220128],[139.04593,36.0220205],[139.045941,36.0220583],[139.0459698,36.0221258],[139.0459984,36.0221842],[139.046023,36.022242],[139.0460396,36.0223023],[139.0460698,36.0224271],[139.0461049,36.0225258],[139.0461354,36.022616],[139.0461549,36.0227517],[139.0461499,36.0228291],[139.0461494,36.0228428],[139.0461449,36.0228633],[139.0461322,36.0228771],[139.0461128,36.0228866],[139.0460875,36.0228954],[139.0460684,36.0229057],[139.0460456,36.0229182],[139.046017,36.0229373],[139.0459946,36.0229578],[139.0459835,36.0229749],[139.0459606,36.0230327],[139.0459537,36.0230482],[139.0459448,36.0230652],[139.0459354,36.0230769],[139.0459264,36.0230859],[139.0458959,36.0231062],[139.0457973,36.0231525],[139.04569,36.0232083],[139.0456082,36.0232555],[139.0455124,36.0233007],[139.045469,36.0233189],[139.045415,36.0233429],[139.0452864,36.0233762],[139.0451914,36.0234053],[139.0451077,36.0234356],[139.0450783,36.0234503],[139.045051,36.0234717],[139.0450346,36.0234908],[139.0450202,36.0235112],[139.0450034,36.0235214],[139.0449557,36.0235335],[139.0449244,36.0235371],[139.0448598,36.0235406],[139.0447759,36.0235434],[139.0446779,36.0235445],[139.0445633,36.023555],[139.0444655,36.0235698],[139.0443113,36.0235895],[139.0441996,36.0236018],[139.0440955,36.0236142],[139.0440281,36.0236169],[139.0439425,36.0236029],[139.0438957,36.023599],[139.0438497,36.0236023]]]},"properties":{"layer":"landuse","class_code":"204","class_label":"水面（河川水面、湖沼、ため池、用水路、濠、運河水面）"}},{"type":"Feature","id":"luse_cbc6db33-d5e5-489f-bc4b-a3181afa5819","geometry":{"type":"Polygon","coordinates":[[[139.04190534924243,36.025],[139.0418619,36.0249309],[139.0418105,36.0248633],[139.0418034,36.0248556],[139.0417647,36.0248138],[139.0417208,36.0247664],[139.0417036,36.0247125],[139.0416741,36.0246386],[139.0416369,36.0245994],[139.0416343,36.0245933],[139.0416078,36.0245307],[139.0415904,36.0244947],[139.0415877,36.0244892],[139.0415741,36.0244523],[139.0415737,36.0244499],[139.041565,36.0243925],[139.0415763,36.024331],[139.0415933,36.0242919],[139.0416576,36.0241993],[139.0417283,36.0241369],[139.0417575,36.0241129],[139.0417676,36.0240403],[139.041768,36.0240021],[139.0418419,36.0239454],[139.0418734,36.0238732],[139.0418782,36.0238799],[139.041919,36.0239482],[139.0420176,36.0239744],[139.0422508,36.0238272],[139.0424087,36.023734],[139.042552,36.0236895],[139.0427586,36.0236475],[139.0431282,36.023654],[139.0432756,36.0236371],[139.0433415,36.0236288],[139.0433551,36.0236946],[139.0433623,36.0237292],[139.0432858,36.0237411],[139.0432491,36.0237415],[139.0431972,36.0237445],[139.0429943,36.023786],[139.0429238,36.0237856],[139.0426031,36.0238622],[139.0422698,36.024015],[139.0421375,36.0240379],[139.0418991,36.0241008],[139.0418432,36.0241147],[139.0417983,36.0242002],[139.0417233,36.0243571],[139.0417371,36.0244526],[139.0417941,36.0245539],[139.0418938,36.0245982],[139.0419584,36.024715],[139.0420142,36.0247764],[139.0420043,36.0248476],[139.0420065,36.0248511],[139.0420123,36.0248596],[139.0420756,36.0249519],[139.042104,36.024987],[139.04212279347826,36.025],[139.04190534924243,36.025]]]},"properties":{"layer":"landuse","class_code":"204","class_label":"水面（河川水面、湖沼、ため池、用水路、濠、運河水面）"}},{"type":"Feature","id":"luse_f18a8cf3-147d-47a8-b37f-44a45027be27","geometry":{"type":"Polygon","coordinates":[[[139.0382137,36.0217262],[139.0381945,36.0217316],[139.0381736,36.0217327],[139.0381445,36.0217343],[139.0380916,36.0217328],[139.0380362,36.0217258],[139.0380358,36.0217258],[139.037971,36.0217151],[139.0379707,36.021715],[139.0379008,36.0216987],[139.0378306,36.021678],[139.0377949,36.0216656],[139.0377773,36.021648],[139.0377546,36.0216106],[139.0377408,36.021599],[139.0377269,36.0215873],[139.0376906,36.0215642],[139.0376372,36.0215329],[139.0376024,36.0215071],[139.0375627,36.0214794],[139.0375154,36.0214518],[139.0375,36.02143832499999],[139.0375,36.02129687425896],[139.0375485,36.0213369],[139.0376449,36.0213804],[139.0378294,36.0214222],[139.0379319,36.0214515],[139.0380635,36.0215024],[139.0382465,36.0215396],[139.0382244,36.0216467],[139.0382241,36.021651],[139.0382166,36.0217264],[139.0382137,36.0217262]]]},"properties":{"layer":"landuse","class_code":"205","class_label":"その他自然地（原野・牧野、荒れ地（耕作放棄地等自然的状況のもの）、低湿地、河川敷・河原、海浜、湖岸）"}},{"type":"Feature","id":"luse_79999877-f35e-4000-aee8-a8d81421b903","geometry":{"type":"Polygon","coordinates":[[[139.0384947,36.0236588],[139.0382352,36.0235558],[139.0382991,36.0234012],[139.0380983,36.0232985],[139.038299,36.0230494],[139.0382953,36.0229994],[139.0383366,36.0228623],[139.0383889,36.0227959],[139.0384313,36.0227924],[139.0386094,36.0228222],[139.0387595,36.022848],[139.0387834,36.0228062],[139.0391042,36.0229018],[139.0390955,36.0229335],[139.0390711,36.0230086],[139.0390397,36.0230857],[139.0390145,36.023137],[139.0387385,36.023031],[139.0386575,36.022989],[139.0385391,36.0231547],[139.0384632,36.0231188],[139.0383941,36.0232194],[139.0384737,36.0232448],[139.0385857,36.0233199],[139.0386284,36.0232763],[139.0386748,36.0232679],[139.0386961,36.0232876],[139.0384947,36.0236588]]]},"properties":{"layer":"landuse","class_code":"205","class_label":"その他自然地（原野・牧野、荒れ地（耕作放棄地等自然的状況のもの）、低湿地、河川敷・河原、海浜、湖岸）"}},{"type":"Feature","id":"luse_73ccdd7d-a9e9-4340-a04a-17959ffa066d","geometry":{"type":"Polygon","coordinates":[[[139.0391214,36.024591],[139.0389172,36.0246088],[139.0388807,36.0244366],[139.0388626,36.0243509],[139.0387367,36.024109],[139.0390129,36.0240411],[139.0390612,36.0240332],[139.0389559,36.0237531],[139.0386935,36.0237971],[139.0387069,36.0237806],[139.0388302,36.0236078],[139.0388923,36.023513],[139.0388989,36.0235022],[139.0389105,36.0234785],[139.0389236,36.0234703],[139.0389338,36.0234451],[139.039033,36.0232348],[139.0390526,36.0231933],[139.039097,36.0231026],[139.0391296,36.0230227],[139.0391545,36.0229463],[139.0392015,36.0228025],[139.0392171,36.0227937],[139.0391706,36.0229384],[139.0390656,36.0231973],[139.0389966,36.0233708],[139.0389717,36.0234217],[139.0389535,36.0234634],[139.0389854,36.0234883],[139.0390531,36.0235706],[139.0392121,36.0239436],[139.0392289,36.0239622],[139.0392684,36.0239893],[139.0393047,36.0239937],[139.0393558,36.0239938],[139.0394096,36.0239927],[139.0394757,36.0239833],[139.0395544,36.0239838],[139.0397002,36.0239499],[139.0397624,36.023924],[139.0398551,36.0238791],[139.0402383,36.0242864],[139.0401861,36.0243654],[139.040086,36.0245144],[139.0398507,36.0243627],[139.0396676,36.0244659],[139.0395622,36.0245233],[139.0395609,36.024524],[139.0395427,36.0245339],[139.0394008,36.0245956],[139.0393916,36.0245506],[139.0391197,36.0245811],[139.0391214,36.024591]]]},"properties":{"layer":"landuse","class_code":"205","class_label":"その他自然地（原野・牧野、荒れ地（耕作放棄地等自然的状況のもの）、低湿地、河川敷・河原、海浜、湖岸）"}},{"type":"Feature","id":"luse_b8dca0d0-f7e1-400d-9879-d973935ea1c3","geometry":{"type":"Polygon","coordinates":[[[139.0421603,36.0241096],[139.0420032,36.0242612],[139.0419427,36.0244397],[139.0419384,36.0245003],[139.0419802,36.0246483],[139.0420142,36.0247764],[139.0419584,36.024715],[139.0418938,36.0245982],[139.0417941,36.0245539],[139.0417371,36.0244526],[139.0417233,36.0243571],[139.0417983,36.0242002],[139.0418432,36.0241147],[139.0418991,36.0241008],[139.0421375,36.0240379],[139.0422698,36.024015],[139.0421603,36.0241096]]]},"properties":{"layer":"landuse","class_code":"205","class_label":"その他自然地（原野・牧野、荒れ地（耕作放棄地等自然的状況のもの）、低湿地、河川敷・河原、海浜、湖岸）"}},{"type":"Feature","id":"luse_7e973c12-3096-4862-aa1a-d6b1b6323f60","geometry":{"type":"Polygon","coordinates":[[[139.0435268,36.0244017],[139.0435329,36.0244372],[139.0435537,36.0245441],[139.0435696,36.0246261],[139.0435733,36.0247435],[139.0435586,36.0247912],[139.0435513,36.0248345],[139.0435341,36.0248831],[139.043489,36.0249953],[139.0434848,36.0249685],[139.043395,36.0249229],[139.0432855,36.0248344],[139.0431472,36.0247311],[139.0432036,36.0246437],[139.0431195,36.0245903],[139.0430847,36.0243711],[139.0431719,36.0242815],[139.0432946,36.0243353],[139.0433791,36.0243387],[139.0434546,36.0243678],[139.0435186,36.0243579],[139.0435268,36.0244017]]]},"properties":{"layer":"landuse","class_code":"205","class_label":"その他自然地（原野・牧野、荒れ地（耕作放棄地等自然的状況のもの）、低湿地、河川敷・河原、海浜、湖岸）"}},{"type":"Feature","id":"luse_b072a21b-787d-40a7-867b-496963fb4c88","geometry":{"type":"Polygon","coordinates":[[[139.0451997,36.0246826],[139.0452137739366,36.025],[139.0449775435955,36.025],[139.0449829,36.0249292],[139.0449834,36.0248815],[139.0449306,36.0248764],[139.0448722,36.024845],[139.044858,36.0247996],[139.0449534,36.0246763],[139.0451997,36.0246826]]]},"properties":{"layer":"landuse","class_code":"205","class_label":"その他自然地（原野・牧野、荒れ地（耕作放棄地等自然的状況のもの）、低湿地、河川敷・河原、海浜、湖岸）"}},{"type":"Feature","id":"luse_7ceb5a56-6960-4417-836f-37bd4a72abde","geometry":{"type":"Polygon","coordinates":[[[139.0416143718543,36.025],[139.0416199,36.0249735],[139.0416383,36.0249178],[139.0417208,36.0247664],[139.0417647,36.0248138],[139.0418034,36.0248556],[139.0418105,36.0248633],[139.0418619,36.0249309],[139.04190534924243,36.025],[139.0416143718543,36.025]]]},"properties":{"layer":"landuse","class_code":"205","class_label":"その他自然地（原野・牧野、荒れ地（耕作放棄地等自然的状況のもの）、低湿地、河川敷・河原、海浜、湖岸）"}},{"type":"Feature","id":"luse_596b9e10-e8fb-465b-88a5-aac7e7af3505","geometry":{"type":"Polygon","coordinates":[[[139.0383091,36.0209838],[139.0383308,36.0210778],[139.0383288,36.0211169],[139.0383277,36.0211655],[139.0383096,36.0212044],[139.0382894,36.021226],[139.0382583,36.0212561],[139.0382199,36.0212803],[139.0381765,36.0213012],[139.0381451,36.0213106],[139.0380938,36.0213141],[139.038057,36.0213115],[139.0380513,36.0213111],[139.0379791,36.0212947],[139.0379574,36.0212807],[139.0378678,36.0212232],[139.037757,36.0211559],[139.0375,36.02101869444122],[139.0375,36.02022347038123],[139.0378181,36.0203578],[139.0377837,36.0204356],[139.0377234,36.0205717],[139.0376866,36.0206553],[139.0376038,36.020842],[139.0376455,36.0208542],[139.0376957,36.0207412],[139.037708,36.0207134],[139.0377168,36.0206937],[139.0378916,36.0207415],[139.0378415,36.0208713],[139.0378838,36.0208784],[139.0379022,36.0208815],[139.0379526,36.0207202],[139.0377525,36.0206655],[139.0377516,36.0206651],[139.037731,36.0206595],[139.0378582,36.0203715],[139.0378704,36.0203782],[139.0381201,36.0204826],[139.0381391,36.0204954],[139.0381568,36.0205113],[139.0381862,36.0205618],[139.0381995,36.0206177],[139.0383091,36.0209838]]]},"properties":{"layer":"landuse","class_code":"211","class_label":"住宅用地（住宅、共同住宅、店舗等併用住宅、店舗等併用共同住宅、作業所併用住宅）"}},{"type":"Feature","id":"luse_0143acd4-7174-45a5-9b5b-6e02cc54359d","geometry":{"type":"Polygon","coordinates":[[[139.0384307,36.0207447],[139.0385179,36.0208521],[139.0385828,36.0209604],[139.0387248,36.0212003],[139.0387653,36.0212935],[139.0387768,36.0213817],[139.0387975,36.0214812],[139.0388258,36.021494],[139.0387436,36.0214977],[139.0387103,36.0214926],[139.0386917,36.0214848],[139.038499,36.0214034],[139.0383407,36.0213359],[139.0383699,36.0212181],[139.0383753,36.021075],[139.0383697,36.0210507],[139.0383589,36.0210043],[139.038302,36.020811],[139.0383009,36.0208072],[139.0382762,36.0207235],[139.0382569,36.0206577],[139.0383593,36.0206523],[139.0384307,36.0207447]]]},"properties":{"layer":"landuse","class_code":"211","class_label":"住宅用地（住宅、共同住宅、店舗等併用住宅、店舗等併用共同住宅、作業所併用住宅）"}},{"type":"Feature","id":"luse_3d8fd0cb-5a8f-497f-9a46-b4de6ea26a0b","geometry":{"type":"Polygon","coordinates":[[[139.0382106,36.0217911],[139.0381908,36.0220612],[139.0381872,36.022092],[139.0380428,36.0220351],[139.0379788,36.0220099],[139.0377047,36.0219017],[139.0376664,36.0218796],[139.0375,36.021776143467925],[139.0375,36.02147982444444],[139.0375318,36.0215055],[139.0375342,36.0215071],[139.0375464,36.0215156],[139.037573,36.0215341],[139.0376092,36.0215609],[139.037664,36.0215931],[139.0376966,36.0216137],[139.0377174,36.0216311],[139.0377369,36.0216631],[139.0377559,36.0216841],[139.0377735,36.0216973],[139.0378141,36.0217115],[139.0378144,36.0217116],[139.037887,36.021733],[139.0379603,36.0217502],[139.0380282,36.0217613],[139.0380579,36.021765],[139.0380583,36.0217651],[139.0380874,36.0217687],[139.0381452,36.0217703],[139.0381941,36.0217678],[139.0382034,36.0217673],[139.0382114,36.0217685],[139.0382106,36.0217911]]]},"properties":{"layer":"landuse","class_code":"211","class_label":"住宅用地（住宅、共同住宅、店舗等併用住宅、店舗等併用共同住宅、作業所併用住宅）"}},{"type":"Feature","id":"luse_90a5d770-7756-4ecf-b05d-6227c9f657ea","geometry":{"type":"Polygon","coordinates":[[[139.038522,36.0219421],[139.0385048,36.0220202],[139.0385027,36.022103],[139.0385149,36.0221358],[139.0385183,36.0221927],[139.0385301,36.0222142],[139.0385329,36.0223692],[139.0384788,36.0223892],[139.0384023,36.0224155],[139.0383008,36.0224045],[139.0382081,36.022363],[139.0381292,36.0223035],[139.0381823,36.022243],[139.0381832,36.0222414],[139.0382284,36.0221614],[139.0382301,36.0221554],[139.0382406,36.0220635],[139.0382438,36.0220196],[139.0382479,36.0219642],[139.0382534,36.0218885],[139.0385343,36.0218869],[139.038522,36.0219421]]]},"properties":{"layer":"landuse","class_code":"211","class_label":"住宅用地（住宅、共同住宅、店舗等併用住宅、店舗等併用共同住宅、作業所併用住宅）"}},{"type":"Feature","id":"luse_68ab2e8b-46d2-4179-8c7c-d4673cd3b215","geometry":{"type":"Polygon","coordinates":[[[139.0388852,36.0234111],[139.0388804,36.0234193],[139.03888,36.0234199],[139.0388527,36.0234041],[139.0388157,36.0233826],[139.0387417,36.0233295],[139.0386961,36.0232876],[139.0386748,36.0232679],[139.0386284,36.0232763],[139.0385857,36.0233199],[139.0384737,36.0232448],[139.0383941,36.0232194],[139.0384632,36.0231188],[139.0385391,36.0231547],[139.0386575,36.022989],[139.0387385,36.023031],[139.0390145,36.023137],[139.0389956,36.0231756],[139.0389811,36.0232064],[139.0389624,36.0232465],[139.0388852,36.0234111]]]},"properties":{"layer":"landuse","class_code":"211","class_label":"住宅用地（住宅、共同住宅、店舗等併用住宅、店舗等併用共同住宅、作業所併用住宅）"}},{"type":"Feature","id":"luse_ca42dd36-699f-4526-aa96-2b680683b0fa","geometry":{"type":"Polygon","coordinates":[[[139.0378118,36.0233611],[139.0377466,36.0235107],[139.0377463,36.0235106],[139.0375,36.023472185478994],[139.0375,36.023339536716094],[139.0375339,36.0232613],[139.0375,36.023249274067076],[139.0375,36.023019487303834],[139.0375466,36.0230733],[139.0375757,36.0231068],[139.0376388,36.023175],[139.0378118,36.0233611]]]},"properties":{"layer":"landuse","class_code":"211","class_label":"住宅用地（住宅、共同住宅、店舗等併用住宅、店舗等併用共同住宅、作業所併用住宅）"}},{"type":"Feature","id":"luse_7019b140-e94d-45a3-9aac-373a393b8b3b","geometry":{"type":"Polygon","coordinates":[[[139.0378375,36.0234397],[139.0380167,36.0234612],[139.0379061,36.0238069],[139.0375488,36.023731],[139.0375,36.0237206434635],[139.0375,36.02350988223527],[139.0376642,36.0235373],[139.0377797,36.0235565],[139.0377906,36.0235349],[139.037805,36.0235057],[139.0378366,36.0234416],[139.0378375,36.0234397]]]},"properties":{"layer":"landuse","class_code":"211","class_label":"住宅用地（住宅、共同住宅、店舗等併用住宅、店舗等併用共同住宅、作業所併用住宅）"}},{"type":"Feature","id":"luse_2e00d630-3763-4b9c-9fba-958b05cb9fa6","geometry":{"type":"Polygon","coordinates":[[[139.0405893,36.0237541],[139.0405858,36.0237594],[139.0404408,36.0239821],[139.0404161,36.024019],[139.0401979,36.0238017],[139.0404077,36.0237651],[139.0404918,36.0237521],[139.0406083,36.0237353],[139.0405893,36.0237541]]]},"properties":{"layer":"landuse","class_code":"211","class_label":"住宅用地（住宅、共同住宅、店舗等併用住宅、店舗等併用共同住宅、作業所併用住宅）"}},{"type":"Feature","id":"luse_9c2ec551-6ae9-4c78-8713-64463f592d23","geometry":{"type":"Polygon","coordinates":[[[139.0390612,36.0240332],[139.0390129,36.0240411],[139.0387367,36.024109],[139.0386652,36.0241266],[139.038482,36.0241716],[139.0384154,36.024188],[139.0384284,36.0241699],[139.0384458,36.0241454],[139.0384886,36.024085],[139.0384833,36.0240837],[139.0385684,36.0239701],[139.0386077,36.023911],[139.0386592,36.0238392],[139.0386935,36.0237971],[139.0389559,36.0237531],[139.0390612,36.0240332]]]},"properties":{"layer":"landuse","class_code":"211","class_label":"住宅用地（住宅、共同住宅、店舗等併用住宅、店舗等併用共同住宅、作業所併用住宅）"}},{"type":"Feature","id":"luse_04c75450-3284-483d-9715-0ae8f812cc3a","geometry":{"type":"Polygon","coordinates":[[[139.0382712,36.0242687],[139.0382547,36.0242867],[139.0382504,36.0242915],[139.0381624,36.0243874],[139.0381408,36.024411],[139.0380632,36.0244982],[139.0379863,36.0244643],[139.0378962,36.0244266],[139.0378052,36.0243973],[139.0379835,36.0241294],[139.0382712,36.0242687]]]},"properties":{"layer":"landuse","class_code":"211","class_label":"住宅用地（住宅、共同住宅、店舗等併用住宅、店舗等併用共同住宅、作業所併用住宅）"}},{"type":"Feature","id":"luse_ddae5f35-e40b-482d-967d-50587ab5dbba","geometry":{"type":"Polygon","coordinates":[[[139.03848,36.0245555],[139.0382154,36.0246532],[139.0381412,36.0247312],[139.0380151,36.0246586],[139.038034,36.0246355],[139.0381495,36.0244958],[139.0381948,36.0244426],[139.03848,36.0245555]]]},"properties":{"layer":"landuse","class_code":"211","class_label":"住宅用地（住宅、共同住宅、店舗等併用住宅、店舗等併用共同住宅、作業所併用住宅）"}},{"type":"Feature","id":"luse_7122a26e-1b4d-420b-b747-9ab1643cfdfb","geometry":{"type":"Polygon","coordinates":[[[139.0375,36.02460980243544],[139.0376409,36.0246368],[139.0375494,36.0249786],[139.0375029,36.0249417],[139.0375,36.02493915117187],[139.0375,36.02460980243544]]]},"properties":{"layer":"landuse","class_code":"211","class_label":"住宅用地（住宅、共同住宅、店舗等併用住宅、店舗等併用共同住宅、作業所併用住宅）"}},{"type":"Feature","id":"luse_62f803f3-213d-4a4d-9673-a96121a269a3","geometry":{"type":"Polygon","coordinates":[[[139.0403063,36.0248693],[139.0402521,36.0249331],[139.0401912717822,36.025],[139.0400613047976,36.025],[139.0400429,36.0249876],[139.0399182,36.0249037],[139.0400332,36.0247745],[139.0400737,36.0247185],[139.0403063,36.0248693]]]},"properties":{"layer":"landuse","class_code":"211","class_label":"住宅用地（住宅、共同住宅、店舗等併用住宅、店舗等併用共同住宅、作業所併用住宅）"}},{"type":"Feature","id":"luse_d41973fe-8174-40f2-b6ce-497fe56d93e0","geometry":{"type":"Polygon","coordinates":[[[139.0382416,36.0249959],[139.03831641348313,36.025],[139.03791064206348,36.025],[139.0379061,36.0249612],[139.0379037,36.024923],[139.0379032,36.0248847],[139.0379049,36.0248538],[139.0379057,36.0248499],[139.0379101,36.024829],[139.0379194,36.0248037],[139.037921,36.0247994],[139.0379316,36.0247767],[139.0379452,36.0247928],[139.0380694,36.0248251],[139.0380965,36.0248113],[139.0381253,36.0247965],[139.0381646,36.0247865],[139.0382198,36.0247815],[139.0382416,36.0249959]]]},"properties":{"layer":"landuse","class_code":"211","class_label":"住宅用地（住宅、共同住宅、店舗等併用住宅、店舗等併用共同住宅、作業所併用住宅）"}},{"type":"Feature","id":"luse_f7c7da76-353a-449d-a99b-dc208270fd5a","geometry":{"type":"Polygon","coordinates":[[[139.04409562483733,36.025],[139.044275,36.0244478],[139.0445594,36.024548],[139.0445283,36.0246963],[139.0444295,36.0246907],[139.0443935,36.0247115],[139.0442331,36.0246864],[139.0441589,36.0249448],[139.0443931,36.0249904],[139.04439138543847,36.025],[139.04409562483733,36.025]]]},"properties":{"layer":"landuse","class_code":"211","class_label":"住宅用地（住宅、共同住宅、店舗等併用住宅、店舗等併用共同住宅、作業所併用住宅）"}},{"type":"Feature","id":"luse_db79989e-9003-4c9c-b29a-341ece20d74c","geometry":{"type":"Polygon","coordinates":[[[139.040086,36.0245144],[139.0400545,36.0245617],[139.0399573,36.0246959],[139.0399372,36.0247238],[139.0398866,36.0247828],[139.0398119,36.0248698],[139.0397007,36.0249999],[139.0397006135135,36.025],[139.0392065941061,36.025],[139.0391983,36.0249741],[139.0392284,36.0249674],[139.0392485,36.024963],[139.0393572,36.0249388],[139.03936,36.0249377],[139.039463,36.0248981],[139.0395042,36.0248822],[139.0394731,36.0248489],[139.0394482,36.0248141],[139.0394221,36.0246722],[139.0394123,36.024637],[139.0394056,36.024613],[139.0394008,36.0245956],[139.0395427,36.0245339],[139.0395609,36.024524],[139.0395622,36.0245233],[139.0396676,36.0244659],[139.0398507,36.0243627],[139.040086,36.0245144]]]},"properties":{"layer":"landuse","class_code":"211","class_label":"住宅用地（住宅、共同住宅、店舗等併用住宅、店舗等併用共同住宅、作業所併用住宅）"}},{"type":"Feature","id":"luse_d077c320-ca5b-4895-960b-d354b92c8af9","geometry":{"type":"Polygon","coordinates":[[[139.04024646577852,36.025],[139.0402882,36.0249541],[139.0403409,36.024892],[139.0403772,36.0248608],[139.040464,36.0248016],[139.040566,36.0247321],[139.0405894,36.0247015],[139.0405999,36.0246819],[139.0406006,36.0246597],[139.0405985,36.0246371],[139.0405869,36.0246125],[139.0405605,36.0245779],[139.0404565,36.0244741],[139.0404202,36.0244372],[139.0403335,36.0243486],[139.0403378,36.0243337],[139.0405415,36.0240259],[139.0405812,36.0239649],[139.0405876,36.0239549],[139.0408449,36.0240367],[139.0409823,36.0240842],[139.0409916,36.0240889],[139.0410004,36.0240947],[139.0410107,36.0241033],[139.041025,36.0241199],[139.0410309,36.0241297],[139.0410354,36.0241447],[139.0410379,36.0241861],[139.0410491,36.0241857],[139.0410597,36.0241852],[139.0410601,36.0241852],[139.0410574,36.0241413],[139.0410508,36.0241234],[139.041045,36.0241117],[139.0410377,36.0241022],[139.041028,36.0240917],[139.0410148,36.0240809],[139.041011,36.0240783],[139.0410375,36.024086],[139.041044,36.0240889],[139.0412815,36.0241544],[139.0412196,36.0242519],[139.0411809,36.024313],[139.0411759,36.0243183],[139.0411529,36.0243112],[139.0411352,36.0243057],[139.0410826,36.0242893],[139.040997,36.024353],[139.0408872,36.0244708],[139.0410075,36.0245411],[139.0411272,36.024611],[139.0411546,36.0246798],[139.0411199,36.0247461],[139.0411139,36.0247576],[139.0411103,36.0247644],[139.0410695,36.0248459],[139.0410299,36.0248747],[139.0409096,36.0249622],[139.0409064,36.0249643],[139.04083659906252,36.025],[139.04024646577852,36.025]]]},"properties":{"layer":"landuse","class_code":"211","class_label":"住宅用地（住宅、共同住宅、店舗等併用住宅、店舗等併用共同住宅、作業所併用住宅）"}},{"type":"Feature","id":"luse_2b711d0c-e83c-4646-b195-1a1b7b6b2c0b","geometry":{"type":"Polygon","coordinates":[[[139.0376444,36.0243093],[139.037751,36.0243798],[139.0377349,36.0244133],[139.0378303,36.0244441],[139.0377294,36.0245477],[139.0375129,36.0244773],[139.0375989,36.0242916],[139.0376444,36.0243093]]]},"properties":{"layer":"landuse","class_code":"214","class_label":"公益施設用地（官公庁施設、文教厚生施設、供給処理施設）"}},{"type":"Feature","id":"luse_6c4c100f-7649-44e0-9d5a-507c5809e701","geometry":{"type":"Polygon","coordinates":[[[139.0375,36.0237206434635],[139.0375488,36.023731],[139.0375,36.02386598709681],[139.0375,36.0237206434635]]]},"properties":{"layer":"landuse","class_code":"223","class_label":"その他④（その他①～③以外の用途に供されている都市的土地利用（建物跡地、資材置場、改変工事中の土地）、法面（道路、造成地等の主利用に含まれない法面））"}},{"type":"Feature","id":"luse_1abe418b-c949-43de-a3c0-3965a48cbd50","geometry":{"type":"Polygon","coordinates":[[[139.04247537256165,36.025],[139.0424522,36.024953],[139.0424411,36.0248838],[139.0424421,36.0247837],[139.0424665,36.0246908],[139.0425318,36.0246197],[139.0425706,36.0245556],[139.0426474,36.0245108],[139.0427179,36.0245017],[139.0427648,36.0245163],[139.0428169,36.0245858],[139.0428603,36.0246481],[139.0429036,36.0247199],[139.0429296,36.024763],[139.0430025,36.024816],[139.0430671,36.024814],[139.0431472,36.0247311],[139.0432855,36.0248344],[139.043395,36.0249229],[139.0434848,36.0249685],[139.043489,36.0249953],[139.04348831066667,36.025],[139.04247537256165,36.025]]]},"properties":{"layer":"landuse","class_code":"223","class_label":"その他④（その他①～③以外の用途に供されている都市的土地利用（建物跡地、資材置場、改変工事中の土地）、法面（道路、造成地等の主利用に含まれない法面））"}},{"type":"Feature","id":"luse_ce9b8333-a80d-4930-a49d-8a000005a57f","geometry":{"type":"Polygon","coordinates":[[[139.0388626,36.0243509],[139.0388807,36.0244366],[139.0386925,36.0244953],[139.03863,36.0243957],[139.0385469,36.024254],[139.038482,36.0241716],[139.0386652,36.0241266],[139.0387367,36.024109],[139.0388626,36.0243509]]]},"properties":{"layer":"landuse","class_code":"221","class_label":"その他②（太陽光発電のシステムを直接整備している土地）"}},{"type":"Feature","id":"luse_3d56dff0-60f8-45d8-a720-8b4a439f6e10","geometry":{"type":"Polygon","coordinates":[[[139.0394008,36.0245956],[139.0394056,36.024613],[139.0394123,36.024637],[139.0394221,36.0246722],[139.0394482,36.0248141],[139.0394731,36.0248489],[139.0395042,36.0248822],[139.039463,36.0248981],[139.03936,36.0249377],[139.0393572,36.0249388],[139.0392485,36.024963],[139.0392284,36.0249674],[139.0391983,36.0249741],[139.039177,36.0249074],[139.0391214,36.024591],[139.0391197,36.0245811],[139.0393916,36.0245506],[139.0394008,36.0245956]]]},"properties":{"layer":"landuse","class_code":"221","class_label":"その他②（太陽光発電のシステムを直接整備している土地）"}},{"type":"Feature","id":"luse_ceced96a-6f6f-441f-8972-6ee9d5cd897b","geometry":{"type":"MultiPolygon","coordinates":[[[[139.0375,36.025],[139.0375,36.02018285451151],[139.0378184,36.020316],[139.0378782,36.020341],[139.0381462,36.020453],[139.0381673,36.0204643],[139.038177,36.020472],[139.0381778,36.020473],[139.0381934,36.02049],[139.0382126,36.0205187],[139.0382143,36.020522],[139.0382287,36.0205505],[139.0382429,36.0206101],[139.0382569,36.0206577],[139.0382762,36.0207235],[139.0383009,36.0208072],[139.038302,36.020811],[139.0383589,36.0210043],[139.0383697,36.0210507],[139.0383753,36.021075],[139.0383699,36.0212181],[139.0383407,36.0213359],[139.0383339,36.0213635],[139.0383165,36.021434],[139.0382979,36.0215088],[139.0383132,36.0215223],[139.0383693,36.0215711],[139.0384019,36.0216023],[139.0384299,36.0216294],[139.0384653,36.0216721],[139.0384849,36.0217089],[139.0385003,36.021733],[139.0385048,36.0217385],[139.0385131,36.0217426],[139.0385313,36.0217468],[139.0385384,36.0217485],[139.0385801,36.0217582],[139.0386019,36.0217656],[139.0386232,36.0217758],[139.0386685,36.0218026],[139.0387055,36.0218459],[139.0387338,36.0218782],[139.0387531,36.0218887],[139.0387912,36.0218991],[139.0388422,36.0219042],[139.0388648,36.0219053],[139.0389195,36.0219081],[139.0391111,36.0218928],[139.0392235,36.0218788],[139.0392375,36.0218771],[139.0392379,36.021877],[139.0394133,36.0218376],[139.0394246,36.0218049],[139.0394386,36.0217646],[139.0395185,36.0217979],[139.0393944,36.0221436],[139.0393407,36.0223097],[139.0392276,36.0227611],[139.0392171,36.0227937],[139.0392015,36.0228025],[139.0391545,36.0229463],[139.0391296,36.0230227],[139.039097,36.0231026],[139.0390526,36.0231933],[139.039033,36.0232348],[139.0389338,36.0234451],[139.0389236,36.0234703],[139.0389105,36.0234785],[139.0388989,36.0235022],[139.0388923,36.023513],[139.0388302,36.0236078],[139.0387069,36.0237806],[139.0386935,36.0237971],[139.0386592,36.0238392],[139.0386077,36.023911],[139.0385684,36.0239701],[139.0384833,36.0240837],[139.0384886,36.024085],[139.0384458,36.0241454],[139.0384284,36.0241699],[139.0384154,36.024188],[139.0383801,36.0242376],[139.0383702,36.0242515],[139.0381948,36.0244426],[139.0381495,36.0244958],[139.038034,36.0246355],[139.0380151,36.0246586],[139.0379684,36.0247167],[139.0379363,36.0247666],[139.0379316,36.0247767],[139.037921,36.0247994],[139.0379194,36.0248037],[139.0379101,36.024829],[139.0379057,36.0248499],[139.0379049,36.0248538],[139.0379032,36.0248847],[139.0379037,36.024923],[139.0379061,36.0249612],[139.03791064206348,36.025],[139.0397006135135,36.025],[139.0397007,36.0249999],[139.0398119,36.0248698],[139.0398866,36.0247828],[139.0399372,36.0247238],[139.0399573,36.0246959],[139.0400545,36.0245617],[139.040086,36.0245144],[139.0401861,36.0243654],[139.0402383,36.0242864],[139.0402467,36.0242734],[139.0402601,36.0242537],[139.0404161,36.024019],[139.0404408,36.0239821],[139.0405858,36.0237594],[139.0405893,36.0237541],[139.0406083,36.0237353],[139.0406881,36.023733],[139.0407288,36.0237331],[139.0406978,36.0237859],[139.0406157,36.0239197],[139.0406031,36.0239403],[139.0407301,36.0239807],[139.0408536,36.02402],[139.0409521,36.0240541],[139.0409728,36.0240613],[139.0409931,36.0240684],[139.0410045,36.0240739],[139.041011,36.0240783],[139.0410148,36.0240809],[139.041028,36.0240917],[139.0410377,36.0241022],[139.041045,36.0241117],[139.0410508,36.0241234],[139.0410574,36.0241413],[139.0410601,36.0241852],[139.0410597,36.0241852],[139.0410491,36.0241857],[139.0410379,36.0241861],[139.0410354,36.0241447],[139.0410309,36.0241297],[139.041025,36.0241199],[139.0410107,36.0241033],[139.0410004,36.0240947],[139.0409916,36.0240889],[139.0409823,36.0240842],[139.0408449,36.0240367],[139.0405876,36.0239549],[139.0405812,36.0239649],[139.0405415,36.0240259],[139.0403378,36.0243337],[139.0403335,36.0243486],[139.0404202,36.0244372],[139.0404565,36.0244741],[139.0405605,36.0245779],[139.0405869,36.0246125],[139.0405985,36.0246371],[139.0406006,36.0246597],[139.0405999,36.0246819],[139.0405894,36.0247015],[139.040566,36.0247321],[139.040464,36.0248016],[139.0403772,36.0248608],[139.0403409,36.024892],[139.0402882,36.0249541],[139.04024646577852,36.025],[139.04348831066667,36.025],[139.043489,36.0249953],[139.0435341,36.0248831],[139.0435513,36.0248345],[139.0435586,36.0247912],[139.0435733,36.0247435],[139.0435696,36.0246261],[139.0435537,36.0245441],[139.0435329,36.0244372],[139.0435268,36.0244017],[139.0435186,36.0243579],[139.0435156,36.0243473],[139.0434994,36.0242909],[139.0434839,36.0242589],[139.0434785,36.0242477],[139.0434705,36.0242311],[139.0434696,36.0242293],[139.0434609,36.0242044],[139.0434566,36.0241927],[139.0433623,36.0237292],[139.0433551,36.0236946],[139.0433415,36.0236288],[139.0434293,36.0236177],[139.0434405,36.0236794],[139.0434478,36.0237182],[139.0435413,36.0241773],[139.0435633,36.0242286],[139.0435725,36.0242498],[139.0435841,36.0242768],[139.0436037,36.0243354],[139.0436194,36.0243871],[139.0436281,36.0244374],[139.0436275,36.0244734],[139.0436274,36.0244783],[139.0436271,36.0245156],[139.0436352,36.0246139],[139.0436363,36.0246262],[139.04364,36.0247495],[139.0436392,36.0247521],[139.0436242,36.0248015],[139.0436165,36.0248457],[139.0435982,36.0248986],[139.0435746,36.0249684],[139.0435753,36.0249692],[139.0435757,36.0249698],[139.0435867,36.0249837],[139.04362053018866,36.025],[139.0375,36.025]]],[[[139.0399182,36.0249037],[139.03983258339798,36.025],[139.0401912717822,36.025],[139.0402521,36.0249331],[139.0403063,36.0248693],[139.0403466,36.0248346],[139.0405366,36.0247074],[139.0405502,36.0246843],[139.0405557,36.024674],[139.0405562,36.0246606],[139.0405547,36.0246451],[139.0405469,36.0246286],[139.0405244,36.0245988],[139.0404219,36.0244967],[139.0403181,36.0244156],[139.0403035,36.0244111],[139.0402922,36.0244102],[139.0402865,36.0244097],[139.0401539,36.0246074],[139.0400737,36.0247185],[139.0400332,36.0247745],[139.0399182,36.0249037]]],[[[139.0378118,36.0233611],[139.0376388,36.023175],[139.0375757,36.0231068],[139.0375466,36.0230733],[139.0375,36.023019487303834],[139.0375,36.023249274067076],[139.0375339,36.0232613],[139.0375,36.023339536716094],[139.0375,36.023472185478994],[139.0377463,36.0235106],[139.0377466,36.0235107],[139.0378118,36.0233611]]],[[[139.0375,36.02101869444122],[139.037757,36.0211559],[139.0378678,36.0212232],[139.0379574,36.0212807],[139.0379791,36.0212947],[139.0380513,36.0213111],[139.038057,36.0213115],[139.0380938,36.0213141],[139.0381451,36.0213106],[139.0381765,36.0213012],[139.0382199,36.0212803],[139.0382583,36.0212561],[139.0382894,36.021226],[139.0383096,36.0212044],[139.0383277,36.0211655],[139.0383288,36.0211169],[139.0383308,36.0210778],[139.0383091,36.0209838],[139.0381995,36.0206177],[139.0381862,36.0205618],[139.0381568,36.0205113],[139.0381391,36.0204954],[139.0381201,36.0204826],[139.0378704,36.0203782],[139.0378582,36.0203715],[139.037731,36.0206595],[139.0377516,36.0206651],[139.0377525,36.0206655],[139.0379526,36.0207202],[139.0379022,36.0208815],[139.0378838,36.0208784],[139.0378415,36.0208713],[139.0378916,36.0207415],[139.0377168,36.0206937],[139.037708,36.0207134],[139.0376957,36.0207412],[139.0376455,36.0208542],[139.0376038,36.020842],[139.0376866,36.0206553],[139.0377234,36.0205717],[139.0377837,36.0204356],[139.0378181,36.0203578],[139.0375,36.02022347038123],[139.0375,36.02101869444122]]],[[[139.0375494,36.0249786],[139.03758181993356,36.025],[139.03783258594308,36.025],[139.0378286,36.0249658],[139.0378261,36.024925],[139.0378253,36.0248836],[139.0378273,36.024847],[139.0378344,36.0248146],[139.0378474,36.0247793],[139.0378707,36.024739],[139.0379124,36.0246875],[139.0379595,36.0246288],[139.0380279,36.024545],[139.0380419,36.0245299],[139.0380178,36.0245193],[139.0379656,36.0244962],[139.0378778,36.0244594],[139.0378303,36.0244441],[139.0377349,36.0244133],[139.037751,36.0243798],[139.0377985,36.0243951],[139.0378052,36.0243973],[139.0378962,36.0244266],[139.0379863,36.0244643],[139.0380632,36.0244982],[139.0381408,36.024411],[139.0381624,36.0243874],[139.0382504,36.0242915],[139.0382547,36.0242867],[139.0382712,36.0242687],[139.0383143,36.0242217],[139.038346,36.0241773],[139.0384313,36.024058],[139.0384526,36.0240293],[139.0385155,36.0239454],[139.0385543,36.0238868],[139.0386074,36.0238131],[139.0386548,36.0237545],[139.0386783,36.0237218],[139.0387768,36.0235838],[139.038838,36.0234903],[139.0388588,36.0234566],[139.03888,36.0234199],[139.0388804,36.0234193],[139.0388852,36.0234111],[139.0389624,36.0232465],[139.0389811,36.0232064],[139.0389956,36.0231756],[139.0390145,36.023137],[139.0390397,36.0230857],[139.0390711,36.0230086],[139.0390955,36.0229335],[139.0391042,36.0229018],[139.0391349,36.0227899],[139.0391504,36.0227323],[139.0391673,36.0226762],[139.0392287,36.0224728],[139.0392892,36.0222476],[139.0393029,36.0221853],[139.0393086,36.0221684],[139.0393686,36.0219893],[139.0394008,36.0218861],[139.0394031,36.0218641],[139.0393952,36.0218658],[139.0393112,36.0218842],[139.0393109,36.0218843],[139.0392762,36.021892],[139.0392752,36.0218921],[139.0392435,36.0218991],[139.0391148,36.0219151],[139.0391144,36.0219152],[139.03892,36.0219307],[139.0388398,36.0219266],[139.0388395,36.0219266],[139.0388147,36.0219241],[139.0388143,36.0219241],[139.0387851,36.0219212],[139.0387408,36.0219092],[139.0387142,36.0218947],[139.038688,36.0218649],[139.0386827,36.0218589],[139.0386547,36.0218262],[139.0386481,36.0218185],[139.0386342,36.0218102],[139.0386087,36.021795],[139.0385907,36.021786],[139.03857,36.0217793],[139.0385166,36.0217669],[139.0385162,36.0217668],[139.0384993,36.0217628],[139.0384874,36.0217558],[139.038478,36.021747],[139.0384598,36.0217185],[139.0384406,36.0216829],[139.0384078,36.0216429],[139.0383806,36.0216169],[139.0383485,36.0215861],[139.038293,36.0215377],[139.0382915,36.0215455],[139.0382793,36.0216084],[139.0382714,36.0216376],[139.0382693,36.0216476],[139.0382686,36.0216511],[139.0382677,36.021662],[139.0382628,36.021722],[139.0382609,36.0217812],[139.0382605,36.0217929],[139.0382534,36.0218885],[139.0382479,36.0219642],[139.0382438,36.0220196],[139.0382406,36.0220635],[139.0382301,36.0221554],[139.0382284,36.0221614],[139.0381832,36.0222414],[139.0381823,36.022243],[139.0381292,36.0223035],[139.0381079,36.0223277],[139.0380505,36.0223826],[139.0379829,36.0224294],[139.0379189,36.0224611],[139.0378376,36.0224813],[139.0377732,36.0224876],[139.0376377,36.0224895],[139.0376374,36.0224895],[139.0375,36.022491045991565],[139.0375,36.022956674396134],[139.0375034,36.0229606],[139.0376115,36.0230856],[139.0376993,36.0231818],[139.0378418,36.023338],[139.0378716,36.0233706],[139.0378375,36.0234397],[139.0378366,36.0234416],[139.037805,36.0235057],[139.0377906,36.0235349],[139.0377797,36.0235565],[139.0376642,36.0235373],[139.0375,36.02350988223527],[139.0375,36.02493915117187],[139.0375029,36.0249417],[139.0375494,36.0249786]]],[[[139.0375,36.025],[139.03750235652174,36.025],[139.0375,36.02499845142857],[139.0375,36.025]]],[[[139.0382465,36.0215396],[139.0382542,36.0215026],[139.0382847,36.0213796],[139.0383092,36.02128],[139.0383089,36.0212801],[139.0382998,36.0212817],[139.0382964,36.0212823],[139.0382525,36.0213255],[139.0382178,36.0213463],[139.0382037,36.0213495],[139.038189,36.0213529],[139.0381534,36.0213549],[139.038153,36.0213549],[139.038085,36.0213509],[139.0380846,36.0213509],[139.0380319,36.0213396],[139.0379621,36.0213205],[139.0378419,36.0212525],[139.0375,36.02106489882158],[139.0375,36.02245502976191],[139.0376369,36.0224534],[139.03777,36.0224517],[139.0377704,36.0224517],[139.0378281,36.0224459],[139.0378284,36.0224459],[139.0378642,36.022437],[139.0379005,36.022428],[139.0379569,36.0224002],[139.0380189,36.022357],[139.0380728,36.0223055],[139.0381436,36.0222249],[139.038188,36.0221465],[139.0381758,36.0221286],[139.0381494,36.0221171],[139.0380471,36.0220768],[139.0376821,36.0219328],[139.0376399,36.0219086],[139.0375,36.02182148826794],[139.0375,36.021776143467925],[139.0376664,36.0218796],[139.0377047,36.0219017],[139.0379788,36.0220099],[139.0380428,36.0220351],[139.0381872,36.022092],[139.0381908,36.0220612],[139.0382106,36.0217911],[139.0382114,36.0217685],[139.0382034,36.0217673],[139.0381941,36.0217678],[139.0381452,36.0217703],[139.0380874,36.0217687],[139.0380583,36.0217651],[139.0380579,36.021765],[139.0380282,36.0217613],[139.0379603,36.0217502],[139.037887,36.021733],[139.0378144,36.0217116],[139.0378141,36.0217115],[139.0377735,36.0216973],[139.0377559,36.0216841],[139.0377369,36.0216631],[139.0377174,36.0216311],[139.0376966,36.0216137],[139.037664,36.0215931],[139.0376092,36.0215609],[139.037573,36.0215341],[139.0375464,36.0215156],[139.0375342,36.0215071],[139.0375318,36.0215055],[139.0375,36.02147982444444],[139.0375,36.02143832499999],[139.0375154,36.0214518],[139.0375627,36.0214794],[139.0376024,36.0215071],[139.0376372,36.0215329],[139.0376906,36.0215642],[139.0377269,36.0215873],[139.0377408,36.021599],[139.0377546,36.0216106],[139.0377773,36.021648],[139.0377949,36.0216656],[139.0378306,36.021678],[139.0379008,36.0216987],[139.0379707,36.021715],[139.037971,36.0217151],[139.0380358,36.0217258],[139.0380362,36.0217258],[139.0380916,36.0217328],[139.0381445,36.0217343],[139.0381736,36.0217327],[139.0381945,36.0217316],[139.0382137,36.0217262],[139.0382166,36.0217264],[139.0382241,36.021651],[139.0382244,36.0216467],[139.0382465,36.0215396]]]]},"properties":{"layer":"landuse","class_code":"215","class_label":"道路用地（道路、駅前広場、私有地内に存在する沿道用途の「私道」または、私有地の一部分であるものの公共の通行に供されている土地の部分）"}},{"type":"Feature","id":"luse_144bbcca-16c1-447a-bf29-1c22ed7d93ca","geometry":{"type":"Polygon","coordinates":[[[139.05,36.016666666666666],[139.05,36.025],[139.05,36.025],[139.05,36.016666666666666],[139.05,36.016666666666666]]]},"properties":{"layer":"landuse","class_code":"215","class_label":"道路用地（道路、駅前広場、私有地内に存在する沿道用途の「私道」または、私有地の一部分であるものの公共の通行に供されている土地の部分）"}}]}