{"type":"FeatureCollection","properties":{"mesh_code":"54390082","source":"PLATEAU秩父市2025","layer":"landuse"},"features":[{"type":"Feature","id":"luse_c31a0203-9a5e-4311-9dcc-7a3b08fbcb3d","geometry":{"type":"Polygon","coordinates":[[[139.0304518,36.0670747],[139.0305052,36.0670875],[139.0305082,36.0671762],[139.0304895,36.06719],[139.0306857,36.0672044],[139.0307607,36.0672117],[139.030806,36.0672414],[139.0308113,36.0672754],[139.0307889,36.0673117],[139.0307629,36.0673358],[139.030692,36.0673575],[139.0305938,36.0673976],[139.0305124,36.067445],[139.0304316,36.0675094],[139.0304064,36.0675216],[139.0303771,36.0675147],[139.0303115,36.0674508],[139.0302324,36.0673678],[139.03027,36.0672768],[139.0301532,36.0672279],[139.030144,36.0672239],[139.0301387,36.0672058],[139.0301539,36.0671645],[139.0301578,36.0671536],[139.0301825,36.0671137],[139.0302088,36.0670838],[139.0302469,36.0670791],[139.0303406,36.0670739],[139.0304518,36.0670747]]]},"properties":{"layer":"landuse","class_code":"202","class_label":"畑（畑、樹園地、採草地、養鶏（牛・豚）場）"}},{"type":"Feature","id":"luse_290c18a4-bdb4-4bdf-b17e-126cc922d0f5","geometry":{"type":"Polygon","coordinates":[[[139.0257018,36.0685596],[139.0256664,36.0685895],[139.0256399,36.0686036],[139.0256118,36.0686117],[139.0255795,36.0686169],[139.0255545,36.0686173],[139.0255265,36.0686141],[139.0254974,36.0686043],[139.0254967,36.0686041],[139.0254702,36.0685911],[139.0254465,36.0685753],[139.0254165,36.0685485],[139.0254,36.0685278],[139.0253889,36.0685095],[139.0253826,36.0684898],[139.0253722,36.0684588],[139.0253719,36.0684577],[139.0253521,36.0683946],[139.025339,36.0683465],[139.0253169,36.0683062],[139.0252939,36.0682774],[139.0252655,36.0682489],[139.0252619,36.0682461],[139.0252458,36.0682338],[139.0252354,36.0682258],[139.0252093,36.0682097],[139.0251801,36.0681965],[139.0251419,36.0681823],[139.0251118,36.0681732],[139.0250832,36.0681645],[139.0250701,36.0681605],[139.0250497,36.0681558],[139.025028,36.0681508],[139.0250268,36.0681506],[139.0250139,36.0681482],[139.025,36.06814563743017],[139.025,36.06772809256756],[139.0250498,36.0677111],[139.0251037,36.0676988],[139.0253692,36.0676096],[139.0254883,36.0675825],[139.0257122,36.0675396],[139.0258127,36.0674958],[139.026029,36.0674491],[139.0262292,36.0674124],[139.0263913,36.0673961],[139.0263871,36.0672607],[139.0264001,36.0672221],[139.0264476,36.0671889],[139.0265408,36.0671753],[139.0266237,36.067158],[139.026747,36.0671751],[139.0268991,36.0672303],[139.0268772,36.0673082],[139.0268505,36.0674254],[139.026844,36.0675096],[139.026844,36.0675666],[139.0268594,36.067619],[139.0268447,36.0677732],[139.0268563,36.0678879],[139.0268719,36.0679425],[139.0269802,36.0681711],[139.0267028,36.0682555],[139.026633,36.0681824],[139.0265787,36.0682258],[139.0265597,36.0682559],[139.026477,36.0682849],[139.0263816,36.0682658],[139.0262593,36.0682324],[139.0261266,36.0681579],[139.0260471,36.0681534],[139.0259214,36.0681954],[139.0258088,36.0682885],[139.0257661,36.0684123],[139.0257241,36.0685591],[139.0257125,36.0685506],[139.0257018,36.0685596]]]},"properties":{"layer":"landuse","class_code":"202","class_label":"畑（畑、樹園地、採草地、養鶏（牛・豚）場）"}},{"type":"Feature","id":"luse_d1da1a75-4b65-4177-aba1-a06d44da0b98","geometry":{"type":"Polygon","coordinates":[[[139.0289889,36.0689272],[139.0289891,36.0689268],[139.0289512,36.0689275],[139.0289299,36.0689123],[139.0288724,36.0688713],[139.028847,36.0688534],[139.0288546,36.0688149],[139.0288556,36.0688101],[139.0288555,36.0688085],[139.0288543,36.0687819],[139.0288541,36.0687777],[139.0288534,36.0687748],[139.028849,36.0687586],[139.0288342,36.068737],[139.0288334,36.06873],[139.0288333,36.0687295],[139.0288339,36.0686959],[139.02884,36.0686599],[139.028841,36.068655],[139.0288485,36.0686181],[139.0288595,36.0685775],[139.0288757,36.0685135],[139.0288902,36.0684728],[139.0288914,36.068469],[139.0289688,36.0684702],[139.0290209,36.0684711],[139.0290491,36.0684098],[139.0290664,36.0684054],[139.0291265,36.0683997],[139.0292064,36.0683946],[139.0292692,36.0683835],[139.0293961,36.0683591],[139.0294773,36.0683378],[139.0294963,36.0683418],[139.0295533,36.068427],[139.0295614,36.0684716],[139.0295565,36.0685253],[139.0295393,36.0685451],[139.0294295,36.0685671],[139.0294022,36.0685949],[139.0293784,36.0686465],[139.0293567,36.0686564],[139.0293329,36.0686563],[139.0292689,36.0686327],[139.0292386,36.0686308],[139.0292152,36.0686447],[139.0291776,36.0686954],[139.0291471,36.0687217],[139.0291337,36.0687553],[139.0291223,36.0688023],[139.0291027,36.0688272],[139.0290534,36.0688686],[139.0289889,36.0689272]]]},"properties":{"layer":"landuse","class_code":"202","class_label":"畑（畑、樹園地、採草地、養鶏（牛・豚）場）"}},{"type":"Feature","id":"luse_7c1df563-8dc9-4b3d-8b72-3715ac781185","geometry":{"type":"Polygon","coordinates":[[[139.0281466,36.0705152],[139.0279376,36.070521],[139.0276599,36.0705355],[139.0275713,36.0705037],[139.0274745,36.070442],[139.0273979,36.070414],[139.0270313,36.0704116],[139.0267288,36.0704066],[139.0267071,36.0703971],[139.0267074,36.0701896],[139.0267198,36.0700343],[139.026743,36.0699422],[139.0267832,36.0698462],[139.0268551,36.0697464],[139.0268028,36.0697346],[139.0266969,36.0697315],[139.0265192,36.0697586],[139.0264462,36.0696425],[139.0263748,36.0696115],[139.0262776,36.0696016],[139.0262056,36.0695988],[139.02614,36.0695994],[139.025989,36.0695852],[139.0259377,36.069566],[139.0258926,36.0695162],[139.0258733,36.0694595],[139.0258737,36.0694195],[139.0259115,36.0693773],[139.026033,36.0692697],[139.0261205,36.0692216],[139.0263137,36.0691322],[139.0265043,36.0691335],[139.0270213,36.0692589],[139.0269583,36.0691935],[139.0268883,36.0691095],[139.0268612,36.0690422],[139.026876,36.0690023],[139.0269504,36.0689445],[139.0270193,36.0689082],[139.027248,36.0688943],[139.0274759,36.0688426],[139.0274498,36.0689411],[139.0276564,36.0689834],[139.0276632,36.0690364],[139.0276518,36.069046],[139.0276462,36.0690585],[139.0276405,36.0690713],[139.0276327,36.0690967],[139.0276154,36.0691288],[139.0275967,36.0691593],[139.0275781,36.0691849],[139.0275557,36.0692078],[139.0275371,36.0692186],[139.02751,36.0692261],[139.0274711,36.0692348],[139.0274707,36.0692349],[139.0274245,36.0692423],[139.0273888,36.0692455],[139.0273884,36.0692455],[139.0273413,36.0692461],[139.0272776,36.0692513],[139.0272057,36.0692614],[139.02713,36.0692718],[139.0271318,36.0692797],[139.0271339,36.0692896],[139.0272095,36.0692792],[139.0272806,36.0692691],[139.0273423,36.0692641],[139.0273427,36.0692641],[139.0273899,36.0692636],[139.0273902,36.0692636],[139.027428,36.06926],[139.027476,36.0692523],[139.0275165,36.0692434],[139.0275473,36.0692348],[139.0275712,36.0692211],[139.0275965,36.0691951],[139.0276162,36.069168],[139.0276355,36.0691365],[139.0276533,36.0691034],[139.0276685,36.069069],[139.0276716,36.0690653],[139.0276797,36.0690653],[139.0276915,36.0690691],[139.0277026,36.0690848],[139.0277222,36.0691114],[139.0277469,36.0691389],[139.0277876,36.0691742],[139.0278158,36.0691875],[139.0278618,36.0692042],[139.0278939,36.0692092],[139.0279305,36.069212],[139.0279308,36.069212],[139.0279649,36.0692123],[139.0279652,36.0692123],[139.0280104,36.0692123],[139.0280397,36.0692106],[139.0280401,36.0692106],[139.0280548,36.0692073],[139.0280611,36.0692059],[139.0280877,36.0691978],[139.0281203,36.0691854],[139.028141,36.0691764],[139.0281504,36.0691723],[139.0281515,36.069172],[139.0281796,36.069161],[139.0282206,36.0691418],[139.028248,36.0691352],[139.0282865,36.0691303],[139.0283244,36.0691288],[139.0284202,36.069115],[139.0284205,36.0691149],[139.0284726,36.0691012],[139.0284729,36.0691011],[139.0285793,36.0690731],[139.0286119,36.0690621],[139.028695,36.069034],[139.0286702,36.0690551],[139.0286674,36.0690574],[139.0286523,36.0690684],[139.0286487,36.0690711],[139.0286353,36.0690809],[139.0286328,36.0690827],[139.0285951,36.0691065],[139.0285914,36.0691074],[139.0285199,36.0691255],[139.028445,36.0691498],[139.0284008,36.0691643],[139.0283695,36.0691827],[139.0283434,36.0692006],[139.0283085,36.0692228],[139.0282914,36.0692351],[139.0282753,36.069255],[139.0282622,36.0692735],[139.0282389,36.0693139],[139.0281862,36.0694147],[139.0281209,36.0695325],[139.0280545,36.0696489],[139.0280264,36.0697031],[139.0280154,36.0697388],[139.0280092,36.0697779],[139.0280105,36.0698184],[139.0280108,36.0698518],[139.0280181,36.0698776],[139.0280294,36.0699201],[139.0280508,36.0699589],[139.0280866,36.0700221],[139.0281002,36.0700651],[139.0281099,36.0701005],[139.0281284,36.0702408],[139.0281491,36.0704517],[139.0281491,36.0704527],[139.028151,36.0705052],[139.0281466,36.0705152]]]},"properties":{"layer":"landuse","class_code":"202","class_label":"畑（畑、樹園地、採草地、養鶏（牛・豚）場）"}},{"type":"Feature","id":"luse_946bf399-ac8b-4422-93aa-14a6cab25b75","geometry":{"type":"Polygon","coordinates":[[[139.0297962,36.0686703],[139.029767,36.0687075],[139.0296936,36.0687966],[139.0296298,36.0688877],[139.0296059,36.0689443],[139.0295669,36.0690164],[139.029532,36.0690736],[139.0294921,36.0691092],[139.029444,36.069139],[139.0293507,36.0691738],[139.0292662,36.0691969],[139.029206,36.0692195],[139.0291235,36.0692644],[139.0290011,36.0693398],[139.0288648,36.0694215],[139.028774,36.0694863],[139.0287076,36.0695486],[139.0286693,36.0695846],[139.0285953,36.0696737],[139.0285461,36.0697426],[139.028507,36.0697983],[139.0284829,36.0698424],[139.0284726,36.0698774],[139.0284717,36.0698808],[139.0284734,36.0699511],[139.0284993,36.0700386],[139.0285267,36.0701314],[139.0285341,36.0701563],[139.0285457,36.0702166],[139.0285547,36.0702636],[139.028554,36.0703518],[139.0285317,36.0704047],[139.028502,36.0704694],[139.0284706,36.0705164],[139.028453,36.0705372],[139.028421,36.070575],[139.0283842,36.0706146],[139.0283762,36.0706219],[139.0283046,36.0706858],[139.0282918,36.0706973],[139.0282192,36.070764],[139.0281453,36.0708281],[139.0281375,36.0708331],[139.028052,36.0708887],[139.0280277,36.0709028],[139.0280164,36.0709094],[139.0277782,36.0709732],[139.0276975,36.0709898],[139.0275609,36.0710145],[139.0274773,36.0710269],[139.0274772,36.0710255],[139.0274863,36.0709927],[139.0275069,36.0709776],[139.0275312,36.070967],[139.0275967,36.0709507],[139.0277184,36.0709217],[139.0277349,36.0709178],[139.0277997,36.0709034],[139.0278504,36.0708876],[139.0278763,36.0708779],[139.0278881,36.0708735],[139.0279224,36.0708551],[139.027932,36.0708492],[139.0279579,36.070833],[139.0280192,36.0707821],[139.0280701,36.0707417],[139.0281243,36.0706986],[139.0281547,36.0706573],[139.0281768,36.0706198],[139.0282008,36.0705709],[139.0282076,36.0705416],[139.0282094,36.0705336],[139.0282101,36.0705308],[139.0282123,36.0704846],[139.0282085,36.0704628],[139.0282056,36.0704464],[139.0282082,36.0704413],[139.0282248,36.0704079],[139.028209,36.070272],[139.0282036,36.0702251],[139.0282032,36.0702218],[139.0281818,36.070193],[139.0281731,36.0701181],[139.0281667,36.0700875],[139.0281619,36.0700646],[139.0281515,36.0700327],[139.0281471,36.0700192],[139.0281287,36.0699775],[139.0280952,36.069908],[139.0280806,36.0698672],[139.0280801,36.0698644],[139.028071,36.0698159],[139.0280726,36.0697778],[139.0280805,36.0697488],[139.0280963,36.0697055],[139.0281377,36.0696142],[139.0282072,36.0694849],[139.0282587,36.0693894],[139.0283143,36.0692925],[139.0283369,36.0692678],[139.0283774,36.0692485],[139.0283823,36.0692462],[139.0284128,36.0692287],[139.028442,36.0692156],[139.0284888,36.0692017],[139.0285498,36.0691844],[139.0285976,36.069168],[139.0286394,36.0691521],[139.028669,36.0691351],[139.0286991,36.0691158],[139.0287139,36.0691063],[139.0287435,36.0690798],[139.028746,36.0690772],[139.0287722,36.0690686],[139.028793,36.0690668],[139.0288352,36.0690632],[139.0288886,36.0690485],[139.0289408,36.0690216],[139.0289707,36.0689815],[139.0289889,36.0689272],[139.0290534,36.0688686],[139.0291027,36.0688272],[139.0291223,36.0688023],[139.0291337,36.0687553],[139.0291471,36.0687217],[139.0291776,36.0686954],[139.0292152,36.0686447],[139.0292386,36.0686308],[139.0292689,36.0686327],[139.0293329,36.0686563],[139.0293567,36.0686564],[139.0293784,36.0686465],[139.0294022,36.0685949],[139.0294295,36.0685671],[139.0295393,36.0685451],[139.0295565,36.0685253],[139.0295614,36.0684716],[139.0295533,36.068427],[139.0294963,36.0683418],[139.0294773,36.0683378],[139.0293961,36.0683591],[139.0292692,36.0683835],[139.0292064,36.0683946],[139.0291265,36.0683997],[139.0290664,36.0684054],[139.0290491,36.0684098],[139.0290209,36.0684711],[139.0289688,36.0684702],[139.0288914,36.068469],[139.0288702,36.068464],[139.028869,36.0684673],[139.0288541,36.0685091],[139.0288378,36.0685737],[139.0288267,36.0686147],[139.0288244,36.0686262],[139.0288181,36.0686573],[139.0288128,36.068682],[139.0288101,36.0686943],[139.0288062,36.0686966],[139.0288015,36.0686969],[139.0287858,36.068691],[139.0287332,36.0686735],[139.028664,36.068653],[139.028636,36.0686465],[139.028557,36.0686281],[139.0283715,36.068585],[139.0283546,36.0685809],[139.0283365,36.0685765],[139.0283153,36.0685704],[139.0282816,36.0685608],[139.0282616,36.0685527],[139.0282548,36.0685499],[139.0282433,36.0685452],[139.0281998,36.0685278],[139.0281294,36.0684997],[139.0280766,36.0684793],[139.0280693,36.0684777],[139.027983,36.0684585],[139.0279267,36.0684469],[139.0278582,36.0684329],[139.0278572,36.0684325],[139.0278226,36.068421],[139.0278081,36.0684118],[139.0278062,36.06841],[139.0277927,36.0683971],[139.0277858,36.0683878],[139.0277674,36.0683635],[139.027768,36.068363],[139.027794,36.0683404],[139.0278184,36.06833],[139.0278615,36.0683182],[139.0279662,36.0682949],[139.0280727,36.0682831],[139.0281716,36.0682821],[139.0282582,36.0682939],[139.0282794,36.0682968],[139.0283662,36.068316],[139.0283785,36.0683211],[139.0284145,36.0683285],[139.0284472,36.0683297],[139.0284744,36.0683203],[139.0285012,36.0683111],[139.028529,36.068296],[139.0285361,36.0682921],[139.0285712,36.0682637],[139.0286373,36.0681673],[139.0287659,36.0679716],[139.0287942,36.0679218],[139.0288175,36.0678729],[139.0288381,36.0678145],[139.0288406,36.0678033],[139.0288447,36.0677789],[139.0288717,36.0676294],[139.0288801,36.067599],[139.0288907,36.0675871],[139.028901,36.0675793],[139.0289335,36.0675602],[139.0289872,36.0675407],[139.0290231,36.0675305],[139.029028,36.0675291],[139.0290561,36.067523],[139.0290798,36.0675172],[139.0290928,36.0675093],[139.0291009,36.0674994],[139.0291045,36.067494],[139.0291154,36.0674777],[139.0291174,36.067474],[139.0291554,36.0674051],[139.0291611,36.0673932],[139.0291852,36.0673431],[139.0292214,36.0672846],[139.029258,36.0672645],[139.0293262,36.0672521],[139.0293735,36.0672435],[139.0294286,36.0672358],[139.0294747,36.0672329],[139.0295008,36.0672312],[139.0295453,36.0672284],[139.0296556,36.0672121],[139.0297445,36.0672047],[139.029784,36.0672078],[139.0298002,36.0672166],[139.0298008,36.0672179],[139.0298156,36.067251],[139.0298427,36.0673497],[139.0298612,36.0674061],[139.0300106,36.0678659],[139.030023,36.0679319],[139.0300296,36.067994],[139.0300302,36.0680542],[139.030032,36.0681105],[139.0300318,36.0681143],[139.0300315,36.0681187],[139.0300248,36.0682375],[139.0300072,36.0683199],[139.0299778,36.0683934],[139.0299035,36.0685325],[139.0297962,36.0686703]]]},"properties":{"layer":"landuse","class_code":"203","class_label":"山林（樹林地）"}},{"type":"Feature","id":"luse_03b6f243-4203-4f8a-ad84-b34d3e765f9e","geometry":{"type":"Polygon","coordinates":[[[139.0274151,36.0718196],[139.027415,36.0718342],[139.0274156,36.0718485],[139.0274193,36.0719382],[139.0274278,36.0719875],[139.0274414,36.0720339],[139.027467,36.072087],[139.0275092,36.0721513],[139.0275537,36.0722026],[139.0275924,36.072231],[139.0276382,36.0722693],[139.0277188,36.0723194],[139.0277578,36.0723449],[139.0277816,36.0723639],[139.0277998,36.0723793],[139.0278191,36.0724023],[139.0278335,36.0724307],[139.0278392,36.0724873],[139.0278441,36.0725927],[139.0278426,36.0726192],[139.0278409,36.0726493],[139.0278485,36.0726989],[139.0278667,36.072778],[139.0278759,36.072813],[139.0278972,36.0728678],[139.0279292,36.0729113],[139.0280333,36.0730058],[139.0280924,36.0730555],[139.0281354,36.0730913],[139.028236,36.0731623],[139.0283317,36.0732224],[139.0284237,36.0732687],[139.0284285,36.0732711],[139.0284897,36.0733046],[139.0285378,36.0733427],[139.028576,36.0733906],[139.0286006,36.0734522],[139.0286187,36.0735148],[139.0286311,36.0736146],[139.0286409,36.0737005],[139.0286294,36.0737846],[139.0286166,36.0738147],[139.0285815,36.0738247],[139.0284512,36.0738482],[139.0284514,36.0738461],[139.0285262,36.0737788],[139.028542,36.0737474],[139.0285536,36.0736832],[139.0285512,36.0736351],[139.028538,36.0735618],[139.0285202,36.073484],[139.0285017,36.0734318],[139.0284927,36.0734061],[139.0284728,36.0733675],[139.0284451,36.0733385],[139.0283951,36.0732982],[139.0283532,36.073271],[139.0283144,36.0732485],[139.0282021,36.0731835],[139.0281795,36.0731717],[139.0281377,36.0731497],[139.0280921,36.0731229],[139.0280468,36.0730879],[139.0279596,36.073011],[139.0278822,36.0729304],[139.0278304,36.0728593],[139.0277955,36.0727986],[139.0277941,36.0727961],[139.0277862,36.0727774],[139.0277661,36.0727289],[139.027748,36.0726452],[139.0277278,36.0725476],[139.0277222,36.0725316],[139.0277143,36.0725085],[139.0277087,36.072499],[139.0276951,36.0724759],[139.0276635,36.0724356],[139.0276175,36.0723881],[139.0275568,36.0723349],[139.0274668,36.0722423],[139.0274079,36.0721641],[139.0273962,36.0721398],[139.0273611,36.0720669],[139.027359,36.0720597],[139.0273407,36.0719963],[139.0273327,36.0719131],[139.0273338,36.0718469],[139.0273433,36.0717871],[139.0273647,36.0717388],[139.0273852,36.071709],[139.0274131,36.0716757],[139.0274171,36.0716709],[139.0274151,36.0718196]]]},"properties":{"layer":"landuse","class_code":"203","class_label":"山林（樹林地）"}},{"type":"Feature","id":"luse_8eba74c1-bceb-401f-9bd2-4062a1501072","geometry":{"type":"MultiPolygon","coordinates":[[[[139.0375,36.06666666666667],[139.0375,36.07052041453991],[139.0374999,36.0705204],[139.037013,36.0702874],[139.0366092,36.0701643],[139.0364374,36.0701262],[139.035777,36.070156],[139.0354775,36.0701198],[139.0351416,36.070123],[139.0350584,36.0701457],[139.0350081,36.0701605],[139.0348519,36.0703376],[139.0346411,36.0705698],[139.0344968,36.0706851],[139.0342452,36.070827],[139.0341102,36.0708644],[139.0336184,36.0708598],[139.0334834,36.0708945],[139.0332261,36.071038],[139.0330459,36.0711392],[139.0329007,36.0712108],[139.0327807,36.0712877],[139.032581,36.0714189],[139.0322087,36.0716568],[139.0319515,36.071853],[139.0318003,36.0719675],[139.0317455,36.0720192],[139.0316374,36.0721209],[139.0315982,36.0721538],[139.03156,36.0721832],[139.0314489,36.072229],[139.0313124,36.0722731],[139.031163,36.0723215],[139.0309565,36.0724638],[139.0308672,36.0725487],[139.0308582,36.0725979],[139.0308466,36.0728385],[139.0308029,36.0729956],[139.0306732,36.0733271],[139.0303241,36.0734128],[139.0301429,36.0734569],[139.0293181,36.0736247],[139.0290597,36.0736808],[139.0287939,36.073764],[139.0286711,36.0737991],[139.0286729,36.0737925],[139.0286855,36.0737008],[139.0286753,36.0736111],[139.0286626,36.0735088],[139.0286434,36.0734426],[139.0286165,36.0733751],[139.0285723,36.0733197],[139.0285179,36.0732765],[139.0284528,36.0732409],[139.0283571,36.0731928],[139.0282679,36.0731309],[139.0281684,36.0730606],[139.0281224,36.07303],[139.0280617,36.0729844],[139.0279607,36.0728926],[139.0279329,36.0728548],[139.0279135,36.0728049],[139.0279066,36.0727782],[139.0278998,36.0727522],[139.027887,36.0726942],[139.02788,36.0726481],[139.027883,36.0725941],[139.0278831,36.0725914],[139.0278779,36.0724854],[139.0278724,36.0724109],[139.0278595,36.0723752],[139.0278416,36.0723503],[139.0278223,36.0723262],[139.0278,36.0723037],[139.0277654,36.0722708],[139.0277175,36.0722296],[139.0276703,36.0721874],[139.0276541,36.0721727],[139.0276355,36.0721558],[139.0275945,36.0721086],[139.0275579,36.0720531],[139.0275371,36.0720095],[139.0275261,36.0719723],[139.0275188,36.0719293],[139.0275136,36.0718775],[139.0275101,36.071843],[139.0275092,36.0718338],[139.0275078,36.0718187],[139.0274948,36.0716693],[139.0274897,36.0715082],[139.0274869,36.0714079],[139.0274845,36.0713179],[139.0274822,36.0712319],[139.0274814,36.0710876],[139.0274814,36.0710864],[139.0274798,36.0710635],[139.0274826,36.0710626],[139.0275157,36.0710567],[139.0275705,36.0710497],[139.0277078,36.0710249],[139.0277901,36.0710079],[139.0279274,36.0709747],[139.028042,36.0709415],[139.0280458,36.0709386],[139.0280523,36.0709337],[139.0280796,36.0709169],[139.0280853,36.0709132],[139.0281693,36.0708586],[139.0281755,36.0708546],[139.028252,36.0707882],[139.0283249,36.0707214],[139.0284184,36.0706377],[139.0284571,36.070596],[139.0285085,36.0705353],[139.0285426,36.0704844],[139.0285463,36.0704763],[139.0285736,36.0704169],[139.0285985,36.0703579],[139.0285991,36.0702609],[139.0285969,36.0702493],[139.0285859,36.0701922],[139.0285777,36.0701494],[139.0285193,36.069952],[139.0285176,36.0699464],[139.0285161,36.0698847],[139.0285252,36.0698541],[139.0285467,36.0698147],[139.0285786,36.069769],[139.0285846,36.0697605],[139.028633,36.0696928],[139.0287046,36.0696065],[139.0287412,36.0695723],[139.0288056,36.0695118],[139.0288927,36.0694495],[139.028914,36.0694368],[139.0289475,36.0694167],[139.0290277,36.0693686],[139.0291493,36.0692938],[139.0292279,36.069251],[139.0292826,36.0692303],[139.0293671,36.0692074],[139.0294671,36.0691701],[139.0295222,36.0691358],[139.0295689,36.0690941],[139.0296071,36.0690317],[139.0296473,36.0689573],[139.0296704,36.0689027],[139.0297314,36.0688156],[139.0298043,36.0687272],[139.0298331,36.0686933],[139.0299321,36.0685887],[139.0299578,36.0685615],[139.030043,36.0684158],[139.0300515,36.0683929],[139.0300614,36.0683659],[139.0300724,36.068336],[139.0300887,36.0682514],[139.0300894,36.0682474],[139.0300954,36.0681126],[139.0300954,36.0681121],[139.0300947,36.0680604],[139.0300904,36.0680117],[139.0300893,36.0679993],[139.0300891,36.0679347],[139.0300764,36.0678579],[139.0300527,36.067785],[139.0299256,36.0673943],[139.0299095,36.0673431],[139.0298858,36.0672519],[139.0298741,36.067174],[139.0298745,36.0671309],[139.0298943,36.067089],[139.0299415,36.0670312],[139.0299692,36.0670052],[139.0299714,36.0670036],[139.0299918,36.0669898],[139.0301573,36.066856],[139.0302412,36.0668959],[139.030351,36.066901],[139.0304182,36.0668829],[139.0304786,36.0668167],[139.0305056,36.0667535],[139.030523,36.0666922],[139.03052099873872,36.06666666666667],[139.0375,36.06666666666667]]],[[[139.0302469,36.0670791],[139.0302088,36.0670838],[139.0301825,36.0671137],[139.0301578,36.0671536],[139.0301539,36.0671645],[139.0301387,36.0672058],[139.030144,36.0672239],[139.0301532,36.0672279],[139.03027,36.0672768],[139.0302324,36.0673678],[139.0303115,36.0674508],[139.0303771,36.0675147],[139.0304064,36.0675216],[139.0304316,36.0675094],[139.0305124,36.067445],[139.0305938,36.0673976],[139.030692,36.0673575],[139.0307629,36.0673358],[139.0307889,36.0673117],[139.0308113,36.0672754],[139.030806,36.0672414],[139.0307607,36.0672117],[139.0306857,36.0672044],[139.0304895,36.06719],[139.0305082,36.0671762],[139.0305052,36.0670875],[139.0304518,36.0670747],[139.0303406,36.0670739],[139.0302469,36.0670791]]]]},"properties":{"layer":"landuse","class_code":"203","class_label":"山林（樹林地）"}},{"type":"Feature","id":"luse_3b1e9504-f08b-496f-981a-465628604192","geometry":{"type":"Polygon","coordinates":[[[139.025,36.06666666666667],[139.02966673488194,36.06666666666667],[139.029682,36.0667169],[139.0297101,36.0667791],[139.0297975,36.0669111],[139.0297866,36.0669324],[139.0297821,36.0669398],[139.0297649,36.0669682],[139.029753,36.0669846],[139.0297337,36.0670048],[139.0297052,36.0670282],[139.0296723,36.0670445],[139.029658,36.0670492],[139.0296455,36.0670513],[139.0296181,36.0670559],[139.0295769,36.0670554],[139.0295766,36.0670553],[139.0294798,36.0670517],[139.0294197,36.067045],[139.0294193,36.0670449],[139.0293936,36.0670438],[139.0293513,36.0670419],[139.0292928,36.0670458],[139.0292617,36.0670543],[139.0292203,36.0670685],[139.029156,36.0671185],[139.0290872,36.0671836],[139.0290325,36.0672333],[139.0289877,36.0672722],[139.028929,36.0673118],[139.0288118,36.067383],[139.0286939,36.0674491],[139.0286628,36.0674764],[139.0286407,36.0675089],[139.0286402,36.0675093],[139.0286227,36.0675242],[139.0286167,36.0675356],[139.0286152,36.0675633],[139.0286124,36.0676129],[139.0286096,36.0676548],[139.0286139,36.067692],[139.0286422,36.0678029],[139.0286426,36.0678049],[139.0286488,36.0678382],[139.0286452,36.0678506],[139.02864,36.0678584],[139.0286124,36.0678543],[139.0285447,36.0677383],[139.0284483,36.0677582],[139.0283962,36.067718],[139.0283547,36.0676434],[139.0284448,36.0676323],[139.0284669,36.0675725],[139.0284616,36.0675432],[139.0284311,36.0675098],[139.0284328,36.0674938],[139.0282292,36.0673852],[139.0280206,36.0673437],[139.0279675,36.0672951],[139.0278652,36.0673496],[139.0278863,36.0673205],[139.0279271,36.0672715],[139.0279419,36.0672536],[139.0279985,36.067189],[139.0280479,36.067133],[139.0280993,36.067063],[139.0281074,36.0670476],[139.0281524,36.0669633],[139.0281943,36.0668856],[139.0282197,36.0668389],[139.0282321,36.066816],[139.0282904,36.0667221],[139.02832351242375,36.06666666666667],[139.02826188936783,36.06666666666667],[139.0282406,36.0667022],[139.0281818,36.0667968],[139.0281435,36.0668674],[139.0281013,36.0669453],[139.0280496,36.0670425],[139.0280013,36.0671082],[139.0279533,36.0671627],[139.0278961,36.067228],[139.0278446,36.0672836],[139.0278336,36.0672955],[139.0278129,36.067324],[139.0275857,36.0673235],[139.0275448,36.0673771],[139.0275216,36.0674075],[139.0274747,36.0674385],[139.0274292,36.0674471],[139.0273747,36.0674409],[139.0273475,36.0675187],[139.0273379,36.0676015],[139.0273586,36.0677341],[139.0273191,36.0677371],[139.0271923,36.0677468],[139.0271773,36.0677584],[139.0271732,36.0678756],[139.0271874,36.0680302],[139.0271825,36.0680759],[139.0271785,36.0681583],[139.0271904,36.0681865],[139.0271995,36.0682],[139.0272247,36.0682224],[139.0272202,36.0682614],[139.0270905,36.0683109],[139.0270688,36.068337],[139.0270463,36.0684246],[139.0269699,36.0685309],[139.026964,36.0685312],[139.0269162,36.0685385],[139.0269158,36.0685386],[139.0268804,36.0685516],[139.0268595,36.0685583],[139.0268042,36.0685761],[139.0267558,36.0685904],[139.0267009,36.0685992],[139.0266499,36.068596],[139.0266428,36.0685956],[139.0266059,36.0685866],[139.0265799,36.0685751],[139.0264997,36.0685334],[139.0264228,36.0685093],[139.0263606,36.0684914],[139.0263351,36.0684872],[139.0263083,36.0684827],[139.0263079,36.0684826],[139.0263067,36.0684825],[139.0262645,36.0684776],[139.0262205,36.0684823],[139.0261856,36.0684874],[139.0261641,36.0684907],[139.0261541,36.0684922],[139.0261537,36.0684923],[139.0261226,36.0684997],[139.0260945,36.0685092],[139.0260717,36.0685168],[139.0260449,36.0685304],[139.0260249,36.0685427],[139.0259859,36.0685663],[139.0259559,36.068585],[139.0259175,36.0686037],[139.0258685,36.0686245],[139.0258654,36.0686258],[139.0258012,36.068645],[139.0257883,36.0686468],[139.0257012,36.0686593],[139.0256469,36.0686661],[139.0256189,36.0686696],[139.025615,36.0686702],[139.0255743,36.0686707],[139.0255418,36.0686666],[139.0255115,36.0686577],[139.0255103,36.0686572],[139.0254778,36.0686411],[139.0254414,36.0686161],[139.025406,36.068582],[139.025404,36.0685801],[139.0253765,36.0685542],[139.0253646,36.0685357],[139.0253637,36.0685343],[139.0253564,36.0685089],[139.0253554,36.0684923],[139.0253563,36.0684775],[139.0253564,36.0684766],[139.0253654,36.068506],[139.0253737,36.0685244],[139.0253742,36.0685254],[139.0253806,36.0685367],[139.0253988,36.0685595],[139.0254293,36.0685867],[139.0254312,36.0685883],[139.0254571,36.0686059],[139.0254864,36.0686202],[139.0254868,36.0686203],[139.0255118,36.0686288],[139.0255203,36.0686316],[139.0255207,36.0686317],[139.0255531,36.0686353],[139.0255819,36.0686349],[139.0256177,36.0686291],[139.0256252,36.068627],[139.0256499,36.0686198],[139.0256668,36.0686107],[139.0256786,36.0686046],[139.0257004,36.0685856],[139.0257241,36.0685591],[139.0257661,36.0684123],[139.0258088,36.0682885],[139.0259214,36.0681954],[139.0260471,36.0681534],[139.0261266,36.0681579],[139.0262593,36.0682324],[139.0263816,36.0682658],[139.026477,36.0682849],[139.0265597,36.0682559],[139.0265787,36.0682258],[139.026633,36.0681824],[139.0267028,36.0682555],[139.0269802,36.0681711],[139.0268719,36.0679425],[139.0268563,36.0678879],[139.0268447,36.0677732],[139.0268594,36.067619],[139.026844,36.0675666],[139.026844,36.0675096],[139.0268505,36.0674254],[139.0268772,36.0673082],[139.0268991,36.0672303],[139.026747,36.0671751],[139.0266237,36.067158],[139.0265408,36.0671753],[139.0264476,36.0671889],[139.0264001,36.0672221],[139.0263871,36.0672607],[139.0263913,36.0673961],[139.0262292,36.0674124],[139.026029,36.0674491],[139.0258127,36.0674958],[139.0257122,36.0675396],[139.0254883,36.0675825],[139.0253692,36.0676096],[139.0251037,36.0676988],[139.0250498,36.0677111],[139.025,36.06772809256756],[139.025,36.06666666666667]]]},"properties":{"layer":"landuse","class_code":"203","class_label":"山林（樹林地）"}},{"type":"Feature","id":"luse_d6c85c0c-8944-4889-a16d-fc26380ede87","geometry":{"type":"Polygon","coordinates":[[[139.025,36.075],[139.025,36.06876487569061],[139.0250468,36.0688109],[139.025113,36.0688022],[139.0252432,36.0687554],[139.0253276,36.0687221],[139.0253543,36.0687549],[139.0254021,36.0687958],[139.0254469,36.0688202],[139.0254883,36.0688305],[139.0255442,36.0688327],[139.0255867,36.0688282],[139.0256628,36.0688128],[139.0257027,36.0688019],[139.0257434,36.0687909],[139.0258065,36.0687705],[139.0258431,36.0687587],[139.0258442,36.0687584],[139.0258536,36.068756],[139.025854,36.0687559],[139.0258562,36.068755],[139.0258788,36.068746],[139.026011,36.068685],[139.0260763,36.0686501],[139.0261235,36.0686325],[139.026188,36.0686215],[139.0262566,36.0686156],[139.0263053,36.0686167],[139.0263745,36.0686253],[139.0263989,36.0686284],[139.0264752,36.0686505],[139.0264915,36.0686552],[139.0265412,36.0686691],[139.0265809,36.0686801],[139.0266459,36.0686921],[139.0266875,36.0686924],[139.0267366,36.0686927],[139.0268764,36.0686722],[139.0269582,36.0686571],[139.0269703,36.068656],[139.0270396,36.06865],[139.0271331,36.0686466],[139.0271338,36.0686466],[139.027235,36.068643],[139.0272903,36.0686409],[139.0273729,36.0686345],[139.027376,36.0686338],[139.0273896,36.0686313],[139.0274582,36.0686202],[139.0275122,36.0686062],[139.0275634,36.0685819],[139.0276114,36.0685534],[139.027627,36.0685377],[139.0276286,36.0685361],[139.0276817,36.0685654],[139.0277938,36.0686066],[139.0278502,36.0686712],[139.0279105,36.0686933],[139.0279808,36.0687013],[139.0281106,36.0689251],[139.028058,36.0690666],[139.0280792,36.0691811],[139.0280541,36.0691887],[139.02805,36.0691897],[139.0280361,36.0691927],[139.0280097,36.0691943],[139.0279652,36.0691943],[139.027932,36.069194],[139.0279316,36.069194],[139.0278971,36.0691913],[139.0278685,36.0691869],[139.0278431,36.0691775],[139.0278177,36.0691684],[139.0277957,36.0691533],[139.0277816,36.0691405],[139.0277725,36.06913],[139.0277682,36.0691248],[139.0278584,36.0689399],[139.027858,36.0688849],[139.0276306,36.0688179],[139.0274759,36.0688426],[139.027248,36.0688943],[139.0270193,36.0689082],[139.0269504,36.0689445],[139.026876,36.0690023],[139.0268612,36.0690422],[139.0268883,36.0691095],[139.0269583,36.0691935],[139.0270213,36.0692589],[139.0265043,36.0691335],[139.0263137,36.0691322],[139.0261205,36.0692216],[139.026033,36.0692697],[139.0259115,36.0693773],[139.0258737,36.0694195],[139.0258733,36.0694595],[139.0258926,36.0695162],[139.0259377,36.069566],[139.025989,36.0695852],[139.02614,36.0695994],[139.0262056,36.0695988],[139.0262776,36.0696016],[139.0263748,36.0696115],[139.0264462,36.0696425],[139.0265192,36.0697586],[139.0266969,36.0697315],[139.0268028,36.0697346],[139.0268551,36.0697464],[139.0267832,36.0698462],[139.026743,36.0699422],[139.0267198,36.0700343],[139.0267074,36.0701896],[139.0267071,36.0703971],[139.0267288,36.0704066],[139.0270313,36.0704116],[139.0273979,36.070414],[139.0274745,36.070442],[139.0275713,36.0705037],[139.0276599,36.0705355],[139.0279376,36.070521],[139.0281466,36.0705152],[139.0281453,36.0705181],[139.0281353,36.0705409],[139.0281271,36.0705604],[139.0280938,36.0706393],[139.0280469,36.0706857],[139.0279805,36.0707501],[139.027936,36.0707889],[139.0278745,36.0708276],[139.027812,36.0708535],[139.0277501,36.0708712],[139.0276619,36.0708782],[139.0275908,36.0708844],[139.0275325,36.070894],[139.0274911,36.0709141],[139.0274788,36.0709163],[139.0274542,36.0709253],[139.0274342,36.0709395],[139.0274168,36.0709571],[139.0274052,36.070977],[139.0273974,36.0710144],[139.0273996,36.0710413],[139.027354,36.071042],[139.0273139,36.0710503],[139.0273094,36.0710584],[139.0273096,36.0710661],[139.0273098,36.0710967],[139.0273089,36.0711266],[139.027329,36.0713433],[139.0273214,36.0715346],[139.0272731,36.0717886],[139.027269,36.0718416],[139.0272683,36.0719125],[139.027282,36.0719966],[139.0273079,36.0720804],[139.0273143,36.0720936],[139.0273453,36.0721579],[139.027358,36.0721843],[139.0274212,36.0722681],[139.0275146,36.0723642],[139.0275752,36.0724174],[139.0276182,36.0724616],[139.0276464,36.0724978],[139.0276622,36.0725245],[139.0276735,36.0725574],[139.0276868,36.0726554],[139.0277079,36.0727422],[139.0277221,36.072777],[139.0277358,36.0728108],[139.0277375,36.0728137],[139.0277746,36.0728805],[139.0278283,36.0729647],[139.0279045,36.0730474],[139.0280049,36.0731347],[139.028057,36.0731722],[139.0281045,36.0731994],[139.0281578,36.0732266],[139.028256,36.0732745],[139.0283228,36.0733072],[139.0283701,36.0733297],[139.0284115,36.0733592],[139.0284329,36.0733841],[139.0284504,36.0734193],[139.0284809,36.0734899],[139.028495,36.0735629],[139.0285018,36.0736138],[139.0285049,36.0736365],[139.0285069,36.0736808],[139.028492,36.0737357],[139.028476,36.0737637],[139.0284287,36.0738028],[139.0284118,36.0738167],[139.0283856,36.0738359],[139.0283236,36.0738711],[139.0283031,36.0738748],[139.0281882,36.0739055],[139.0279666,36.0740077],[139.0277364,36.0740848],[139.0276309,36.0741004],[139.0275727,36.0740985],[139.0275156,36.0740871],[139.0273878,36.0740479],[139.0273262,36.0740357],[139.0272817,36.0740346],[139.0272398,36.0740439],[139.027138,36.0741088],[139.0269512,36.0742282],[139.0267046,36.0744701],[139.026507,36.074611],[139.0262442,36.0747802],[139.02601421902398,36.075],[139.025,36.075]]]},"properties":{"layer":"landuse","class_code":"203","class_label":"山林（樹林地）"}},{"type":"Feature","id":"luse_f9eff7dd-78c4-43ac-b96f-eaf8d54474e8","geometry":{"type":"Polygon","coordinates":[[[139.0252276,36.0684611],[139.025193,36.0684663],[139.0251957,36.0684576],[139.0252192,36.0683929],[139.0252186,36.0683734],[139.0252096,36.0683463],[139.0251844,36.0683139],[139.0251466,36.0682818],[139.0251311,36.0682726],[139.0250986,36.0682566],[139.025069,36.0682464],[139.0250565,36.0682421],[139.025004,36.0682335],[139.025,36.068232844827584],[139.025,36.06818609090909],[139.0250122,36.0681872],[139.0250218,36.0681893],[139.0250563,36.0681967],[139.0250964,36.068207],[139.0251248,36.0682156],[139.0251521,36.0682259],[139.0251599,36.0682288],[139.0251847,36.0682399],[139.0252067,36.0682534],[139.0252326,36.0682734],[139.025258,36.0682986],[139.0252778,36.0683235],[139.0252777,36.0683238],[139.0252714,36.0683428],[139.0252677,36.0683539],[139.0252575,36.0683818],[139.025234,36.0684432],[139.0252276,36.0684611]]]},"properties":{"layer":"landuse","class_code":"204","class_label":"水面（河川水面、湖沼、ため池、用水路、濠、運河水面）"}},{"type":"Feature","id":"luse_15ad3833-f9ed-49ae-b35d-3b6f0dd7ad90","geometry":{"type":"Polygon","coordinates":[[[139.0257027,36.0688019],[139.0256628,36.0688128],[139.0255867,36.0688282],[139.0255442,36.0688327],[139.0254883,36.0688305],[139.0254469,36.0688202],[139.0254021,36.0687958],[139.0253543,36.0687549],[139.0253276,36.0687221],[139.025316,36.0687078],[139.0253108,36.0687006],[139.0252769,36.0686541],[139.0252684,36.0686427],[139.02526,36.0686301],[139.0252223,36.0685739],[139.0252065,36.0685348],[139.0251942,36.0685045],[139.0251936,36.068502],[139.0251905,36.0684891],[139.0251907,36.068485],[139.0252301,36.068479],[139.0252638,36.0685619],[139.0252831,36.06859],[139.0253071,36.068625],[139.0253537,36.0686886],[139.0253695,36.0687081],[139.0253893,36.0687324],[139.0254309,36.0687681],[139.025469,36.0687881],[139.025496,36.0687948],[139.0255423,36.0687965],[139.0255784,36.0687927],[139.0256357,36.068781],[139.0256504,36.0687781],[139.0257145,36.0687607],[139.0257281,36.068757],[139.0258278,36.0687249],[139.0258383,36.0687222],[139.0258409,36.0687211],[139.0258578,36.0687142],[139.0259877,36.0686543],[139.0260548,36.0686184],[139.0261094,36.0685981],[139.026181,36.0685858],[139.026255,36.0685795],[139.0263095,36.0685808],[139.0264098,36.0685933],[139.0265061,36.0686212],[139.0265931,36.0686454],[139.0266511,36.0686561],[139.0267329,36.0686567],[139.0268675,36.0686369],[139.026951,36.0686215],[139.0270362,36.068614],[139.0270949,36.0686119],[139.0271073,36.0686115],[139.0271311,36.0686107],[139.0272541,36.0686062],[139.0272872,36.068605],[139.0273686,36.0685986],[139.0273794,36.0685962],[139.027382,36.0685958],[139.027447,36.0685852],[139.027494,36.068573],[139.027539,36.0685517],[139.0275805,36.0685272],[139.0276037,36.0685035],[139.0276065,36.0685],[139.0276448,36.068452],[139.0276913,36.0683908],[139.0276944,36.0683868],[139.0276966,36.06839],[139.0277145,36.0684256],[139.0277114,36.06843],[139.0276825,36.0684712],[139.027675,36.0684805],[139.0276398,36.0685247],[139.0276286,36.0685361],[139.027627,36.0685377],[139.0276114,36.0685534],[139.0275634,36.0685819],[139.0275122,36.0686062],[139.0274582,36.0686202],[139.0273896,36.0686313],[139.027376,36.0686338],[139.0273729,36.0686345],[139.0272903,36.0686409],[139.027235,36.068643],[139.0271338,36.0686466],[139.0271331,36.0686466],[139.0270396,36.06865],[139.0269703,36.068656],[139.0269582,36.0686571],[139.0268764,36.0686722],[139.0267366,36.0686927],[139.0266875,36.0686924],[139.0266459,36.0686921],[139.0265809,36.0686801],[139.0265412,36.0686691],[139.0264915,36.0686552],[139.0264752,36.0686505],[139.0263989,36.0686284],[139.0263745,36.0686253],[139.0263053,36.0686167],[139.0262566,36.0686156],[139.026188,36.0686215],[139.0261235,36.0686325],[139.0260763,36.0686501],[139.026011,36.068685],[139.0258788,36.068746],[139.0258562,36.068755],[139.025854,36.0687559],[139.0258536,36.068756],[139.0258442,36.0687584],[139.0258431,36.0687587],[139.0258065,36.0687705],[139.0257434,36.0687909],[139.0257027,36.0688019]]]},"properties":{"layer":"landuse","class_code":"204","class_label":"水面（河川水面、湖沼、ため池、用水路、濠、運河水面）"}},{"type":"Feature","id":"luse_e3891a70-ae08-413d-a1ed-908e5f6401c8","geometry":{"type":"Polygon","coordinates":[[[139.0298858,36.0672519],[139.0299095,36.0673431],[139.0299256,36.0673943],[139.0300527,36.067785],[139.0300764,36.0678579],[139.0300891,36.0679347],[139.0300893,36.0679993],[139.0300904,36.0680117],[139.0300947,36.0680604],[139.0300954,36.0681121],[139.0300954,36.0681126],[139.0300894,36.0682474],[139.0300887,36.0682514],[139.0300724,36.068336],[139.0300614,36.0683659],[139.0300515,36.0683929],[139.030043,36.0684158],[139.0299578,36.0685615],[139.0299321,36.0685887],[139.0298331,36.0686933],[139.0298043,36.0687272],[139.0297314,36.0688156],[139.0296704,36.0689027],[139.0296473,36.0689573],[139.0296071,36.0690317],[139.0295689,36.0690941],[139.0295222,36.0691358],[139.0294671,36.0691701],[139.0293671,36.0692074],[139.0292826,36.0692303],[139.0292279,36.069251],[139.0291493,36.0692938],[139.0290277,36.0693686],[139.0289475,36.0694167],[139.028914,36.0694368],[139.0288927,36.0694495],[139.0288056,36.0695118],[139.0287412,36.0695723],[139.0287046,36.0696065],[139.028633,36.0696928],[139.0285846,36.0697605],[139.0285786,36.069769],[139.0285467,36.0698147],[139.0285252,36.0698541],[139.0285161,36.0698847],[139.0285176,36.0699464],[139.0285193,36.069952],[139.0285777,36.0701494],[139.0285859,36.0701922],[139.0285969,36.0702493],[139.0285991,36.0702609],[139.0285985,36.0703579],[139.0285736,36.0704169],[139.0285463,36.0704763],[139.0285426,36.0704844],[139.0285085,36.0705353],[139.0284571,36.070596],[139.0284184,36.0706377],[139.0283249,36.0707214],[139.028252,36.0707882],[139.0281755,36.0708546],[139.0281693,36.0708586],[139.0280853,36.0709132],[139.0280796,36.0709169],[139.0280523,36.0709337],[139.0280458,36.0709386],[139.028042,36.0709415],[139.0279274,36.0709747],[139.0277901,36.0710079],[139.0277078,36.0710249],[139.0275705,36.0710497],[139.0275157,36.0710567],[139.0274826,36.0710626],[139.0274798,36.0710635],[139.0274774,36.0710291],[139.0274773,36.0710269],[139.0275609,36.0710145],[139.0276975,36.0709898],[139.0277782,36.0709732],[139.0280164,36.0709094],[139.0280277,36.0709028],[139.028052,36.0708887],[139.0281375,36.0708331],[139.0281453,36.0708281],[139.0282192,36.070764],[139.0282918,36.0706973],[139.0283046,36.0706858],[139.0283762,36.0706219],[139.0283842,36.0706146],[139.028421,36.070575],[139.028453,36.0705372],[139.0284706,36.0705164],[139.028502,36.0704694],[139.0285317,36.0704047],[139.028554,36.0703518],[139.0285547,36.0702636],[139.0285457,36.0702166],[139.0285341,36.0701563],[139.0285267,36.0701314],[139.0284993,36.0700386],[139.0284734,36.0699511],[139.0284717,36.0698808],[139.0284726,36.0698774],[139.0284829,36.0698424],[139.028507,36.0697983],[139.0285461,36.0697426],[139.0285953,36.0696737],[139.0286693,36.0695846],[139.0287076,36.0695486],[139.028774,36.0694863],[139.0288648,36.0694215],[139.0290011,36.0693398],[139.0291235,36.0692644],[139.029206,36.0692195],[139.0292662,36.0691969],[139.0293507,36.0691738],[139.029444,36.069139],[139.0294921,36.0691092],[139.029532,36.0690736],[139.0295669,36.0690164],[139.0296059,36.0689443],[139.0296298,36.0688877],[139.0296936,36.0687966],[139.029767,36.0687075],[139.0297962,36.0686703],[139.0299035,36.0685325],[139.0299778,36.0683934],[139.0300072,36.0683199],[139.0300248,36.0682375],[139.0300315,36.0681187],[139.0300318,36.0681143],[139.030032,36.0681105],[139.0300302,36.0680542],[139.0300296,36.067994],[139.030023,36.0679319],[139.0300106,36.0678659],[139.0298612,36.0674061],[139.0298427,36.0673497],[139.0298156,36.067251],[139.0298008,36.0672179],[139.0298002,36.0672166],[139.029784,36.0672078],[139.0297445,36.0672047],[139.0296556,36.0672121],[139.0295453,36.0672284],[139.0295008,36.0672312],[139.0294747,36.0672329],[139.0294286,36.0672358],[139.0293735,36.0672435],[139.0293262,36.0672521],[139.029258,36.0672645],[139.0292214,36.0672846],[139.0291852,36.0673431],[139.0291611,36.0673932],[139.0291554,36.0674051],[139.0291174,36.067474],[139.0291154,36.0674777],[139.0291045,36.067494],[139.0291009,36.0674994],[139.0290928,36.0675093],[139.0290798,36.0675172],[139.0290561,36.067523],[139.029028,36.0675291],[139.0290231,36.0675305],[139.0289872,36.0675407],[139.0289335,36.0675602],[139.028901,36.0675793],[139.0288907,36.0675871],[139.0288801,36.067599],[139.0288717,36.0676294],[139.0288447,36.0677789],[139.0288406,36.0678033],[139.0288381,36.0678145],[139.0288175,36.0678729],[139.0287942,36.0679218],[139.0287659,36.0679716],[139.0286373,36.0681673],[139.0285712,36.0682637],[139.0285361,36.0682921],[139.028529,36.068296],[139.0285012,36.0683111],[139.0284744,36.0683203],[139.0284472,36.0683297],[139.0284145,36.0683285],[139.0283785,36.0683211],[139.0283662,36.068316],[139.0282794,36.0682968],[139.0282582,36.0682939],[139.0281716,36.0682821],[139.0280727,36.0682831],[139.0279662,36.0682949],[139.0278615,36.0683182],[139.0278184,36.06833],[139.027794,36.0683404],[139.027768,36.068363],[139.0277674,36.0683635],[139.0277669,36.0683628],[139.027766,36.0683602],[139.0277542,36.0683259],[139.0277533,36.068323],[139.0277667,36.0683114],[139.0278007,36.0682968],[139.0278485,36.0682836],[139.0279573,36.0682595],[139.0280696,36.0682471],[139.028175,36.0682461],[139.0282382,36.0682547],[139.0282868,36.0682613],[139.0283868,36.0682812],[139.0283998,36.0682853],[139.0284258,36.0682932],[139.0284584,36.0682944],[139.0284973,36.0682749],[139.0285092,36.0682647],[139.0285348,36.0682426],[139.0285983,36.0681501],[139.0287262,36.0679555],[139.0287533,36.0679078],[139.0287755,36.0678611],[139.0287951,36.0678105],[139.0287968,36.0677993],[139.0287969,36.0677981],[139.0288009,36.0677733],[139.028828,36.0676224],[139.0288393,36.0675819],[139.0288545,36.0675656],[139.0288684,36.0675513],[139.0289098,36.0675282],[139.0289711,36.0675066],[139.0290171,36.0674936],[139.0290386,36.0674893],[139.0290451,36.0674866],[139.0290533,36.0674833],[139.0290635,36.067476],[139.0290751,36.0674622],[139.0290907,36.0674339],[139.0291145,36.0673908],[139.0291441,36.067329],[139.0291935,36.0672631],[139.0292334,36.0672386],[139.0292565,36.0672247],[139.0292607,36.0672222],[139.0292706,36.0672188],[139.0293629,36.0672085],[139.0293735,36.067207],[139.029423,36.0672],[139.0294644,36.0671974],[139.0295396,36.0671925],[139.0295646,36.0671888],[139.0296461,36.0671769],[139.0296839,36.0671688],[139.029746,36.0671556],[139.0297778,36.0671434],[139.0298131,36.0671169],[139.0298525,36.0670716],[139.0299042,36.0670082],[139.0299336,36.0669808],[139.0299339,36.0669804],[139.0299527,36.0669676],[139.030104,36.0668456],[139.0301261,36.0668278],[139.0301396,36.0668169],[139.0301579,36.0668018],[139.0302226,36.0667482],[139.0302564,36.0667119],[139.0302588,36.0667092],[139.0302900229713,36.06666666666667],[139.03034431414002,36.06666666666667],[139.0302976,36.0667304],[139.0302579,36.0667729],[139.0301997,36.0668212],[139.0301573,36.066856],[139.0299918,36.0669898],[139.0299714,36.0670036],[139.0299692,36.0670052],[139.0299415,36.0670312],[139.0298943,36.067089],[139.0298745,36.0671309],[139.0298741,36.067174],[139.0298858,36.0672519]]]},"properties":{"layer":"landuse","class_code":"204","class_label":"水面（河川水面、湖沼、ため池、用水路、濠、運河水面）"}},{"type":"Feature","id":"luse_b3bc0327-fce3-4c2f-ba88-c66702b72833","geometry":{"type":"Polygon","coordinates":[[[139.0284512,36.0738482],[139.0283236,36.0738711],[139.0283856,36.0738359],[139.0284118,36.0738167],[139.0284287,36.0738028],[139.028476,36.0737637],[139.028492,36.0737357],[139.0285069,36.0736808],[139.0285049,36.0736365],[139.0285018,36.0736138],[139.028495,36.0735629],[139.0284809,36.0734899],[139.0284504,36.0734193],[139.0284329,36.0733841],[139.0284115,36.0733592],[139.0283701,36.0733297],[139.0283228,36.0733072],[139.028256,36.0732745],[139.0281578,36.0732266],[139.0281045,36.0731994],[139.028057,36.0731722],[139.0280049,36.0731347],[139.0279045,36.0730474],[139.0278283,36.0729647],[139.0277746,36.0728805],[139.0277375,36.0728137],[139.0277358,36.0728108],[139.0277221,36.072777],[139.0277079,36.0727422],[139.0276868,36.0726554],[139.0276735,36.0725574],[139.0276622,36.0725245],[139.0276464,36.0724978],[139.0276182,36.0724616],[139.0275752,36.0724174],[139.0275146,36.0723642],[139.0274212,36.0722681],[139.027358,36.0721843],[139.0273453,36.0721579],[139.0273143,36.0720936],[139.0273079,36.0720804],[139.027282,36.0719966],[139.0272683,36.0719125],[139.027269,36.0718416],[139.0272731,36.0717886],[139.0273214,36.0715346],[139.027329,36.0713433],[139.0273089,36.0711266],[139.0273098,36.0710967],[139.0273096,36.0710661],[139.0273094,36.0710584],[139.0273139,36.0710503],[139.027354,36.071042],[139.0273996,36.0710413],[139.0274053,36.0711041],[139.0274052,36.07112],[139.0274045,36.0712327],[139.0274093,36.0714108],[139.0274093,36.0714112],[139.0274121,36.0715097],[139.0274171,36.0716709],[139.0274131,36.0716757],[139.0273852,36.071709],[139.0273647,36.0717388],[139.0273433,36.0717871],[139.0273338,36.0718469],[139.0273327,36.0719131],[139.0273407,36.0719963],[139.027359,36.0720597],[139.0273611,36.0720669],[139.0273962,36.0721398],[139.0274079,36.0721641],[139.0274668,36.0722423],[139.0275568,36.0723349],[139.0276175,36.0723881],[139.0276635,36.0724356],[139.0276951,36.0724759],[139.0277087,36.072499],[139.0277143,36.0725085],[139.0277222,36.0725316],[139.0277278,36.0725476],[139.027748,36.0726452],[139.0277661,36.0727289],[139.0277862,36.0727774],[139.0277941,36.0727961],[139.0277955,36.0727986],[139.0278304,36.0728593],[139.0278822,36.0729304],[139.0279596,36.073011],[139.0280468,36.0730879],[139.0280921,36.0731229],[139.0281377,36.0731497],[139.0281795,36.0731717],[139.0282021,36.0731835],[139.0283144,36.0732485],[139.0283532,36.073271],[139.0283951,36.0732982],[139.0284451,36.0733385],[139.0284728,36.0733675],[139.0284927,36.0734061],[139.0285017,36.0734318],[139.0285202,36.073484],[139.028538,36.0735618],[139.0285512,36.0736351],[139.0285536,36.0736832],[139.028542,36.0737474],[139.0285262,36.0737788],[139.0284514,36.0738461],[139.0284512,36.0738482]]]},"properties":{"layer":"landuse","class_code":"204","class_label":"水面（河川水面、湖沼、ため池、用水路、濠、運河水面）"}},{"type":"Feature","id":"luse_342851d3-16a8-4471-b635-9a1ef03e0884","geometry":{"type":"Polygon","coordinates":[[[139.0280696,36.0682471],[139.0279573,36.0682595],[139.0278485,36.0682836],[139.0278007,36.0682968],[139.0277667,36.0683114],[139.0277533,36.068323],[139.027751,36.0683166],[139.0277488,36.0682942],[139.0277494,36.0682878],[139.0277524,36.0682818],[139.027754,36.0682786],[139.0277622,36.0682723],[139.0277833,36.0682608],[139.0278346,36.0682459],[139.0279577,36.0682213],[139.0280315,36.0682127],[139.0281092,36.0682108],[139.0282283,36.0682192],[139.0283544,36.0682333],[139.0283931,36.0682326],[139.0284167,36.0682298],[139.0284467,36.0682095],[139.028453,36.0682018],[139.0285376,36.0680982],[139.0286584,36.0679631],[139.028667,36.0679534],[139.0286935,36.0679047],[139.0286994,36.06789],[139.0287035,36.0678717],[139.0287047,36.0678664],[139.0287063,36.0678441],[139.0287064,36.0678422],[139.0287078,36.0677863],[139.0287076,36.0677837],[139.0286998,36.067682],[139.028697,36.0676168],[139.028702,36.0675777],[139.0287163,36.0675394],[139.0287589,36.0674917],[139.0288389,36.0674193],[139.0289708,36.0673259],[139.029012,36.0672908],[139.0290573,36.0672514],[139.0291122,36.0672013],[139.0291802,36.0671371],[139.0292315,36.0670971],[139.0292388,36.0670914],[139.0292735,36.0670796],[139.0292996,36.0670724],[139.0293517,36.067069],[139.0294163,36.0670719],[139.0294765,36.0670786],[139.0294769,36.0670787],[139.0295757,36.0670824],[139.0296212,36.0670831],[139.0296677,36.0670751],[139.0296875,36.0670688],[139.0297263,36.0670496],[139.0297357,36.0670418],[139.0297589,36.0670227],[139.0297805,36.0669998],[139.0297944,36.0669811],[139.0298171,36.0669436],[139.0298464,36.0668866],[139.0298868,36.0668003],[139.029914,36.0667368],[139.0299324,36.0666887],[139.0299446654072,36.06666666666667],[139.03011043355806,36.06666666666667],[139.0302564,36.0667119],[139.0302226,36.0667482],[139.0301579,36.0668018],[139.0301396,36.0668169],[139.0301261,36.0668278],[139.030104,36.0668456],[139.0299527,36.0669676],[139.0299339,36.0669804],[139.0299336,36.0669808],[139.0299042,36.0670082],[139.0298525,36.0670716],[139.0298131,36.0671169],[139.0297778,36.0671434],[139.029746,36.0671556],[139.0296839,36.0671688],[139.0296461,36.0671769],[139.0295646,36.0671888],[139.0295396,36.0671925],[139.0294644,36.0671974],[139.029423,36.0672],[139.0293735,36.067207],[139.0293629,36.0672085],[139.0292706,36.0672188],[139.0292607,36.0672222],[139.0292565,36.0672247],[139.0292334,36.0672386],[139.0291935,36.0672631],[139.0291441,36.067329],[139.0291145,36.0673908],[139.0290907,36.0674339],[139.0290751,36.0674622],[139.0290635,36.067476],[139.0290533,36.0674833],[139.0290451,36.0674866],[139.0290386,36.0674893],[139.0290171,36.0674936],[139.0289711,36.0675066],[139.0289098,36.0675282],[139.0288684,36.0675513],[139.0288545,36.0675656],[139.0288393,36.0675819],[139.028828,36.0676224],[139.0288009,36.0677733],[139.0287969,36.0677981],[139.0287968,36.0677993],[139.0287951,36.0678105],[139.0287755,36.0678611],[139.0287533,36.0679078],[139.0287262,36.0679555],[139.0285983,36.0681501],[139.0285348,36.0682426],[139.0285092,36.0682647],[139.0284973,36.0682749],[139.0284584,36.0682944],[139.0284258,36.0682932],[139.0283998,36.0682853],[139.0283868,36.0682812],[139.0282868,36.0682613],[139.0282382,36.0682547],[139.028175,36.0682461],[139.0280696,36.0682471]]]},"properties":{"layer":"landuse","class_code":"205","class_label":"その他自然地（原野・牧野、荒れ地（耕作放棄地等自然的状況のもの）、低湿地、河川敷・河原、海浜、湖岸）"}},{"type":"Feature","id":"luse_8019de4f-4692-494f-acb4-6d8896e5fc88","geometry":{"type":"Polygon","coordinates":[[[139.0253132,36.0684689],[139.0253083,36.0684756],[139.0253013,36.0684762],[139.0252919,36.0684736],[139.0252852,36.0684705],[139.0252679,36.0684624],[139.025258,36.0684597],[139.0252484,36.0684589],[139.0252481,36.0684589],[139.0252282,36.068461],[139.0252276,36.0684611],[139.025234,36.0684432],[139.0252575,36.0683818],[139.0252677,36.0683539],[139.0252714,36.0683428],[139.0252777,36.0683238],[139.0252778,36.0683235],[139.0252965,36.0683578],[139.0253081,36.0683999],[139.0253138,36.0684568],[139.0253132,36.0684689]]]},"properties":{"layer":"landuse","class_code":"205","class_label":"その他自然地（原野・牧野、荒れ地（耕作放棄地等自然的状況のもの）、低湿地、河川敷・河原、海浜、湖岸）"}},{"type":"Feature","id":"luse_c1146eae-fabd-4712-9d1f-04cc47d894b3","geometry":{"type":"Polygon","coordinates":[[[139.0258578,36.0687142],[139.0258409,36.0687211],[139.0258383,36.0687222],[139.0258278,36.0687249],[139.0257281,36.068757],[139.0257145,36.0687607],[139.0256504,36.0687781],[139.0256357,36.068781],[139.0255784,36.0687927],[139.0255423,36.0687965],[139.025496,36.0687948],[139.025469,36.0687881],[139.0254309,36.0687681],[139.0253893,36.0687324],[139.0253695,36.0687081],[139.0253537,36.0686886],[139.0253071,36.068625],[139.0252831,36.06859],[139.0252638,36.0685619],[139.0252301,36.068479],[139.0252322,36.0684788],[139.0252488,36.068487],[139.0252653,36.0684952],[139.0252911,36.0685161],[139.0253123,36.068541],[139.0253393,36.0685746],[139.0253723,36.0686054],[139.0254099,36.0686418],[139.025452,36.0686704],[139.0254704,36.0686796],[139.025492,36.0686904],[139.0255305,36.0687017],[139.0255308,36.0687018],[139.0255692,36.0687066],[139.0255711,36.0687068],[139.0256183,36.0687061],[139.0256187,36.0687061],[139.0257084,36.0686948],[139.0258119,36.0686801],[139.0258184,36.0686782],[139.0258245,36.0686764],[139.0258837,36.0686588],[139.0259392,36.0686351],[139.0259807,36.0686149],[139.0260034,36.0686009],[139.0260127,36.0685951],[139.0260516,36.0685715],[139.0260701,36.0685602],[139.0260921,36.068549],[139.0261116,36.0685425],[139.0261351,36.0685345],[139.0261451,36.0685318],[139.0261512,36.0685302],[139.0261683,36.0685258],[139.0261841,36.0685239],[139.0261967,36.0685224],[139.0262275,36.068518],[139.0262514,36.0685154],[139.0262644,36.068514],[139.0263006,36.0685182],[139.0263457,36.0685253],[139.026346,36.0685254],[139.0264072,36.068543],[139.0264075,36.0685431],[139.0264795,36.0685657],[139.0265575,36.0686061],[139.0265887,36.0686201],[139.0266345,36.0686312],[139.0267035,36.0686355],[139.0267657,36.0686255],[139.026768,36.0686252],[139.0268202,36.0686098],[139.026898,36.0685848],[139.0269296,36.0685732],[139.0269696,36.0685671],[139.02707,36.068562],[139.0270714,36.068562],[139.0270848,36.068562],[139.0271565,36.0685622],[139.0272115,36.0685623],[139.0272119,36.0685623],[139.0272783,36.0685627],[139.0273035,36.0685611],[139.0273325,36.0685592],[139.027333,36.0685591],[139.0273888,36.0685527],[139.0274594,36.068537],[139.0275073,36.0685171],[139.0275451,36.0684939],[139.0275621,36.068479],[139.027589,36.0684556],[139.0276372,36.068394],[139.0276558,36.0683767],[139.0276621,36.0683709],[139.0276754,36.0683585],[139.0276944,36.0683868],[139.0276913,36.0683908],[139.0276448,36.068452],[139.0276065,36.0685],[139.0276037,36.0685035],[139.0275805,36.0685272],[139.027539,36.0685517],[139.027494,36.068573],[139.027447,36.0685852],[139.027382,36.0685958],[139.0273794,36.0685962],[139.0273686,36.0685986],[139.0272872,36.068605],[139.0272541,36.0686062],[139.0271311,36.0686107],[139.0271073,36.0686115],[139.0270949,36.0686119],[139.0270362,36.068614],[139.026951,36.0686215],[139.0268675,36.0686369],[139.0267329,36.0686567],[139.0266511,36.0686561],[139.0265931,36.0686454],[139.0265061,36.0686212],[139.0264098,36.0685933],[139.0263095,36.0685808],[139.026255,36.0685795],[139.026181,36.0685858],[139.0261094,36.0685981],[139.0260548,36.0686184],[139.0259877,36.0686543],[139.0258578,36.0687142]]]},"properties":{"layer":"landuse","class_code":"205","class_label":"その他自然地（原野・牧野、荒れ地（耕作放棄地等自然的状況のもの）、低湿地、河川敷・河原、海浜、湖岸）"}},{"type":"Feature","id":"luse_a85e22d7-7c4b-4ae7-a80b-a6dd0dabfa75","geometry":{"type":"Polygon","coordinates":[[[139.03052099873872,36.06666666666667],[139.030523,36.0666922],[139.0305056,36.0667535],[139.0304786,36.0668167],[139.0304182,36.0668829],[139.030351,36.066901],[139.0302412,36.0668959],[139.0301573,36.066856],[139.0301997,36.0668212],[139.0302579,36.0667729],[139.0302976,36.0667304],[139.03034431414002,36.06666666666667],[139.03052099873872,36.06666666666667]]]},"properties":{"layer":"landuse","class_code":"211","class_label":"住宅用地（住宅、共同住宅、店舗等併用住宅、店舗等併用共同住宅、作業所併用住宅）"}},{"type":"Feature","id":"luse_95572cca-5940-4984-a46d-cfae3eb4c748","geometry":{"type":"Polygon","coordinates":[[[139.02990807185725,36.06666666666667],[139.0299012,36.066679],[139.0298969,36.0666904],[139.0298824,36.0667283],[139.0298555,36.066791],[139.0298154,36.0668766],[139.0297975,36.0669111],[139.0297101,36.0667791],[139.029682,36.0667169],[139.02966673488194,36.06666666666667],[139.02990807185725,36.06666666666667]]]},"properties":{"layer":"landuse","class_code":"211","class_label":"住宅用地（住宅、共同住宅、店舗等併用住宅、店舗等併用共同住宅、作業所併用住宅）"}},{"type":"Feature","id":"luse_9864950c-6c1f-4f50-abb8-3e67169ac8da","geometry":{"type":"Polygon","coordinates":[[[139.0279513,36.0681948],[139.0278361,36.0682178],[139.0278249,36.06822],[139.0277793,36.0682333],[139.0277722,36.0682354],[139.0277173,36.0682575],[139.0276659,36.0682837],[139.0275835,36.0683617],[139.0275361,36.0684224],[139.0275083,36.0684416],[139.0274859,36.0684493],[139.0274717,36.0684473],[139.0274712,36.0684296],[139.0274716,36.0684067],[139.0274805,36.0683808],[139.0275277,36.0683199],[139.0275406,36.0683065],[139.0276089,36.0682362],[139.0276108,36.0682346],[139.0276501,36.0682029],[139.0276956,36.0681785],[139.0276967,36.0681779],[139.0277579,36.068153],[139.0278719,36.0681225],[139.027971,36.0680973],[139.0280155,36.0680781],[139.0280433,36.0680513],[139.028066,36.0680054],[139.0280721,36.0679783],[139.0280759,36.0679501],[139.0280748,36.0679241],[139.0280659,36.0678975],[139.0280554,36.0678733],[139.0280371,36.0678473],[139.0280089,36.0678189],[139.0279848,36.0677969],[139.0279551,36.0677731],[139.0279378,36.0677565],[139.0279205,36.0677399],[139.0278888,36.0677009],[139.02786,36.0676535],[139.027833,36.0675785],[139.0278217,36.0675177],[139.0278252,36.0674648],[139.0278403,36.0673959],[139.0278522,36.0673677],[139.0278652,36.0673496],[139.0279675,36.0672951],[139.0280206,36.0673437],[139.0282292,36.0673852],[139.0284328,36.0674938],[139.0284311,36.0675098],[139.0284616,36.0675432],[139.0284669,36.0675725],[139.0284448,36.0676323],[139.0283547,36.0676434],[139.0283962,36.067718],[139.0284483,36.0677582],[139.0285447,36.0677383],[139.0286124,36.0678543],[139.02864,36.0678584],[139.0286386,36.0678604],[139.028599,36.0679197],[139.0285963,36.0679237],[139.0284632,36.0680726],[139.0284062,36.0681304],[139.0283648,36.0681539],[139.0282871,36.0681696],[139.0282588,36.0681735],[139.028159,36.0681871],[139.0281103,36.0681836],[139.0281082,36.0681837],[139.0280746,36.0681848],[139.028037,36.0681822],[139.0279513,36.0681948]]]},"properties":{"layer":"landuse","class_code":"211","class_label":"住宅用地（住宅、共同住宅、店舗等併用住宅、店舗等併用共同住宅、作業所併用住宅）"}},{"type":"Feature","id":"luse_7514c582-2567-4a53-b352-d7480c4385c3","geometry":{"type":"Polygon","coordinates":[[[139.0270685,36.0685259],[139.0269699,36.0685309],[139.0270463,36.0684246],[139.0270688,36.068337],[139.0270905,36.0683109],[139.0272202,36.0682614],[139.0272247,36.0682224],[139.0271995,36.0682],[139.0271904,36.0681865],[139.0271785,36.0681583],[139.0271825,36.0680759],[139.0271874,36.0680302],[139.0271732,36.0678756],[139.0271773,36.0677584],[139.0271923,36.0677468],[139.0273191,36.0677371],[139.0273586,36.0677341],[139.0273379,36.0676015],[139.0273475,36.0675187],[139.0273747,36.0674409],[139.0274292,36.0674471],[139.0274747,36.0674385],[139.0275216,36.0674075],[139.0275448,36.0673771],[139.0275857,36.0673235],[139.0278129,36.067324],[139.0277963,36.0673469],[139.0277811,36.0673835],[139.0277644,36.067459],[139.0277604,36.0675201],[139.0277733,36.0675892],[139.027774,36.0676245],[139.0277731,36.0676527],[139.0277703,36.067678],[139.0277657,36.067718],[139.0277623,36.0677459],[139.0277547,36.0677738],[139.027743,36.0677889],[139.0277282,36.0678012],[139.0277278,36.0678012],[139.0277131,36.0678071],[139.0276713,36.0678148],[139.0276412,36.0678175],[139.0276409,36.0678176],[139.0276035,36.0678208],[139.0276032,36.0678208],[139.0275779,36.0678268],[139.0275532,36.0678361],[139.0275149,36.06786],[139.0275003,36.0678682],[139.0274719,36.0678776],[139.0274445,36.0678868],[139.0274206,36.0678974],[139.0274087,36.0679065],[139.0274312,36.0679262],[139.0274403,36.0679195],[139.0274589,36.0679112],[139.0274847,36.0679026],[139.0275163,36.0678919],[139.0275345,36.0678818],[139.0275704,36.0678594],[139.0275895,36.0678523],[139.0276099,36.0678475],[139.0276768,36.0678416],[139.0277244,36.0678328],[139.0277339,36.0678361],[139.0277365,36.0678404],[139.0277352,36.0678476],[139.0277242,36.0678909],[139.0277156,36.0679163],[139.0277371,36.0679245],[139.0277485,36.0678934],[139.0277601,36.0678654],[139.0277701,36.0678393],[139.0277755,36.0678189],[139.0277861,36.0677844],[139.0277954,36.0677501],[139.0277988,36.0677201],[139.0278016,36.0676872],[139.0278028,36.0676715],[139.0278045,36.0676716],[139.0278356,36.0677256],[139.0278713,36.0677697],[139.0279103,36.0678068],[139.0279327,36.0678331],[139.0279581,36.0678594],[139.0279778,36.0678818],[139.027993,36.0679024],[139.0280021,36.0679156],[139.0280044,36.0679345],[139.0280063,36.0679516],[139.0280045,36.06797],[139.0279966,36.0679918],[139.0279805,36.0680208],[139.0279691,36.0680318],[139.027943,36.068043],[139.0278499,36.0680667],[139.0277311,36.0681085],[139.0276663,36.0681348],[139.0276659,36.068135],[139.0276112,36.0681643],[139.02761,36.0681653],[139.0275631,36.0682031],[139.0274777,36.0682912],[139.0274498,36.0683272],[139.0274484,36.0683291],[139.0274241,36.0683606],[139.0274106,36.0683997],[139.027404,36.0684372],[139.0273857,36.0684801],[139.0273798,36.0684852],[139.0273698,36.0684929],[139.0273305,36.0685152],[139.0272865,36.0685235],[139.0272102,36.0685275],[139.0271574,36.068526],[139.0270685,36.0685259]]]},"properties":{"layer":"landuse","class_code":"211","class_label":"住宅用地（住宅、共同住宅、店舗等併用住宅、店舗等併用共同住宅、作業所併用住宅）"}},{"type":"Feature","id":"luse_2002463c-e9cf-4ac8-a46b-1320c7d12110","geometry":{"type":"Polygon","coordinates":[[[139.0253276,36.0687221],[139.0252432,36.0687554],[139.025113,36.0688022],[139.0250468,36.0688109],[139.025,36.06876487569061],[139.025,36.068232844827584],[139.025004,36.0682335],[139.0250565,36.0682421],[139.025069,36.0682464],[139.0250986,36.0682566],[139.0251311,36.0682726],[139.0251466,36.0682818],[139.0251844,36.0683139],[139.0252096,36.0683463],[139.0252186,36.0683734],[139.0252192,36.0683929],[139.0251957,36.0684576],[139.025193,36.0684663],[139.0251817,36.068468],[139.0251736,36.0684692],[139.02516,36.0684687],[139.0251596,36.0684687],[139.0251431,36.0684715],[139.0251348,36.0684754],[139.0251264,36.0684831],[139.0251237,36.0684969],[139.0251213,36.0685146],[139.025115,36.0685342],[139.0251088,36.0685518],[139.0251076,36.0685636],[139.0251107,36.0685833],[139.0251152,36.0686048],[139.0251162,36.0686186],[139.025115,36.0686343],[139.0251149,36.0686451],[139.0251111,36.068651],[139.0251309,36.0686591],[139.025137,36.0686495],[139.0251416,36.0686343],[139.0251387,36.0686187],[139.0251375,36.0686028],[139.0251329,36.0685805],[139.0251299,36.0685632],[139.0251308,36.0685551],[139.0251365,36.0685389],[139.025149,36.0685188],[139.0251567,36.0685037],[139.0251643,36.0684949],[139.0251776,36.068487],[139.0251907,36.068485],[139.0251905,36.0684891],[139.0251936,36.068502],[139.0251942,36.0685045],[139.0252065,36.0685348],[139.0252223,36.0685739],[139.02526,36.0686301],[139.0252684,36.0686427],[139.0252769,36.0686541],[139.0253108,36.0687006],[139.025316,36.0687078],[139.0253276,36.0687221]]]},"properties":{"layer":"landuse","class_code":"211","class_label":"住宅用地（住宅、共同住宅、店舗等併用住宅、店舗等併用共同住宅、作業所併用住宅）"}},{"type":"Feature","id":"luse_9e2ccfef-c8a4-44d3-bb09-e2e748818283","geometry":{"type":"Polygon","coordinates":[[[139.0277682,36.0691248],[139.0277411,36.0690922],[139.0277234,36.0690581],[139.0277055,36.0690329],[139.0276944,36.0690281],[139.027694,36.0690281],[139.027677,36.0690292],[139.027666,36.0690342],[139.0276632,36.0690364],[139.0276564,36.0689834],[139.0274498,36.0689411],[139.0274759,36.0688426],[139.0276306,36.0688179],[139.027858,36.0688849],[139.0278584,36.0689399],[139.0277682,36.0691248]]]},"properties":{"layer":"landuse","class_code":"211","class_label":"住宅用地（住宅、共同住宅、店舗等併用住宅、店舗等併用共同住宅、作業所併用住宅）"}},{"type":"Feature","id":"luse_82344943-edf6-4861-b6d0-48ec21c2c7b4","geometry":{"type":"Polygon","coordinates":[[[139.0278378,36.0684937],[139.0279103,36.0685042],[139.0279685,36.0685117],[139.0280508,36.0685255],[139.0280512,36.0685256],[139.0281103,36.0685399],[139.0281759,36.0685646],[139.0281952,36.0685719],[139.0282208,36.0685816],[139.028262,36.0685983],[139.0283208,36.068615],[139.0283211,36.0686151],[139.0283573,36.068624],[139.0285391,36.0686583],[139.0285923,36.0686684],[139.02865,36.0686805],[139.0287265,36.0687031],[139.0287607,36.0687181],[139.0287698,36.0687256],[139.0287756,36.0687343],[139.0287861,36.068751],[139.0287915,36.0687694],[139.0287922,36.0687853],[139.0287898,36.0688177],[139.0287689,36.0688881],[139.0287391,36.0689519],[139.028717,36.0689944],[139.0287098,36.0690061],[139.0287012,36.0690131],[139.0287009,36.0690132],[139.0285717,36.0690562],[139.0285714,36.0690563],[139.028466,36.069084],[139.028415,36.0690975],[139.0283208,36.069111],[139.0283204,36.0691111],[139.0282841,36.0691123],[139.0282431,36.0691176],[139.0282118,36.0691252],[139.0281693,36.0691451],[139.0281414,36.0691559],[139.0281404,36.0691562],[139.0281103,36.0691692],[139.0280792,36.0691811],[139.028058,36.0690666],[139.0281106,36.0689251],[139.0279808,36.0687013],[139.0279105,36.0686933],[139.0278502,36.0686712],[139.0277938,36.0686066],[139.0276817,36.0685654],[139.0276286,36.0685361],[139.0276398,36.0685247],[139.027675,36.0684805],[139.0276825,36.0684712],[139.0277114,36.06843],[139.0277145,36.0684256],[139.0277322,36.068461],[139.027742,36.0684695],[139.0277517,36.0684743],[139.0277816,36.0684859],[139.0277991,36.0684848],[139.0278378,36.0684937]]]},"properties":{"layer":"landuse","class_code":"211","class_label":"住宅用地（住宅、共同住宅、店舗等併用住宅、店舗等併用共同住宅、作業所併用住宅）"}},{"type":"Feature","id":"luse_2d4b0339-3f6f-42d5-943a-6565ad57c19b","geometry":{"type":"Polygon","coordinates":[[[139.0302900229713,36.06666666666667],[139.0302588,36.0667092],[139.0302564,36.0667119],[139.03011043355806,36.06666666666667],[139.0302900229713,36.06666666666667]]]},"properties":{"layer":"landuse","class_code":"223","class_label":"その他④（その他①～③以外の用途に供されている都市的土地利用（建物跡地、資材置場、改変工事中の土地）、法面（道路、造成地等の主利用に含まれない法面））"}},{"type":"Feature","id":"luse_b4956b1d-004e-4319-8d95-20e2d050af8f","geometry":{"type":"Polygon","coordinates":[[[139.0289707,36.0689815],[139.0289408,36.0690216],[139.0288886,36.0690485],[139.0288352,36.0690632],[139.028793,36.0690668],[139.0287722,36.0690686],[139.028746,36.0690772],[139.0287583,36.069064],[139.0287643,36.0690575],[139.0287894,36.06902],[139.0288078,36.0689777],[139.0288087,36.0689759],[139.028811,36.0689706],[139.0288298,36.0689173],[139.0288469,36.0688539],[139.028847,36.0688534],[139.0288724,36.0688713],[139.0289299,36.0689123],[139.0289512,36.0689275],[139.0289891,36.0689268],[139.0289889,36.0689272],[139.0289707,36.0689815]]]},"properties":{"layer":"landuse","class_code":"223","class_label":"その他④（その他①～③以外の用途に供されている都市的土地利用（建物跡地、資材置場、改変工事中の土地）、法面（道路、造成地等の主利用に含まれない法面））"}},{"type":"Feature","id":"luse_ceced96a-6f6f-441f-8972-6ee9d5cd897b","geometry":{"type":"MultiPolygon","coordinates":[[[[139.025,36.06666666666667],[139.0299446654072,36.06666666666667],[139.0299324,36.0666887],[139.029914,36.0667368],[139.0298868,36.0668003],[139.0298464,36.0668866],[139.0298171,36.0669436],[139.0297944,36.0669811],[139.0297805,36.0669998],[139.0297589,36.0670227],[139.0297357,36.0670418],[139.0297263,36.0670496],[139.0296875,36.0670688],[139.0296677,36.0670751],[139.0296212,36.0670831],[139.0295757,36.0670824],[139.0294769,36.0670787],[139.0294765,36.0670786],[139.0294163,36.0670719],[139.0293517,36.067069],[139.0292996,36.0670724],[139.0292735,36.0670796],[139.0292388,36.0670914],[139.0292315,36.0670971],[139.0291802,36.0671371],[139.0291122,36.0672013],[139.0290573,36.0672514],[139.029012,36.0672908],[139.0289708,36.0673259],[139.0288389,36.0674193],[139.0287589,36.0674917],[139.0287163,36.0675394],[139.028702,36.0675777],[139.028697,36.0676168],[139.0286998,36.067682],[139.0287076,36.0677837],[139.0287078,36.0677863],[139.0287064,36.0678422],[139.0287063,36.0678441],[139.0287047,36.0678664],[139.0287035,36.0678717],[139.0286994,36.06789],[139.0286935,36.0679047],[139.028667,36.0679534],[139.0286584,36.0679631],[139.0285376,36.0680982],[139.028453,36.0682018],[139.0284467,36.0682095],[139.0284167,36.0682298],[139.0283931,36.0682326],[139.0283544,36.0682333],[139.0282283,36.0682192],[139.0281092,36.0682108],[139.0280315,36.0682127],[139.0279577,36.0682213],[139.0278346,36.0682459],[139.0277833,36.0682608],[139.0277622,36.0682723],[139.027754,36.0682786],[139.0277524,36.0682818],[139.0277494,36.0682878],[139.0277488,36.0682942],[139.027751,36.0683166],[139.0277533,36.068323],[139.0277542,36.0683259],[139.027766,36.0683602],[139.0277669,36.0683628],[139.0277674,36.0683635],[139.0277858,36.0683878],[139.0277927,36.0683971],[139.0278062,36.06841],[139.0278081,36.0684118],[139.0278226,36.068421],[139.0278572,36.0684325],[139.0278582,36.0684329],[139.0279267,36.0684469],[139.027983,36.0684585],[139.0280693,36.0684777],[139.0280766,36.0684793],[139.0281294,36.0684997],[139.0281998,36.0685278],[139.0282433,36.0685452],[139.0282548,36.0685499],[139.0282616,36.0685527],[139.0282816,36.0685608],[139.0283153,36.0685704],[139.0283365,36.0685765],[139.0283546,36.0685809],[139.0283715,36.068585],[139.028557,36.0686281],[139.028636,36.0686465],[139.028664,36.068653],[139.0287332,36.0686735],[139.0287858,36.068691],[139.0288015,36.0686969],[139.0288062,36.0686966],[139.0288101,36.0686943],[139.0288128,36.068682],[139.0288181,36.0686573],[139.0288244,36.0686262],[139.0288267,36.0686147],[139.0288378,36.0685737],[139.0288541,36.0685091],[139.028869,36.0684673],[139.0288702,36.068464],[139.0288914,36.068469],[139.0288902,36.0684728],[139.0288757,36.0685135],[139.0288595,36.0685775],[139.0288485,36.0686181],[139.028841,36.068655],[139.02884,36.0686599],[139.0288339,36.0686959],[139.0288333,36.0687295],[139.0288334,36.06873],[139.0288342,36.068737],[139.028849,36.0687586],[139.0288534,36.0687748],[139.0288541,36.0687777],[139.0288543,36.0687819],[139.0288555,36.0688085],[139.0288556,36.0688101],[139.0288546,36.0688149],[139.028847,36.0688534],[139.0288469,36.0688539],[139.0288298,36.0689173],[139.028811,36.0689706],[139.0288087,36.0689759],[139.0288078,36.0689777],[139.0287894,36.06902],[139.0287643,36.0690575],[139.0287583,36.069064],[139.028746,36.0690772],[139.0287435,36.0690798],[139.0287139,36.0691063],[139.0286991,36.0691158],[139.028669,36.0691351],[139.0286394,36.0691521],[139.0285976,36.069168],[139.0285498,36.0691844],[139.0284888,36.0692017],[139.028442,36.0692156],[139.0284128,36.0692287],[139.0283823,36.0692462],[139.0283774,36.0692485],[139.0283369,36.0692678],[139.0283143,36.0692925],[139.0282587,36.0693894],[139.0282072,36.0694849],[139.0281377,36.0696142],[139.0280963,36.0697055],[139.0280805,36.0697488],[139.0280726,36.0697778],[139.028071,36.0698159],[139.0280801,36.0698644],[139.0280806,36.0698672],[139.0280952,36.069908],[139.0281287,36.0699775],[139.0281471,36.0700192],[139.0281515,36.0700327],[139.0281619,36.0700646],[139.0281667,36.0700875],[139.0281731,36.0701181],[139.0281818,36.070193],[139.0282032,36.0702218],[139.0282036,36.0702251],[139.028209,36.070272],[139.0282248,36.0704079],[139.0282082,36.0704413],[139.0282056,36.0704464],[139.0282085,36.0704628],[139.0282123,36.0704846],[139.0282101,36.0705308],[139.0282094,36.0705336],[139.0282076,36.0705416],[139.0282008,36.0705709],[139.0281768,36.0706198],[139.0281547,36.0706573],[139.0281243,36.0706986],[139.0280701,36.0707417],[139.0280192,36.0707821],[139.0279579,36.070833],[139.027932,36.0708492],[139.0279224,36.0708551],[139.0278881,36.0708735],[139.0278763,36.0708779],[139.0278504,36.0708876],[139.0277997,36.0709034],[139.0277349,36.0709178],[139.0277184,36.0709217],[139.0275967,36.0709507],[139.0275312,36.070967],[139.0275069,36.0709776],[139.0274863,36.0709927],[139.0274772,36.0710255],[139.0274773,36.0710269],[139.0274774,36.0710291],[139.0274798,36.0710635],[139.0274814,36.0710864],[139.0274814,36.0710876],[139.0274822,36.0712319],[139.0274845,36.0713179],[139.0274869,36.0714079],[139.0274897,36.0715082],[139.0274948,36.0716693],[139.0275078,36.0718187],[139.0275092,36.0718338],[139.0275101,36.071843],[139.0275136,36.0718775],[139.0275188,36.0719293],[139.0275261,36.0719723],[139.0275371,36.0720095],[139.0275579,36.0720531],[139.0275945,36.0721086],[139.0276355,36.0721558],[139.0276541,36.0721727],[139.0276703,36.0721874],[139.0277175,36.0722296],[139.0277654,36.0722708],[139.0278,36.0723037],[139.0278223,36.0723262],[139.0278416,36.0723503],[139.0278595,36.0723752],[139.0278724,36.0724109],[139.0278779,36.0724854],[139.0278831,36.0725914],[139.027883,36.0725941],[139.02788,36.0726481],[139.027887,36.0726942],[139.0278998,36.0727522],[139.0279066,36.0727782],[139.0279135,36.0728049],[139.0279329,36.0728548],[139.0279607,36.0728926],[139.0280617,36.0729844],[139.0281224,36.07303],[139.0281684,36.0730606],[139.0282679,36.0731309],[139.0283571,36.0731928],[139.0284528,36.0732409],[139.0285179,36.0732765],[139.0285723,36.0733197],[139.0286165,36.0733751],[139.0286434,36.0734426],[139.0286626,36.0735088],[139.0286753,36.0736111],[139.0286855,36.0737008],[139.0286729,36.0737925],[139.0286711,36.0737991],[139.0286166,36.0738147],[139.0286294,36.0737846],[139.0286409,36.0737005],[139.0286311,36.0736146],[139.0286187,36.0735148],[139.0286006,36.0734522],[139.028576,36.0733906],[139.0285378,36.0733427],[139.0284897,36.0733046],[139.0284285,36.0732711],[139.0284237,36.0732687],[139.0283317,36.0732224],[139.028236,36.0731623],[139.0281354,36.0730913],[139.0280924,36.0730555],[139.0280333,36.0730058],[139.0279292,36.0729113],[139.0278972,36.0728678],[139.0278759,36.072813],[139.0278667,36.072778],[139.0278485,36.0726989],[139.0278409,36.0726493],[139.0278426,36.0726192],[139.0278441,36.0725927],[139.0278392,36.0724873],[139.0278335,36.0724307],[139.0278191,36.0724023],[139.0277998,36.0723793],[139.0277816,36.0723639],[139.0277578,36.0723449],[139.0277188,36.0723194],[139.0276382,36.0722693],[139.0275924,36.072231],[139.0275537,36.0722026],[139.0275092,36.0721513],[139.027467,36.072087],[139.0274414,36.0720339],[139.0274278,36.0719875],[139.0274193,36.0719382],[139.0274156,36.0718485],[139.027415,36.0718342],[139.0274151,36.0718196],[139.0274171,36.0716709],[139.0274121,36.0715097],[139.0274093,36.0714112],[139.0274093,36.0714108],[139.0274045,36.0712327],[139.0274052,36.07112],[139.0274053,36.0711041],[139.0273996,36.0710413],[139.0273974,36.0710144],[139.0274052,36.070977],[139.0274168,36.0709571],[139.0274342,36.0709395],[139.0274542,36.0709253],[139.0274788,36.0709163],[139.0274911,36.0709141],[139.0275325,36.070894],[139.0275908,36.0708844],[139.0276619,36.0708782],[139.0277501,36.0708712],[139.027812,36.0708535],[139.0278745,36.0708276],[139.027936,36.0707889],[139.0279805,36.0707501],[139.0280469,36.0706857],[139.0280938,36.0706393],[139.0281271,36.0705604],[139.0281353,36.0705409],[139.0281453,36.0705181],[139.0281466,36.0705152],[139.028151,36.0705052],[139.0281491,36.0704527],[139.0281491,36.0704517],[139.0281284,36.0702408],[139.0281099,36.0701005],[139.0281002,36.0700651],[139.0280866,36.0700221],[139.0280508,36.0699589],[139.0280294,36.0699201],[139.0280181,36.0698776],[139.0280108,36.0698518],[139.0280105,36.0698184],[139.0280092,36.0697779],[139.0280154,36.0697388],[139.0280264,36.0697031],[139.0280545,36.0696489],[139.0281209,36.0695325],[139.0281862,36.0694147],[139.0282389,36.0693139],[139.0282622,36.0692735],[139.0282753,36.069255],[139.0282914,36.0692351],[139.0283085,36.0692228],[139.0283434,36.0692006],[139.0283695,36.0691827],[139.0284008,36.0691643],[139.028445,36.0691498],[139.0285199,36.0691255],[139.0285914,36.0691074],[139.0285951,36.0691065],[139.0286328,36.0690827],[139.0286353,36.0690809],[139.0286487,36.0690711],[139.0286523,36.0690684],[139.0286674,36.0690574],[139.0286702,36.0690551],[139.028695,36.069034],[139.0286119,36.0690621],[139.0285793,36.0690731],[139.0284729,36.0691011],[139.0284726,36.0691012],[139.0284205,36.0691149],[139.0284202,36.069115],[139.0283244,36.0691288],[139.0282865,36.0691303],[139.028248,36.0691352],[139.0282206,36.0691418],[139.0281796,36.069161],[139.0281515,36.069172],[139.0281504,36.0691723],[139.028141,36.0691764],[139.0281203,36.0691854],[139.0280877,36.0691978],[139.0280611,36.0692059],[139.0280548,36.0692073],[139.0280401,36.0692106],[139.0280397,36.0692106],[139.0280104,36.0692123],[139.0279652,36.0692123],[139.0279649,36.0692123],[139.0279308,36.069212],[139.0279305,36.069212],[139.0278939,36.0692092],[139.0278618,36.0692042],[139.0278158,36.0691875],[139.0277876,36.0691742],[139.0277469,36.0691389],[139.0277222,36.0691114],[139.0277026,36.0690848],[139.0276915,36.0690691],[139.0276797,36.0690653],[139.0276716,36.0690653],[139.0276685,36.069069],[139.0276533,36.0691034],[139.0276355,36.0691365],[139.0276162,36.069168],[139.0275965,36.0691951],[139.0275712,36.0692211],[139.0275473,36.0692348],[139.0275165,36.0692434],[139.027476,36.0692523],[139.027428,36.06926],[139.0273902,36.0692636],[139.0273899,36.0692636],[139.0273427,36.0692641],[139.0273423,36.0692641],[139.0272806,36.0692691],[139.0272095,36.0692792],[139.0271339,36.0692896],[139.0271318,36.0692797],[139.02713,36.0692718],[139.0272057,36.0692614],[139.0272776,36.0692513],[139.0273413,36.0692461],[139.0273884,36.0692455],[139.0273888,36.0692455],[139.0274245,36.0692423],[139.0274707,36.0692349],[139.0274711,36.0692348],[139.02751,36.0692261],[139.0275371,36.0692186],[139.0275557,36.0692078],[139.0275781,36.0691849],[139.0275967,36.0691593],[139.0276154,36.0691288],[139.0276327,36.0690967],[139.0276405,36.0690713],[139.0276462,36.0690585],[139.0276518,36.069046],[139.0276632,36.0690364],[139.027666,36.0690342],[139.027677,36.0690292],[139.027694,36.0690281],[139.0276944,36.0690281],[139.0277055,36.0690329],[139.0277234,36.0690581],[139.0277411,36.0690922],[139.0277682,36.0691248],[139.0277725,36.06913],[139.0277816,36.0691405],[139.0277957,36.0691533],[139.0278177,36.0691684],[139.0278431,36.0691775],[139.0278685,36.0691869],[139.0278971,36.0691913],[139.0279316,36.069194],[139.027932,36.069194],[139.0279652,36.0691943],[139.0280097,36.0691943],[139.0280361,36.0691927],[139.02805,36.0691897],[139.0280541,36.0691887],[139.0280792,36.0691811],[139.0281103,36.0691692],[139.0281404,36.0691562],[139.0281414,36.0691559],[139.0281693,36.0691451],[139.0282118,36.0691252],[139.0282431,36.0691176],[139.0282841,36.0691123],[139.0283204,36.0691111],[139.0283208,36.069111],[139.028415,36.0690975],[139.028466,36.069084],[139.0285714,36.0690563],[139.0285717,36.0690562],[139.0287009,36.0690132],[139.0287012,36.0690131],[139.0287098,36.0690061],[139.028717,36.0689944],[139.0287391,36.0689519],[139.0287689,36.0688881],[139.0287898,36.0688177],[139.0287922,36.0687853],[139.0287915,36.0687694],[139.0287861,36.068751],[139.0287756,36.0687343],[139.0287698,36.0687256],[139.0287607,36.0687181],[139.0287265,36.0687031],[139.02865,36.0686805],[139.0285923,36.0686684],[139.0285391,36.0686583],[139.0283573,36.068624],[139.0283211,36.0686151],[139.0283208,36.068615],[139.028262,36.0685983],[139.0282208,36.0685816],[139.0281952,36.0685719],[139.0281759,36.0685646],[139.0281103,36.0685399],[139.0280512,36.0685256],[139.0280508,36.0685255],[139.0279685,36.0685117],[139.0279103,36.0685042],[139.0278378,36.0684937],[139.0277991,36.0684848],[139.0277816,36.0684859],[139.0277517,36.0684743],[139.027742,36.0684695],[139.0277322,36.068461],[139.0277145,36.0684256],[139.0276966,36.06839],[139.0276944,36.0683868],[139.0276754,36.0683585],[139.0276621,36.0683709],[139.0276558,36.0683767],[139.0276372,36.068394],[139.027589,36.0684556],[139.0275621,36.068479],[139.0275451,36.0684939],[139.0275073,36.0685171],[139.0274594,36.068537],[139.0273888,36.0685527],[139.027333,36.0685591],[139.0273325,36.0685592],[139.0273035,36.0685611],[139.0272783,36.0685627],[139.0272119,36.0685623],[139.0272115,36.0685623],[139.0271565,36.0685622],[139.0270848,36.068562],[139.0270714,36.068562],[139.02707,36.068562],[139.0269696,36.0685671],[139.0269296,36.0685732],[139.026898,36.0685848],[139.0268202,36.0686098],[139.026768,36.0686252],[139.0267657,36.0686255],[139.0267035,36.0686355],[139.0266345,36.0686312],[139.0265887,36.0686201],[139.0265575,36.0686061],[139.0264795,36.0685657],[139.0264075,36.0685431],[139.0264072,36.068543],[139.026346,36.0685254],[139.0263457,36.0685253],[139.0263006,36.0685182],[139.0262644,36.068514],[139.0262514,36.0685154],[139.0262275,36.068518],[139.0261967,36.0685224],[139.0261841,36.0685239],[139.0261683,36.0685258],[139.0261512,36.0685302],[139.0261451,36.0685318],[139.0261351,36.0685345],[139.0261116,36.0685425],[139.0260921,36.068549],[139.0260701,36.0685602],[139.0260516,36.0685715],[139.0260127,36.0685951],[139.0260034,36.0686009],[139.0259807,36.0686149],[139.0259392,36.0686351],[139.0258837,36.0686588],[139.0258245,36.0686764],[139.0258184,36.0686782],[139.0258119,36.0686801],[139.0257084,36.0686948],[139.0256187,36.0687061],[139.0256183,36.0687061],[139.0255711,36.0687068],[139.0255692,36.0687066],[139.0255308,36.0687018],[139.0255305,36.0687017],[139.025492,36.0686904],[139.0254704,36.0686796],[139.025452,36.0686704],[139.0254099,36.0686418],[139.0253723,36.0686054],[139.0253393,36.0685746],[139.0253123,36.068541],[139.0252911,36.0685161],[139.0252653,36.0684952],[139.0252488,36.068487],[139.0252322,36.0684788],[139.0252301,36.068479],[139.0251907,36.068485],[139.0251776,36.068487],[139.0251643,36.0684949],[139.0251567,36.0685037],[139.025149,36.0685188],[139.0251365,36.0685389],[139.0251308,36.0685551],[139.0251299,36.0685632],[139.0251329,36.0685805],[139.0251375,36.0686028],[139.0251387,36.0686187],[139.0251416,36.0686343],[139.025137,36.0686495],[139.0251309,36.0686591],[139.0251111,36.068651],[139.0251149,36.0686451],[139.025115,36.0686343],[139.0251162,36.0686186],[139.0251152,36.0686048],[139.0251107,36.0685833],[139.0251076,36.0685636],[139.0251088,36.0685518],[139.025115,36.0685342],[139.0251213,36.0685146],[139.0251237,36.0684969],[139.0251264,36.0684831],[139.0251348,36.0684754],[139.0251431,36.0684715],[139.0251596,36.0684687],[139.02516,36.0684687],[139.0251736,36.0684692],[139.0251817,36.068468],[139.025193,36.0684663],[139.0252276,36.0684611],[139.0252282,36.068461],[139.0252481,36.0684589],[139.0252484,36.0684589],[139.025258,36.0684597],[139.0252679,36.0684624],[139.0252852,36.0684705],[139.0252919,36.0684736],[139.0253013,36.0684762],[139.0253083,36.0684756],[139.0253132,36.0684689],[139.0253138,36.0684568],[139.0253081,36.0683999],[139.0252965,36.0683578],[139.0252778,36.0683235],[139.025258,36.0682986],[139.0252326,36.0682734],[139.0252067,36.0682534],[139.0251847,36.0682399],[139.0251599,36.0682288],[139.0251521,36.0682259],[139.0251248,36.0682156],[139.0250964,36.068207],[139.0250563,36.0681967],[139.0250218,36.0681893],[139.0250122,36.0681872],[139.025,36.06818609090909],[139.025,36.06666666666667]]],[[[139.025,36.06666666666667],[139.025,36.06814563743017],[139.0250139,36.0681482],[139.0250268,36.0681506],[139.025028,36.0681508],[139.0250497,36.0681558],[139.0250701,36.0681605],[139.0250832,36.0681645],[139.0251118,36.0681732],[139.0251419,36.0681823],[139.0251801,36.0681965],[139.0252093,36.0682097],[139.0252354,36.0682258],[139.0252458,36.0682338],[139.0252619,36.0682461],[139.0252655,36.0682489],[139.0252939,36.0682774],[139.0253169,36.0683062],[139.025339,36.0683465],[139.0253521,36.0683946],[139.0253719,36.0684577],[139.0253722,36.0684588],[139.0253826,36.0684898],[139.0253889,36.0685095],[139.0254,36.0685278],[139.0254165,36.0685485],[139.0254465,36.0685753],[139.0254702,36.0685911],[139.0254967,36.0686041],[139.0254974,36.0686043],[139.0255265,36.0686141],[139.0255545,36.0686173],[139.0255795,36.0686169],[139.0256118,36.0686117],[139.0256399,36.0686036],[139.0256664,36.0685895],[139.0257018,36.0685596],[139.0257125,36.0685506],[139.0257241,36.0685591],[139.0257004,36.0685856],[139.0256786,36.0686046],[139.0256668,36.0686107],[139.0256499,36.0686198],[139.0256252,36.068627],[139.0256177,36.0686291],[139.0255819,36.0686349],[139.0255531,36.0686353],[139.0255207,36.0686317],[139.0255203,36.0686316],[139.0255118,36.0686288],[139.0254868,36.0686203],[139.0254864,36.0686202],[139.0254571,36.0686059],[139.0254312,36.0685883],[139.0254293,36.0685867],[139.0253988,36.0685595],[139.0253806,36.0685367],[139.0253742,36.0685254],[139.0253737,36.0685244],[139.0253654,36.068506],[139.0253564,36.0684766],[139.0253563,36.0684775],[139.0253554,36.0684923],[139.0253564,36.0685089],[139.0253637,36.0685343],[139.0253646,36.0685357],[139.0253765,36.0685542],[139.025404,36.0685801],[139.025406,36.068582],[139.0254414,36.0686161],[139.0254778,36.0686411],[139.0255103,36.0686572],[139.0255115,36.0686577],[139.0255418,36.0686666],[139.0255743,36.0686707],[139.025615,36.0686702],[139.0256189,36.0686696],[139.0256469,36.0686661],[139.0257012,36.0686593],[139.0257883,36.0686468],[139.0258012,36.068645],[139.0258654,36.0686258],[139.0258685,36.0686245],[139.0259175,36.0686037],[139.0259559,36.068585],[139.0259859,36.0685663],[139.0260249,36.0685427],[139.0260449,36.0685304],[139.0260717,36.0685168],[139.0260945,36.0685092],[139.0261226,36.0684997],[139.0261537,36.0684923],[139.0261541,36.0684922],[139.0261641,36.0684907],[139.0261856,36.0684874],[139.0262205,36.0684823],[139.0262645,36.0684776],[139.0263067,36.0684825],[139.0263079,36.0684826],[139.0263083,36.0684827],[139.0263351,36.0684872],[139.0263606,36.0684914],[139.0264228,36.0685093],[139.0264997,36.0685334],[139.0265799,36.0685751],[139.0266059,36.0685866],[139.0266428,36.0685956],[139.0266499,36.068596],[139.0267009,36.0685992],[139.0267558,36.0685904],[139.0268042,36.0685761],[139.0268595,36.0685583],[139.0268804,36.0685516],[139.0269158,36.0685386],[139.0269162,36.0685385],[139.026964,36.0685312],[139.0269699,36.0685309],[139.0270685,36.0685259],[139.0271574,36.068526],[139.0272102,36.0685275],[139.0272865,36.0685235],[139.0273305,36.0685152],[139.0273698,36.0684929],[139.0273798,36.0684852],[139.0273857,36.0684801],[139.027404,36.0684372],[139.0274106,36.0683997],[139.0274241,36.0683606],[139.0274484,36.0683291],[139.0274498,36.0683272],[139.0274777,36.0682912],[139.0275631,36.0682031],[139.02761,36.0681653],[139.0276112,36.0681643],[139.0276659,36.068135],[139.0276663,36.0681348],[139.0277311,36.0681085],[139.0278499,36.0680667],[139.027943,36.068043],[139.0279691,36.0680318],[139.0279805,36.0680208],[139.0279966,36.0679918],[139.0280045,36.06797],[139.0280063,36.0679516],[139.0280044,36.0679345],[139.0280021,36.0679156],[139.027993,36.0679024],[139.0279778,36.0678818],[139.0279581,36.0678594],[139.0279327,36.0678331],[139.0279103,36.0678068],[139.0278713,36.0677697],[139.0278356,36.0677256],[139.0278045,36.0676716],[139.0278028,36.0676715],[139.0278016,36.0676872],[139.0277988,36.0677201],[139.0277954,36.0677501],[139.0277861,36.0677844],[139.0277755,36.0678189],[139.0277701,36.0678393],[139.0277601,36.0678654],[139.0277485,36.0678934],[139.0277371,36.0679245],[139.0277156,36.0679163],[139.0277242,36.0678909],[139.0277352,36.0678476],[139.0277365,36.0678404],[139.0277339,36.0678361],[139.0277244,36.0678328],[139.0276768,36.0678416],[139.0276099,36.0678475],[139.0275895,36.0678523],[139.0275704,36.0678594],[139.0275345,36.0678818],[139.0275163,36.0678919],[139.0274847,36.0679026],[139.0274589,36.0679112],[139.0274403,36.0679195],[139.0274312,36.0679262],[139.0274087,36.0679065],[139.0274206,36.0678974],[139.0274445,36.0678868],[139.0274719,36.0678776],[139.0275003,36.0678682],[139.0275149,36.06786],[139.0275532,36.0678361],[139.0275779,36.0678268],[139.0276032,36.0678208],[139.0276035,36.0678208],[139.0276409,36.0678176],[139.0276412,36.0678175],[139.0276713,36.0678148],[139.0277131,36.0678071],[139.0277278,36.0678012],[139.0277282,36.0678012],[139.027743,36.0677889],[139.0277547,36.0677738],[139.0277623,36.0677459],[139.0277657,36.067718],[139.0277703,36.067678],[139.0277731,36.0676527],[139.027774,36.0676245],[139.0277733,36.0675892],[139.0277604,36.0675201],[139.0277644,36.067459],[139.0277811,36.0673835],[139.0277963,36.0673469],[139.0278129,36.067324],[139.0278336,36.0672955],[139.0278446,36.0672836],[139.0278961,36.067228],[139.0279533,36.0671627],[139.0280013,36.0671082],[139.0280496,36.0670425],[139.0281013,36.0669453],[139.0281435,36.0668674],[139.0281818,36.0667968],[139.0282406,36.0667022],[139.02826188936783,36.06666666666667],[139.02832351242375,36.06666666666667],[139.0282904,36.0667221],[139.0282321,36.066816],[139.0282197,36.0668389],[139.0281943,36.0668856],[139.0281524,36.0669633],[139.0281074,36.0670476],[139.0280993,36.067063],[139.0280479,36.067133],[139.0279985,36.067189],[139.0279419,36.0672536],[139.0279271,36.0672715],[139.0278863,36.0673205],[139.0278652,36.0673496],[139.0278522,36.0673677],[139.0278403,36.0673959],[139.0278252,36.0674648],[139.0278217,36.0675177],[139.027833,36.0675785],[139.02786,36.0676535],[139.0278888,36.0677009],[139.0279205,36.0677399],[139.0279378,36.0677565],[139.0279551,36.0677731],[139.0279848,36.0677969],[139.0280089,36.0678189],[139.0280371,36.0678473],[139.0280554,36.0678733],[139.0280659,36.0678975],[139.0280748,36.0679241],[139.0280759,36.0679501],[139.0280721,36.0679783],[139.028066,36.0680054],[139.0280433,36.0680513],[139.0280155,36.0680781],[139.027971,36.0680973],[139.0278719,36.0681225],[139.0277579,36.068153],[139.0276967,36.0681779],[139.0276956,36.0681785],[139.0276501,36.0682029],[139.0276108,36.0682346],[139.0276089,36.0682362],[139.0275406,36.0683065],[139.0275277,36.0683199],[139.0274805,36.0683808],[139.0274716,36.0684067],[139.0274712,36.0684296],[139.0274717,36.0684473],[139.0274859,36.0684493],[139.0275083,36.0684416],[139.0275361,36.0684224],[139.0275835,36.0683617],[139.0276659,36.0682837],[139.0277173,36.0682575],[139.0277722,36.0682354],[139.0277793,36.0682333],[139.0278249,36.06822],[139.0278361,36.0682178],[139.0279513,36.0681948],[139.028037,36.0681822],[139.0280746,36.0681848],[139.0281082,36.0681837],[139.0281103,36.0681836],[139.028159,36.0681871],[139.0282588,36.0681735],[139.0282871,36.0681696],[139.0283648,36.0681539],[139.0284062,36.0681304],[139.0284632,36.0680726],[139.0285963,36.0679237],[139.028599,36.0679197],[139.0286386,36.0678604],[139.02864,36.0678584],[139.0286452,36.0678506],[139.0286488,36.0678382],[139.0286426,36.0678049],[139.0286422,36.0678029],[139.0286139,36.067692],[139.0286096,36.0676548],[139.0286124,36.0676129],[139.0286152,36.0675633],[139.0286167,36.0675356],[139.0286227,36.0675242],[139.0286402,36.0675093],[139.0286407,36.0675089],[139.0286628,36.0674764],[139.0286939,36.0674491],[139.0288118,36.067383],[139.028929,36.0673118],[139.0289877,36.0672722],[139.0290325,36.0672333],[139.0290872,36.0671836],[139.029156,36.0671185],[139.0292203,36.0670685],[139.0292617,36.0670543],[139.0292928,36.0670458],[139.0293513,36.0670419],[139.0293936,36.0670438],[139.0294193,36.0670449],[139.0294197,36.067045],[139.0294798,36.0670517],[139.0295766,36.0670553],[139.0295769,36.0670554],[139.0296181,36.0670559],[139.0296455,36.0670513],[139.029658,36.0670492],[139.0296723,36.0670445],[139.0297052,36.0670282],[139.0297337,36.0670048],[139.029753,36.0669846],[139.0297649,36.0669682],[139.0297821,36.0669398],[139.0297866,36.0669324],[139.0297975,36.0669111],[139.0298154,36.0668766],[139.0298555,36.066791],[139.0298824,36.0667283],[139.0298969,36.0666904],[139.0299012,36.066679],[139.02990807185725,36.06666666666667],[139.025,36.06666666666667]]]]},"properties":{"layer":"landuse","class_code":"215","class_label":"道路用地（道路、駅前広場、私有地内に存在する沿道用途の「私道」または、私有地の一部分であるものの公共の通行に供されている土地の部分）"}}]}