{"type":"FeatureCollection","properties":{"mesh_code":"54390081","source":"PLATEAU秩父市2025","layer":"landuse"},"features":[{"type":"Feature","id":"luse_b23bee8e-b199-4915-955e-8929ddf447ad","geometry":{"type":"Polygon","coordinates":[[[139.0181283,36.0705142],[139.0181146,36.0705579],[139.0180952,36.0705759],[139.0180039,36.0705763],[139.0178535,36.070573],[139.0178662,36.0703981],[139.0179219,36.0704053],[139.0179726,36.0704118],[139.0179858,36.0704089],[139.0179937,36.0704025],[139.0180053,36.0703737],[139.0180128,36.0703702],[139.0180653,36.0703757],[139.0181032,36.0703866],[139.0181189,36.0703961],[139.0181283,36.0705142]]]},"properties":{"layer":"landuse","class_code":"201","class_label":"田（水田）"}},{"type":"Feature","id":"luse_27627987-fb24-4dbb-93cf-b34c1a684ae4","geometry":{"type":"Polygon","coordinates":[[[139.0177195,36.070902],[139.0177629,36.0709216],[139.0177645,36.0709299],[139.0177526,36.070962],[139.0177194,36.071006],[139.0177138,36.0710322],[139.0177209,36.0710425],[139.0177514,36.0710656],[139.0176801,36.0711058],[139.0176407,36.0711123],[139.0175519,36.0711046],[139.0175264,36.0711025],[139.0174645,36.071088],[139.0174535,36.0710742],[139.0174421,36.071036],[139.0174503,36.0709818],[139.0174678,36.0709235],[139.0174935,36.0708563],[139.0177195,36.070902]]]},"properties":{"layer":"landuse","class_code":"201","class_label":"田（水田）"}},{"type":"Feature","id":"luse_f6e2a3be-ebb9-4ffe-8ebf-d1509dd95c87","geometry":{"type":"Polygon","coordinates":[[[139.0241879,36.068106],[139.0241745,36.0681085],[139.0241742,36.0681086],[139.0241222,36.0681252],[139.0241097,36.0681293],[139.0241095,36.067898],[139.0244566,36.0679023],[139.0244466,36.0681215],[139.0244254,36.0681196],[139.0243582,36.0681132],[139.0243477,36.0681121],[139.0242626,36.0681029],[139.0242059,36.0681027],[139.0241879,36.068106]]]},"properties":{"layer":"landuse","class_code":"202","class_label":"畑（畑、樹園地、採草地、養鶏（牛・豚）場）"}},{"type":"Feature","id":"luse_290c18a4-bdb4-4bdf-b17e-126cc922d0f5","geometry":{"type":"Polygon","coordinates":[[[139.025,36.06814563743017],[139.024996,36.0681449],[139.0249616,36.068141],[139.0249469,36.0681394],[139.0249117,36.0681398],[139.0248363,36.0681409],[139.0247991,36.0681407],[139.0248039,36.0680718],[139.0248072,36.0680242],[139.0249147,36.0680337],[139.0249152,36.0679769],[139.0248771,36.0677942],[139.0249018,36.0677616],[139.025,36.06772809256756],[139.025,36.06814563743017]]]},"properties":{"layer":"landuse","class_code":"202","class_label":"畑（畑、樹園地、採草地、養鶏（牛・豚）場）"}},{"type":"Feature","id":"luse_489cc52e-259b-4d20-99c2-5812408ea3ca","geometry":{"type":"Polygon","coordinates":[[[139.0188834,36.0691239],[139.0188804,36.0691258],[139.0188761,36.0691285],[139.0188634,36.0690862],[139.0188788,36.0690388],[139.0188807,36.0690343],[139.0189226,36.0689342],[139.0189395,36.068936],[139.0189531,36.068909],[139.0189649,36.0688878],[139.0190328,36.0688453],[139.0190393,36.0688397],[139.0188405,36.068768],[139.0188126,36.068813],[139.0187763,36.0687965],[139.0187032,36.0687849],[139.0186718,36.0687729],[139.0185907,36.0687426],[139.0184159,36.068684],[139.0183258,36.0686501],[139.0182408,36.068622],[139.0182826,36.0686153],[139.0183314,36.0686133],[139.0183729,36.0686156],[139.0184442,36.0686337],[139.0185674,36.0686677],[139.0186323,36.0686733],[139.0187138,36.0686641],[139.0187792,36.0686439],[139.0188222,36.0686228],[139.0188615,36.0685998],[139.0188984,36.0685756],[139.0189162,36.06856],[139.0189524,36.0685284],[139.0190158,36.0684739],[139.0190788,36.0684222],[139.019116,36.0683798],[139.0191957,36.0683101],[139.0192106,36.0683113],[139.0192226,36.0683202],[139.0192662,36.0683528],[139.0192742,36.0684187],[139.0192807,36.068427],[139.0193547,36.068469],[139.0193872,36.0684927],[139.0193904,36.0685106],[139.0193781,36.0685662],[139.019362,36.0686385],[139.0193499,36.0687438],[139.019373,36.0687429],[139.0193627,36.0687763],[139.0193636,36.0688092],[139.0193692,36.0688423],[139.0193404,36.0688495],[139.0192718,36.0688711],[139.0191985,36.0689177],[139.0191151,36.0689855],[139.0190703,36.069012],[139.0189623,36.0690764],[139.0188932,36.0691225],[139.0188902,36.0691196],[139.0188834,36.0691239]]]},"properties":{"layer":"landuse","class_code":"202","class_label":"畑（畑、樹園地、採草地、養鶏（牛・豚）場）"}},{"type":"Feature","id":"luse_82edf773-d6d1-4167-97a9-855b83ba157e","geometry":{"type":"Polygon","coordinates":[[[139.0165102,36.0704922],[139.0165366,36.070511],[139.0165607,36.0705263],[139.016597,36.0705419],[139.0166249,36.070553],[139.0166694,36.0705613],[139.016723,36.070566],[139.016749,36.0705728],[139.0167494,36.0705729],[139.0167718,36.0705848],[139.0167877,36.070608],[139.0167936,36.0706278],[139.0167943,36.0706426],[139.0167891,36.0706653],[139.0167812,36.0706779],[139.0167774,36.0706799],[139.016767,36.0706858],[139.0167666,36.0706859],[139.0167399,36.0706934],[139.0167183,36.0706947],[139.0166782,36.0706907],[139.0166483,36.0706865],[139.0165948,36.0706729],[139.0165118,36.0706528],[139.0164745,36.0706456],[139.0164742,36.0706455],[139.0164516,36.0706439],[139.0164114,36.070641],[139.0163399,36.0706372],[139.0162793,36.0706312],[139.0162418,36.0706215],[139.016216,36.0706148],[139.0161551,36.0705904],[139.0161302,36.0705787],[139.0160866,36.0705584],[139.0160378,36.0705336],[139.0160043,36.0705154],[139.0159805,36.0705027],[139.0159248,36.0704817],[139.0158702,36.0704717],[139.0158213,36.0704708],[139.0158185,36.0704708],[139.0158178,36.0704708],[139.0157551,36.0704777],[139.015689,36.0704928],[139.0155978,36.0705164],[139.015521,36.07053],[139.0155145,36.0705311],[139.0155142,36.0705312],[139.0154997,36.0704835],[139.0154764,36.070459],[139.0153898,36.0704193],[139.0152818,36.0703782],[139.0152872,36.070349],[139.015207,36.0703342],[139.0148449,36.0702826],[139.0146601,36.0702472],[139.0144755,36.0702068],[139.0143724,36.0701563],[139.0142354,36.0700987],[139.0139393,36.0700304],[139.0138485,36.0699354],[139.0137664,36.0698],[139.0137637,36.0697021],[139.013757,36.069655],[139.0137926,36.0696299],[139.013834,36.0696125],[139.013906,36.069596],[139.0140385,36.0695749],[139.0142721,36.0695682],[139.0145773,36.0695914],[139.0145822,36.0696383],[139.0146046,36.0696977],[139.014636,36.0697323],[139.0146734,36.0697589],[139.014697,36.069773],[139.0147342,36.0697926],[139.0147881,36.0698107],[139.0148409,36.0698253],[139.0148928,36.0698354],[139.0149638,36.0698365],[139.0150666,36.0698331],[139.0150669,36.0698331],[139.0152742,36.0698188],[139.0153407,36.0698192],[139.0153411,36.0698192],[139.0154,36.0698318],[139.0154436,36.0698521],[139.0154851,36.0698804],[139.0155364,36.0699243],[139.0155739,36.0699548],[139.015625,36.0699718],[139.0156667,36.0699739],[139.0157128,36.0699677],[139.0157132,36.0699676],[139.0157145,36.0699671],[139.0157642,36.0699494],[139.0158174,36.0699216],[139.0158402,36.0699081],[139.0158599,36.0698962],[139.0158959,36.0698716],[139.0159362,36.0698451],[139.0159672,36.0698288],[139.0159962,36.0698179],[139.016008,36.0698154],[139.0160218,36.0698125],[139.0160221,36.0698124],[139.0160476,36.0698085],[139.01608,36.0698087],[139.0161139,36.0698159],[139.0161142,36.0698159],[139.0161483,36.0698313],[139.0161793,36.069851],[139.0162491,36.0699209],[139.0162501,36.0699218],[139.016335,36.0700332],[139.0163602,36.0700682],[139.0163679,36.0700867],[139.0163709,36.0701093],[139.0163694,36.0701451],[139.0163642,36.0702067],[139.0163606,36.0702423],[139.0163598,36.0702675],[139.0163605,36.0702921],[139.0163661,36.0703177],[139.0163726,36.070336],[139.0163804,36.0703553],[139.0164,36.0703829],[139.0164259,36.0704098],[139.0164559,36.0704407],[139.0164877,36.0704716],[139.0165102,36.0704922]]]},"properties":{"layer":"landuse","class_code":"202","class_label":"畑（畑、樹園地、採草地、養鶏（牛・豚）場）"}},{"type":"Feature","id":"luse_939cf2c1-ac6a-4655-b84a-ce3df3983c77","geometry":{"type":"Polygon","coordinates":[[[139.0177151,36.0708951],[139.0177195,36.070902],[139.0174935,36.0708563],[139.0175185,36.0708154],[139.0175014,36.0708037],[139.0174967,36.0707842],[139.0174812,36.0707933],[139.0174203,36.0707925],[139.0174123,36.0707825],[139.0174,36.0707616],[139.0174048,36.0707197],[139.0174146,36.0706983],[139.017431,36.0706877],[139.0174684,36.070684],[139.0174969,36.0706881],[139.0175157,36.07061],[139.0175192,36.0705512],[139.0175143,36.0705382],[139.0175188,36.0705104],[139.0175241,36.0704572],[139.0175312,36.0703974],[139.0175345,36.0703696],[139.0175431,36.07036],[139.017639,36.0703565],[139.0177146,36.0703546],[139.017739,36.0703624],[139.0177667,36.0703779],[139.0177869,36.0703847],[139.0178293,36.0703859],[139.0178392,36.0703946],[139.0178662,36.0703981],[139.0178535,36.070573],[139.0180039,36.0705763],[139.0179868,36.0706628],[139.0179087,36.070665],[139.017889,36.0707256],[139.018046,36.0707543],[139.0180826,36.0707477],[139.0180253,36.0708318],[139.0180071,36.0708622],[139.0179818,36.0708525],[139.0178205,36.0708273],[139.0177295,36.0708202],[139.0177151,36.0708951]]]},"properties":{"layer":"landuse","class_code":"202","class_label":"畑（畑、樹園地、採草地、養鶏（牛・豚）場）"}},{"type":"Feature","id":"luse_8b626cf9-8b4c-47c7-be3c-6e0919a32f01","geometry":{"type":"Polygon","coordinates":[[[139.0139156,36.0703601],[139.0138763,36.0704501],[139.0138514,36.0705253],[139.0138446,36.0705535],[139.0138549,36.0705947],[139.0138755,36.0706296],[139.0139113,36.0706485],[139.0139438,36.0706648],[139.0139913,36.0706951],[139.0140527,36.0707462],[139.0140945,36.0708349],[139.0141054,36.0709083],[139.014105,36.0709082],[139.0139108,36.0708673],[139.0138191,36.0708482],[139.013756,36.07084],[139.0137556,36.07084],[139.0136924,36.070839],[139.0136283,36.0708437],[139.0136052,36.0708467],[139.0134667,36.0704974],[139.0134804,36.0704811],[139.0135372,36.0704081],[139.013566,36.070381],[139.0135974,36.0703611],[139.0136436,36.0703448],[139.0136706,36.0703406],[139.0136949,36.0703369],[139.013755,36.0703331],[139.0138306,36.0703357],[139.0138425,36.0703385],[139.013889,36.0703493],[139.0139156,36.0703601]]]},"properties":{"layer":"landuse","class_code":"202","class_label":"畑（畑、樹園地、採草地、養鶏（牛・豚）場）"}},{"type":"Feature","id":"luse_0d6c19ec-03cc-4d43-8815-ca1b4e7cb0bf","geometry":{"type":"Polygon","coordinates":[[[139.0179394,36.0709976],[139.0179808,36.07104],[139.0180066,36.0710664],[139.0178879,36.0711438],[139.017869,36.0711364],[139.0178088,36.0710985],[139.0178054,36.071096],[139.0178266,36.0710739],[139.0178528,36.0710467],[139.0178749,36.0710291],[139.0178981,36.0710148],[139.0179327,36.0709906],[139.0179394,36.0709976]]]},"properties":{"layer":"landuse","class_code":"202","class_label":"畑（畑、樹園地、採草地、養鶏（牛・豚）場）"}},{"type":"Feature","id":"luse_04979f53-a0bb-4fb4-bde0-911f5db70cdf","geometry":{"type":"Polygon","coordinates":[[[139.014317,36.0710778],[139.0142893,36.0710821],[139.0142735,36.0710846],[139.0142664,36.0710864],[139.0141996,36.0711038],[139.01414,36.0711233],[139.0140137,36.0711648],[139.0139364,36.0711837],[139.0138589,36.0711992],[139.0137839,36.0712089],[139.0137835,36.0712089],[139.0136835,36.071219],[139.0136825,36.0712187],[139.0136569,36.0711667],[139.013643,36.0710934],[139.0136455,36.0710159],[139.0136642,36.0709559],[139.0136881,36.0708728],[139.013694,36.0708724],[139.0137523,36.0708733],[139.0138108,36.0708809],[139.0138836,36.070896],[139.0139006,36.0708996],[139.0140844,36.0709382],[139.0140942,36.0709403],[139.0140945,36.0709403],[139.0142396,36.0709752],[139.0142399,36.0709753],[139.0143301,36.0709908],[139.0143304,36.0709909],[139.0143795,36.0709951],[139.0144399,36.0709978],[139.014552,36.0710099],[139.0146187,36.0710238],[139.0146423,36.0710304],[139.0146426,36.0710306],[139.0146673,36.0710408],[139.0146676,36.0710409],[139.0146832,36.0710492],[139.0146946,36.0710632],[139.0146991,36.0710808],[139.0146976,36.071103],[139.0146929,36.0711223],[139.0146819,36.0711462],[139.0146754,36.0711504],[139.0146613,36.0711591],[139.0146356,36.0711604],[139.01461,36.0711485],[139.0145734,36.0711282],[139.0145707,36.0711268],[139.014515,36.0710991],[139.0144765,36.0710843],[139.0144278,36.071076],[139.0144275,36.071076],[139.0143719,36.0710724],[139.0143715,36.0710724],[139.014317,36.0710778]]]},"properties":{"layer":"landuse","class_code":"202","class_label":"畑（畑、樹園地、採草地、養鶏（牛・豚）場）"}},{"type":"Feature","id":"luse_3b1e9504-f08b-496f-981a-465628604192","geometry":{"type":"MultiPolygon","coordinates":[[[[139.0125,36.06666666666667],[139.025,36.06666666666667],[139.025,36.06772809256756],[139.0249018,36.0677616],[139.0248771,36.0677942],[139.0249152,36.0679769],[139.0249147,36.0680337],[139.0248072,36.0680242],[139.0247108,36.0680038],[139.0246813,36.0679971],[139.0245994,36.0679331],[139.0244566,36.0679023],[139.0241095,36.067898],[139.0241097,36.0681293],[139.0241048,36.0681308],[139.0241045,36.0681309],[139.0240572,36.0681486],[139.0240568,36.0681487],[139.024054,36.0681498],[139.024053,36.06815],[139.0240368,36.0681535],[139.0240188,36.0681574],[139.0240185,36.0681575],[139.0239917,36.0681631],[139.0239913,36.0681631],[139.0239634,36.0681667],[139.0239631,36.0681667],[139.0239244,36.0681681],[139.0238203,36.0681623],[139.0236992,36.0681534],[139.0234403,36.0681217],[139.023229,36.0680897],[139.0230891,36.0680685],[139.0230121,36.0680521],[139.0229442,36.0680346],[139.0229378,36.068033],[139.0228632,36.0680109],[139.0227746,36.0679822],[139.022705,36.0679657],[139.0226139,36.067947],[139.0224905,36.067926],[139.022381,36.0678986],[139.0223572,36.0678919],[139.0223569,36.0678918],[139.0223427,36.0678878],[139.0223247,36.0678828],[139.0222812,36.0678706],[139.0221844,36.0678426],[139.0220775,36.0678119],[139.0219982,36.067787],[139.0219978,36.0677869],[139.0219289,36.067765],[139.0218643,36.0677478],[139.0218639,36.0677477],[139.0217801,36.0677248],[139.0217005,36.0677126],[139.0216879,36.0677119],[139.0216373,36.0677092],[139.0216258,36.067709],[139.0215912,36.0676082],[139.0213989,36.0676281],[139.0214343,36.0677128],[139.021347,36.0677192],[139.0212287,36.0677359],[139.0211219,36.0677536],[139.0211215,36.0677536],[139.0210349,36.0677679],[139.0210346,36.067768],[139.0208155,36.0678056],[139.0206809,36.0678287],[139.0206806,36.0678288],[139.0205769,36.0678487],[139.0205606,36.0678527],[139.0204658,36.0678759],[139.0204337,36.0678877],[139.0203698,36.0679336],[139.0202896,36.0680005],[139.0202181,36.068052],[139.020152,36.0680913],[139.0200865,36.0681125],[139.0200848,36.068113],[139.0200817,36.0681136],[139.0199619,36.0681375],[139.0198659,36.0681474],[139.0197614,36.0681635],[139.0196979,36.0681736],[139.019597,36.0681871],[139.0195798,36.0681894],[139.0195492,36.0681968],[139.0195286,36.0682071],[139.0195084,36.0682264],[139.019494,36.0682423],[139.019484,36.0682582],[139.0194787,36.0682801],[139.0194802,36.0683146],[139.0194874,36.0683467],[139.0195015,36.0684035],[139.0195228,36.0684719],[139.0195662,36.0686005],[139.0195677,36.0686245],[139.0195664,36.068651],[139.0195541,36.0687094],[139.0195225,36.068777],[139.0194851,36.0688322],[139.0194453,36.068867],[139.0194128,36.0688877],[139.0193906,36.0688998],[139.0193711,36.0689056],[139.0193331,36.0689141],[139.0193327,36.0689142],[139.0192794,36.0689256],[139.0192558,36.0689321],[139.0192445,36.0689396],[139.0192243,36.0689567],[139.0192022,36.0689762],[139.0191787,36.0689934],[139.0191524,36.0690101],[139.0191246,36.0690277],[139.0190533,36.0690628],[139.0190061,36.069089],[139.0189366,36.0691353],[139.0189179,36.0691476],[139.0188932,36.0691225],[139.0189623,36.0690764],[139.0190703,36.069012],[139.0191151,36.0689855],[139.0191985,36.0689177],[139.0192718,36.0688711],[139.0193404,36.0688495],[139.0193692,36.0688423],[139.0193636,36.0688092],[139.0193627,36.0687763],[139.019373,36.0687429],[139.0193499,36.0687438],[139.019362,36.0686385],[139.0193781,36.0685662],[139.0193904,36.0685106],[139.0193872,36.0684927],[139.0193547,36.068469],[139.0192807,36.068427],[139.0192742,36.0684187],[139.0192662,36.0683528],[139.0192226,36.0683202],[139.0192106,36.0683113],[139.0191957,36.0683101],[139.019116,36.0683798],[139.0190788,36.0684222],[139.0190158,36.0684739],[139.0189524,36.0685284],[139.0189162,36.06856],[139.0188984,36.0685756],[139.0188615,36.0685998],[139.0188222,36.0686228],[139.0187792,36.0686439],[139.0187138,36.0686641],[139.0186323,36.0686733],[139.0185674,36.0686677],[139.0184442,36.0686337],[139.0183729,36.0686156],[139.0183314,36.0686133],[139.0182826,36.0686153],[139.0182408,36.068622],[139.0183258,36.0686501],[139.0184159,36.068684],[139.0185907,36.0687426],[139.0186718,36.0687729],[139.0187032,36.0687849],[139.0187763,36.0687965],[139.0187447,36.0688079],[139.0186687,36.0688554],[139.018633,36.0688759],[139.0185444,36.0689267],[139.0184073,36.069025],[139.0184102,36.0690771],[139.0184239,36.0690964],[139.0184437,36.0691228],[139.0184934,36.0691683],[139.0185324,36.069204],[139.0185463,36.0692245],[139.0184182,36.069339],[139.0184146,36.0693376],[139.0183885,36.0693272],[139.0183783,36.0693232],[139.0183759,36.0693225],[139.0183108,36.0693049],[139.0182604,36.0693041],[139.0182539,36.0693054],[139.0182378,36.0693087],[139.0182035,36.0693209],[139.0181645,36.069342],[139.018101,36.0693765],[139.0180319,36.069412],[139.0179505,36.0694549],[139.0179146,36.069472],[139.0179065,36.0694758],[139.0178971,36.0694793],[139.0178531,36.0694951],[139.0178231,36.0695035],[139.0177299,36.0695162],[139.0177296,36.0695162],[139.017681,36.0695183],[139.0176485,36.069518],[139.0176243,36.0695176],[139.017617,36.0695171],[139.0175371,36.0695108],[139.0174641,36.0694998],[139.0173615,36.0694764],[139.0173296,36.0694624],[139.0172802,36.0694352],[139.0171672,36.069362],[139.0171392,36.0693429],[139.0171171,36.0693277],[139.0170959,36.0693169],[139.0170612,36.0693079],[139.0170198,36.0693098],[139.0169761,36.0693165],[139.0168977,36.0693509],[139.0168934,36.0693527],[139.016892,36.0693534],[139.0168865,36.0693558],[139.0168502,36.069361],[139.0168087,36.0693617],[139.0167499,36.0693549],[139.0166743,36.0693417],[139.0166739,36.0693416],[139.0165841,36.0693162],[139.0165078,36.0692864],[139.0164779,36.0692726],[139.0164747,36.0692712],[139.0164708,36.0692694],[139.0164312,36.0692512],[139.0163751,36.0692404],[139.0163336,36.0692406],[139.0163126,36.0692407],[139.0162559,36.0692564],[139.0162475,36.0692588],[139.0161992,36.0692813],[139.0161273,36.0693369],[139.0160906,36.0693643],[139.0160599,36.0693813],[139.016026,36.0693953],[139.0159602,36.0694146],[139.0158975,36.0694363],[139.0158495,36.0694589],[139.0157808,36.0694998],[139.0157009,36.0695443],[139.0156453,36.0695735],[139.0156034,36.0695862],[139.01555,36.069594],[139.0154919,36.0695936],[139.0154475,36.0695881],[139.0154471,36.069588],[139.0154276,36.069581],[139.0154127,36.0695755],[139.015386,36.0695544],[139.0153364,36.0694808],[139.0152766,36.0693756],[139.0152659,36.0693588],[139.01523,36.0693221],[139.0152297,36.069322],[139.0151585,36.0693009],[139.0150978,36.0693075],[139.0150677,36.0693211],[139.0150523,36.0693281],[139.0149631,36.0693847],[139.0149027,36.0694096],[139.0148529,36.0694233],[139.0147998,36.0694301],[139.0147475,36.0694319],[139.0147471,36.0694319],[139.0146952,36.0694394],[139.0146483,36.0694539],[139.0146158,36.069477],[139.014588,36.0695321],[139.0145763,36.0695824],[139.0145773,36.0695914],[139.0142721,36.0695682],[139.0140385,36.0695749],[139.013906,36.069596],[139.013834,36.0696125],[139.0137926,36.0696299],[139.013757,36.069655],[139.0137637,36.0697021],[139.0137664,36.0698],[139.0138485,36.0699354],[139.0139393,36.0700304],[139.0142354,36.0700987],[139.0143724,36.0701563],[139.0144755,36.0702068],[139.0146601,36.0702472],[139.0148449,36.0702826],[139.015207,36.0703342],[139.0152872,36.070349],[139.0152818,36.0703782],[139.0153898,36.0704193],[139.0154764,36.070459],[139.0154997,36.0704835],[139.0155142,36.0705312],[139.0155076,36.0705313],[139.0154461,36.0705322],[139.0154457,36.0705322],[139.0154452,36.0705322],[139.0153693,36.0705273],[139.0153689,36.0705273],[139.0152859,36.070513],[139.0152216,36.0704987],[139.0152212,36.0704986],[139.0152177,36.0704974],[139.0151461,36.0704726],[139.0151114,36.0704611],[139.015044,36.0704387],[139.0149573,36.0704247],[139.014957,36.0704246],[139.0148718,36.0704248],[139.0146955,36.0704311],[139.0144807,36.0704364],[139.0143247,36.0704349],[139.0142051,36.070427],[139.0142047,36.0704269],[139.0141918,36.0704246],[139.014153,36.0704177],[139.0141123,36.0704069],[139.0140788,36.0703946],[139.0140287,36.0703702],[139.0140086,36.0703603],[139.0139757,36.070344],[139.0139051,36.0703156],[139.0138378,36.0702999],[139.0137543,36.070297],[139.0137333,36.0702977],[139.0137283,36.0702978],[139.0136811,36.0702994],[139.013622,36.0703015],[139.0135632,36.0703142],[139.0135199,36.0703416],[139.0134845,36.0703873],[139.0134403,36.0704556],[139.0134023,36.0705103],[139.0134016,36.0705113],[139.0133563,36.0705627],[139.0133166,36.0706055],[139.0132445,36.0706755],[139.0132032,36.0707112],[139.013166,36.0707337],[139.0131344,36.0707455],[139.0130867,36.070756],[139.0130312,36.070762],[139.0130308,36.0707621],[139.0129908,36.0707643],[139.0129621,36.070765],[139.0129309,36.0707658],[139.0128658,36.0707628],[139.0128655,36.0707627],[139.012844,36.0707584],[139.0128153,36.0707526],[139.012815,36.0707526],[139.0128083,36.0707502],[139.0127694,36.0707367],[139.0127232,36.0707175],[139.0127228,36.0707175],[139.0126824,36.0707147],[139.0126349,36.0707249],[139.0125926,36.070751],[139.0125614,36.0707851],[139.0125536,36.0708162],[139.0125597,36.0708438],[139.0125858,36.0708902],[139.0126177,36.070921],[139.0126623,36.0709481],[139.0127105,36.0709616],[139.0127626,36.0709618],[139.0128135,36.0709551],[139.0129353,36.0709387],[139.0129375,36.0709385],[139.0130226,36.0709266],[139.013145,36.0709143],[139.01323,36.0709088],[139.0132315,36.0709087],[139.0132619,36.0709068],[139.0132622,36.0709068],[139.0133487,36.0709039],[139.0134072,36.0709015],[139.0134075,36.0709015],[139.0134535,36.0708986],[139.0134736,36.0708973],[139.0135243,36.0708912],[139.0135257,36.070891],[139.0135323,36.0708901],[139.0135327,36.0708901],[139.0136329,36.0708768],[139.0136881,36.0708728],[139.0136642,36.0709559],[139.0136455,36.0710159],[139.013643,36.0710934],[139.0136569,36.0711667],[139.0136825,36.0712187],[139.0136835,36.071219],[139.013617,36.0712257],[139.0136167,36.0712257],[139.013524,36.0712357],[139.0134235,36.0712461],[139.0133419,36.0712561],[139.013255,36.0712709],[139.013177,36.0712846],[139.013084,36.0713033],[139.0130837,36.0713034],[139.0130312,36.0713105],[139.0130309,36.0713105],[139.0129794,36.0713117],[139.0129178,36.0713093],[139.0129174,36.0713093],[139.0128567,36.0713052],[139.0128002,36.0713006],[139.0127243,36.0712922],[139.0126253,36.0712789],[139.0126249,36.0712788],[139.0126205,36.0712781],[139.0125264,36.071261],[139.0125,36.07125510088495],[139.0125,36.06666666666667]]],[[[139.0218058,36.0674615],[139.0217385,36.0674757],[139.0217153,36.0674888],[139.021717,36.0675138],[139.0217648,36.0675512],[139.0217896,36.0675895],[139.0218224,36.0676065],[139.0219778,36.0676187],[139.0220283,36.0676148],[139.0220816,36.0675468],[139.022082,36.0675041],[139.0219947,36.0674472],[139.0219444,36.0674452],[139.0218058,36.0674615]]]]},"properties":{"layer":"landuse","class_code":"203","class_label":"山林（樹林地）"}},{"type":"Feature","id":"luse_d6c85c0c-8944-4889-a16d-fc26380ede87","geometry":{"type":"Polygon","coordinates":[[[139.0125,36.075],[139.0125,36.071287787662335],[139.0125171,36.0712916],[139.0126177,36.0713098],[139.0127185,36.0713234],[139.0127959,36.071332],[139.0127962,36.0713321],[139.0128533,36.0713365],[139.0129151,36.0713407],[139.012979,36.0713432],[139.0130347,36.071342],[139.0130918,36.0713342],[139.0131798,36.0713166],[139.013186,36.0713153],[139.0132633,36.0713018],[139.013349,36.0712872],[139.013429,36.0712774],[139.0135292,36.071267],[139.0136877,36.07125],[139.0137467,36.0712443],[139.0137476,36.0712442],[139.013789,36.0712402],[139.0138277,36.0712352],[139.0138665,36.0712301],[139.0139466,36.0712142],[139.0140263,36.0711947],[139.0140267,36.0711946],[139.0140564,36.071185],[139.014212,36.0711343],[139.0142832,36.0711152],[139.0143231,36.071109],[139.0143727,36.0711041],[139.0144219,36.0711073],[139.0144223,36.0711073],[139.0144641,36.0711145],[139.0144849,36.0711224],[139.0144965,36.0711268],[139.0145435,36.0711535],[139.0146103,36.0711902],[139.0146409,36.071205],[139.0146741,36.0712176],[139.0147021,36.0712219],[139.0147329,36.0712157],[139.0147653,36.0711848],[139.0147842,36.0711406],[139.0147917,36.0711045],[139.0147854,36.0710732],[139.0147661,36.0710437],[139.0147292,36.0710115],[139.0146882,36.0709928],[139.0146426,36.070983],[139.014558,36.0709722],[139.0144427,36.0709646],[139.0143829,36.0709619],[139.0143826,36.0709619],[139.0143367,36.0709579],[139.0142499,36.0709429],[139.0141054,36.0709083],[139.0140945,36.0708349],[139.0140527,36.0707462],[139.0139913,36.0706951],[139.0139438,36.0706648],[139.0139113,36.0706485],[139.0138755,36.0706296],[139.0138549,36.0705947],[139.0138446,36.0705535],[139.0138514,36.0705253],[139.0138763,36.0704501],[139.0139156,36.0703601],[139.0139221,36.0703627],[139.0139224,36.0703629],[139.0139543,36.0703756],[139.0140056,36.070401],[139.0140582,36.0704266],[139.0140962,36.0704405],[139.0141391,36.0704519],[139.0142008,36.0704583],[139.014323,36.0704664],[139.014358,36.0704668],[139.0144812,36.070468],[139.0146971,36.0704627],[139.0147363,36.0704613],[139.0147497,36.0704608],[139.0147712,36.07046],[139.0147716,36.07046],[139.0148713,36.0704563],[139.0148717,36.0704563],[139.0149515,36.0704605],[139.0150312,36.0704734],[139.015129,36.0705059],[139.0152068,36.0705327],[139.0152754,36.0705479],[139.015314,36.0705546],[139.0153447,36.0705599],[139.0153628,36.070563],[139.0154447,36.0705684],[139.0155197,36.0705671],[139.0156095,36.0705512],[139.0157027,36.0705271],[139.0157642,36.0705131],[139.0158204,36.070507],[139.0158651,36.0705076],[139.0158973,36.0705136],[139.0159104,36.0705161],[139.0159588,36.0705343],[139.0160137,36.0705639],[139.0160638,36.0705893],[139.016134,36.0706222],[139.0161993,36.0706483],[139.0162414,36.0706593],[139.0162698,36.0706667],[139.0163228,36.0706702],[139.0163344,36.070671],[139.0164081,36.0706724],[139.0164243,36.0706737],[139.0164421,36.0706751],[139.0164425,36.0706752],[139.0164673,36.0706778],[139.0165017,36.0706833],[139.0165277,36.0706895],[139.0165835,36.0707031],[139.0166391,36.0707172],[139.0166725,36.070722],[139.0167191,36.0707268],[139.01672,36.0707268],[139.0167489,36.0707278],[139.016771,36.0707265],[139.0167713,36.0707265],[139.0167912,36.0707253],[139.0168211,36.0707183],[139.0168215,36.0707183],[139.0168409,36.0707056],[139.0168528,36.0706828],[139.0168612,36.0706464],[139.0168599,36.0706203],[139.0168503,36.0705881],[139.0168305,36.0705654],[139.0168112,36.0705508],[139.0167739,36.0705396],[139.0167278,36.0705301],[139.0167275,36.0705301],[139.0166768,36.0705257],[139.0166467,36.0705202],[139.0166398,36.0705189],[139.0166313,36.0705155],[139.0166172,36.0705099],[139.016585,36.070496],[139.0165651,36.0704833],[139.0165417,36.0704665],[139.0165213,36.070448],[139.0164904,36.070418],[139.0164608,36.0703876],[139.016437,36.0703627],[139.0164212,36.0703405],[139.0164151,36.0703253],[139.0164095,36.0703095],[139.0164048,36.0702885],[139.0164042,36.0702675],[139.016405,36.0702443],[139.0164086,36.0702092],[139.0164137,36.0701469],[139.0164154,36.0701079],[139.0164115,36.0700789],[139.0164007,36.0700532],[139.0163732,36.0700147],[139.0162871,36.0699018],[139.0162499,36.0698555],[139.0162176,36.0698152],[139.0161816,36.0697886],[139.0161462,36.069769],[139.0161441,36.0697683],[139.0160895,36.0697502],[139.016041,36.0697499],[139.0160062,36.0697553],[139.0159713,36.0697636],[139.015936,36.0697836],[139.0159025,36.0698105],[139.015874,36.0698394],[139.015836,36.0698715],[139.0157956,36.0698956],[139.0157471,36.0699208],[139.0157457,36.0699215],[139.0157021,36.0699371],[139.0157017,36.0699372],[139.0156649,36.0699421],[139.0156645,36.0699422],[139.0156478,36.0699413],[139.0156337,36.0699407],[139.0155939,36.0699274],[139.0155648,36.0699038],[139.0155168,36.0698549],[139.0155152,36.0698539],[139.0154694,36.0698224],[139.015417,36.0697981],[139.0154166,36.0697981],[139.015347,36.0697832],[139.0153466,36.0697831],[139.0152726,36.0697827],[139.0150641,36.0697971],[139.0150637,36.0697971],[139.0149633,36.0698005],[139.0148985,36.0697995],[139.0148533,36.0697906],[139.0148066,36.0697777],[139.0147648,36.0697582],[139.0147302,36.0697386],[139.014693,36.0697107],[139.0146658,36.0696751],[139.0146479,36.0696279],[139.0146431,36.0695829],[139.0146493,36.0695404],[139.0146598,36.0695177],[139.0146831,36.069501],[139.0147131,36.0694917],[139.0147587,36.0694794],[139.0147696,36.0694777],[139.0148047,36.0694723],[139.014805,36.0694723],[139.0148653,36.0694646],[139.014923,36.0694486],[139.0149913,36.0694206],[139.0150892,36.0693739],[139.015119,36.0693598],[139.0151547,36.0693559],[139.0152006,36.0693654],[139.0152364,36.069391],[139.0152967,36.069497],[139.0153504,36.0695764],[139.0153876,36.0696058],[139.0154347,36.069623],[139.0154884,36.0696296],[139.0155537,36.0696301],[139.0156151,36.0696211],[139.0156154,36.0696211],[139.0156653,36.0696059],[139.0157256,36.0695743],[139.0158024,36.0695315],[139.0158034,36.069531],[139.0158068,36.0695292],[139.0158738,36.0694891],[139.0159175,36.0694686],[139.0159766,36.0694482],[139.016044,36.0694285],[139.0160826,36.0694123],[139.0161318,36.0693918],[139.0161322,36.0693918],[139.0161691,36.0693731],[139.016222,36.0693321],[139.016236,36.0693214],[139.0162556,36.069307],[139.0162706,36.0693001],[139.0163222,36.0692857],[139.0163689,36.0692855],[139.0163721,36.0692862],[139.0164131,36.0692941],[139.0164883,36.0693217],[139.0165281,36.0693358],[139.0165676,36.0693498],[139.016568,36.0693499],[139.0166621,36.0693763],[139.0167418,36.0693905],[139.0167422,36.0693905],[139.016806,36.0693979],[139.0168144,36.0693977],[139.0168546,36.069397],[139.0169012,36.0693902],[139.0169911,36.0693509],[139.0169974,36.06935],[139.0170194,36.0693466],[139.0170313,36.0693487],[139.0170567,36.0693532],[139.017091,36.0693642],[139.0171424,36.0693914],[139.0172546,36.0694646],[139.0173063,36.0694932],[139.0173448,36.06951],[139.0174539,36.069535],[139.0175317,36.0695467],[139.0175604,36.0695543],[139.0175613,36.0695575],[139.0175588,36.0695662],[139.0175485,36.069603],[139.0175064,36.0696206],[139.0174947,36.0696347],[139.0174912,36.0696507],[139.0174859,36.069675],[139.0174872,36.0697162],[139.0175213,36.0697339],[139.0177682,36.0697602],[139.0178447,36.0697935],[139.0179031,36.0697927],[139.0179314,36.0697491],[139.0179801,36.0696893],[139.0179902,36.0696588],[139.0179772,36.0696244],[139.017932,36.0695969],[139.0178037,36.0696093],[139.0177585,36.0696037],[139.0176161,36.0695798],[139.0176123,36.0695789],[139.0176155,36.0695676],[139.0176224,36.0695603],[139.0176435,36.069554],[139.0176438,36.0695539],[139.0176733,36.0695506],[139.0177307,36.0695468],[139.0178277,36.0695384],[139.017828,36.0695384],[139.0178582,36.0695321],[139.0178634,36.0695299],[139.0178638,36.0695298],[139.0179231,36.069504],[139.0179373,36.0694958],[139.0179591,36.0695215],[139.0179734,36.0695385],[139.0180414,36.0695504],[139.0180596,36.0695542],[139.0180762,36.0695577],[139.0181126,36.0695943],[139.018122,36.0696118],[139.0181417,36.0696433],[139.0181742,36.0696672],[139.018204,36.0696773],[139.0182602,36.0696827],[139.0182896,36.0696937],[139.0183221,36.0697194],[139.0183577,36.0697692],[139.0183977,36.0698576],[139.0183911,36.0698684],[139.018262,36.0699012],[139.018223,36.0699161],[139.0181949,36.069943],[139.0181797,36.0699723],[139.0181258,36.0701059],[139.0180915,36.0701922],[139.0180747,36.0702594],[139.0180718,36.070305],[139.0179948,36.0702962],[139.0179535,36.0703003],[139.0179317,36.0703558],[139.0179219,36.0704053],[139.0178662,36.0703981],[139.0178392,36.0703946],[139.0178293,36.0703859],[139.0177869,36.0703847],[139.0177667,36.0703779],[139.017739,36.0703624],[139.0177146,36.0703546],[139.017639,36.0703565],[139.0175431,36.07036],[139.0175345,36.0703696],[139.0175312,36.0703974],[139.0175241,36.0704572],[139.0175188,36.0705104],[139.0175143,36.0705382],[139.0175192,36.0705512],[139.0175157,36.07061],[139.0174969,36.0706881],[139.0174684,36.070684],[139.017431,36.0706877],[139.0174146,36.0706983],[139.0174048,36.0707197],[139.0174,36.0707616],[139.0174123,36.0707825],[139.0174203,36.0707925],[139.0174812,36.0707933],[139.0174967,36.0707842],[139.0175014,36.0708037],[139.0175185,36.0708154],[139.0174935,36.0708563],[139.0174678,36.0709235],[139.0174503,36.0709818],[139.0174421,36.071036],[139.0174535,36.0710742],[139.0174645,36.071088],[139.0175264,36.0711025],[139.0175519,36.0711046],[139.0176407,36.0711123],[139.0176801,36.0711058],[139.0177514,36.0710656],[139.0178014,36.0710374],[139.0179493,36.0709301],[139.0179754,36.0709119],[139.0179351,36.0709534],[139.0178733,36.070998],[139.0178532,36.0710086],[139.0178277,36.0710286],[139.0177566,36.0711029],[139.0176992,36.0711762],[139.0176632,36.0712152],[139.017643,36.0712372],[139.0175547,36.0713343],[139.0174727,36.0714318],[139.0174215,36.0714923],[139.0173387,36.0715795],[139.0173085,36.0716028],[139.0172642,36.0716145],[139.0171945,36.0716238],[139.0171389,36.0716293],[139.0170692,36.0716387],[139.0170214,36.0716476],[139.0170152,36.0716487],[139.0170149,36.0716488],[139.0169701,36.0716637],[139.0169504,36.0716792],[139.0169418,36.0716861],[139.0169088,36.0717364],[139.0168823,36.0717668],[139.0168443,36.0718092],[139.0167681,36.0718739],[139.0167235,36.0719109],[139.0167167,36.0719171],[139.0166886,36.0719427],[139.0166868,36.071946],[139.0166839,36.0719512],[139.0166668,36.0719824],[139.016658,36.0720058],[139.0166436,36.0720434],[139.0165972,36.0721266],[139.0165598,36.0721632],[139.0165416,36.0721752],[139.0165056,36.0721858],[139.0164714,36.0721835],[139.0164294,36.0721872],[139.0163654,36.0721927],[139.0163407,36.0722017],[139.0163202,36.0721923],[139.0162842,36.0721874],[139.016251,36.0721922],[139.0162265,36.0722082],[139.0162111,36.0722368],[139.0162074,36.0722606],[139.0162175,36.0722803],[139.0162391,36.0723045],[139.0162358,36.0723064],[139.0162243,36.0723162],[139.0162031,36.0723349],[139.0161692,36.0723719],[139.0161444,36.0724084],[139.0161228,36.0724664],[139.0160962,36.0725487],[139.0160841,36.0725909],[139.0160712,36.0726361],[139.0160593,36.0726792],[139.0157856,36.0726709],[139.0157548,36.0728568],[139.0158441,36.07287],[139.0158832,36.0729355],[139.015903,36.0729592],[139.0159342,36.0729747],[139.0159796,36.0729852],[139.01598,36.0729852],[139.0159589,36.073029],[139.0159307,36.0730661],[139.0158844,36.0731122],[139.0158412,36.0731585],[139.0157892,36.0732137],[139.0157599,36.0732678],[139.0156889,36.0734659],[139.015686,36.0734985],[139.0156791,36.073522],[139.0156327,36.0736043],[139.0155929,36.0736616],[139.0155507,36.073694],[139.0154881,36.0737318],[139.0150955,36.0739453],[139.0149693,36.0740146],[139.0148819,36.0740725],[139.0147783,36.0741666],[139.0146848,36.0742619],[139.0146366,36.0743003],[139.0145977,36.0743178],[139.0144845,36.0743446],[139.0144427,36.0743538],[139.0143572,36.0743727],[139.0142939,36.0744054],[139.0142562,36.0744441],[139.0142228,36.0744939],[139.0142118,36.0745108],[139.0141856,36.0745517],[139.0141512,36.0745834],[139.0141094,36.0746042],[139.0140706,36.0746149],[139.0140703,36.0746149],[139.0140353,36.0746199],[139.0138737,36.0746107],[139.0135164,36.0745681],[139.0134159,36.0745557],[139.0133366,36.0745425],[139.0130966,36.0744789],[139.0128083,36.0744049],[139.0128079,36.0744048],[139.0125352,36.0743148],[139.0125,36.07430455630668],[139.0125,36.07433332425277],[139.0125232,36.0743401],[139.0126023,36.0743643],[139.0127967,36.0744303],[139.012938,36.0744665],[139.0130865,36.0745046],[139.013328,36.0745687],[139.0134101,36.0745824],[139.0135115,36.0745949],[139.0136896,36.074616],[139.0138698,36.0746375],[139.0138702,36.0746375],[139.0139811,36.0746439],[139.0139815,36.074644],[139.014037,36.0746471],[139.0140699,36.0746424],[139.0140788,36.0746412],[139.0141236,36.0746289],[139.0141729,36.0746043],[139.0142133,36.0745671],[139.0142521,36.0745066],[139.0142842,36.0744591],[139.0143167,36.0744258],[139.0143708,36.0743977],[139.0143893,36.0743936],[139.0144935,36.0743706],[139.0146106,36.074343],[139.0146568,36.0743221],[139.0147096,36.07428],[139.0148037,36.074184],[139.0149049,36.0740922],[139.0149893,36.0740363],[139.0150548,36.0740003],[139.0151142,36.0739678],[139.0155073,36.073754],[139.0155721,36.0737147],[139.0156196,36.0736785],[139.0156634,36.0736152],[139.0157107,36.0735308],[139.0157189,36.0735027],[139.0157218,36.0734706],[139.0158937,36.0733863],[139.0159091,36.0733786],[139.0159592,36.0733393],[139.0159949,36.0732909],[139.0160229,36.0732566],[139.0159773,36.0732049],[139.0159106,36.073129],[139.0159579,36.0730818],[139.0159886,36.0730413],[139.0160059,36.0730068],[139.0160261,36.0729404],[139.0160365,36.0728874],[139.0160388,36.0728788],[139.0160527,36.0728272],[139.0160882,36.0726982],[139.0161036,36.0726422],[139.0161285,36.0725553],[139.016155,36.0724738],[139.0161754,36.0724191],[139.016205,36.0724457],[139.0162227,36.0724529],[139.0162396,36.0724597],[139.0162652,36.0724576],[139.0163203,36.0724463],[139.0164514,36.0723945],[139.0164667,36.0723714],[139.016468,36.0723307],[139.0165467,36.0723196],[139.0166252,36.0722985],[139.0166985,36.0722573],[139.0167735,36.0721813],[139.0167809,36.0721457],[139.0167398,36.0721245],[139.0166705,36.072185],[139.0165092,36.0722714],[139.0164333,36.0723045],[139.0163882,36.0722653],[139.0164446,36.0722466],[139.0164821,36.0722367],[139.0165195,36.072222],[139.0165468,36.0722066],[139.0165833,36.0721824],[139.0166257,36.0721411],[139.0166747,36.072053],[139.0166981,36.071992],[139.016717,36.0719575],[139.0167478,36.0719294],[139.016792,36.0718927],[139.0168305,36.071867],[139.0168737,36.0718275],[139.0169374,36.0717505],[139.0169689,36.0717025],[139.0169886,36.0716868],[139.0170251,36.0716746],[139.0170254,36.0716745],[139.0170754,36.0716653],[139.0171435,36.071656],[139.017199,36.0716506],[139.017255,36.071643],[139.017272,36.0716408],[139.0172837,36.0716377],[139.0173257,36.0716267],[139.017326,36.0716266],[139.0173616,36.071599],[139.0174324,36.0715251],[139.0174486,36.0715083],[139.0175819,36.0713499],[139.0176697,36.0712533],[139.0177266,36.0711915],[139.0177503,36.0711613],[139.017784,36.0711185],[139.0178054,36.071096],[139.0178088,36.0710985],[139.017869,36.0711364],[139.0178879,36.0711438],[139.0180066,36.0710664],[139.0179808,36.07104],[139.0179394,36.0709976],[139.0179327,36.0709906],[139.0179592,36.0709722],[139.0180051,36.0709249],[139.0180133,36.0709319],[139.0180604,36.0709705],[139.0180678,36.0709766],[139.0180745,36.0709941],[139.0180792,36.071035],[139.0180848,36.0710639],[139.0181017,36.0710774],[139.0181988,36.0711221],[139.0182604,36.0711382],[139.0183191,36.0711047],[139.0183203,36.0710582],[139.0182906,36.0710177],[139.0182481,36.070991],[139.0182222,36.0709678],[139.0182176,36.0709486],[139.0182138,36.07092],[139.0182201,36.0709037],[139.0183948,36.0707535],[139.0184595,36.0706818],[139.0184736,36.070658],[139.0185652,36.0705399],[139.0186219,36.0705042],[139.0186607,36.0704821],[139.0186807,36.0704544],[139.018684,36.0704232],[139.0186676,36.0703943],[139.0186459,36.0703812],[139.0185845,36.0703753],[139.0184875,36.0703662],[139.0185528,36.0703115],[139.0186052,36.0702621],[139.0186262,36.070228],[139.0186379,36.0702084],[139.0186474,36.0701817],[139.0186622,36.0701428],[139.0186803,36.070067],[139.0187163,36.0698943],[139.0187402,36.0697987],[139.0187543,36.0697539],[139.0187912,36.0696599],[139.0188198,36.0695872],[139.0188401,36.0695379],[139.0188539,36.0695064],[139.0188801,36.0695132],[139.0189406,36.069525],[139.0190068,36.0695379],[139.0190357,36.0695364],[139.0190366,36.0695356],[139.0190503,36.0695236],[139.0190612,36.0694773],[139.0190764,36.0694187],[139.019087,36.069394],[139.0191303,36.0693628],[139.0191432,36.0693456],[139.0191716,36.069308],[139.0191843,36.0692802],[139.0191845,36.069232],[139.019188,36.0691798],[139.0191406,36.0690776],[139.0191529,36.0690737],[139.0191532,36.0690735],[139.0191968,36.0690563],[139.0192251,36.0690383],[139.0192437,36.0690248],[139.0192986,36.0690348],[139.0193088,36.0690367],[139.0193933,36.069043],[139.0194159,36.0690447],[139.0194612,36.0690311],[139.0194626,36.0690302],[139.0194901,36.0690105],[139.0194903,36.0689916],[139.0194821,36.0689785],[139.0194649,36.0689622],[139.0194289,36.0689278],[139.0194423,36.0689206],[139.0194792,36.0688968],[139.0195258,36.0688562],[139.019568,36.0687941],[139.0196025,36.0687202],[139.0196164,36.0686553],[139.0196179,36.0686241],[139.0196157,36.0685939],[139.0195711,36.0684616],[139.0195504,36.0683946],[139.0195366,36.068339],[139.01953,36.0683101],[139.0195288,36.0682833],[139.0195317,36.0682716],[139.0195366,36.0682637],[139.0195476,36.0682516],[139.0195616,36.0682383],[139.0195696,36.0682342],[139.0195908,36.068229],[139.0195911,36.068229],[139.0196462,36.0682216],[139.0197068,36.0682135],[139.0197708,36.0682033],[139.0198735,36.0681875],[139.0198739,36.0681874],[139.0199708,36.0681773],[139.0199712,36.0681773],[139.0201,36.0681517],[139.0201763,36.0681271],[139.0202495,36.0680836],[139.0203242,36.0680299],[139.0204043,36.067963],[139.0204611,36.0679221],[139.0204832,36.067914],[139.0204836,36.0679139],[139.0205896,36.0678878],[139.02059,36.0678878],[139.0206917,36.0678683],[139.0210447,36.0678077],[139.021045,36.0678077],[139.0212043,36.0677814],[139.0212211,36.0678185],[139.0212417,36.0678449],[139.0213415,36.0678871],[139.021441,36.0679212],[139.0214785,36.0679268],[139.0215117,36.0679127],[139.0215433,36.0678681],[139.021565,36.0677901],[139.0215533,36.0677532],[139.0216348,36.0677542],[139.0216352,36.0677542],[139.0216933,36.0677573],[139.0216937,36.0677573],[139.0217193,36.0677613],[139.0216806,36.067853],[139.0216865,36.0678705],[139.0217092,36.0678912],[139.0219323,36.0679342],[139.0220128,36.067967],[139.0220981,36.0679907],[139.0222184,36.0680118],[139.0222623,36.068016],[139.0223105,36.0680179],[139.0223463,36.0680041],[139.0223637,36.0679415],[139.0224767,36.0679697],[139.0226014,36.0679909],[139.0226904,36.0680092],[139.0227565,36.0680249],[139.0228434,36.068053],[139.0229199,36.0680756],[139.0229967,36.0680954],[139.0230769,36.0681125],[139.0234309,36.0681662],[139.0234313,36.0681662],[139.0236924,36.0681981],[139.0236927,36.0681981],[139.0237184,36.0682001],[139.0238157,36.0682072],[139.0238161,36.0682072],[139.0239238,36.0682132],[139.0239315,36.068213],[139.0239946,36.068298],[139.0240726,36.0683212],[139.0241449,36.0683324],[139.024207,36.0682964],[139.0242227,36.0682339],[139.0242599,36.0682315],[139.024315,36.0682232],[139.0243744,36.0682142],[139.024381,36.0682132],[139.0243504,36.0682822],[139.0243713,36.0683203],[139.0244874,36.0683772],[139.0246567,36.0684549],[139.0247659,36.0685275],[139.0248859,36.0686084],[139.0249337,36.0686805],[139.0249925,36.0687575],[139.025,36.06876487569061],[139.025,36.075],[139.0125,36.075]]]},"properties":{"layer":"landuse","class_code":"203","class_label":"山林（樹林地）"}},{"type":"Feature","id":"luse_060204ec-3f2d-4855-ba2c-01f90b2d0f31","geometry":{"type":"Polygon","coordinates":[[[139.024381,36.0682132],[139.0243744,36.0682142],[139.024315,36.0682232],[139.0242599,36.0682315],[139.0242227,36.0682339],[139.0241897,36.0682313],[139.0241628,36.0682262],[139.0241444,36.0682195],[139.0241314,36.0682148],[139.0241176,36.0682069],[139.0241023,36.0681968],[139.0240933,36.0681908],[139.0240894,36.0681862],[139.0241286,36.0681714],[139.0241379,36.0681842],[139.0241444,36.0681875],[139.024152,36.0681913],[139.0241663,36.0681984],[139.0241791,36.0682005],[139.0241866,36.0682017],[139.0242408,36.0682065],[139.0242691,36.0682055],[139.0242789,36.0682042],[139.0242799,36.068204],[139.024316,36.068199],[139.0243516,36.0681903],[139.0243702,36.0681817],[139.0244137,36.0681611],[139.0244169,36.0681612],[139.0244799,36.068164],[139.0245264,36.0681657],[139.024595,36.0681697],[139.024679,36.0681731],[139.0247522,36.0681766],[139.0248095,36.0681775],[139.0249086,36.0681742],[139.0249092,36.0681742],[139.0249095,36.0681742],[139.0248915,36.0682173],[139.0248852,36.0682162],[139.0248005,36.0682098],[139.024504,36.0681997],[139.02447,36.0682008],[139.0244448,36.0682035],[139.024381,36.0682132]]]},"properties":{"layer":"landuse","class_code":"204","class_label":"水面（河川水面、湖沼、ため池、用水路、濠、運河水面）"}},{"type":"Feature","id":"luse_f9eff7dd-78c4-43ac-b96f-eaf8d54474e8","geometry":{"type":"Polygon","coordinates":[[[139.025,36.068232844827584],[139.0249808,36.0682297],[139.0249713,36.0682281],[139.0249318,36.0682239],[139.0249246,36.0682227],[139.0249356,36.0681968],[139.0249423,36.0681809],[139.0249869,36.0681849],[139.025,36.06818609090909],[139.025,36.068232844827584]]]},"properties":{"layer":"landuse","class_code":"204","class_label":"水面（河川水面、湖沼、ため池、用水路、濠、運河水面）"}},{"type":"Feature","id":"luse_ed7162ee-9766-48f4-897a-fff75a31677a","geometry":{"type":"Polygon","coordinates":[[[139.0136052,36.0708467],[139.0135227,36.0708572],[139.013522,36.0708573],[139.0135216,36.0708573],[139.0134697,36.0708613],[139.0134045,36.0708655],[139.0133468,36.0708679],[139.0133464,36.0708679],[139.0132595,36.0708708],[139.0131406,36.0708784],[139.0131403,36.0708784],[139.0130161,36.0708909],[139.0130157,36.070891],[139.01293,36.0709029],[139.0128063,36.0709195],[139.0127812,36.0709218],[139.0127597,36.0709237],[139.0127594,36.0709237],[139.0127186,36.0709207],[139.0126898,36.070908],[139.0126528,36.0708815],[139.012636,36.0708546],[139.012631,36.0708356],[139.0126311,36.0708231],[139.0126341,36.0708115],[139.0126484,36.0707969],[139.0126698,36.0707827],[139.0126893,36.0707785],[139.0127015,36.0707793],[139.0127365,36.0707939],[139.0127913,36.0708048],[139.0127917,36.0708048],[139.0128425,36.0708079],[139.0128428,36.0708079],[139.012863,36.0708067],[139.0128634,36.0708067],[139.0129194,36.0708029],[139.0129197,36.0708028],[139.0129759,36.0707991],[139.0130349,36.0707935],[139.0130926,36.0707873],[139.0131491,36.070778],[139.0131881,36.0707653],[139.0132136,36.0707498],[139.013233,36.0707381],[139.0132778,36.0706994],[139.0133241,36.0706545],[139.0133515,36.0706279],[139.0133857,36.070591],[139.0133921,36.070584],[139.0134374,36.0705324],[139.0134667,36.0704974],[139.0136052,36.0708467]]]},"properties":{"layer":"landuse","class_code":"205","class_label":"その他自然地（原野・牧野、荒れ地（耕作放棄地等自然的状況のもの）、低湿地、河川敷・河原、海浜、湖岸）"}},{"type":"Feature","id":"luse_8d9155fe-5f29-4014-8017-05c7cd3e8a31","geometry":{"type":"Polygon","coordinates":[[[139.0219947,36.0674472],[139.022082,36.0675041],[139.0220816,36.0675468],[139.0220283,36.0676148],[139.0219778,36.0676187],[139.0218224,36.0676065],[139.0217896,36.0675895],[139.0217648,36.0675512],[139.021717,36.0675138],[139.0217153,36.0674888],[139.0217385,36.0674757],[139.0218058,36.0674615],[139.0219444,36.0674452],[139.0219947,36.0674472]]]},"properties":{"layer":"landuse","class_code":"211","class_label":"住宅用地（住宅、共同住宅、店舗等併用住宅、店舗等併用共同住宅、作業所併用住宅）"}},{"type":"Feature","id":"luse_21784f18-affc-495d-9b88-f2e275c35072","geometry":{"type":"Polygon","coordinates":[[[139.021565,36.0677901],[139.0215433,36.0678681],[139.0215117,36.0679127],[139.0214785,36.0679268],[139.021441,36.0679212],[139.0213415,36.0678871],[139.0212417,36.0678449],[139.0212211,36.0678185],[139.0212043,36.0677814],[139.0212046,36.0677813],[139.0212379,36.0677758],[139.0213556,36.0677591],[139.0214399,36.0677541],[139.0214403,36.067754],[139.0215533,36.0677532],[139.021565,36.0677901]]]},"properties":{"layer":"landuse","class_code":"211","class_label":"住宅用地（住宅、共同住宅、店舗等併用住宅、店舗等併用共同住宅、作業所併用住宅）"}},{"type":"Feature","id":"luse_ea27281a-812a-4f4c-bfb7-d312286b5d2e","geometry":{"type":"Polygon","coordinates":[[[139.0223637,36.0679415],[139.0223463,36.0680041],[139.0223105,36.0680179],[139.0222623,36.068016],[139.0222184,36.0680118],[139.0220981,36.0679907],[139.0220128,36.067967],[139.0219323,36.0679342],[139.0217092,36.0678912],[139.0216865,36.0678705],[139.0216806,36.067853],[139.0217193,36.0677613],[139.021766,36.0677685],[139.0218467,36.0677905],[139.0219098,36.0678074],[139.0219102,36.0678075],[139.021978,36.067829],[139.0220582,36.0678543],[139.0221658,36.0678851],[139.0222627,36.0679131],[139.0223637,36.0679415]]]},"properties":{"layer":"landuse","class_code":"211","class_label":"住宅用地（住宅、共同住宅、店舗等併用住宅、店舗等併用共同住宅、作業所併用住宅）"}},{"type":"Feature","id":"luse_92136ae6-d88d-4d7f-80b8-fa92b7f3dd48","geometry":{"type":"Polygon","coordinates":[[[139.0248072,36.0680242],[139.0248039,36.0680718],[139.0247991,36.0681407],[139.0247725,36.0681405],[139.0246631,36.0681372],[139.0246175,36.0681341],[139.0245521,36.0681292],[139.0244838,36.0681247],[139.0244466,36.0681215],[139.0244566,36.0679023],[139.0245994,36.0679331],[139.0246813,36.0679971],[139.0247108,36.0680038],[139.0248072,36.0680242]]]},"properties":{"layer":"landuse","class_code":"211","class_label":"住宅用地（住宅、共同住宅、店舗等併用住宅、店舗等併用共同住宅、作業所併用住宅）"}},{"type":"Feature","id":"luse_b245527d-449d-45cb-b7e9-a9f18ea0b5f8","geometry":{"type":"Polygon","coordinates":[[[139.0244137,36.0681611],[139.0243702,36.0681817],[139.0243516,36.0681903],[139.024316,36.068199],[139.0242799,36.068204],[139.0242789,36.0682042],[139.0242691,36.0682055],[139.0242408,36.0682065],[139.0241866,36.0682017],[139.0241791,36.0682005],[139.0241663,36.0681984],[139.024152,36.0681913],[139.0241444,36.0681875],[139.0241379,36.0681842],[139.0241286,36.0681714],[139.0241308,36.0681706],[139.0241787,36.0681609],[139.0242091,36.0681557],[139.0242564,36.0681551],[139.0243026,36.0681565],[139.0243552,36.0681582],[139.0244137,36.0681611]]]},"properties":{"layer":"landuse","class_code":"211","class_label":"住宅用地（住宅、共同住宅、店舗等併用住宅、店舗等併用共同住宅、作業所併用住宅）"}},{"type":"Feature","id":"luse_2002463c-e9cf-4ac8-a46b-1320c7d12110","geometry":{"type":"Polygon","coordinates":[[[139.025,36.06876487569061],[139.0249925,36.0687575],[139.0249337,36.0686805],[139.0248859,36.0686084],[139.0247659,36.0685275],[139.0246567,36.0684549],[139.0244874,36.0683772],[139.0243713,36.0683203],[139.0243504,36.0682822],[139.024381,36.0682132],[139.0244448,36.0682035],[139.02447,36.0682008],[139.024504,36.0681997],[139.0248005,36.0682098],[139.0248852,36.0682162],[139.0248915,36.0682173],[139.0248908,36.0682195],[139.0248795,36.0682451],[139.0248686,36.0682597],[139.024854,36.0682791],[139.024833,36.0683018],[139.024814,36.0683221],[139.0248043,36.0683319],[139.0248217,36.0683431],[139.0248317,36.0683333],[139.024851,36.0683127],[139.0248724,36.0682892],[139.0248876,36.0682691],[139.0248996,36.0682529],[139.0249224,36.0682281],[139.0249235,36.0682254],[139.0249246,36.0682227],[139.0249318,36.0682239],[139.0249713,36.0682281],[139.0249808,36.0682297],[139.025,36.068232844827584],[139.025,36.06876487569061]]]},"properties":{"layer":"landuse","class_code":"211","class_label":"住宅用地（住宅、共同住宅、店舗等併用住宅、店舗等併用共同住宅、作業所併用住宅）"}},{"type":"Feature","id":"luse_5476978f-1fd0-4543-a430-bec29a9f1243","geometry":{"type":"Polygon","coordinates":[[[139.0194649,36.0689622],[139.0194821,36.0689785],[139.0194903,36.0689916],[139.0194901,36.0690105],[139.0194626,36.0690302],[139.0194612,36.0690311],[139.0194159,36.0690447],[139.0193933,36.069043],[139.0193088,36.0690367],[139.0192986,36.0690348],[139.0192437,36.0690248],[139.0192529,36.069018],[139.0192871,36.0689959],[139.0193049,36.0689842],[139.0193556,36.0689603],[139.0193787,36.0689498],[139.0194134,36.0689362],[139.0194289,36.0689278],[139.0194649,36.0689622]]]},"properties":{"layer":"landuse","class_code":"211","class_label":"住宅用地（住宅、共同住宅、店舗等併用住宅、店舗等併用共同住宅、作業所併用住宅）"}},{"type":"Feature","id":"luse_d6c5415f-4442-4495-af93-dca815ca161c","geometry":{"type":"Polygon","coordinates":[[[139.0188761,36.0691285],[139.0188667,36.0691347],[139.0188945,36.0691629],[139.0188714,36.0691908],[139.0188573,36.0692206],[139.0188404,36.0692727],[139.0188296,36.0693126],[139.0188279,36.0693285],[139.0188272,36.069366],[139.018823,36.0694645],[139.0188141,36.06949],[139.0188036,36.0694892],[139.0187914,36.0694864],[139.0187513,36.0694771],[139.018736,36.0694696],[139.0187235,36.0694621],[139.0186963,36.0694447],[139.0186723,36.0694352],[139.0186697,36.0694343],[139.0186694,36.0694341],[139.0186,36.0694095],[139.0186556,36.0693865],[139.0185463,36.0692245],[139.0185324,36.069204],[139.0184934,36.0691683],[139.0184437,36.0691228],[139.0184239,36.0690964],[139.0184102,36.0690771],[139.0184073,36.069025],[139.0185444,36.0689267],[139.018633,36.0688759],[139.0186687,36.0688554],[139.0187447,36.0688079],[139.0187763,36.0687965],[139.0188126,36.068813],[139.0188405,36.068768],[139.0190393,36.0688397],[139.0190328,36.0688453],[139.0189649,36.0688878],[139.0189531,36.068909],[139.0189395,36.068936],[139.0189226,36.0689342],[139.0188807,36.0690343],[139.0188788,36.0690388],[139.0188634,36.0690862],[139.0188761,36.0691285]]]},"properties":{"layer":"landuse","class_code":"211","class_label":"住宅用地（住宅、共同住宅、店舗等併用住宅、店舗等併用共同住宅、作業所併用住宅）"}},{"type":"Feature","id":"luse_40a36711-4cfd-4f97-b0ba-812878cd4a76","geometry":{"type":"Polygon","coordinates":[[[139.0190475,36.069287],[139.0191432,36.0693456],[139.0191303,36.0693628],[139.019087,36.069394],[139.0190764,36.0694187],[139.0190612,36.0694773],[139.0190503,36.0695236],[139.0190366,36.0695356],[139.0190357,36.0695364],[139.0190068,36.0695379],[139.0189406,36.069525],[139.0188801,36.0695132],[139.0188539,36.0695064],[139.018864,36.0694771],[139.018867,36.0694028],[139.0188663,36.0693668],[139.0188667,36.0693301],[139.0188681,36.0693174],[139.0188781,36.06928],[139.0188944,36.0692304],[139.0189068,36.0692042],[139.0189244,36.0691877],[139.0189352,36.0691784],[139.0189603,36.0691604],[139.0190307,36.0691134],[139.0190626,36.0691026],[139.0190758,36.0690983],[139.0191406,36.0690776],[139.019188,36.0691798],[139.0191845,36.069232],[139.0191109,36.0691913],[139.0190475,36.069287]]]},"properties":{"layer":"landuse","class_code":"211","class_label":"住宅用地（住宅、共同住宅、店舗等併用住宅、店舗等併用共同住宅、作業所併用住宅）"}},{"type":"Feature","id":"luse_23016bab-813f-4021-99d2-b48ad9aee64c","geometry":{"type":"Polygon","coordinates":[[[139.0185882,36.0694299],[139.018605,36.0694358],[139.018658,36.0694547],[139.0186773,36.0694622],[139.0186814,36.0694638],[139.0187067,36.06948],[139.0187204,36.0694884],[139.0187322,36.0694956],[139.018743,36.0695025],[139.0187696,36.069523],[139.0187902,36.0695454],[139.0187775,36.069576],[139.0187489,36.0696489],[139.0187329,36.0696877],[139.018714,36.0697346],[139.0187138,36.0697344],[139.0187097,36.0697308],[139.0186978,36.0697076],[139.0186812,36.0696814],[139.0186605,36.0696543],[139.0186349,36.0696273],[139.0186093,36.0695976],[139.0186026,36.0695876],[139.0185961,36.0695776],[139.0185843,36.0695521],[139.0185757,36.0695293],[139.0185658,36.0694953],[139.0185533,36.0694588],[139.0185424,36.0694414],[139.0185323,36.0694229],[139.0185288,36.0694152],[139.0185283,36.0694106],[139.0185324,36.0694099],[139.0185344,36.0694093],[139.0185882,36.0694299]]]},"properties":{"layer":"landuse","class_code":"211","class_label":"住宅用地（住宅、共同住宅、店舗等併用住宅、店舗等併用共同住宅、作業所併用住宅）"}},{"type":"Feature","id":"luse_aa0c4f71-7046-439e-9d3e-dbc07467d1a5","geometry":{"type":"Polygon","coordinates":[[[139.0179772,36.0696244],[139.0179902,36.0696588],[139.0179801,36.0696893],[139.0179314,36.0697491],[139.0179031,36.0697927],[139.0178447,36.0697935],[139.0177682,36.0697602],[139.0175213,36.0697339],[139.0174872,36.0697162],[139.0174859,36.069675],[139.0174912,36.0696507],[139.0174947,36.0696347],[139.0175064,36.0696206],[139.0175485,36.069603],[139.0176025,36.0696131],[139.0176123,36.0695789],[139.0176161,36.0695798],[139.0177585,36.0696037],[139.0178037,36.0696093],[139.017932,36.0695969],[139.0179772,36.0696244]]]},"properties":{"layer":"landuse","class_code":"211","class_label":"住宅用地（住宅、共同住宅、店舗等併用住宅、店舗等併用共同住宅、作業所併用住宅）"}},{"type":"Feature","id":"luse_c626bbfe-e7bc-4423-948e-a970aa2c8ced","geometry":{"type":"Polygon","coordinates":[[[139.0180826,36.0707477],[139.018046,36.0707543],[139.017889,36.0707256],[139.0179087,36.070665],[139.0179868,36.0706628],[139.0180039,36.0705763],[139.0180952,36.0705759],[139.0181146,36.0705579],[139.0181283,36.0705142],[139.0181189,36.0703961],[139.0181032,36.0703866],[139.0180653,36.0703757],[139.0180128,36.0703702],[139.0180053,36.0703737],[139.0179937,36.0704025],[139.0179858,36.0704089],[139.0179726,36.0704118],[139.0179219,36.0704053],[139.0179317,36.0703558],[139.0179535,36.0703003],[139.0179948,36.0702962],[139.0180718,36.070305],[139.0180747,36.0702594],[139.0180915,36.0701922],[139.0181258,36.0701059],[139.0181797,36.0699723],[139.0181949,36.069943],[139.018223,36.0699161],[139.018262,36.0699012],[139.0183911,36.0698684],[139.0183977,36.0698576],[139.0183577,36.0697692],[139.0183221,36.0697194],[139.0182896,36.0696937],[139.0182602,36.0696827],[139.018204,36.0696773],[139.0181742,36.0696672],[139.0181417,36.0696433],[139.018122,36.0696118],[139.0181126,36.0695943],[139.0180762,36.0695577],[139.0180596,36.0695542],[139.0180414,36.0695504],[139.0179734,36.0695385],[139.0179591,36.0695215],[139.0179373,36.0694958],[139.0179692,36.0694773],[139.0180498,36.0694347],[139.018119,36.0693993],[139.0181708,36.0693726],[139.0182068,36.0693575],[139.0182514,36.0693431],[139.0183,36.0693393],[139.0183189,36.0693415],[139.018337,36.0693437],[139.0183636,36.0693474],[139.0183642,36.0693477],[139.0183903,36.069358],[139.0184034,36.0693633],[139.0184046,36.0693638],[139.0184806,36.0693951],[139.0184869,36.0694017],[139.0185096,36.0694358],[139.0185265,36.0694571],[139.0185398,36.069477],[139.0185444,36.0694998],[139.0185541,36.069534],[139.0185633,36.069558],[139.0185759,36.0695851],[139.0185903,36.0696071],[139.0186169,36.069638],[139.0186421,36.0696646],[139.0186617,36.0696903],[139.0186773,36.069715],[139.0186853,36.0697317],[139.0186949,36.0697634],[139.0186968,36.0697908],[139.018682,36.0698503],[139.0186727,36.0698874],[139.0186533,36.0699702],[139.0186488,36.0699901],[139.0186316,36.0700627],[139.0186133,36.070134],[139.0186027,36.0701704],[139.0185934,36.0701952],[139.0185853,36.0702139],[139.0185512,36.0702486],[139.0185014,36.0702926],[139.0184254,36.0703599],[139.0184068,36.0703788],[139.0182992,36.070487],[139.0182456,36.07054],[139.0182123,36.0705728],[139.0181675,36.0706231],[139.0181224,36.0706896],[139.0180826,36.0707477]]]},"properties":{"layer":"landuse","class_code":"211","class_label":"住宅用地（住宅、共同住宅、店舗等併用住宅、店舗等併用共同住宅、作業所併用住宅）"}},{"type":"Feature","id":"luse_d1199c08-8472-4877-ad7d-5f6875f023ec","geometry":{"type":"Polygon","coordinates":[[[139.0179754,36.0709119],[139.0179493,36.0709301],[139.0178014,36.0710374],[139.0177514,36.0710656],[139.0177209,36.0710425],[139.0177138,36.0710322],[139.0177194,36.071006],[139.0177526,36.070962],[139.0177645,36.0709299],[139.0177629,36.0709216],[139.0177195,36.070902],[139.0177151,36.0708951],[139.0177295,36.0708202],[139.0178205,36.0708273],[139.0179818,36.0708525],[139.0180071,36.0708622],[139.0179839,36.0709031],[139.0179754,36.0709119]]]},"properties":{"layer":"landuse","class_code":"211","class_label":"住宅用地（住宅、共同住宅、店舗等併用住宅、店舗等併用共同住宅、作業所併用住宅）"}},{"type":"Feature","id":"luse_7a0e2e8a-b86f-43ef-9174-e8ad38d64962","geometry":{"type":"Polygon","coordinates":[[[139.0185845,36.0703753],[139.0186459,36.0703812],[139.0186676,36.0703943],[139.018684,36.0704232],[139.0186807,36.0704544],[139.0186607,36.0704821],[139.0186219,36.0705042],[139.0185652,36.0705399],[139.0184736,36.070658],[139.0184595,36.0706818],[139.0183948,36.0707535],[139.0182201,36.0709037],[139.0182138,36.07092],[139.0182176,36.0709486],[139.0182222,36.0709678],[139.0182481,36.070991],[139.0182906,36.0710177],[139.0183203,36.0710582],[139.0183191,36.0711047],[139.0182604,36.0711382],[139.0181988,36.0711221],[139.0181017,36.0710774],[139.0180848,36.0710639],[139.0180792,36.071035],[139.0180745,36.0709941],[139.0180678,36.0709766],[139.0180604,36.0709705],[139.0180133,36.0709319],[139.0180051,36.0709249],[139.0180127,36.0709174],[139.0180373,36.0708737],[139.018055,36.0708442],[139.0181116,36.0707609],[139.0181517,36.0707027],[139.0182072,36.0706406],[139.0182598,36.0705841],[139.0182811,36.0705622],[139.0183392,36.0705027],[139.0184629,36.0703867],[139.0184875,36.0703662],[139.0185845,36.0703753]]]},"properties":{"layer":"landuse","class_code":"211","class_label":"住宅用地（住宅、共同住宅、店舗等併用住宅、店舗等併用共同住宅、作業所併用住宅）"}},{"type":"Feature","id":"luse_8979f65d-958a-456d-9f73-d64dfbfe0c1e","geometry":{"type":"Polygon","coordinates":[[[139.0164697,36.0722116],[139.0164323,36.0722215],[139.0164319,36.0722216],[139.0164044,36.0722307],[139.016353,36.0722476],[139.0163527,36.0722477],[139.0162894,36.0722773],[139.0162744,36.0722854],[139.0162391,36.0723045],[139.0162175,36.0722803],[139.0162074,36.0722606],[139.0162111,36.0722368],[139.0162265,36.0722082],[139.016251,36.0721922],[139.0162842,36.0721874],[139.0163202,36.0721923],[139.0163407,36.0722017],[139.0163654,36.0721927],[139.0164294,36.0721872],[139.0164714,36.0721835],[139.0165056,36.0721858],[139.0165416,36.0721752],[139.0165267,36.072185],[139.0165028,36.0721986],[139.0164697,36.0722116]]]},"properties":{"layer":"landuse","class_code":"211","class_label":"住宅用地（住宅、共同住宅、店舗等併用住宅、店舗等併用共同住宅、作業所併用住宅）"}},{"type":"Feature","id":"luse_6cffdbee-fcb3-494d-aaa4-35f68c3d3be4","geometry":{"type":"Polygon","coordinates":[[[139.0165467,36.0723196],[139.016468,36.0723307],[139.0164667,36.0723714],[139.0164514,36.0723945],[139.0163203,36.0724463],[139.0162652,36.0724576],[139.0162396,36.0724597],[139.0162227,36.0724529],[139.016205,36.0724457],[139.0161754,36.0724191],[139.0161974,36.0723865],[139.016224,36.0723573],[139.0162279,36.0723524],[139.0162574,36.0723272],[139.0163072,36.0723003],[139.0163519,36.0722794],[139.0163547,36.0722782],[139.0163677,36.0722721],[139.0163744,36.0722699],[139.0163882,36.0722653],[139.0164333,36.0723045],[139.0165092,36.0722714],[139.0166705,36.072185],[139.0167398,36.0721245],[139.0167809,36.0721457],[139.0167735,36.0721813],[139.0166985,36.0722573],[139.0166252,36.0722985],[139.0165467,36.0723196]]]},"properties":{"layer":"landuse","class_code":"211","class_label":"住宅用地（住宅、共同住宅、店舗等併用住宅、店舗等併用共同住宅、作業所併用住宅）"}},{"type":"Feature","id":"luse_bdd21f85-a680-4651-b303-2969ac7c010b","geometry":{"type":"Polygon","coordinates":[[[139.0159773,36.0732049],[139.0160229,36.0732566],[139.0159949,36.0732909],[139.0159592,36.0733393],[139.0159091,36.0733786],[139.0158937,36.0733863],[139.0157218,36.0734706],[139.0157912,36.0732771],[139.015818,36.0732275],[139.0158677,36.0731749],[139.0159106,36.073129],[139.0159773,36.0732049]]]},"properties":{"layer":"landuse","class_code":"211","class_label":"住宅用地（住宅、共同住宅、店舗等併用住宅、店舗等併用共同住宅、作業所併用住宅）"}},{"type":"Feature","id":"luse_eccc69dd-c5dd-48ad-b5ea-2560ff6675e5","geometry":{"type":"Polygon","coordinates":[[[139.0191845,36.069232],[139.0191843,36.0692802],[139.0191716,36.069308],[139.0191432,36.0693456],[139.0190475,36.069287],[139.0191109,36.0691913],[139.0191845,36.069232]]]},"properties":{"layer":"landuse","class_code":"214","class_label":"公益施設用地（官公庁施設、文教厚生施設、供給処理施設）"}},{"type":"Feature","id":"luse_eab0a051-2973-4507-af50-b08febdf7b5d","geometry":{"type":"Polygon","coordinates":[[[139.0186556,36.0693865],[139.0186,36.0694095],[139.0185995,36.0694093],[139.0184861,36.069366],[139.018443,36.0693489],[139.0184182,36.069339],[139.0185463,36.0692245],[139.0186556,36.0693865]]]},"properties":{"layer":"landuse","class_code":"214","class_label":"公益施設用地（官公庁施設、文教厚生施設、供給処理施設）"}},{"type":"Feature","id":"luse_af21ed1e-1b03-47c2-aa58-c3f3b8096318","geometry":{"type":"Polygon","coordinates":[[[139.0160038,36.0728824],[139.0159935,36.072935],[139.0159911,36.0729346],[139.0159521,36.0729275],[139.0159312,36.0729179],[139.0159188,36.0729039],[139.0159155,36.0729002],[139.015894,36.0728635],[139.0158866,36.0728511],[139.0158632,36.0728614],[139.0158441,36.07287],[139.0157548,36.0728568],[139.0157856,36.0726709],[139.0160593,36.0726792],[139.0160541,36.072698],[139.0160202,36.0728214],[139.0160038,36.0728824]]]},"properties":{"layer":"landuse","class_code":"214","class_label":"公益施設用地（官公庁施設、文教厚生施設、供給処理施設）"}},{"type":"Feature","id":"luse_c023e356-0978-4c4c-82d7-1af9fab61b34","geometry":{"type":"Polygon","coordinates":[[[139.0242227,36.0682339],[139.024207,36.0682964],[139.0241449,36.0683324],[139.0240726,36.0683212],[139.0239946,36.068298],[139.0239315,36.068213],[139.0239689,36.0682116],[139.0240027,36.0682072],[139.024017,36.0682043],[139.0240328,36.068201],[139.0240353,36.0682004],[139.0240683,36.0681934],[139.0240802,36.0681897],[139.0240894,36.0681862],[139.0240933,36.0681908],[139.0241023,36.0681968],[139.0241176,36.0682069],[139.0241314,36.0682148],[139.0241444,36.0682195],[139.0241628,36.0682262],[139.0241897,36.0682313],[139.0242227,36.0682339]]]},"properties":{"layer":"landuse","class_code":"223","class_label":"その他④（その他①～③以外の用途に供されている都市的土地利用（建物跡地、資材置場、改変工事中の土地）、法面（道路、造成地等の主利用に含まれない法面））"}},{"type":"Feature","id":"luse_2536a1db-5872-45dc-9e6f-d23ff1b2df20","geometry":{"type":"Polygon","coordinates":[[[139.0215284,36.0677091],[139.0214343,36.0677128],[139.0213989,36.0676281],[139.0215912,36.0676082],[139.0216258,36.067709],[139.0215525,36.0677081],[139.0215284,36.0677091]]]},"properties":{"layer":"landuse","class_code":"219","class_label":"農林漁業施設用地（農林漁業用施設）"}},{"type":"Feature","id":"luse_ceced96a-6f6f-441f-8972-6ee9d5cd897b","geometry":{"type":"MultiPolygon","coordinates":[[[[139.0125,36.06666666666667],[139.025,36.06666666666667],[139.025,36.06818609090909],[139.0249869,36.0681849],[139.0249423,36.0681809],[139.0249356,36.0681968],[139.0249246,36.0682227],[139.0249235,36.0682254],[139.0249224,36.0682281],[139.0248996,36.0682529],[139.0248876,36.0682691],[139.0248724,36.0682892],[139.024851,36.0683127],[139.0248317,36.0683333],[139.0248217,36.0683431],[139.0248043,36.0683319],[139.024814,36.0683221],[139.024833,36.0683018],[139.024854,36.0682791],[139.0248686,36.0682597],[139.0248795,36.0682451],[139.0248908,36.0682195],[139.0248915,36.0682173],[139.0249095,36.0681742],[139.0249092,36.0681742],[139.0249086,36.0681742],[139.0248095,36.0681775],[139.0247522,36.0681766],[139.024679,36.0681731],[139.024595,36.0681697],[139.0245264,36.0681657],[139.0244799,36.068164],[139.0244169,36.0681612],[139.0244137,36.0681611],[139.0243552,36.0681582],[139.0243026,36.0681565],[139.0242564,36.0681551],[139.0242091,36.0681557],[139.0241787,36.0681609],[139.0241308,36.0681706],[139.0241286,36.0681714],[139.0240894,36.0681862],[139.0240802,36.0681897],[139.0240683,36.0681934],[139.0240353,36.0682004],[139.0240328,36.068201],[139.024017,36.0682043],[139.0240027,36.0682072],[139.0239689,36.0682116],[139.0239315,36.068213],[139.0239238,36.0682132],[139.0238161,36.0682072],[139.0238157,36.0682072],[139.0237184,36.0682001],[139.0236927,36.0681981],[139.0236924,36.0681981],[139.0234313,36.0681662],[139.0234309,36.0681662],[139.0230769,36.0681125],[139.0229967,36.0680954],[139.0229199,36.0680756],[139.0228434,36.068053],[139.0227565,36.0680249],[139.0226904,36.0680092],[139.0226014,36.0679909],[139.0224767,36.0679697],[139.0223637,36.0679415],[139.0222627,36.0679131],[139.0221658,36.0678851],[139.0220582,36.0678543],[139.021978,36.067829],[139.0219102,36.0678075],[139.0219098,36.0678074],[139.0218467,36.0677905],[139.021766,36.0677685],[139.0217193,36.0677613],[139.0216937,36.0677573],[139.0216933,36.0677573],[139.0216352,36.0677542],[139.0216348,36.0677542],[139.0215533,36.0677532],[139.0214403,36.067754],[139.0214399,36.0677541],[139.0213556,36.0677591],[139.0212379,36.0677758],[139.0212046,36.0677813],[139.0212043,36.0677814],[139.021045,36.0678077],[139.0210447,36.0678077],[139.0206917,36.0678683],[139.02059,36.0678878],[139.0205896,36.0678878],[139.0204836,36.0679139],[139.0204832,36.067914],[139.0204611,36.0679221],[139.0204043,36.067963],[139.0203242,36.0680299],[139.0202495,36.0680836],[139.0201763,36.0681271],[139.0201,36.0681517],[139.0199712,36.0681773],[139.0199708,36.0681773],[139.0198739,36.0681874],[139.0198735,36.0681875],[139.0197708,36.0682033],[139.0197068,36.0682135],[139.0196462,36.0682216],[139.0195911,36.068229],[139.0195908,36.068229],[139.0195696,36.0682342],[139.0195616,36.0682383],[139.0195476,36.0682516],[139.0195366,36.0682637],[139.0195317,36.0682716],[139.0195288,36.0682833],[139.01953,36.0683101],[139.0195366,36.068339],[139.0195504,36.0683946],[139.0195711,36.0684616],[139.0196157,36.0685939],[139.0196179,36.0686241],[139.0196164,36.0686553],[139.0196025,36.0687202],[139.019568,36.0687941],[139.0195258,36.0688562],[139.0194792,36.0688968],[139.0194423,36.0689206],[139.0194289,36.0689278],[139.0194134,36.0689362],[139.0193787,36.0689498],[139.0193556,36.0689603],[139.0193049,36.0689842],[139.0192871,36.0689959],[139.0192529,36.069018],[139.0192437,36.0690248],[139.0192251,36.0690383],[139.0191968,36.0690563],[139.0191532,36.0690735],[139.0191529,36.0690737],[139.0191406,36.0690776],[139.0190758,36.0690983],[139.0190626,36.0691026],[139.0190307,36.0691134],[139.0189603,36.0691604],[139.0189352,36.0691784],[139.0189244,36.0691877],[139.0189068,36.0692042],[139.0188944,36.0692304],[139.0188781,36.06928],[139.0188681,36.0693174],[139.0188667,36.0693301],[139.0188663,36.0693668],[139.018867,36.0694028],[139.018864,36.0694771],[139.0188539,36.0695064],[139.0188401,36.0695379],[139.0188198,36.0695872],[139.0187912,36.0696599],[139.0187543,36.0697539],[139.0187402,36.0697987],[139.0187163,36.0698943],[139.0186803,36.070067],[139.0186622,36.0701428],[139.0186474,36.0701817],[139.0186379,36.0702084],[139.0186262,36.070228],[139.0186052,36.0702621],[139.0185528,36.0703115],[139.0184875,36.0703662],[139.0184629,36.0703867],[139.0183392,36.0705027],[139.0182811,36.0705622],[139.0182598,36.0705841],[139.0182072,36.0706406],[139.0181517,36.0707027],[139.0181116,36.0707609],[139.018055,36.0708442],[139.0180373,36.0708737],[139.0180127,36.0709174],[139.0180051,36.0709249],[139.0179592,36.0709722],[139.0179327,36.0709906],[139.0178981,36.0710148],[139.0178749,36.0710291],[139.0178528,36.0710467],[139.0178266,36.0710739],[139.0178054,36.071096],[139.017784,36.0711185],[139.0177503,36.0711613],[139.0177266,36.0711915],[139.0176697,36.0712533],[139.0175819,36.0713499],[139.0174486,36.0715083],[139.0174324,36.0715251],[139.0173616,36.071599],[139.017326,36.0716266],[139.0173257,36.0716267],[139.0172837,36.0716377],[139.017272,36.0716408],[139.017255,36.071643],[139.017199,36.0716506],[139.0171435,36.071656],[139.0170754,36.0716653],[139.0170254,36.0716745],[139.0170251,36.0716746],[139.0169886,36.0716868],[139.0169689,36.0717025],[139.0169374,36.0717505],[139.0168737,36.0718275],[139.0168305,36.071867],[139.016792,36.0718927],[139.0167478,36.0719294],[139.016717,36.0719575],[139.0166981,36.071992],[139.0166747,36.072053],[139.0166257,36.0721411],[139.0165833,36.0721824],[139.0165468,36.0722066],[139.0165195,36.072222],[139.0164821,36.0722367],[139.0164446,36.0722466],[139.0163882,36.0722653],[139.0163744,36.0722699],[139.0163677,36.0722721],[139.0163547,36.0722782],[139.0163519,36.0722794],[139.0163072,36.0723003],[139.0162574,36.0723272],[139.0162279,36.0723524],[139.016224,36.0723573],[139.0161974,36.0723865],[139.0161754,36.0724191],[139.016155,36.0724738],[139.0161285,36.0725553],[139.0161036,36.0726422],[139.0160882,36.0726982],[139.0160527,36.0728272],[139.0160388,36.0728788],[139.0160365,36.0728874],[139.0160261,36.0729404],[139.0160059,36.0730068],[139.0159886,36.0730413],[139.0159579,36.0730818],[139.0159106,36.073129],[139.0158677,36.0731749],[139.015818,36.0732275],[139.0157912,36.0732771],[139.0157218,36.0734706],[139.0157189,36.0735027],[139.0157107,36.0735308],[139.0156634,36.0736152],[139.0156196,36.0736785],[139.0155721,36.0737147],[139.0155073,36.073754],[139.0151142,36.0739678],[139.0150548,36.0740003],[139.0149893,36.0740363],[139.0149049,36.0740922],[139.0148037,36.074184],[139.0147096,36.07428],[139.0146568,36.0743221],[139.0146106,36.074343],[139.0144935,36.0743706],[139.0143893,36.0743936],[139.0143708,36.0743977],[139.0143167,36.0744258],[139.0142842,36.0744591],[139.0142521,36.0745066],[139.0142133,36.0745671],[139.0141729,36.0746043],[139.0141236,36.0746289],[139.0140788,36.0746412],[139.0140699,36.0746424],[139.014037,36.0746471],[139.0139815,36.074644],[139.0139811,36.0746439],[139.0138702,36.0746375],[139.0138698,36.0746375],[139.0136896,36.074616],[139.0135115,36.0745949],[139.0134101,36.0745824],[139.013328,36.0745687],[139.0130865,36.0745046],[139.012938,36.0744665],[139.0127967,36.0744303],[139.0126023,36.0743643],[139.0125232,36.0743401],[139.0125,36.07433332425277],[139.0125,36.07430455630668],[139.0125352,36.0743148],[139.0128079,36.0744048],[139.0128083,36.0744049],[139.0130966,36.0744789],[139.0133366,36.0745425],[139.0134159,36.0745557],[139.0135164,36.0745681],[139.0138737,36.0746107],[139.0140353,36.0746199],[139.0140703,36.0746149],[139.0140706,36.0746149],[139.0141094,36.0746042],[139.0141512,36.0745834],[139.0141856,36.0745517],[139.0142118,36.0745108],[139.0142228,36.0744939],[139.0142562,36.0744441],[139.0142939,36.0744054],[139.0143572,36.0743727],[139.0144427,36.0743538],[139.0144845,36.0743446],[139.0145977,36.0743178],[139.0146366,36.0743003],[139.0146848,36.0742619],[139.0147783,36.0741666],[139.0148819,36.0740725],[139.0149693,36.0740146],[139.0150955,36.0739453],[139.0154881,36.0737318],[139.0155507,36.073694],[139.0155929,36.0736616],[139.0156327,36.0736043],[139.0156791,36.073522],[139.015686,36.0734985],[139.0156889,36.0734659],[139.0157599,36.0732678],[139.0157892,36.0732137],[139.0158412,36.0731585],[139.0158844,36.0731122],[139.0159307,36.0730661],[139.0159589,36.073029],[139.01598,36.0729852],[139.0159796,36.0729852],[139.0159342,36.0729747],[139.015903,36.0729592],[139.0158832,36.0729355],[139.0158441,36.07287],[139.0158632,36.0728614],[139.0158866,36.0728511],[139.015894,36.0728635],[139.0159155,36.0729002],[139.0159188,36.0729039],[139.0159312,36.0729179],[139.0159521,36.0729275],[139.0159911,36.0729346],[139.0159935,36.072935],[139.0160038,36.0728824],[139.0160202,36.0728214],[139.0160541,36.072698],[139.0160593,36.0726792],[139.0160712,36.0726361],[139.0160841,36.0725909],[139.0160962,36.0725487],[139.0161228,36.0724664],[139.0161444,36.0724084],[139.0161692,36.0723719],[139.0162031,36.0723349],[139.0162243,36.0723162],[139.0162358,36.0723064],[139.0162391,36.0723045],[139.0162744,36.0722854],[139.0162894,36.0722773],[139.0163527,36.0722477],[139.016353,36.0722476],[139.0164044,36.0722307],[139.0164319,36.0722216],[139.0164323,36.0722215],[139.0164697,36.0722116],[139.0165028,36.0721986],[139.0165267,36.072185],[139.0165416,36.0721752],[139.0165598,36.0721632],[139.0165972,36.0721266],[139.0166436,36.0720434],[139.016658,36.0720058],[139.0166668,36.0719824],[139.0166839,36.0719512],[139.0166868,36.071946],[139.0166886,36.0719427],[139.0167167,36.0719171],[139.0167235,36.0719109],[139.0167681,36.0718739],[139.0168443,36.0718092],[139.0168823,36.0717668],[139.0169088,36.0717364],[139.0169418,36.0716861],[139.0169504,36.0716792],[139.0169701,36.0716637],[139.0170149,36.0716488],[139.0170152,36.0716487],[139.0170214,36.0716476],[139.0170692,36.0716387],[139.0171389,36.0716293],[139.0171945,36.0716238],[139.0172642,36.0716145],[139.0173085,36.0716028],[139.0173387,36.0715795],[139.0174215,36.0714923],[139.0174727,36.0714318],[139.0175547,36.0713343],[139.017643,36.0712372],[139.0176632,36.0712152],[139.0176992,36.0711762],[139.0177566,36.0711029],[139.0178277,36.0710286],[139.0178532,36.0710086],[139.0178733,36.070998],[139.0179351,36.0709534],[139.0179754,36.0709119],[139.0179839,36.0709031],[139.0180071,36.0708622],[139.0180253,36.0708318],[139.0180826,36.0707477],[139.0181224,36.0706896],[139.0181675,36.0706231],[139.0182123,36.0705728],[139.0182456,36.07054],[139.0182992,36.070487],[139.0184068,36.0703788],[139.0184254,36.0703599],[139.0185014,36.0702926],[139.0185512,36.0702486],[139.0185853,36.0702139],[139.0185934,36.0701952],[139.0186027,36.0701704],[139.0186133,36.070134],[139.0186316,36.0700627],[139.0186488,36.0699901],[139.0186533,36.0699702],[139.0186727,36.0698874],[139.018682,36.0698503],[139.0186968,36.0697908],[139.0186949,36.0697634],[139.0186853,36.0697317],[139.0186773,36.069715],[139.0186617,36.0696903],[139.0186421,36.0696646],[139.0186169,36.069638],[139.0185903,36.0696071],[139.0185759,36.0695851],[139.0185633,36.069558],[139.0185541,36.069534],[139.0185444,36.0694998],[139.0185398,36.069477],[139.0185265,36.0694571],[139.0185096,36.0694358],[139.0184869,36.0694017],[139.0184806,36.0693951],[139.0184046,36.0693638],[139.0184034,36.0693633],[139.0183903,36.069358],[139.0183642,36.0693477],[139.0183636,36.0693474],[139.018337,36.0693437],[139.0183189,36.0693415],[139.0183,36.0693393],[139.0182514,36.0693431],[139.0182068,36.0693575],[139.0181708,36.0693726],[139.018119,36.0693993],[139.0180498,36.0694347],[139.0179692,36.0694773],[139.0179373,36.0694958],[139.0179231,36.069504],[139.0178638,36.0695298],[139.0178634,36.0695299],[139.0178582,36.0695321],[139.017828,36.0695384],[139.0178277,36.0695384],[139.0177307,36.0695468],[139.0176733,36.0695506],[139.0176438,36.0695539],[139.0176435,36.069554],[139.0176224,36.0695603],[139.0176155,36.0695676],[139.0176123,36.0695789],[139.0176025,36.0696131],[139.0175485,36.069603],[139.0175588,36.0695662],[139.0175613,36.0695575],[139.0175604,36.0695543],[139.0175317,36.0695467],[139.0174539,36.069535],[139.0173448,36.06951],[139.0173063,36.0694932],[139.0172546,36.0694646],[139.0171424,36.0693914],[139.017091,36.0693642],[139.0170567,36.0693532],[139.0170313,36.0693487],[139.0170194,36.0693466],[139.0169974,36.06935],[139.0169911,36.0693509],[139.0169012,36.0693902],[139.0168546,36.069397],[139.0168144,36.0693977],[139.016806,36.0693979],[139.0167422,36.0693905],[139.0167418,36.0693905],[139.0166621,36.0693763],[139.016568,36.0693499],[139.0165676,36.0693498],[139.0165281,36.0693358],[139.0164883,36.0693217],[139.0164131,36.0692941],[139.0163721,36.0692862],[139.0163689,36.0692855],[139.0163222,36.0692857],[139.0162706,36.0693001],[139.0162556,36.069307],[139.016236,36.0693214],[139.016222,36.0693321],[139.0161691,36.0693731],[139.0161322,36.0693918],[139.0161318,36.0693918],[139.0160826,36.0694123],[139.016044,36.0694285],[139.0159766,36.0694482],[139.0159175,36.0694686],[139.0158738,36.0694891],[139.0158068,36.0695292],[139.0158034,36.069531],[139.0158024,36.0695315],[139.0157256,36.0695743],[139.0156653,36.0696059],[139.0156154,36.0696211],[139.0156151,36.0696211],[139.0155537,36.0696301],[139.0154884,36.0696296],[139.0154347,36.069623],[139.0153876,36.0696058],[139.0153504,36.0695764],[139.0152967,36.069497],[139.0152364,36.069391],[139.0152006,36.0693654],[139.0151547,36.0693559],[139.015119,36.0693598],[139.0150892,36.0693739],[139.0149913,36.0694206],[139.014923,36.0694486],[139.0148653,36.0694646],[139.014805,36.0694723],[139.0148047,36.0694723],[139.0147696,36.0694777],[139.0147587,36.0694794],[139.0147131,36.0694917],[139.0146831,36.069501],[139.0146598,36.0695177],[139.0146493,36.0695404],[139.0146431,36.0695829],[139.0146479,36.0696279],[139.0146658,36.0696751],[139.014693,36.0697107],[139.0147302,36.0697386],[139.0147648,36.0697582],[139.0148066,36.0697777],[139.0148533,36.0697906],[139.0148985,36.0697995],[139.0149633,36.0698005],[139.0150637,36.0697971],[139.0150641,36.0697971],[139.0152726,36.0697827],[139.0153466,36.0697831],[139.015347,36.0697832],[139.0154166,36.0697981],[139.015417,36.0697981],[139.0154694,36.0698224],[139.0155152,36.0698539],[139.0155168,36.0698549],[139.0155648,36.0699038],[139.0155939,36.0699274],[139.0156337,36.0699407],[139.0156478,36.0699413],[139.0156645,36.0699422],[139.0156649,36.0699421],[139.0157017,36.0699372],[139.0157021,36.0699371],[139.0157457,36.0699215],[139.0157471,36.0699208],[139.0157956,36.0698956],[139.015836,36.0698715],[139.015874,36.0698394],[139.0159025,36.0698105],[139.015936,36.0697836],[139.0159713,36.0697636],[139.0160062,36.0697553],[139.016041,36.0697499],[139.0160895,36.0697502],[139.0161441,36.0697683],[139.0161462,36.069769],[139.0161816,36.0697886],[139.0162176,36.0698152],[139.0162499,36.0698555],[139.0162871,36.0699018],[139.0163732,36.0700147],[139.0164007,36.0700532],[139.0164115,36.0700789],[139.0164154,36.0701079],[139.0164137,36.0701469],[139.0164086,36.0702092],[139.016405,36.0702443],[139.0164042,36.0702675],[139.0164048,36.0702885],[139.0164095,36.0703095],[139.0164151,36.0703253],[139.0164212,36.0703405],[139.016437,36.0703627],[139.0164608,36.0703876],[139.0164904,36.070418],[139.0165213,36.070448],[139.0165417,36.0704665],[139.0165651,36.0704833],[139.016585,36.070496],[139.0166172,36.0705099],[139.0166313,36.0705155],[139.0166398,36.0705189],[139.0166467,36.0705202],[139.0166768,36.0705257],[139.0167275,36.0705301],[139.0167278,36.0705301],[139.0167739,36.0705396],[139.0168112,36.0705508],[139.0168305,36.0705654],[139.0168503,36.0705881],[139.0168599,36.0706203],[139.0168612,36.0706464],[139.0168528,36.0706828],[139.0168409,36.0707056],[139.0168215,36.0707183],[139.0168211,36.0707183],[139.0167912,36.0707253],[139.0167713,36.0707265],[139.016771,36.0707265],[139.0167489,36.0707278],[139.01672,36.0707268],[139.0167191,36.0707268],[139.0166725,36.070722],[139.0166391,36.0707172],[139.0165835,36.0707031],[139.0165277,36.0706895],[139.0165017,36.0706833],[139.0164673,36.0706778],[139.0164425,36.0706752],[139.0164421,36.0706751],[139.0164243,36.0706737],[139.0164081,36.0706724],[139.0163344,36.070671],[139.0163228,36.0706702],[139.0162698,36.0706667],[139.0162414,36.0706593],[139.0161993,36.0706483],[139.016134,36.0706222],[139.0160638,36.0705893],[139.0160137,36.0705639],[139.0159588,36.0705343],[139.0159104,36.0705161],[139.0158973,36.0705136],[139.0158651,36.0705076],[139.0158204,36.070507],[139.0157642,36.0705131],[139.0157027,36.0705271],[139.0156095,36.0705512],[139.0155197,36.0705671],[139.0154447,36.0705684],[139.0153628,36.070563],[139.0153447,36.0705599],[139.015314,36.0705546],[139.0152754,36.0705479],[139.0152068,36.0705327],[139.015129,36.0705059],[139.0150312,36.0704734],[139.0149515,36.0704605],[139.0148717,36.0704563],[139.0148713,36.0704563],[139.0147716,36.07046],[139.0147712,36.07046],[139.0147497,36.0704608],[139.0147363,36.0704613],[139.0146971,36.0704627],[139.0144812,36.070468],[139.014358,36.0704668],[139.014323,36.0704664],[139.0142008,36.0704583],[139.0141391,36.0704519],[139.0140962,36.0704405],[139.0140582,36.0704266],[139.0140056,36.070401],[139.0139543,36.0703756],[139.0139224,36.0703629],[139.0139221,36.0703627],[139.0139156,36.0703601],[139.013889,36.0703493],[139.0138425,36.0703385],[139.0138306,36.0703357],[139.013755,36.0703331],[139.0136949,36.0703369],[139.0136706,36.0703406],[139.0136436,36.0703448],[139.0135974,36.0703611],[139.013566,36.070381],[139.0135372,36.0704081],[139.0134804,36.0704811],[139.0134667,36.0704974],[139.0134374,36.0705324],[139.0133921,36.070584],[139.0133857,36.070591],[139.0133515,36.0706279],[139.0133241,36.0706545],[139.0132778,36.0706994],[139.013233,36.0707381],[139.0132136,36.0707498],[139.0131881,36.0707653],[139.0131491,36.070778],[139.0130926,36.0707873],[139.0130349,36.0707935],[139.0129759,36.0707991],[139.0129197,36.0708028],[139.0129194,36.0708029],[139.0128634,36.0708067],[139.012863,36.0708067],[139.0128428,36.0708079],[139.0128425,36.0708079],[139.0127917,36.0708048],[139.0127913,36.0708048],[139.0127365,36.0707939],[139.0127015,36.0707793],[139.0126893,36.0707785],[139.0126698,36.0707827],[139.0126484,36.0707969],[139.0126341,36.0708115],[139.0126311,36.0708231],[139.012631,36.0708356],[139.012636,36.0708546],[139.0126528,36.0708815],[139.0126898,36.070908],[139.0127186,36.0709207],[139.0127594,36.0709237],[139.0127597,36.0709237],[139.0127812,36.0709218],[139.0128063,36.0709195],[139.01293,36.0709029],[139.0130157,36.070891],[139.0130161,36.0708909],[139.0131403,36.0708784],[139.0131406,36.0708784],[139.0132595,36.0708708],[139.0133464,36.0708679],[139.0133468,36.0708679],[139.0134045,36.0708655],[139.0134697,36.0708613],[139.0135216,36.0708573],[139.013522,36.0708573],[139.0135227,36.0708572],[139.0136052,36.0708467],[139.0136283,36.0708437],[139.0136924,36.070839],[139.0137556,36.07084],[139.013756,36.07084],[139.0138191,36.0708482],[139.0139108,36.0708673],[139.014105,36.0709082],[139.0141054,36.0709083],[139.0142499,36.0709429],[139.0143367,36.0709579],[139.0143826,36.0709619],[139.0143829,36.0709619],[139.0144427,36.0709646],[139.014558,36.0709722],[139.0146426,36.070983],[139.0146882,36.0709928],[139.0147292,36.0710115],[139.0147661,36.0710437],[139.0147854,36.0710732],[139.0147917,36.0711045],[139.0147842,36.0711406],[139.0147653,36.0711848],[139.0147329,36.0712157],[139.0147021,36.0712219],[139.0146741,36.0712176],[139.0146409,36.071205],[139.0146103,36.0711902],[139.0145435,36.0711535],[139.0144965,36.0711268],[139.0144849,36.0711224],[139.0144641,36.0711145],[139.0144223,36.0711073],[139.0144219,36.0711073],[139.0143727,36.0711041],[139.0143231,36.071109],[139.0142832,36.0711152],[139.014212,36.0711343],[139.0140564,36.071185],[139.0140267,36.0711946],[139.0140263,36.0711947],[139.0139466,36.0712142],[139.0138665,36.0712301],[139.0138277,36.0712352],[139.013789,36.0712402],[139.0137476,36.0712442],[139.0137467,36.0712443],[139.0136877,36.07125],[139.0135292,36.071267],[139.013429,36.0712774],[139.013349,36.0712872],[139.0132633,36.0713018],[139.013186,36.0713153],[139.0131798,36.0713166],[139.0130918,36.0713342],[139.0130347,36.071342],[139.012979,36.0713432],[139.0129151,36.0713407],[139.0128533,36.0713365],[139.0127962,36.0713321],[139.0127959,36.071332],[139.0127185,36.0713234],[139.0126177,36.0713098],[139.0125171,36.0712916],[139.0125,36.071287787662335],[139.0125,36.06666666666667]]],[[[139.0185882,36.0694299],[139.0185344,36.0694093],[139.0185324,36.0694099],[139.0185283,36.0694106],[139.0185288,36.0694152],[139.0185323,36.0694229],[139.0185424,36.0694414],[139.0185533,36.0694588],[139.0185658,36.0694953],[139.0185757,36.0695293],[139.0185843,36.0695521],[139.0185961,36.0695776],[139.0186026,36.0695876],[139.0186093,36.0695976],[139.0186349,36.0696273],[139.0186605,36.0696543],[139.0186812,36.0696814],[139.0186978,36.0697076],[139.0187097,36.0697308],[139.0187138,36.0697344],[139.018714,36.0697346],[139.0187329,36.0696877],[139.0187489,36.0696489],[139.0187775,36.069576],[139.0187902,36.0695454],[139.0187696,36.069523],[139.018743,36.0695025],[139.0187322,36.0694956],[139.0187204,36.0694884],[139.0187067,36.06948],[139.0186814,36.0694638],[139.0186773,36.0694622],[139.018658,36.0694547],[139.018605,36.0694358],[139.0185882,36.0694299]]],[[[139.0125,36.06666666666667],[139.0125,36.07125510088495],[139.0125264,36.071261],[139.0126205,36.0712781],[139.0126249,36.0712788],[139.0126253,36.0712789],[139.0127243,36.0712922],[139.0128002,36.0713006],[139.0128567,36.0713052],[139.0129174,36.0713093],[139.0129178,36.0713093],[139.0129794,36.0713117],[139.0130309,36.0713105],[139.0130312,36.0713105],[139.0130837,36.0713034],[139.013084,36.0713033],[139.013177,36.0712846],[139.013255,36.0712709],[139.0133419,36.0712561],[139.0134235,36.0712461],[139.013524,36.0712357],[139.0136167,36.0712257],[139.013617,36.0712257],[139.0136835,36.071219],[139.0137835,36.0712089],[139.0137839,36.0712089],[139.0138589,36.0711992],[139.0139364,36.0711837],[139.0140137,36.0711648],[139.01414,36.0711233],[139.0141996,36.0711038],[139.0142664,36.0710864],[139.0142735,36.0710846],[139.0142893,36.0710821],[139.014317,36.0710778],[139.0143715,36.0710724],[139.0143719,36.0710724],[139.0144275,36.071076],[139.0144278,36.071076],[139.0144765,36.0710843],[139.014515,36.0710991],[139.0145707,36.0711268],[139.0145734,36.0711282],[139.01461,36.0711485],[139.0146356,36.0711604],[139.0146613,36.0711591],[139.0146754,36.0711504],[139.0146819,36.0711462],[139.0146929,36.0711223],[139.0146976,36.071103],[139.0146991,36.0710808],[139.0146946,36.0710632],[139.0146832,36.0710492],[139.0146676,36.0710409],[139.0146673,36.0710408],[139.0146426,36.0710306],[139.0146423,36.0710304],[139.0146187,36.0710238],[139.014552,36.0710099],[139.0144399,36.0709978],[139.0143795,36.0709951],[139.0143304,36.0709909],[139.0143301,36.0709908],[139.0142399,36.0709753],[139.0142396,36.0709752],[139.0140945,36.0709403],[139.0140942,36.0709403],[139.0140844,36.0709382],[139.0139006,36.0708996],[139.0138836,36.070896],[139.0138108,36.0708809],[139.0137523,36.0708733],[139.013694,36.0708724],[139.0136881,36.0708728],[139.0136329,36.0708768],[139.0135327,36.0708901],[139.0135323,36.0708901],[139.0135257,36.070891],[139.0135243,36.0708912],[139.0134736,36.0708973],[139.0134535,36.0708986],[139.0134075,36.0709015],[139.0134072,36.0709015],[139.0133487,36.0709039],[139.0132622,36.0709068],[139.0132619,36.0709068],[139.0132315,36.0709087],[139.01323,36.0709088],[139.013145,36.0709143],[139.0130226,36.0709266],[139.0129375,36.0709385],[139.0129353,36.0709387],[139.0128135,36.0709551],[139.0127626,36.0709618],[139.0127105,36.0709616],[139.0126623,36.0709481],[139.0126177,36.070921],[139.0125858,36.0708902],[139.0125597,36.0708438],[139.0125536,36.0708162],[139.0125614,36.0707851],[139.0125926,36.070751],[139.0126349,36.0707249],[139.0126824,36.0707147],[139.0127228,36.0707175],[139.0127232,36.0707175],[139.0127694,36.0707367],[139.0128083,36.0707502],[139.012815,36.0707526],[139.0128153,36.0707526],[139.012844,36.0707584],[139.0128655,36.0707627],[139.0128658,36.0707628],[139.0129309,36.0707658],[139.0129621,36.070765],[139.0129908,36.0707643],[139.0130308,36.0707621],[139.0130312,36.070762],[139.0130867,36.070756],[139.0131344,36.0707455],[139.013166,36.0707337],[139.0132032,36.0707112],[139.0132445,36.0706755],[139.0133166,36.0706055],[139.0133563,36.0705627],[139.0134016,36.0705113],[139.0134023,36.0705103],[139.0134403,36.0704556],[139.0134845,36.0703873],[139.0135199,36.0703416],[139.0135632,36.0703142],[139.013622,36.0703015],[139.0136811,36.0702994],[139.0137283,36.0702978],[139.0137333,36.0702977],[139.0137543,36.070297],[139.0138378,36.0702999],[139.0139051,36.0703156],[139.0139757,36.070344],[139.0140086,36.0703603],[139.0140287,36.0703702],[139.0140788,36.0703946],[139.0141123,36.0704069],[139.014153,36.0704177],[139.0141918,36.0704246],[139.0142047,36.0704269],[139.0142051,36.070427],[139.0143247,36.0704349],[139.0144807,36.0704364],[139.0146955,36.0704311],[139.0148718,36.0704248],[139.014957,36.0704246],[139.0149573,36.0704247],[139.015044,36.0704387],[139.0151114,36.0704611],[139.0151461,36.0704726],[139.0152177,36.0704974],[139.0152212,36.0704986],[139.0152216,36.0704987],[139.0152859,36.070513],[139.0153689,36.0705273],[139.0153693,36.0705273],[139.0154452,36.0705322],[139.0154457,36.0705322],[139.0154461,36.0705322],[139.0155076,36.0705313],[139.0155142,36.0705312],[139.0155145,36.0705311],[139.015521,36.07053],[139.0155978,36.0705164],[139.015689,36.0704928],[139.0157551,36.0704777],[139.0158178,36.0704708],[139.0158185,36.0704708],[139.0158213,36.0704708],[139.0158702,36.0704717],[139.0159248,36.0704817],[139.0159805,36.0705027],[139.0160043,36.0705154],[139.0160378,36.0705336],[139.0160866,36.0705584],[139.0161302,36.0705787],[139.0161551,36.0705904],[139.016216,36.0706148],[139.0162418,36.0706215],[139.0162793,36.0706312],[139.0163399,36.0706372],[139.0164114,36.070641],[139.0164516,36.0706439],[139.0164742,36.0706455],[139.0164745,36.0706456],[139.0165118,36.0706528],[139.0165948,36.0706729],[139.0166483,36.0706865],[139.0166782,36.0706907],[139.0167183,36.0706947],[139.0167399,36.0706934],[139.0167666,36.0706859],[139.016767,36.0706858],[139.0167774,36.0706799],[139.0167812,36.0706779],[139.0167891,36.0706653],[139.0167943,36.0706426],[139.0167936,36.0706278],[139.0167877,36.070608],[139.0167718,36.0705848],[139.0167494,36.0705729],[139.016749,36.0705728],[139.016723,36.070566],[139.0166694,36.0705613],[139.0166249,36.070553],[139.016597,36.0705419],[139.0165607,36.0705263],[139.0165366,36.070511],[139.0165102,36.0704922],[139.0164877,36.0704716],[139.0164559,36.0704407],[139.0164259,36.0704098],[139.0164,36.0703829],[139.0163804,36.0703553],[139.0163726,36.070336],[139.0163661,36.0703177],[139.0163605,36.0702921],[139.0163598,36.0702675],[139.0163606,36.0702423],[139.0163642,36.0702067],[139.0163694,36.0701451],[139.0163709,36.0701093],[139.0163679,36.0700867],[139.0163602,36.0700682],[139.016335,36.0700332],[139.0162501,36.0699218],[139.0162491,36.0699209],[139.0161793,36.069851],[139.0161483,36.0698313],[139.0161142,36.0698159],[139.0161139,36.0698159],[139.01608,36.0698087],[139.0160476,36.0698085],[139.0160221,36.0698124],[139.0160218,36.0698125],[139.016008,36.0698154],[139.0159962,36.0698179],[139.0159672,36.0698288],[139.0159362,36.0698451],[139.0158959,36.0698716],[139.0158599,36.0698962],[139.0158402,36.0699081],[139.0158174,36.0699216],[139.0157642,36.0699494],[139.0157145,36.0699671],[139.0157132,36.0699676],[139.0157128,36.0699677],[139.0156667,36.0699739],[139.015625,36.0699718],[139.0155739,36.0699548],[139.0155364,36.0699243],[139.0154851,36.0698804],[139.0154436,36.0698521],[139.0154,36.0698318],[139.0153411,36.0698192],[139.0153407,36.0698192],[139.0152742,36.0698188],[139.0150669,36.0698331],[139.0150666,36.0698331],[139.0149638,36.0698365],[139.0148928,36.0698354],[139.0148409,36.0698253],[139.0147881,36.0698107],[139.0147342,36.0697926],[139.014697,36.069773],[139.0146734,36.0697589],[139.014636,36.0697323],[139.0146046,36.0696977],[139.0145822,36.0696383],[139.0145773,36.0695914],[139.0145763,36.0695824],[139.014588,36.0695321],[139.0146158,36.069477],[139.0146483,36.0694539],[139.0146952,36.0694394],[139.0147471,36.0694319],[139.0147475,36.0694319],[139.0147998,36.0694301],[139.0148529,36.0694233],[139.0149027,36.0694096],[139.0149631,36.0693847],[139.0150523,36.0693281],[139.0150677,36.0693211],[139.0150978,36.0693075],[139.0151585,36.0693009],[139.0152297,36.069322],[139.01523,36.0693221],[139.0152659,36.0693588],[139.0152766,36.0693756],[139.0153364,36.0694808],[139.015386,36.0695544],[139.0154127,36.0695755],[139.0154276,36.069581],[139.0154471,36.069588],[139.0154475,36.0695881],[139.0154919,36.0695936],[139.01555,36.069594],[139.0156034,36.0695862],[139.0156453,36.0695735],[139.0157009,36.0695443],[139.0157808,36.0694998],[139.0158495,36.0694589],[139.0158975,36.0694363],[139.0159602,36.0694146],[139.016026,36.0693953],[139.0160599,36.0693813],[139.0160906,36.0693643],[139.0161273,36.0693369],[139.0161992,36.0692813],[139.0162475,36.0692588],[139.0162559,36.0692564],[139.0163126,36.0692407],[139.0163336,36.0692406],[139.0163751,36.0692404],[139.0164312,36.0692512],[139.0164708,36.0692694],[139.0164747,36.0692712],[139.0164779,36.0692726],[139.0165078,36.0692864],[139.0165841,36.0693162],[139.0166739,36.0693416],[139.0166743,36.0693417],[139.0167499,36.0693549],[139.0168087,36.0693617],[139.0168502,36.069361],[139.0168865,36.0693558],[139.016892,36.0693534],[139.0168934,36.0693527],[139.0168977,36.0693509],[139.0169761,36.0693165],[139.0170198,36.0693098],[139.0170612,36.0693079],[139.0170959,36.0693169],[139.0171171,36.0693277],[139.0171392,36.0693429],[139.0171672,36.069362],[139.0172802,36.0694352],[139.0173296,36.0694624],[139.0173615,36.0694764],[139.0174641,36.0694998],[139.0175371,36.0695108],[139.017617,36.0695171],[139.0176243,36.0695176],[139.0176485,36.069518],[139.017681,36.0695183],[139.0177296,36.0695162],[139.0177299,36.0695162],[139.0178231,36.0695035],[139.0178531,36.0694951],[139.0178971,36.0694793],[139.0179065,36.0694758],[139.0179146,36.069472],[139.0179505,36.0694549],[139.0180319,36.069412],[139.018101,36.0693765],[139.0181645,36.069342],[139.0182035,36.0693209],[139.0182378,36.0693087],[139.0182539,36.0693054],[139.0182604,36.0693041],[139.0183108,36.0693049],[139.0183759,36.0693225],[139.0183783,36.0693232],[139.0183885,36.0693272],[139.0184146,36.0693376],[139.0184182,36.069339],[139.018443,36.0693489],[139.0184861,36.069366],[139.0185995,36.0694093],[139.0186,36.0694095],[139.0186694,36.0694341],[139.0186697,36.0694343],[139.0186723,36.0694352],[139.0186963,36.0694447],[139.0187235,36.0694621],[139.018736,36.0694696],[139.0187513,36.0694771],[139.0187914,36.0694864],[139.0188036,36.0694892],[139.0188141,36.06949],[139.018823,36.0694645],[139.0188272,36.069366],[139.0188279,36.0693285],[139.0188296,36.0693126],[139.0188404,36.0692727],[139.0188573,36.0692206],[139.0188714,36.0691908],[139.0188945,36.0691629],[139.0188667,36.0691347],[139.0188761,36.0691285],[139.0188804,36.0691258],[139.0188834,36.0691239],[139.0188902,36.0691196],[139.0188932,36.0691225],[139.0189179,36.0691476],[139.0189366,36.0691353],[139.0190061,36.069089],[139.0190533,36.0690628],[139.0191246,36.0690277],[139.0191524,36.0690101],[139.0191787,36.0689934],[139.0192022,36.0689762],[139.0192243,36.0689567],[139.0192445,36.0689396],[139.0192558,36.0689321],[139.0192794,36.0689256],[139.0193327,36.0689142],[139.0193331,36.0689141],[139.0193711,36.0689056],[139.0193906,36.0688998],[139.0194128,36.0688877],[139.0194453,36.068867],[139.0194851,36.0688322],[139.0195225,36.068777],[139.0195541,36.0687094],[139.0195664,36.068651],[139.0195677,36.0686245],[139.0195662,36.0686005],[139.0195228,36.0684719],[139.0195015,36.0684035],[139.0194874,36.0683467],[139.0194802,36.0683146],[139.0194787,36.0682801],[139.019484,36.0682582],[139.019494,36.0682423],[139.0195084,36.0682264],[139.0195286,36.0682071],[139.0195492,36.0681968],[139.0195798,36.0681894],[139.019597,36.0681871],[139.0196979,36.0681736],[139.0197614,36.0681635],[139.0198659,36.0681474],[139.0199619,36.0681375],[139.0200817,36.0681136],[139.0200848,36.068113],[139.0200865,36.0681125],[139.020152,36.0680913],[139.0202181,36.068052],[139.0202896,36.0680005],[139.0203698,36.0679336],[139.0204337,36.0678877],[139.0204658,36.0678759],[139.0205606,36.0678527],[139.0205769,36.0678487],[139.0206806,36.0678288],[139.0206809,36.0678287],[139.0208155,36.0678056],[139.0210346,36.067768],[139.0210349,36.0677679],[139.0211215,36.0677536],[139.0211219,36.0677536],[139.0212287,36.0677359],[139.021347,36.0677192],[139.0214343,36.0677128],[139.0215284,36.0677091],[139.0215525,36.0677081],[139.0216258,36.067709],[139.0216373,36.0677092],[139.0216879,36.0677119],[139.0217005,36.0677126],[139.0217801,36.0677248],[139.0218639,36.0677477],[139.0218643,36.0677478],[139.0219289,36.067765],[139.0219978,36.0677869],[139.0219982,36.067787],[139.0220775,36.0678119],[139.0221844,36.0678426],[139.0222812,36.0678706],[139.0223247,36.0678828],[139.0223427,36.0678878],[139.0223569,36.0678918],[139.0223572,36.0678919],[139.022381,36.0678986],[139.0224905,36.067926],[139.0226139,36.067947],[139.022705,36.0679657],[139.0227746,36.0679822],[139.0228632,36.0680109],[139.0229378,36.068033],[139.0229442,36.0680346],[139.0230121,36.0680521],[139.0230891,36.0680685],[139.023229,36.0680897],[139.0234403,36.0681217],[139.0236992,36.0681534],[139.0238203,36.0681623],[139.0239244,36.0681681],[139.0239631,36.0681667],[139.0239634,36.0681667],[139.0239913,36.0681631],[139.0239917,36.0681631],[139.0240185,36.0681575],[139.0240188,36.0681574],[139.0240368,36.0681535],[139.024053,36.06815],[139.024054,36.0681498],[139.0240568,36.0681487],[139.0240572,36.0681486],[139.0241045,36.0681309],[139.0241048,36.0681308],[139.0241097,36.0681293],[139.0241222,36.0681252],[139.0241742,36.0681086],[139.0241745,36.0681085],[139.0241879,36.068106],[139.0242059,36.0681027],[139.0242626,36.0681029],[139.0243477,36.0681121],[139.0243582,36.0681132],[139.0244254,36.0681196],[139.0244466,36.0681215],[139.0244838,36.0681247],[139.0245521,36.0681292],[139.0246175,36.0681341],[139.0246631,36.0681372],[139.0247725,36.0681405],[139.0247991,36.0681407],[139.0248363,36.0681409],[139.0249117,36.0681398],[139.0249469,36.0681394],[139.0249616,36.068141],[139.024996,36.0681449],[139.025,36.06814563743017],[139.025,36.06666666666667],[139.0125,36.06666666666667]]]]},"properties":{"layer":"landuse","class_code":"215","class_label":"道路用地（道路、駅前広場、私有地内に存在する沿道用途の「私道」または、私有地の一部分であるものの公共の通行に供されている土地の部分）"}}]}