{"type":"FeatureCollection","properties":{"mesh_code":"54390071","source":"PLATEAU秩父市2025","layer":"landuse"},"features":[{"type":"Feature","id":"luse_e3d59f68-c7d7-4aa4-8b19-ea9d0cab0d9f","geometry":{"type":"Polygon","coordinates":[[[139.0140818,36.0607608],[139.0138715,36.0606807],[139.0137514,36.0606005],[139.0135496,36.0605018],[139.0133145,36.0603454],[139.0134347,36.0602502],[139.0136583,36.0604146],[139.0137592,36.0603014],[139.0138401,36.0602106],[139.0139692,36.0601487],[139.014135,36.0602327],[139.0142165,36.0602577],[139.0142817,36.0602911],[139.014362,36.0603389],[139.014408,36.0604177],[139.0143977,36.0605057],[139.0143432,36.0605446],[139.0142956,36.0605558],[139.0142022,36.060532],[139.0140818,36.0607608]]]},"properties":{"layer":"landuse","class_code":"202","class_label":"畑（畑、樹園地、採草地、養鶏（牛・豚）場）"}},{"type":"Feature","id":"luse_1d8a0bc4-c03d-4d2d-80bd-e8fd491929ee","geometry":{"type":"Polygon","coordinates":[[[139.0129271,36.0605722],[139.0129569,36.060603],[139.0129475,36.0606743],[139.0127377,36.0610422],[139.0127255,36.0610632],[139.0126848,36.0610881],[139.0125637,36.0610567],[139.0125,36.06102213604309],[139.0125,36.060650199640286],[139.0125418,36.0606399],[139.0126358,36.0606343],[139.0126655,36.0606326],[139.0127637,36.0605831],[139.0128911,36.0605486],[139.0129271,36.0605722]]]},"properties":{"layer":"landuse","class_code":"202","class_label":"畑（畑、樹園地、採草地、養鶏（牛・豚）場）"}},{"type":"Feature","id":"luse_f688a5d6-c84d-4b6b-97fd-14d0f8a8a511","geometry":{"type":"Polygon","coordinates":[[[139.0233433,36.0643326],[139.0231047,36.0643396],[139.0228923,36.0643486],[139.0229066,36.0644157],[139.0228335,36.0644779],[139.0228048,36.0644858],[139.022637,36.0644861],[139.0224863,36.0644619],[139.0224219,36.0644405],[139.0223699,36.064416],[139.0223168,36.0643863],[139.0222892,36.0643585],[139.0222782,36.0643245],[139.0222641,36.0642807],[139.0222689,36.0642247],[139.0223179,36.0641941],[139.0223623,36.0641649],[139.0224414,36.0641811],[139.022501,36.0641614],[139.022557,36.0641596],[139.0227215,36.064206],[139.0228013,36.0642111],[139.0228499,36.0642094],[139.0230548,36.0641692],[139.0231448,36.0641793],[139.0233534,36.0641925],[139.0236028,36.0642533],[139.0236003,36.0642542],[139.0235807,36.0642608],[139.0235566,36.0642678],[139.0235371,36.0642718],[139.0235367,36.0642718],[139.0234513,36.0642883],[139.0234215,36.0642935],[139.0233682,36.0643152],[139.0233433,36.0643326]]]},"properties":{"layer":"landuse","class_code":"202","class_label":"畑（畑、樹園地、採草地、養鶏（牛・豚）場）"}},{"type":"Feature","id":"luse_6ea9d83c-6fed-4fca-b2fe-3c6599d84f37","geometry":{"type":"Polygon","coordinates":[[[139.025,36.064446608333334],[139.0249692,36.0644489],[139.0249512,36.064448],[139.024932,36.0644008],[139.024937,36.0643933],[139.025,36.06437394363031],[139.025,36.064446608333334]]]},"properties":{"layer":"landuse","class_code":"202","class_label":"畑（畑、樹園地、採草地、養鶏（牛・豚）場）"}},{"type":"Feature","id":"luse_29d9915d-8406-4f90-b847-18af74e93548","geometry":{"type":"Polygon","coordinates":[[[139.0239829,36.0646975],[139.0238598,36.0648036],[139.0238089,36.0647668],[139.0237959,36.0647515],[139.0238377,36.0647041],[139.0238642,36.0646739],[139.0238095,36.0646011],[139.0238298,36.0645538],[139.0238567,36.0645105],[139.0239431,36.0644268],[139.0239565,36.0643801],[139.023961,36.0643576],[139.0240931,36.0643071],[139.0241117,36.0642759],[139.0241603,36.0642993],[139.0241671,36.0643026],[139.0242274,36.0643096],[139.0242277,36.0643096],[139.0242767,36.064306],[139.0243086,36.0643007],[139.024309,36.0643007],[139.0243102,36.0643005],[139.0244139,36.0643568],[139.0244406,36.0643624],[139.0244779,36.0645134],[139.0244672,36.0645534],[139.0244029,36.0645798],[139.0242037,36.0646099],[139.0241326,36.064675],[139.0240749,36.0646674],[139.0239829,36.0646975]]]},"properties":{"layer":"landuse","class_code":"202","class_label":"畑（畑、樹園地、採草地、養鶏（牛・豚）場）"}},{"type":"Feature","id":"luse_966c7dba-540c-4498-a646-5c71cab9d53f","geometry":{"type":"Polygon","coordinates":[[[139.025,36.065912604000026],[139.0249754,36.065837],[139.0249767,36.0657723],[139.025,36.065742645454534],[139.025,36.065912604000026]]]},"properties":{"layer":"landuse","class_code":"202","class_label":"畑（畑、樹園地、採草地、養鶏（牛・豚）場）"}},{"type":"Feature","id":"luse_3b1e9504-f08b-496f-981a-465628604192","geometry":{"type":"MultiPolygon","coordinates":[[[[139.0125,36.06666666666667],[139.0125,36.05833333333333],[139.025,36.05833333333333],[139.025,36.06422461716738],[139.0249062,36.0642532],[139.0249059,36.0642533],[139.0248853,36.0642578],[139.0248112,36.064274],[139.024741,36.064274],[139.0246705,36.0642615],[139.0246032,36.0642425],[139.0245407,36.064233],[139.0245182,36.0642321],[139.0245093,36.0642317],[139.0245072,36.0642316],[139.0245022,36.0642315],[139.0244751,36.0642346],[139.0244636,36.064236],[139.0244433,36.0641703],[139.0242576,36.0642059],[139.0243036,36.0641246],[139.0243365,36.0639616],[139.0242775,36.0639186],[139.0241779,36.0639904],[139.0240131,36.0640347],[139.0240011,36.0640564],[139.0239857,36.0641846],[139.0238962,36.0641888],[139.0238598,36.0641899],[139.0238225,36.0641921],[139.0237761,36.064199],[139.023754,36.0642054],[139.0237323,36.0642117],[139.0236394,36.064241],[139.0236028,36.0642533],[139.0233534,36.0641925],[139.0231448,36.0641793],[139.0230548,36.0641692],[139.0228499,36.0642094],[139.0228013,36.0642111],[139.0227215,36.064206],[139.022557,36.0641596],[139.022501,36.0641614],[139.0224414,36.0641811],[139.0223623,36.0641649],[139.0223179,36.0641941],[139.0222689,36.0642247],[139.0222641,36.0642807],[139.0222782,36.0643245],[139.0222892,36.0643585],[139.0223168,36.0643863],[139.0223699,36.064416],[139.0224219,36.0644405],[139.0224863,36.0644619],[139.022637,36.0644861],[139.0226336,36.0646308],[139.022631,36.0647897],[139.023014,36.0647941],[139.0232156,36.0646866],[139.0232467,36.0646714],[139.0232552,36.064647],[139.0232675,36.0646116],[139.0233021,36.0645843],[139.0233443,36.0643676],[139.0233607,36.0643442],[139.0233806,36.0643303],[139.0234287,36.0643107],[139.023429,36.0643106],[139.0234561,36.0643059],[139.0235423,36.0642893],[139.023563,36.064285],[139.0235887,36.0642776],[139.0236184,36.0642676],[139.0236476,36.0642577],[139.0237399,36.0642287],[139.0237402,36.0642286],[139.0237818,36.0642165],[139.0238252,36.06421],[139.0238593,36.064208],[139.0238936,36.0642109],[139.023976,36.0642296],[139.0240043,36.06425],[139.0240425,36.064257],[139.0240602,36.0642619],[139.0241117,36.0642759],[139.0240931,36.0643071],[139.023961,36.0643576],[139.0239565,36.0643801],[139.0239431,36.0644268],[139.0238567,36.0645105],[139.0238298,36.0645538],[139.0238095,36.0646011],[139.0238642,36.0646739],[139.0238377,36.0647041],[139.0237959,36.0647515],[139.0238089,36.0647668],[139.0238598,36.0648036],[139.0239829,36.0646975],[139.0240749,36.0646674],[139.0241326,36.064675],[139.0242037,36.0646099],[139.0244029,36.0645798],[139.0244672,36.0645534],[139.0244779,36.0645134],[139.0244406,36.0643624],[139.0244139,36.0643568],[139.0243102,36.0643005],[139.0243144,36.0642998],[139.0244324,36.0642806],[139.0245048,36.0642722],[139.0245351,36.0642734],[139.0245905,36.0642818],[139.0246572,36.0643006],[139.0246978,36.0643078],[139.0247358,36.0643145],[139.0248179,36.0643146],[139.0249215,36.0642919],[139.025,36.06426806479239],[139.025,36.06437394363031],[139.024937,36.0643933],[139.024932,36.0644008],[139.0249512,36.064448],[139.0249692,36.0644489],[139.025,36.064446608333334],[139.025,36.065742645454534],[139.0249767,36.0657723],[139.0249754,36.065837],[139.025,36.065912604000026],[139.025,36.06666666666667],[139.0125,36.06666666666667]]],[[[139.0127637,36.0605831],[139.0126655,36.0606326],[139.0126358,36.0606343],[139.0125418,36.0606399],[139.0125,36.060650199640286],[139.0125,36.06102213604309],[139.0125637,36.0610567],[139.0126848,36.0610881],[139.0127255,36.0610632],[139.0127377,36.0610422],[139.0129475,36.0606743],[139.0129569,36.060603],[139.0129271,36.0605722],[139.0128911,36.0605486],[139.0127637,36.0605831]]],[[[139.0137514,36.0606005],[139.0138715,36.0606807],[139.0140818,36.0607608],[139.0142022,36.060532],[139.0142956,36.0605558],[139.0143432,36.0605446],[139.0143977,36.0605057],[139.014408,36.0604177],[139.014362,36.0603389],[139.0142817,36.0602911],[139.0142165,36.0602577],[139.014135,36.0602327],[139.0139692,36.0601487],[139.0138401,36.0602106],[139.0137592,36.0603014],[139.0136583,36.0604146],[139.0134347,36.0602502],[139.0133145,36.0603454],[139.0135496,36.0605018],[139.0137514,36.0606005]]]]},"properties":{"layer":"landuse","class_code":"203","class_label":"山林（樹林地）"}},{"type":"Feature","id":"luse_4588280c-4795-4ab8-b049-e9394571751c","geometry":{"type":"Polygon","coordinates":[[[139.0244636,36.064236],[139.0244226,36.0642408],[139.0242696,36.0642657],[139.024229,36.0642688],[139.024184,36.0642635],[139.0241396,36.0642421],[139.0240771,36.0642042],[139.0240397,36.064192],[139.0239857,36.0641846],[139.0240011,36.0640564],[139.0240131,36.0640347],[139.0241779,36.0639904],[139.0242775,36.0639186],[139.0243365,36.0639616],[139.0243036,36.0641246],[139.0242576,36.0642059],[139.0244433,36.0641703],[139.0244636,36.064236]]]},"properties":{"layer":"landuse","class_code":"211","class_label":"住宅用地（住宅、共同住宅、店舗等併用住宅、店舗等併用共同住宅、作業所併用住宅）"}},{"type":"Feature","id":"luse_d88ad538-110e-40d9-81c5-4260dd227a77","geometry":{"type":"Polygon","coordinates":[[[139.0233249,36.0643587],[139.0233443,36.0643676],[139.0233021,36.0645843],[139.0232675,36.0646116],[139.0232552,36.064647],[139.0232467,36.0646714],[139.0232156,36.0646866],[139.023014,36.0647941],[139.022631,36.0647897],[139.0226336,36.0646308],[139.022637,36.0644861],[139.0228048,36.0644858],[139.0228335,36.0644779],[139.0229066,36.0644157],[139.0228923,36.0643486],[139.0231047,36.0643396],[139.0233433,36.0643326],[139.0233249,36.0643587]]]},"properties":{"layer":"landuse","class_code":"211","class_label":"住宅用地（住宅、共同住宅、店舗等併用住宅、店舗等併用共同住宅、作業所併用住宅）"}},{"type":"Feature","id":"luse_ceced96a-6f6f-441f-8972-6ee9d5cd897b","geometry":{"type":"MultiPolygon","coordinates":[[[[139.0125,36.06666666666667],[139.0125,36.05833333333333],[139.025,36.05833333333333],[139.025,36.06666666666667],[139.0125,36.06666666666667]]],[[[139.0125,36.05833333333333],[139.0125,36.06666666666667],[139.025,36.06666666666667],[139.025,36.06426806479239],[139.0249215,36.0642919],[139.0248179,36.0643146],[139.0247358,36.0643145],[139.0246978,36.0643078],[139.0246572,36.0643006],[139.0245905,36.0642818],[139.0245351,36.0642734],[139.0245048,36.0642722],[139.0244324,36.0642806],[139.0243144,36.0642998],[139.0243102,36.0643005],[139.024309,36.0643007],[139.0243086,36.0643007],[139.0242767,36.064306],[139.0242277,36.0643096],[139.0242274,36.0643096],[139.0241671,36.0643026],[139.0241603,36.0642993],[139.0241117,36.0642759],[139.0240602,36.0642619],[139.0240425,36.064257],[139.0240043,36.06425],[139.023976,36.0642296],[139.0238936,36.0642109],[139.0238593,36.064208],[139.0238252,36.06421],[139.0237818,36.0642165],[139.0237402,36.0642286],[139.0237399,36.0642287],[139.0236476,36.0642577],[139.0236184,36.0642676],[139.0235887,36.0642776],[139.023563,36.064285],[139.0235423,36.0642893],[139.0234561,36.0643059],[139.023429,36.0643106],[139.0234287,36.0643107],[139.0233806,36.0643303],[139.0233607,36.0643442],[139.0233443,36.0643676],[139.0233249,36.0643587],[139.0233433,36.0643326],[139.0233682,36.0643152],[139.0234215,36.0642935],[139.0234513,36.0642883],[139.0235367,36.0642718],[139.0235371,36.0642718],[139.0235566,36.0642678],[139.0235807,36.0642608],[139.0236003,36.0642542],[139.0236028,36.0642533],[139.0236394,36.064241],[139.0237323,36.0642117],[139.023754,36.0642054],[139.0237761,36.064199],[139.0238225,36.0641921],[139.0238598,36.0641899],[139.0238962,36.0641888],[139.0239857,36.0641846],[139.0240397,36.064192],[139.0240771,36.0642042],[139.0241396,36.0642421],[139.024184,36.0642635],[139.024229,36.0642688],[139.0242696,36.0642657],[139.0244226,36.0642408],[139.0244636,36.064236],[139.0244751,36.0642346],[139.0245022,36.0642315],[139.0245072,36.0642316],[139.0245093,36.0642317],[139.0245182,36.0642321],[139.0245407,36.064233],[139.0246032,36.0642425],[139.0246705,36.0642615],[139.024741,36.064274],[139.0248112,36.064274],[139.0248853,36.0642578],[139.0249059,36.0642533],[139.0249062,36.0642532],[139.025,36.06422461716738],[139.025,36.05833333333333],[139.0125,36.05833333333333]]]]},"properties":{"layer":"landuse","class_code":"215","class_label":"道路用地（道路、駅前広場、私有地内に存在する沿道用途の「私道」または、私有地の一部分であるものの公共の通行に供されている土地の部分）"}}]}