{"type":"FeatureCollection","properties":{"mesh_code":"54390092","source":"PLATEAU秩父市2025","layer":"landuse"},"features":[{"type":"Feature","id":"luse_d6c85c0c-8944-4889-a16d-fc26380ede87","geometry":{"type":"Polygon","coordinates":[[[139.025,36.075],[139.02601421902398,36.075],[139.0259912,36.075022],[139.0257739,36.0751102],[139.025605,36.0751569],[139.0250514,36.0753652],[139.025,36.07538836337662],[139.025,36.075]]]},"properties":{"layer":"landuse","class_code":"203","class_label":"山林（樹林地）"}}]}