{"type":"FeatureCollection","properties":{"mesh_code":"53386788","source":"PLATEAU秩父市2025","layer":"flood"},"features":[{"type":"Feature","id":"fld_6c2caae5-e2c3-46f0-965f-51e9504aa753","geometry":{"type":"MultiPolygon","coordinates":[[[[138.987438,35.907208],[138.987469,35.9071875],[138.9875,35.907208],[138.987438,35.907208]]],[[[138.987438,35.907208],[138.987438,35.907167],[138.987469,35.9071875],[138.987438,35.907208]]],[[[138.987438,35.907167],[138.9875,35.907167],[138.987469,35.9071875],[138.987438,35.907167]]],[[[138.9875,35.907167],[138.9875,35.907208],[138.987469,35.9071875],[138.9875,35.907167]]]]},"properties":{"layer":"flood","class_code":"1","class_label":"0.5m未満","scale_code":"1","scale_label":"L1（計画規模）"}},{"type":"Feature","id":"fld_20a7e728-0ac7-43aa-9105-7a097e5ecb7b","geometry":{"type":"MultiPolygon","coordinates":[[[[138.987344,35.907229],[138.987313,35.907208],[138.987375,35.907208],[138.987344,35.907229]]],[[[138.987344,35.907229],[138.987375,35.907208],[138.987375,35.90725],[138.987344,35.907229]]],[[[138.987344,35.907229],[138.987375,35.90725],[138.987313,35.90725],[138.987344,35.907229]]],[[[138.987344,35.907229],[138.987313,35.90725],[138.987313,35.907208],[138.987344,35.907229]]]]},"properties":{"layer":"flood","class_code":"1","class_label":"0.5m未満","scale_code":"1","scale_label":"L1（計画規模）"}},{"type":"Feature","id":"fld_c53214dd-819a-44e3-bfd7-f0bf9c0850f9","geometry":{"type":"MultiPolygon","coordinates":[[[[138.986875,35.908042],[138.986875,35.908],[138.986906,35.908021],[138.986875,35.908042]]],[[[138.986875,35.908042],[138.986906,35.908021],[138.986937,35.908042],[138.986875,35.908042]]],[[[138.986906,35.908021],[138.986937,35.908],[138.986937,35.908042],[138.986906,35.908021]]],[[[138.986906,35.908021],[138.986875,35.908],[138.986937,35.908],[138.986906,35.908021]]]]},"properties":{"layer":"flood","class_code":"1","class_label":"0.5m未満","scale_code":"1","scale_label":"L1（計画規模）"}},{"type":"Feature","id":"fld_103ff1d6-7135-4c32-8547-7e6e951e55d5","geometry":{"type":"MultiPolygon","coordinates":[[[[138.975,35.907],[138.975063,35.907],[138.9750315,35.907021],[138.975,35.907]]],[[[138.975,35.907],[138.9750315,35.907021],[138.975,35.907042],[138.975,35.907]]],[[[138.975063,35.907042],[138.975,35.907042],[138.9750315,35.907021],[138.975063,35.907042]]],[[[138.975063,35.907042],[138.9750315,35.907021],[138.975063,35.907],[138.975063,35.907042]]]]},"properties":{"layer":"flood","class_code":"1","class_label":"0.5m未満","scale_code":"1","scale_label":"L1（計画規模）"}},{"type":"Feature","id":"fld_63151410-0074-426c-8df5-96e69baf77ac","geometry":{"type":"MultiPolygon","coordinates":[[[[138.986875,35.907417],[138.986875,35.907458],[138.986844,35.9074375],[138.986875,35.907417]]],[[[138.986875,35.907417],[138.986844,35.9074375],[138.986813,35.907417],[138.986875,35.907417]]],[[[138.986875,35.907458],[138.986813,35.907458],[138.986844,35.9074375],[138.986875,35.907458]]],[[[138.986813,35.907417],[138.986844,35.9074375],[138.986813,35.907458],[138.986813,35.907417]]]]},"properties":{"layer":"flood","class_code":"1","class_label":"0.5m未満","scale_code":"1","scale_label":"L1（計画規模）"}},{"type":"Feature","id":"fld_c2121db0-e34d-43bb-9b3e-c50c7f7fafdf","geometry":{"type":"MultiPolygon","coordinates":[[[[138.986719,35.907479],[138.986688,35.9075],[138.986688,35.907458],[138.986719,35.907479]]],[[[138.986719,35.907479],[138.986688,35.907458],[138.98675,35.907458],[138.986719,35.907479]]],[[[138.986719,35.907479],[138.98675,35.907458],[138.98675,35.9075],[138.986719,35.907479]]],[[[138.986719,35.907479],[138.98675,35.9075],[138.986688,35.9075],[138.986719,35.907479]]],[[[138.98675,35.9075],[138.98675,35.907458],[138.9867815,35.907479],[138.98675,35.9075]]],[[[138.98675,35.9075],[138.9867815,35.907479],[138.986813,35.9075],[138.98675,35.9075]]],[[[138.98675,35.907458],[138.986813,35.907458],[138.9867815,35.907479],[138.98675,35.907458]]],[[[138.986813,35.907458],[138.986813,35.9075],[138.9867815,35.907479],[138.986813,35.907458]]]]},"properties":{"layer":"flood","class_code":"1","class_label":"0.5m未満","scale_code":"1","scale_label":"L1（計画規模）"}},{"type":"Feature","id":"fld_75a060b4-d9b5-4707-b081-280dad878042","geometry":{"type":"MultiPolygon","coordinates":[[[[138.986937,35.908083],[138.986937,35.908042],[138.9869685,35.9080625],[138.986937,35.908083]]],[[[138.986937,35.908083],[138.9869685,35.9080625],[138.987,35.908083],[138.986937,35.908083]]],[[[138.9869685,35.9080625],[138.987,35.908042],[138.987,35.908083],[138.9869685,35.9080625]]],[[[138.9869685,35.9080625],[138.986937,35.908042],[138.987,35.908042],[138.9869685,35.9080625]]]]},"properties":{"layer":"flood","class_code":"1","class_label":"0.5m未満","scale_code":"1","scale_label":"L1（計画規模）"}},{"type":"Feature","id":"fld_aeaf8012-c622-4c92-8f9b-1bb7fe92b24f","geometry":{"type":"MultiPolygon","coordinates":[[[[138.987469,35.907146],[138.9875,35.907167],[138.987438,35.907167],[138.987469,35.907146]]],[[[138.987469,35.907146],[138.987438,35.907167],[138.987438,35.907125],[138.987469,35.907146]]],[[[138.987469,35.907146],[138.987438,35.907125],[138.9875,35.907125],[138.987469,35.907146]]],[[[138.987344,35.9071875],[138.987375,35.907208],[138.987313,35.907208],[138.987344,35.9071875]]],[[[138.987344,35.9071875],[138.987313,35.907208],[138.987313,35.907167],[138.987344,35.9071875]]],[[[138.9874065,35.9071875],[138.987375,35.907208],[138.987375,35.907167],[138.9874065,35.9071875]]],[[[138.987344,35.9071875],[138.987313,35.907167],[138.987375,35.907167],[138.987344,35.9071875]]],[[[138.9874065,35.9071875],[138.987438,35.907208],[138.987375,35.907208],[138.9874065,35.9071875]]],[[[138.9874065,35.9071875],[138.987438,35.907167],[138.987438,35.907208],[138.9874065,35.9071875]]],[[[138.987344,35.9071875],[138.987375,35.907167],[138.987375,35.907208],[138.987344,35.9071875]]],[[[138.987469,35.907146],[138.9875,35.907125],[138.9875,35.907167],[138.987469,35.907146]]],[[[138.9874065,35.9071875],[138.987375,35.907167],[138.9874065,35.907146],[138.9874065,35.9071875]]],[[[138.9874065,35.9071875],[138.9874065,35.907146],[138.987438,35.907167],[138.9874065,35.9071875]]],[[[138.9874065,35.907146],[138.987375,35.907125],[138.987438,35.907125],[138.9874065,35.907146]]],[[[138.9874065,35.907146],[138.987438,35.907125],[138.987438,35.907167],[138.9874065,35.907146]]],[[[138.9874065,35.907146],[138.987375,35.907167],[138.987375,35.907125],[138.9874065,35.907146]]]]},"properties":{"layer":"flood","class_code":"2","class_label":"0.5m以上3m未満","scale_code":"1","scale_label":"L1（計画規模）"}},{"type":"Feature","id":"fld_72cb7a95-a2c9-4396-a914-b5370fa5cc47","geometry":{"type":"MultiPolygon","coordinates":[[[[138.98725,35.907208],[138.987313,35.907208],[138.9872815,35.907229],[138.98725,35.907208]]],[[[138.98725,35.907208],[138.9872815,35.907229],[138.98725,35.90725],[138.98725,35.907208]]],[[[138.98725,35.90725],[138.9872815,35.907229],[138.987313,35.90725],[138.98725,35.90725]]],[[[138.9872815,35.907229],[138.987313,35.907208],[138.987313,35.90725],[138.9872815,35.907229]]]]},"properties":{"layer":"flood","class_code":"2","class_label":"0.5m以上3m未満","scale_code":"1","scale_label":"L1（計画規模）"}},{"type":"Feature","id":"fld_0164fd27-9f6a-4ced-9c49-8dd939972439","geometry":{"type":"MultiPolygon","coordinates":[[[[138.98725,35.907292],[138.987188,35.907292],[138.987219,35.907271],[138.98725,35.907292]]],[[[138.98725,35.907292],[138.987219,35.907271],[138.98725,35.90725],[138.98725,35.907292]]],[[[138.987188,35.907292],[138.987188,35.90725],[138.987219,35.907271],[138.987188,35.907292]]],[[[138.987188,35.90725],[138.98725,35.90725],[138.987219,35.907271],[138.987188,35.90725]]]]},"properties":{"layer":"flood","class_code":"2","class_label":"0.5m以上3m未満","scale_code":"1","scale_label":"L1（計画規模）"}},{"type":"Feature","id":"fld_62300ea0-a513-4b1c-a176-d19c966ed704","geometry":{"type":"MultiPolygon","coordinates":[[[[138.9867815,35.907521],[138.98675,35.9075],[138.986813,35.9075],[138.9867815,35.907521]]],[[[138.9867815,35.907521],[138.986813,35.9075],[138.986813,35.907542],[138.9867815,35.907521]]],[[[138.986719,35.907604],[138.98675,35.907625],[138.986688,35.907625],[138.986719,35.907604]]],[[[138.986688,35.9075],[138.98675,35.9075],[138.986719,35.907521],[138.986688,35.9075]]],[[[138.986688,35.9075],[138.986719,35.907521],[138.986688,35.907542],[138.986688,35.9075]]],[[[138.986719,35.907604],[138.986688,35.907625],[138.986688,35.907583],[138.986719,35.907604]]],[[[138.986719,35.907604],[138.986688,35.907583],[138.986719,35.9075625],[138.986719,35.907604]]],[[[138.986719,35.907604],[138.986719,35.9075625],[138.98675,35.907583],[138.986719,35.907604]]],[[[138.986719,35.907604],[138.98675,35.907583],[138.98675,35.907625],[138.986719,35.907604]]],[[[138.986719,35.9075625],[138.986719,35.907521],[138.98675,35.907542],[138.986719,35.9075625]]],[[[138.986719,35.9075625],[138.98675,35.907542],[138.98675,35.907583],[138.986719,35.9075625]]],[[[138.986719,35.9075625],[138.986688,35.907583],[138.986688,35.907542],[138.986719,35.9075625]]],[[[138.986719,35.9075625],[138.986688,35.907542],[138.986719,35.907521],[138.986719,35.9075625]]],[[[138.986719,35.907521],[138.98675,35.9075],[138.98675,35.907542],[138.986719,35.907521]]],[[[138.9867815,35.907521],[138.986813,35.907542],[138.98675,35.907542],[138.9867815,35.907521]]],[[[138.9867815,35.907521],[138.98675,35.907542],[138.98675,35.9075],[138.9867815,35.907521]]]]},"properties":{"layer":"flood","class_code":"2","class_label":"0.5m以上3m未満","scale_code":"1","scale_label":"L1（計画規模）"}},{"type":"Feature","id":"fld_60a33676-400d-4498-be4e-1d97f1e184f3","geometry":{"type":"MultiPolygon","coordinates":[[[[138.987031,35.908146],[138.987062,35.908125],[138.987062,35.908167],[138.987031,35.908146]]],[[[138.987031,35.908146],[138.987,35.908125],[138.987062,35.908125],[138.987031,35.908146]]],[[[138.987031,35.908146],[138.987,35.908167],[138.987,35.908125],[138.987031,35.908146]]],[[[138.987031,35.908146],[138.987062,35.908167],[138.987,35.908167],[138.987031,35.908146]]]]},"properties":{"layer":"flood","class_code":"2","class_label":"0.5m以上3m未満","scale_code":"1","scale_label":"L1（計画規模）"}},{"type":"Feature","id":"fld_a5bff124-7456-4309-8274-33417d2c0283","geometry":{"type":"MultiPolygon","coordinates":[[[[138.987313,35.908333],[138.987313,35.908292],[138.987344,35.9083125],[138.987313,35.908333]]],[[[138.987313,35.908333],[138.987344,35.9083125],[138.987375,35.908333],[138.987313,35.908333]]],[[[138.9874065,35.9083125],[138.987375,35.908292],[138.987438,35.908292],[138.9874065,35.9083125]]],[[[138.9874065,35.9083125],[138.987438,35.908292],[138.987438,35.908333],[138.9874065,35.9083125]]],[[[138.9874065,35.9083125],[138.987438,35.908333],[138.987375,35.908333],[138.9874065,35.9083125]]],[[[138.9874065,35.9083125],[138.987375,35.908333],[138.987375,35.908292],[138.9874065,35.9083125]]],[[[138.987375,35.908333],[138.987344,35.9083125],[138.987375,35.908292],[138.987375,35.908333]]],[[[138.987313,35.908292],[138.987375,35.908292],[138.987344,35.9083125],[138.987313,35.908292]]]]},"properties":{"layer":"flood","class_code":"2","class_label":"0.5m以上3m未満","scale_code":"1","scale_label":"L1（計画規模）"}},{"type":"Feature","id":"fld_17fa54c4-7d6e-43d8-a1eb-02fd3b72f7d9","geometry":{"type":"MultiPolygon","coordinates":[[[[138.975375,35.907833],[138.975375,35.907875],[138.9753435,35.907854],[138.975375,35.907833]]],[[[138.975375,35.907833],[138.9753435,35.907854],[138.9753435,35.9078125],[138.975375,35.907833]]],[[[138.975375,35.907833],[138.9753435,35.9078125],[138.975375,35.907792],[138.975375,35.907833]]],[[[138.975312,35.907792],[138.975375,35.907792],[138.9753435,35.9078125],[138.975312,35.907792]]],[[[138.975312,35.907792],[138.9753435,35.9078125],[138.975312,35.907833],[138.975312,35.907792]]],[[[138.975312,35.907833],[138.9753435,35.907854],[138.975312,35.907875],[138.975312,35.907833]]],[[[138.975375,35.907875],[138.975312,35.907875],[138.9753435,35.907854],[138.975375,35.907875]]],[[[138.975312,35.907833],[138.9753435,35.9078125],[138.9753435,35.907854],[138.975312,35.907833]]]]},"properties":{"layer":"flood","class_code":"1","class_label":"0.5m未満","scale_code":"2","scale_label":"L2（想定最大規模）"}},{"type":"Feature","id":"fld_fbc26175-4ed6-4ac2-9375-bb3e99ed23ea","geometry":{"type":"MultiPolygon","coordinates":[[[[138.9867815,35.9074375],[138.986813,35.907458],[138.98675,35.907458],[138.9867815,35.9074375]]],[[[138.9867815,35.9074375],[138.986813,35.907417],[138.986813,35.907458],[138.9867815,35.9074375]]],[[[138.9867815,35.9074375],[138.98675,35.907417],[138.986813,35.907417],[138.9867815,35.9074375]]],[[[138.9867815,35.9074375],[138.98675,35.907458],[138.98675,35.907417],[138.9867815,35.9074375]]]]},"properties":{"layer":"flood","class_code":"1","class_label":"0.5m未満","scale_code":"2","scale_label":"L2（想定最大規模）"}},{"type":"Feature","id":"fld_8d55feca-fb36-4db1-b379-2181171f215a","geometry":{"type":"MultiPolygon","coordinates":[[[[138.987125,35.907125],[138.9871565,35.907104],[138.987188,35.907125],[138.987125,35.907125]]],[[[138.987188,35.907083],[138.987188,35.907125],[138.9871565,35.907104],[138.987188,35.907083]]],[[[138.987125,35.907083],[138.9871565,35.907104],[138.987125,35.907125],[138.987125,35.907083]]],[[[138.987125,35.907083],[138.987188,35.907083],[138.9871565,35.907104],[138.987125,35.907083]]]]},"properties":{"layer":"flood","class_code":"1","class_label":"0.5m未満","scale_code":"2","scale_label":"L2（想定最大規模）"}},{"type":"Feature","id":"fld_9215fdb9-d49d-4114-b42b-bff6cee72329","geometry":{"type":"MultiPolygon","coordinates":[[[[138.987062,35.908208],[138.987,35.908208],[138.987031,35.9081875],[138.987062,35.908208]]],[[[138.987,35.908208],[138.987,35.908167],[138.987031,35.9081875],[138.987,35.908208]]],[[[138.987062,35.908167],[138.987031,35.9081875],[138.987,35.908167],[138.987062,35.908167]]],[[[138.987062,35.908167],[138.987062,35.908208],[138.987031,35.9081875],[138.987062,35.908167]]]]},"properties":{"layer":"flood","class_code":"1","class_label":"0.5m未満","scale_code":"2","scale_label":"L2（想定最大規模）"}},{"type":"Feature","id":"fld_f307b892-bf36-4bca-8363-9c7bc4debf6f","geometry":{"type":"MultiPolygon","coordinates":[[[[138.975,35.906958],[138.975063,35.906958],[138.9750315,35.906979],[138.975,35.906958]]],[[[138.975,35.906958],[138.9750315,35.906979],[138.975,35.907],[138.975,35.906958]]],[[[138.9750315,35.9070625],[138.9750315,35.907104],[138.975,35.907083],[138.9750315,35.9070625]]],[[[138.9750315,35.9070625],[138.975,35.907083],[138.975,35.907042],[138.9750315,35.9070625]]],[[[138.9750315,35.9070625],[138.975,35.907042],[138.9750315,35.907021],[138.9750315,35.9070625]]],[[[138.9750315,35.9070625],[138.975063,35.907042],[138.975063,35.907083],[138.9750315,35.9070625]]],[[[138.975,35.907125],[138.975,35.907083],[138.9750315,35.907104],[138.975,35.907125]]],[[[138.975063,35.907083],[138.975063,35.907125],[138.9750315,35.907104],[138.975063,35.907083]]],[[[138.9750315,35.907021],[138.975,35.907042],[138.975,35.907],[138.9750315,35.907021]]],[[[138.975063,35.907],[138.975063,35.907042],[138.9750315,35.907021],[138.975063,35.907]]],[[[138.9750315,35.906979],[138.975063,35.906958],[138.975063,35.907],[138.9750315,35.906979]]],[[[138.9750315,35.906979],[138.9750315,35.907021],[138.975,35.907],[138.9750315,35.906979]]],[[[138.9750315,35.906979],[138.975063,35.907],[138.9750315,35.907021],[138.9750315,35.906979]]],[[[138.9750315,35.9070625],[138.975063,35.907083],[138.9750315,35.907104],[138.9750315,35.9070625]]],[[[138.9750315,35.9070625],[138.9750315,35.907021],[138.975063,35.907042],[138.9750315,35.9070625]]],[[[138.975,35.907125],[138.9750315,35.907104],[138.975063,35.907125],[138.975,35.907125]]]]},"properties":{"layer":"flood","class_code":"1","class_label":"0.5m未満","scale_code":"2","scale_label":"L2（想定最大規模）"}},{"type":"Feature","id":"fld_56ce5dc9-8de2-44fe-a1ed-32fe3ae5ad30","geometry":{"type":"MultiPolygon","coordinates":[[[[138.9872815,35.907271],[138.98725,35.907292],[138.98725,35.90725],[138.9872815,35.907271]]],[[[138.9872815,35.907271],[138.98725,35.90725],[138.987313,35.90725],[138.9872815,35.907271]]],[[[138.9872815,35.907271],[138.987313,35.90725],[138.987313,35.907292],[138.9872815,35.907271]]],[[[138.9872815,35.907271],[138.987313,35.907292],[138.98725,35.907292],[138.9872815,35.907271]]]]},"properties":{"layer":"flood","class_code":"1","class_label":"0.5m未満","scale_code":"2","scale_label":"L2（想定最大規模）"}},{"type":"Feature","id":"fld_a9401dc4-b0a9-4ee0-96cf-4ba17bbd9583","geometry":{"type":"MultiPolygon","coordinates":[[[[138.987313,35.908292],[138.987313,35.90825],[138.987344,35.908271],[138.987313,35.908292]]],[[[138.987313,35.908292],[138.987344,35.908271],[138.987375,35.908292],[138.987313,35.908292]]],[[[138.987344,35.908271],[138.987313,35.90825],[138.987375,35.90825],[138.987344,35.908271]]],[[[138.987344,35.908271],[138.987375,35.90825],[138.987375,35.908292],[138.987344,35.908271]]]]},"properties":{"layer":"flood","class_code":"1","class_label":"0.5m未満","scale_code":"2","scale_label":"L2（想定最大規模）"}},{"type":"Feature","id":"fld_b792da2a-0864-4e6b-a5ca-330f62414441","geometry":{"type":"MultiPolygon","coordinates":[[[[138.987062,35.908125],[138.987062,35.908167],[138.987031,35.908146],[138.987062,35.908125]]],[[[138.987,35.908125],[138.987031,35.908146],[138.987,35.908167],[138.987,35.908125]]],[[[138.987,35.908125],[138.987062,35.908125],[138.987031,35.908146],[138.987,35.908125]]],[[[138.987062,35.908167],[138.987,35.908167],[138.987031,35.908146],[138.987062,35.908167]]]]},"properties":{"layer":"flood","class_code":"2","class_label":"0.5m以上3m未満","scale_code":"2","scale_label":"L2（想定最大規模）"}},{"type":"Feature","id":"fld_363a24ac-f091-483a-a922-9f2e6030ca2d","geometry":{"type":"MultiPolygon","coordinates":[[[[138.987313,35.908333],[138.987313,35.908292],[138.987344,35.9083125],[138.987313,35.908333]]],[[[138.987313,35.908333],[138.987344,35.9083125],[138.987375,35.908333],[138.987313,35.908333]]],[[[138.987375,35.908292],[138.987438,35.908292],[138.9874065,35.9083125],[138.987375,35.908292]]],[[[138.987344,35.9083125],[138.987313,35.908292],[138.987375,35.908292],[138.987344,35.9083125]]],[[[138.987438,35.908333],[138.9874065,35.9083125],[138.987438,35.908292],[138.987438,35.908333]]],[[[138.987375,35.908333],[138.987344,35.9083125],[138.987375,35.908292],[138.987375,35.908333]]],[[[138.987375,35.908333],[138.9874065,35.9083125],[138.987438,35.908333],[138.987375,35.908333]]],[[[138.987375,35.908333],[138.987375,35.908292],[138.9874065,35.9083125],[138.987375,35.908333]]]]},"properties":{"layer":"flood","class_code":"2","class_label":"0.5m以上3m未満","scale_code":"2","scale_label":"L2（想定最大規模）"}},{"type":"Feature","id":"fld_62493850-d639-48ad-85cb-244f803f5e81","geometry":{"type":"MultiPolygon","coordinates":[[[[138.975312,35.907958],[138.9753435,35.907979],[138.975312,35.908],[138.975312,35.907958]]],[[[138.975312,35.90775],[138.975281,35.907771],[138.97525,35.90775],[138.975312,35.90775]]],[[[138.975188,35.907708],[138.97525,35.907708],[138.975219,35.907729],[138.975188,35.907708]]],[[[138.97525,35.90775],[138.975219,35.907729],[138.97525,35.907708],[138.97525,35.90775]]],[[[138.97525,35.90775],[138.975281,35.907771],[138.97525,35.907792],[138.97525,35.90775]]],[[[138.97525,35.90775],[138.97525,35.907792],[138.975219,35.907771],[138.97525,35.90775]]],[[[138.97525,35.90775],[138.975219,35.907771],[138.975219,35.907729],[138.97525,35.90775]]],[[[138.97525,35.907792],[138.975281,35.9078125],[138.97525,35.907833],[138.97525,35.907792]]],[[[138.97525,35.907792],[138.975188,35.907792],[138.975219,35.907771],[138.97525,35.907792]]],[[[138.97525,35.907792],[138.975281,35.907771],[138.975281,35.9078125],[138.97525,35.907792]]],[[[138.97525,35.907833],[138.975281,35.9078125],[138.975281,35.907854],[138.97525,35.907833]]],[[[138.975438,35.908],[138.975375,35.908],[138.9754065,35.907979],[138.975438,35.908]]],[[[138.975312,35.907875],[138.975281,35.907896],[138.975281,35.907854],[138.975312,35.907875]]],[[[138.97525,35.907875],[138.975281,35.907854],[138.975281,35.907896],[138.97525,35.907875]]],[[[138.975312,35.907833],[138.975312,35.907875],[138.975281,35.907854],[138.975312,35.907833]]],[[[138.975312,35.907833],[138.975281,35.907854],[138.975281,35.9078125],[138.975312,35.907833]]],[[[138.975312,35.907833],[138.975281,35.9078125],[138.975312,35.907792],[138.975312,35.907833]]],[[[138.975312,35.907792],[138.975281,35.9078125],[138.975281,35.907771],[138.975312,35.907792]]],[[[138.975312,35.907958],[138.975312,35.907917],[138.9753435,35.9079375],[138.975312,35.907958]]],[[[138.975312,35.907958],[138.9753435,35.9079375],[138.9753435,35.907979],[138.975312,35.907958]]],[[[138.975312,35.908],[138.9753435,35.907979],[138.975375,35.908],[138.975312,35.908]]],[[[138.975438,35.907958],[138.975438,35.908],[138.9754065,35.907979],[138.975438,35.907958]]],[[[138.975438,35.907958],[138.9754065,35.907979],[138.975375,35.907958],[138.975438,35.907958]]],[[[138.975375,35.907958],[138.9753435,35.9079375],[138.975375,35.907917],[138.975375,35.907958]]],[[[138.975375,35.907958],[138.9754065,35.907979],[138.975375,35.908],[138.975375,35.907958]]],[[[138.975375,35.907958],[138.975375,35.908],[138.9753435,35.907979],[138.975375,35.907958]]],[[[138.975375,35.907958],[138.9753435,35.907979],[138.9753435,35.9079375],[138.975375,35.907958]]],[[[138.975312,35.907917],[138.975281,35.907896],[138.975312,35.907875],[138.975312,35.907917]]],[[[138.975312,35.907917],[138.975312,35.907875],[138.9753435,35.907896],[138.975312,35.907917]]],[[[138.975312,35.907917],[138.9753435,35.907896],[138.9753435,35.9079375],[138.975312,35.907917]]],[[[138.975312,35.907917],[138.97525,35.907917],[138.975281,35.907896],[138.975312,35.907917]]],[[[138.97525,35.907917],[138.97525,35.907875],[138.975281,35.907896],[138.97525,35.907917]]],[[[138.975375,35.907917],[138.9753435,35.907896],[138.975375,35.907875],[138.975375,35.907917]]],[[[138.975375,35.907917],[138.9753435,35.9079375],[138.9753435,35.907896],[138.975375,35.907917]]],[[[138.97525,35.907875],[138.97525,35.907833],[138.975281,35.907854],[138.97525,35.907875]]],[[[138.975375,35.907875],[138.9753435,35.907896],[138.975312,35.907875],[138.975375,35.907875]]],[[[138.975188,35.90775],[138.975188,35.907708],[138.975219,35.907729],[138.975188,35.90775]]],[[[138.975188,35.90775],[138.975219,35.907729],[138.975219,35.907771],[138.975188,35.90775]]],[[[138.975188,35.90775],[138.975219,35.907771],[138.975188,35.907792],[138.975188,35.90775]]],[[[138.975312,35.90775],[138.975312,35.907792],[138.975281,35.907771],[138.975312,35.90775]]]]},"properties":{"layer":"flood","class_code":"2","class_label":"0.5m以上3m未満","scale_code":"2","scale_label":"L2（想定最大規模）"}},{"type":"Feature","id":"fld_757dcafd-5454-47f5-ac38-3860453d2ca5","geometry":{"type":"MultiPolygon","coordinates":[[[[138.987219,35.9073125],[138.987219,35.907271],[138.98725,35.907292],[138.987219,35.9073125]]],[[[138.987219,35.9073125],[138.987188,35.907292],[138.987219,35.907271],[138.987219,35.9073125]]],[[[138.987219,35.9073125],[138.98725,35.907333],[138.987188,35.907333],[138.987219,35.9073125]]],[[[138.987219,35.907271],[138.98725,35.90725],[138.98725,35.907292],[138.987219,35.907271]]],[[[138.987219,35.9073125],[138.98725,35.907292],[138.98725,35.907333],[138.987219,35.9073125]]],[[[138.987219,35.9073125],[138.987188,35.907333],[138.987188,35.907292],[138.987219,35.9073125]]],[[[138.987219,35.907271],[138.987188,35.90725],[138.98725,35.90725],[138.987219,35.907271]]],[[[138.987219,35.907271],[138.987188,35.907292],[138.987188,35.90725],[138.987219,35.907271]]]]},"properties":{"layer":"flood","class_code":"2","class_label":"0.5m以上3m未満","scale_code":"2","scale_label":"L2（想定最大規模）"}},{"type":"Feature","id":"fld_45803ba9-c9e5-4bd6-8567-c3cae59b3fda","geometry":{"type":"MultiPolygon","coordinates":[[[[138.987375,35.907208],[138.987375,35.907167],[138.9874065,35.9071875],[138.987375,35.907208]]],[[[138.987375,35.907208],[138.9874065,35.9071875],[138.987438,35.907208],[138.987375,35.907208]]],[[[138.987375,35.907208],[138.987344,35.907229],[138.987344,35.9071875],[138.987375,35.907208]]],[[[138.987438,35.907208],[138.9874065,35.9071875],[138.987438,35.907167],[138.987438,35.907208]]],[[[138.987438,35.907208],[138.987438,35.907167],[138.987469,35.9071875],[138.987438,35.907208]]],[[[138.987438,35.907208],[138.987469,35.9071875],[138.9875,35.907208],[138.987438,35.907208]]],[[[138.987313,35.907208],[138.987344,35.9071875],[138.987344,35.907229],[138.987313,35.907208]]],[[[138.987313,35.907208],[138.9872815,35.907229],[138.98725,35.907208],[138.987313,35.907208]]],[[[138.9875,35.907167],[138.987469,35.9071875],[138.987469,35.907146],[138.9875,35.907167]]],[[[138.98725,35.90725],[138.98725,35.907208],[138.9872815,35.907229],[138.98725,35.90725]]],[[[138.987313,35.90725],[138.987313,35.907208],[138.987344,35.907229],[138.987313,35.90725]]],[[[138.987313,35.90725],[138.9872815,35.907229],[138.987313,35.907208],[138.987313,35.90725]]],[[[138.987313,35.90725],[138.98725,35.90725],[138.9872815,35.907229],[138.987313,35.90725]]],[[[138.987438,35.907167],[138.987469,35.907146],[138.987469,35.9071875],[138.987438,35.907167]]],[[[138.987438,35.907167],[138.9874065,35.9071875],[138.987375,35.907167],[138.987438,35.907167]]],[[[138.987438,35.907125],[138.987469,35.907146],[138.987438,35.907167],[138.987438,35.907125]]],[[[138.987375,35.90725],[138.987313,35.90725],[138.987344,35.907229],[138.987375,35.90725]]],[[[138.987375,35.90725],[138.987344,35.907229],[138.987375,35.907208],[138.987375,35.90725]]],[[[138.987438,35.907125],[138.9875,35.907125],[138.987469,35.907146],[138.987438,35.907125]]],[[[138.9875,35.907167],[138.987469,35.907146],[138.9875,35.907125],[138.9875,35.907167]]],[[[138.9875,35.907167],[138.9875,35.907208],[138.987469,35.9071875],[138.9875,35.907167]]],[[[138.987375,35.907208],[138.987344,35.9071875],[138.987375,35.907167],[138.987375,35.907208]]],[[[138.987313,35.907167],[138.987344,35.9071875],[138.987313,35.907208],[138.987313,35.907167]]],[[[138.987313,35.907167],[138.987375,35.907167],[138.987344,35.9071875],[138.987313,35.907167]]]]},"properties":{"layer":"flood","class_code":"2","class_label":"0.5m以上3m未満","scale_code":"2","scale_label":"L2（想定最大規模）"}},{"type":"Feature","id":"fld_69337b5f-92d1-4a9b-bd65-d27e6be69f19","geometry":{"type":"MultiPolygon","coordinates":[[[[138.986688,35.907583],[138.986688,35.907542],[138.986719,35.9075625],[138.986688,35.907583]]],[[[138.986688,35.907625],[138.986719,35.907604],[138.98675,35.907625],[138.986688,35.907625]]],[[[138.98675,35.907625],[138.986719,35.907604],[138.98675,35.907583],[138.98675,35.907625]]],[[[138.98675,35.907583],[138.986719,35.9075625],[138.98675,35.907542],[138.98675,35.907583]]],[[[138.98675,35.907583],[138.986719,35.907604],[138.986719,35.9075625],[138.98675,35.907583]]],[[[138.986688,35.907542],[138.986688,35.9075],[138.986719,35.907521],[138.986688,35.907542]]],[[[138.986688,35.907542],[138.986719,35.907521],[138.986719,35.9075625],[138.986688,35.907542]]],[[[138.98675,35.907542],[138.986719,35.907521],[138.9867815,35.907521],[138.98675,35.907542]]],[[[138.98675,35.907542],[138.9867815,35.907521],[138.986813,35.907542],[138.98675,35.907542]]],[[[138.98675,35.907542],[138.986719,35.9075625],[138.986719,35.907521],[138.98675,35.907542]]],[[[138.986688,35.9075],[138.986719,35.907479],[138.986719,35.907521],[138.986688,35.9075]]],[[[138.986813,35.907542],[138.9867815,35.907521],[138.986813,35.9075],[138.986813,35.907542]]],[[[138.986688,35.907458],[138.98675,35.907458],[138.986719,35.907479],[138.986688,35.907458]]],[[[138.986813,35.9075],[138.9867815,35.907521],[138.9867815,35.907479],[138.986813,35.9075]]],[[[138.986813,35.9075],[138.9867815,35.907479],[138.986813,35.907458],[138.986813,35.9075]]],[[[138.9867815,35.907479],[138.986719,35.907521],[138.986719,35.907479],[138.9867815,35.907479]]],[[[138.98675,35.907458],[138.986813,35.907458],[138.9867815,35.907479],[138.98675,35.907458]]],[[[138.98675,35.907458],[138.9867815,35.907479],[138.986719,35.907479],[138.98675,35.907458]]],[[[138.9867815,35.907479],[138.9867815,35.907521],[138.986719,35.907521],[138.9867815,35.907479]]],[[[138.986688,35.9075],[138.986688,35.907458],[138.986719,35.907479],[138.986688,35.9075]]],[[[138.986688,35.907583],[138.986719,35.9075625],[138.986719,35.907604],[138.986688,35.907583]]],[[[138.986688,35.907583],[138.986719,35.907604],[138.986688,35.907625],[138.986688,35.907583]]]]},"properties":{"layer":"flood","class_code":"2","class_label":"0.5m以上3m未満","scale_code":"2","scale_label":"L2（想定最大規模）"}},{"type":"Feature","id":"fld_bbbb1440-c90e-4986-b2e2-6000422471f8","geometry":{"type":"MultiPolygon","coordinates":[[[[138.975438,35.908042],[138.975469,35.908021],[138.975469,35.9080625],[138.975438,35.908042]]],[[[138.975438,35.908],[138.975469,35.908021],[138.975438,35.908042],[138.975438,35.908]]],[[[138.9755,35.908042],[138.9755,35.908083],[138.975469,35.9080625],[138.9755,35.908042]]],[[[138.9755,35.908],[138.975469,35.908021],[138.975438,35.908],[138.9755,35.908]]],[[[138.975438,35.908083],[138.975469,35.9080625],[138.9755,35.908083],[138.975438,35.908083]]],[[[138.975438,35.908083],[138.975438,35.908042],[138.975469,35.9080625],[138.975438,35.908083]]],[[[138.9755,35.908042],[138.975469,35.908021],[138.9755,35.908],[138.9755,35.908042]]],[[[138.9755,35.908042],[138.975469,35.9080625],[138.975469,35.908021],[138.9755,35.908042]]]]},"properties":{"layer":"flood","class_code":"2","class_label":"0.5m以上3m未満","scale_code":"2","scale_label":"L2（想定最大規模）"}},{"type":"Feature","id":"fld_ee49ba54-1acf-4b02-8852-39658ce733da","geometry":{"type":"MultiPolygon","coordinates":[[[[138.987,35.908042],[138.9869685,35.9080625],[138.986937,35.908042],[138.987,35.908042]]],[[[138.986937,35.908083],[138.986937,35.908042],[138.9869685,35.9080625],[138.986937,35.908083]]],[[[138.987,35.908083],[138.9869685,35.9080625],[138.987,35.908042],[138.987,35.908083]]],[[[138.986937,35.908083],[138.9869685,35.9080625],[138.987,35.908083],[138.986937,35.908083]]]]},"properties":{"layer":"flood","class_code":"2","class_label":"0.5m以上3m未満","scale_code":"2","scale_label":"L2（想定最大規模）"}},{"type":"Feature","id":"fld_45be1de3-22e6-4817-a95a-11f50a3be340","geometry":{"type":"MultiPolygon","coordinates":[[[[138.986875,35.908],[138.986906,35.908021],[138.986875,35.908042],[138.986875,35.908]]],[[[138.986875,35.908],[138.986937,35.908],[138.986906,35.908021],[138.986875,35.908]]],[[[138.986937,35.908042],[138.986875,35.908042],[138.986906,35.908021],[138.986937,35.908042]]],[[[138.986937,35.908042],[138.986906,35.908021],[138.986937,35.908],[138.986937,35.908042]]]]},"properties":{"layer":"flood","class_code":"2","class_label":"0.5m以上3m未満","scale_code":"2","scale_label":"L2（想定最大規模）"}},{"type":"Feature","id":"fld_e4120f39-632d-400f-88a8-309f0b2ab80c","geometry":{"type":"MultiPolygon","coordinates":[[[[138.975063,35.907625],[138.975094,35.907604],[138.975125,35.907625],[138.975063,35.907625]]],[[[138.975125,35.907625],[138.975094,35.907604],[138.975125,35.907583],[138.975125,35.907625]]],[[[138.975063,35.907583],[138.975094,35.907604],[138.975063,35.907625],[138.975063,35.907583]]],[[[138.975063,35.907583],[138.975125,35.907583],[138.975094,35.907604],[138.975063,35.907583]]]]},"properties":{"layer":"flood","class_code":"2","class_label":"0.5m以上3m未満","scale_code":"2","scale_label":"L2（想定最大規模）"}},{"type":"Feature","id":"fld_3d0ee0b8-54a5-4dfe-97e1-9cc64edf01ce","geometry":{"type":"MultiPolygon","coordinates":[[[[138.987,35.907167],[138.987062,35.907167],[138.987031,35.9071875],[138.987,35.907167]]],[[[138.987,35.907208],[138.987031,35.9071875],[138.987062,35.907208],[138.987,35.907208]]],[[[138.987062,35.907208],[138.987031,35.9071875],[138.987062,35.907167],[138.987062,35.907208]]],[[[138.987,35.907167],[138.987031,35.9071875],[138.987,35.907208],[138.987,35.907167]]]]},"properties":{"layer":"flood","class_code":"2","class_label":"0.5m以上3m未満","scale_code":"2","scale_label":"L2（想定最大規模）"}},{"type":"Feature","id":"fld_af7e3d2a-72fc-4be7-afd3-ba76e98ce273","geometry":{"type":"MultiPolygon","coordinates":[[[[138.975063,35.907167],[138.9750315,35.907146],[138.975063,35.907125],[138.975063,35.907167]]],[[[138.975063,35.907167],[138.9750315,35.9071875],[138.9750315,35.907146],[138.975063,35.907167]]],[[[138.975,35.907125],[138.975063,35.907125],[138.9750315,35.907146],[138.975,35.907125]]],[[[138.975,35.907125],[138.9750315,35.907146],[138.975,35.907167],[138.975,35.907125]]],[[[138.975,35.907208],[138.9750315,35.9071875],[138.975063,35.907208],[138.975,35.907208]]],[[[138.975,35.907167],[138.9750315,35.9071875],[138.975,35.907208],[138.975,35.907167]]],[[[138.975,35.907167],[138.9750315,35.907146],[138.9750315,35.9071875],[138.975,35.907167]]],[[[138.975063,35.907208],[138.9750315,35.9071875],[138.975063,35.907167],[138.975063,35.907208]]]]},"properties":{"layer":"flood","class_code":"2","class_label":"0.5m以上3m未満","scale_code":"2","scale_label":"L2（想定最大規模）"}},{"type":"Feature","id":"fld_2fb46561-7d36-4b34-b9ec-7e85a0c09bd9","geometry":{"type":"MultiPolygon","coordinates":[[[[138.987062,35.907167],[138.9870935,35.907146],[138.987125,35.907167],[138.987062,35.907167]]],[[[138.987062,35.907167],[138.987062,35.907125],[138.9870935,35.907146],[138.987062,35.907167]]],[[[138.987062,35.907125],[138.987125,35.907125],[138.9870935,35.907146],[138.987062,35.907125]]],[[[138.987125,35.907167],[138.9870935,35.907146],[138.987125,35.907125],[138.987125,35.907167]]]]},"properties":{"layer":"flood","class_code":"2","class_label":"0.5m以上3m未満","scale_code":"2","scale_label":"L2（想定最大規模）"}},{"type":"Feature","id":"fld_21665494-b766-4b21-bf01-b016639419aa","geometry":{"type":"MultiPolygon","coordinates":[[[[138.986813,35.907417],[138.986844,35.9074375],[138.986813,35.907458],[138.986813,35.907417]]],[[[138.986875,35.907458],[138.986813,35.907458],[138.986844,35.9074375],[138.986875,35.907458]]],[[[138.986875,35.907458],[138.986844,35.9074375],[138.986875,35.907417],[138.986875,35.907458]]],[[[138.986875,35.907417],[138.986844,35.9074375],[138.986813,35.907417],[138.986875,35.907417]]]]},"properties":{"layer":"flood","class_code":"2","class_label":"0.5m以上3m未満","scale_code":"2","scale_label":"L2（想定最大規模）"}},{"type":"Feature","id":"fld_1d48aa91-c00e-4352-8170-06db78e4139f","geometry":{"type":"MultiPolygon","coordinates":[[[[138.9754065,35.908021],[138.975438,35.908],[138.975438,35.908042],[138.9754065,35.908021]]],[[[138.9754065,35.908021],[138.975438,35.908042],[138.975375,35.908042],[138.9754065,35.908021]]],[[[138.9754065,35.908021],[138.975375,35.908042],[138.975375,35.908],[138.9754065,35.908021]]],[[[138.9754065,35.908021],[138.975375,35.908],[138.975438,35.908],[138.9754065,35.908021]]]]},"properties":{"layer":"flood","class_code":"3","class_label":"3m以上5m未満","scale_code":"2","scale_label":"L2（想定最大規模）"}},{"type":"Feature","id":"fld_09483bb4-ceba-4773-8838-b199005405b8","geometry":{"type":"MultiPolygon","coordinates":[[[[138.97525,35.907792],[138.975219,35.9078125],[138.975188,35.907792],[138.97525,35.907792]]],[[[138.97525,35.907792],[138.97525,35.907833],[138.975219,35.9078125],[138.97525,35.907792]]],[[[138.97525,35.907833],[138.975188,35.907833],[138.975219,35.9078125],[138.97525,35.907833]]],[[[138.975188,35.907833],[138.975188,35.907792],[138.975219,35.9078125],[138.975188,35.907833]]]]},"properties":{"layer":"flood","class_code":"3","class_label":"3m以上5m未満","scale_code":"2","scale_label":"L2（想定最大規模）"}},{"type":"Feature","id":"fld_83044b1f-9bb9-40a7-a44e-da11b6f75f22","geometry":{"type":"MultiPolygon","coordinates":[[[[138.9874065,35.907146],[138.987438,35.907167],[138.987375,35.907167],[138.9874065,35.907146]]],[[[138.9874065,35.907146],[138.987375,35.907167],[138.987375,35.907125],[138.9874065,35.907146]]],[[[138.9874065,35.907146],[138.987375,35.907125],[138.987438,35.907125],[138.9874065,35.907146]]],[[[138.9874065,35.907146],[138.987438,35.907125],[138.987438,35.907167],[138.9874065,35.907146]]]]},"properties":{"layer":"flood","class_code":"3","class_label":"3m以上5m未満","scale_code":"2","scale_label":"L2（想定最大規模）"}}]}