{"type":"FeatureCollection","properties":{"mesh_code":"53386787","source":"PLATEAU秩父市2025","layer":"flood"},"features":[{"type":"Feature","id":"fld_329503bd-5f86-446b-a7a8-23e8f709ed81","geometry":{"type":"MultiPolygon","coordinates":[[[[138.973219,35.906229],[138.97325,35.90625],[138.973188,35.90625],[138.973219,35.906229]]],[[[138.973219,35.906229],[138.97325,35.906208],[138.97325,35.90625],[138.973219,35.906229]]],[[[138.973188,35.906208],[138.97325,35.906208],[138.973219,35.906229],[138.973188,35.906208]]],[[[138.973188,35.906208],[138.973219,35.906229],[138.973188,35.90625],[138.973188,35.906208]]]]},"properties":{"layer":"flood","class_code":"1","class_label":"0.5m未満","scale_code":"1","scale_label":"L1（計画規模）"}},{"type":"Feature","id":"fld_66848c85-7ee2-4bcd-9b9d-6ebebd371f9d","geometry":{"type":"MultiPolygon","coordinates":[[[[138.9735,35.90675],[138.9735,35.906708],[138.973531,35.906729],[138.9735,35.90675]]],[[[138.9735,35.90675],[138.973531,35.906729],[138.973562,35.90675],[138.9735,35.90675]]],[[[138.973562,35.90675],[138.973531,35.906729],[138.973562,35.906708],[138.973562,35.90675]]],[[[138.973562,35.90675],[138.973562,35.906708],[138.9735935,35.906729],[138.973562,35.90675]]],[[[138.973562,35.90675],[138.9735935,35.906729],[138.973625,35.90675],[138.973562,35.90675]]],[[[138.9735,35.906708],[138.973562,35.906708],[138.973531,35.906729],[138.9735,35.906708]]],[[[138.973813,35.906708],[138.973813,35.90675],[138.9737815,35.906729],[138.973813,35.906708]]],[[[138.973687,35.90675],[138.9737185,35.906729],[138.97375,35.90675],[138.973687,35.90675]]],[[[138.97375,35.90675],[138.9737815,35.906729],[138.973813,35.90675],[138.97375,35.90675]]],[[[138.97375,35.906708],[138.97375,35.90675],[138.9737185,35.906729],[138.97375,35.906708]]],[[[138.97375,35.906708],[138.9737815,35.906729],[138.97375,35.90675],[138.97375,35.906708]]],[[[138.97375,35.906708],[138.973813,35.906708],[138.9737815,35.906729],[138.97375,35.906708]]],[[[138.973687,35.906708],[138.973687,35.90675],[138.973656,35.906729],[138.973687,35.906708]]],[[[138.973687,35.906708],[138.9737185,35.906729],[138.973687,35.90675],[138.973687,35.906708]]],[[[138.973687,35.906708],[138.97375,35.906708],[138.9737185,35.906729],[138.973687,35.906708]]],[[[138.973625,35.90675],[138.973656,35.906729],[138.973687,35.90675],[138.973625,35.90675]]],[[[138.973625,35.906708],[138.973625,35.90675],[138.9735935,35.906729],[138.973625,35.906708]]],[[[138.973625,35.906708],[138.973656,35.906729],[138.973625,35.90675],[138.973625,35.906708]]],[[[138.973625,35.906708],[138.973687,35.906708],[138.973656,35.906729],[138.973625,35.906708]]],[[[138.973625,35.906708],[138.9735935,35.906729],[138.973562,35.906708],[138.973625,35.906708]]]]},"properties":{"layer":"flood","class_code":"1","class_label":"0.5m未満","scale_code":"1","scale_label":"L1（計画規模）"}},{"type":"Feature","id":"fld_0be47c09-dae6-4f71-bc2b-e7ec811d462a","geometry":{"type":"MultiPolygon","coordinates":[[[[138.9739065,35.906729],[138.973875,35.90675],[138.973875,35.906708],[138.9739065,35.906729]]],[[[138.973938,35.906708],[138.9739065,35.906729],[138.973875,35.906708],[138.973938,35.906708]]],[[[138.973938,35.90675],[138.9739065,35.906729],[138.973938,35.906708],[138.973938,35.90675]]],[[[138.973938,35.90675],[138.973875,35.90675],[138.9739065,35.906729],[138.973938,35.90675]]]]},"properties":{"layer":"flood","class_code":"1","class_label":"0.5m未満","scale_code":"1","scale_label":"L1（計画規模）"}},{"type":"Feature","id":"fld_9ed850c3-8bf7-42ec-bf6e-c33bc8421737","geometry":{"type":"MultiPolygon","coordinates":[[[[138.974375,35.90675],[138.9744065,35.906729],[138.974438,35.90675],[138.974375,35.90675]]],[[[138.974438,35.90675],[138.9744065,35.906729],[138.974438,35.906708],[138.974438,35.90675]]],[[[138.974375,35.906708],[138.974438,35.906708],[138.9744065,35.906729],[138.974375,35.906708]]],[[[138.974375,35.906708],[138.9744065,35.906729],[138.974375,35.90675],[138.974375,35.906708]]]]},"properties":{"layer":"flood","class_code":"1","class_label":"0.5m未満","scale_code":"1","scale_label":"L1（計画規模）"}},{"type":"Feature","id":"fld_9324dc9c-6d24-483f-86e2-6ff6fa69a804","geometry":{"type":"MultiPolygon","coordinates":[[[[138.974625,35.90675],[138.974562,35.90675],[138.9745935,35.906729],[138.974625,35.90675]]],[[[138.974625,35.90675],[138.9745935,35.906729],[138.974625,35.906708],[138.974625,35.90675]]],[[[138.974625,35.906708],[138.9745935,35.906729],[138.974562,35.906708],[138.974625,35.906708]]],[[[138.974562,35.906708],[138.9745935,35.906729],[138.974562,35.90675],[138.974562,35.906708]]]]},"properties":{"layer":"flood","class_code":"1","class_label":"0.5m未満","scale_code":"1","scale_label":"L1（計画規模）"}},{"type":"Feature","id":"fld_14ee80be-918d-4be1-b1fe-666cc8b044eb","geometry":{"type":"MultiPolygon","coordinates":[[[[138.9748435,35.906729],[138.974812,35.906708],[138.974875,35.906708],[138.9748435,35.906729]]],[[[138.9748435,35.906729],[138.974875,35.906708],[138.974875,35.90675],[138.9748435,35.906729]]],[[[138.9748435,35.906729],[138.974875,35.90675],[138.974812,35.90675],[138.9748435,35.906729]]],[[[138.9748435,35.906729],[138.974812,35.90675],[138.974812,35.906708],[138.9748435,35.906729]]]]},"properties":{"layer":"flood","class_code":"1","class_label":"0.5m未満","scale_code":"1","scale_label":"L1（計画規模）"}},{"type":"Feature","id":"fld_3cc0b44b-edad-48ff-8c24-13db141787de","geometry":{"type":"MultiPolygon","coordinates":[[[[138.973437,35.905083],[138.973437,35.905125],[138.973406,35.905104],[138.973437,35.905083]]],[[[138.9734685,35.905021],[138.9734685,35.9050625],[138.973406,35.905021],[138.9734685,35.905021]]],[[[138.973406,35.9051875],[138.973437,35.905208],[138.973375,35.905208],[138.973406,35.9051875]]],[[[138.973406,35.9051875],[138.973437,35.905167],[138.973437,35.905208],[138.973406,35.9051875]]],[[[138.973406,35.9051875],[138.973406,35.905146],[138.973437,35.905167],[138.973406,35.9051875]]],[[[138.9735,35.905042],[138.9734685,35.905021],[138.9735,35.905],[138.9735,35.905042]]],[[[138.9735,35.905042],[138.9734685,35.9050625],[138.9734685,35.905021],[138.9735,35.905042]]],[[[138.9735,35.905042],[138.9735,35.905083],[138.9734685,35.9050625],[138.9735,35.905042]]],[[[138.973437,35.905],[138.9734685,35.905021],[138.973406,35.905021],[138.973437,35.905]]],[[[138.973375,35.905167],[138.973375,35.905125],[138.973406,35.905146],[138.973375,35.905167]]],[[[138.973375,35.905],[138.973437,35.905],[138.973406,35.905021],[138.973375,35.905]]],[[[138.973375,35.905042],[138.973375,35.905],[138.973406,35.905021],[138.973375,35.905042]]],[[[138.973375,35.905083],[138.973406,35.9050625],[138.973406,35.905104],[138.973375,35.905083]]],[[[138.973375,35.905083],[138.973375,35.905042],[138.973406,35.9050625],[138.973375,35.905083]]],[[[138.973375,35.905167],[138.973406,35.905146],[138.973406,35.9051875],[138.973375,35.905167]]],[[[138.973375,35.905167],[138.973406,35.9051875],[138.973375,35.905208],[138.973375,35.905167]]],[[[138.973375,35.905125],[138.973375,35.905083],[138.973406,35.905104],[138.973375,35.905125]]],[[[138.973375,35.905042],[138.973406,35.905021],[138.973406,35.9050625],[138.973375,35.905042]]],[[[138.973406,35.9050625],[138.973406,35.905021],[138.9734685,35.9050625],[138.973406,35.9050625]]],[[[138.973437,35.905125],[138.973406,35.905146],[138.973406,35.905104],[138.973437,35.905125]]],[[[138.973437,35.905125],[138.973437,35.905167],[138.973406,35.905146],[138.973437,35.905125]]],[[[138.973375,35.905125],[138.973406,35.905104],[138.973406,35.905146],[138.973375,35.905125]]],[[[138.973437,35.905083],[138.9734685,35.9050625],[138.9735,35.905083],[138.973437,35.905083]]],[[[138.973437,35.905083],[138.973406,35.9050625],[138.9734685,35.9050625],[138.973437,35.905083]]],[[[138.973437,35.905083],[138.973406,35.905104],[138.973406,35.9050625],[138.973437,35.905083]]],[[[138.973437,35.905],[138.9735,35.905],[138.9734685,35.905021],[138.973437,35.905]]]]},"properties":{"layer":"flood","class_code":"1","class_label":"0.5m未満","scale_code":"1","scale_label":"L1（計画規模）"}},{"type":"Feature","id":"fld_0b8614ef-e0e8-4c71-9d64-bb03a2809a82","geometry":{"type":"MultiPolygon","coordinates":[[[[138.973875,35.906708],[138.973875,35.90675],[138.973844,35.906729],[138.973875,35.906708]]],[[[138.973813,35.90675],[138.973813,35.906708],[138.973844,35.906729],[138.973813,35.90675]]],[[[138.973875,35.906708],[138.973844,35.906729],[138.973813,35.906708],[138.973875,35.906708]]],[[[138.973875,35.90675],[138.973813,35.90675],[138.973844,35.906729],[138.973875,35.90675]]]]},"properties":{"layer":"flood","class_code":"2","class_label":"0.5m以上3m未満","scale_code":"1","scale_label":"L1（計画規模）"}},{"type":"Feature","id":"fld_249849cb-a2e6-4789-a1c9-a58a9567e1dc","geometry":{"type":"MultiPolygon","coordinates":[[[[138.9745,35.90675],[138.974438,35.90675],[138.974469,35.906729],[138.9745,35.90675]]],[[[138.974562,35.906708],[138.974562,35.90675],[138.974531,35.906729],[138.974562,35.906708]]],[[[138.974562,35.906708],[138.974531,35.906729],[138.9745,35.906708],[138.974562,35.906708]]],[[[138.974562,35.90675],[138.9745,35.90675],[138.974531,35.906729],[138.974562,35.90675]]],[[[138.9745,35.90675],[138.974469,35.906729],[138.9745,35.906708],[138.9745,35.90675]]],[[[138.9745,35.90675],[138.9745,35.906708],[138.974531,35.906729],[138.9745,35.90675]]],[[[138.9745,35.906708],[138.974469,35.906729],[138.974438,35.906708],[138.9745,35.906708]]],[[[138.974438,35.90675],[138.974438,35.906708],[138.974469,35.906729],[138.974438,35.90675]]]]},"properties":{"layer":"flood","class_code":"2","class_label":"0.5m以上3m未満","scale_code":"1","scale_label":"L1（計画規模）"}},{"type":"Feature","id":"fld_2c68cf3d-2c17-4f0c-9daf-ef4a9098fb5c","geometry":{"type":"MultiPolygon","coordinates":[[[[138.973313,35.906667],[138.973375,35.906667],[138.973344,35.9066875],[138.973313,35.906667]]],[[[138.973313,35.906708],[138.973313,35.906667],[138.973344,35.9066875],[138.973313,35.906708]]],[[[138.973375,35.906708],[138.973375,35.906667],[138.973406,35.9066875],[138.973375,35.906708]]],[[[138.973375,35.906708],[138.973344,35.9066875],[138.973375,35.906667],[138.973375,35.906708]]],[[[138.973375,35.906708],[138.973313,35.906708],[138.973344,35.9066875],[138.973375,35.906708]]],[[[138.973437,35.906667],[138.973406,35.9066875],[138.973375,35.906667],[138.973437,35.906667]]],[[[138.973437,35.906708],[138.973437,35.906667],[138.9734685,35.9066875],[138.973437,35.906708]]],[[[138.973437,35.906708],[138.973406,35.9066875],[138.973437,35.906667],[138.973437,35.906708]]],[[[138.973437,35.906708],[138.973375,35.906708],[138.973406,35.9066875],[138.973437,35.906708]]],[[[138.9735,35.906667],[138.9734685,35.9066875],[138.973437,35.906667],[138.9735,35.906667]]],[[[138.9735,35.906708],[138.9735,35.906667],[138.973531,35.9066875],[138.9735,35.906708]]],[[[138.9735,35.906708],[138.9734685,35.9066875],[138.9735,35.906667],[138.9735,35.906708]]],[[[138.9735,35.906708],[138.973437,35.906708],[138.9734685,35.9066875],[138.9735,35.906708]]],[[[138.973562,35.906708],[138.9735,35.906708],[138.973531,35.9066875],[138.973562,35.906708]]],[[[138.973562,35.906667],[138.973531,35.9066875],[138.9735,35.906667],[138.973562,35.906667]]],[[[138.973562,35.906667],[138.973562,35.906708],[138.973531,35.9066875],[138.973562,35.906667]]]]},"properties":{"layer":"flood","class_code":"2","class_label":"0.5m以上3m未満","scale_code":"1","scale_label":"L1（計画規模）"}},{"type":"Feature","id":"fld_26dba15b-f08c-417e-863a-f1a508eba864","geometry":{"type":"MultiPolygon","coordinates":[[[[138.975,35.906833],[138.975,35.906875],[138.974969,35.906854],[138.975,35.906833]]],[[[138.974938,35.906875],[138.974938,35.906833],[138.974969,35.906854],[138.974938,35.906875]]],[[[138.974938,35.906875],[138.974969,35.906854],[138.975,35.906875],[138.974938,35.906875]]],[[[138.974938,35.906833],[138.975,35.906833],[138.974969,35.906854],[138.974938,35.906833]]]]},"properties":{"layer":"flood","class_code":"2","class_label":"0.5m以上3m未満","scale_code":"1","scale_label":"L1（計画規模）"}},{"type":"Feature","id":"fld_9ed6ab3d-8840-4e1d-bb1c-9aecb302c6e6","geometry":{"type":"MultiPolygon","coordinates":[[[[138.97325,35.906167],[138.9732815,35.9061875],[138.97325,35.906208],[138.97325,35.906167]]],[[[138.97325,35.906208],[138.9732815,35.9061875],[138.973313,35.906208],[138.97325,35.906208]]],[[[138.9732815,35.9061875],[138.973313,35.906167],[138.973313,35.906208],[138.9732815,35.9061875]]],[[[138.97325,35.906167],[138.973313,35.906167],[138.9732815,35.9061875],[138.97325,35.906167]]]]},"properties":{"layer":"flood","class_code":"2","class_label":"0.5m以上3m未満","scale_code":"1","scale_label":"L1（計画規模）"}},{"type":"Feature","id":"fld_632f05cc-c7cb-44b4-9b35-96c5f421aa88","geometry":{"type":"MultiPolygon","coordinates":[[[[138.973344,35.906146],[138.973375,35.906125],[138.973375,35.906167],[138.973344,35.906146]]],[[[138.973344,35.906146],[138.973375,35.906167],[138.973313,35.906167],[138.973344,35.906146]]],[[[138.973344,35.906146],[138.973313,35.906167],[138.973313,35.906125],[138.973344,35.906146]]],[[[138.973406,35.906104],[138.973406,35.906146],[138.973375,35.906125],[138.973406,35.906104]]],[[[138.973406,35.906104],[138.973437,35.906083],[138.973437,35.906125],[138.973406,35.906104]]],[[[138.973406,35.906104],[138.973437,35.906125],[138.973406,35.906146],[138.973406,35.906104]]],[[[138.973406,35.906104],[138.973375,35.906125],[138.973375,35.906083],[138.973406,35.906104]]],[[[138.973406,35.906104],[138.973375,35.906083],[138.973437,35.906083],[138.973406,35.906104]]],[[[138.973406,35.906146],[138.973375,35.906167],[138.973375,35.906125],[138.973406,35.906146]]],[[[138.973406,35.906146],[138.973437,35.906167],[138.973375,35.906167],[138.973406,35.906146]]],[[[138.973344,35.906146],[138.973313,35.906125],[138.973375,35.906125],[138.973344,35.906146]]],[[[138.973406,35.906146],[138.973437,35.906125],[138.973437,35.906167],[138.973406,35.906146]]]]},"properties":{"layer":"flood","class_code":"2","class_label":"0.5m以上3m未満","scale_code":"1","scale_label":"L1（計画規模）"}},{"type":"Feature","id":"fld_72854d3c-464d-47bb-8eb2-2919e059c46a","geometry":{"type":"MultiPolygon","coordinates":[[[[138.973437,35.905625],[138.973437,35.905583],[138.9734685,35.905604],[138.973437,35.905625]]],[[[138.973437,35.905625],[138.9734685,35.905604],[138.9734685,35.905646],[138.973437,35.905625]]],[[[138.9735,35.905625],[138.9734685,35.905604],[138.9735,35.905583],[138.9735,35.905625]]],[[[138.9735,35.905625],[138.9734685,35.905646],[138.9734685,35.905604],[138.9735,35.905625]]],[[[138.973437,35.905583],[138.973437,35.905542],[138.9734685,35.9055625],[138.973437,35.905583]]],[[[138.973437,35.905583],[138.9734685,35.9055625],[138.9734685,35.905604],[138.973437,35.905583]]],[[[138.9735,35.905583],[138.9734685,35.9055625],[138.9735,35.905542],[138.9735,35.905583]]],[[[138.9735,35.905583],[138.9734685,35.905604],[138.9734685,35.9055625],[138.9735,35.905583]]],[[[138.973437,35.905542],[138.973437,35.9055],[138.9734685,35.905521],[138.973437,35.905542]]],[[[138.973437,35.905542],[138.9734685,35.905521],[138.9734685,35.9055625],[138.973437,35.905542]]],[[[138.9735,35.905542],[138.9734685,35.905521],[138.9735,35.9055],[138.9735,35.905542]]],[[[138.9735,35.905542],[138.9734685,35.9055625],[138.9734685,35.905521],[138.9735,35.905542]]],[[[138.973437,35.9055],[138.973437,35.905458],[138.9734685,35.905479],[138.973437,35.9055]]],[[[138.973437,35.9055],[138.9734685,35.905479],[138.9734685,35.905521],[138.973437,35.9055]]],[[[138.9735,35.9055],[138.9734685,35.905479],[138.9735,35.905458],[138.9735,35.9055]]],[[[138.9735,35.9055],[138.9734685,35.905521],[138.9734685,35.905479],[138.9735,35.9055]]],[[[138.973437,35.905458],[138.973437,35.905417],[138.9734685,35.9054375],[138.973437,35.905458]]],[[[138.973437,35.905458],[138.9734685,35.9054375],[138.9734685,35.905479],[138.973437,35.905458]]],[[[138.9735,35.905458],[138.9734685,35.9054375],[138.9735,35.905417],[138.9735,35.905458]]],[[[138.9735,35.905458],[138.9734685,35.905479],[138.9734685,35.9054375],[138.9735,35.905458]]],[[[138.973437,35.905417],[138.973437,35.905375],[138.9734685,35.905396],[138.973437,35.905417]]],[[[138.973437,35.905417],[138.9734685,35.905396],[138.9734685,35.9054375],[138.973437,35.905417]]],[[[138.9735,35.905417],[138.9734685,35.905396],[138.9735,35.905375],[138.9735,35.905417]]],[[[138.9735,35.905417],[138.9734685,35.9054375],[138.9734685,35.905396],[138.9735,35.905417]]],[[[138.9735,35.905375],[138.9734685,35.905396],[138.973437,35.905375],[138.9735,35.905375]]],[[[138.9734685,35.9059375],[138.9735,35.905917],[138.9735,35.905958],[138.9734685,35.9059375]]],[[[138.973437,35.905833],[138.9734685,35.905854],[138.973437,35.905875],[138.973437,35.905833]]],[[[138.9734685,35.905854],[138.9735,35.905875],[138.9734685,35.905896],[138.9734685,35.905854]]],[[[138.9734685,35.905854],[138.9734685,35.905896],[138.973437,35.905875],[138.9734685,35.905854]]],[[[138.9734685,35.905896],[138.9735,35.905875],[138.9735,35.905917],[138.9734685,35.905896]]],[[[138.9734685,35.905896],[138.9735,35.905917],[138.9734685,35.9059375],[138.9734685,35.905896]]],[[[138.9734685,35.905896],[138.9734685,35.9059375],[138.973437,35.905917],[138.9734685,35.905896]]],[[[138.9734685,35.905896],[138.973437,35.905917],[138.973437,35.905875],[138.9734685,35.905896]]],[[[138.9734685,35.9059375],[138.9735,35.905958],[138.9734685,35.905979],[138.9734685,35.9059375]]],[[[138.9734685,35.9059375],[138.9734685,35.905979],[138.973437,35.905958],[138.9734685,35.9059375]]],[[[138.9734685,35.9059375],[138.973437,35.905958],[138.973437,35.905917],[138.9734685,35.9059375]]],[[[138.9735,35.905958],[138.9735,35.906],[138.9734685,35.905979],[138.9735,35.905958]]],[[[138.973437,35.905958],[138.9734685,35.905979],[138.973437,35.906],[138.973437,35.905958]]],[[[138.9734685,35.905979],[138.9735,35.906],[138.9734685,35.906021],[138.9734685,35.905979]]],[[[138.9734685,35.905979],[138.9734685,35.906021],[138.973437,35.906],[138.9734685,35.905979]]],[[[138.9734685,35.906021],[138.9735,35.906042],[138.973437,35.906042],[138.9734685,35.906021]]],[[[138.9734685,35.906021],[138.973437,35.906042],[138.973437,35.906],[138.9734685,35.906021]]],[[[138.9734685,35.906021],[138.9735,35.906],[138.9735,35.906042],[138.9734685,35.906021]]],[[[138.9735,35.905833],[138.9734685,35.9058125],[138.9735,35.905792],[138.9735,35.905833]]],[[[138.9735,35.905833],[138.9735,35.905875],[138.9734685,35.905854],[138.9735,35.905833]]],[[[138.9735,35.905833],[138.9734685,35.905854],[138.9734685,35.9058125],[138.9735,35.905833]]],[[[138.973437,35.905792],[138.973437,35.90575],[138.9734685,35.905771],[138.973437,35.905792]]],[[[138.973437,35.905792],[138.9734685,35.905771],[138.9734685,35.9058125],[138.973437,35.905792]]],[[[138.973437,35.905792],[138.9734685,35.9058125],[138.973437,35.905833],[138.973437,35.905792]]],[[[138.9735,35.905792],[138.9734685,35.905771],[138.9735,35.90575],[138.9735,35.905792]]],[[[138.9735,35.905792],[138.9734685,35.9058125],[138.9734685,35.905771],[138.9735,35.905792]]],[[[138.973437,35.90575],[138.973437,35.905708],[138.9734685,35.905729],[138.973437,35.90575]]],[[[138.973437,35.90575],[138.9734685,35.905729],[138.9734685,35.905771],[138.973437,35.90575]]],[[[138.9735,35.90575],[138.9734685,35.905729],[138.9735,35.905708],[138.9735,35.90575]]],[[[138.9735,35.90575],[138.9734685,35.905771],[138.9734685,35.905729],[138.9735,35.90575]]],[[[138.973437,35.905708],[138.973437,35.905667],[138.9734685,35.9056875],[138.973437,35.905708]]],[[[138.973437,35.905708],[138.9734685,35.9056875],[138.9734685,35.905729],[138.973437,35.905708]]],[[[138.9735,35.905708],[138.9734685,35.9056875],[138.9735,35.905667],[138.9735,35.905708]]],[[[138.9735,35.905708],[138.9734685,35.905729],[138.9734685,35.9056875],[138.9735,35.905708]]],[[[138.973437,35.905667],[138.973437,35.905625],[138.9734685,35.905646],[138.973437,35.905667]]],[[[138.973437,35.905667],[138.9734685,35.905646],[138.9734685,35.9056875],[138.973437,35.905667]]],[[[138.973437,35.905833],[138.9734685,35.9058125],[138.9734685,35.905854],[138.973437,35.905833]]],[[[138.9735,35.905667],[138.9734685,35.905646],[138.9735,35.905625],[138.9735,35.905667]]],[[[138.9735,35.905667],[138.9734685,35.9056875],[138.9734685,35.905646],[138.9735,35.905667]]]]},"properties":{"layer":"flood","class_code":"2","class_label":"0.5m以上3m未満","scale_code":"1","scale_label":"L1（計画規模）"}},{"type":"Feature","id":"fld_bbc4c754-3da3-4039-996f-aee194ab5e24","geometry":{"type":"MultiPolygon","coordinates":[[[[138.9735,35.905333],[138.9734685,35.9053125],[138.9735,35.905292],[138.9735,35.905333]]],[[[138.973437,35.905333],[138.973406,35.905354],[138.973406,35.9053125],[138.973437,35.905333]]],[[[138.973437,35.905333],[138.9734685,35.9053125],[138.9735,35.905333],[138.973437,35.905333]]],[[[138.973437,35.905333],[138.973406,35.9053125],[138.9734685,35.9053125],[138.973437,35.905333]]],[[[138.973375,35.905333],[138.973406,35.9053125],[138.973406,35.905354],[138.973375,35.905333]]],[[[138.973375,35.905333],[138.973375,35.905292],[138.973406,35.9053125],[138.973375,35.905333]]],[[[138.9735,35.905125],[138.9734685,35.905104],[138.9735,35.905083],[138.9735,35.905125]]],[[[138.9734685,35.905229],[138.9734685,35.905271],[138.973406,35.905271],[138.9734685,35.905229]]],[[[138.9734685,35.905229],[138.973406,35.905271],[138.973406,35.905229],[138.9734685,35.905229]]],[[[138.9734685,35.905271],[138.973406,35.9053125],[138.973406,35.905271],[138.9734685,35.905271]]],[[[138.9734685,35.905271],[138.9734685,35.9053125],[138.973406,35.9053125],[138.9734685,35.905271]]],[[[138.973437,35.905375],[138.973406,35.905354],[138.973437,35.905333],[138.973437,35.905375]]],[[[138.973375,35.905375],[138.973406,35.905354],[138.973437,35.905375],[138.973375,35.905375]]],[[[138.973375,35.905375],[138.973375,35.905333],[138.973406,35.905354],[138.973375,35.905375]]],[[[138.973437,35.905083],[138.9734685,35.905104],[138.973437,35.905125],[138.973437,35.905083]]],[[[138.973437,35.905083],[138.9735,35.905083],[138.9734685,35.905104],[138.973437,35.905083]]],[[[138.973437,35.905125],[138.9734685,35.905104],[138.9734685,35.905146],[138.973437,35.905125]]],[[[138.973375,35.905292],[138.973375,35.90525],[138.973406,35.905271],[138.973375,35.905292]]],[[[138.9735,35.905125],[138.9734685,35.905146],[138.9734685,35.905104],[138.9735,35.905125]]],[[[138.9735,35.905167],[138.9734685,35.9051875],[138.9734685,35.905146],[138.9735,35.905167]]],[[[138.9735,35.905167],[138.9734685,35.905146],[138.9735,35.905125],[138.9735,35.905167]]],[[[138.973437,35.905167],[138.9734685,35.905146],[138.9734685,35.9051875],[138.973437,35.905167]]],[[[138.973437,35.905167],[138.973437,35.905125],[138.9734685,35.905146],[138.973437,35.905167]]],[[[138.9735,35.905208],[138.9734685,35.905229],[138.9734685,35.9051875],[138.9735,35.905208]]],[[[138.9735,35.905208],[138.9734685,35.9051875],[138.9735,35.905167],[138.9735,35.905208]]],[[[138.973437,35.905208],[138.9734685,35.905229],[138.973406,35.905229],[138.973437,35.905208]]],[[[138.973437,35.905208],[138.9734685,35.9051875],[138.9734685,35.905229],[138.973437,35.905208]]],[[[138.973437,35.905208],[138.973437,35.905167],[138.9734685,35.9051875],[138.973437,35.905208]]],[[[138.9735,35.90525],[138.9734685,35.905229],[138.9735,35.905208],[138.9735,35.90525]]],[[[138.9735,35.90525],[138.9734685,35.905271],[138.9734685,35.905229],[138.9735,35.90525]]],[[[138.973375,35.90525],[138.973406,35.905229],[138.973406,35.905271],[138.973375,35.90525]]],[[[138.973375,35.905208],[138.973406,35.905229],[138.973375,35.90525],[138.973375,35.905208]]],[[[138.973375,35.905208],[138.973437,35.905208],[138.973406,35.905229],[138.973375,35.905208]]],[[[138.9735,35.905292],[138.9734685,35.905271],[138.9735,35.90525],[138.9735,35.905292]]],[[[138.9735,35.905292],[138.9734685,35.9053125],[138.9734685,35.905271],[138.9735,35.905292]]],[[[138.973375,35.905292],[138.973406,35.905271],[138.973406,35.9053125],[138.973375,35.905292]]]]},"properties":{"layer":"flood","class_code":"2","class_label":"0.5m以上3m未満","scale_code":"1","scale_label":"L1（計画規模）"}},{"type":"Feature","id":"fld_8258ac8b-7932-457c-a1ad-ae7a79ef206a","geometry":{"type":"MultiPolygon","coordinates":[[[[138.973375,35.905958],[138.973437,35.905958],[138.973406,35.905979],[138.973375,35.905958]]],[[[138.973375,35.905958],[138.973406,35.905979],[138.973375,35.906],[138.973375,35.905958]]],[[[138.973375,35.906],[138.973406,35.905979],[138.973406,35.906021],[138.973375,35.906]]],[[[138.973375,35.906],[138.973406,35.906021],[138.973375,35.906042],[138.973375,35.906]]],[[[138.973375,35.906042],[138.973406,35.906021],[138.973406,35.9060625],[138.973375,35.906042]]],[[[138.973375,35.906042],[138.973406,35.9060625],[138.973375,35.906083],[138.973375,35.906042]]],[[[138.973375,35.906083],[138.973406,35.9060625],[138.973437,35.906083],[138.973375,35.906083]]],[[[138.973406,35.9060625],[138.973437,35.906042],[138.973437,35.906083],[138.973406,35.9060625]]],[[[138.973406,35.9060625],[138.973406,35.906021],[138.973437,35.906042],[138.973406,35.9060625]]],[[[138.973406,35.906021],[138.973437,35.906],[138.973437,35.906042],[138.973406,35.906021]]],[[[138.973406,35.906021],[138.973406,35.905979],[138.973437,35.906],[138.973406,35.906021]]],[[[138.973406,35.905979],[138.973437,35.905958],[138.973437,35.906],[138.973406,35.905979]]]]},"properties":{"layer":"flood","class_code":"3","class_label":"3m以上5m未満","scale_code":"1","scale_label":"L1（計画規模）"}},{"type":"Feature","id":"fld_ecc9aeb2-a41b-4040-aa57-49f29038fe61","geometry":{"type":"MultiPolygon","coordinates":[[[[138.973375,35.905417],[138.973375,35.905375],[138.973406,35.905396],[138.973375,35.905417]]],[[[138.973375,35.905417],[138.973406,35.905396],[138.973437,35.905417],[138.973375,35.905417]]],[[[138.973437,35.905417],[138.973406,35.905396],[138.973437,35.905375],[138.973437,35.905417]]],[[[138.973437,35.905375],[138.973406,35.905396],[138.973375,35.905375],[138.973437,35.905375]]]]},"properties":{"layer":"flood","class_code":"3","class_label":"3m以上5m未満","scale_code":"1","scale_label":"L1（計画規模）"}},{"type":"Feature","id":"fld_b8d9d234-9b79-41fc-baf7-402284699325","geometry":{"type":"MultiPolygon","coordinates":[[[[138.973437,35.905333],[138.9735,35.905333],[138.9734685,35.905354],[138.973437,35.905333]]],[[[138.973437,35.905333],[138.9734685,35.905354],[138.973437,35.905375],[138.973437,35.905333]]],[[[138.973437,35.905375],[138.9734685,35.905354],[138.9735,35.905375],[138.973437,35.905375]]],[[[138.9735,35.905375],[138.9734685,35.905354],[138.9735,35.905333],[138.9735,35.905375]]]]},"properties":{"layer":"flood","class_code":"3","class_label":"3m以上5m未満","scale_code":"1","scale_label":"L1（計画規模）"}},{"type":"Feature","id":"fld_8f2920c5-6a85-4e1a-aea4-111f026b20c5","geometry":{"type":"MultiPolygon","coordinates":[[[[138.974469,35.906771],[138.974438,35.906792],[138.974438,35.90675],[138.974469,35.906771]]],[[[138.974469,35.906771],[138.974438,35.90675],[138.9745,35.90675],[138.974469,35.906771]]],[[[138.9745,35.906792],[138.974531,35.906771],[138.974562,35.906792],[138.9745,35.906792]]],[[[138.9745,35.906792],[138.9745,35.90675],[138.974531,35.906771],[138.9745,35.906792]]],[[[138.974531,35.906771],[138.9745,35.90675],[138.974562,35.90675],[138.974531,35.906771]]],[[[138.9745,35.906792],[138.974469,35.906771],[138.9745,35.90675],[138.9745,35.906792]]],[[[138.9745,35.906792],[138.974438,35.906792],[138.974469,35.906771],[138.9745,35.906792]]],[[[138.974531,35.906771],[138.974562,35.90675],[138.974562,35.906792],[138.974531,35.906771]]],[[[138.9745935,35.906771],[138.974562,35.90675],[138.974625,35.90675],[138.9745935,35.906771]]],[[[138.9745935,35.906771],[138.974625,35.90675],[138.974625,35.906792],[138.9745935,35.906771]]],[[[138.9745935,35.906771],[138.974625,35.906792],[138.974562,35.906792],[138.9745935,35.906771]]],[[[138.9745935,35.906771],[138.974562,35.906792],[138.974562,35.90675],[138.9745935,35.906771]]]]},"properties":{"layer":"flood","class_code":"1","class_label":"0.5m未満","scale_code":"2","scale_label":"L2（想定最大規模）"}},{"type":"Feature","id":"fld_40d67e01-edba-4f8a-942f-8685eadec65f","geometry":{"type":"MultiPolygon","coordinates":[[[[138.97325,35.906667],[138.973313,35.906667],[138.9732815,35.9066875],[138.97325,35.906667]]],[[[138.97325,35.906667],[138.9732815,35.9066875],[138.97325,35.906708],[138.97325,35.906667]]],[[[138.9732815,35.9066875],[138.973313,35.906667],[138.973313,35.906708],[138.9732815,35.9066875]]],[[[138.9732815,35.9066875],[138.973313,35.906708],[138.97325,35.906708],[138.9732815,35.9066875]]]]},"properties":{"layer":"flood","class_code":"1","class_label":"0.5m未満","scale_code":"2","scale_label":"L2（想定最大規模）"}},{"type":"Feature","id":"fld_10642a02-ce8d-4c93-a6f7-b7f0b1075955","geometry":{"type":"MultiPolygon","coordinates":[[[[138.9732815,35.9054375],[138.973313,35.905417],[138.973313,35.905458],[138.9732815,35.9054375]]],[[[138.973313,35.905417],[138.9732815,35.905396],[138.973313,35.905375],[138.973313,35.905417]]],[[[138.97325,35.905417],[138.97325,35.905375],[138.9732815,35.905396],[138.97325,35.905417]]],[[[138.9732815,35.905396],[138.97325,35.905375],[138.9732815,35.905354],[138.9732815,35.905396]]],[[[138.9732815,35.905396],[138.9732815,35.905354],[138.973313,35.905375],[138.9732815,35.905396]]],[[[138.973313,35.905375],[138.9732815,35.905354],[138.973313,35.905333],[138.973313,35.905375]]],[[[138.9732815,35.9054375],[138.9732815,35.905396],[138.973313,35.905417],[138.9732815,35.9054375]]],[[[138.97325,35.905333],[138.973313,35.905333],[138.9732815,35.905354],[138.97325,35.905333]]],[[[138.97325,35.905333],[138.9732815,35.905354],[138.97325,35.905375],[138.97325,35.905333]]],[[[138.9732815,35.9054375],[138.973313,35.905458],[138.97325,35.905458],[138.9732815,35.9054375]]],[[[138.9732815,35.9054375],[138.97325,35.905458],[138.97325,35.905417],[138.9732815,35.9054375]]],[[[138.9732815,35.9054375],[138.97325,35.905417],[138.9732815,35.905396],[138.9732815,35.9054375]]]]},"properties":{"layer":"flood","class_code":"1","class_label":"0.5m未満","scale_code":"2","scale_label":"L2（想定最大規模）"}},{"type":"Feature","id":"fld_4daaaeca-8761-4aa5-9551-387aa8506eb5","geometry":{"type":"MultiPolygon","coordinates":[[[[138.9734685,35.9060625],[138.9735,35.906042],[138.9735,35.906083],[138.9734685,35.9060625]]],[[[138.9734685,35.9060625],[138.9735,35.906083],[138.973437,35.906083],[138.9734685,35.9060625]]],[[[138.9734685,35.9060625],[138.973437,35.906083],[138.973437,35.906042],[138.9734685,35.9060625]]],[[[138.9734685,35.9060625],[138.973437,35.906042],[138.9735,35.906042],[138.9734685,35.9060625]]]]},"properties":{"layer":"flood","class_code":"1","class_label":"0.5m未満","scale_code":"2","scale_label":"L2（想定最大規模）"}},{"type":"Feature","id":"fld_06f01f17-ae93-440b-aef2-86376ab745ab","geometry":{"type":"MultiPolygon","coordinates":[[[[138.9734685,35.904854],[138.973437,35.904833],[138.9735,35.904833],[138.9734685,35.904854]]],[[[138.9734685,35.904854],[138.973437,35.904875],[138.973437,35.904833],[138.9734685,35.904854]]],[[[138.9734685,35.904854],[138.9735,35.904875],[138.973437,35.904875],[138.9734685,35.904854]]],[[[138.9734685,35.904854],[138.9735,35.904833],[138.9735,35.904875],[138.9734685,35.904854]]]]},"properties":{"layer":"flood","class_code":"1","class_label":"0.5m未満","scale_code":"2","scale_label":"L2（想定最大規模）"}},{"type":"Feature","id":"fld_2301a873-9be7-471f-81ad-91ce2c14bbc8","geometry":{"type":"MultiPolygon","coordinates":[[[[138.973375,35.906167],[138.973344,35.9061875],[138.973313,35.906167],[138.973375,35.906167]]],[[[138.973344,35.9061875],[138.973313,35.906208],[138.973313,35.906167],[138.973344,35.9061875]]],[[[138.973375,35.906208],[138.973313,35.906208],[138.973344,35.9061875],[138.973375,35.906208]]],[[[138.973375,35.906208],[138.973344,35.9061875],[138.973375,35.906167],[138.973375,35.906208]]]]},"properties":{"layer":"flood","class_code":"1","class_label":"0.5m未満","scale_code":"2","scale_label":"L2（想定最大規模）"}},{"type":"Feature","id":"fld_6277eac0-60bd-4916-9885-3f5c22799cd4","geometry":{"type":"MultiPolygon","coordinates":[[[[138.973375,35.905],[138.973375,35.904958],[138.973406,35.904979],[138.973375,35.905]]],[[[138.973437,35.905],[138.973375,35.905],[138.973406,35.904979],[138.973437,35.905]]],[[[138.973437,35.904958],[138.973437,35.905],[138.973406,35.904979],[138.973437,35.904958]]],[[[138.973437,35.904958],[138.973406,35.904979],[138.973375,35.904958],[138.973437,35.904958]]]]},"properties":{"layer":"flood","class_code":"1","class_label":"0.5m未満","scale_code":"2","scale_label":"L2（想定最大規模）"}},{"type":"Feature","id":"fld_a0e16193-233c-423d-9b23-fa857b15497e","geometry":{"type":"MultiPolygon","coordinates":[[[[138.974656,35.906771],[138.974687,35.90675],[138.974687,35.906792],[138.974656,35.906771]]],[[[138.974656,35.906771],[138.974625,35.90675],[138.974687,35.90675],[138.974656,35.906771]]],[[[138.974656,35.906771],[138.974625,35.906792],[138.974625,35.90675],[138.974656,35.906771]]],[[[138.974656,35.906771],[138.974687,35.906792],[138.974625,35.906792],[138.974656,35.906771]]]]},"properties":{"layer":"flood","class_code":"2","class_label":"0.5m以上3m未満","scale_code":"2","scale_label":"L2（想定最大規模）"}},{"type":"Feature","id":"fld_47e79b2e-e24c-4151-a14f-eb8dfb22bc98","geometry":{"type":"MultiPolygon","coordinates":[[[[138.973531,35.906729],[138.9735,35.90675],[138.9735,35.906708],[138.973531,35.906729]]],[[[138.973531,35.906729],[138.973562,35.90675],[138.9735,35.90675],[138.973531,35.906729]]],[[[138.9735935,35.906729],[138.973625,35.906708],[138.973625,35.90675],[138.9735935,35.906729]]],[[[138.9735935,35.906729],[138.973562,35.906708],[138.973625,35.906708],[138.9735935,35.906729]]],[[[138.9735935,35.906729],[138.973562,35.90675],[138.973562,35.906708],[138.9735935,35.906729]]],[[[138.9735935,35.906729],[138.973625,35.90675],[138.973562,35.90675],[138.9735935,35.906729]]],[[[138.973656,35.906729],[138.973687,35.906708],[138.973687,35.90675],[138.973656,35.906729]]],[[[138.973656,35.906729],[138.973625,35.906708],[138.973687,35.906708],[138.973656,35.906729]]],[[[138.9737185,35.906729],[138.973687,35.90675],[138.973687,35.906708],[138.9737185,35.906729]]],[[[138.973656,35.906729],[138.973625,35.90675],[138.973625,35.906708],[138.973656,35.906729]]],[[[138.973656,35.906729],[138.973687,35.90675],[138.973625,35.90675],[138.973656,35.906729]]],[[[138.9737185,35.906729],[138.97375,35.906708],[138.97375,35.90675],[138.9737185,35.906729]]],[[[138.9737185,35.906729],[138.973687,35.906708],[138.97375,35.906708],[138.9737185,35.906729]]],[[[138.9737185,35.906729],[138.97375,35.90675],[138.973687,35.90675],[138.9737185,35.906729]]],[[[138.9737815,35.906729],[138.973813,35.906708],[138.973813,35.90675],[138.9737815,35.906729]]],[[[138.9737815,35.906729],[138.97375,35.906708],[138.973813,35.906708],[138.9737815,35.906729]]],[[[138.9737815,35.906729],[138.97375,35.90675],[138.97375,35.906708],[138.9737815,35.906729]]],[[[138.9737815,35.906729],[138.973813,35.90675],[138.97375,35.90675],[138.9737815,35.906729]]],[[[138.973844,35.906729],[138.973875,35.906708],[138.973875,35.90675],[138.973844,35.906729]]],[[[138.973844,35.906729],[138.973813,35.906708],[138.973875,35.906708],[138.973844,35.906729]]],[[[138.973844,35.906729],[138.973813,35.90675],[138.973813,35.906708],[138.973844,35.906729]]],[[[138.973844,35.906729],[138.973875,35.90675],[138.973813,35.90675],[138.973844,35.906729]]],[[[138.9739065,35.906729],[138.973938,35.906708],[138.973938,35.90675],[138.9739065,35.906729]]],[[[138.9739065,35.906729],[138.973875,35.906708],[138.973938,35.906708],[138.9739065,35.906729]]],[[[138.9739065,35.906729],[138.973875,35.90675],[138.973875,35.906708],[138.9739065,35.906729]]],[[[138.9739065,35.906729],[138.973938,35.90675],[138.973875,35.90675],[138.9739065,35.906729]]],[[[138.973969,35.906729],[138.974,35.906708],[138.974,35.90675],[138.973969,35.906729]]],[[[138.973969,35.906729],[138.973938,35.906708],[138.974,35.906708],[138.973969,35.906729]]],[[[138.973969,35.906729],[138.973938,35.90675],[138.973938,35.906708],[138.973969,35.906729]]],[[[138.973969,35.906729],[138.974,35.90675],[138.973938,35.90675],[138.973969,35.906729]]],[[[138.9740315,35.906729],[138.974,35.90675],[138.974,35.906708],[138.9740315,35.906729]]],[[[138.9742815,35.906729],[138.974313,35.906708],[138.974313,35.90675],[138.9742815,35.906729]]],[[[138.974063,35.906708],[138.974125,35.906708],[138.974094,35.906729],[138.974063,35.906708]]],[[[138.974094,35.906729],[138.974125,35.906708],[138.974125,35.90675],[138.974094,35.906729]]],[[[138.974063,35.90675],[138.974094,35.906729],[138.974125,35.90675],[138.974063,35.90675]]],[[[138.974063,35.90675],[138.974063,35.906708],[138.974094,35.906729],[138.974063,35.90675]]],[[[138.9740315,35.906729],[138.974063,35.90675],[138.974,35.90675],[138.9740315,35.906729]]],[[[138.9740315,35.906729],[138.974063,35.906708],[138.974063,35.90675],[138.9740315,35.906729]]],[[[138.9740315,35.906729],[138.974,35.906708],[138.974063,35.906708],[138.9740315,35.906729]]],[[[138.973531,35.906729],[138.973562,35.906708],[138.973562,35.90675],[138.973531,35.906729]]],[[[138.9742815,35.906729],[138.974313,35.90675],[138.97425,35.90675],[138.9742815,35.906729]]],[[[138.974156,35.906729],[138.974125,35.90675],[138.974125,35.906708],[138.974156,35.906729]]],[[[138.974156,35.906729],[138.974187,35.90675],[138.974125,35.90675],[138.974156,35.906729]]],[[[138.974156,35.906729],[138.974187,35.906708],[138.974187,35.90675],[138.974156,35.906729]]],[[[138.974156,35.906729],[138.974125,35.906708],[138.974187,35.906708],[138.974156,35.906729]]],[[[138.9742185,35.906729],[138.97425,35.90675],[138.974187,35.90675],[138.9742185,35.906729]]],[[[138.9742185,35.906729],[138.97425,35.906708],[138.97425,35.90675],[138.9742185,35.906729]]],[[[138.9742185,35.906729],[138.974187,35.906708],[138.97425,35.906708],[138.9742185,35.906729]]],[[[138.9742185,35.906729],[138.974187,35.90675],[138.974187,35.906708],[138.9742185,35.906729]]],[[[138.9742815,35.906729],[138.97425,35.906708],[138.974313,35.906708],[138.9742815,35.906729]]],[[[138.9742815,35.906729],[138.97425,35.90675],[138.97425,35.906708],[138.9742815,35.906729]]],[[[138.974344,35.906729],[138.974375,35.906708],[138.974375,35.90675],[138.974344,35.906729]]],[[[138.974344,35.906729],[138.974313,35.906708],[138.974375,35.906708],[138.974344,35.906729]]],[[[138.974344,35.906729],[138.974313,35.90675],[138.974313,35.906708],[138.974344,35.906729]]],[[[138.974344,35.906729],[138.974375,35.90675],[138.974313,35.90675],[138.974344,35.906729]]],[[[138.9744065,35.906729],[138.974438,35.906708],[138.974438,35.90675],[138.9744065,35.906729]]],[[[138.9744065,35.906729],[138.974375,35.906708],[138.974438,35.906708],[138.9744065,35.906729]]],[[[138.9744065,35.906729],[138.974375,35.90675],[138.974375,35.906708],[138.9744065,35.906729]]],[[[138.9744065,35.906729],[138.974438,35.90675],[138.974375,35.90675],[138.9744065,35.906729]]],[[[138.974469,35.906729],[138.9745,35.906708],[138.9745,35.90675],[138.974469,35.906729]]],[[[138.974469,35.906729],[138.974438,35.906708],[138.9745,35.906708],[138.974469,35.906729]]],[[[138.974469,35.906729],[138.974438,35.90675],[138.974438,35.906708],[138.974469,35.906729]]],[[[138.974469,35.906729],[138.9745,35.90675],[138.974438,35.90675],[138.974469,35.906729]]],[[[138.974531,35.906729],[138.974562,35.906708],[138.974562,35.90675],[138.974531,35.906729]]],[[[138.974531,35.906729],[138.9745,35.906708],[138.974562,35.906708],[138.974531,35.906729]]],[[[138.974531,35.906729],[138.9745,35.90675],[138.9745,35.906708],[138.974531,35.906729]]],[[[138.974531,35.906729],[138.974562,35.90675],[138.9745,35.90675],[138.974531,35.906729]]],[[[138.9745935,35.906729],[138.974562,35.90675],[138.974562,35.906708],[138.9745935,35.906729]]],[[[138.9745935,35.906729],[138.974625,35.90675],[138.974562,35.90675],[138.9745935,35.906729]]],[[[138.9745935,35.906729],[138.974625,35.906708],[138.974625,35.90675],[138.9745935,35.906729]]],[[[138.9745935,35.906729],[138.974562,35.906708],[138.974625,35.906708],[138.9745935,35.906729]]],[[[138.973531,35.906729],[138.9735,35.906708],[138.973562,35.906708],[138.973531,35.906729]]]]},"properties":{"layer":"flood","class_code":"2","class_label":"0.5m以上3m未満","scale_code":"2","scale_label":"L2（想定最大規模）"}},{"type":"Feature","id":"fld_6e7896e4-3b23-48ba-a447-10ebba6cdd84","geometry":{"type":"MultiPolygon","coordinates":[[[[138.973437,35.906125],[138.973437,35.906167],[138.973406,35.906146],[138.973437,35.906125]]],[[[138.973375,35.906167],[138.973406,35.906146],[138.973437,35.906167],[138.973375,35.906167]]],[[[138.973375,35.906167],[138.973344,35.906146],[138.973375,35.906125],[138.973375,35.906167]]],[[[138.973375,35.906167],[138.973375,35.906125],[138.973406,35.906146],[138.973375,35.906167]]],[[[138.973437,35.906125],[138.973406,35.906146],[138.973375,35.906125],[138.973437,35.906125]]],[[[138.973313,35.906167],[138.973313,35.906125],[138.973344,35.906146],[138.973313,35.906167]]],[[[138.973375,35.906167],[138.973313,35.906167],[138.973344,35.906146],[138.973375,35.906167]]],[[[138.973313,35.906125],[138.973375,35.906125],[138.973344,35.906146],[138.973313,35.906125]]]]},"properties":{"layer":"flood","class_code":"2","class_label":"0.5m以上3m未満","scale_code":"2","scale_label":"L2（想定最大規模）"}},{"type":"Feature","id":"fld_11b244b5-7aa9-424b-a99a-38cd13215bd3","geometry":{"type":"MultiPolygon","coordinates":[[[[138.97325,35.906208],[138.97325,35.906167],[138.9732815,35.9061875],[138.97325,35.906208]]],[[[138.97325,35.906208],[138.9732815,35.9061875],[138.973313,35.906208],[138.97325,35.906208]]],[[[138.973313,35.906208],[138.9732815,35.9061875],[138.973313,35.906167],[138.973313,35.906208]]],[[[138.97325,35.906167],[138.973313,35.906167],[138.9732815,35.9061875],[138.97325,35.906167]]]]},"properties":{"layer":"flood","class_code":"2","class_label":"0.5m以上3m未満","scale_code":"2","scale_label":"L2（想定最大規模）"}},{"type":"Feature","id":"fld_c794716e-dbab-4cdd-8a68-f6d7481a1c8c","geometry":{"type":"MultiPolygon","coordinates":[[[[138.97325,35.906208],[138.97325,35.90625],[138.973219,35.906229],[138.97325,35.906208]]],[[[138.97325,35.906208],[138.973219,35.906229],[138.973188,35.906208],[138.97325,35.906208]]],[[[138.973188,35.90625],[138.973219,35.906229],[138.97325,35.90625],[138.973188,35.90625]]],[[[138.973188,35.906208],[138.973219,35.906229],[138.973188,35.90625],[138.973188,35.906208]]]]},"properties":{"layer":"flood","class_code":"2","class_label":"0.5m以上3m未満","scale_code":"2","scale_label":"L2（想定最大規模）"}},{"type":"Feature","id":"fld_02333f87-dec1-4c42-ba66-fa4aa62e9dbe","geometry":{"type":"MultiPolygon","coordinates":[[[[138.974812,35.906667],[138.9748435,35.9066875],[138.974812,35.906708],[138.974812,35.906667]]],[[[138.974812,35.90675],[138.974812,35.906708],[138.9748435,35.906729],[138.974812,35.90675]]],[[[138.974875,35.90675],[138.974812,35.90675],[138.9748435,35.906729],[138.974875,35.90675]]],[[[138.974875,35.90675],[138.9749065,35.906729],[138.974938,35.90675],[138.974875,35.90675]]],[[[138.974875,35.90675],[138.974875,35.906708],[138.9749065,35.906729],[138.974875,35.90675]]],[[[138.974875,35.90675],[138.9748435,35.906729],[138.974875,35.906708],[138.974875,35.90675]]],[[[138.974875,35.906708],[138.9748435,35.906729],[138.9748435,35.9066875],[138.974875,35.906708]]],[[[138.974812,35.906667],[138.974781,35.9066875],[138.97475,35.906667],[138.974812,35.906667]]],[[[138.974875,35.906708],[138.9748435,35.9066875],[138.974875,35.906667],[138.974875,35.906708]]],[[[138.974812,35.906667],[138.974812,35.906708],[138.974781,35.9066875],[138.974812,35.906667]]],[[[138.974812,35.906667],[138.974875,35.906667],[138.9748435,35.9066875],[138.974812,35.906667]]],[[[138.974938,35.90675],[138.9749065,35.906729],[138.974938,35.906708],[138.974938,35.90675]]],[[[138.974938,35.906708],[138.9749065,35.906729],[138.974875,35.906708],[138.974938,35.906708]]],[[[138.97475,35.906667],[138.974781,35.9066875],[138.97475,35.906708],[138.97475,35.906667]]],[[[138.97475,35.906708],[138.974781,35.9066875],[138.974812,35.906708],[138.97475,35.906708]]],[[[138.974812,35.906708],[138.9748435,35.9066875],[138.9748435,35.906729],[138.974812,35.906708]]]]},"properties":{"layer":"flood","class_code":"2","class_label":"0.5m以上3m未満","scale_code":"2","scale_label":"L2（想定最大規模）"}},{"type":"Feature","id":"fld_3f10f335-afb8-4ca5-9b27-48039de3730b","geometry":{"type":"MultiPolygon","coordinates":[[[[138.974938,35.906833],[138.975,35.906833],[138.974969,35.906854],[138.974938,35.906833]]],[[[138.974938,35.906875],[138.974969,35.906854],[138.975,35.906875],[138.974938,35.906875]]],[[[138.974938,35.906875],[138.974938,35.906833],[138.974969,35.906854],[138.974938,35.906875]]],[[[138.975,35.906833],[138.975,35.906875],[138.974969,35.906854],[138.975,35.906833]]]]},"properties":{"layer":"flood","class_code":"2","class_label":"0.5m以上3m未満","scale_code":"2","scale_label":"L2（想定最大規模）"}},{"type":"Feature","id":"fld_b23df47e-cbbd-43c9-915b-33a305ead425","geometry":{"type":"MultiPolygon","coordinates":[[[[138.973375,35.905167],[138.973406,35.905146],[138.973406,35.9051875],[138.973375,35.905167]]],[[[138.973437,35.905167],[138.973406,35.905146],[138.973437,35.905125],[138.973437,35.905167]]],[[[138.973437,35.905167],[138.973406,35.9051875],[138.973406,35.905146],[138.973437,35.905167]]],[[[138.973375,35.905125],[138.973406,35.905104],[138.973406,35.905146],[138.973375,35.905125]]],[[[138.973437,35.905083],[138.9734685,35.9050625],[138.9735,35.905083],[138.973437,35.905083]]],[[[138.973437,35.905125],[138.973406,35.905104],[138.973437,35.905083],[138.973437,35.905125]]],[[[138.973437,35.905125],[138.973406,35.905146],[138.973406,35.905104],[138.973437,35.905125]]],[[[138.973375,35.905083],[138.973375,35.905042],[138.973406,35.9050625],[138.973375,35.905083]]],[[[138.973375,35.905083],[138.973406,35.9050625],[138.973406,35.905104],[138.973375,35.905083]]],[[[138.973437,35.904958],[138.973437,35.904917],[138.9734685,35.9049375],[138.973437,35.904958]]],[[[138.9735,35.905],[138.9734685,35.905021],[138.9734685,35.904979],[138.9735,35.905]]],[[[138.973437,35.905083],[138.973406,35.9050625],[138.9734685,35.9050625],[138.973437,35.905083]]],[[[138.9735,35.905],[138.9734685,35.904979],[138.9735,35.904958],[138.9735,35.905]]],[[[138.973437,35.905],[138.9734685,35.905021],[138.973406,35.905021],[138.973437,35.905]]],[[[138.973437,35.905],[138.973437,35.904958],[138.9734685,35.904979],[138.973437,35.905]]],[[[138.9735,35.905042],[138.9734685,35.905021],[138.9735,35.905],[138.9735,35.905042]]],[[[138.9735,35.905042],[138.9734685,35.9050625],[138.9734685,35.905021],[138.9735,35.905042]]],[[[138.973375,35.905042],[138.973406,35.905021],[138.973406,35.9050625],[138.973375,35.905042]]],[[[138.973375,35.905],[138.973406,35.905021],[138.973375,35.905042],[138.973375,35.905]]],[[[138.973375,35.905125],[138.973375,35.905083],[138.973406,35.905104],[138.973375,35.905125]]],[[[138.973406,35.905021],[138.9734685,35.9050625],[138.973406,35.9050625],[138.973406,35.905021]]],[[[138.9734685,35.905021],[138.9734685,35.9050625],[138.973406,35.905021],[138.9734685,35.905021]]],[[[138.973375,35.905],[138.973437,35.905],[138.973406,35.905021],[138.973375,35.905]]],[[[138.9735,35.905083],[138.9734685,35.9050625],[138.9735,35.905042],[138.9735,35.905083]]],[[[138.973437,35.905083],[138.973406,35.905104],[138.973406,35.9050625],[138.973437,35.905083]]],[[[138.9735,35.904917],[138.9734685,35.904896],[138.9735,35.904875],[138.9735,35.904917]]],[[[138.973437,35.904917],[138.9734685,35.904896],[138.9734685,35.9049375],[138.973437,35.904917]]],[[[138.973437,35.904875],[138.9734685,35.904896],[138.973437,35.904917],[138.973437,35.904875]]],[[[138.973437,35.904875],[138.9735,35.904875],[138.9734685,35.904896],[138.973437,35.904875]]],[[[138.9735,35.904958],[138.9734685,35.904979],[138.9734685,35.9049375],[138.9735,35.904958]]],[[[138.9735,35.904958],[138.9734685,35.9049375],[138.9735,35.904917],[138.9735,35.904958]]],[[[138.973437,35.904958],[138.9734685,35.9049375],[138.9734685,35.904979],[138.973437,35.904958]]],[[[138.973375,35.905208],[138.973406,35.9051875],[138.973437,35.905208],[138.973375,35.905208]]],[[[138.973437,35.905],[138.9734685,35.904979],[138.9734685,35.905021],[138.973437,35.905]]],[[[138.973375,35.905208],[138.973375,35.905167],[138.973406,35.9051875],[138.973375,35.905208]]],[[[138.973437,35.905208],[138.973406,35.9051875],[138.973437,35.905167],[138.973437,35.905208]]],[[[138.973375,35.905167],[138.973375,35.905125],[138.973406,35.905146],[138.973375,35.905167]]],[[[138.9735,35.904917],[138.9734685,35.9049375],[138.9734685,35.904896],[138.9735,35.904917]]]]},"properties":{"layer":"flood","class_code":"2","class_label":"0.5m以上3m未満","scale_code":"2","scale_label":"L2（想定最大規模）"}},{"type":"Feature","id":"fld_e7f17e60-7ff4-4b77-93c8-949ae0576f93","geometry":{"type":"MultiPolygon","coordinates":[[[[138.9735,35.906667],[138.9735,35.906708],[138.9734685,35.9066875],[138.9735,35.906667]]],[[[138.973406,35.9066875],[138.973375,35.906667],[138.973437,35.906667],[138.973406,35.9066875]]],[[[138.9735,35.906667],[138.9734685,35.9066875],[138.973437,35.906667],[138.9735,35.906667]]],[[[138.9735,35.906708],[138.973437,35.906708],[138.9734685,35.9066875],[138.9735,35.906708]]],[[[138.973437,35.906708],[138.973437,35.906667],[138.9734685,35.9066875],[138.973437,35.906708]]],[[[138.973344,35.9066875],[138.973375,35.906708],[138.973313,35.906708],[138.973344,35.9066875]]],[[[138.973406,35.9066875],[138.973375,35.906708],[138.973375,35.906667],[138.973406,35.9066875]]],[[[138.973406,35.9066875],[138.973437,35.906708],[138.973375,35.906708],[138.973406,35.9066875]]],[[[138.973406,35.9066875],[138.973437,35.906667],[138.973437,35.906708],[138.973406,35.9066875]]],[[[138.973344,35.9066875],[138.973375,35.906667],[138.973375,35.906708],[138.973344,35.9066875]]],[[[138.973344,35.9066875],[138.973313,35.906667],[138.973375,35.906667],[138.973344,35.9066875]]],[[[138.973344,35.9066875],[138.973313,35.906708],[138.973313,35.906667],[138.973344,35.9066875]]]]},"properties":{"layer":"flood","class_code":"2","class_label":"0.5m以上3m未満","scale_code":"2","scale_label":"L2（想定最大規模）"}},{"type":"Feature","id":"fld_3def4c74-fb53-4f79-81e0-e827bd7b314a","geometry":{"type":"MultiPolygon","coordinates":[[[[138.973437,35.906],[138.9734685,35.905979],[138.9734685,35.906021],[138.973437,35.906]]],[[[138.9735,35.906],[138.9734685,35.905979],[138.9735,35.905958],[138.9735,35.906]]],[[[138.9735,35.906],[138.9734685,35.906021],[138.9734685,35.905979],[138.9735,35.906]]],[[[138.973437,35.905958],[138.9734685,35.905979],[138.973437,35.906],[138.973437,35.905958]]],[[[138.9735,35.906042],[138.9734685,35.906021],[138.9735,35.906],[138.9735,35.906042]]],[[[138.973437,35.906042],[138.973437,35.906],[138.9734685,35.906021],[138.973437,35.906042]]],[[[138.973437,35.905958],[138.9735,35.905958],[138.9734685,35.905979],[138.973437,35.905958]]],[[[138.973437,35.906042],[138.9734685,35.906021],[138.9735,35.906042],[138.973437,35.906042]]]]},"properties":{"layer":"flood","class_code":"2","class_label":"0.5m以上3m未満","scale_code":"2","scale_label":"L2（想定最大規模）"}},{"type":"Feature","id":"fld_b865411e-2630-4d90-90be-e7e9038dc881","geometry":{"type":"MultiPolygon","coordinates":[[[[138.97325,35.905833],[138.973188,35.905833],[138.973219,35.9058125],[138.97325,35.905833]]],[[[138.973188,35.905792],[138.973219,35.9058125],[138.973188,35.905833],[138.973188,35.905792]]],[[[138.973219,35.905771],[138.973219,35.9058125],[138.973188,35.905792],[138.973219,35.905771]]],[[[138.973188,35.905625],[138.97325,35.905625],[138.973219,35.905646],[138.973188,35.905625]]],[[[138.973188,35.905667],[138.973219,35.905646],[138.973219,35.9056875],[138.973188,35.905667]]],[[[138.97325,35.905792],[138.973219,35.9058125],[138.973219,35.905771],[138.97325,35.905792]]],[[[138.97325,35.905792],[138.97325,35.905833],[138.973219,35.9058125],[138.97325,35.905792]]],[[[138.973188,35.90575],[138.973219,35.905771],[138.973188,35.905792],[138.973188,35.90575]]],[[[138.973188,35.905625],[138.973219,35.905646],[138.973188,35.905667],[138.973188,35.905625]]],[[[138.97325,35.905625],[138.97325,35.905667],[138.973219,35.905646],[138.97325,35.905625]]],[[[138.97325,35.905667],[138.97325,35.905708],[138.973219,35.9056875],[138.97325,35.905667]]],[[[138.97325,35.905667],[138.973219,35.9056875],[138.973219,35.905646],[138.97325,35.905667]]],[[[138.973188,35.905667],[138.973219,35.9056875],[138.973188,35.905708],[138.973188,35.905667]]],[[[138.97325,35.905708],[138.97325,35.90575],[138.973219,35.905729],[138.97325,35.905708]]],[[[138.97325,35.905708],[138.973219,35.905729],[138.973219,35.9056875],[138.97325,35.905708]]],[[[138.973188,35.905708],[138.973219,35.9056875],[138.973219,35.905729],[138.973188,35.905708]]],[[[138.973188,35.905708],[138.973219,35.905729],[138.973188,35.90575],[138.973188,35.905708]]],[[[138.97325,35.90575],[138.97325,35.905792],[138.973219,35.905771],[138.97325,35.90575]]],[[[138.97325,35.90575],[138.973219,35.905771],[138.973219,35.905729],[138.97325,35.90575]]],[[[138.973188,35.90575],[138.973219,35.905729],[138.973219,35.905771],[138.973188,35.90575]]]]},"properties":{"layer":"flood","class_code":"2","class_label":"0.5m以上3m未満","scale_code":"2","scale_label":"L2（想定最大規模）"}},{"type":"Feature","id":"fld_26496b1b-466b-49eb-a98e-7e3a9108f8e5","geometry":{"type":"MultiPolygon","coordinates":[[[[138.973313,35.905542],[138.973313,35.905583],[138.9732815,35.9055625],[138.973313,35.905542]]],[[[138.973313,35.9055],[138.9732815,35.905479],[138.973313,35.905458],[138.973313,35.9055]]],[[[138.973313,35.9055],[138.973313,35.905542],[138.9732815,35.905521],[138.973313,35.9055]]],[[[138.97325,35.9055],[138.97325,35.905458],[138.9732815,35.905479],[138.97325,35.9055]]],[[[138.97325,35.9055],[138.9732815,35.905479],[138.9732815,35.905521],[138.97325,35.9055]]],[[[138.97325,35.9055],[138.9732815,35.905521],[138.97325,35.905542],[138.97325,35.9055]]],[[[138.973313,35.905458],[138.9732815,35.905479],[138.97325,35.905458],[138.973313,35.905458]]],[[[138.973313,35.9055],[138.9732815,35.905521],[138.9732815,35.905479],[138.973313,35.9055]]],[[[138.97325,35.905542],[138.9732815,35.905521],[138.9732815,35.9055625],[138.97325,35.905542]]],[[[138.97325,35.905583],[138.97325,35.905542],[138.9732815,35.9055625],[138.97325,35.905583]]],[[[138.973313,35.905583],[138.97325,35.905583],[138.9732815,35.9055625],[138.973313,35.905583]]],[[[138.973313,35.905542],[138.9732815,35.9055625],[138.9732815,35.905521],[138.973313,35.905542]]]]},"properties":{"layer":"flood","class_code":"2","class_label":"0.5m以上3m未満","scale_code":"2","scale_label":"L2（想定最大規模）"}},{"type":"Feature","id":"fld_9ca4561a-61cc-4e5c-b085-d8942563ff96","geometry":{"type":"MultiPolygon","coordinates":[[[[138.9735,35.905667],[138.9734685,35.9056875],[138.9734685,35.905646],[138.9735,35.905667]]],[[[138.9735,35.9055],[138.9734685,35.905521],[138.9734685,35.905479],[138.9735,35.9055]]],[[[138.9735,35.9055],[138.9734685,35.905479],[138.9735,35.905458],[138.9735,35.9055]]],[[[138.973437,35.9055],[138.9734685,35.905479],[138.9734685,35.905521],[138.973437,35.9055]]],[[[138.973437,35.905458],[138.9734685,35.905479],[138.973437,35.9055],[138.973437,35.905458]]],[[[138.973437,35.905458],[138.9735,35.905458],[138.9734685,35.905479],[138.973437,35.905458]]],[[[138.9735,35.905542],[138.9734685,35.9055625],[138.9734685,35.905521],[138.9735,35.905542]]],[[[138.9735,35.905542],[138.9734685,35.905521],[138.9735,35.9055],[138.9735,35.905542]]],[[[138.973437,35.905542],[138.9734685,35.905521],[138.9734685,35.9055625],[138.973437,35.905542]]],[[[138.973437,35.905542],[138.973437,35.9055],[138.9734685,35.905521],[138.973437,35.905542]]],[[[138.9735,35.905583],[138.9734685,35.905604],[138.9734685,35.9055625],[138.9735,35.905583]]],[[[138.9735,35.905583],[138.9734685,35.9055625],[138.9735,35.905542],[138.9735,35.905583]]],[[[138.973437,35.905583],[138.973437,35.905542],[138.9734685,35.9055625],[138.973437,35.905583]]],[[[138.9735,35.905625],[138.9734685,35.905646],[138.9734685,35.905604],[138.9735,35.905625]]],[[[138.9735,35.905625],[138.9734685,35.905604],[138.9735,35.905583],[138.9735,35.905625]]],[[[138.973437,35.905625],[138.9734685,35.905604],[138.9734685,35.905646],[138.973437,35.905625]]],[[[138.973437,35.905625],[138.973437,35.905583],[138.9734685,35.905604],[138.973437,35.905625]]],[[[138.973437,35.905667],[138.9734685,35.905646],[138.9734685,35.9056875],[138.973437,35.905667]]],[[[138.973437,35.905667],[138.973437,35.905625],[138.9734685,35.905646],[138.973437,35.905667]]],[[[138.9735,35.905708],[138.9734685,35.905729],[138.9734685,35.9056875],[138.9735,35.905708]]],[[[138.9735,35.905667],[138.9735,35.905708],[138.9734685,35.9056875],[138.9735,35.905667]]],[[[138.973437,35.905708],[138.9734685,35.9056875],[138.9734685,35.905729],[138.973437,35.905708]]],[[[138.973437,35.905708],[138.973437,35.905667],[138.9734685,35.9056875],[138.973437,35.905708]]],[[[138.9735,35.90575],[138.9734685,35.905771],[138.9734685,35.905729],[138.9735,35.90575]]],[[[138.9735,35.90575],[138.9734685,35.905729],[138.9735,35.905708],[138.9735,35.90575]]],[[[138.973437,35.90575],[138.9734685,35.905729],[138.9734685,35.905771],[138.973437,35.90575]]],[[[138.973437,35.90575],[138.973437,35.905708],[138.9734685,35.905729],[138.973437,35.90575]]],[[[138.9735,35.905792],[138.9734685,35.9058125],[138.9734685,35.905771],[138.9735,35.905792]]],[[[138.9735,35.905792],[138.9734685,35.905771],[138.9735,35.90575],[138.9735,35.905792]]],[[[138.973437,35.905792],[138.9734685,35.905771],[138.9734685,35.9058125],[138.973437,35.905792]]],[[[138.973437,35.905792],[138.973437,35.90575],[138.9734685,35.905771],[138.973437,35.905792]]],[[[138.9735,35.905917],[138.9734685,35.905896],[138.9735,35.905875],[138.9735,35.905917]]],[[[138.973437,35.905917],[138.973437,35.905875],[138.9734685,35.905896],[138.973437,35.905917]]],[[[138.9734685,35.905854],[138.9735,35.905875],[138.9734685,35.905896],[138.9734685,35.905854]]],[[[138.9734685,35.905854],[138.9734685,35.905896],[138.973437,35.905875],[138.9734685,35.905854]]],[[[138.973437,35.905917],[138.9734685,35.905896],[138.9735,35.905917],[138.973437,35.905917]]],[[[138.973437,35.905833],[138.9734685,35.905854],[138.973437,35.905875],[138.973437,35.905833]]],[[[138.973437,35.905833],[138.9734685,35.9058125],[138.9734685,35.905854],[138.973437,35.905833]]],[[[138.973437,35.905833],[138.973437,35.905792],[138.9734685,35.9058125],[138.973437,35.905833]]],[[[138.9735,35.905833],[138.9734685,35.9058125],[138.9735,35.905792],[138.9735,35.905833]]],[[[138.9735,35.905833],[138.9734685,35.905854],[138.9734685,35.9058125],[138.9735,35.905833]]],[[[138.9735,35.905833],[138.9735,35.905875],[138.9734685,35.905854],[138.9735,35.905833]]],[[[138.9735,35.905667],[138.9734685,35.905646],[138.9735,35.905625],[138.9735,35.905667]]],[[[138.973437,35.905583],[138.9734685,35.9055625],[138.9734685,35.905604],[138.973437,35.905583]]]]},"properties":{"layer":"flood","class_code":"2","class_label":"0.5m以上3m未満","scale_code":"2","scale_label":"L2（想定最大規模）"}},{"type":"Feature","id":"fld_374b4316-ae0d-4e12-8cf6-297be9b825ff","geometry":{"type":"MultiPolygon","coordinates":[[[[138.973375,35.905417],[138.973344,35.905396],[138.973375,35.905375],[138.973375,35.905417]]],[[[138.973313,35.905333],[138.973375,35.905333],[138.973344,35.905354],[138.973313,35.905333]]],[[[138.973313,35.905333],[138.973344,35.905354],[138.973313,35.905375],[138.973313,35.905333]]],[[[138.973375,35.905375],[138.973344,35.905354],[138.973375,35.905333],[138.973375,35.905375]]],[[[138.973375,35.905375],[138.973344,35.905396],[138.973344,35.905354],[138.973375,35.905375]]],[[[138.973313,35.905375],[138.973344,35.905354],[138.973344,35.905396],[138.973313,35.905375]]],[[[138.973313,35.905417],[138.973313,35.905375],[138.973344,35.905396],[138.973313,35.905417]]],[[[138.973313,35.905417],[138.973344,35.905396],[138.973375,35.905417],[138.973313,35.905417]]]]},"properties":{"layer":"flood","class_code":"2","class_label":"0.5m以上3m未満","scale_code":"2","scale_label":"L2（想定最大規模）"}},{"type":"Feature","id":"fld_db558f02-9437-4a2e-ab3b-3260eed772dd","geometry":{"type":"MultiPolygon","coordinates":[[[[138.9735,35.906708],[138.973531,35.9066875],[138.973562,35.906708],[138.9735,35.906708]]],[[[138.9735,35.906708],[138.9735,35.906667],[138.973531,35.9066875],[138.9735,35.906708]]],[[[138.973562,35.906667],[138.973531,35.9066875],[138.9735,35.906667],[138.973562,35.906667]]],[[[138.973562,35.906667],[138.973562,35.906708],[138.973531,35.9066875],[138.973562,35.906667]]]]},"properties":{"layer":"flood","class_code":"3","class_label":"3m以上5m未満","scale_code":"2","scale_label":"L2（想定最大規模）"}},{"type":"Feature","id":"fld_75f62722-7b10-4771-a9ab-185eb94e4a69","geometry":{"type":"MultiPolygon","coordinates":[[[[138.973188,35.905833],[138.97325,35.905833],[138.973219,35.905854],[138.973188,35.905833]]],[[[138.973188,35.905833],[138.973219,35.905854],[138.973188,35.905875],[138.973188,35.905833]]],[[[138.97325,35.905833],[138.97325,35.905875],[138.973219,35.905854],[138.97325,35.905833]]],[[[138.973219,35.905854],[138.973219,35.905896],[138.973188,35.905875],[138.973219,35.905854]]],[[[138.973219,35.905854],[138.97325,35.905875],[138.973219,35.905896],[138.973219,35.905854]]],[[[138.97325,35.905875],[138.97325,35.905917],[138.973219,35.905896],[138.97325,35.905875]]],[[[138.973188,35.905875],[138.973219,35.905896],[138.973188,35.905917],[138.973188,35.905875]]],[[[138.973188,35.905917],[138.973219,35.905896],[138.973219,35.9059375],[138.973188,35.905917]]],[[[138.973188,35.905917],[138.973219,35.9059375],[138.973188,35.905958],[138.973188,35.905917]]],[[[138.973219,35.9059375],[138.97325,35.905958],[138.973188,35.905958],[138.973219,35.9059375]]],[[[138.973219,35.9059375],[138.973219,35.905896],[138.97325,35.905917],[138.973219,35.9059375]]],[[[138.973219,35.9059375],[138.97325,35.905917],[138.97325,35.905958],[138.973219,35.9059375]]]]},"properties":{"layer":"flood","class_code":"3","class_label":"3m以上5m未満","scale_code":"2","scale_label":"L2（想定最大規模）"}},{"type":"Feature","id":"fld_06718012-ecc7-4a5f-927f-9de514606a8c","geometry":{"type":"MultiPolygon","coordinates":[[[[138.973406,35.906104],[138.973437,35.906083],[138.973437,35.906125],[138.973406,35.906104]]],[[[138.973375,35.906],[138.973406,35.905979],[138.973406,35.906021],[138.973375,35.906]]],[[[138.973406,35.905979],[138.973437,35.905958],[138.973437,35.906],[138.973406,35.905979]]],[[[138.973406,35.906021],[138.973406,35.905979],[138.973437,35.906],[138.973406,35.906021]]],[[[138.973406,35.906021],[138.973437,35.906],[138.973437,35.906042],[138.973406,35.906021]]],[[[138.973406,35.9060625],[138.973406,35.906021],[138.973437,35.906042],[138.973406,35.9060625]]],[[[138.973375,35.906],[138.973406,35.906021],[138.973375,35.906042],[138.973375,35.906]]],[[[138.973375,35.906],[138.973375,35.905958],[138.973406,35.905979],[138.973375,35.906]]],[[[138.973375,35.905958],[138.973437,35.905958],[138.973406,35.905979],[138.973375,35.905958]]],[[[138.973375,35.906042],[138.973406,35.906021],[138.973406,35.9060625],[138.973375,35.906042]]],[[[138.973375,35.906042],[138.973406,35.9060625],[138.973375,35.906083],[138.973375,35.906042]]],[[[138.973375,35.906083],[138.973406,35.9060625],[138.973406,35.906104],[138.973375,35.906083]]],[[[138.973375,35.906083],[138.973406,35.906104],[138.973375,35.906125],[138.973375,35.906083]]],[[[138.973375,35.906125],[138.973406,35.906104],[138.973437,35.906125],[138.973375,35.906125]]],[[[138.973406,35.9060625],[138.973437,35.906042],[138.973437,35.906083],[138.973406,35.9060625]]],[[[138.973406,35.906104],[138.973406,35.9060625],[138.973437,35.906083],[138.973406,35.906104]]]]},"properties":{"layer":"flood","class_code":"3","class_label":"3m以上5m未満","scale_code":"2","scale_label":"L2（想定最大規模）"}},{"type":"Feature","id":"fld_e421e5f4-9fe7-49ad-8f08-2d9abddf9279","geometry":{"type":"MultiPolygon","coordinates":[[[[138.9735,35.905917],[138.9735,35.905958],[138.9734685,35.9059375],[138.9735,35.905917]]],[[[138.9735,35.905917],[138.9734685,35.9059375],[138.973437,35.905917],[138.9735,35.905917]]],[[[138.9734685,35.9059375],[138.9735,35.905958],[138.973437,35.905958],[138.9734685,35.9059375]]],[[[138.9734685,35.9059375],[138.973437,35.905958],[138.973437,35.905917],[138.9734685,35.9059375]]]]},"properties":{"layer":"flood","class_code":"3","class_label":"3m以上5m未満","scale_code":"2","scale_label":"L2（想定最大規模）"}},{"type":"Feature","id":"fld_0b7be3ef-2fd3-4ff6-855d-2ed55d1e1295","geometry":{"type":"MultiPolygon","coordinates":[[[[138.973437,35.905417],[138.9735,35.905417],[138.9734685,35.9054375],[138.973437,35.905417]]],[[[138.973437,35.905417],[138.9734685,35.9054375],[138.973437,35.905458],[138.973437,35.905417]]],[[[138.9735,35.905458],[138.9734685,35.9054375],[138.9735,35.905417],[138.9735,35.905458]]],[[[138.9735,35.905458],[138.973437,35.905458],[138.9734685,35.9054375],[138.9735,35.905458]]]]},"properties":{"layer":"flood","class_code":"3","class_label":"3m以上5m未満","scale_code":"2","scale_label":"L2（想定最大規模）"}},{"type":"Feature","id":"fld_15141592-b883-4920-87ac-82edb439e0f2","geometry":{"type":"MultiPolygon","coordinates":[[[[138.973437,35.905125],[138.973437,35.905083],[138.9734685,35.905104],[138.973437,35.905125]]],[[[138.973437,35.905125],[138.9734685,35.905104],[138.9734685,35.905146],[138.973437,35.905125]]],[[[138.973437,35.905083],[138.9735,35.905083],[138.9734685,35.905104],[138.973437,35.905083]]],[[[138.9734685,35.905104],[138.9735,35.905083],[138.9735,35.905125],[138.9734685,35.905104]]],[[[138.9734685,35.905104],[138.9735,35.905125],[138.9734685,35.905146],[138.9734685,35.905104]]],[[[138.973406,35.905271],[138.9734685,35.905229],[138.9734685,35.905271],[138.973406,35.905271]]],[[[138.973406,35.905271],[138.9734685,35.905271],[138.973437,35.905292],[138.973406,35.905271]]],[[[138.973406,35.905271],[138.973437,35.905292],[138.973406,35.9053125],[138.973406,35.905271]]],[[[138.973406,35.905271],[138.973406,35.905229],[138.9734685,35.905229],[138.973406,35.905271]]],[[[138.9734685,35.905271],[138.9735,35.90525],[138.9735,35.905292],[138.9734685,35.905271]]],[[[138.9734685,35.905271],[138.9735,35.905292],[138.973437,35.905292],[138.9734685,35.905271]]],[[[138.9734685,35.905271],[138.9734685,35.905229],[138.9735,35.90525],[138.9734685,35.905271]]],[[[138.973437,35.905333],[138.973406,35.9053125],[138.973437,35.905292],[138.973437,35.905333]]],[[[138.9734685,35.9051875],[138.973437,35.905208],[138.973437,35.905167],[138.9734685,35.9051875]]],[[[138.9734685,35.905229],[138.9735,35.905208],[138.9735,35.90525],[138.9734685,35.905229]]],[[[138.9734685,35.9051875],[138.9734685,35.905229],[138.973437,35.905208],[138.9734685,35.9051875]]],[[[138.9734685,35.9051875],[138.9735,35.905208],[138.9734685,35.905229],[138.9734685,35.9051875]]],[[[138.9734685,35.9051875],[138.9735,35.905167],[138.9735,35.905208],[138.9734685,35.9051875]]],[[[138.9734685,35.9051875],[138.9734685,35.905146],[138.9735,35.905167],[138.9734685,35.9051875]]],[[[138.973375,35.905208],[138.973437,35.905208],[138.973406,35.905229],[138.973375,35.905208]]],[[[138.973375,35.905208],[138.973406,35.905229],[138.973375,35.90525],[138.973375,35.905208]]],[[[138.9734685,35.9051875],[138.973437,35.905167],[138.9734685,35.905146],[138.9734685,35.9051875]]],[[[138.973375,35.905333],[138.973406,35.9053125],[138.973437,35.905333],[138.973375,35.905333]]],[[[138.973437,35.905167],[138.973437,35.905125],[138.9734685,35.905146],[138.973437,35.905167]]],[[[138.973375,35.905333],[138.973375,35.905292],[138.973406,35.9053125],[138.973375,35.905333]]],[[[138.973375,35.90525],[138.973406,35.905229],[138.973406,35.905271],[138.973375,35.90525]]],[[[138.973375,35.905292],[138.973406,35.905271],[138.973406,35.9053125],[138.973375,35.905292]]],[[[138.973375,35.905292],[138.973375,35.90525],[138.973406,35.905271],[138.973375,35.905292]]],[[[138.973437,35.905208],[138.9734685,35.905229],[138.973406,35.905229],[138.973437,35.905208]]],[[[138.9734685,35.905146],[138.9735,35.905125],[138.9735,35.905167],[138.9734685,35.905146]]]]},"properties":{"layer":"flood","class_code":"3","class_label":"3m以上5m未満","scale_code":"2","scale_label":"L2（想定最大規模）"}},{"type":"Feature","id":"fld_6f14f7d5-d756-4478-8c4e-52cf000ada3d","geometry":{"type":"MultiPolygon","coordinates":[[[[138.973375,35.905333],[138.973437,35.905333],[138.973406,35.905354],[138.973375,35.905333]]],[[[138.973375,35.905333],[138.973406,35.905354],[138.973375,35.905375],[138.973375,35.905333]]],[[[138.973406,35.905354],[138.973406,35.905396],[138.973375,35.905375],[138.973406,35.905354]]],[[[138.973406,35.905354],[138.973437,35.905333],[138.9734685,35.905354],[138.973406,35.905354]]],[[[138.973406,35.905354],[138.9734685,35.905354],[138.973406,35.905396],[138.973406,35.905354]]],[[[138.973437,35.905333],[138.973437,35.905292],[138.9734685,35.9053125],[138.973437,35.905333]]],[[[138.973437,35.905333],[138.9734685,35.9053125],[138.9734685,35.905354],[138.973437,35.905333]]],[[[138.973437,35.905292],[138.9735,35.905292],[138.9734685,35.9053125],[138.973437,35.905292]]],[[[138.973375,35.905417],[138.973375,35.905375],[138.973406,35.905396],[138.973375,35.905417]]],[[[138.973375,35.905417],[138.973406,35.905396],[138.973437,35.905417],[138.973375,35.905417]]],[[[138.973437,35.905417],[138.973406,35.905396],[138.9734685,35.905396],[138.973437,35.905417]]],[[[138.973437,35.905417],[138.9734685,35.905396],[138.9735,35.905417],[138.973437,35.905417]]],[[[138.9734685,35.9053125],[138.9735,35.905292],[138.9735,35.905333],[138.9734685,35.9053125]]],[[[138.9734685,35.9053125],[138.9735,35.905333],[138.9734685,35.905354],[138.9734685,35.9053125]]],[[[138.9735,35.905333],[138.9735,35.905375],[138.9734685,35.905354],[138.9735,35.905333]]],[[[138.9734685,35.905354],[138.9735,35.905375],[138.9734685,35.905396],[138.9734685,35.905354]]],[[[138.9734685,35.905354],[138.9734685,35.905396],[138.973406,35.905396],[138.9734685,35.905354]]],[[[138.9735,35.905375],[138.9735,35.905417],[138.9734685,35.905396],[138.9735,35.905375]]]]},"properties":{"layer":"flood","class_code":"4","class_label":"5m以上10m未満","scale_code":"2","scale_label":"L2（想定最大規模）"}}]}