{"type":"FeatureCollection","properties":{"mesh_code":"53397084","source":"PLATEAU秩父市2025","layer":"flood"},"features":[{"type":"Feature","id":"fld_a6ee717d-0dbd-4cc4-978c-aa81d1f23618","geometry":{"type":"MultiPolygon","coordinates":[[[[139.061563,35.984542],[139.061594,35.9845625],[139.061563,35.984583],[139.061563,35.984542]]],[[[139.061563,35.984542],[139.061625,35.984542],[139.061594,35.9845625],[139.061563,35.984542]]],[[[139.061594,35.9845625],[139.061625,35.984542],[139.061625,35.984583],[139.061594,35.9845625]]],[[[139.061594,35.9845625],[139.061625,35.984583],[139.061563,35.984583],[139.061594,35.9845625]]]]},"properties":{"layer":"flood","class_code":"1","class_label":"0.5m未満","scale_code":"1","scale_label":"L1（計画規模）"}},{"type":"Feature","id":"fld_0337617b-d61c-410c-b383-7b769106b6a7","geometry":{"type":"MultiPolygon","coordinates":[[[[139.061688,35.984667],[139.061688,35.984625],[139.061719,35.984646],[139.061688,35.984667]]],[[[139.061688,35.984667],[139.061719,35.984646],[139.06175,35.984667],[139.061688,35.984667]]],[[[139.061688,35.984625],[139.06175,35.984625],[139.061719,35.984646],[139.061688,35.984625]]],[[[139.06175,35.984625],[139.06175,35.984667],[139.061719,35.984646],[139.06175,35.984625]]]]},"properties":{"layer":"flood","class_code":"1","class_label":"0.5m未満","scale_code":"1","scale_label":"L1（計画規模）"}},{"type":"Feature","id":"fld_8dcbe18d-1363-428e-a3a6-a0905eb9501a","geometry":{"type":"MultiPolygon","coordinates":[[[[139.061375,35.984417],[139.0614065,35.984396],[139.061438,35.984417],[139.061375,35.984417]]],[[[139.061375,35.984417],[139.061375,35.984375],[139.0614065,35.984396],[139.061375,35.984417]]],[[[139.061438,35.984417],[139.0614065,35.984396],[139.061438,35.984375],[139.061438,35.984417]]],[[[139.0614065,35.984396],[139.061375,35.984375],[139.061438,35.984375],[139.0614065,35.984396]]]]},"properties":{"layer":"flood","class_code":"1","class_label":"0.5m未満","scale_code":"1","scale_label":"L1（計画規模）"}},{"type":"Feature","id":"fld_dd541622-a79e-42e7-a19b-24a8ee8ddbc8","geometry":{"type":"MultiPolygon","coordinates":[[[[139.061188,35.984292],[139.06125,35.984292],[139.061219,35.9843125],[139.061188,35.984292]]],[[[139.061188,35.984292],[139.061219,35.9843125],[139.061188,35.984333],[139.061188,35.984292]]],[[[139.061219,35.9843125],[139.06125,35.984333],[139.061219,35.984354],[139.061219,35.9843125]]],[[[139.061219,35.9843125],[139.061219,35.984354],[139.061188,35.984333],[139.061219,35.9843125]]],[[[139.061219,35.9843125],[139.06125,35.984292],[139.06125,35.984333],[139.061219,35.9843125]]],[[[139.06125,35.984375],[139.061188,35.984375],[139.061219,35.984354],[139.06125,35.984375]]],[[[139.06125,35.984375],[139.061219,35.984354],[139.06125,35.984333],[139.06125,35.984375]]],[[[139.061188,35.984375],[139.061188,35.984333],[139.061219,35.984354],[139.061188,35.984375]]]]},"properties":{"layer":"flood","class_code":"1","class_label":"0.5m未満","scale_code":"1","scale_label":"L1（計画規模）"}},{"type":"Feature","id":"fld_9c60f7c7-7cc9-4c6e-9bd1-937e6734ec71","geometry":{"type":"MultiPolygon","coordinates":[[[[139.061625,35.984583],[139.061625,35.984542],[139.0616565,35.9845625],[139.061625,35.984583]]],[[[139.061625,35.984583],[139.0616565,35.9845625],[139.061688,35.984583],[139.061625,35.984583]]],[[[139.061688,35.984542],[139.061688,35.984583],[139.0616565,35.9845625],[139.061688,35.984542]]],[[[139.061688,35.984542],[139.0616565,35.9845625],[139.061625,35.984542],[139.061688,35.984542]]]]},"properties":{"layer":"flood","class_code":"2","class_label":"0.5m以上3m未満","scale_code":"1","scale_label":"L1（計画規模）"}},{"type":"Feature","id":"fld_7c50a385-fb2c-46dd-a701-7049dee9d73d","geometry":{"type":"MultiPolygon","coordinates":[[[[139.061563,35.9845],[139.061594,35.984521],[139.061563,35.984542],[139.061563,35.9845]]],[[[139.061563,35.9845],[139.061625,35.9845],[139.061594,35.984521],[139.061563,35.9845]]],[[[139.061563,35.984542],[139.061594,35.984521],[139.061625,35.984542],[139.061563,35.984542]]],[[[139.061625,35.9845],[139.061625,35.984542],[139.061594,35.984521],[139.061625,35.9845]]]]},"properties":{"layer":"flood","class_code":"2","class_label":"0.5m以上3m未満","scale_code":"1","scale_label":"L1（計画規模）"}},{"type":"Feature","id":"fld_7be545f4-e484-4bc3-9601-c0992bbb4ac3","geometry":{"type":"MultiPolygon","coordinates":[[[[139.0615,35.984458],[139.061563,35.984458],[139.0615315,35.984479],[139.0615,35.984458]]],[[[139.0615,35.984458],[139.0615315,35.984479],[139.0615,35.9845],[139.0615,35.984458]]],[[[139.061563,35.984458],[139.061563,35.9845],[139.0615315,35.984479],[139.061563,35.984458]]],[[[139.0615,35.9845],[139.0615315,35.984479],[139.061563,35.9845],[139.0615,35.9845]]]]},"properties":{"layer":"flood","class_code":"2","class_label":"0.5m以上3m未満","scale_code":"1","scale_label":"L1（計画規模）"}},{"type":"Feature","id":"fld_ced2d895-85ca-4c8f-b633-b159063eae62","geometry":{"type":"MultiPolygon","coordinates":[[[[139.06125,35.984333],[139.061313,35.984333],[139.0612815,35.984354],[139.06125,35.984333]]],[[[139.06125,35.984333],[139.0612815,35.984354],[139.06125,35.984375],[139.06125,35.984333]]],[[[139.061313,35.984333],[139.061313,35.984375],[139.0612815,35.984354],[139.061313,35.984333]]],[[[139.0612815,35.984354],[139.061313,35.984375],[139.06125,35.984375],[139.0612815,35.984354]]]]},"properties":{"layer":"flood","class_code":"2","class_label":"0.5m以上3m未満","scale_code":"1","scale_label":"L1（計画規模）"}},{"type":"Feature","id":"fld_18a31489-84fd-4d6a-bc80-60c1bf84e43c","geometry":{"type":"MultiPolygon","coordinates":[[[[139.060563,35.983917],[139.060563,35.983875],[139.060594,35.983896],[139.060563,35.983917]]],[[[139.060625,35.983917],[139.060563,35.983917],[139.060594,35.983896],[139.060625,35.983917]]],[[[139.060625,35.983917],[139.060594,35.983896],[139.060625,35.983875],[139.060625,35.983917]]],[[[139.060625,35.983875],[139.060594,35.983896],[139.060563,35.983875],[139.060625,35.983875]]]]},"properties":{"layer":"flood","class_code":"1","class_label":"0.5m未満","scale_code":"2","scale_label":"L2（想定最大規模）"}},{"type":"Feature","id":"fld_5c1ec3a6-c6db-484c-91c0-128f1a22b61e","geometry":{"type":"MultiPolygon","coordinates":[[[[139.060563,35.983875],[139.0605,35.983875],[139.0605315,35.983854],[139.060563,35.983875]]],[[[139.060563,35.983875],[139.0605315,35.983854],[139.060563,35.983833],[139.060563,35.983875]]],[[[139.0605,35.983875],[139.0605,35.983833],[139.0605315,35.983854],[139.0605,35.983875]]],[[[139.060563,35.983833],[139.0605315,35.983854],[139.0605,35.983833],[139.060563,35.983833]]]]},"properties":{"layer":"flood","class_code":"1","class_label":"0.5m未満","scale_code":"2","scale_label":"L2（想定最大規模）"}},{"type":"Feature","id":"fld_f3109c22-aa6b-4c1f-9fba-3bd60941b43b","geometry":{"type":"MultiPolygon","coordinates":[[[[139.060438,35.983792],[139.0605,35.983792],[139.060469,35.9838125],[139.060438,35.983792]]],[[[139.060438,35.983792],[139.060469,35.9838125],[139.060438,35.983833],[139.060438,35.983792]]],[[[139.0605,35.983833],[139.060469,35.9838125],[139.0605,35.983792],[139.0605,35.983833]]],[[[139.0605,35.983833],[139.060438,35.983833],[139.060469,35.9838125],[139.0605,35.983833]]]]},"properties":{"layer":"flood","class_code":"1","class_label":"0.5m未満","scale_code":"2","scale_label":"L2（想定最大規模）"}},{"type":"Feature","id":"fld_0dd2d34b-5e74-4fe5-944a-9fe4ff285835","geometry":{"type":"MultiPolygon","coordinates":[[[[139.060375,35.983708],[139.060438,35.983708],[139.0604065,35.983729],[139.060375,35.983708]]],[[[139.060375,35.983708],[139.0604065,35.983729],[139.060375,35.98375],[139.060375,35.983708]]],[[[139.060438,35.98375],[139.0604065,35.983729],[139.060438,35.983708],[139.060438,35.98375]]],[[[139.060438,35.98375],[139.060375,35.98375],[139.0604065,35.983729],[139.060438,35.98375]]]]},"properties":{"layer":"flood","class_code":"1","class_label":"0.5m未満","scale_code":"2","scale_label":"L2（想定最大規模）"}},{"type":"Feature","id":"fld_546b8999-18ef-4545-afe0-57e04016fd8f","geometry":{"type":"MultiPolygon","coordinates":[[[[139.062188,35.985458],[139.06225,35.985458],[139.062219,35.985479],[139.062188,35.985458]]],[[[139.06225,35.9855],[139.062219,35.985479],[139.06225,35.985458],[139.06225,35.9855]]],[[[139.062188,35.985458],[139.062219,35.985479],[139.062188,35.9855],[139.062188,35.985458]]],[[[139.06225,35.9855],[139.062188,35.9855],[139.062219,35.985479],[139.06225,35.9855]]]]},"properties":{"layer":"flood","class_code":"1","class_label":"0.5m未満","scale_code":"2","scale_label":"L2（想定最大規模）"}},{"type":"Feature","id":"fld_75bd620e-f0b6-4c23-baa2-79ea7e9e34e3","geometry":{"type":"MultiPolygon","coordinates":[[[[139.060344,35.983646],[139.060313,35.983667],[139.060313,35.983625],[139.060344,35.983646]]],[[[139.060344,35.983646],[139.060313,35.983625],[139.060375,35.983625],[139.060344,35.983646]]],[[[139.060344,35.983646],[139.060375,35.983625],[139.060375,35.983667],[139.060344,35.983646]]],[[[139.060344,35.983646],[139.060375,35.983667],[139.060313,35.983667],[139.060344,35.983646]]]]},"properties":{"layer":"flood","class_code":"1","class_label":"0.5m未満","scale_code":"2","scale_label":"L2（想定最大規模）"}},{"type":"Feature","id":"fld_3ebef2bf-b0df-4474-bbe0-a138955dc0b3","geometry":{"type":"MultiPolygon","coordinates":[[[[139.060063,35.983417],[139.060094,35.9834375],[139.060063,35.983458],[139.060063,35.983417]]],[[[139.060063,35.983458],[139.060094,35.9834375],[139.060125,35.983458],[139.060063,35.983458]]],[[[139.060094,35.9834375],[139.060125,35.983417],[139.060125,35.983458],[139.060094,35.9834375]]],[[[139.060063,35.983417],[139.060125,35.983417],[139.060094,35.9834375],[139.060063,35.983417]]]]},"properties":{"layer":"flood","class_code":"1","class_label":"0.5m未満","scale_code":"2","scale_label":"L2（想定最大規模）"}},{"type":"Feature","id":"fld_3a249e2a-cb06-49d2-9abb-0e7788df4534","geometry":{"type":"MultiPolygon","coordinates":[[[[139.061875,35.984917],[139.061875,35.984875],[139.0619065,35.984896],[139.061875,35.984917]]],[[[139.061875,35.984917],[139.0619065,35.984896],[139.0619065,35.9849375],[139.061875,35.984917]]],[[[139.061875,35.984917],[139.0619065,35.9849375],[139.061875,35.984958],[139.061875,35.984917]]],[[[139.061875,35.984958],[139.0619065,35.9849375],[139.0619065,35.984979],[139.061875,35.984958]]],[[[139.061875,35.984958],[139.0619065,35.984979],[139.061875,35.985],[139.061875,35.984958]]],[[[139.061938,35.984958],[139.0619065,35.9849375],[139.061938,35.984917],[139.061938,35.984958]]],[[[139.061938,35.984958],[139.061938,35.985],[139.0619065,35.984979],[139.061938,35.984958]]],[[[139.061938,35.984958],[139.0619065,35.984979],[139.0619065,35.9849375],[139.061938,35.984958]]],[[[139.061875,35.984875],[139.061938,35.984875],[139.0619065,35.984896],[139.061875,35.984875]]],[[[139.061813,35.984917],[139.061813,35.984875],[139.061844,35.984896],[139.061813,35.984917]]],[[[139.061938,35.984917],[139.0619065,35.984896],[139.061938,35.984875],[139.061938,35.984917]]],[[[139.061938,35.984917],[139.0619065,35.9849375],[139.0619065,35.984896],[139.061938,35.984917]]],[[[139.061875,35.984875],[139.061844,35.984896],[139.061813,35.984875],[139.061875,35.984875]]],[[[139.0619065,35.984979],[139.061938,35.985],[139.061875,35.985],[139.0619065,35.984979]]],[[[139.061875,35.984917],[139.061813,35.984917],[139.061844,35.984896],[139.061875,35.984917]]],[[[139.061875,35.984917],[139.061844,35.984896],[139.061875,35.984875],[139.061875,35.984917]]]]},"properties":{"layer":"flood","class_code":"1","class_label":"0.5m未満","scale_code":"2","scale_label":"L2（想定最大規模）"}},{"type":"Feature","id":"fld_5094ca81-bc87-4299-bfcd-2e72c1f6502f","geometry":{"type":"MultiPolygon","coordinates":[[[[139.06175,35.984833],[139.0617815,35.984854],[139.06175,35.984875],[139.06175,35.984833]]],[[[139.061813,35.984875],[139.06175,35.984875],[139.0617815,35.984854],[139.061813,35.984875]]],[[[139.06175,35.984833],[139.061813,35.984833],[139.0617815,35.984854],[139.06175,35.984833]]],[[[139.061813,35.984875],[139.0617815,35.984854],[139.061813,35.984833],[139.061813,35.984875]]]]},"properties":{"layer":"flood","class_code":"1","class_label":"0.5m未満","scale_code":"2","scale_label":"L2（想定最大規模）"}},{"type":"Feature","id":"fld_8eb352d0-2049-4f10-b970-f55acb87e762","geometry":{"type":"MultiPolygon","coordinates":[[[[139.061313,35.984458],[139.0612815,35.9844375],[139.061313,35.984417],[139.061313,35.984458]]],[[[139.06125,35.984417],[139.061313,35.984417],[139.0612815,35.9844375],[139.06125,35.984417]]],[[[139.06125,35.984458],[139.06125,35.984417],[139.0612815,35.9844375],[139.06125,35.984458]]],[[[139.06125,35.984458],[139.0612815,35.9844375],[139.061313,35.984458],[139.06125,35.984458]]]]},"properties":{"layer":"flood","class_code":"1","class_label":"0.5m未満","scale_code":"2","scale_label":"L2（想定最大規模）"}},{"type":"Feature","id":"fld_40910649-b6dc-4aae-8525-965069672351","geometry":{"type":"MultiPolygon","coordinates":[[[[139.061438,35.984458],[139.061438,35.9845],[139.0614065,35.984479],[139.061438,35.984458]]],[[[139.061438,35.984458],[139.0614065,35.984479],[139.061375,35.984458],[139.061438,35.984458]]],[[[139.061438,35.984458],[139.061469,35.984479],[139.061438,35.9845],[139.061438,35.984458]]],[[[139.061469,35.984479],[139.0615,35.9845],[139.061469,35.984521],[139.061469,35.984479]]],[[[139.0615,35.984542],[139.061438,35.984542],[139.061469,35.984521],[139.0615,35.984542]]],[[[139.0615,35.9845],[139.0615,35.984542],[139.061469,35.984521],[139.0615,35.9845]]],[[[139.0615,35.984458],[139.061469,35.984479],[139.061438,35.984458],[139.0615,35.984458]]],[[[139.0615,35.984458],[139.0615,35.9845],[139.061469,35.984479],[139.0615,35.984458]]],[[[139.061438,35.9845],[139.061469,35.984521],[139.061438,35.984542],[139.061438,35.9845]]],[[[139.061469,35.984479],[139.061469,35.984521],[139.061438,35.9845],[139.061469,35.984479]]],[[[139.0614065,35.984479],[139.061438,35.9845],[139.061375,35.9845],[139.0614065,35.984479]]],[[[139.061375,35.984458],[139.0614065,35.984479],[139.061375,35.9845],[139.061375,35.984458]]]]},"properties":{"layer":"flood","class_code":"2","class_label":"0.5m以上3m未満","scale_code":"2","scale_label":"L2（想定最大規模）"}},{"type":"Feature","id":"fld_50ebe9a5-d177-40da-b6a7-3d91ad56db21","geometry":{"type":"MultiPolygon","coordinates":[[[[139.061375,35.984417],[139.061375,35.984458],[139.061344,35.9844375],[139.061375,35.984417]]],[[[139.061375,35.984417],[139.061344,35.9844375],[139.061313,35.984417],[139.061375,35.984417]]],[[[139.061313,35.984417],[139.061344,35.9844375],[139.061313,35.984458],[139.061313,35.984417]]],[[[139.061375,35.984458],[139.061313,35.984458],[139.061344,35.9844375],[139.061375,35.984458]]]]},"properties":{"layer":"flood","class_code":"2","class_label":"0.5m以上3m未満","scale_code":"2","scale_label":"L2（想定最大規模）"}},{"type":"Feature","id":"fld_2d44a6c2-1a3a-48e1-b9ff-890e0ab09b57","geometry":{"type":"MultiPolygon","coordinates":[[[[139.06125,35.984375],[139.061313,35.984375],[139.0612815,35.984396],[139.06125,35.984375]]],[[[139.06125,35.984375],[139.0612815,35.984396],[139.06125,35.984417],[139.06125,35.984375]]],[[[139.06125,35.984375],[139.06125,35.984417],[139.061219,35.984396],[139.06125,35.984375]]],[[[139.061313,35.984417],[139.06125,35.984417],[139.0612815,35.984396],[139.061313,35.984417]]],[[[139.061313,35.984417],[139.0612815,35.984396],[139.061313,35.984375],[139.061313,35.984417]]],[[[139.061188,35.984417],[139.061219,35.984396],[139.06125,35.984417],[139.061188,35.984417]]],[[[139.061188,35.984375],[139.061219,35.984396],[139.061188,35.984417],[139.061188,35.984375]]],[[[139.061188,35.984375],[139.06125,35.984375],[139.061219,35.984396],[139.061188,35.984375]]]]},"properties":{"layer":"flood","class_code":"2","class_label":"0.5m以上3m未満","scale_code":"2","scale_label":"L2（想定最大規模）"}},{"type":"Feature","id":"fld_243ef490-c324-4fa3-bb68-e61e522124a6","geometry":{"type":"MultiPolygon","coordinates":[[[[139.061094,35.984271],[139.061125,35.98425],[139.061125,35.984292],[139.061094,35.984271]]],[[[139.061063,35.984292],[139.061094,35.984271],[139.061125,35.984292],[139.061063,35.984292]]],[[[139.061094,35.984271],[139.061063,35.98425],[139.061125,35.98425],[139.061094,35.984271]]],[[[139.061063,35.984292],[139.061063,35.98425],[139.061094,35.984271],[139.061063,35.984292]]]]},"properties":{"layer":"flood","class_code":"2","class_label":"0.5m以上3m未満","scale_code":"2","scale_label":"L2（想定最大規模）"}},{"type":"Feature","id":"fld_4adf9a19-a918-4993-89b2-696200f6cd4f","geometry":{"type":"MultiPolygon","coordinates":[[[[139.061,35.984208],[139.0610315,35.984229],[139.061,35.98425],[139.061,35.984208]]],[[[139.061,35.98425],[139.0610315,35.984229],[139.061063,35.98425],[139.061,35.98425]]],[[[139.0610315,35.984229],[139.061063,35.984208],[139.061063,35.98425],[139.0610315,35.984229]]],[[[139.0610315,35.9841875],[139.0610315,35.984229],[139.061,35.984208],[139.0610315,35.9841875]]],[[[139.0610315,35.9841875],[139.061063,35.984208],[139.0610315,35.984229],[139.0610315,35.9841875]]],[[[139.061,35.984167],[139.0610315,35.9841875],[139.061,35.984208],[139.061,35.984167]]],[[[139.061063,35.984167],[139.0610315,35.9841875],[139.061,35.984167],[139.061063,35.984167]]],[[[139.061063,35.984167],[139.061063,35.984208],[139.0610315,35.9841875],[139.061063,35.984167]]]]},"properties":{"layer":"flood","class_code":"2","class_label":"0.5m以上3m未満","scale_code":"2","scale_label":"L2（想定最大規模）"}},{"type":"Feature","id":"fld_8f0e0a84-93e9-46da-b866-399d4c32f926","geometry":{"type":"MultiPolygon","coordinates":[[[[139.060875,35.984083],[139.060938,35.984083],[139.0609065,35.984104],[139.060875,35.984083]]],[[[139.060875,35.984125],[139.060875,35.984083],[139.0609065,35.984104],[139.060875,35.984125]]],[[[139.060875,35.984125],[139.0609065,35.984104],[139.060938,35.984125],[139.060875,35.984125]]],[[[139.060938,35.984125],[139.0609065,35.984104],[139.060938,35.984083],[139.060938,35.984125]]],[[[139.060938,35.984125],[139.060938,35.984083],[139.060969,35.984104],[139.060938,35.984125]]],[[[139.061,35.984125],[139.060969,35.984146],[139.060969,35.984104],[139.061,35.984125]]],[[[139.061,35.984167],[139.060969,35.984146],[139.061,35.984125],[139.061,35.984167]]],[[[139.060938,35.984125],[139.060969,35.984104],[139.060969,35.984146],[139.060938,35.984125]]],[[[139.061,35.984083],[139.060969,35.984104],[139.060938,35.984083],[139.061,35.984083]]],[[[139.061,35.984083],[139.061,35.984125],[139.060969,35.984104],[139.061,35.984083]]],[[[139.060938,35.984167],[139.060969,35.984146],[139.061,35.984167],[139.060938,35.984167]]],[[[139.060938,35.984125],[139.060969,35.984146],[139.060938,35.984167],[139.060938,35.984125]]]]},"properties":{"layer":"flood","class_code":"2","class_label":"0.5m以上3m未満","scale_code":"2","scale_label":"L2（想定最大規模）"}},{"type":"Feature","id":"fld_3f9fabb8-8443-4433-93aa-5cf18dc18aac","geometry":{"type":"MultiPolygon","coordinates":[[[[139.060344,35.983521],[139.060344,35.9835625],[139.0602815,35.983521],[139.060344,35.983521]]],[[[139.060469,35.9835625],[139.0604065,35.983604],[139.0604065,35.9835625],[139.060469,35.9835625]]],[[[139.060469,35.9835625],[139.0604065,35.9835625],[139.060438,35.983542],[139.060469,35.9835625]]],[[[139.060469,35.9835625],[139.0605,35.983583],[139.060469,35.983604],[139.060469,35.9835625]]],[[[139.060469,35.9835625],[139.060469,35.983604],[139.0604065,35.983604],[139.060469,35.9835625]]],[[[139.060438,35.983542],[139.0604065,35.983521],[139.060438,35.9835],[139.060438,35.983542]]],[[[139.060438,35.983542],[139.0604065,35.9835625],[139.0604065,35.983521],[139.060438,35.983542]]],[[[139.0604065,35.9835625],[139.060344,35.983604],[139.060344,35.9835625],[139.0604065,35.9835625]]],[[[139.0604065,35.9835625],[139.0604065,35.983604],[139.060344,35.983604],[139.0604065,35.9835625]]],[[[139.060344,35.9835625],[139.060344,35.983604],[139.060313,35.983583],[139.060344,35.9835625]]],[[[139.060344,35.9835625],[139.060313,35.983583],[139.0602815,35.9835625],[139.060344,35.9835625]]],[[[139.060344,35.9835625],[139.0602815,35.9835625],[139.0602815,35.983521],[139.060344,35.9835625]]],[[[139.060438,35.9835],[139.0604065,35.983521],[139.060375,35.9835],[139.060438,35.9835]]],[[[139.060313,35.983583],[139.06025,35.983583],[139.0602815,35.9835625],[139.060313,35.983583]]],[[[139.060313,35.983458],[139.0602815,35.983479],[139.06025,35.983458],[139.060313,35.983458]]],[[[139.060313,35.983458],[139.060313,35.9835],[139.0602815,35.983479],[139.060313,35.983458]]],[[[139.060313,35.9835],[139.0602815,35.983521],[139.0602815,35.983479],[139.060313,35.9835]]],[[[139.060594,35.983771],[139.060594,35.9838125],[139.0605315,35.9838125],[139.060594,35.983771]]],[[[139.060594,35.983771],[139.0605315,35.9838125],[139.0605315,35.983771],[139.060594,35.983771]]],[[[139.060594,35.983771],[139.0605315,35.983771],[139.0605315,35.983729],[139.060594,35.983771]]],[[[139.060594,35.983771],[139.0605315,35.983729],[139.060594,35.983729],[139.060594,35.983771]]],[[[139.0605315,35.983646],[139.060563,35.983667],[139.0605315,35.9836875],[139.0605315,35.983646]]],[[[139.0605315,35.983646],[139.0605315,35.9836875],[139.060469,35.983646],[139.0605315,35.983646]]],[[[139.0605315,35.983646],[139.060469,35.983646],[139.0605,35.983625],[139.0605315,35.983646]]],[[[139.0605315,35.983646],[139.0605,35.983625],[139.060563,35.983625],[139.0605315,35.983646]]],[[[139.0605315,35.983646],[139.060563,35.983625],[139.060563,35.983667],[139.0605315,35.983646]]],[[[139.060469,35.983646],[139.060469,35.9836875],[139.0604065,35.983646],[139.060469,35.983646]]],[[[139.060469,35.983646],[139.0604065,35.983646],[139.060469,35.983604],[139.060469,35.983646]]],[[[139.060469,35.983646],[139.060469,35.983604],[139.0605,35.983625],[139.060469,35.983646]]],[[[139.060469,35.983646],[139.0605315,35.9836875],[139.060469,35.9836875],[139.060469,35.983646]]],[[[139.0604065,35.983646],[139.0604065,35.9836875],[139.060375,35.983667],[139.0604065,35.983646]]],[[[139.0604065,35.983646],[139.060375,35.983667],[139.060375,35.983625],[139.0604065,35.983646]]],[[[139.0604065,35.983646],[139.060375,35.983625],[139.0604065,35.983604],[139.0604065,35.983646]]],[[[139.0604065,35.983646],[139.0604065,35.983604],[139.060469,35.983604],[139.0604065,35.983646]]],[[[139.0604065,35.983646],[139.060469,35.9836875],[139.0604065,35.9836875],[139.0604065,35.983646]]],[[[139.060594,35.9836875],[139.060594,35.983729],[139.0605315,35.983729],[139.060594,35.9836875]]],[[[139.060594,35.9836875],[139.0605315,35.983729],[139.0605315,35.9836875],[139.060594,35.9836875]]],[[[139.060594,35.9836875],[139.0605315,35.9836875],[139.060563,35.983667],[139.060594,35.9836875]]],[[[139.0605315,35.9836875],[139.0605315,35.983729],[139.060469,35.983729],[139.0605315,35.9836875]]],[[[139.0605315,35.9836875],[139.060469,35.983729],[139.060469,35.9836875],[139.0605315,35.9836875]]],[[[139.060469,35.9836875],[139.060469,35.983729],[139.060438,35.983708],[139.060469,35.9836875]]],[[[139.060469,35.9836875],[139.060438,35.983708],[139.0604065,35.9836875],[139.060469,35.9836875]]],[[[139.0605315,35.9838125],[139.0605,35.983833],[139.0605,35.983792],[139.0605315,35.9838125]]],[[[139.0605315,35.9838125],[139.0605,35.983792],[139.0605315,35.983771],[139.0605315,35.9838125]]],[[[139.0605315,35.9838125],[139.060594,35.9838125],[139.060563,35.983833],[139.0605315,35.9838125]]],[[[139.0605315,35.9838125],[139.060563,35.983833],[139.0605,35.983833],[139.0605315,35.9838125]]],[[[139.060563,35.983875],[139.060563,35.983833],[139.060594,35.983854],[139.060563,35.983875]]],[[[139.060563,35.983833],[139.060594,35.9838125],[139.060594,35.983854],[139.060563,35.983833]]],[[[139.0604065,35.9836875],[139.060438,35.983708],[139.060375,35.983708],[139.0604065,35.9836875]]],[[[139.0604065,35.9836875],[139.060375,35.983708],[139.060375,35.983667],[139.0604065,35.9836875]]],[[[139.060438,35.983792],[139.060438,35.98375],[139.060469,35.983771],[139.060438,35.983792]]],[[[139.060438,35.983792],[139.060469,35.983771],[139.0605,35.983792],[139.060438,35.983792]]],[[[139.0605,35.983792],[139.060469,35.983771],[139.0605315,35.983771],[139.0605,35.983792]]],[[[139.0605315,35.983729],[139.0605315,35.983771],[139.060469,35.983771],[139.0605315,35.983729]]],[[[139.0605315,35.983729],[139.060469,35.983771],[139.060469,35.983729],[139.0605315,35.983729]]],[[[139.060438,35.98375],[139.060438,35.983708],[139.060469,35.983729],[139.060438,35.98375]]],[[[139.060438,35.98375],[139.060469,35.983729],[139.060469,35.983771],[139.060438,35.98375]]],[[[139.060313,35.983625],[139.060313,35.983583],[139.060344,35.983604],[139.060313,35.983625]]],[[[139.060313,35.983625],[139.060344,35.983604],[139.060375,35.983625],[139.060313,35.983625]]],[[[139.060375,35.983625],[139.060344,35.983604],[139.0604065,35.983604],[139.060375,35.983625]]],[[[139.0605,35.983625],[139.060469,35.983604],[139.0605,35.983583],[139.0605,35.983625]]],[[[139.060688,35.983708],[139.060688,35.98375],[139.0606565,35.983729],[139.060688,35.983708]]],[[[139.060688,35.983708],[139.0606565,35.983729],[139.060625,35.983708],[139.060688,35.983708]]],[[[139.0606565,35.983854],[139.060594,35.983854],[139.060594,35.9838125],[139.0606565,35.983854]]],[[[139.0606565,35.983854],[139.060594,35.9838125],[139.0606565,35.9838125],[139.0606565,35.983854]]],[[[139.0606565,35.983854],[139.0606565,35.9838125],[139.060719,35.9838125],[139.0606565,35.983854]]],[[[139.0606565,35.983854],[139.060719,35.9838125],[139.060719,35.983854],[139.0606565,35.983854]]],[[[139.0606565,35.983854],[139.060719,35.983854],[139.060719,35.983896],[139.0606565,35.983854]]],[[[139.0606565,35.983854],[139.060719,35.983896],[139.0606565,35.983896],[139.0606565,35.983854]]],[[[139.0606565,35.983854],[139.0606565,35.983896],[139.060625,35.983875],[139.0606565,35.983854]]],[[[139.0606565,35.983854],[139.060625,35.983875],[139.060594,35.983854],[139.0606565,35.983854]]],[[[139.060625,35.983708],[139.060594,35.983729],[139.060594,35.9836875],[139.060625,35.983708]]],[[[139.060625,35.983708],[139.060594,35.9836875],[139.060625,35.983667],[139.060625,35.983708]]],[[[139.060625,35.983708],[139.0606565,35.983729],[139.060594,35.983729],[139.060625,35.983708]]],[[[139.060719,35.983854],[139.060719,35.9838125],[139.06075,35.983833],[139.060719,35.983854]]],[[[139.060719,35.983854],[139.06075,35.983833],[139.06075,35.983875],[139.060719,35.983854]]],[[[139.060719,35.983854],[139.06075,35.983875],[139.060719,35.983896],[139.060719,35.983854]]],[[[139.060688,35.983792],[139.0606565,35.9838125],[139.0606565,35.983771],[139.060688,35.983792]]],[[[139.060688,35.983792],[139.0606565,35.983771],[139.060688,35.98375],[139.060688,35.983792]]],[[[139.060688,35.983792],[139.06075,35.983792],[139.060719,35.9838125],[139.060688,35.983792]]],[[[139.060688,35.983792],[139.060719,35.9838125],[139.0606565,35.9838125],[139.060688,35.983792]]],[[[139.0606565,35.983771],[139.060594,35.983729],[139.0606565,35.983729],[139.0606565,35.983771]]],[[[139.0606565,35.983771],[139.0606565,35.983729],[139.060688,35.98375],[139.0606565,35.983771]]],[[[139.0606565,35.983771],[139.0606565,35.9838125],[139.060594,35.9838125],[139.0606565,35.983771]]],[[[139.0606565,35.983771],[139.060594,35.983771],[139.060594,35.983729],[139.0606565,35.983771]]],[[[139.06075,35.983833],[139.060719,35.9838125],[139.06075,35.983792],[139.06075,35.983833]]],[[[139.060625,35.983875],[139.060563,35.983875],[139.060594,35.983854],[139.060625,35.983875]]],[[[139.060625,35.983667],[139.060594,35.9836875],[139.060563,35.983667],[139.060625,35.983667]]],[[[139.060625,35.983958],[139.0606565,35.9839375],[139.0606565,35.983979],[139.060625,35.983958]]],[[[139.060625,35.983958],[139.0606565,35.983979],[139.060625,35.984],[139.060625,35.983958]]],[[[139.060625,35.983958],[139.060625,35.983917],[139.0606565,35.9839375],[139.060625,35.983958]]],[[[139.060625,35.983917],[139.060625,35.983875],[139.0606565,35.983896],[139.060625,35.983917]]],[[[139.060625,35.983917],[139.0606565,35.983896],[139.0606565,35.9839375],[139.060625,35.983917]]],[[[139.06075,35.984083],[139.060688,35.984083],[139.060719,35.9840625],[139.06075,35.984083]]],[[[139.06075,35.984083],[139.060719,35.9840625],[139.0607815,35.9840625],[139.06075,35.984083]]],[[[139.06075,35.984083],[139.0607815,35.9840625],[139.060813,35.984083],[139.06075,35.984083]]],[[[139.060688,35.984083],[139.060688,35.984042],[139.060719,35.9840625],[139.060688,35.984083]]],[[[139.060813,35.984083],[139.0607815,35.9840625],[139.060813,35.984042],[139.060813,35.984083]]],[[[139.060813,35.984083],[139.060813,35.984042],[139.060844,35.9840625],[139.060813,35.984083]]],[[[139.060813,35.984083],[139.060844,35.9840625],[139.060875,35.984083],[139.060813,35.984083]]],[[[139.060688,35.984042],[139.060719,35.984021],[139.060719,35.9840625],[139.060688,35.984042]]],[[[139.060688,35.984042],[139.060625,35.984042],[139.0606565,35.984021],[139.060688,35.984042]]],[[[139.060688,35.984042],[139.0606565,35.984021],[139.060719,35.984021],[139.060688,35.984042]]],[[[139.060875,35.984042],[139.060875,35.984083],[139.060844,35.9840625],[139.060875,35.984042]]],[[[139.060875,35.984042],[139.060844,35.9840625],[139.060813,35.984042],[139.060875,35.984042]]],[[[139.060813,35.984042],[139.0607815,35.984021],[139.060813,35.984],[139.060813,35.984042]]],[[[139.060813,35.984042],[139.0607815,35.9840625],[139.0607815,35.984021],[139.060813,35.984042]]],[[[139.06075,35.983917],[139.060719,35.983896],[139.06075,35.983875],[139.06075,35.983917]]],[[[139.06075,35.983917],[139.06075,35.983958],[139.060719,35.9839375],[139.06075,35.983917]]],[[[139.06075,35.983917],[139.060719,35.9839375],[139.060719,35.983896],[139.06075,35.983917]]],[[[139.060813,35.983958],[139.060813,35.984],[139.0607815,35.983979],[139.060813,35.983958]]],[[[139.060813,35.983958],[139.0607815,35.983979],[139.06075,35.983958],[139.060813,35.983958]]],[[[139.060625,35.984042],[139.060625,35.984],[139.0606565,35.984021],[139.060625,35.984042]]],[[[139.06075,35.983958],[139.0607815,35.983979],[139.060719,35.983979],[139.06075,35.983958]]],[[[139.06075,35.983958],[139.060719,35.983979],[139.060719,35.9839375],[139.06075,35.983958]]],[[[139.060719,35.9840625],[139.060719,35.984021],[139.0607815,35.984021],[139.060719,35.9840625]]],[[[139.060719,35.9840625],[139.0607815,35.984021],[139.0607815,35.9840625],[139.060719,35.9840625]]],[[[139.0606565,35.984021],[139.060625,35.984],[139.0606565,35.983979],[139.0606565,35.984021]]],[[[139.0606565,35.984021],[139.0606565,35.983979],[139.060719,35.984021],[139.0606565,35.984021]]],[[[139.060719,35.984021],[139.0606565,35.983979],[139.060719,35.983979],[139.060719,35.984021]]],[[[139.060719,35.984021],[139.060719,35.983979],[139.0607815,35.984021],[139.060719,35.984021]]],[[[139.0607815,35.984021],[139.060719,35.983979],[139.0607815,35.983979],[139.0607815,35.984021]]],[[[139.0606565,35.983771],[139.060594,35.9838125],[139.060594,35.983771],[139.0606565,35.983771]]],[[[139.0606565,35.983979],[139.0606565,35.9839375],[139.060719,35.983979],[139.0606565,35.983979]]],[[[139.060719,35.983979],[139.0606565,35.9839375],[139.060719,35.9839375],[139.060719,35.983979]]],[[[139.0606565,35.9839375],[139.0606565,35.983896],[139.060719,35.983896],[139.0606565,35.9839375]]],[[[139.0606565,35.9839375],[139.060719,35.983896],[139.060719,35.9839375],[139.0606565,35.9839375]]],[[[139.06,35.983333],[139.060063,35.983333],[139.0600315,35.983354],[139.06,35.983333]]],[[[139.06,35.983333],[139.0600315,35.983354],[139.06,35.983375],[139.06,35.983333]]],[[[139.060188,35.983542],[139.060188,35.9835],[139.060219,35.983521],[139.060188,35.983542]]],[[[139.060188,35.983542],[139.060219,35.983521],[139.06025,35.983542],[139.060188,35.983542]]],[[[139.060219,35.983521],[139.060219,35.983479],[139.0602815,35.983521],[139.060219,35.983521]]],[[[139.060219,35.983521],[139.0602815,35.983521],[139.06025,35.983542],[139.060219,35.983521]]],[[[139.060219,35.983521],[139.060188,35.9835],[139.060219,35.983479],[139.060219,35.983521]]],[[[139.0602815,35.983521],[139.0602815,35.9835625],[139.06025,35.983542],[139.0602815,35.983521]]],[[[139.0602815,35.983521],[139.060219,35.983479],[139.0602815,35.983479],[139.0602815,35.983521]]],[[[139.060188,35.9835],[139.060188,35.983458],[139.060219,35.983479],[139.060188,35.9835]]],[[[139.0602815,35.9835625],[139.06025,35.983583],[139.06025,35.983542],[139.0602815,35.9835625]]],[[[139.060094,35.983354],[139.060063,35.983333],[139.060125,35.983333],[139.060094,35.983354]]],[[[139.060094,35.983354],[139.060125,35.983333],[139.060125,35.983375],[139.060094,35.983354]]],[[[139.060094,35.983354],[139.060125,35.983375],[139.060094,35.983396],[139.060094,35.983354]]],[[[139.060094,35.983354],[139.060094,35.983396],[139.0600315,35.983396],[139.060094,35.983354]]],[[[139.060094,35.983354],[139.0600315,35.983396],[139.0600315,35.983354],[139.060094,35.983354]]],[[[139.060094,35.983354],[139.0600315,35.983354],[139.060063,35.983333],[139.060094,35.983354]]],[[[139.0600315,35.983354],[139.0600315,35.983396],[139.06,35.983375],[139.0600315,35.983354]]],[[[139.0601565,35.983396],[139.060188,35.983417],[139.0601565,35.9834375],[139.0601565,35.983396]]],[[[139.0601565,35.983396],[139.0601565,35.9834375],[139.060125,35.983417],[139.0601565,35.983396]]],[[[139.0601565,35.983396],[139.060125,35.983417],[139.060125,35.983375],[139.0601565,35.983396]]],[[[139.0601565,35.983396],[139.060125,35.983375],[139.060188,35.983375],[139.0601565,35.983396]]],[[[139.0601565,35.983396],[139.060188,35.983375],[139.060188,35.983417],[139.0601565,35.983396]]],[[[139.060094,35.983396],[139.060063,35.983417],[139.0600315,35.983396],[139.060094,35.983396]]],[[[139.060094,35.983396],[139.060125,35.983375],[139.060125,35.983417],[139.060094,35.983396]]],[[[139.060094,35.983396],[139.060125,35.983417],[139.060063,35.983417],[139.060094,35.983396]]],[[[139.0600315,35.983396],[139.060063,35.983417],[139.06,35.983417],[139.0600315,35.983396]]],[[[139.0600315,35.983396],[139.06,35.983417],[139.06,35.983375],[139.0600315,35.983396]]],[[[139.060125,35.983417],[139.0601565,35.9834375],[139.060125,35.983458],[139.060125,35.983417]]],[[[139.06025,35.983458],[139.060219,35.983479],[139.060219,35.9834375],[139.06025,35.983458]]],[[[139.06025,35.983458],[139.060219,35.9834375],[139.06025,35.983417],[139.06025,35.983458]]],[[[139.06025,35.983458],[139.0602815,35.983479],[139.060219,35.983479],[139.06025,35.983458]]],[[[139.060219,35.9834375],[139.060188,35.983458],[139.060188,35.983417],[139.060219,35.9834375]]],[[[139.0607815,35.984021],[139.0607815,35.983979],[139.060813,35.984],[139.0607815,35.984021]]],[[[139.060219,35.9834375],[139.060188,35.983417],[139.06025,35.983417],[139.060219,35.9834375]]],[[[139.060219,35.9834375],[139.060219,35.983479],[139.060188,35.983458],[139.060219,35.9834375]]],[[[139.0601565,35.9834375],[139.060188,35.983458],[139.060125,35.983458],[139.0601565,35.9834375]]],[[[139.0601565,35.9834375],[139.060188,35.983417],[139.060188,35.983458],[139.0601565,35.9834375]]],[[[139.0605,35.983542],[139.0605,35.983583],[139.060469,35.9835625],[139.0605,35.983542]]],[[[139.0605,35.983542],[139.060469,35.9835625],[139.060438,35.983542],[139.0605,35.983542]]],[[[139.060344,35.983521],[139.0602815,35.983521],[139.060313,35.9835],[139.060344,35.983521]]],[[[139.060344,35.983521],[139.060313,35.9835],[139.060375,35.9835],[139.060344,35.983521]]],[[[139.060344,35.983521],[139.060375,35.9835],[139.0604065,35.983521],[139.060344,35.983521]]],[[[139.060344,35.983521],[139.0604065,35.983521],[139.0604065,35.9835625],[139.060344,35.983521]]],[[[139.060344,35.983521],[139.0604065,35.9835625],[139.060344,35.9835625],[139.060344,35.983521]]]]},"properties":{"layer":"flood","class_code":"2","class_label":"0.5m以上3m未満","scale_code":"2","scale_label":"L2（想定最大規模）"}},{"type":"Feature","id":"fld_64bc848a-1397-4fcc-b33f-bcdd882e0f31","geometry":{"type":"MultiPolygon","coordinates":[[[[139.061625,35.984583],[139.061625,35.984625],[139.061594,35.984604],[139.061625,35.984583]]],[[[139.061563,35.984625],[139.061563,35.984583],[139.061594,35.984604],[139.061563,35.984625]]],[[[139.061563,35.984625],[139.061594,35.984604],[139.061625,35.984625],[139.061563,35.984625]]],[[[139.061625,35.984583],[139.061594,35.984604],[139.061563,35.984583],[139.061625,35.984583]]]]},"properties":{"layer":"flood","class_code":"2","class_label":"0.5m以上3m未満","scale_code":"2","scale_label":"L2（想定最大規模）"}},{"type":"Feature","id":"fld_6396de95-16ca-4688-965f-b44eb5f493c8","geometry":{"type":"MultiPolygon","coordinates":[[[[139.062,35.985125],[139.062,35.985083],[139.0620315,35.985104],[139.062,35.985125]]],[[[139.062063,35.985042],[139.062063,35.985083],[139.0620315,35.9850625],[139.062063,35.985042]]],[[[139.062063,35.985042],[139.0620315,35.9850625],[139.062,35.985042],[139.062063,35.985042]]],[[[139.062063,35.985083],[139.062063,35.985125],[139.0620315,35.985104],[139.062063,35.985083]]],[[[139.062,35.985042],[139.0620315,35.9850625],[139.062,35.985083],[139.062,35.985042]]],[[[139.0620315,35.985104],[139.062,35.985083],[139.0620315,35.9850625],[139.0620315,35.985104]]],[[[139.062063,35.985083],[139.0620315,35.985104],[139.0620315,35.9850625],[139.062063,35.985083]]],[[[139.062063,35.985125],[139.062,35.985125],[139.0620315,35.985104],[139.062063,35.985125]]]]},"properties":{"layer":"flood","class_code":"2","class_label":"0.5m以上3m未満","scale_code":"2","scale_label":"L2（想定最大規模）"}},{"type":"Feature","id":"fld_dddcd20c-62ee-4b8e-a937-bebadfe5208e","geometry":{"type":"MultiPolygon","coordinates":[[[[139.061563,35.984542],[139.0615315,35.9845625],[139.0615,35.984542],[139.061563,35.984542]]],[[[139.0615,35.984583],[139.0615315,35.9845625],[139.061563,35.984583],[139.0615,35.984583]]],[[[139.0615,35.984583],[139.0615,35.984542],[139.0615315,35.9845625],[139.0615,35.984583]]],[[[139.061563,35.984542],[139.061563,35.984583],[139.0615315,35.9845625],[139.061563,35.984542]]]]},"properties":{"layer":"flood","class_code":"2","class_label":"0.5m以上3m未満","scale_code":"2","scale_label":"L2（想定最大規模）"}},{"type":"Feature","id":"fld_997e4491-05d0-478e-acbe-27c9f8bcfc15","geometry":{"type":"MultiPolygon","coordinates":[[[[139.062313,35.985583],[139.06225,35.985583],[139.0622815,35.9855625],[139.062313,35.985583]]],[[[139.062313,35.985583],[139.062344,35.9855625],[139.062344,35.985604],[139.062313,35.985583]]],[[[139.062313,35.985583],[139.0622815,35.9855625],[139.062313,35.985542],[139.062313,35.985583]]],[[[139.06225,35.9855],[139.0622815,35.985479],[139.0622815,35.985521],[139.06225,35.9855]]],[[[139.06225,35.9855],[139.06225,35.985458],[139.0622815,35.985479],[139.06225,35.9855]]],[[[139.062313,35.985625],[139.062344,35.985604],[139.062375,35.985625],[139.062313,35.985625]]],[[[139.062313,35.985583],[139.062313,35.985542],[139.062344,35.9855625],[139.062313,35.985583]]],[[[139.062313,35.985458],[139.062313,35.9855],[139.0622815,35.985479],[139.062313,35.985458]]],[[[139.062313,35.985458],[139.0622815,35.985479],[139.06225,35.985458],[139.062313,35.985458]]],[[[139.06225,35.9855],[139.0622815,35.985521],[139.06225,35.985542],[139.06225,35.9855]]],[[[139.062313,35.9855],[139.0622815,35.985521],[139.0622815,35.985479],[139.062313,35.9855]]],[[[139.062313,35.985542],[139.0622815,35.9855625],[139.0622815,35.985521],[139.062313,35.985542]]],[[[139.062313,35.985542],[139.0622815,35.985521],[139.062313,35.9855],[139.062313,35.985542]]],[[[139.062375,35.985542],[139.062344,35.9855625],[139.062313,35.985542],[139.062375,35.985542]]],[[[139.06225,35.985542],[139.0622815,35.985521],[139.0622815,35.9855625],[139.06225,35.985542]]],[[[139.062375,35.985583],[139.062344,35.9855625],[139.062375,35.985542],[139.062375,35.985583]]],[[[139.062375,35.985583],[139.062344,35.985604],[139.062344,35.9855625],[139.062375,35.985583]]],[[[139.062375,35.985583],[139.062375,35.985625],[139.062344,35.985604],[139.062375,35.985583]]],[[[139.06225,35.985583],[139.06225,35.985542],[139.0622815,35.9855625],[139.06225,35.985583]]],[[[139.062313,35.985625],[139.062313,35.985583],[139.062344,35.985604],[139.062313,35.985625]]]]},"properties":{"layer":"flood","class_code":"2","class_label":"0.5m以上3m未満","scale_code":"2","scale_label":"L2（想定最大規模）"}},{"type":"Feature","id":"fld_3148d66a-3eeb-4f2a-a357-5388c17e7cfb","geometry":{"type":"MultiPolygon","coordinates":[[[[139.062125,35.98525],[139.0621565,35.985229],[139.0621565,35.985271],[139.062125,35.98525]]],[[[139.062188,35.985208],[139.062188,35.98525],[139.0621565,35.985229],[139.062188,35.985208]]],[[[139.062188,35.98525],[139.0621565,35.985271],[139.0621565,35.985229],[139.062188,35.98525]]],[[[139.0621565,35.9853125],[139.062219,35.9853125],[139.0621565,35.985354],[139.0621565,35.9853125]]],[[[139.062219,35.9853125],[139.062219,35.985354],[139.0621565,35.985354],[139.062219,35.9853125]]],[[[139.062125,35.985417],[139.062125,35.985375],[139.0621565,35.985396],[139.062125,35.985417]]],[[[139.062125,35.985417],[139.0621565,35.985396],[139.062188,35.985417],[139.062125,35.985417]]],[[[139.06225,35.985417],[139.062219,35.9854375],[139.062219,35.985396],[139.06225,35.985417]]],[[[139.06225,35.985417],[139.062219,35.985396],[139.06225,35.985375],[139.06225,35.985417]]],[[[139.06225,35.985417],[139.06225,35.985458],[139.062219,35.9854375],[139.06225,35.985417]]],[[[139.062125,35.985375],[139.0621565,35.985354],[139.0621565,35.985396],[139.062125,35.985375]]],[[[139.06225,35.985375],[139.062219,35.985396],[139.062219,35.985354],[139.06225,35.985375]]],[[[139.062188,35.985458],[139.062188,35.985417],[139.062219,35.9854375],[139.062188,35.985458]]],[[[139.062188,35.985458],[139.062219,35.9854375],[139.06225,35.985458],[139.062188,35.985458]]],[[[139.062188,35.985417],[139.0621565,35.985396],[139.062219,35.985396],[139.062188,35.985417]]],[[[139.062188,35.985417],[139.062219,35.985396],[139.062219,35.9854375],[139.062188,35.985417]]],[[[139.0621565,35.985396],[139.0621565,35.985354],[139.062219,35.985396],[139.0621565,35.985396]]],[[[139.062188,35.985292],[139.0621565,35.9853125],[139.0621565,35.985271],[139.062188,35.985292]]],[[[139.062063,35.985208],[139.062094,35.9851875],[139.062094,35.985229],[139.062063,35.985208]]],[[[139.062063,35.985125],[139.062094,35.985146],[139.062063,35.985167],[139.062063,35.985125]]],[[[139.062063,35.985125],[139.062125,35.985125],[139.062094,35.985146],[139.062063,35.985125]]],[[[139.062063,35.98525],[139.062063,35.985208],[139.062094,35.985229],[139.062063,35.98525]]],[[[139.062063,35.98525],[139.062094,35.985229],[139.062125,35.98525],[139.062063,35.98525]]],[[[139.062063,35.985208],[139.062063,35.985167],[139.062094,35.9851875],[139.062063,35.985208]]],[[[139.062188,35.985292],[139.0621565,35.985271],[139.062188,35.98525],[139.062188,35.985292]]],[[[139.062063,35.985167],[139.062094,35.985146],[139.062094,35.9851875],[139.062063,35.985167]]],[[[139.062125,35.985125],[139.062125,35.985167],[139.062094,35.985146],[139.062125,35.985125]]],[[[139.062125,35.985167],[139.062125,35.985208],[139.062094,35.9851875],[139.062125,35.985167]]],[[[139.062125,35.985167],[139.062094,35.9851875],[139.062094,35.985146],[139.062125,35.985167]]],[[[139.062125,35.985333],[139.0621565,35.9853125],[139.0621565,35.985354],[139.062125,35.985333]]],[[[139.062125,35.985333],[139.0621565,35.985354],[139.062125,35.985375],[139.062125,35.985333]]],[[[139.062125,35.985333],[139.062125,35.985292],[139.0621565,35.9853125],[139.062125,35.985333]]],[[[139.06225,35.985333],[139.062219,35.985354],[139.062219,35.9853125],[139.06225,35.985333]]],[[[139.06225,35.985333],[139.062219,35.9853125],[139.06225,35.985292],[139.06225,35.985333]]],[[[139.06225,35.985333],[139.06225,35.985375],[139.062219,35.985354],[139.06225,35.985333]]],[[[139.062125,35.985292],[139.062125,35.98525],[139.0621565,35.985271],[139.062125,35.985292]]],[[[139.062125,35.985292],[139.0621565,35.985271],[139.0621565,35.9853125],[139.062125,35.985292]]],[[[139.06225,35.985292],[139.062219,35.9853125],[139.062188,35.985292],[139.06225,35.985292]]],[[[139.062188,35.985292],[139.062219,35.9853125],[139.0621565,35.9853125],[139.062188,35.985292]]],[[[139.062219,35.985396],[139.0621565,35.985354],[139.062219,35.985354],[139.062219,35.985396]]],[[[139.062125,35.985208],[139.0621565,35.985229],[139.062125,35.98525],[139.062125,35.985208]]],[[[139.062125,35.985208],[139.062125,35.98525],[139.062094,35.985229],[139.062125,35.985208]]],[[[139.062125,35.985208],[139.062094,35.985229],[139.062094,35.9851875],[139.062125,35.985208]]],[[[139.062125,35.985208],[139.062188,35.985208],[139.0621565,35.985229],[139.062125,35.985208]]]]},"properties":{"layer":"flood","class_code":"2","class_label":"0.5m以上3m未満","scale_code":"2","scale_label":"L2（想定最大規模）"}},{"type":"Feature","id":"fld_31551d18-da6b-4591-a6b2-aeb2d2d562b1","geometry":{"type":"MultiPolygon","coordinates":[[[[139.061938,35.985042],[139.061938,35.985],[139.061969,35.985021],[139.061938,35.985042]]],[[[139.061938,35.985],[139.061938,35.984958],[139.061969,35.984979],[139.061938,35.985]]],[[[139.062,35.985042],[139.061969,35.985021],[139.062,35.985],[139.062,35.985042]]],[[[139.062,35.985],[139.061969,35.985021],[139.061969,35.984979],[139.062,35.985]]],[[[139.062,35.985042],[139.061938,35.985042],[139.061969,35.985021],[139.062,35.985042]]],[[[139.062,35.984958],[139.061969,35.984979],[139.061938,35.984958],[139.062,35.984958]]],[[[139.062,35.984958],[139.062,35.985],[139.061969,35.984979],[139.062,35.984958]]],[[[139.061938,35.985],[139.061969,35.984979],[139.061969,35.985021],[139.061938,35.985]]]]},"properties":{"layer":"flood","class_code":"2","class_label":"0.5m以上3m未満","scale_code":"2","scale_label":"L2（想定最大規模）"}},{"type":"Feature","id":"fld_0cf0500a-1531-4b55-82c8-0219f02cfd5d","geometry":{"type":"MultiPolygon","coordinates":[[[[139.061813,35.984875],[139.061813,35.984833],[139.061844,35.984854],[139.061813,35.984875]]],[[[139.061844,35.984854],[139.061813,35.984833],[139.061875,35.984833],[139.061844,35.984854]]],[[[139.061875,35.984875],[139.061813,35.984875],[139.061844,35.984854],[139.061875,35.984875]]],[[[139.061875,35.984875],[139.061844,35.984854],[139.061875,35.984833],[139.061875,35.984875]]]]},"properties":{"layer":"flood","class_code":"2","class_label":"0.5m以上3m未満","scale_code":"2","scale_label":"L2（想定最大規模）"}},{"type":"Feature","id":"fld_593f9e8a-70a8-435c-9133-d8a9ced112f1","geometry":{"type":"MultiPolygon","coordinates":[[[[139.06175,35.984833],[139.0617815,35.9848125],[139.061813,35.984833],[139.06175,35.984833]]],[[[139.0617815,35.9848125],[139.061813,35.984792],[139.061813,35.984833],[139.0617815,35.9848125]]],[[[139.06175,35.984792],[139.061813,35.984792],[139.0617815,35.9848125],[139.06175,35.984792]]],[[[139.06175,35.984833],[139.06175,35.984792],[139.0617815,35.9848125],[139.06175,35.984833]]]]},"properties":{"layer":"flood","class_code":"2","class_label":"0.5m以上3m未満","scale_code":"2","scale_label":"L2（想定最大規模）"}},{"type":"Feature","id":"fld_c7e655da-e978-4b23-9334-63690434aa7f","geometry":{"type":"MultiPolygon","coordinates":[[[[139.061625,35.984667],[139.0616565,35.9846875],[139.061625,35.984708],[139.061625,35.984667]]],[[[139.061688,35.98475],[139.061625,35.98475],[139.0616565,35.984729],[139.061688,35.98475]]],[[[139.061625,35.98475],[139.061625,35.984708],[139.0616565,35.984729],[139.061625,35.98475]]],[[[139.061688,35.984625],[139.0616565,35.984646],[139.061625,35.984625],[139.061688,35.984625]]],[[[139.061719,35.984771],[139.061719,35.984729],[139.06175,35.98475],[139.061719,35.984771]]],[[[139.061688,35.984667],[139.0616565,35.984646],[139.061688,35.984625],[139.061688,35.984667]]],[[[139.061688,35.984667],[139.061688,35.984708],[139.0616565,35.9846875],[139.061688,35.984667]]],[[[139.061688,35.984667],[139.0616565,35.9846875],[139.0616565,35.984646],[139.061688,35.984667]]],[[[139.06175,35.984708],[139.06175,35.98475],[139.061719,35.984729],[139.06175,35.984708]]],[[[139.061719,35.984771],[139.061688,35.98475],[139.061719,35.984729],[139.061719,35.984771]]],[[[139.06175,35.984708],[139.061719,35.984729],[139.061688,35.984708],[139.06175,35.984708]]],[[[139.06175,35.984792],[139.061719,35.984771],[139.06175,35.98475],[139.06175,35.984792]]],[[[139.061688,35.984708],[139.061719,35.984729],[139.061688,35.98475],[139.061688,35.984708]]],[[[139.061688,35.984708],[139.061688,35.98475],[139.0616565,35.984729],[139.061688,35.984708]]],[[[139.061688,35.984792],[139.061719,35.984771],[139.06175,35.984792],[139.061688,35.984792]]],[[[139.061688,35.984792],[139.061688,35.98475],[139.061719,35.984771],[139.061688,35.984792]]],[[[139.061625,35.984708],[139.0616565,35.9846875],[139.0616565,35.984729],[139.061625,35.984708]]],[[[139.061688,35.984708],[139.0616565,35.984729],[139.0616565,35.9846875],[139.061688,35.984708]]],[[[139.061625,35.984667],[139.061625,35.984625],[139.0616565,35.984646],[139.061625,35.984667]]],[[[139.061625,35.984667],[139.0616565,35.984646],[139.0616565,35.9846875],[139.061625,35.984667]]]]},"properties":{"layer":"flood","class_code":"2","class_label":"0.5m以上3m未満","scale_code":"2","scale_label":"L2（想定最大規模）"}},{"type":"Feature","id":"fld_af390b2c-35f1-4da2-b8f4-c1f88b0b909a","geometry":{"type":"MultiPolygon","coordinates":[[[[139.061125,35.984375],[139.061125,35.984333],[139.0611565,35.984354],[139.061125,35.984375]]],[[[139.061188,35.984333],[139.0611565,35.984354],[139.061125,35.984333],[139.061188,35.984333]]],[[[139.061125,35.984375],[139.0611565,35.984354],[139.061188,35.984375],[139.061125,35.984375]]],[[[139.061188,35.984333],[139.061188,35.984375],[139.0611565,35.984354],[139.061188,35.984333]]]]},"properties":{"layer":"flood","class_code":"2","class_label":"0.5m以上3m未満","scale_code":"2","scale_label":"L2（想定最大規模）"}},{"type":"Feature","id":"fld_270cc738-949c-45a2-ac2d-f31475b6597b","geometry":{"type":"MultiPolygon","coordinates":[[[[139.062063,35.985],[139.062063,35.985042],[139.0620315,35.985021],[139.062063,35.985]]],[[[139.062,35.985042],[139.062,35.985],[139.0620315,35.985021],[139.062,35.985042]]],[[[139.062063,35.985042],[139.062,35.985042],[139.0620315,35.985021],[139.062063,35.985042]]],[[[139.062063,35.985],[139.0620315,35.985021],[139.062,35.985],[139.062063,35.985]]]]},"properties":{"layer":"flood","class_code":"3","class_label":"3m以上5m未満","scale_code":"2","scale_label":"L2（想定最大規模）"}},{"type":"Feature","id":"fld_23e59eb2-ec46-425e-9c7c-e6985f18ea40","geometry":{"type":"MultiPolygon","coordinates":[[[[139.062125,35.985125],[139.062063,35.985125],[139.062094,35.985104],[139.062125,35.985125]]],[[[139.062063,35.985083],[139.062094,35.985104],[139.062063,35.985125],[139.062063,35.985083]]],[[[139.062125,35.985083],[139.062094,35.985104],[139.062094,35.9850625],[139.062125,35.985083]]],[[[139.062125,35.985083],[139.062125,35.985125],[139.062094,35.985104],[139.062125,35.985083]]],[[[139.062125,35.985042],[139.062125,35.985083],[139.062094,35.9850625],[139.062125,35.985042]]],[[[139.062063,35.985042],[139.062125,35.985042],[139.062094,35.9850625],[139.062063,35.985042]]],[[[139.062063,35.985042],[139.062094,35.9850625],[139.062063,35.985083],[139.062063,35.985042]]],[[[139.062063,35.985083],[139.062094,35.9850625],[139.062094,35.985104],[139.062063,35.985083]]]]},"properties":{"layer":"flood","class_code":"3","class_label":"3m以上5m未満","scale_code":"2","scale_label":"L2（想定最大規模）"}},{"type":"Feature","id":"fld_c9b9f148-1a4d-4647-940e-1121ccd6626e","geometry":{"type":"MultiPolygon","coordinates":[[[[139.062125,35.985208],[139.062125,35.985167],[139.0621565,35.9851875],[139.062125,35.985208]]],[[[139.062125,35.985208],[139.0621565,35.9851875],[139.062188,35.985208],[139.062125,35.985208]]],[[[139.062125,35.985167],[139.0621565,35.985146],[139.0621565,35.9851875],[139.062125,35.985167]]],[[[139.062188,35.985167],[139.0621565,35.9851875],[139.0621565,35.985146],[139.062188,35.985167]]],[[[139.062188,35.985167],[139.062188,35.985208],[139.0621565,35.9851875],[139.062188,35.985167]]],[[[139.062188,35.985125],[139.062188,35.985167],[139.0621565,35.985146],[139.062188,35.985125]]],[[[139.062125,35.985125],[139.0621565,35.985146],[139.062125,35.985167],[139.062125,35.985125]]],[[[139.062125,35.985125],[139.062188,35.985125],[139.0621565,35.985146],[139.062125,35.985125]]]]},"properties":{"layer":"flood","class_code":"3","class_label":"3m以上5m未満","scale_code":"2","scale_label":"L2（想定最大規模）"}},{"type":"Feature","id":"fld_abf286cf-ae18-4458-8c0b-42efcb6bfec0","geometry":{"type":"MultiPolygon","coordinates":[[[[139.061625,35.984542],[139.0616565,35.9845625],[139.061625,35.984583],[139.061625,35.984542]]],[[[139.061625,35.984542],[139.061688,35.984542],[139.0616565,35.9845625],[139.061625,35.984542]]],[[[139.0616565,35.984604],[139.061688,35.984583],[139.061688,35.984625],[139.0616565,35.984604]]],[[[139.061625,35.984625],[139.061625,35.984583],[139.0616565,35.984604],[139.061625,35.984625]]],[[[139.0615,35.9845],[139.0615,35.984458],[139.0615315,35.984479],[139.0615,35.9845]]],[[[139.061563,35.984458],[139.0615315,35.984479],[139.0615,35.984458],[139.061563,35.984458]]],[[[139.0615,35.984542],[139.0615,35.9845],[139.0615315,35.984521],[139.0615,35.984542]]],[[[139.061625,35.984625],[139.0616565,35.984604],[139.061688,35.984625],[139.061625,35.984625]]],[[[139.061594,35.984521],[139.061563,35.9845],[139.061625,35.9845],[139.061594,35.984521]]],[[[139.0615315,35.984521],[139.0615315,35.984479],[139.061563,35.9845],[139.0615315,35.984521]]],[[[139.0615315,35.984521],[139.0615,35.9845],[139.0615315,35.984479],[139.0615315,35.984521]]],[[[139.0616565,35.9845625],[139.061688,35.984542],[139.061688,35.984583],[139.0616565,35.9845625]]],[[[139.0616565,35.984604],[139.0616565,35.9845625],[139.061688,35.984583],[139.0616565,35.984604]]],[[[139.061625,35.984583],[139.0616565,35.9845625],[139.0616565,35.984604],[139.061625,35.984583]]],[[[139.061625,35.984583],[139.061563,35.984583],[139.061594,35.9845625],[139.061625,35.984583]]],[[[139.061563,35.984458],[139.061563,35.9845],[139.0615315,35.984479],[139.061563,35.984458]]],[[[139.061563,35.984542],[139.061594,35.984521],[139.061594,35.9845625],[139.061563,35.984542]]],[[[139.061563,35.984542],[139.061563,35.9845],[139.061594,35.984521],[139.061563,35.984542]]],[[[139.061625,35.984542],[139.061594,35.9845625],[139.061594,35.984521],[139.061625,35.984542]]],[[[139.061563,35.984542],[139.0615315,35.984521],[139.061563,35.9845],[139.061563,35.984542]]],[[[139.061563,35.984542],[139.0615,35.984542],[139.0615315,35.984521],[139.061563,35.984542]]],[[[139.061563,35.984542],[139.061594,35.9845625],[139.061563,35.984583],[139.061563,35.984542]]],[[[139.061625,35.984542],[139.061594,35.984521],[139.061625,35.9845],[139.061625,35.984542]]],[[[139.061625,35.984542],[139.061625,35.984583],[139.061594,35.9845625],[139.061625,35.984542]]]]},"properties":{"layer":"flood","class_code":"3","class_label":"3m以上5m未満","scale_code":"2","scale_label":"L2（想定最大規模）"}},{"type":"Feature","id":"fld_6e4e57f8-97a8-47f7-85a4-b34dfb62ea1a","geometry":{"type":"MultiPolygon","coordinates":[[[[139.061438,35.984375],[139.0614065,35.984396],[139.061375,35.984375],[139.061438,35.984375]]],[[[139.061375,35.984417],[139.061344,35.984396],[139.061375,35.984375],[139.061375,35.984417]]],[[[139.061375,35.984417],[139.0614065,35.9844375],[139.061375,35.984458],[139.061375,35.984417]]],[[[139.061375,35.984417],[139.061313,35.984417],[139.061344,35.984396],[139.061375,35.984417]]],[[[139.061438,35.984458],[139.061375,35.984458],[139.0614065,35.9844375],[139.061438,35.984458]]],[[[139.061375,35.984417],[139.061375,35.984375],[139.0614065,35.984396],[139.061375,35.984417]]],[[[139.061375,35.984417],[139.0614065,35.984396],[139.0614065,35.9844375],[139.061375,35.984417]]],[[[139.061375,35.984375],[139.061344,35.984396],[139.061313,35.984375],[139.061375,35.984375]]],[[[139.061313,35.984417],[139.061313,35.984375],[139.061344,35.984396],[139.061313,35.984417]]],[[[139.061438,35.984417],[139.0614065,35.984396],[139.061438,35.984375],[139.061438,35.984417]]],[[[139.061438,35.984417],[139.061438,35.984458],[139.0614065,35.9844375],[139.061438,35.984417]]],[[[139.061438,35.984417],[139.0614065,35.9844375],[139.0614065,35.984396],[139.061438,35.984417]]]]},"properties":{"layer":"flood","class_code":"3","class_label":"3m以上5m未満","scale_code":"2","scale_label":"L2（想定最大規模）"}},{"type":"Feature","id":"fld_3b42eb3a-11a2-4ba0-8a89-b7505eea16c7","geometry":{"type":"MultiPolygon","coordinates":[[[[139.061125,35.984292],[139.0611565,35.984271],[139.0611565,35.9843125],[139.061125,35.984292]]],[[[139.061125,35.984333],[139.0611565,35.9843125],[139.061188,35.984333],[139.061125,35.984333]]],[[[139.061219,35.984354],[139.061188,35.984333],[139.061219,35.9843125],[139.061219,35.984354]]],[[[139.061125,35.984333],[139.061125,35.984292],[139.0611565,35.9843125],[139.061125,35.984333]]],[[[139.0611565,35.984229],[139.061188,35.98425],[139.0611565,35.984271],[139.0611565,35.984229]]],[[[139.0611565,35.984229],[139.061188,35.984208],[139.061188,35.98425],[139.0611565,35.984229]]],[[[139.061063,35.98425],[139.061063,35.984208],[139.061094,35.984229],[139.061063,35.98425]]],[[[139.061125,35.984208],[139.061094,35.984229],[139.061063,35.984208],[139.061125,35.984208]]],[[[139.061219,35.984354],[139.061219,35.9843125],[139.06125,35.984333],[139.061219,35.984354]]],[[[139.0611565,35.9843125],[139.061188,35.984292],[139.061188,35.984333],[139.0611565,35.9843125]]],[[[139.0611565,35.9843125],[139.0611565,35.984271],[139.061188,35.984292],[139.0611565,35.9843125]]],[[[139.061125,35.984208],[139.061188,35.984208],[139.0611565,35.984229],[139.061125,35.984208]]],[[[139.061219,35.9843125],[139.06125,35.984292],[139.06125,35.984333],[139.061219,35.9843125]]],[[[139.061219,35.9843125],[139.061188,35.984333],[139.061188,35.984292],[139.061219,35.9843125]]],[[[139.061219,35.9843125],[139.061188,35.984292],[139.06125,35.984292],[139.061219,35.9843125]]],[[[139.06125,35.984375],[139.061188,35.984375],[139.061219,35.984354],[139.06125,35.984375]]],[[[139.06125,35.984375],[139.061219,35.984354],[139.06125,35.984333],[139.06125,35.984375]]],[[[139.061188,35.984375],[139.061188,35.984333],[139.061219,35.984354],[139.061188,35.984375]]],[[[139.061188,35.98425],[139.061188,35.984292],[139.0611565,35.984271],[139.061188,35.98425]]],[[[139.061125,35.98425],[139.0611565,35.984271],[139.061125,35.984292],[139.061125,35.98425]]],[[[139.061125,35.98425],[139.061063,35.98425],[139.061094,35.984229],[139.061125,35.98425]]],[[[139.061125,35.98425],[139.061094,35.984229],[139.061125,35.984208],[139.061125,35.98425]]],[[[139.061125,35.98425],[139.061125,35.984208],[139.0611565,35.984229],[139.061125,35.98425]]],[[[139.061125,35.98425],[139.0611565,35.984229],[139.0611565,35.984271],[139.061125,35.98425]]]]},"properties":{"layer":"flood","class_code":"3","class_label":"3m以上5m未満","scale_code":"2","scale_label":"L2（想定最大規模）"}},{"type":"Feature","id":"fld_d1858dde-0030-46c6-8157-3a107bc65da5","geometry":{"type":"MultiPolygon","coordinates":[[[[139.061688,35.984625],[139.06175,35.984625],[139.061719,35.984646],[139.061688,35.984625]]],[[[139.06175,35.984708],[139.061688,35.984708],[139.061719,35.9846875],[139.06175,35.984708]]],[[[139.061688,35.984667],[139.061719,35.9846875],[139.061688,35.984708],[139.061688,35.984667]]],[[[139.061688,35.984667],[139.061719,35.984646],[139.061719,35.9846875],[139.061688,35.984667]]],[[[139.061688,35.984667],[139.061688,35.984625],[139.061719,35.984646],[139.061688,35.984667]]],[[[139.06175,35.984667],[139.061719,35.9846875],[139.061719,35.984646],[139.06175,35.984667]]],[[[139.06175,35.984667],[139.06175,35.984708],[139.061719,35.9846875],[139.06175,35.984667]]],[[[139.06175,35.984667],[139.061719,35.984646],[139.06175,35.984625],[139.06175,35.984667]]]]},"properties":{"layer":"flood","class_code":"3","class_label":"3m以上5m未満","scale_code":"2","scale_label":"L2（想定最大規模）"}},{"type":"Feature","id":"fld_85c096f4-7bb4-4297-ae39-2379cfcdab65","geometry":{"type":"MultiPolygon","coordinates":[[[[139.061063,35.984125],[139.061063,35.984167],[139.0610315,35.984146],[139.061063,35.984125]]],[[[139.061,35.984167],[139.061,35.984125],[139.0610315,35.984146],[139.061,35.984167]]],[[[139.061063,35.984167],[139.061,35.984167],[139.0610315,35.984146],[139.061063,35.984167]]],[[[139.061063,35.984125],[139.0610315,35.984146],[139.061,35.984125],[139.061063,35.984125]]]]},"properties":{"layer":"flood","class_code":"3","class_label":"3m以上5m未満","scale_code":"2","scale_label":"L2（想定最大規模）"}},{"type":"Feature","id":"fld_a525d50b-449c-4a48-8bb0-9280bc8be844","geometry":{"type":"MultiPolygon","coordinates":[[[[139.060875,35.984],[139.060938,35.984],[139.0609065,35.984021],[139.060875,35.984]]],[[[139.060813,35.984],[139.060844,35.984021],[139.060813,35.984042],[139.060813,35.984]]],[[[139.060813,35.984],[139.060844,35.983979],[139.060844,35.984021],[139.060813,35.984]]],[[[139.060875,35.984],[139.060875,35.984042],[139.060844,35.984021],[139.060875,35.984]]],[[[139.060875,35.984],[139.060844,35.984021],[139.060844,35.983979],[139.060875,35.984]]],[[[139.060875,35.983958],[139.060875,35.984],[139.060844,35.983979],[139.060875,35.983958]]],[[[139.060813,35.983958],[139.060875,35.983958],[139.060844,35.983979],[139.060813,35.983958]]],[[[139.060813,35.983958],[139.060844,35.983979],[139.060813,35.984],[139.060813,35.983958]]],[[[139.060875,35.984],[139.0609065,35.984021],[139.060875,35.984042],[139.060875,35.984]]],[[[139.060938,35.984042],[139.060938,35.984083],[139.0609065,35.9840625],[139.060938,35.984042]]],[[[139.060969,35.9840625],[139.061,35.984083],[139.060938,35.984083],[139.060969,35.9840625]]],[[[139.060969,35.9840625],[139.061,35.984042],[139.061,35.984083],[139.060969,35.9840625]]],[[[139.060969,35.9840625],[139.060938,35.984042],[139.061,35.984042],[139.060969,35.9840625]]],[[[139.060969,35.9840625],[139.060938,35.984083],[139.060938,35.984042],[139.060969,35.9840625]]],[[[139.0609065,35.984021],[139.0609065,35.9840625],[139.060875,35.984042],[139.0609065,35.984021]]],[[[139.0609065,35.984021],[139.060938,35.984042],[139.0609065,35.9840625],[139.0609065,35.984021]]],[[[139.060938,35.984],[139.060938,35.984042],[139.0609065,35.984021],[139.060938,35.984]]],[[[139.060875,35.984083],[139.0609065,35.9840625],[139.060938,35.984083],[139.060875,35.984083]]],[[[139.060875,35.984042],[139.0609065,35.9840625],[139.060875,35.984083],[139.060875,35.984042]]],[[[139.060844,35.984021],[139.060875,35.984042],[139.060813,35.984042],[139.060844,35.984021]]]]},"properties":{"layer":"flood","class_code":"3","class_label":"3m以上5m未満","scale_code":"2","scale_label":"L2（想定最大規模）"}},{"type":"Feature","id":"fld_60bc0fe8-e3fd-4ac2-b2cd-c33332ed8c32","geometry":{"type":"MultiPolygon","coordinates":[[[[139.060813,35.983875],[139.0607815,35.983896],[139.06075,35.983875],[139.060813,35.983875]]],[[[139.060813,35.983875],[139.060813,35.983917],[139.0607815,35.983896],[139.060813,35.983875]]],[[[139.060813,35.983958],[139.06075,35.983958],[139.0607815,35.9839375],[139.060813,35.983958]]],[[[139.06075,35.983917],[139.0607815,35.983896],[139.0607815,35.9839375],[139.06075,35.983917]]],[[[139.06075,35.983917],[139.06075,35.983875],[139.0607815,35.983896],[139.06075,35.983917]]],[[[139.06075,35.983917],[139.0607815,35.9839375],[139.06075,35.983958],[139.06075,35.983917]]],[[[139.060813,35.983917],[139.0607815,35.9839375],[139.0607815,35.983896],[139.060813,35.983917]]],[[[139.060813,35.983917],[139.060813,35.983958],[139.0607815,35.9839375],[139.060813,35.983917]]]]},"properties":{"layer":"flood","class_code":"3","class_label":"3m以上5m未満","scale_code":"2","scale_label":"L2（想定最大規模）"}},{"type":"Feature","id":"fld_6071ca8d-fd60-4c6e-8175-209f04c57d2b","geometry":{"type":"MultiPolygon","coordinates":[[[[139.060344,35.983479],[139.060313,35.983458],[139.060375,35.983458],[139.060344,35.983479]]],[[[139.060344,35.983479],[139.060375,35.983458],[139.060375,35.9835],[139.060344,35.983479]]],[[[139.060344,35.983479],[139.060375,35.9835],[139.060313,35.9835],[139.060344,35.983479]]],[[[139.060344,35.983479],[139.060313,35.9835],[139.060313,35.983458],[139.060344,35.983479]]]]},"properties":{"layer":"flood","class_code":"3","class_label":"3m以上5m未満","scale_code":"2","scale_label":"L2（想定最大規模）"}},{"type":"Feature","id":"fld_e38d0355-cef3-445b-a18e-e09d2b2617e5","geometry":{"type":"MultiPolygon","coordinates":[[[[139.060125,35.983333],[139.0601565,35.983354],[139.060125,35.983375],[139.060125,35.983333]]],[[[139.060188,35.983333],[139.06025,35.983333],[139.060219,35.983354],[139.060188,35.983333]]],[[[139.060188,35.983333],[139.060219,35.983354],[139.060188,35.983375],[139.060188,35.983333]]],[[[139.0602815,35.9834375],[139.060313,35.983458],[139.06025,35.983458],[139.0602815,35.9834375]]],[[[139.0602815,35.9834375],[139.060313,35.983417],[139.060313,35.983458],[139.0602815,35.9834375]]],[[[139.0602815,35.9834375],[139.06025,35.983417],[139.0602815,35.983396],[139.0602815,35.9834375]]],[[[139.0602815,35.9834375],[139.06025,35.983458],[139.06025,35.983417],[139.0602815,35.9834375]]],[[[139.060188,35.983333],[139.060188,35.983375],[139.0601565,35.983354],[139.060188,35.983333]]],[[[139.060219,35.983396],[139.060219,35.983354],[139.06025,35.983375],[139.060219,35.983396]]],[[[139.060125,35.983333],[139.060188,35.983333],[139.0601565,35.983354],[139.060125,35.983333]]],[[[139.060219,35.983354],[139.06025,35.983333],[139.06025,35.983375],[139.060219,35.983354]]],[[[139.0601565,35.983354],[139.060188,35.983375],[139.060125,35.983375],[139.0601565,35.983354]]],[[[139.0602815,35.983396],[139.06025,35.983375],[139.060313,35.983375],[139.0602815,35.983396]]],[[[139.0602815,35.983396],[139.06025,35.983417],[139.06025,35.983375],[139.0602815,35.983396]]],[[[139.0602815,35.9834375],[139.0602815,35.983396],[139.060313,35.983417],[139.0602815,35.9834375]]],[[[139.060219,35.983396],[139.06025,35.983375],[139.06025,35.983417],[139.060219,35.983396]]],[[[139.0602815,35.983396],[139.060313,35.983375],[139.060313,35.983417],[139.0602815,35.983396]]],[[[139.060219,35.983396],[139.060188,35.983375],[139.060219,35.983354],[139.060219,35.983396]]],[[[139.060219,35.983396],[139.060188,35.983417],[139.060188,35.983375],[139.060219,35.983396]]],[[[139.060219,35.983396],[139.06025,35.983417],[139.060188,35.983417],[139.060219,35.983396]]]]},"properties":{"layer":"flood","class_code":"3","class_label":"3m以上5m未満","scale_code":"2","scale_label":"L2（想定最大規模）"}},{"type":"Feature","id":"fld_c781aa5f-bf83-4dc3-bb83-2363004ad36d","geometry":{"type":"MultiPolygon","coordinates":[[[[139.06125,35.984333],[139.061313,35.984333],[139.0612815,35.984354],[139.06125,35.984333]]],[[[139.06125,35.984333],[139.0612815,35.984354],[139.06125,35.984375],[139.06125,35.984333]]],[[[139.0612815,35.984354],[139.061313,35.984375],[139.06125,35.984375],[139.0612815,35.984354]]],[[[139.061313,35.984333],[139.061313,35.984375],[139.0612815,35.984354],[139.061313,35.984333]]]]},"properties":{"layer":"flood","class_code":"4","class_label":"5m以上10m未満","scale_code":"2","scale_label":"L2（想定最大規模）"}},{"type":"Feature","id":"fld_a39c76cb-8ae7-4b3b-9275-3cf0706234e4","geometry":{"type":"MultiPolygon","coordinates":[[[[139.061063,35.984208],[139.061063,35.984167],[139.061094,35.9841875],[139.061063,35.984208]]],[[[139.061125,35.984167],[139.061094,35.9841875],[139.061063,35.984167],[139.061125,35.984167]]],[[[139.061125,35.984208],[139.061063,35.984208],[139.061094,35.9841875],[139.061125,35.984208]]],[[[139.061125,35.984208],[139.061094,35.9841875],[139.061125,35.984167],[139.061125,35.984208]]]]},"properties":{"layer":"flood","class_code":"4","class_label":"5m以上10m未満","scale_code":"2","scale_label":"L2（想定最大規模）"}}]}