{"type":"FeatureCollection","properties":{"mesh_code":"53397022","source":"PLATEAU秩父市2025","layer":"flood"},"features":[{"type":"Feature","id":"fld_d3422cc3-bbb4-4b1b-ad47-24a9ea74a2eb","geometry":{"type":"MultiPolygon","coordinates":[[[[139.026,35.941167],[139.025969,35.9411875],[139.025938,35.941167],[139.026,35.941167]]],[[[139.026,35.941208],[139.025938,35.941208],[139.025969,35.9411875],[139.026,35.941208]]],[[[139.026,35.941208],[139.025969,35.9411875],[139.026,35.941167],[139.026,35.941208]]],[[[139.025969,35.9411875],[139.025938,35.941208],[139.025938,35.941167],[139.025969,35.9411875]]]]},"properties":{"layer":"flood","class_code":"1","class_label":"0.5m未満","scale_code":"1","scale_label":"L1（計画規模）"}},{"type":"Feature","id":"fld_910be1c9-7b18-4b40-9a8c-7f32036de6aa","geometry":{"type":"MultiPolygon","coordinates":[[[[139.026469,35.941479],[139.0265,35.9415],[139.026438,35.9415],[139.026469,35.941479]]],[[[139.0265,35.941458],[139.0265,35.9415],[139.026469,35.941479],[139.0265,35.941458]]],[[[139.0265,35.941458],[139.026469,35.941479],[139.026438,35.941458],[139.0265,35.941458]]],[[[139.026438,35.941458],[139.026469,35.941479],[139.026438,35.9415],[139.026438,35.941458]]]]},"properties":{"layer":"flood","class_code":"1","class_label":"0.5m未満","scale_code":"1","scale_label":"L1（計画規模）"}},{"type":"Feature","id":"fld_f2dfb281-13c6-43e5-b55b-aa7be054d771","geometry":{"type":"MultiPolygon","coordinates":[[[[139.02625,35.941667],[139.0262815,35.941646],[139.026313,35.941667],[139.02625,35.941667]]],[[[139.02625,35.941667],[139.02625,35.941625],[139.0262815,35.941646],[139.02625,35.941667]]],[[[139.0262815,35.941646],[139.02625,35.941625],[139.026313,35.941625],[139.0262815,35.941646]]],[[[139.0262815,35.941646],[139.026313,35.941625],[139.026313,35.941667],[139.0262815,35.941646]]]]},"properties":{"layer":"flood","class_code":"1","class_label":"0.5m未満","scale_code":"1","scale_label":"L1（計画規模）"}},{"type":"Feature","id":"fld_c11c3218-ad87-4527-8d09-09611a36d3d7","geometry":{"type":"MultiPolygon","coordinates":[[[[139.026188,35.941375],[139.026188,35.941417],[139.0261565,35.941396],[139.026188,35.941375]]],[[[139.026125,35.941375],[139.0261565,35.941396],[139.026125,35.941417],[139.026125,35.941375]]],[[[139.026125,35.941417],[139.0261565,35.941396],[139.026188,35.941417],[139.026125,35.941417]]],[[[139.026125,35.941375],[139.026188,35.941375],[139.0261565,35.941396],[139.026125,35.941375]]]]},"properties":{"layer":"flood","class_code":"1","class_label":"0.5m未満","scale_code":"1","scale_label":"L1（計画規模）"}},{"type":"Feature","id":"fld_81cf14f1-d1d4-43ea-a23b-d253b5b1c8b4","geometry":{"type":"MultiPolygon","coordinates":[[[[139.026,35.94125],[139.026063,35.94125],[139.0260315,35.941271],[139.026,35.94125]]],[[[139.026,35.94125],[139.0260315,35.941271],[139.026,35.941292],[139.026,35.94125]]],[[[139.026063,35.94125],[139.026063,35.941292],[139.0260315,35.941271],[139.026063,35.94125]]],[[[139.0260315,35.941271],[139.026063,35.941292],[139.026,35.941292],[139.0260315,35.941271]]]]},"properties":{"layer":"flood","class_code":"1","class_label":"0.5m未満","scale_code":"1","scale_label":"L1（計画規模）"}},{"type":"Feature","id":"fld_12551104-0f33-4445-a475-73521ba4d175","geometry":{"type":"MultiPolygon","coordinates":[[[[139.026344,35.941271],[139.026375,35.94125],[139.026375,35.941292],[139.026344,35.941271]]],[[[139.026344,35.941271],[139.026313,35.941292],[139.026313,35.94125],[139.026344,35.941271]]],[[[139.026344,35.941271],[139.026313,35.94125],[139.026375,35.94125],[139.026344,35.941271]]],[[[139.026344,35.941271],[139.026375,35.941292],[139.026313,35.941292],[139.026344,35.941271]]]]},"properties":{"layer":"flood","class_code":"1","class_label":"0.5m未満","scale_code":"1","scale_label":"L1（計画規模）"}},{"type":"Feature","id":"fld_76e51813-9f87-460c-97f1-7f11d11e057e","geometry":{"type":"MultiPolygon","coordinates":[[[[139.0262815,35.941229],[139.026313,35.94125],[139.02625,35.94125],[139.0262815,35.941229]]],[[[139.02625,35.941208],[139.0262815,35.941229],[139.02625,35.94125],[139.02625,35.941208]]],[[[139.02625,35.941208],[139.026313,35.941208],[139.0262815,35.941229],[139.02625,35.941208]]],[[[139.0262815,35.941229],[139.026313,35.941208],[139.026313,35.94125],[139.0262815,35.941229]]]]},"properties":{"layer":"flood","class_code":"1","class_label":"0.5m未満","scale_code":"1","scale_label":"L1（計画規模）"}},{"type":"Feature","id":"fld_37ceea67-23ca-48a5-b05b-a1d297ccbad6","geometry":{"type":"MultiPolygon","coordinates":[[[[139.02625,35.941167],[139.026219,35.9411875],[139.026219,35.941146],[139.02625,35.941167]]],[[[139.026188,35.941167],[139.026188,35.941125],[139.026219,35.941146],[139.026188,35.941167]]],[[[139.026188,35.941167],[139.026219,35.941146],[139.026219,35.9411875],[139.026188,35.941167]]],[[[139.026188,35.941167],[139.026219,35.9411875],[139.026188,35.941208],[139.026188,35.941167]]],[[[139.02625,35.941167],[139.026219,35.941146],[139.02625,35.941125],[139.02625,35.941167]]],[[[139.026188,35.941125],[139.02625,35.941125],[139.026219,35.941146],[139.026188,35.941125]]],[[[139.02625,35.941208],[139.026188,35.941208],[139.026219,35.9411875],[139.02625,35.941208]]],[[[139.02625,35.941167],[139.02625,35.941208],[139.026219,35.9411875],[139.02625,35.941167]]]]},"properties":{"layer":"flood","class_code":"1","class_label":"0.5m未満","scale_code":"1","scale_label":"L1（計画規模）"}},{"type":"Feature","id":"fld_594416c5-110d-48f3-a71f-0f89d6ba8e7a","geometry":{"type":"MultiPolygon","coordinates":[[[[139.025688,35.940875],[139.025719,35.940896],[139.025688,35.940917],[139.025688,35.940875]]],[[[139.025688,35.940875],[139.02575,35.940875],[139.025719,35.940896],[139.025688,35.940875]]],[[[139.025719,35.940896],[139.02575,35.940875],[139.02575,35.940917],[139.025719,35.940896]]],[[[139.025688,35.940917],[139.025719,35.940896],[139.02575,35.940917],[139.025688,35.940917]]]]},"properties":{"layer":"flood","class_code":"1","class_label":"0.5m未満","scale_code":"1","scale_label":"L1（計画規模）"}},{"type":"Feature","id":"fld_04964345-f654-4600-9d38-2a76bb77828d","geometry":{"type":"MultiPolygon","coordinates":[[[[139.025813,35.940917],[139.025875,35.940917],[139.025844,35.9409375],[139.025813,35.940917]]],[[[139.025844,35.9409375],[139.025875,35.940917],[139.025875,35.940958],[139.025844,35.9409375]]],[[[139.025813,35.940958],[139.025844,35.9409375],[139.025875,35.940958],[139.025813,35.940958]]],[[[139.025813,35.940917],[139.025844,35.9409375],[139.025813,35.940958],[139.025813,35.940917]]]]},"properties":{"layer":"flood","class_code":"1","class_label":"0.5m未満","scale_code":"1","scale_label":"L1（計画規模）"}},{"type":"Feature","id":"fld_a90422f1-32cc-43b0-ad7d-b8fcec107531","geometry":{"type":"MultiPolygon","coordinates":[[[[139.026188,35.941125],[139.0261565,35.941104],[139.026188,35.941083],[139.026188,35.941125]]],[[[139.026125,35.941083],[139.0261565,35.941104],[139.026125,35.941125],[139.026125,35.941083]]],[[[139.026125,35.941083],[139.026188,35.941083],[139.0261565,35.941104],[139.026125,35.941083]]],[[[139.026188,35.941125],[139.026125,35.941125],[139.0261565,35.941104],[139.026188,35.941125]]]]},"properties":{"layer":"flood","class_code":"1","class_label":"0.5m未満","scale_code":"1","scale_label":"L1（計画規模）"}},{"type":"Feature","id":"fld_7f41cff1-e84f-45da-b794-2cf3fcc447a2","geometry":{"type":"MultiPolygon","coordinates":[[[[139.026219,35.941229],[139.02625,35.94125],[139.026188,35.94125],[139.026219,35.941229]]],[[[139.026219,35.941229],[139.02625,35.941208],[139.02625,35.94125],[139.026219,35.941229]]],[[[139.026188,35.941208],[139.026219,35.941229],[139.026188,35.94125],[139.026188,35.941208]]],[[[139.026188,35.941208],[139.02625,35.941208],[139.026219,35.941229],[139.026188,35.941208]]]]},"properties":{"layer":"flood","class_code":"2","class_label":"0.5m以上3m未満","scale_code":"1","scale_label":"L1（計画規模）"}},{"type":"Feature","id":"fld_301fc1b9-d94e-4fbb-a74b-316dda5d26dc","geometry":{"type":"MultiPolygon","coordinates":[[[[139.0255315,35.940896],[139.025563,35.940917],[139.0255,35.940917],[139.0255315,35.940896]]],[[[139.025594,35.940896],[139.025625,35.940875],[139.025625,35.940917],[139.025594,35.940896]]],[[[139.0257815,35.9409375],[139.02575,35.940917],[139.025813,35.940917],[139.0257815,35.9409375]]],[[[139.0257815,35.9409375],[139.025813,35.940917],[139.025813,35.940958],[139.0257815,35.9409375]]],[[[139.0257815,35.9409375],[139.025813,35.940958],[139.02575,35.940958],[139.0257815,35.9409375]]],[[[139.025719,35.9409375],[139.02575,35.940958],[139.025688,35.940958],[139.025719,35.9409375]]],[[[139.0256565,35.940896],[139.025625,35.940917],[139.025625,35.940875],[139.0256565,35.940896]]],[[[139.025719,35.9409375],[139.025688,35.940958],[139.025688,35.940917],[139.025719,35.9409375]]],[[[139.025719,35.9409375],[139.02575,35.940917],[139.02575,35.940958],[139.025719,35.9409375]]],[[[139.0256565,35.9409375],[139.025625,35.940958],[139.025625,35.940917],[139.0256565,35.9409375]]],[[[139.0256565,35.9409375],[139.025688,35.940917],[139.025688,35.940958],[139.0256565,35.9409375]]],[[[139.0256565,35.9409375],[139.025688,35.940958],[139.025625,35.940958],[139.0256565,35.9409375]]],[[[139.0257815,35.9409375],[139.02575,35.940958],[139.02575,35.940917],[139.0257815,35.9409375]]],[[[139.0255315,35.940896],[139.0255,35.940917],[139.0255,35.940875],[139.0255315,35.940896]]],[[[139.0255315,35.940896],[139.0255,35.940875],[139.025563,35.940875],[139.0255315,35.940896]]],[[[139.0255315,35.940896],[139.025563,35.940875],[139.025563,35.940917],[139.0255315,35.940896]]],[[[139.0256565,35.940896],[139.025625,35.940875],[139.025688,35.940875],[139.0256565,35.940896]]],[[[139.0256565,35.940896],[139.025688,35.940875],[139.025688,35.940917],[139.0256565,35.940896]]],[[[139.0256565,35.940896],[139.025688,35.940917],[139.0256565,35.9409375],[139.0256565,35.940896]]],[[[139.0256565,35.940896],[139.0256565,35.9409375],[139.025625,35.940917],[139.0256565,35.940896]]],[[[139.025719,35.9409375],[139.025688,35.940917],[139.02575,35.940917],[139.025719,35.9409375]]],[[[139.025594,35.940896],[139.025625,35.940917],[139.025563,35.940917],[139.025594,35.940896]]],[[[139.025594,35.940896],[139.025563,35.940917],[139.025563,35.940875],[139.025594,35.940896]]],[[[139.025594,35.940896],[139.025563,35.940875],[139.025625,35.940875],[139.025594,35.940896]]]]},"properties":{"layer":"flood","class_code":"2","class_label":"0.5m以上3m未満","scale_code":"1","scale_label":"L1（計画規模）"}},{"type":"Feature","id":"fld_0217cccf-d2bd-4a38-8a08-2556b8ffa1fc","geometry":{"type":"MultiPolygon","coordinates":[[[[139.02625,35.941625],[139.02625,35.941583],[139.0262815,35.941604],[139.02625,35.941625]]],[[[139.02625,35.941625],[139.0262815,35.941604],[139.026313,35.941625],[139.02625,35.941625]]],[[[139.02625,35.941583],[139.026313,35.941583],[139.0262815,35.941604],[139.02625,35.941583]]],[[[139.026313,35.941583],[139.026313,35.941625],[139.0262815,35.941604],[139.026313,35.941583]]]]},"properties":{"layer":"flood","class_code":"2","class_label":"0.5m以上3m未満","scale_code":"1","scale_label":"L1（計画規模）"}},{"type":"Feature","id":"fld_d9c95546-f05c-42cc-8de8-a467c0c8e609","geometry":{"type":"MultiPolygon","coordinates":[[[[139.02525,35.940833],[139.0252815,35.940854],[139.02525,35.940875],[139.02525,35.940833]]],[[[139.025469,35.940854],[139.025438,35.940833],[139.0255,35.940833],[139.025469,35.940854]]],[[[139.025469,35.940854],[139.0255,35.940833],[139.0255,35.940875],[139.025469,35.940854]]],[[[139.025469,35.940854],[139.0255,35.940875],[139.025438,35.940875],[139.025469,35.940854]]],[[[139.025469,35.940854],[139.025438,35.940875],[139.025438,35.940833],[139.025469,35.940854]]],[[[139.0254065,35.940854],[139.025375,35.940875],[139.025375,35.940833],[139.0254065,35.940854]]],[[[139.0254065,35.940854],[139.025375,35.940833],[139.025438,35.940833],[139.0254065,35.940854]]],[[[139.0254065,35.940854],[139.025438,35.940833],[139.025438,35.940875],[139.0254065,35.940854]]],[[[139.025344,35.940854],[139.025375,35.940875],[139.025313,35.940875],[139.025344,35.940854]]],[[[139.025344,35.940854],[139.025313,35.940875],[139.025313,35.940833],[139.025344,35.940854]]],[[[139.02525,35.940833],[139.025313,35.940833],[139.0252815,35.940854],[139.02525,35.940833]]],[[[139.0252815,35.940854],[139.025313,35.940833],[139.025313,35.940875],[139.0252815,35.940854]]],[[[139.0252815,35.940854],[139.025313,35.940875],[139.02525,35.940875],[139.0252815,35.940854]]],[[[139.0254065,35.940854],[139.025438,35.940875],[139.025375,35.940875],[139.0254065,35.940854]]],[[[139.025344,35.940854],[139.025375,35.940833],[139.025375,35.940875],[139.025344,35.940854]]],[[[139.025344,35.940854],[139.025313,35.940833],[139.025375,35.940833],[139.025344,35.940854]]]]},"properties":{"layer":"flood","class_code":"2","class_label":"0.5m以上3m未満","scale_code":"1","scale_label":"L1（計画規模）"}},{"type":"Feature","id":"fld_92f731d4-55fc-43ec-adf4-2abfe24fb6a3","geometry":{"type":"MultiPolygon","coordinates":[[[[139.025875,35.941],[139.0259065,35.940979],[139.025938,35.941],[139.025875,35.941]]],[[[139.025938,35.941],[139.0259065,35.940979],[139.025938,35.940958],[139.025938,35.941]]],[[[139.025938,35.941],[139.025938,35.940958],[139.025969,35.940979],[139.025938,35.941]]],[[[139.025938,35.941],[139.025969,35.940979],[139.025969,35.941021],[139.025938,35.941]]],[[[139.025969,35.940979],[139.025938,35.940958],[139.026,35.940958],[139.025969,35.940979]]],[[[139.025969,35.940979],[139.026,35.940958],[139.026,35.941],[139.025969,35.940979]]],[[[139.025969,35.940979],[139.026,35.941],[139.025969,35.941021],[139.025969,35.940979]]],[[[139.0260315,35.941021],[139.026,35.941],[139.026063,35.941],[139.0260315,35.941021]]],[[[139.026063,35.941125],[139.026063,35.941083],[139.026094,35.941104],[139.026063,35.941125]]],[[[139.026063,35.941125],[139.026094,35.941104],[139.026125,35.941125],[139.026063,35.941125]]],[[[139.026094,35.9410625],[139.026063,35.941042],[139.026125,35.941042],[139.026094,35.9410625]]],[[[139.026094,35.9410625],[139.026125,35.941042],[139.026125,35.941083],[139.026094,35.9410625]]],[[[139.026094,35.9410625],[139.026125,35.941083],[139.026094,35.941104],[139.026094,35.9410625]]],[[[139.026094,35.9410625],[139.026094,35.941104],[139.026063,35.941083],[139.026094,35.9410625]]],[[[139.026094,35.9410625],[139.026063,35.941083],[139.026063,35.941042],[139.026094,35.9410625]]],[[[139.0260315,35.9410625],[139.026,35.941083],[139.026,35.941042],[139.0260315,35.9410625]]],[[[139.0260315,35.9410625],[139.026,35.941042],[139.0260315,35.941021],[139.0260315,35.9410625]]],[[[139.0260315,35.9410625],[139.0260315,35.941021],[139.026063,35.941042],[139.0260315,35.9410625]]],[[[139.0260315,35.9410625],[139.026063,35.941042],[139.026063,35.941083],[139.0260315,35.9410625]]],[[[139.0260315,35.9410625],[139.026063,35.941083],[139.026,35.941083],[139.0260315,35.9410625]]],[[[139.026094,35.941104],[139.026125,35.941083],[139.026125,35.941125],[139.026094,35.941104]]],[[[139.026,35.941042],[139.025938,35.941042],[139.025969,35.941021],[139.026,35.941042]]],[[[139.026,35.941042],[139.025969,35.941021],[139.026,35.941],[139.026,35.941042]]],[[[139.026,35.941042],[139.026,35.941],[139.0260315,35.941021],[139.026,35.941042]]],[[[139.026063,35.941042],[139.0260315,35.941021],[139.026063,35.941],[139.026063,35.941042]]],[[[139.025938,35.941042],[139.025938,35.941],[139.025969,35.941021],[139.025938,35.941042]]],[[[139.025844,35.940979],[139.025875,35.941],[139.025813,35.941],[139.025844,35.940979]]],[[[139.025844,35.940979],[139.025813,35.941],[139.025813,35.940958],[139.025844,35.940979]]],[[[139.025844,35.940979],[139.025813,35.940958],[139.025875,35.940958],[139.025844,35.940979]]],[[[139.025844,35.940979],[139.025875,35.940958],[139.025875,35.941],[139.025844,35.940979]]],[[[139.025875,35.940958],[139.025938,35.940958],[139.0259065,35.940979],[139.025875,35.940958]]],[[[139.025875,35.940958],[139.0259065,35.940979],[139.025875,35.941],[139.025875,35.940958]]]]},"properties":{"layer":"flood","class_code":"2","class_label":"0.5m以上3m未満","scale_code":"1","scale_label":"L1（計画規模）"}},{"type":"Feature","id":"fld_8c2ac86e-0edd-43a9-982f-98b430e6417d","geometry":{"type":"MultiPolygon","coordinates":[[[[139.0261565,35.941146],[139.026188,35.941167],[139.026125,35.941167],[139.0261565,35.941146]]],[[[139.0261565,35.941146],[139.026125,35.941125],[139.026188,35.941125],[139.0261565,35.941146]]],[[[139.0261565,35.941146],[139.026125,35.941167],[139.026125,35.941125],[139.0261565,35.941146]]],[[[139.0261565,35.941146],[139.026188,35.941125],[139.026188,35.941167],[139.0261565,35.941146]]]]},"properties":{"layer":"flood","class_code":"2","class_label":"0.5m以上3m未満","scale_code":"1","scale_label":"L1（計画規模）"}},{"type":"Feature","id":"fld_125c11c3-f935-48af-8db5-595a27b6bc83","geometry":{"type":"MultiPolygon","coordinates":[[[[139.026438,35.941417],[139.026438,35.941458],[139.0264065,35.9414375],[139.026438,35.941417]]],[[[139.0264065,35.941396],[139.026375,35.941417],[139.026344,35.941396],[139.0264065,35.941396]]],[[[139.026344,35.941396],[139.026375,35.941417],[139.026313,35.941417],[139.026344,35.941396]]],[[[139.026375,35.941417],[139.0264065,35.9414375],[139.026375,35.941458],[139.026375,35.941417]]],[[[139.0264065,35.9414375],[139.026438,35.941458],[139.0264065,35.941479],[139.0264065,35.9414375]]],[[[139.0264065,35.9414375],[139.0264065,35.941479],[139.026375,35.941458],[139.0264065,35.9414375]]],[[[139.0262815,35.941271],[139.026313,35.941292],[139.0262815,35.9413125],[139.0262815,35.941271]]],[[[139.0264065,35.941479],[139.026438,35.9415],[139.026375,35.9415],[139.0264065,35.941479]]],[[[139.0264065,35.941479],[139.026375,35.9415],[139.026375,35.941458],[139.0264065,35.941479]]],[[[139.026438,35.941417],[139.0264065,35.9414375],[139.0264065,35.941396],[139.026438,35.941417]]],[[[139.026438,35.941417],[139.0264065,35.941396],[139.026438,35.941375],[139.026438,35.941417]]],[[[139.026313,35.941375],[139.026313,35.941333],[139.026344,35.941354],[139.026313,35.941375]]],[[[139.026313,35.941375],[139.026344,35.941354],[139.026344,35.941396],[139.026313,35.941375]]],[[[139.026313,35.941375],[139.026344,35.941396],[139.026313,35.941417],[139.026313,35.941375]]],[[[139.026438,35.941375],[139.0264065,35.941396],[139.0264065,35.941354],[139.026438,35.941375]]],[[[139.026438,35.941375],[139.0264065,35.941354],[139.026438,35.941333],[139.026438,35.941375]]],[[[139.026313,35.941333],[139.026313,35.941292],[139.026344,35.9413125],[139.026313,35.941333]]],[[[139.026313,35.941333],[139.026344,35.9413125],[139.026344,35.941354],[139.026313,35.941333]]],[[[139.026313,35.941333],[139.02625,35.941333],[139.0262815,35.9413125],[139.026313,35.941333]]],[[[139.026313,35.941333],[139.0262815,35.9413125],[139.026313,35.941292],[139.026313,35.941333]]],[[[139.026438,35.941333],[139.0264065,35.941354],[139.026375,35.941333],[139.026438,35.941333]]],[[[139.02625,35.941333],[139.02625,35.941292],[139.0262815,35.9413125],[139.02625,35.941333]]],[[[139.0262815,35.941271],[139.026313,35.94125],[139.026313,35.941292],[139.0262815,35.941271]]],[[[139.0264065,35.941479],[139.026438,35.941458],[139.026438,35.9415],[139.0264065,35.941479]]],[[[139.0262815,35.941271],[139.0262815,35.9413125],[139.02625,35.941292],[139.0262815,35.941271]]],[[[139.0262815,35.941271],[139.02625,35.941292],[139.02625,35.94125],[139.0262815,35.941271]]],[[[139.0262815,35.941271],[139.02625,35.94125],[139.026313,35.94125],[139.0262815,35.941271]]],[[[139.026344,35.9413125],[139.026375,35.941292],[139.026375,35.941333],[139.026344,35.9413125]]],[[[139.026344,35.9413125],[139.026375,35.941333],[139.026344,35.941354],[139.026344,35.9413125]]],[[[139.026344,35.9413125],[139.026313,35.941292],[139.026375,35.941292],[139.026344,35.9413125]]],[[[139.0264065,35.941354],[139.0264065,35.941396],[139.026344,35.941354],[139.0264065,35.941354]]],[[[139.0264065,35.941354],[139.026344,35.941354],[139.026375,35.941333],[139.0264065,35.941354]]],[[[139.026344,35.941354],[139.0264065,35.941396],[139.026344,35.941396],[139.026344,35.941354]]],[[[139.0264065,35.941396],[139.0264065,35.9414375],[139.026375,35.941417],[139.0264065,35.941396]]]]},"properties":{"layer":"flood","class_code":"2","class_label":"0.5m以上3m未満","scale_code":"1","scale_label":"L1（計画規模）"}},{"type":"Feature","id":"fld_20b91135-64bc-4e35-b0c6-2748b853e19a","geometry":{"type":"MultiPolygon","coordinates":[[[[139.026469,35.941521],[139.0265,35.941542],[139.026438,35.941542],[139.026469,35.941521]]],[[[139.026469,35.941521],[139.026438,35.941542],[139.026438,35.9415],[139.026469,35.941521]]],[[[139.026469,35.941521],[139.026438,35.9415],[139.0265,35.9415],[139.026469,35.941521]]],[[[139.026469,35.941521],[139.0265,35.9415],[139.0265,35.941542],[139.026469,35.941521]]]]},"properties":{"layer":"flood","class_code":"2","class_label":"0.5m以上3m未満","scale_code":"1","scale_label":"L1（計画規模）"}},{"type":"Feature","id":"fld_8688bb23-e9e9-43e1-bbe3-b9e2d5d18d13","geometry":{"type":"MultiPolygon","coordinates":[[[[139.0260315,35.941229],[139.026063,35.94125],[139.026,35.94125],[139.0260315,35.941229]]],[[[139.0260315,35.941229],[139.026,35.94125],[139.026,35.941208],[139.0260315,35.941229]]],[[[139.026063,35.941208],[139.026063,35.94125],[139.0260315,35.941229],[139.026063,35.941208]]],[[[139.026063,35.941208],[139.0260315,35.941229],[139.026,35.941208],[139.026063,35.941208]]]]},"properties":{"layer":"flood","class_code":"2","class_label":"0.5m以上3m未満","scale_code":"1","scale_label":"L1（計画規模）"}},{"type":"Feature","id":"fld_4a6ecc93-beeb-40ac-9e60-e2670f0fe70b","geometry":{"type":"MultiPolygon","coordinates":[[[[139.026125,35.941333],[139.026094,35.9413125],[139.026125,35.941292],[139.026125,35.941333]]],[[[139.026125,35.941333],[139.026063,35.941333],[139.026094,35.9413125],[139.026125,35.941333]]],[[[139.026125,35.941292],[139.026094,35.9413125],[139.026063,35.941292],[139.026125,35.941292]]],[[[139.026063,35.941333],[139.026063,35.941292],[139.026094,35.9413125],[139.026063,35.941333]]]]},"properties":{"layer":"flood","class_code":"2","class_label":"0.5m以上3m未満","scale_code":"1","scale_label":"L1（計画規模）"}},{"type":"Feature","id":"fld_b91f29c3-89c6-420f-af37-638fe1dd86f6","geometry":{"type":"MultiPolygon","coordinates":[[[[139.026125,35.941333],[139.026188,35.941333],[139.0261565,35.941354],[139.026125,35.941333]]],[[[139.026125,35.941333],[139.0261565,35.941354],[139.026125,35.941375],[139.026125,35.941333]]],[[[139.0261565,35.941354],[139.026188,35.941375],[139.026125,35.941375],[139.0261565,35.941354]]],[[[139.0261565,35.941354],[139.026188,35.941333],[139.026188,35.941375],[139.0261565,35.941354]]]]},"properties":{"layer":"flood","class_code":"2","class_label":"0.5m以上3m未満","scale_code":"1","scale_label":"L1（計画規模）"}},{"type":"Feature","id":"fld_f0f68c6c-9d6c-4262-b5e8-e00779a2320f","geometry":{"type":"MultiPolygon","coordinates":[[[[139.025813,35.941],[139.025875,35.941],[139.025844,35.941021],[139.025813,35.941]]],[[[139.025813,35.941],[139.025844,35.941021],[139.025813,35.941042],[139.025813,35.941]]],[[[139.025875,35.941],[139.025938,35.941],[139.0259065,35.941021],[139.025875,35.941]]],[[[139.025875,35.941],[139.0259065,35.941021],[139.025875,35.941042],[139.025875,35.941]]],[[[139.025875,35.941],[139.025875,35.941042],[139.025844,35.941021],[139.025875,35.941]]],[[[139.025813,35.941042],[139.025844,35.941021],[139.025875,35.941042],[139.025813,35.941042]]],[[[139.025875,35.941042],[139.0259065,35.941021],[139.025938,35.941042],[139.025875,35.941042]]],[[[139.025938,35.941042],[139.0259065,35.941021],[139.025938,35.941],[139.025938,35.941042]]]]},"properties":{"layer":"flood","class_code":"3","class_label":"3m以上5m未満","scale_code":"1","scale_label":"L1（計画規模）"}},{"type":"Feature","id":"fld_f9723e64-57fd-4453-85d4-f71600267e67","geometry":{"type":"MultiPolygon","coordinates":[[[[139.026125,35.941167],[139.026063,35.941167],[139.026094,35.941146],[139.026125,35.941167]]],[[[139.026125,35.941167],[139.026094,35.941146],[139.026125,35.941125],[139.026125,35.941167]]],[[[139.026094,35.941146],[139.026063,35.941167],[139.026063,35.941125],[139.026094,35.941146]]],[[[139.026094,35.941146],[139.026063,35.941125],[139.026125,35.941125],[139.026094,35.941146]]]]},"properties":{"layer":"flood","class_code":"3","class_label":"3m以上5m未満","scale_code":"1","scale_label":"L1（計画規模）"}},{"type":"Feature","id":"fld_f1989a3d-957a-4af3-ae4f-1bc303eaf31b","geometry":{"type":"MultiPolygon","coordinates":[[[[139.026375,35.941417],[139.026375,35.941458],[139.026344,35.9414375],[139.026375,35.941417]]],[[[139.026375,35.941417],[139.026344,35.9414375],[139.026313,35.941417],[139.026375,35.941417]]],[[[139.026344,35.9414375],[139.026344,35.941479],[139.026313,35.941458],[139.026344,35.9414375]]],[[[139.026344,35.9414375],[139.026313,35.941458],[139.026313,35.941417],[139.026344,35.9414375]]],[[[139.026344,35.9414375],[139.026375,35.941458],[139.026344,35.941479],[139.026344,35.9414375]]],[[[139.026375,35.941458],[139.026375,35.9415],[139.026344,35.941479],[139.026375,35.941458]]],[[[139.026313,35.941458],[139.026344,35.941479],[139.026313,35.9415],[139.026313,35.941458]]],[[[139.026375,35.9415],[139.026313,35.9415],[139.026344,35.941479],[139.026375,35.9415]]]]},"properties":{"layer":"flood","class_code":"3","class_label":"3m以上5m未満","scale_code":"1","scale_label":"L1（計画規模）"}},{"type":"Feature","id":"fld_dc5aef30-5007-46bd-b625-d4e302cbc5c8","geometry":{"type":"MultiPolygon","coordinates":[[[[139.026375,35.941542],[139.026375,35.9415],[139.0264065,35.941521],[139.026375,35.941542]]],[[[139.026375,35.941542],[139.0264065,35.941521],[139.026438,35.941542],[139.026375,35.941542]]],[[[139.0264065,35.941521],[139.026438,35.9415],[139.026438,35.941542],[139.0264065,35.941521]]],[[[139.0264065,35.941521],[139.026375,35.9415],[139.026438,35.9415],[139.0264065,35.941521]]]]},"properties":{"layer":"flood","class_code":"3","class_label":"3m以上5m未満","scale_code":"1","scale_label":"L1（計画規模）"}},{"type":"Feature","id":"fld_dc3a5341-c00a-441b-b625-a26c955877c5","geometry":{"type":"MultiPolygon","coordinates":[[[[139.0267815,35.941646],[139.02675,35.941625],[139.026813,35.941625],[139.0267815,35.941646]]],[[[139.026719,35.941646],[139.026688,35.941625],[139.02675,35.941625],[139.026719,35.941646]]],[[[139.026688,35.941667],[139.026719,35.941646],[139.02675,35.941667],[139.026688,35.941667]]],[[[139.026688,35.941667],[139.026688,35.941625],[139.026719,35.941646],[139.026688,35.941667]]],[[[139.0267815,35.941646],[139.02675,35.941667],[139.02675,35.941625],[139.0267815,35.941646]]],[[[139.0267815,35.941646],[139.026813,35.941667],[139.02675,35.941667],[139.0267815,35.941646]]],[[[139.0267815,35.941646],[139.026813,35.941625],[139.026813,35.941667],[139.0267815,35.941646]]],[[[139.026719,35.941646],[139.02675,35.941625],[139.02675,35.941667],[139.026719,35.941646]]]]},"properties":{"layer":"flood","class_code":"1","class_label":"0.5m未満","scale_code":"2","scale_label":"L2（想定最大規模）"}},{"type":"Feature","id":"fld_77394b3e-27b0-44d3-b4a9-b2e937660e2a","geometry":{"type":"MultiPolygon","coordinates":[[[[139.025875,35.940917],[139.0259065,35.9409375],[139.025875,35.940958],[139.025875,35.940917]]],[[[139.025875,35.940958],[139.0259065,35.9409375],[139.025938,35.940958],[139.025875,35.940958]]],[[[139.0259065,35.9409375],[139.025938,35.940917],[139.025938,35.940958],[139.0259065,35.9409375]]],[[[139.025875,35.940917],[139.025938,35.940917],[139.0259065,35.9409375],[139.025875,35.940917]]]]},"properties":{"layer":"flood","class_code":"1","class_label":"0.5m未満","scale_code":"2","scale_label":"L2（想定最大規模）"}},{"type":"Feature","id":"fld_3860dd9d-d6ac-4b5a-b142-d1aac4111442","geometry":{"type":"MultiPolygon","coordinates":[[[[139.0260315,35.9413125],[139.026,35.941333],[139.026,35.941292],[139.0260315,35.9413125]]],[[[139.0260315,35.9413125],[139.026,35.941292],[139.026063,35.941292],[139.0260315,35.9413125]]],[[[139.0260315,35.9413125],[139.026063,35.941292],[139.026063,35.941333],[139.0260315,35.9413125]]],[[[139.0260315,35.9413125],[139.026063,35.941333],[139.026,35.941333],[139.0260315,35.9413125]]]]},"properties":{"layer":"flood","class_code":"1","class_label":"0.5m未満","scale_code":"2","scale_label":"L2（想定最大規模）"}},{"type":"Feature","id":"fld_5470106c-da7e-4b79-aee6-4498d7cc66b8","geometry":{"type":"MultiPolygon","coordinates":[[[[139.026063,35.941375],[139.026063,35.941333],[139.026094,35.941354],[139.026063,35.941375]]],[[[139.026125,35.941375],[139.026094,35.941354],[139.026125,35.941333],[139.026125,35.941375]]],[[[139.026125,35.941375],[139.026063,35.941375],[139.026094,35.941354],[139.026125,35.941375]]],[[[139.026125,35.941333],[139.026094,35.941354],[139.026063,35.941333],[139.026125,35.941333]]]]},"properties":{"layer":"flood","class_code":"1","class_label":"0.5m未満","scale_code":"2","scale_label":"L2（想定最大規模）"}},{"type":"Feature","id":"fld_f80ce795-82c6-4c96-a888-f729192b39ba","geometry":{"type":"MultiPolygon","coordinates":[[[[139.0261565,35.941479],[139.026188,35.9415],[139.0261565,35.941521],[139.0261565,35.941479]]],[[[139.0261565,35.941479],[139.0261565,35.941521],[139.026125,35.9415],[139.0261565,35.941479]]],[[[139.0261565,35.941521],[139.026188,35.9415],[139.026188,35.941542],[139.0261565,35.941521]]],[[[139.0261565,35.941521],[139.026188,35.941542],[139.026125,35.941542],[139.0261565,35.941521]]],[[[139.0261565,35.941521],[139.026125,35.941542],[139.026125,35.9415],[139.0261565,35.941521]]],[[[139.026125,35.941458],[139.0261565,35.941479],[139.026125,35.9415],[139.026125,35.941458]]],[[[139.0261565,35.9414375],[139.026125,35.941417],[139.026188,35.941417],[139.0261565,35.9414375]]],[[[139.0261565,35.9414375],[139.026125,35.941458],[139.026125,35.941417],[139.0261565,35.9414375]]],[[[139.0261565,35.9414375],[139.0261565,35.941479],[139.026125,35.941458],[139.0261565,35.9414375]]],[[[139.0261565,35.9414375],[139.026188,35.941458],[139.0261565,35.941479],[139.0261565,35.9414375]]],[[[139.0261565,35.9414375],[139.026188,35.941417],[139.026188,35.941458],[139.0261565,35.9414375]]],[[[139.026188,35.941458],[139.026188,35.9415],[139.0261565,35.941479],[139.026188,35.941458]]]]},"properties":{"layer":"flood","class_code":"1","class_label":"0.5m未満","scale_code":"2","scale_label":"L2（想定最大規模）"}},{"type":"Feature","id":"fld_06c76736-75b6-4cf7-9e21-122348493221","geometry":{"type":"MultiPolygon","coordinates":[[[[139.02625,35.941625],[139.026188,35.941625],[139.026219,35.941604],[139.02625,35.941625]]],[[[139.02625,35.941625],[139.026219,35.941604],[139.02625,35.941583],[139.02625,35.941625]]],[[[139.026219,35.941604],[139.026188,35.941625],[139.026188,35.941583],[139.026219,35.941604]]],[[[139.026219,35.941604],[139.026188,35.941583],[139.02625,35.941583],[139.026219,35.941604]]]]},"properties":{"layer":"flood","class_code":"1","class_label":"0.5m未満","scale_code":"2","scale_label":"L2（想定最大規模）"}},{"type":"Feature","id":"fld_cc8a2103-7a50-4eb8-b723-162d5ef53616","geometry":{"type":"MultiPolygon","coordinates":[[[[139.025438,35.940833],[139.025469,35.940854],[139.025438,35.940875],[139.025438,35.940833]]],[[[139.025438,35.940875],[139.025469,35.940854],[139.0255,35.940875],[139.025438,35.940875]]],[[[139.0255,35.940875],[139.025469,35.940854],[139.0255,35.940833],[139.0255,35.940875]]],[[[139.025438,35.940833],[139.0255,35.940833],[139.025469,35.940854],[139.025438,35.940833]]],[[[139.025375,35.940833],[139.0254065,35.940854],[139.025375,35.940875],[139.025375,35.940833]]],[[[139.025438,35.940833],[139.025438,35.940875],[139.0254065,35.940854],[139.025438,35.940833]]],[[[139.025438,35.940833],[139.0254065,35.940854],[139.025375,35.940833],[139.025438,35.940833]]],[[[139.025438,35.940875],[139.025375,35.940875],[139.0254065,35.940854],[139.025438,35.940875]]]]},"properties":{"layer":"flood","class_code":"2","class_label":"0.5m以上3m未満","scale_code":"2","scale_label":"L2（想定最大規模）"}},{"type":"Feature","id":"fld_09c67946-3eb4-4c00-8edf-63c41b7e0d23","geometry":{"type":"MultiPolygon","coordinates":[[[[139.02525,35.940833],[139.0252815,35.940854],[139.02525,35.940875],[139.02525,35.940833]]],[[[139.02525,35.940833],[139.025313,35.940833],[139.0252815,35.940854],[139.02525,35.940833]]],[[[139.025313,35.940875],[139.0252815,35.940854],[139.025313,35.940833],[139.025313,35.940875]]],[[[139.02525,35.940875],[139.0252815,35.940854],[139.025313,35.940875],[139.02525,35.940875]]]]},"properties":{"layer":"flood","class_code":"2","class_label":"0.5m以上3m未満","scale_code":"2","scale_label":"L2（想定最大規模）"}},{"type":"Feature","id":"fld_70a8446c-ec08-4163-933e-2620d16f53a3","geometry":{"type":"MultiPolygon","coordinates":[[[[139.025563,35.940875],[139.0255315,35.940896],[139.0255,35.940875],[139.025563,35.940875]]],[[[139.025563,35.940875],[139.025563,35.940917],[139.0255315,35.940896],[139.025563,35.940875]]],[[[139.0255,35.940917],[139.0255,35.940875],[139.0255315,35.940896],[139.0255,35.940917]]],[[[139.0255,35.940917],[139.0255315,35.940896],[139.025563,35.940917],[139.0255,35.940917]]],[[[139.025875,35.940917],[139.025875,35.940958],[139.025844,35.9409375],[139.025875,35.940917]]],[[[139.025875,35.940917],[139.025844,35.9409375],[139.025813,35.940917],[139.025875,35.940917]]],[[[139.02575,35.940958],[139.025688,35.940958],[139.025719,35.9409375],[139.02575,35.940958]]],[[[139.02575,35.940958],[139.025719,35.9409375],[139.0257815,35.9409375],[139.02575,35.940958]]],[[[139.02575,35.940958],[139.0257815,35.9409375],[139.025813,35.940958],[139.02575,35.940958]]],[[[139.025625,35.940875],[139.025688,35.940875],[139.0256565,35.940896],[139.025625,35.940875]]],[[[139.025625,35.940875],[139.0256565,35.940896],[139.025625,35.940917],[139.025625,35.940875]]],[[[139.025625,35.940875],[139.025625,35.940917],[139.025594,35.940896],[139.025625,35.940875]]],[[[139.025625,35.940875],[139.025594,35.940896],[139.025563,35.940875],[139.025625,35.940875]]],[[[139.025688,35.940875],[139.02575,35.940875],[139.025719,35.940896],[139.025688,35.940875]]],[[[139.025688,35.940875],[139.025719,35.940896],[139.025688,35.940917],[139.025688,35.940875]]],[[[139.025688,35.940875],[139.025688,35.940917],[139.0256565,35.940896],[139.025688,35.940875]]],[[[139.02575,35.940875],[139.025813,35.940875],[139.0257815,35.940896],[139.02575,35.940875]]],[[[139.02575,35.940875],[139.0257815,35.940896],[139.025719,35.940896],[139.02575,35.940875]]],[[[139.025813,35.940917],[139.0257815,35.9409375],[139.0257815,35.940896],[139.025813,35.940917]]],[[[139.025813,35.940917],[139.0257815,35.940896],[139.025813,35.940875],[139.025813,35.940917]]],[[[139.025813,35.940917],[139.025844,35.9409375],[139.025813,35.940958],[139.025813,35.940917]]],[[[139.025813,35.940917],[139.025813,35.940958],[139.0257815,35.9409375],[139.025813,35.940917]]],[[[139.025813,35.940958],[139.025844,35.9409375],[139.025875,35.940958],[139.025813,35.940958]]],[[[139.025719,35.9409375],[139.025688,35.940958],[139.025688,35.940917],[139.025719,35.9409375]]],[[[139.025719,35.9409375],[139.025688,35.940917],[139.025719,35.940896],[139.025719,35.9409375]]],[[[139.025719,35.9409375],[139.025719,35.940896],[139.0257815,35.940896],[139.025719,35.9409375]]],[[[139.025719,35.9409375],[139.0257815,35.940896],[139.0257815,35.9409375],[139.025719,35.9409375]]],[[[139.025594,35.940896],[139.025625,35.940917],[139.025563,35.940917],[139.025594,35.940896]]],[[[139.025594,35.940896],[139.025563,35.940917],[139.025563,35.940875],[139.025594,35.940896]]],[[[139.0256565,35.940896],[139.025688,35.940917],[139.025625,35.940917],[139.0256565,35.940896]]]]},"properties":{"layer":"flood","class_code":"2","class_label":"0.5m以上3m未満","scale_code":"2","scale_label":"L2（想定最大規模）"}},{"type":"Feature","id":"fld_76627e59-6c10-4098-b44b-45df8fc4cf53","geometry":{"type":"MultiPolygon","coordinates":[[[[139.0261565,35.941396],[139.0261565,35.941354],[139.026188,35.941375],[139.0261565,35.941396]]],[[[139.0261565,35.941396],[139.026188,35.941375],[139.026188,35.941417],[139.0261565,35.941396]]],[[[139.0261565,35.941396],[139.026125,35.941375],[139.0261565,35.941354],[139.0261565,35.941396]]],[[[139.0261565,35.941396],[139.026125,35.941417],[139.026125,35.941375],[139.0261565,35.941396]]],[[[139.0261565,35.941396],[139.026188,35.941417],[139.026125,35.941417],[139.0261565,35.941396]]],[[[139.0261565,35.941354],[139.026125,35.941333],[139.026188,35.941333],[139.0261565,35.941354]]],[[[139.0261565,35.941354],[139.026125,35.941375],[139.026125,35.941333],[139.0261565,35.941354]]],[[[139.0261565,35.941354],[139.026188,35.941333],[139.026188,35.941375],[139.0261565,35.941354]]]]},"properties":{"layer":"flood","class_code":"2","class_label":"0.5m以上3m未満","scale_code":"2","scale_label":"L2（想定最大規模）"}},{"type":"Feature","id":"fld_f467a5e0-f26c-4782-8146-a4d1a15ca044","geometry":{"type":"MultiPolygon","coordinates":[[[[139.025875,35.940958],[139.0259065,35.940979],[139.025875,35.941],[139.025875,35.940958]]],[[[139.025875,35.940958],[139.025938,35.940958],[139.0259065,35.940979],[139.025875,35.940958]]],[[[139.025875,35.941],[139.0259065,35.940979],[139.025938,35.941],[139.025875,35.941]]],[[[139.026,35.941],[139.025938,35.941],[139.025969,35.940979],[139.026,35.941]]],[[[139.026,35.940958],[139.025969,35.940979],[139.025938,35.940958],[139.026,35.940958]]],[[[139.025938,35.941],[139.0259065,35.940979],[139.025938,35.940958],[139.025938,35.941]]],[[[139.025938,35.941],[139.025938,35.940958],[139.025969,35.940979],[139.025938,35.941]]],[[[139.026,35.941],[139.025969,35.940979],[139.026,35.940958],[139.026,35.941]]]]},"properties":{"layer":"flood","class_code":"2","class_label":"0.5m以上3m未満","scale_code":"2","scale_label":"L2（想定最大規模）"}},{"type":"Feature","id":"fld_fd96dfff-2664-4b9d-b59f-3341114eb8b9","geometry":{"type":"MultiPolygon","coordinates":[[[[139.026063,35.941042],[139.026,35.941042],[139.0260315,35.941021],[139.026063,35.941042]]],[[[139.026063,35.941042],[139.0260315,35.941021],[139.026063,35.941],[139.026063,35.941042]]],[[[139.026,35.941],[139.026063,35.941],[139.0260315,35.941021],[139.026,35.941]]],[[[139.026,35.941],[139.0260315,35.941021],[139.026,35.941042],[139.026,35.941]]]]},"properties":{"layer":"flood","class_code":"2","class_label":"0.5m以上3m未満","scale_code":"2","scale_label":"L2（想定最大規模）"}},{"type":"Feature","id":"fld_919a7810-936f-4d2b-b185-e960dffeede6","geometry":{"type":"MultiPolygon","coordinates":[[[[139.026063,35.941083],[139.026094,35.941104],[139.026063,35.941125],[139.026063,35.941083]]],[[[139.026063,35.941083],[139.026063,35.941042],[139.026094,35.9410625],[139.026063,35.941083]]],[[[139.026063,35.941083],[139.026094,35.9410625],[139.026094,35.941104],[139.026063,35.941083]]],[[[139.026125,35.941125],[139.026094,35.941104],[139.026125,35.941083],[139.026125,35.941125]]],[[[139.026125,35.941125],[139.026125,35.941083],[139.0261565,35.941104],[139.026125,35.941125]]],[[[139.026125,35.941125],[139.0261565,35.941104],[139.0261565,35.941146],[139.026125,35.941125]]],[[[139.026125,35.941125],[139.0261565,35.941146],[139.026125,35.941167],[139.026125,35.941125]]],[[[139.026125,35.941125],[139.026063,35.941125],[139.026094,35.941104],[139.026125,35.941125]]],[[[139.026125,35.941167],[139.0261565,35.941146],[139.026188,35.941167],[139.026125,35.941167]]],[[[139.026125,35.941083],[139.026094,35.9410625],[139.026125,35.941042],[139.026125,35.941083]]],[[[139.0262815,35.9413125],[139.0262815,35.941271],[139.026344,35.941271],[139.0262815,35.9413125]]],[[[139.0262815,35.9413125],[139.026344,35.941271],[139.026344,35.9413125],[139.0262815,35.9413125]]],[[[139.026188,35.94125],[139.026188,35.941208],[139.026219,35.941229],[139.026188,35.94125]]],[[[139.026188,35.94125],[139.026219,35.941229],[139.02625,35.94125],[139.026188,35.94125]]],[[[139.026188,35.941208],[139.026188,35.941167],[139.026219,35.9411875],[139.026188,35.941208]]],[[[139.026188,35.941208],[139.026219,35.9411875],[139.026219,35.941229],[139.026188,35.941208]]],[[[139.026188,35.941167],[139.0261565,35.941146],[139.026188,35.941125],[139.026188,35.941167]]],[[[139.026188,35.941167],[139.026188,35.941125],[139.026219,35.941146],[139.026188,35.941167]]],[[[139.026188,35.941167],[139.026219,35.941146],[139.026219,35.9411875],[139.026188,35.941167]]],[[[139.026188,35.941125],[139.0261565,35.941104],[139.026188,35.941083],[139.026188,35.941125]]],[[[139.026188,35.941125],[139.02625,35.941125],[139.026219,35.941146],[139.026188,35.941125]]],[[[139.026188,35.941125],[139.0261565,35.941146],[139.0261565,35.941104],[139.026188,35.941125]]],[[[139.026375,35.94125],[139.026375,35.941292],[139.026344,35.941271],[139.026375,35.94125]]],[[[139.026125,35.941083],[139.026188,35.941083],[139.0261565,35.941104],[139.026125,35.941083]]],[[[139.026125,35.941083],[139.026094,35.941104],[139.026094,35.9410625],[139.026125,35.941083]]],[[[139.026094,35.9410625],[139.026063,35.941042],[139.026125,35.941042],[139.026094,35.9410625]]],[[[139.02625,35.94125],[139.026219,35.941229],[139.02625,35.941208],[139.02625,35.94125]]],[[[139.02625,35.94125],[139.02625,35.941208],[139.0262815,35.941229],[139.02625,35.94125]]],[[[139.02625,35.94125],[139.0262815,35.941229],[139.0262815,35.941271],[139.02625,35.94125]]],[[[139.02625,35.94125],[139.0262815,35.941271],[139.02625,35.941292],[139.02625,35.94125]]],[[[139.026375,35.94125],[139.026344,35.941271],[139.026313,35.94125],[139.026375,35.94125]]],[[[139.026313,35.94125],[139.0262815,35.941229],[139.026313,35.941208],[139.026313,35.94125]]],[[[139.026313,35.94125],[139.026344,35.941271],[139.0262815,35.941271],[139.026313,35.94125]]],[[[139.026313,35.94125],[139.0262815,35.941271],[139.0262815,35.941229],[139.026313,35.94125]]],[[[139.026313,35.941208],[139.0262815,35.941229],[139.02625,35.941208],[139.026313,35.941208]]],[[[139.02625,35.941208],[139.026219,35.9411875],[139.02625,35.941167],[139.02625,35.941208]]],[[[139.02625,35.941208],[139.026219,35.941229],[139.026219,35.9411875],[139.02625,35.941208]]],[[[139.02625,35.941167],[139.026219,35.941146],[139.02625,35.941125],[139.02625,35.941167]]],[[[139.02625,35.941167],[139.026219,35.9411875],[139.026219,35.941146],[139.02625,35.941167]]],[[[139.026375,35.941333],[139.0264065,35.9413125],[139.0264065,35.941354],[139.026375,35.941333]]],[[[139.026375,35.941333],[139.0264065,35.941354],[139.026375,35.941375],[139.026375,35.941333]]],[[[139.026375,35.941333],[139.026313,35.941333],[139.026344,35.9413125],[139.026375,35.941333]]],[[[139.026375,35.941333],[139.026344,35.9413125],[139.026375,35.941292],[139.026375,35.941333]]],[[[139.026375,35.941333],[139.026375,35.941292],[139.0264065,35.9413125],[139.026375,35.941333]]],[[[139.026375,35.941375],[139.0264065,35.941354],[139.0264065,35.941396],[139.026375,35.941375]]],[[[139.026375,35.941375],[139.0264065,35.941396],[139.026375,35.941417],[139.026375,35.941375]]],[[[139.026313,35.941333],[139.02625,35.941333],[139.0262815,35.9413125],[139.026313,35.941333]]],[[[139.026313,35.941333],[139.0262815,35.9413125],[139.026344,35.9413125],[139.026313,35.941333]]],[[[139.026375,35.941417],[139.0264065,35.941396],[139.0264065,35.9414375],[139.026375,35.941417]]],[[[139.026375,35.941417],[139.0264065,35.9414375],[139.026375,35.941458],[139.026375,35.941417]]],[[[139.026375,35.941458],[139.0264065,35.9414375],[139.026438,35.941458],[139.026375,35.941458]]],[[[139.026438,35.941458],[139.0264065,35.9414375],[139.026438,35.941417],[139.026438,35.941458]]],[[[139.026438,35.941417],[139.0264065,35.941396],[139.026438,35.941375],[139.026438,35.941417]]],[[[139.026438,35.941417],[139.0264065,35.9414375],[139.0264065,35.941396],[139.026438,35.941417]]],[[[139.026438,35.941375],[139.0264065,35.941354],[139.026438,35.941333],[139.026438,35.941375]]],[[[139.026438,35.941375],[139.0264065,35.941396],[139.0264065,35.941354],[139.026438,35.941375]]],[[[139.026438,35.941333],[139.0264065,35.9413125],[139.026438,35.941292],[139.026438,35.941333]]],[[[139.026438,35.941333],[139.0264065,35.941354],[139.0264065,35.9413125],[139.026438,35.941333]]],[[[139.02625,35.941333],[139.02625,35.941292],[139.0262815,35.9413125],[139.02625,35.941333]]],[[[139.02625,35.941292],[139.0262815,35.941271],[139.0262815,35.9413125],[139.02625,35.941292]]],[[[139.026438,35.941292],[139.0264065,35.9413125],[139.026375,35.941292],[139.026438,35.941292]]],[[[139.026375,35.941292],[139.026344,35.9413125],[139.026344,35.941271],[139.026375,35.941292]]]]},"properties":{"layer":"flood","class_code":"2","class_label":"0.5m以上3m未満","scale_code":"2","scale_label":"L2（想定最大規模）"}},{"type":"Feature","id":"fld_93fb82b0-0132-442d-9b82-637975834f57","geometry":{"type":"MultiPolygon","coordinates":[[[[139.0265,35.941458],[139.0265,35.9415],[139.026469,35.941479],[139.0265,35.941458]]],[[[139.026438,35.941458],[139.0265,35.941458],[139.026469,35.941479],[139.026438,35.941458]]],[[[139.026438,35.941458],[139.026469,35.941479],[139.026438,35.9415],[139.026438,35.941458]]],[[[139.026438,35.9415],[139.026469,35.941479],[139.0265,35.9415],[139.026438,35.9415]]]]},"properties":{"layer":"flood","class_code":"2","class_label":"0.5m以上3m未満","scale_code":"2","scale_label":"L2（想定最大規模）"}},{"type":"Feature","id":"fld_9b50ff9a-23ef-4a5b-905c-a24f1a5967a5","geometry":{"type":"MultiPolygon","coordinates":[[[[139.025938,35.941167],[139.025969,35.9411875],[139.025938,35.941208],[139.025938,35.941167]]],[[[139.025938,35.941167],[139.026,35.941167],[139.025969,35.9411875],[139.025938,35.941167]]],[[[139.026,35.941208],[139.025938,35.941208],[139.025969,35.9411875],[139.026,35.941208]]],[[[139.026,35.941208],[139.025969,35.9411875],[139.026,35.941167],[139.026,35.941208]]]]},"properties":{"layer":"flood","class_code":"2","class_label":"0.5m以上3m未満","scale_code":"2","scale_label":"L2（想定最大規模）"}},{"type":"Feature","id":"fld_b7622b81-4481-446e-a036-6d669ec79393","geometry":{"type":"MultiPolygon","coordinates":[[[[139.026094,35.9413125],[139.026125,35.941333],[139.026063,35.941333],[139.026094,35.9413125]]],[[[139.026063,35.941292],[139.026125,35.941292],[139.026094,35.9413125],[139.026063,35.941292]]],[[[139.026063,35.941292],[139.026094,35.9413125],[139.026063,35.941333],[139.026063,35.941292]]],[[[139.026125,35.941292],[139.026125,35.941333],[139.026094,35.9413125],[139.026125,35.941292]]]]},"properties":{"layer":"flood","class_code":"2","class_label":"0.5m以上3m未満","scale_code":"2","scale_label":"L2（想定最大規模）"}},{"type":"Feature","id":"fld_e411d1c6-93fa-4289-bbe7-15fd441cc709","geometry":{"type":"MultiPolygon","coordinates":[[[[139.026219,35.9415625],[139.02625,35.941583],[139.026188,35.941583],[139.026219,35.9415625]]],[[[139.026219,35.941521],[139.026188,35.941542],[139.026188,35.9415],[139.026219,35.941521]]],[[[139.026219,35.9414375],[139.026188,35.941458],[139.026188,35.941417],[139.026219,35.9414375]]],[[[139.02625,35.941458],[139.02625,35.9415],[139.026219,35.941479],[139.02625,35.941458]]],[[[139.02625,35.941458],[139.026219,35.941479],[139.026219,35.9414375],[139.02625,35.941458]]],[[[139.02625,35.941458],[139.026219,35.9414375],[139.02625,35.941417],[139.02625,35.941458]]],[[[139.02625,35.941417],[139.026219,35.9414375],[139.026188,35.941417],[139.02625,35.941417]]],[[[139.026219,35.941521],[139.026188,35.9415],[139.026219,35.941479],[139.026219,35.941521]]],[[[139.026219,35.941521],[139.026219,35.941479],[139.02625,35.9415],[139.026219,35.941521]]],[[[139.026219,35.9414375],[139.026219,35.941479],[139.026188,35.941458],[139.026219,35.9414375]]],[[[139.026219,35.9415625],[139.026188,35.941583],[139.026188,35.941542],[139.026219,35.9415625]]],[[[139.026188,35.941458],[139.026219,35.941479],[139.026188,35.9415],[139.026188,35.941458]]],[[[139.02625,35.941542],[139.02625,35.941583],[139.026219,35.9415625],[139.02625,35.941542]]],[[[139.02625,35.941542],[139.026219,35.9415625],[139.026219,35.941521],[139.02625,35.941542]]],[[[139.02625,35.941542],[139.026219,35.941521],[139.02625,35.9415],[139.02625,35.941542]]],[[[139.026219,35.9415625],[139.026188,35.941542],[139.026219,35.941521],[139.026219,35.9415625]]]]},"properties":{"layer":"flood","class_code":"2","class_label":"0.5m以上3m未満","scale_code":"2","scale_label":"L2（想定最大規模）"}},{"type":"Feature","id":"fld_941e2c69-106c-476b-9744-ddccf0dd1842","geometry":{"type":"MultiPolygon","coordinates":[[[[139.02625,35.941667],[139.02625,35.941625],[139.0262815,35.941646],[139.02625,35.941667]]],[[[139.026313,35.941583],[139.0262815,35.941604],[139.02625,35.941583],[139.026313,35.941583]]],[[[139.0262815,35.941646],[139.02625,35.941625],[139.0262815,35.941604],[139.0262815,35.941646]]],[[[139.0262815,35.941604],[139.02625,35.941625],[139.02625,35.941583],[139.0262815,35.941604]]],[[[139.02625,35.941667],[139.0262815,35.941646],[139.026313,35.941667],[139.02625,35.941667]]],[[[139.026313,35.941625],[139.026313,35.941667],[139.0262815,35.941646],[139.026313,35.941625]]],[[[139.026313,35.941625],[139.0262815,35.941646],[139.0262815,35.941604],[139.026313,35.941625]]],[[[139.026313,35.941625],[139.0262815,35.941604],[139.026313,35.941583],[139.026313,35.941625]]]]},"properties":{"layer":"flood","class_code":"2","class_label":"0.5m以上3m未満","scale_code":"2","scale_label":"L2（想定最大規模）"}},{"type":"Feature","id":"fld_c2a61ca0-51eb-420c-a9fe-b79158fd26d0","geometry":{"type":"MultiPolygon","coordinates":[[[[139.026,35.94125],[139.0260315,35.941271],[139.026,35.941292],[139.026,35.94125]]],[[[139.026063,35.94125],[139.026063,35.941292],[139.0260315,35.941271],[139.026063,35.94125]]],[[[139.026063,35.94125],[139.0260315,35.941229],[139.026063,35.941208],[139.026063,35.94125]]],[[[139.026063,35.941292],[139.026,35.941292],[139.0260315,35.941271],[139.026063,35.941292]]],[[[139.026063,35.94125],[139.0260315,35.941271],[139.0260315,35.941229],[139.026063,35.94125]]],[[[139.026,35.941208],[139.026063,35.941208],[139.0260315,35.941229],[139.026,35.941208]]],[[[139.026,35.94125],[139.0260315,35.941229],[139.0260315,35.941271],[139.026,35.94125]]],[[[139.026,35.94125],[139.026,35.941208],[139.0260315,35.941229],[139.026,35.94125]]]]},"properties":{"layer":"flood","class_code":"2","class_label":"0.5m以上3m未満","scale_code":"2","scale_label":"L2（想定最大規模）"}},{"type":"Feature","id":"fld_048b9974-9663-472d-b789-32f6f592e89a","geometry":{"type":"MultiPolygon","coordinates":[[[[139.0259065,35.941021],[139.025938,35.941],[139.025938,35.941042],[139.0259065,35.941021]]],[[[139.025969,35.941021],[139.026,35.941],[139.026,35.941042],[139.025969,35.941021]]],[[[139.025969,35.941021],[139.026,35.941042],[139.025938,35.941042],[139.025969,35.941021]]],[[[139.025969,35.941021],[139.025938,35.941042],[139.025938,35.941],[139.025969,35.941021]]],[[[139.025875,35.940958],[139.025875,35.941],[139.025844,35.940979],[139.025875,35.940958]]],[[[139.025875,35.940958],[139.025844,35.940979],[139.025813,35.940958],[139.025875,35.940958]]],[[[139.025969,35.941021],[139.025938,35.941],[139.026,35.941],[139.025969,35.941021]]],[[[139.025813,35.941],[139.025813,35.940958],[139.025844,35.940979],[139.025813,35.941]]],[[[139.0259065,35.941021],[139.025938,35.941042],[139.025875,35.941042],[139.0259065,35.941021]]],[[[139.0259065,35.941021],[139.025875,35.941042],[139.025875,35.941],[139.0259065,35.941021]]],[[[139.0259065,35.941021],[139.025875,35.941],[139.025938,35.941],[139.0259065,35.941021]]],[[[139.025844,35.941021],[139.025813,35.941042],[139.025813,35.941],[139.025844,35.941021]]],[[[139.025844,35.941021],[139.025813,35.941],[139.025844,35.940979],[139.025844,35.941021]]],[[[139.025844,35.941021],[139.025844,35.940979],[139.025875,35.941],[139.025844,35.941021]]],[[[139.025844,35.941021],[139.025875,35.941],[139.025875,35.941042],[139.025844,35.941021]]],[[[139.025844,35.941021],[139.025875,35.941042],[139.025813,35.941042],[139.025844,35.941021]]]]},"properties":{"layer":"flood","class_code":"3","class_label":"3m以上5m未満","scale_code":"2","scale_label":"L2（想定最大規模）"}},{"type":"Feature","id":"fld_38c0de06-b52e-4564-a594-0f3690158079","geometry":{"type":"MultiPolygon","coordinates":[[[[139.026063,35.941083],[139.0260315,35.9410625],[139.026063,35.941042],[139.026063,35.941083]]],[[[139.026063,35.941083],[139.026,35.941083],[139.0260315,35.9410625],[139.026063,35.941083]]],[[[139.026063,35.941042],[139.0260315,35.9410625],[139.026,35.941042],[139.026063,35.941042]]],[[[139.026,35.941083],[139.026,35.941042],[139.0260315,35.9410625],[139.026,35.941083]]]]},"properties":{"layer":"flood","class_code":"3","class_label":"3m以上5m未満","scale_code":"2","scale_label":"L2（想定最大規模）"}},{"type":"Feature","id":"fld_84543aa5-bf36-4fa1-8d43-d4847b695502","geometry":{"type":"MultiPolygon","coordinates":[[[[139.026094,35.941146],[139.026063,35.941167],[139.026063,35.941125],[139.026094,35.941146]]],[[[139.026094,35.941146],[139.026063,35.941125],[139.026125,35.941125],[139.026094,35.941146]]],[[[139.026094,35.941146],[139.026125,35.941125],[139.026125,35.941167],[139.026094,35.941146]]],[[[139.026094,35.941146],[139.026125,35.941167],[139.026063,35.941167],[139.026094,35.941146]]]]},"properties":{"layer":"flood","class_code":"3","class_label":"3m以上5m未満","scale_code":"2","scale_label":"L2（想定最大規模）"}},{"type":"Feature","id":"fld_147907df-c6f9-406b-9ac1-799c2904378a","geometry":{"type":"MultiPolygon","coordinates":[[[[139.026344,35.9414375],[139.026313,35.941417],[139.026344,35.941396],[139.026344,35.9414375]]],[[[139.026344,35.9414375],[139.026344,35.941396],[139.026375,35.941417],[139.026344,35.9414375]]],[[[139.026344,35.9414375],[139.026375,35.941417],[139.026375,35.941458],[139.026344,35.9414375]]],[[[139.026344,35.9414375],[139.026313,35.941458],[139.026313,35.941417],[139.026344,35.9414375]]],[[[139.026344,35.941396],[139.026375,35.941375],[139.026375,35.941417],[139.026344,35.941396]]],[[[139.026344,35.941396],[139.026313,35.941417],[139.026313,35.941375],[139.026344,35.941396]]],[[[139.0264065,35.941479],[139.026438,35.941458],[139.026438,35.9415],[139.0264065,35.941479]]],[[[139.026344,35.941354],[139.026375,35.941333],[139.026375,35.941375],[139.026344,35.941354]]],[[[139.026344,35.941354],[139.026375,35.941375],[139.026344,35.941396],[139.026344,35.941354]]],[[[139.026344,35.941354],[139.026344,35.941396],[139.026313,35.941375],[139.026344,35.941354]]],[[[139.026344,35.941354],[139.026313,35.941375],[139.026313,35.941333],[139.026344,35.941354]]],[[[139.026344,35.941354],[139.026313,35.941333],[139.026375,35.941333],[139.026344,35.941354]]],[[[139.026375,35.941542],[139.026375,35.9415],[139.0264065,35.941521],[139.026375,35.941542]]],[[[139.026375,35.941542],[139.0264065,35.941521],[139.026438,35.941542],[139.026375,35.941542]]],[[[139.0264065,35.941521],[139.0264065,35.941479],[139.026438,35.9415],[139.0264065,35.941521]]],[[[139.0264065,35.941521],[139.026438,35.9415],[139.026438,35.941542],[139.0264065,35.941521]]],[[[139.0264065,35.941521],[139.026375,35.9415],[139.0264065,35.941479],[139.0264065,35.941521]]],[[[139.026469,35.941521],[139.0265,35.941542],[139.026438,35.941542],[139.026469,35.941521]]],[[[139.026469,35.941521],[139.026438,35.941542],[139.026438,35.9415],[139.026469,35.941521]]],[[[139.026469,35.941521],[139.026438,35.9415],[139.0265,35.9415],[139.026469,35.941521]]],[[[139.026469,35.941521],[139.0265,35.9415],[139.0265,35.941542],[139.026469,35.941521]]],[[[139.026344,35.941479],[139.026313,35.9415],[139.026313,35.941458],[139.026344,35.941479]]],[[[139.026344,35.941479],[139.026313,35.941458],[139.026344,35.9414375],[139.026344,35.941479]]],[[[139.026344,35.941479],[139.026344,35.9414375],[139.026375,35.941458],[139.026344,35.941479]]],[[[139.026344,35.941479],[139.026375,35.941458],[139.026375,35.9415],[139.026344,35.941479]]],[[[139.026344,35.941479],[139.026375,35.9415],[139.026313,35.9415],[139.026344,35.941479]]],[[[139.0264065,35.941479],[139.026375,35.941458],[139.026438,35.941458],[139.0264065,35.941479]]],[[[139.0264065,35.941479],[139.026375,35.9415],[139.026375,35.941458],[139.0264065,35.941479]]]]},"properties":{"layer":"flood","class_code":"3","class_label":"3m以上5m未満","scale_code":"2","scale_label":"L2（想定最大規模）"}},{"type":"Feature","id":"fld_3d35adde-ec0d-4226-91a7-63aa2d84dda4","geometry":{"type":"MultiPolygon","coordinates":[[[[139.025625,35.940917],[139.025688,35.940917],[139.0256565,35.9409375],[139.025625,35.940917]]],[[[139.025688,35.940958],[139.025625,35.940958],[139.0256565,35.9409375],[139.025688,35.940958]]],[[[139.025688,35.940958],[139.0256565,35.9409375],[139.025688,35.940917],[139.025688,35.940958]]],[[[139.025625,35.940917],[139.0256565,35.9409375],[139.025625,35.940958],[139.025625,35.940917]]]]},"properties":{"layer":"flood","class_code":"3","class_label":"3m以上5m未満","scale_code":"2","scale_label":"L2（想定最大規模）"}},{"type":"Feature","id":"fld_a77c99fe-6df5-48a4-b741-5563a93d61c8","geometry":{"type":"MultiPolygon","coordinates":[[[[139.025313,35.940833],[139.025344,35.940854],[139.025313,35.940875],[139.025313,35.940833]]],[[[139.025313,35.940875],[139.025344,35.940854],[139.025375,35.940875],[139.025313,35.940875]]],[[[139.025375,35.940875],[139.025344,35.940854],[139.025375,35.940833],[139.025375,35.940875]]],[[[139.025313,35.940833],[139.025375,35.940833],[139.025344,35.940854],[139.025313,35.940833]]]]},"properties":{"layer":"flood","class_code":"3","class_label":"3m以上5m未満","scale_code":"2","scale_label":"L2（想定最大規模）"}}]}