{"type":"FeatureCollection","properties":{"mesh_code":"54380778","source":"PLATEAU秩父市2025","layer":"flood"},"features":[{"type":"Feature","id":"fld_5fe04902-dd88-461a-a1c9-6ee1c53d0723","geometry":{"type":"MultiPolygon","coordinates":[[[[138.979812,36.058333],[138.9798435,36.058354],[138.979812,36.058375],[138.979812,36.058333]]],[[[138.979812,36.058375],[138.9798435,36.058354],[138.979875,36.058375],[138.979812,36.058375]]],[[[138.9798435,36.058354],[138.979875,36.058333],[138.979875,36.058375],[138.9798435,36.058354]]],[[[138.979812,36.058333],[138.979875,36.058333],[138.9798435,36.058354],[138.979812,36.058333]]]]},"properties":{"layer":"flood","class_code":"1","class_label":"0.5m未満","scale_code":"2","scale_label":"L2（想定最大規模）"}},{"type":"Feature","id":"fld_3b3e7ccf-6584-4c45-a2a9-e72faf3966ef","geometry":{"type":"MultiPolygon","coordinates":[[[[138.979563,36.058583],[138.979594,36.0585625],[138.979625,36.058583],[138.979563,36.058583]]],[[[138.979563,36.058583],[138.979563,36.058542],[138.979594,36.0585625],[138.979563,36.058583]]],[[[138.979625,36.058542],[138.979594,36.0585625],[138.979563,36.058542],[138.979625,36.058542]]],[[[138.979625,36.058542],[138.979625,36.058583],[138.979594,36.0585625],[138.979625,36.058542]]]]},"properties":{"layer":"flood","class_code":"1","class_label":"0.5m未満","scale_code":"2","scale_label":"L2（想定最大規模）"}},{"type":"Feature","id":"fld_4fa53e8d-2737-4320-a9f1-71a385a79f75","geometry":{"type":"MultiPolygon","coordinates":[[[[138.9795,36.058667],[138.9795315,36.058646],[138.979563,36.058667],[138.9795,36.058667]]],[[[138.9795,36.058625],[138.9795315,36.058646],[138.9795,36.058667],[138.9795,36.058625]]],[[[138.9795,36.058625],[138.979563,36.058625],[138.9795315,36.058646],[138.9795,36.058625]]],[[[138.979563,36.058625],[138.979563,36.058667],[138.9795315,36.058646],[138.979563,36.058625]]]]},"properties":{"layer":"flood","class_code":"1","class_label":"0.5m未満","scale_code":"2","scale_label":"L2（想定最大規模）"}},{"type":"Feature","id":"fld_8857b33d-b882-4691-9d2c-0937c04e71ea","geometry":{"type":"MultiPolygon","coordinates":[[[[138.979438,36.058667],[138.979438,36.058708],[138.9794065,36.0586875],[138.979438,36.058667]]],[[[138.979375,36.058708],[138.9794065,36.0586875],[138.979438,36.058708],[138.979375,36.058708]]],[[[138.979375,36.058667],[138.9794065,36.0586875],[138.979375,36.058708],[138.979375,36.058667]]],[[[138.979375,36.058667],[138.979438,36.058667],[138.9794065,36.0586875],[138.979375,36.058667]]]]},"properties":{"layer":"flood","class_code":"1","class_label":"0.5m未満","scale_code":"2","scale_label":"L2（想定最大規模）"}},{"type":"Feature","id":"fld_8c58a8b8-adf1-4355-b31c-7649774e9f01","geometry":{"type":"MultiPolygon","coordinates":[[[[138.975125,36.058833],[138.975188,36.058833],[138.9751565,36.058854],[138.975125,36.058833]]],[[[138.975125,36.058833],[138.9751565,36.058854],[138.975125,36.058875],[138.975125,36.058833]]],[[[138.975125,36.058875],[138.9751565,36.058854],[138.975188,36.058875],[138.975125,36.058875]]],[[[138.975188,36.058833],[138.975188,36.058875],[138.9751565,36.058854],[138.975188,36.058833]]]]},"properties":{"layer":"flood","class_code":"1","class_label":"0.5m未満","scale_code":"2","scale_label":"L2（想定最大規模）"}},{"type":"Feature","id":"fld_a4282e14-61a3-4e8f-9412-7febff3e800a","geometry":{"type":"MultiPolygon","coordinates":[[[[138.9787815,36.0589375],[138.978813,36.058958],[138.97875,36.058958],[138.9787815,36.0589375]]],[[[138.9787815,36.0589375],[138.978813,36.058917],[138.978813,36.058958],[138.9787815,36.0589375]]],[[[138.9787815,36.0589375],[138.97875,36.058917],[138.978813,36.058917],[138.9787815,36.0589375]]],[[[138.978938,36.058958],[138.9789065,36.0589375],[138.978938,36.058917],[138.978938,36.058958]]],[[[138.978844,36.0589375],[138.978875,36.058917],[138.978875,36.058958],[138.978844,36.0589375]]],[[[138.9789065,36.0589375],[138.978875,36.058958],[138.978875,36.058917],[138.9789065,36.0589375]]],[[[138.9789065,36.0589375],[138.978875,36.058917],[138.978938,36.058917],[138.9789065,36.0589375]]],[[[138.978938,36.058958],[138.978875,36.058958],[138.9789065,36.0589375],[138.978938,36.058958]]],[[[138.978844,36.0589375],[138.978813,36.058958],[138.978813,36.058917],[138.978844,36.0589375]]],[[[138.978844,36.0589375],[138.978875,36.058958],[138.978813,36.058958],[138.978844,36.0589375]]],[[[138.978844,36.0589375],[138.978813,36.058917],[138.978875,36.058917],[138.978844,36.0589375]]],[[[138.9787815,36.0589375],[138.97875,36.058958],[138.97875,36.058917],[138.9787815,36.0589375]]]]},"properties":{"layer":"flood","class_code":"1","class_label":"0.5m未満","scale_code":"2","scale_label":"L2（想定最大規模）"}},{"type":"Feature","id":"fld_2cd65ef6-9c98-497c-9a12-fad85605c849","geometry":{"type":"MultiPolygon","coordinates":[[[[138.975469,36.058979],[138.9755,36.059],[138.975438,36.059],[138.975469,36.058979]]],[[[138.975469,36.058979],[138.9755,36.058958],[138.9755,36.059],[138.975469,36.058979]]],[[[138.975469,36.058979],[138.975438,36.058958],[138.9755,36.058958],[138.975469,36.058979]]],[[[138.975469,36.058979],[138.975438,36.059],[138.975438,36.058958],[138.975469,36.058979]]]]},"properties":{"layer":"flood","class_code":"1","class_label":"0.5m未満","scale_code":"2","scale_label":"L2（想定最大規模）"}},{"type":"Feature","id":"fld_b2f0370e-88c1-4d84-b93f-0d9003a790ac","geometry":{"type":"MultiPolygon","coordinates":[[[[138.975625,36.059],[138.975687,36.059],[138.975656,36.059021],[138.975625,36.059]]],[[[138.975625,36.059],[138.975656,36.059021],[138.975625,36.059042],[138.975625,36.059]]],[[[138.975656,36.059021],[138.975687,36.059],[138.975687,36.059042],[138.975656,36.059021]]],[[[138.975656,36.059021],[138.975687,36.059042],[138.975625,36.059042],[138.975656,36.059021]]]]},"properties":{"layer":"flood","class_code":"1","class_label":"0.5m未満","scale_code":"2","scale_label":"L2（想定最大規模）"}},{"type":"Feature","id":"fld_2ebaf349-5e4c-490f-855e-4cb6fb927c4d","geometry":{"type":"MultiPolygon","coordinates":[[[[138.9757185,36.0590625],[138.97575,36.059042],[138.97575,36.059083],[138.9757185,36.0590625]]],[[[138.9757185,36.0590625],[138.975687,36.059083],[138.975687,36.059042],[138.9757185,36.0590625]]],[[[138.9757185,36.0590625],[138.97575,36.059083],[138.975687,36.059083],[138.9757185,36.0590625]]],[[[138.9757185,36.0590625],[138.975687,36.059042],[138.97575,36.059042],[138.9757185,36.0590625]]]]},"properties":{"layer":"flood","class_code":"1","class_label":"0.5m未満","scale_code":"2","scale_label":"L2（想定最大規模）"}},{"type":"Feature","id":"fld_b2085f7b-976e-4c75-b65b-45cabf10d41b","geometry":{"type":"MultiPolygon","coordinates":[[[[138.976094,36.059146],[138.976063,36.059167],[138.976063,36.059125],[138.976094,36.059146]]],[[[138.976094,36.059146],[138.976125,36.059167],[138.976063,36.059167],[138.976094,36.059146]]],[[[138.976094,36.059146],[138.976125,36.059125],[138.976125,36.059167],[138.976094,36.059146]]],[[[138.976094,36.059146],[138.976063,36.059125],[138.976125,36.059125],[138.976094,36.059146]]]]},"properties":{"layer":"flood","class_code":"1","class_label":"0.5m未満","scale_code":"2","scale_label":"L2（想定最大規模）"}},{"type":"Feature","id":"fld_b0d3b170-f2f8-47b7-abbf-4257c495b3bc","geometry":{"type":"MultiPolygon","coordinates":[[[[138.979375,36.058708],[138.979375,36.05875],[138.979344,36.058729],[138.979375,36.058708]]],[[[138.979313,36.058708],[138.979375,36.058708],[138.979344,36.058729],[138.979313,36.058708]]],[[[138.979313,36.058708],[138.979344,36.058729],[138.979313,36.05875],[138.979313,36.058708]]],[[[138.979313,36.05875],[138.979344,36.058729],[138.979375,36.05875],[138.979313,36.05875]]]]},"properties":{"layer":"flood","class_code":"1","class_label":"0.5m未満","scale_code":"2","scale_label":"L2（想定最大規模）"}},{"type":"Feature","id":"fld_ff61db77-5376-4a46-bb43-d43c6a860e8b","geometry":{"type":"MultiPolygon","coordinates":[[[[138.977562,36.059375],[138.977562,36.059333],[138.9775935,36.059354],[138.977562,36.059375]]],[[[138.977562,36.059375],[138.977531,36.059354],[138.977562,36.059333],[138.977562,36.059375]]],[[[138.977562,36.059375],[138.9775,36.059375],[138.977531,36.059354],[138.977562,36.059375]]],[[[138.977469,36.059354],[138.977438,36.059333],[138.9775,36.059333],[138.977469,36.059354]]],[[[138.977469,36.059354],[138.977438,36.059375],[138.977438,36.059333],[138.977469,36.059354]]],[[[138.977469,36.059354],[138.9775,36.059375],[138.977438,36.059375],[138.977469,36.059354]]],[[[138.977469,36.059354],[138.9775,36.059333],[138.9775,36.059375],[138.977469,36.059354]]],[[[138.9774065,36.059354],[138.977375,36.059333],[138.977438,36.059333],[138.9774065,36.059354]]],[[[138.9774065,36.059354],[138.977375,36.059375],[138.977375,36.059333],[138.9774065,36.059354]]],[[[138.9774065,36.059354],[138.977438,36.059375],[138.977375,36.059375],[138.9774065,36.059354]]],[[[138.977344,36.059354],[138.977375,36.059333],[138.977375,36.059375],[138.977344,36.059354]]],[[[138.977344,36.059354],[138.977313,36.059333],[138.977375,36.059333],[138.977344,36.059354]]],[[[138.977313,36.059375],[138.977344,36.059354],[138.977375,36.059375],[138.977313,36.059375]]],[[[138.977313,36.059375],[138.977313,36.059333],[138.977344,36.059354],[138.977313,36.059375]]],[[[138.977562,36.059375],[138.9775935,36.059354],[138.977625,36.059375],[138.977562,36.059375]]],[[[138.9774065,36.059354],[138.977438,36.059333],[138.977438,36.059375],[138.9774065,36.059354]]],[[[138.977625,36.059333],[138.977688,36.059333],[138.9776565,36.059354],[138.977625,36.059333]]],[[[138.977625,36.059333],[138.9776565,36.059354],[138.977625,36.059375],[138.977625,36.059333]]],[[[138.977625,36.059333],[138.977625,36.059375],[138.9775935,36.059354],[138.977625,36.059333]]],[[[138.977625,36.059333],[138.9775935,36.059354],[138.977562,36.059333],[138.977625,36.059333]]],[[[138.977625,36.059375],[138.9776565,36.059354],[138.977688,36.059375],[138.977625,36.059375]]],[[[138.977688,36.059375],[138.9776565,36.059354],[138.977688,36.059333],[138.977688,36.059375]]],[[[138.977531,36.059354],[138.9775,36.059333],[138.977562,36.059333],[138.977531,36.059354]]],[[[138.977531,36.059354],[138.9775,36.059375],[138.9775,36.059333],[138.977531,36.059354]]]]},"properties":{"layer":"flood","class_code":"1","class_label":"0.5m未満","scale_code":"2","scale_label":"L2（想定最大規模）"}},{"type":"Feature","id":"fld_449dcadb-0560-4420-bf79-61710ab2cb9e","geometry":{"type":"MultiPolygon","coordinates":[[[[138.97625,36.059208],[138.976219,36.0591875],[138.97625,36.059167],[138.97625,36.059208]]],[[[138.976188,36.059208],[138.976219,36.0591875],[138.97625,36.059208],[138.976188,36.059208]]],[[[138.976125,36.059208],[138.9761565,36.0591875],[138.976188,36.059208],[138.976125,36.059208]]],[[[138.976125,36.059208],[138.976125,36.059167],[138.9761565,36.0591875],[138.976125,36.059208]]],[[[138.976188,36.059167],[138.97625,36.059167],[138.976219,36.0591875],[138.976188,36.059167]]],[[[138.976188,36.059167],[138.9761565,36.0591875],[138.976125,36.059167],[138.976188,36.059167]]],[[[138.976188,36.059167],[138.976188,36.059208],[138.9761565,36.0591875],[138.976188,36.059167]]],[[[138.976188,36.059167],[138.976219,36.0591875],[138.976188,36.059208],[138.976188,36.059167]]]]},"properties":{"layer":"flood","class_code":"1","class_label":"0.5m未満","scale_code":"2","scale_label":"L2（想定最大規模）"}},{"type":"Feature","id":"fld_22868c67-e604-4f52-ab64-c5aa23bd975a","geometry":{"type":"MultiPolygon","coordinates":[[[[138.97975,36.058375],[138.979781,36.058396],[138.97975,36.058417],[138.97975,36.058375]]],[[[138.97975,36.058375],[138.97975,36.058333],[138.979781,36.058354],[138.97975,36.058375]]],[[[138.97975,36.058333],[138.979812,36.058333],[138.979781,36.058354],[138.97975,36.058333]]],[[[138.97975,36.058375],[138.979781,36.058354],[138.979781,36.058396],[138.97975,36.058375]]],[[[138.979812,36.058375],[138.979781,36.058354],[138.979812,36.058333],[138.979812,36.058375]]],[[[138.979812,36.058375],[138.979781,36.058396],[138.979781,36.058354],[138.979812,36.058375]]],[[[138.979812,36.058375],[138.979812,36.058417],[138.979781,36.058396],[138.979812,36.058375]]],[[[138.97975,36.058417],[138.979781,36.058396],[138.979812,36.058417],[138.97975,36.058417]]]]},"properties":{"layer":"flood","class_code":"2","class_label":"0.5m以上3m未満","scale_code":"2","scale_label":"L2（想定最大規模）"}},{"type":"Feature","id":"fld_e20472a7-9ea2-4547-a0ac-e52d4cc4e6f1","geometry":{"type":"MultiPolygon","coordinates":[[[[138.9796565,36.058521],[138.979688,36.0585],[138.979688,36.058542],[138.9796565,36.058521]]],[[[138.9796565,36.058521],[138.9796565,36.058479],[138.979688,36.0585],[138.9796565,36.058521]]],[[[138.979563,36.058458],[138.979563,36.058417],[138.979594,36.0584375],[138.979563,36.058458]]],[[[138.979625,36.058458],[138.9796565,36.0584375],[138.9796565,36.058479],[138.979625,36.058458]]],[[[138.979625,36.058458],[138.979594,36.0584375],[138.9796565,36.0584375],[138.979625,36.058458]]],[[[138.979625,36.058458],[138.979563,36.058458],[138.979594,36.0584375],[138.979625,36.058458]]],[[[138.979625,36.058458],[138.9796565,36.058479],[138.979625,36.0585],[138.979625,36.058458]]],[[[138.979688,36.058458],[138.979688,36.0585],[138.9796565,36.058479],[138.979688,36.058458]]],[[[138.979688,36.058458],[138.979688,36.058417],[138.979719,36.0584375],[138.979688,36.058458]]],[[[138.979688,36.058458],[138.9796565,36.0584375],[138.979688,36.058417],[138.979688,36.058458]]],[[[138.979688,36.058458],[138.9796565,36.058479],[138.9796565,36.0584375],[138.979688,36.058458]]],[[[138.97975,36.058458],[138.979719,36.0584375],[138.97975,36.058417],[138.97975,36.058458]]],[[[138.97975,36.058458],[138.979688,36.058458],[138.979719,36.0584375],[138.97975,36.058458]]],[[[138.979594,36.0584375],[138.9796565,36.058396],[138.9796565,36.0584375],[138.979594,36.0584375]]],[[[138.979594,36.0584375],[138.979594,36.058396],[138.9796565,36.058396],[138.979594,36.0584375]]],[[[138.979688,36.058333],[138.9796565,36.058354],[138.979625,36.058333],[138.979688,36.058333]]],[[[138.979688,36.058333],[138.979688,36.058375],[138.9796565,36.058354],[138.979688,36.058333]]],[[[138.9796565,36.058521],[138.979625,36.0585],[138.9796565,36.058479],[138.9796565,36.058521]]],[[[138.9796565,36.058521],[138.979625,36.058542],[138.979625,36.0585],[138.9796565,36.058521]]],[[[138.979563,36.058417],[138.979594,36.058396],[138.979594,36.0584375],[138.979563,36.058417]]],[[[138.979563,36.058375],[138.979594,36.058396],[138.979563,36.058417],[138.979563,36.058375]]],[[[138.979688,36.058417],[138.9796565,36.0584375],[138.9796565,36.058396],[138.979688,36.058417]]],[[[138.97975,36.058417],[138.979719,36.0584375],[138.979688,36.058417],[138.97975,36.058417]]],[[[138.9796565,36.058521],[138.979688,36.058542],[138.979625,36.058542],[138.9796565,36.058521]]],[[[138.979625,36.058375],[138.9796565,36.058396],[138.979594,36.058396],[138.979625,36.058375]]],[[[138.979625,36.058375],[138.9796565,36.058354],[138.9796565,36.058396],[138.979625,36.058375]]],[[[138.979625,36.058375],[138.979594,36.058396],[138.979563,36.058375],[138.979625,36.058375]]],[[[138.979625,36.058333],[138.9796565,36.058354],[138.979625,36.058375],[138.979625,36.058333]]],[[[138.979688,36.058375],[138.9796565,36.058396],[138.9796565,36.058354],[138.979688,36.058375]]],[[[138.979688,36.058375],[138.979688,36.058417],[138.9796565,36.058396],[138.979688,36.058375]]]]},"properties":{"layer":"flood","class_code":"2","class_label":"0.5m以上3m未満","scale_code":"2","scale_label":"L2（想定最大規模）"}},{"type":"Feature","id":"fld_21af265e-b118-4835-a2b1-5a1ce84cc28a","geometry":{"type":"MultiPolygon","coordinates":[[[[138.979563,36.0585],[138.9795315,36.058521],[138.9795,36.0585],[138.979563,36.0585]]],[[[138.9795,36.0585],[138.9795315,36.058521],[138.9795,36.058542],[138.9795,36.0585]]],[[[138.979375,36.058667],[138.9794065,36.058646],[138.979438,36.058667],[138.979375,36.058667]]],[[[138.979375,36.058667],[138.979375,36.058708],[138.979344,36.0586875],[138.979375,36.058667]]],[[[138.979375,36.058667],[138.979344,36.0586875],[138.979344,36.058646],[138.979375,36.058667]]],[[[138.979375,36.058667],[138.979344,36.058646],[138.979375,36.058625],[138.979375,36.058667]]],[[[138.979375,36.058667],[138.979375,36.058625],[138.9794065,36.058646],[138.979375,36.058667]]],[[[138.979438,36.058667],[138.9794065,36.058646],[138.979438,36.058625],[138.979438,36.058667]]],[[[138.979438,36.058667],[138.979438,36.058625],[138.979469,36.058646],[138.979438,36.058667]]],[[[138.979438,36.058667],[138.979469,36.058646],[138.9795,36.058667],[138.979438,36.058667]]],[[[138.9795,36.058625],[138.979469,36.058646],[138.979469,36.058604],[138.9795,36.058625]]],[[[138.9795,36.058625],[138.979469,36.058604],[138.9795315,36.058604],[138.9795,36.058625]]],[[[138.9795,36.058625],[138.9795315,36.058604],[138.979563,36.058625],[138.9795,36.058625]]],[[[138.9795,36.058625],[138.9795,36.058667],[138.979469,36.058646],[138.9795,36.058625]]],[[[138.979563,36.058625],[138.9795315,36.058604],[138.979563,36.058583],[138.979563,36.058625]]],[[[138.979563,36.058583],[138.9795315,36.058604],[138.9795315,36.0585625],[138.979563,36.058583]]],[[[138.979563,36.058583],[138.9795315,36.0585625],[138.979563,36.058542],[138.979563,36.058583]]],[[[138.979438,36.058583],[138.979438,36.058542],[138.979469,36.0585625],[138.979438,36.058583]]],[[[138.979438,36.058583],[138.979469,36.0585625],[138.979469,36.058604],[138.979438,36.058583]]],[[[138.979438,36.058583],[138.979469,36.058604],[138.979438,36.058625],[138.979438,36.058583]]],[[[138.979438,36.058625],[138.9794065,36.058646],[138.979375,36.058625],[138.979438,36.058625]]],[[[138.979438,36.058625],[138.979469,36.058604],[138.979469,36.058646],[138.979438,36.058625]]],[[[138.979313,36.058625],[138.979344,36.058646],[138.9792815,36.058646],[138.979313,36.058625]]],[[[138.979313,36.058625],[138.9792815,36.058646],[138.97925,36.058625],[138.979313,36.058625]]],[[[138.9792815,36.058646],[138.979344,36.0586875],[138.9792815,36.0586875],[138.9792815,36.058646]]],[[[138.9792815,36.058646],[138.9792815,36.0586875],[138.97925,36.058667],[138.9792815,36.058646]]],[[[138.9792815,36.058646],[138.97925,36.058667],[138.97925,36.058625],[138.9792815,36.058646]]],[[[138.9792815,36.058646],[138.979344,36.058646],[138.979344,36.0586875],[138.9792815,36.058646]]],[[[138.979469,36.058604],[138.979469,36.0585625],[138.9795315,36.058604],[138.979469,36.058604]]],[[[138.9795315,36.058604],[138.979469,36.0585625],[138.9795315,36.0585625],[138.9795315,36.058604]]],[[[138.979469,36.0585625],[138.9795,36.058542],[138.9795315,36.0585625],[138.979469,36.0585625]]],[[[138.979469,36.0585625],[138.979438,36.058542],[138.9795,36.058542],[138.979469,36.0585625]]],[[[138.9795315,36.0585625],[138.9795,36.058542],[138.9795315,36.058521],[138.9795315,36.0585625]]],[[[138.9795315,36.0585625],[138.9795315,36.058521],[138.979563,36.058542],[138.9795315,36.0585625]]],[[[138.979313,36.058708],[138.979313,36.05875],[138.9792815,36.058729],[138.979313,36.058708]]],[[[138.979313,36.058708],[138.9792815,36.058729],[138.9792815,36.0586875],[138.979313,36.058708]]],[[[138.979313,36.058708],[138.9792815,36.0586875],[138.979344,36.0586875],[138.979313,36.058708]]],[[[138.979313,36.058708],[138.979344,36.0586875],[138.979375,36.058708],[138.979313,36.058708]]],[[[138.979313,36.05875],[138.97925,36.05875],[138.9792815,36.058729],[138.979313,36.05875]]],[[[138.9792815,36.058729],[138.97925,36.058708],[138.9792815,36.0586875],[138.9792815,36.058729]]],[[[138.9792815,36.058729],[138.97925,36.05875],[138.97925,36.058708],[138.9792815,36.058729]]],[[[138.9792815,36.0586875],[138.97925,36.058708],[138.97925,36.058667],[138.9792815,36.0586875]]],[[[138.979375,36.058625],[138.979344,36.058646],[138.979313,36.058625],[138.979375,36.058625]]],[[[138.979563,36.058542],[138.9795315,36.058521],[138.979563,36.0585],[138.979563,36.058542]]]]},"properties":{"layer":"flood","class_code":"2","class_label":"0.5m以上3m未満","scale_code":"2","scale_label":"L2（想定最大規模）"}},{"type":"Feature","id":"fld_3f9854b0-3fb1-44bc-9bae-0d6d60c236ae","geometry":{"type":"MultiPolygon","coordinates":[[[[138.975188,36.058833],[138.97525,36.058833],[138.975219,36.058854],[138.975188,36.058833]]],[[[138.97525,36.058875],[138.975219,36.058854],[138.97525,36.058833],[138.97525,36.058875]]],[[[138.975188,36.058875],[138.975219,36.058854],[138.97525,36.058875],[138.975188,36.058875]]],[[[138.975188,36.058875],[138.975188,36.058833],[138.975219,36.058854],[138.975188,36.058875]]]]},"properties":{"layer":"flood","class_code":"2","class_label":"0.5m以上3m未満","scale_code":"2","scale_label":"L2（想定最大規模）"}},{"type":"Feature","id":"fld_f7b33689-9d34-4ae3-a2e2-a2a3dd5e1f5d","geometry":{"type":"MultiPolygon","coordinates":[[[[138.978938,36.058917],[138.9789065,36.058896],[138.978969,36.058896],[138.978938,36.058917]]],[[[138.978875,36.058833],[138.978938,36.058833],[138.9789065,36.058854],[138.978875,36.058833]]],[[[138.978938,36.058917],[138.978969,36.058896],[138.979,36.058917],[138.978938,36.058917]]],[[[138.978875,36.058917],[138.978844,36.058896],[138.978875,36.058875],[138.978875,36.058917]]],[[[138.978875,36.058917],[138.9789065,36.058896],[138.978938,36.058917],[138.978875,36.058917]]],[[[138.978875,36.058917],[138.978875,36.058875],[138.9789065,36.058896],[138.978875,36.058917]]],[[[138.978813,36.058917],[138.9787815,36.058896],[138.978813,36.058875],[138.978813,36.058917]]],[[[138.978813,36.058917],[138.978844,36.058896],[138.978875,36.058917],[138.978813,36.058917]]],[[[138.97875,36.058917],[138.9787815,36.058896],[138.978813,36.058917],[138.97875,36.058917]]],[[[138.97875,36.058917],[138.97875,36.058875],[138.9787815,36.058896],[138.97875,36.058917]]],[[[138.9790935,36.0588125],[138.979062,36.058792],[138.979125,36.058792],[138.9790935,36.0588125]]],[[[138.9790935,36.0588125],[138.979062,36.058833],[138.979062,36.058792],[138.9790935,36.0588125]]],[[[138.9790935,36.0588125],[138.979125,36.058792],[138.979125,36.058833],[138.9790935,36.0588125]]],[[[138.9790935,36.058854],[138.979125,36.058833],[138.979125,36.058875],[138.9790935,36.058854]]],[[[138.9790935,36.058854],[138.9790935,36.0588125],[138.979125,36.058833],[138.9790935,36.058854]]],[[[138.9790935,36.058854],[138.979062,36.058833],[138.9790935,36.0588125],[138.9790935,36.058854]]],[[[138.9790935,36.058854],[138.979062,36.058875],[138.979062,36.058833],[138.9790935,36.058854]]],[[[138.9790935,36.058854],[138.979125,36.058875],[138.979062,36.058875],[138.9790935,36.058854]]],[[[138.979031,36.058854],[138.979,36.058875],[138.979,36.058833],[138.979031,36.058854]]],[[[138.979031,36.058854],[138.979062,36.058875],[138.979,36.058875],[138.979031,36.058854]]],[[[138.979031,36.058854],[138.979062,36.058833],[138.979062,36.058875],[138.979031,36.058854]]],[[[138.979031,36.058854],[138.979,36.058833],[138.979062,36.058833],[138.979031,36.058854]]],[[[138.978969,36.058854],[138.979,36.058833],[138.979,36.058875],[138.978969,36.058854]]],[[[138.978969,36.058854],[138.978938,36.058833],[138.979,36.058833],[138.978969,36.058854]]],[[[138.9789065,36.058854],[138.978938,36.058833],[138.978969,36.058854],[138.9789065,36.058854]]],[[[138.978875,36.058833],[138.9789065,36.058854],[138.978875,36.058875],[138.978875,36.058833]]],[[[138.978969,36.058896],[138.978969,36.058854],[138.979,36.058875],[138.978969,36.058896]]],[[[138.978813,36.058917],[138.978813,36.058875],[138.978844,36.058896],[138.978813,36.058917]]],[[[138.9789065,36.058896],[138.978969,36.058854],[138.978969,36.058896],[138.9789065,36.058896]]],[[[138.9789065,36.058896],[138.9789065,36.058854],[138.978969,36.058854],[138.9789065,36.058896]]],[[[138.9789065,36.058896],[138.978875,36.058875],[138.9789065,36.058854],[138.9789065,36.058896]]],[[[138.978844,36.058896],[138.978813,36.058875],[138.978875,36.058875],[138.978844,36.058896]]],[[[138.9787815,36.058896],[138.97875,36.058875],[138.978813,36.058875],[138.9787815,36.058896]]],[[[138.979,36.058917],[138.978969,36.058896],[138.979,36.058875],[138.979,36.058917]]]]},"properties":{"layer":"flood","class_code":"2","class_label":"0.5m以上3m未満","scale_code":"2","scale_label":"L2（想定最大規模）"}},{"type":"Feature","id":"fld_6b5624ed-0734-4993-8fa6-dee75f7a303e","geometry":{"type":"MultiPolygon","coordinates":[[[[138.975438,36.058875],[138.975438,36.058917],[138.9754065,36.058896],[138.975438,36.058875]]],[[[138.975438,36.058875],[138.9754065,36.058896],[138.975375,36.058875],[138.975438,36.058875]]],[[[138.975375,36.058917],[138.9754065,36.058896],[138.975438,36.058917],[138.975375,36.058917]]],[[[138.975375,36.058917],[138.975312,36.058917],[138.9753435,36.058896],[138.975375,36.058917]]],[[[138.975375,36.058917],[138.9753435,36.058896],[138.975375,36.058875],[138.975375,36.058917]]],[[[138.975375,36.058917],[138.975375,36.058875],[138.9754065,36.058896],[138.975375,36.058917]]],[[[138.975312,36.058917],[138.975312,36.058875],[138.9753435,36.058896],[138.975312,36.058917]]],[[[138.975312,36.058875],[138.975375,36.058875],[138.9753435,36.058896],[138.975312,36.058875]]]]},"properties":{"layer":"flood","class_code":"2","class_label":"0.5m以上3m未満","scale_code":"2","scale_label":"L2（想定最大規模）"}},{"type":"Feature","id":"fld_fcddd299-8201-465e-9b98-c3b47c7d73df","geometry":{"type":"MultiPolygon","coordinates":[[[[138.975687,36.058958],[138.975656,36.058979],[138.975625,36.058958],[138.975687,36.058958]]],[[[138.975625,36.058958],[138.975656,36.058979],[138.975625,36.059],[138.975625,36.058958]]],[[[138.975625,36.058958],[138.975625,36.059],[138.975594,36.058979],[138.975625,36.058958]]],[[[138.975625,36.058958],[138.975594,36.058979],[138.975563,36.058958],[138.975625,36.058958]]],[[[138.975563,36.058958],[138.975594,36.058979],[138.975563,36.059],[138.975563,36.058958]]],[[[138.975563,36.058958],[138.975563,36.059],[138.9755315,36.058979],[138.975563,36.058958]]],[[[138.975563,36.058958],[138.9755315,36.058979],[138.9755,36.058958],[138.975563,36.058958]]],[[[138.9755,36.058958],[138.9755315,36.058979],[138.9755,36.059],[138.9755,36.058958]]],[[[138.975687,36.058958],[138.975687,36.059],[138.975656,36.058979],[138.975687,36.058958]]],[[[138.975625,36.059],[138.975656,36.058979],[138.975687,36.059],[138.975625,36.059]]],[[[138.975563,36.059],[138.9755,36.059],[138.9755315,36.058979],[138.975563,36.059]]],[[[138.975625,36.059],[138.975563,36.059],[138.975594,36.058979],[138.975625,36.059]]]]},"properties":{"layer":"flood","class_code":"2","class_label":"0.5m以上3m未満","scale_code":"2","scale_label":"L2（想定最大規模）"}},{"type":"Feature","id":"fld_271035dd-2f37-47e2-81f9-cf70cd19d30e","geometry":{"type":"MultiPolygon","coordinates":[[[[138.97575,36.059042],[138.975687,36.059042],[138.9757185,36.059021],[138.97575,36.059042]]],[[[138.97575,36.059042],[138.9757185,36.059021],[138.97575,36.059],[138.97575,36.059042]]],[[[138.975687,36.059],[138.97575,36.059],[138.9757185,36.059021],[138.975687,36.059]]],[[[138.975687,36.059042],[138.975687,36.059],[138.9757185,36.059021],[138.975687,36.059042]]]]},"properties":{"layer":"flood","class_code":"2","class_label":"0.5m以上3m未満","scale_code":"2","scale_label":"L2（想定最大規模）"}},{"type":"Feature","id":"fld_1bf4f041-920b-4418-a360-6cf3946c2ce4","geometry":{"type":"MultiPolygon","coordinates":[[[[138.97625,36.059208],[138.97625,36.059167],[138.9762815,36.0591875],[138.97625,36.059208]]],[[[138.97625,36.059208],[138.9762815,36.0591875],[138.976313,36.059208],[138.97625,36.059208]]],[[[138.97625,36.059167],[138.976313,36.059167],[138.9762815,36.0591875],[138.97625,36.059167]]],[[[138.9765,36.059167],[138.9765,36.059208],[138.9764685,36.0591875],[138.9765,36.059167]]],[[[138.9765,36.059167],[138.9764685,36.0591875],[138.976437,36.059167],[138.9765,36.059167]]],[[[138.9765,36.059208],[138.976437,36.059208],[138.9764685,36.0591875],[138.9765,36.059208]]],[[[138.976437,36.059208],[138.976375,36.059208],[138.976406,36.0591875],[138.976437,36.059208]]],[[[138.976437,36.059208],[138.976406,36.0591875],[138.976437,36.059167],[138.976437,36.059208]]],[[[138.976437,36.059208],[138.976437,36.059167],[138.9764685,36.0591875],[138.976437,36.059208]]],[[[138.976437,36.059167],[138.976406,36.0591875],[138.976375,36.059167],[138.976437,36.059167]]],[[[138.976375,36.059208],[138.976344,36.0591875],[138.976375,36.059167],[138.976375,36.059208]]],[[[138.976375,36.059208],[138.976375,36.059167],[138.976406,36.0591875],[138.976375,36.059208]]],[[[138.976313,36.059208],[138.9762815,36.0591875],[138.976313,36.059167],[138.976313,36.059208]]],[[[138.976344,36.0591875],[138.976313,36.059208],[138.976313,36.059167],[138.976344,36.0591875]]],[[[138.976375,36.059167],[138.976344,36.0591875],[138.976313,36.059167],[138.976375,36.059167]]],[[[138.976375,36.059208],[138.976313,36.059208],[138.976344,36.0591875],[138.976375,36.059208]]]]},"properties":{"layer":"flood","class_code":"2","class_label":"0.5m以上3m未満","scale_code":"2","scale_label":"L2（想定最大規模）"}},{"type":"Feature","id":"fld_481a672e-04de-4ca7-bce8-bb4897399e89","geometry":{"type":"MultiPolygon","coordinates":[[[[138.978813,36.058833],[138.978875,36.058833],[138.978844,36.058854],[138.978813,36.058833]]],[[[138.978813,36.058833],[138.978844,36.058854],[138.978813,36.058875],[138.978813,36.058833]]],[[[138.978813,36.058875],[138.978844,36.058854],[138.978875,36.058875],[138.978813,36.058875]]],[[[138.978844,36.058854],[138.978875,36.058833],[138.978875,36.058875],[138.978844,36.058854]]]]},"properties":{"layer":"flood","class_code":"3","class_label":"3m以上5m未満","scale_code":"2","scale_label":"L2（想定最大規模）"}},{"type":"Feature","id":"fld_65ff1fd9-a9aa-4974-bdee-7ca941f803ba","geometry":{"type":"MultiPolygon","coordinates":[[[[138.97975,36.058375],[138.979719,36.058396],[138.979719,36.058354],[138.97975,36.058375]]],[[[138.97975,36.058375],[138.979719,36.058354],[138.97975,36.058333],[138.97975,36.058375]]],[[[138.979688,36.058333],[138.97975,36.058333],[138.979719,36.058354],[138.979688,36.058333]]],[[[138.979688,36.058333],[138.979719,36.058354],[138.979688,36.058375],[138.979688,36.058333]]],[[[138.979688,36.058375],[138.979719,36.058354],[138.979719,36.058396],[138.979688,36.058375]]],[[[138.979688,36.058417],[138.979719,36.058396],[138.97975,36.058417],[138.979688,36.058417]]],[[[138.979688,36.058417],[138.979688,36.058375],[138.979719,36.058396],[138.979688,36.058417]]],[[[138.97975,36.058417],[138.979719,36.058396],[138.97975,36.058375],[138.97975,36.058417]]]]},"properties":{"layer":"flood","class_code":"3","class_label":"3m以上5m未満","scale_code":"2","scale_label":"L2（想定最大規模）"}},{"type":"Feature","id":"fld_ae4158ac-8392-46b3-b243-8302771d590d","geometry":{"type":"MultiPolygon","coordinates":[[[[138.979625,36.0585],[138.979625,36.058542],[138.979594,36.058521],[138.979625,36.0585]]],[[[138.979625,36.0585],[138.979594,36.058521],[138.979594,36.058479],[138.979625,36.0585]]],[[[138.979625,36.0585],[138.979594,36.058479],[138.979625,36.058458],[138.979625,36.0585]]],[[[138.979563,36.0585],[138.979563,36.058458],[138.979594,36.058479],[138.979563,36.0585]]],[[[138.979563,36.0585],[138.979594,36.058479],[138.979594,36.058521],[138.979563,36.0585]]],[[[138.979563,36.0585],[138.979594,36.058521],[138.979563,36.058542],[138.979563,36.0585]]],[[[138.979594,36.058479],[138.979563,36.058458],[138.979625,36.058458],[138.979594,36.058479]]],[[[138.979594,36.058521],[138.979625,36.058542],[138.979563,36.058542],[138.979594,36.058521]]]]},"properties":{"layer":"flood","class_code":"3","class_label":"3m以上5m未満","scale_code":"2","scale_label":"L2（想定最大規模）"}}]}