{"type":"FeatureCollection","properties":{"mesh_code":"54390056","source":"PLATEAU秩父市2025","layer":"flood"},"features":[{"type":"Feature","id":"fld_11f0d63d-5575-4f97-a318-5c996a12258b","geometry":{"type":"MultiPolygon","coordinates":[[[[139.086938,36.042542],[139.087,36.042542],[139.086969,36.0425625],[139.086938,36.042542]]],[[[139.087,36.042583],[139.086938,36.042583],[139.086969,36.0425625],[139.087,36.042583]]],[[[139.087,36.042583],[139.086969,36.0425625],[139.087,36.042542],[139.087,36.042583]]],[[[139.086938,36.042583],[139.086938,36.042542],[139.086969,36.0425625],[139.086938,36.042583]]]]},"properties":{"layer":"flood","class_code":"1","class_label":"0.5m未満","scale_code":"1","scale_label":"L1（計画規模）"}},{"type":"Feature","id":"fld_10d75979-6465-435b-b22e-a81741baa664","geometry":{"type":"MultiPolygon","coordinates":[[[[139.087125,36.042625],[139.087188,36.042625],[139.0871565,36.042646],[139.087125,36.042625]]],[[[139.087125,36.042625],[139.0871565,36.042646],[139.087125,36.042667],[139.087125,36.042625]]],[[[139.0871565,36.042646],[139.087188,36.042667],[139.087125,36.042667],[139.0871565,36.042646]]],[[[139.08725,36.042625],[139.08725,36.042667],[139.087219,36.042646],[139.08725,36.042625]]],[[[139.08725,36.042625],[139.087219,36.042646],[139.087188,36.042625],[139.08725,36.042625]]],[[[139.087188,36.042625],[139.087219,36.042646],[139.087188,36.042667],[139.087188,36.042625]]],[[[139.087188,36.042625],[139.087188,36.042667],[139.0871565,36.042646],[139.087188,36.042625]]],[[[139.087188,36.042667],[139.087219,36.042646],[139.08725,36.042667],[139.087188,36.042667]]]]},"properties":{"layer":"flood","class_code":"1","class_label":"0.5m未満","scale_code":"1","scale_label":"L1（計画規模）"}},{"type":"Feature","id":"fld_8d5d2194-fe96-4115-ab42-4834b4610bfb","geometry":{"type":"MultiPolygon","coordinates":[[[[139.087063,36.042583],[139.087125,36.042583],[139.087094,36.042604],[139.087063,36.042583]]],[[[139.087063,36.042583],[139.087094,36.042604],[139.087063,36.042625],[139.087063,36.042583]]],[[[139.087063,36.042583],[139.087063,36.042625],[139.0870315,36.042604],[139.087063,36.042583]]],[[[139.087063,36.042583],[139.0870315,36.042604],[139.087,36.042583],[139.087063,36.042583]]],[[[139.087094,36.042604],[139.087125,36.042583],[139.087125,36.042625],[139.087094,36.042604]]],[[[139.087094,36.042604],[139.087125,36.042625],[139.087063,36.042625],[139.087094,36.042604]]],[[[139.0870315,36.042604],[139.087063,36.042625],[139.087,36.042625],[139.0870315,36.042604]]],[[[139.0870315,36.042604],[139.087,36.042625],[139.087,36.042583],[139.0870315,36.042604]]]]},"properties":{"layer":"flood","class_code":"1","class_label":"0.5m未満","scale_code":"1","scale_label":"L1（計画規模）"}},{"type":"Feature","id":"fld_c8a1e5e9-381f-43a7-9fbf-afc120e35851","geometry":{"type":"MultiPolygon","coordinates":[[[[139.086969,36.042521],[139.086938,36.0425],[139.087,36.0425],[139.086969,36.042521]]],[[[139.087,36.042542],[139.086938,36.042542],[139.086969,36.042521],[139.087,36.042542]]],[[[139.087,36.042542],[139.086969,36.042521],[139.087,36.0425],[139.087,36.042542]]],[[[139.087,36.042542],[139.087,36.0425],[139.0870315,36.042521],[139.087,36.042542]]],[[[139.087,36.042542],[139.0870315,36.042521],[139.0870315,36.0425625],[139.087,36.042542]]],[[[139.087,36.042542],[139.0870315,36.0425625],[139.087,36.042583],[139.087,36.042542]]],[[[139.086938,36.042542],[139.086938,36.0425],[139.086969,36.042521],[139.086938,36.042542]]],[[[139.0870315,36.042521],[139.087,36.0425],[139.087063,36.0425],[139.0870315,36.042521]]],[[[139.087063,36.042542],[139.0870315,36.042521],[139.087063,36.0425],[139.087063,36.042542]]],[[[139.087063,36.042542],[139.087125,36.042542],[139.087094,36.0425625],[139.087063,36.042542]]],[[[139.087063,36.042542],[139.087094,36.0425625],[139.087063,36.042583],[139.087063,36.042542]]],[[[139.087063,36.042542],[139.087063,36.042583],[139.0870315,36.0425625],[139.087063,36.042542]]],[[[139.087063,36.042542],[139.0870315,36.0425625],[139.0870315,36.042521],[139.087063,36.042542]]],[[[139.0870315,36.0425625],[139.087063,36.042583],[139.087,36.042583],[139.0870315,36.0425625]]],[[[139.087125,36.042542],[139.087125,36.042583],[139.087094,36.0425625],[139.087125,36.042542]]],[[[139.087094,36.0425625],[139.087125,36.042583],[139.087063,36.042583],[139.087094,36.0425625]]]]},"properties":{"layer":"flood","class_code":"2","class_label":"0.5m以上3m未満","scale_code":"1","scale_label":"L1（計画規模）"}},{"type":"Feature","id":"fld_40893b0b-7a9b-4a33-9b9e-14bba7f57a36","geometry":{"type":"MultiPolygon","coordinates":[[[[139.087125,36.042583],[139.0871565,36.042604],[139.087125,36.042625],[139.087125,36.042583]]],[[[139.087125,36.042583],[139.087188,36.042583],[139.0871565,36.042604],[139.087125,36.042583]]],[[[139.087125,36.042625],[139.0871565,36.042604],[139.087188,36.042625],[139.087125,36.042625]]],[[[139.087188,36.042583],[139.087188,36.042625],[139.0871565,36.042604],[139.087188,36.042583]]]]},"properties":{"layer":"flood","class_code":"2","class_label":"0.5m以上3m未満","scale_code":"1","scale_label":"L1（計画規模）"}},{"type":"Feature","id":"fld_b36eb658-d635-44e9-8744-48e0333e98b3","geometry":{"type":"MultiPolygon","coordinates":[[[[139.087188,36.042708],[139.087219,36.042729],[139.087188,36.04275],[139.087188,36.042708]]],[[[139.087219,36.042729],[139.08725,36.04275],[139.087188,36.04275],[139.087219,36.042729]]],[[[139.08725,36.042708],[139.087312,36.042708],[139.087281,36.042729],[139.08725,36.042708]]],[[[139.08725,36.042708],[139.087281,36.042729],[139.08725,36.04275],[139.08725,36.042708]]],[[[139.08725,36.042708],[139.08725,36.04275],[139.087219,36.042729],[139.08725,36.042708]]],[[[139.08725,36.042708],[139.087219,36.042729],[139.087188,36.042708],[139.08725,36.042708]]],[[[139.087281,36.042729],[139.087312,36.042708],[139.087312,36.04275],[139.087281,36.042729]]],[[[139.087281,36.042729],[139.087312,36.04275],[139.08725,36.04275],[139.087281,36.042729]]]]},"properties":{"layer":"flood","class_code":"1","class_label":"0.5m未満","scale_code":"2","scale_label":"L2（想定最大規模）"}},{"type":"Feature","id":"fld_f2306548-d158-47c2-92d3-9c699f87bcc1","geometry":{"type":"MultiPolygon","coordinates":[[[[139.086938,36.042542],[139.086938,36.0425],[139.086969,36.042521],[139.086938,36.042542]]],[[[139.086969,36.0425625],[139.086938,36.042583],[139.086938,36.042542],[139.086969,36.0425625]]],[[[139.086969,36.0425625],[139.086938,36.042542],[139.086969,36.042521],[139.086969,36.0425625]]],[[[139.086969,36.0425625],[139.086969,36.042521],[139.0870315,36.042521],[139.086969,36.0425625]]],[[[139.086969,36.0425625],[139.087,36.042583],[139.086938,36.042583],[139.086969,36.0425625]]],[[[139.087,36.0425],[139.086969,36.042521],[139.086938,36.0425],[139.087,36.0425]]],[[[139.087,36.042583],[139.0870315,36.042604],[139.087,36.042625],[139.087,36.042583]]],[[[139.0870315,36.042521],[139.086969,36.042521],[139.087,36.0425],[139.0870315,36.042521]]],[[[139.0870315,36.042521],[139.087,36.0425],[139.087063,36.0425],[139.0870315,36.042521]]],[[[139.0870315,36.0425625],[139.087094,36.0425625],[139.0870315,36.042604],[139.0870315,36.0425625]]],[[[139.0870315,36.0425625],[139.0870315,36.042604],[139.087,36.042583],[139.0870315,36.0425625]]],[[[139.0870315,36.0425625],[139.087,36.042583],[139.086969,36.0425625],[139.0870315,36.0425625]]],[[[139.0870315,36.0425625],[139.086969,36.0425625],[139.0870315,36.042521],[139.0870315,36.0425625]]],[[[139.0870315,36.0425625],[139.0870315,36.042521],[139.087063,36.042542],[139.0870315,36.0425625]]],[[[139.0870315,36.0425625],[139.087063,36.042542],[139.087094,36.0425625],[139.0870315,36.0425625]]],[[[139.0870315,36.042604],[139.087094,36.042604],[139.087063,36.042625],[139.0870315,36.042604]]],[[[139.0870315,36.042604],[139.087063,36.042625],[139.087,36.042625],[139.0870315,36.042604]]],[[[139.087063,36.042542],[139.0870315,36.042521],[139.087063,36.0425],[139.087063,36.042542]]],[[[139.087094,36.0425625],[139.087094,36.042604],[139.0870315,36.042604],[139.087094,36.0425625]]],[[[139.087094,36.0425625],[139.087063,36.042542],[139.087125,36.042542],[139.087094,36.0425625]]],[[[139.087094,36.0425625],[139.087125,36.042542],[139.087125,36.042583],[139.087094,36.0425625]]],[[[139.087094,36.0425625],[139.087125,36.042583],[139.087094,36.042604],[139.087094,36.0425625]]],[[[139.087063,36.042625],[139.087094,36.042604],[139.087125,36.042625],[139.087063,36.042625]]],[[[139.087125,36.042583],[139.087125,36.042625],[139.087094,36.042604],[139.087125,36.042583]]],[[[139.0871565,36.042604],[139.087125,36.042625],[139.087125,36.042583],[139.0871565,36.042604]]],[[[139.0871565,36.042604],[139.087125,36.042583],[139.087188,36.042583],[139.0871565,36.042604]]],[[[139.0871565,36.042604],[139.087188,36.042583],[139.087188,36.042625],[139.0871565,36.042604]]],[[[139.0871565,36.042604],[139.087188,36.042625],[139.0871565,36.042646],[139.0871565,36.042604]]],[[[139.0871565,36.042604],[139.0871565,36.042646],[139.087125,36.042625],[139.0871565,36.042604]]],[[[139.0871565,36.042646],[139.087188,36.042625],[139.087188,36.042667],[139.0871565,36.042646]]],[[[139.0871565,36.042646],[139.087188,36.042667],[139.087125,36.042667],[139.0871565,36.042646]]],[[[139.0871565,36.042646],[139.087125,36.042667],[139.087125,36.042625],[139.0871565,36.042646]]],[[[139.087188,36.042667],[139.087219,36.0426875],[139.087188,36.042708],[139.087188,36.042667]]],[[[139.087188,36.042708],[139.087219,36.0426875],[139.08725,36.042708],[139.087188,36.042708]]],[[[139.087219,36.042646],[139.08725,36.042625],[139.08725,36.042667],[139.087219,36.042646]]],[[[139.087219,36.042646],[139.08725,36.042667],[139.087219,36.0426875],[139.087219,36.042646]]],[[[139.087219,36.042646],[139.087219,36.0426875],[139.087188,36.042667],[139.087219,36.042646]]],[[[139.087219,36.042646],[139.087188,36.042667],[139.087188,36.042625],[139.087219,36.042646]]],[[[139.087219,36.042646],[139.087188,36.042625],[139.08725,36.042625],[139.087219,36.042646]]],[[[139.08725,36.042667],[139.08725,36.042708],[139.087219,36.0426875],[139.08725,36.042667]]]]},"properties":{"layer":"flood","class_code":"2","class_label":"0.5m以上3m未満","scale_code":"2","scale_label":"L2（想定最大規模）"}}]}