{"type":"FeatureCollection","properties":{"mesh_code":"54390013","source":"PLATEAU秩父市2025","layer":"flood"},"features":[{"type":"Feature","id":"fld_99015052-dec2-4f81-82bf-1ee3daaabffc","geometry":{"type":"MultiPolygon","coordinates":[[[[139.039844,36.012354],[139.039813,36.012333],[139.039844,36.0123125],[139.039844,36.012354]]],[[[139.0399065,36.012479],[139.039875,36.0125],[139.039875,36.012458],[139.0399065,36.012479]]],[[[139.0399065,36.0124375],[139.0399065,36.012396],[139.039938,36.012417],[139.0399065,36.0124375]]],[[[139.0399065,36.0124375],[139.039875,36.012417],[139.0399065,36.012396],[139.0399065,36.0124375]]],[[[139.0399065,36.0124375],[139.039875,36.012458],[139.039875,36.012417],[139.0399065,36.0124375]]],[[[139.0399065,36.0124375],[139.0399065,36.012479],[139.039875,36.012458],[139.0399065,36.0124375]]],[[[139.0399065,36.0124375],[139.039938,36.012417],[139.039938,36.012458],[139.0399065,36.0124375]]],[[[139.0399065,36.012521],[139.039875,36.0125],[139.0399065,36.012479],[139.0399065,36.012521]]],[[[139.0399065,36.012521],[139.039875,36.012542],[139.039875,36.0125],[139.0399065,36.012521]]],[[[139.0399065,36.012521],[139.039938,36.012542],[139.039875,36.012542],[139.0399065,36.012521]]],[[[139.0399065,36.0123125],[139.039938,36.012292],[139.039938,36.012333],[139.0399065,36.0123125]]],[[[139.0399065,36.012521],[139.039938,36.0125],[139.039938,36.012542],[139.0399065,36.012521]]],[[[139.039844,36.012354],[139.039813,36.012375],[139.039813,36.012333],[139.039844,36.012354]]],[[[139.039844,36.012354],[139.039875,36.012375],[139.039813,36.012375],[139.039844,36.012354]]],[[[139.039844,36.012354],[139.039844,36.0123125],[139.0399065,36.012354],[139.039844,36.012354]]],[[[139.0399065,36.012521],[139.0399065,36.012479],[139.039938,36.0125],[139.0399065,36.012521]]],[[[139.0399065,36.0124375],[139.039938,36.012458],[139.0399065,36.012479],[139.0399065,36.0124375]]],[[[139.0399065,36.012271],[139.039875,36.01225],[139.039938,36.01225],[139.0399065,36.012271]]],[[[139.0399065,36.012271],[139.039938,36.01225],[139.039938,36.012292],[139.0399065,36.012271]]],[[[139.039844,36.012271],[139.039813,36.01225],[139.039875,36.01225],[139.039844,36.012271]]],[[[139.039844,36.012271],[139.039813,36.012292],[139.039813,36.01225],[139.039844,36.012271]]],[[[139.039844,36.012271],[139.039875,36.01225],[139.0399065,36.012271],[139.039844,36.012271]]],[[[139.0397815,36.012271],[139.039813,36.01225],[139.039813,36.012292],[139.0397815,36.012271]]],[[[139.0397815,36.012271],[139.03975,36.01225],[139.039813,36.01225],[139.0397815,36.012271]]],[[[139.0397815,36.012271],[139.03975,36.012292],[139.03975,36.01225],[139.0397815,36.012271]]],[[[139.0397815,36.012271],[139.039813,36.012292],[139.03975,36.012292],[139.0397815,36.012271]]],[[[139.0399065,36.0123125],[139.0399065,36.012271],[139.039938,36.012292],[139.0399065,36.0123125]]],[[[139.039844,36.0123125],[139.039813,36.012292],[139.039844,36.012271],[139.039844,36.0123125]]],[[[139.039844,36.0123125],[139.039813,36.012333],[139.039813,36.012292],[139.039844,36.0123125]]],[[[139.039844,36.0123125],[139.0399065,36.012271],[139.0399065,36.0123125],[139.039844,36.0123125]]],[[[139.039844,36.0123125],[139.039844,36.012271],[139.0399065,36.012271],[139.039844,36.0123125]]],[[[139.0399065,36.012354],[139.039844,36.0123125],[139.0399065,36.0123125],[139.0399065,36.012354]]],[[[139.039844,36.012354],[139.0399065,36.012354],[139.039875,36.012375],[139.039844,36.012354]]],[[[139.0399065,36.012354],[139.039938,36.012333],[139.039938,36.012375],[139.0399065,36.012354]]],[[[139.0399065,36.012354],[139.0399065,36.0123125],[139.039938,36.012333],[139.0399065,36.012354]]],[[[139.0399065,36.012396],[139.0399065,36.012354],[139.039938,36.012375],[139.0399065,36.012396]]],[[[139.0399065,36.012396],[139.039938,36.012375],[139.039938,36.012417],[139.0399065,36.012396]]],[[[139.0399065,36.012396],[139.039875,36.012417],[139.039875,36.012375],[139.0399065,36.012396]]],[[[139.0399065,36.012396],[139.039875,36.012375],[139.0399065,36.012354],[139.0399065,36.012396]]],[[[139.0399065,36.012479],[139.039938,36.012458],[139.039938,36.0125],[139.0399065,36.012479]]]]},"properties":{"layer":"flood","class_code":"1","class_label":"0.5m未満","scale_code":"2","scale_label":"L2（想定最大規模）"}},{"type":"Feature","id":"fld_51187fec-e840-43f8-950a-9e16cb947172","geometry":{"type":"MultiPolygon","coordinates":[[[[139.039719,36.012229],[139.039688,36.012208],[139.039719,36.0121875],[139.039719,36.012229]]],[[[139.039719,36.0121875],[139.039688,36.012208],[139.039688,36.012167],[139.039719,36.0121875]]],[[[139.03975,36.01225],[139.039719,36.012229],[139.03975,36.012208],[139.03975,36.01225]]],[[[139.03975,36.01225],[139.039688,36.01225],[139.039719,36.012229],[139.03975,36.01225]]],[[[139.03975,36.012208],[139.039719,36.0121875],[139.03975,36.012167],[139.03975,36.012208]]],[[[139.03975,36.012208],[139.039719,36.012229],[139.039719,36.0121875],[139.03975,36.012208]]],[[[139.03975,36.012167],[139.039719,36.0121875],[139.039688,36.012167],[139.03975,36.012167]]],[[[139.039719,36.012229],[139.039688,36.01225],[139.039688,36.012208],[139.039719,36.012229]]]]},"properties":{"layer":"flood","class_code":"1","class_label":"0.5m未満","scale_code":"2","scale_label":"L2（想定最大規模）"}},{"type":"Feature","id":"fld_1c26c008-a4d4-4f63-b149-0ea8699cff33","geometry":{"type":"MultiPolygon","coordinates":[[[[139.0396565,36.012146],[139.039688,36.012125],[139.039688,36.012167],[139.0396565,36.012146]]],[[[139.0396565,36.012146],[139.039625,36.012125],[139.039688,36.012125],[139.0396565,36.012146]]],[[[139.0396565,36.012146],[139.039625,36.012167],[139.039625,36.012125],[139.0396565,36.012146]]],[[[139.0396565,36.012146],[139.039688,36.012167],[139.039625,36.012167],[139.0396565,36.012146]]]]},"properties":{"layer":"flood","class_code":"1","class_label":"0.5m未満","scale_code":"2","scale_label":"L2（想定最大規模）"}},{"type":"Feature","id":"fld_fa2eaca9-a18a-4e01-a2a6-7f51ebe58cdf","geometry":{"type":"MultiPolygon","coordinates":[[[[139.039594,36.012021],[139.039563,36.012042],[139.039563,36.012],[139.039594,36.012021]]],[[[139.039594,36.0120625],[139.039625,36.012042],[139.039625,36.012083],[139.039594,36.0120625]]],[[[139.039594,36.0120625],[139.039594,36.012021],[139.039625,36.012042],[139.039594,36.0120625]]],[[[139.039594,36.011979],[139.039563,36.012],[139.039563,36.011958],[139.039594,36.011979]]],[[[139.039594,36.0120625],[139.039563,36.012042],[139.039594,36.012021],[139.039594,36.0120625]]],[[[139.039594,36.0120625],[139.039563,36.012083],[139.039563,36.012042],[139.039594,36.0120625]]],[[[139.039594,36.012104],[139.039625,36.012125],[139.039563,36.012125],[139.039594,36.012104]]],[[[139.039594,36.012104],[139.039625,36.012083],[139.039625,36.012125],[139.039594,36.012104]]],[[[139.039594,36.012104],[139.039594,36.0120625],[139.039625,36.012083],[139.039594,36.012104]]],[[[139.0395,36.011875],[139.039563,36.011875],[139.0395315,36.011896],[139.0395,36.011875]]],[[[139.039594,36.012104],[139.039563,36.012125],[139.039563,36.012083],[139.039594,36.012104]]],[[[139.039594,36.012104],[139.039563,36.012083],[139.039594,36.0120625],[139.039594,36.012104]]],[[[139.0395315,36.0119375],[139.039563,36.011958],[139.0395,36.011958],[139.0395315,36.0119375]]],[[[139.039594,36.011979],[139.039563,36.011958],[139.039594,36.0119375],[139.039594,36.011979]]],[[[139.039594,36.012021],[139.039625,36.012],[139.039625,36.012042],[139.039594,36.012021]]],[[[139.039594,36.012021],[139.039563,36.012],[139.039594,36.011979],[139.039594,36.012021]]],[[[139.039625,36.011958],[139.039594,36.011979],[139.039594,36.0119375],[139.039625,36.011958]]],[[[139.039563,36.011917],[139.0395315,36.0119375],[139.0395315,36.011896],[139.039563,36.011917]]],[[[139.039563,36.011917],[139.039563,36.011958],[139.0395315,36.0119375],[139.039563,36.011917]]],[[[139.039563,36.011917],[139.039594,36.0119375],[139.039563,36.011958],[139.039563,36.011917]]],[[[139.039563,36.011917],[139.0395315,36.011896],[139.039563,36.011875],[139.039563,36.011917]]],[[[139.039625,36.011958],[139.039625,36.012],[139.039594,36.011979],[139.039625,36.011958]]],[[[139.039625,36.011917],[139.039594,36.0119375],[139.039563,36.011917],[139.039625,36.011917]]],[[[139.039625,36.011917],[139.039625,36.011958],[139.039594,36.0119375],[139.039625,36.011917]]],[[[139.0395,36.011917],[139.0395315,36.0119375],[139.0395,36.011958],[139.0395,36.011917]]],[[[139.0395,36.011917],[139.0395315,36.011896],[139.0395315,36.0119375],[139.0395,36.011917]]],[[[139.0395,36.011875],[139.0395315,36.011896],[139.0395,36.011917],[139.0395,36.011875]]],[[[139.039594,36.012021],[139.039594,36.011979],[139.039625,36.012],[139.039594,36.012021]]]]},"properties":{"layer":"flood","class_code":"1","class_label":"0.5m未満","scale_code":"2","scale_label":"L2（想定最大規模）"}},{"type":"Feature","id":"fld_edd33c7c-4821-4e44-ab4a-a06c5ba9d587","geometry":{"type":"MultiPolygon","coordinates":[[[[139.041125,36.016125],[139.041125,36.016083],[139.0411565,36.016104],[139.041125,36.016125]]],[[[139.041125,36.016125],[139.0411565,36.016104],[139.041188,36.016125],[139.041125,36.016125]]],[[[139.0411565,36.016104],[139.041125,36.016083],[139.041188,36.016083],[139.0411565,36.016104]]],[[[139.0411565,36.016104],[139.041188,36.016083],[139.041188,36.016125],[139.0411565,36.016104]]]]},"properties":{"layer":"flood","class_code":"1","class_label":"0.5m未満","scale_code":"2","scale_label":"L2（想定最大規模）"}},{"type":"Feature","id":"fld_67dccb64-670d-4e44-b08f-736275429bdf","geometry":{"type":"MultiPolygon","coordinates":[[[[139.041,36.016042],[139.0410315,36.0160625],[139.041,36.016083],[139.041,36.016042]]],[[[139.041,36.016083],[139.0410315,36.0160625],[139.041063,36.016083],[139.041,36.016083]]],[[[139.041063,36.016083],[139.041094,36.0160625],[139.041125,36.016083],[139.041063,36.016083]]],[[[139.041063,36.016042],[139.041063,36.016083],[139.0410315,36.0160625],[139.041063,36.016042]]],[[[139.041063,36.016042],[139.041125,36.016042],[139.041094,36.0160625],[139.041063,36.016042]]],[[[139.041063,36.016042],[139.041094,36.0160625],[139.041063,36.016083],[139.041063,36.016042]]],[[[139.041063,36.016042],[139.0410315,36.0160625],[139.041,36.016042],[139.041063,36.016042]]],[[[139.041094,36.0160625],[139.041125,36.016042],[139.041125,36.016083],[139.041094,36.0160625]]]]},"properties":{"layer":"flood","class_code":"1","class_label":"0.5m未満","scale_code":"2","scale_label":"L2（想定最大規模）"}},{"type":"Feature","id":"fld_e100de2e-dc66-4bcc-8b69-f236c8235644","geometry":{"type":"MultiPolygon","coordinates":[[[[139.041125,36.016],[139.041125,36.015958],[139.0411565,36.015979],[139.041125,36.016]]],[[[139.0411565,36.0159375],[139.041188,36.015917],[139.041188,36.015958],[139.0411565,36.0159375]]],[[[139.041125,36.016],[139.0411565,36.015979],[139.0411565,36.016021],[139.041125,36.016]]],[[[139.0411565,36.0159375],[139.041125,36.015917],[139.041188,36.015917],[139.0411565,36.0159375]]],[[[139.041125,36.015958],[139.0411565,36.0159375],[139.0411565,36.015979],[139.041125,36.015958]]],[[[139.041125,36.015958],[139.041125,36.015917],[139.0411565,36.0159375],[139.041125,36.015958]]],[[[139.041125,36.016],[139.0411565,36.016021],[139.041125,36.016042],[139.041125,36.016]]],[[[139.0411565,36.0159375],[139.041188,36.015958],[139.0411565,36.015979],[139.0411565,36.0159375]]],[[[139.0411565,36.016021],[139.041188,36.016],[139.041188,36.016042],[139.0411565,36.016021]]],[[[139.0411565,36.016021],[139.041188,36.016042],[139.041125,36.016042],[139.0411565,36.016021]]],[[[139.0411565,36.016021],[139.0411565,36.015979],[139.041188,36.016],[139.0411565,36.016021]]],[[[139.0411565,36.015979],[139.041188,36.015958],[139.041188,36.016],[139.0411565,36.015979]]]]},"properties":{"layer":"flood","class_code":"1","class_label":"0.5m未満","scale_code":"2","scale_label":"L2（想定最大規模）"}},{"type":"Feature","id":"fld_4a2b1e03-61b7-4bac-b34f-74f4cb892db4","geometry":{"type":"MultiPolygon","coordinates":[[[[139.041125,36.015833],[139.0411565,36.0158125],[139.0411565,36.015854],[139.041125,36.015833]]],[[[139.041125,36.015833],[139.041125,36.015792],[139.0411565,36.0158125],[139.041125,36.015833]]],[[[139.041063,36.015792],[139.041063,36.01575],[139.041094,36.015771],[139.041063,36.015792]]],[[[139.041063,36.015792],[139.041094,36.015771],[139.041094,36.0158125],[139.041063,36.015792]]],[[[139.041063,36.015792],[139.041094,36.0158125],[139.041063,36.015833],[139.041063,36.015792]]],[[[139.041063,36.01575],[139.041063,36.015708],[139.041094,36.015729],[139.041063,36.01575]]],[[[139.041063,36.01575],[139.041094,36.015729],[139.041094,36.015771],[139.041063,36.01575]]],[[[139.041125,36.015667],[139.041125,36.015708],[139.041094,36.0156875],[139.041125,36.015667]]],[[[139.041094,36.0156875],[139.041125,36.015708],[139.041094,36.015729],[139.041094,36.0156875]]],[[[139.041094,36.0156875],[139.041094,36.015729],[139.041063,36.015708],[139.041094,36.0156875]]],[[[139.041063,36.015833],[139.041094,36.0158125],[139.041125,36.015833],[139.041063,36.015833]]],[[[139.0411565,36.015854],[139.041188,36.015833],[139.041188,36.015875],[139.0411565,36.015854]]],[[[139.041063,36.015667],[139.041125,36.015667],[139.041094,36.0156875],[139.041063,36.015667]]],[[[139.041063,36.015667],[139.041094,36.0156875],[139.041063,36.015708],[139.041063,36.015667]]],[[[139.041125,36.015833],[139.041094,36.0158125],[139.041125,36.015792],[139.041125,36.015833]]],[[[139.041125,36.015833],[139.0411565,36.015854],[139.041125,36.015875],[139.041125,36.015833]]],[[[139.0411565,36.015854],[139.0411565,36.0158125],[139.041188,36.015833],[139.0411565,36.015854]]],[[[139.0411565,36.015854],[139.041188,36.015875],[139.041125,36.015875],[139.0411565,36.015854]]],[[[139.041094,36.0158125],[139.041094,36.015771],[139.041125,36.015792],[139.041094,36.0158125]]],[[[139.041094,36.015771],[139.041125,36.01575],[139.041125,36.015792],[139.041094,36.015771]]],[[[139.041094,36.015771],[139.041094,36.015729],[139.041125,36.01575],[139.041094,36.015771]]],[[[139.041094,36.015729],[139.041125,36.015708],[139.041125,36.01575],[139.041094,36.015729]]],[[[139.0411565,36.0158125],[139.041188,36.015792],[139.041188,36.015833],[139.0411565,36.0158125]]],[[[139.0411565,36.0158125],[139.041125,36.015792],[139.041188,36.015792],[139.0411565,36.0158125]]]]},"properties":{"layer":"flood","class_code":"1","class_label":"0.5m未満","scale_code":"2","scale_label":"L2（想定最大規模）"}},{"type":"Feature","id":"fld_13b10290-4bf1-4396-abc6-e91a2967c033","geometry":{"type":"MultiPolygon","coordinates":[[[[139.041063,36.015542],[139.041063,36.015583],[139.0410315,36.0155625],[139.041063,36.015542]]],[[[139.041063,36.0155],[139.041063,36.015542],[139.0410315,36.015521],[139.041063,36.0155]]],[[[139.041063,36.0155],[139.0410315,36.015521],[139.0410315,36.015479],[139.041063,36.0155]]],[[[139.041063,36.015542],[139.0410315,36.0155625],[139.0410315,36.015521],[139.041063,36.015542]]],[[[139.041,36.015625],[139.0410315,36.015604],[139.041063,36.015625],[139.041,36.015625]]],[[[139.041,36.015583],[139.041,36.015542],[139.0410315,36.0155625],[139.041,36.015583]]],[[[139.041,36.015583],[139.0410315,36.0155625],[139.0410315,36.015604],[139.041,36.015583]]],[[[139.041,36.015542],[139.041,36.0155],[139.0410315,36.015521],[139.041,36.015542]]],[[[139.041063,36.0155],[139.0410315,36.015479],[139.041063,36.015458],[139.041063,36.0155]]],[[[139.041,36.015542],[139.0410315,36.015521],[139.0410315,36.0155625],[139.041,36.015542]]],[[[139.041,36.0155],[139.041,36.015458],[139.0410315,36.015479],[139.041,36.0155]]],[[[139.041,36.015625],[139.041,36.015583],[139.0410315,36.015604],[139.041,36.015625]]],[[[139.041,36.0155],[139.0410315,36.015479],[139.0410315,36.015521],[139.041,36.0155]]],[[[139.041,36.015458],[139.041063,36.015458],[139.0410315,36.015479],[139.041,36.015458]]],[[[139.0410315,36.015604],[139.0410315,36.0155625],[139.041063,36.015583],[139.0410315,36.015604]]],[[[139.0410315,36.015604],[139.041063,36.015583],[139.041063,36.015625],[139.0410315,36.015604]]]]},"properties":{"layer":"flood","class_code":"1","class_label":"0.5m未満","scale_code":"2","scale_label":"L2（想定最大規模）"}},{"type":"Feature","id":"fld_f1f26d8b-c4d4-4987-9aff-92aff578c91a","geometry":{"type":"MultiPolygon","coordinates":[[[[139.0412815,36.0161875],[139.04125,36.016167],[139.0412815,36.016146],[139.0412815,36.0161875]]],[[[139.0412815,36.0161875],[139.04125,36.016208],[139.04125,36.016167],[139.0412815,36.0161875]]],[[[139.04125,36.016167],[139.041219,36.016146],[139.04125,36.016125],[139.04125,36.016167]]],[[[139.04125,36.016167],[139.04125,36.016125],[139.0412815,36.016146],[139.04125,36.016167]]],[[[139.041313,36.016167],[139.0412815,36.016146],[139.041313,36.016125],[139.041313,36.016167]]],[[[139.0412815,36.0161875],[139.041313,36.016208],[139.0412815,36.016229],[139.0412815,36.0161875]]],[[[139.0412815,36.0161875],[139.041313,36.016167],[139.041313,36.016208],[139.0412815,36.0161875]]],[[[139.0412815,36.0161875],[139.0412815,36.016146],[139.041313,36.016167],[139.0412815,36.0161875]]],[[[139.04125,36.01625],[139.0412815,36.016229],[139.041313,36.01625],[139.04125,36.01625]]],[[[139.041313,36.016208],[139.041313,36.01625],[139.0412815,36.016229],[139.041313,36.016208]]],[[[139.0412815,36.0161875],[139.0412815,36.016229],[139.04125,36.016208],[139.0412815,36.0161875]]],[[[139.04125,36.01625],[139.04125,36.016208],[139.0412815,36.016229],[139.04125,36.01625]]],[[[139.041188,36.016167],[139.041219,36.016146],[139.04125,36.016167],[139.041188,36.016167]]],[[[139.041219,36.016146],[139.041188,36.016125],[139.04125,36.016125],[139.041219,36.016146]]],[[[139.041188,36.016167],[139.041188,36.016125],[139.041219,36.016146],[139.041188,36.016167]]],[[[139.04125,36.016125],[139.041313,36.016125],[139.0412815,36.016146],[139.04125,36.016125]]]]},"properties":{"layer":"flood","class_code":"1","class_label":"0.5m未満","scale_code":"2","scale_label":"L2（想定最大規模）"}},{"type":"Feature","id":"fld_08dc8c6c-a734-49f8-a099-8b0b260c35e8","geometry":{"type":"MultiPolygon","coordinates":[[[[139.041219,36.015979],[139.041219,36.016021],[139.041188,36.016],[139.041219,36.015979]]],[[[139.041219,36.015979],[139.041188,36.016],[139.041188,36.015958],[139.041219,36.015979]]],[[[139.041219,36.015979],[139.041188,36.015958],[139.041219,36.0159375],[139.041219,36.015979]]],[[[139.041219,36.0159375],[139.04125,36.015917],[139.04125,36.015958],[139.041219,36.0159375]]],[[[139.041219,36.0159375],[139.041188,36.015958],[139.041188,36.015917],[139.041219,36.0159375]]],[[[139.041219,36.0159375],[139.041188,36.015917],[139.041219,36.015896],[139.041219,36.0159375]]],[[[139.041219,36.0159375],[139.041219,36.015896],[139.04125,36.015917],[139.041219,36.0159375]]],[[[139.04125,36.015917],[139.041219,36.015896],[139.04125,36.015875],[139.04125,36.015917]]],[[[139.0411565,36.0160625],[139.041188,36.016042],[139.041188,36.016083],[139.0411565,36.0160625]]],[[[139.041219,36.016021],[139.04125,36.016],[139.04125,36.016042],[139.041219,36.016021]]],[[[139.041219,36.016021],[139.04125,36.016042],[139.041219,36.0160625],[139.041219,36.016021]]],[[[139.041219,36.016021],[139.041219,36.0160625],[139.041188,36.016042],[139.041219,36.016021]]],[[[139.041219,36.016021],[139.041188,36.016042],[139.041188,36.016],[139.041219,36.016021]]],[[[139.041219,36.016104],[139.0412815,36.016104],[139.04125,36.016125],[139.041219,36.016104]]],[[[139.041219,36.016104],[139.04125,36.016125],[139.041188,36.016125],[139.041219,36.016104]]],[[[139.041219,36.016104],[139.041188,36.016125],[139.041188,36.016083],[139.041219,36.016104]]],[[[139.041219,36.016104],[139.041219,36.0160625],[139.0412815,36.016104],[139.041219,36.016104]]],[[[139.041219,36.0160625],[139.04125,36.016042],[139.0412815,36.0160625],[139.041219,36.0160625]]],[[[139.041219,36.0160625],[139.0412815,36.0160625],[139.0412815,36.016104],[139.041219,36.0160625]]],[[[139.04125,36.016042],[139.041313,36.016042],[139.0412815,36.0160625],[139.04125,36.016042]]],[[[139.04125,36.016125],[139.0412815,36.016104],[139.041313,36.016125],[139.04125,36.016125]]],[[[139.0412815,36.0160625],[139.041313,36.016083],[139.0412815,36.016104],[139.0412815,36.0160625]]],[[[139.041125,36.015875],[139.041188,36.015875],[139.0411565,36.015896],[139.041125,36.015875]]],[[[139.041125,36.015917],[139.041125,36.015875],[139.0411565,36.015896],[139.041125,36.015917]]],[[[139.041125,36.015917],[139.0411565,36.015896],[139.041188,36.015917],[139.041125,36.015917]]],[[[139.041125,36.016042],[139.041188,36.016042],[139.0411565,36.0160625],[139.041125,36.016042]]],[[[139.041125,36.016042],[139.0411565,36.0160625],[139.041125,36.016083],[139.041125,36.016042]]],[[[139.041125,36.016083],[139.0411565,36.0160625],[139.041188,36.016083],[139.041125,36.016083]]],[[[139.041313,36.016042],[139.041313,36.016083],[139.0412815,36.0160625],[139.041313,36.016042]]],[[[139.041313,36.016083],[139.041313,36.016125],[139.0412815,36.016104],[139.041313,36.016083]]],[[[139.041188,36.015833],[139.041188,36.015792],[139.041219,36.0158125],[139.041188,36.015833]]],[[[139.041188,36.015833],[139.041219,36.0158125],[139.041219,36.015854],[139.041188,36.015833]]],[[[139.041188,36.015833],[139.041219,36.015854],[139.041188,36.015875],[139.041188,36.015833]]],[[[139.041188,36.015792],[139.04125,36.015792],[139.041219,36.0158125],[139.041188,36.015792]]],[[[139.0411565,36.015896],[139.041188,36.015875],[139.041188,36.015917],[139.0411565,36.015896]]],[[[139.041219,36.016104],[139.041188,36.016083],[139.041219,36.0160625],[139.041219,36.016104]]],[[[139.041219,36.015896],[139.041188,36.015875],[139.041219,36.015854],[139.041219,36.015896]]],[[[139.041188,36.015917],[139.041188,36.015875],[139.041219,36.015896],[139.041188,36.015917]]],[[[139.041188,36.016042],[139.041219,36.0160625],[139.041188,36.016083],[139.041188,36.016042]]],[[[139.04125,36.015833],[139.04125,36.015875],[139.041219,36.015854],[139.04125,36.015833]]],[[[139.04125,36.015833],[139.041219,36.015854],[139.041219,36.0158125],[139.04125,36.015833]]],[[[139.04125,36.015833],[139.041219,36.0158125],[139.04125,36.015792],[139.04125,36.015833]]],[[[139.04125,36.015875],[139.041219,36.015896],[139.041219,36.015854],[139.04125,36.015875]]],[[[139.041219,36.015979],[139.041219,36.0159375],[139.04125,36.015958],[139.041219,36.015979]]],[[[139.041219,36.015979],[139.04125,36.015958],[139.04125,36.016],[139.041219,36.015979]]],[[[139.041219,36.015979],[139.04125,36.016],[139.041219,36.016021],[139.041219,36.015979]]]]},"properties":{"layer":"flood","class_code":"2","class_label":"0.5m以上3m未満","scale_code":"2","scale_label":"L2（想定最大規模）"}},{"type":"Feature","id":"fld_35b02380-1e6d-4b8a-ad7a-34ed072184e0","geometry":{"type":"MultiPolygon","coordinates":[[[[139.0411565,36.015729],[139.041188,36.01575],[139.0411565,36.015771],[139.0411565,36.015729]]],[[[139.041125,36.015708],[139.041125,36.015667],[139.0411565,36.0156875],[139.041125,36.015708]]],[[[139.0411565,36.0156875],[139.041125,36.015667],[139.041188,36.015667],[139.0411565,36.0156875]]],[[[139.0411565,36.015729],[139.0411565,36.0156875],[139.041188,36.015708],[139.0411565,36.015729]]],[[[139.0411565,36.015729],[139.041188,36.015708],[139.041188,36.01575],[139.0411565,36.015729]]],[[[139.0411565,36.015729],[139.0411565,36.015771],[139.041125,36.01575],[139.0411565,36.015729]]],[[[139.0411565,36.015729],[139.041125,36.01575],[139.041125,36.015708],[139.0411565,36.015729]]],[[[139.0411565,36.015729],[139.041125,36.015708],[139.0411565,36.0156875],[139.0411565,36.015729]]],[[[139.041125,36.01575],[139.0411565,36.015771],[139.041125,36.015792],[139.041125,36.01575]]],[[[139.0411565,36.015771],[139.041188,36.015792],[139.041125,36.015792],[139.0411565,36.015771]]],[[[139.041188,36.01575],[139.041188,36.015792],[139.0411565,36.015771],[139.041188,36.01575]]],[[[139.041188,36.015708],[139.0411565,36.0156875],[139.041188,36.015667],[139.041188,36.015708]]]]},"properties":{"layer":"flood","class_code":"2","class_label":"0.5m以上3m未満","scale_code":"2","scale_label":"L2（想定最大規模）"}},{"type":"Feature","id":"fld_7eb0ae3b-b98f-475d-9399-1b9a7422ecbb","geometry":{"type":"MultiPolygon","coordinates":[[[[139.041094,36.0155625],[139.041094,36.015604],[139.041063,36.015583],[139.041094,36.0155625]]],[[[139.041063,36.015625],[139.041063,36.015583],[139.041094,36.015604],[139.041063,36.015625]]],[[[139.041125,36.015583],[139.041094,36.015604],[139.041094,36.0155625],[139.041125,36.015583]]],[[[139.041125,36.015583],[139.041094,36.0155625],[139.041125,36.015542],[139.041125,36.015583]]],[[[139.041125,36.015542],[139.041094,36.0155625],[139.041063,36.015542],[139.041125,36.015542]]],[[[139.041125,36.015667],[139.041063,36.015667],[139.041094,36.015646],[139.041125,36.015667]]],[[[139.041125,36.015667],[139.041094,36.015646],[139.041125,36.015625],[139.041125,36.015667]]],[[[139.041125,36.015625],[139.041094,36.015604],[139.041125,36.015583],[139.041125,36.015625]]],[[[139.041094,36.015646],[139.041063,36.015625],[139.041094,36.015604],[139.041094,36.015646]]],[[[139.041094,36.015646],[139.041063,36.015667],[139.041063,36.015625],[139.041094,36.015646]]],[[[139.041125,36.015625],[139.041094,36.015646],[139.041094,36.015604],[139.041125,36.015625]]],[[[139.041063,36.015542],[139.041094,36.0155625],[139.041063,36.015583],[139.041063,36.015542]]]]},"properties":{"layer":"flood","class_code":"2","class_label":"0.5m以上3m未満","scale_code":"2","scale_label":"L2（想定最大規模）"}}]}