{"type":"FeatureCollection","properties":{"mesh_code":"54390012","source":"PLATEAU秩父市2025","layer":"flood"},"features":[{"type":"Feature","id":"fld_ea4ef565-b21f-4315-b9d0-c289d56f9596","geometry":{"type":"MultiPolygon","coordinates":[[[[139.026719,36.009729],[139.026688,36.009708],[139.02675,36.009708],[139.026719,36.009729]]],[[[139.026719,36.009729],[139.026688,36.00975],[139.026688,36.009708],[139.026719,36.009729]]],[[[139.026719,36.009729],[139.02675,36.00975],[139.026688,36.00975],[139.026719,36.009729]]],[[[139.026719,36.009729],[139.02675,36.009708],[139.02675,36.00975],[139.026719,36.009729]]]]},"properties":{"layer":"flood","class_code":"1","class_label":"0.5m未満","scale_code":"2","scale_label":"L2（想定最大規模）"}},{"type":"Feature","id":"fld_6ab7b15a-102b-4239-a5f4-c860c8390dea","geometry":{"type":"MultiPolygon","coordinates":[[[[139.027563,36.009583],[139.027594,36.0095625],[139.027625,36.009583],[139.027563,36.009583]]],[[[139.027563,36.009542],[139.027594,36.0095625],[139.027563,36.009583],[139.027563,36.009542]]],[[[139.027625,36.009542],[139.027625,36.009583],[139.027594,36.0095625],[139.027625,36.009542]]],[[[139.027625,36.009542],[139.027594,36.0095625],[139.027563,36.009542],[139.027625,36.009542]]]]},"properties":{"layer":"flood","class_code":"1","class_label":"0.5m未満","scale_code":"2","scale_label":"L2（想定最大規模）"}},{"type":"Feature","id":"fld_83f6cad9-7543-4a79-85ae-28f9cf3ace63","geometry":{"type":"MultiPolygon","coordinates":[[[[139.027344,36.009521],[139.027313,36.0095],[139.027375,36.0095],[139.027344,36.009521]]],[[[139.027344,36.009521],[139.027375,36.0095],[139.027375,36.009542],[139.027344,36.009521]]],[[[139.027344,36.009521],[139.027375,36.009542],[139.027313,36.009542],[139.027344,36.009521]]],[[[139.027344,36.009521],[139.027313,36.009542],[139.027313,36.0095],[139.027344,36.009521]]]]},"properties":{"layer":"flood","class_code":"1","class_label":"0.5m未満","scale_code":"2","scale_label":"L2（想定最大規模）"}},{"type":"Feature","id":"fld_8cb231ef-e351-4327-9cd3-66df6ad08b7f","geometry":{"type":"MultiPolygon","coordinates":[[[[139.026969,36.0094375],[139.027,36.009458],[139.026938,36.009458],[139.026969,36.0094375]]],[[[139.026969,36.0094375],[139.027,36.009417],[139.027,36.009458],[139.026969,36.0094375]]],[[[139.026969,36.0094375],[139.026938,36.009417],[139.027,36.009417],[139.026969,36.0094375]]],[[[139.026969,36.0094375],[139.026938,36.009458],[139.026938,36.009417],[139.026969,36.0094375]]]]},"properties":{"layer":"flood","class_code":"1","class_label":"0.5m未満","scale_code":"2","scale_label":"L2（想定最大規模）"}},{"type":"Feature","id":"fld_6e384efc-bf85-43a9-8465-248a9f72efb6","geometry":{"type":"MultiPolygon","coordinates":[[[[139.027688,36.009333],[139.0276565,36.009354],[139.027625,36.009333],[139.027688,36.009333]]],[[[139.027688,36.009375],[139.0276565,36.009354],[139.027688,36.009333],[139.027688,36.009375]]],[[[139.027688,36.009375],[139.027625,36.009375],[139.0276565,36.009354],[139.027688,36.009375]]],[[[139.027625,36.009333],[139.0276565,36.009354],[139.027625,36.009375],[139.027625,36.009333]]]]},"properties":{"layer":"flood","class_code":"1","class_label":"0.5m未満","scale_code":"2","scale_label":"L2（想定最大規模）"}},{"type":"Feature","id":"fld_637933f2-6d23-43c0-b2ef-c2f1c9415142","geometry":{"type":"MultiPolygon","coordinates":[[[[139.034344,36.0090625],[139.034375,36.009042],[139.034375,36.009083],[139.034344,36.0090625]]],[[[139.034313,36.009083],[139.034313,36.009042],[139.034344,36.0090625],[139.034313,36.009083]]],[[[139.034313,36.009083],[139.034344,36.0090625],[139.034375,36.009083],[139.034313,36.009083]]],[[[139.034313,36.009042],[139.034375,36.009042],[139.034344,36.0090625],[139.034313,36.009042]]]]},"properties":{"layer":"flood","class_code":"1","class_label":"0.5m未満","scale_code":"2","scale_label":"L2（想定最大規模）"}},{"type":"Feature","id":"fld_fcfa2b9e-638c-4f26-b38c-581029cec422","geometry":{"type":"MultiPolygon","coordinates":[[[[139.026844,36.009396],[139.026875,36.009417],[139.026813,36.009417],[139.026844,36.009396]]],[[[139.026844,36.009396],[139.026875,36.009375],[139.026875,36.009417],[139.026844,36.009396]]],[[[139.026844,36.009396],[139.026813,36.009375],[139.026875,36.009375],[139.026844,36.009396]]],[[[139.0267815,36.009396],[139.02675,36.009417],[139.02675,36.009375],[139.0267815,36.009396]]],[[[139.026844,36.009396],[139.026813,36.009417],[139.026813,36.009375],[139.026844,36.009396]]],[[[139.0267815,36.009396],[139.026813,36.009375],[139.026813,36.009417],[139.0267815,36.009396]]],[[[139.0267815,36.009396],[139.02675,36.009375],[139.026813,36.009375],[139.0267815,36.009396]]],[[[139.0267815,36.009396],[139.026813,36.009417],[139.02675,36.009417],[139.0267815,36.009396]]]]},"properties":{"layer":"flood","class_code":"1","class_label":"0.5m未満","scale_code":"2","scale_label":"L2（想定最大規模）"}},{"type":"Feature","id":"fld_a6f6b8e2-df03-431c-bfd3-3c89d42af7f8","geometry":{"type":"MultiPolygon","coordinates":[[[[139.025469,36.0100625],[139.0255,36.010042],[139.0255,36.010083],[139.025469,36.0100625]]],[[[139.025438,36.010083],[139.025469,36.0100625],[139.0255,36.010083],[139.025438,36.010083]]],[[[139.025438,36.010042],[139.025469,36.0100625],[139.025438,36.010083],[139.025438,36.010042]]],[[[139.025438,36.010042],[139.0255,36.010042],[139.025469,36.0100625],[139.025438,36.010042]]]]},"properties":{"layer":"flood","class_code":"1","class_label":"0.5m未満","scale_code":"2","scale_label":"L2（想定最大規模）"}},{"type":"Feature","id":"fld_ff4b4297-abe9-4f90-91b5-2e76d03a3828","geometry":{"type":"MultiPolygon","coordinates":[[[[139.025719,36.009979],[139.025688,36.01],[139.025688,36.009958],[139.025719,36.009979]]],[[[139.025719,36.009979],[139.02575,36.01],[139.025688,36.01],[139.025719,36.009979]]],[[[139.02575,36.009958],[139.025719,36.009979],[139.025688,36.009958],[139.02575,36.009958]]],[[[139.02575,36.009958],[139.02575,36.01],[139.025719,36.009979],[139.02575,36.009958]]]]},"properties":{"layer":"flood","class_code":"1","class_label":"0.5m未満","scale_code":"2","scale_label":"L2（想定最大規模）"}},{"type":"Feature","id":"fld_2803ffae-f6a4-4234-b2ea-8c276951fb25","geometry":{"type":"MultiPolygon","coordinates":[[[[139.02575,36.009917],[139.02575,36.009875],[139.0257815,36.009896],[139.02575,36.009917]]],[[[139.02575,36.009875],[139.025813,36.009875],[139.0257815,36.009896],[139.02575,36.009875]]],[[[139.025813,36.009875],[139.025813,36.009917],[139.0257815,36.009896],[139.025813,36.009875]]],[[[139.02575,36.009917],[139.0257815,36.009896],[139.025813,36.009917],[139.02575,36.009917]]]]},"properties":{"layer":"flood","class_code":"1","class_label":"0.5m未満","scale_code":"2","scale_label":"L2（想定最大規模）"}},{"type":"Feature","id":"fld_b2ef69db-33f9-4718-8131-f11a18feb810","geometry":{"type":"MultiPolygon","coordinates":[[[[139.0266565,36.0098125],[139.026625,36.009792],[139.026688,36.009792],[139.0266565,36.0098125]]],[[[139.0266565,36.0098125],[139.026688,36.009792],[139.026688,36.009833],[139.0266565,36.0098125]]],[[[139.0266565,36.0098125],[139.026625,36.009833],[139.026625,36.009792],[139.0266565,36.0098125]]],[[[139.0266565,36.0098125],[139.026688,36.009833],[139.026625,36.009833],[139.0266565,36.0098125]]]]},"properties":{"layer":"flood","class_code":"1","class_label":"0.5m未満","scale_code":"2","scale_label":"L2（想定最大規模）"}},{"type":"Feature","id":"fld_ce2ccfb2-1e7b-43ff-b7b9-98f1aa217a51","geometry":{"type":"MultiPolygon","coordinates":[[[[139.026625,36.009875],[139.026625,36.009833],[139.0266565,36.009854],[139.026625,36.009875]]],[[[139.026688,36.009875],[139.026625,36.009875],[139.0266565,36.009854],[139.026688,36.009875]]],[[[139.026688,36.009833],[139.0266565,36.009854],[139.026625,36.009833],[139.026688,36.009833]]],[[[139.026688,36.009833],[139.026688,36.009875],[139.0266565,36.009854],[139.026688,36.009833]]]]},"properties":{"layer":"flood","class_code":"2","class_label":"0.5m以上3m未満","scale_code":"2","scale_label":"L2（想定最大規模）"}},{"type":"Feature","id":"fld_0f2816e3-8f15-4459-8b05-6577025d5bf4","geometry":{"type":"MultiPolygon","coordinates":[[[[139.026688,36.009792],[139.026719,36.009771],[139.026719,36.0098125],[139.026688,36.009792]]],[[[139.026688,36.009792],[139.026688,36.00975],[139.026719,36.009771],[139.026688,36.009792]]],[[[139.02675,36.009792],[139.026719,36.0098125],[139.026719,36.009771],[139.02675,36.009792]]],[[[139.02675,36.009792],[139.02675,36.009833],[139.026719,36.0098125],[139.02675,36.009792]]],[[[139.02675,36.00975],[139.026719,36.009771],[139.026688,36.00975],[139.02675,36.00975]]],[[[139.02675,36.00975],[139.02675,36.009792],[139.026719,36.009771],[139.02675,36.00975]]],[[[139.026719,36.0098125],[139.02675,36.009833],[139.026688,36.009833],[139.026719,36.0098125]]],[[[139.026688,36.009792],[139.026719,36.0098125],[139.026688,36.009833],[139.026688,36.009792]]]]},"properties":{"layer":"flood","class_code":"2","class_label":"0.5m以上3m未満","scale_code":"2","scale_label":"L2（想定最大規模）"}},{"type":"Feature","id":"fld_f0303d21-38a1-404a-ab79-e2a7f4cb79b8","geometry":{"type":"MultiPolygon","coordinates":[[[[139.027188,36.009708],[139.027219,36.009729],[139.027188,36.00975],[139.027188,36.009708]]],[[[139.027188,36.009708],[139.027188,36.009667],[139.027219,36.0096875],[139.027188,36.009708]]],[[[139.027188,36.009708],[139.027219,36.0096875],[139.027219,36.009729],[139.027188,36.009708]]],[[[139.026875,36.009708],[139.0269065,36.009729],[139.026875,36.00975],[139.026875,36.009708]]],[[[139.026875,36.009708],[139.026875,36.00975],[139.026844,36.009729],[139.026875,36.009708]]],[[[139.026875,36.009708],[139.026844,36.009729],[139.026844,36.0096875],[139.026875,36.009708]]],[[[139.026875,36.009708],[139.026844,36.0096875],[139.026875,36.009667],[139.026875,36.009708]]],[[[139.026875,36.009708],[139.026938,36.009708],[139.0269065,36.009729],[139.026875,36.009708]]],[[[139.02675,36.009708],[139.02675,36.009667],[139.0267815,36.0096875],[139.02675,36.009708]]],[[[139.02675,36.009708],[139.0267815,36.0096875],[139.0267815,36.009729],[139.02675,36.009708]]],[[[139.02675,36.009708],[139.0267815,36.009729],[139.02675,36.00975],[139.02675,36.009708]]],[[[139.02725,36.00975],[139.02725,36.009792],[139.027219,36.009771],[139.02725,36.00975]]],[[[139.02725,36.00975],[139.027219,36.009771],[139.027219,36.009729],[139.02725,36.00975]]],[[[139.026938,36.009708],[139.026938,36.00975],[139.0269065,36.009729],[139.026938,36.009708]]],[[[139.027188,36.00975],[139.027219,36.009771],[139.027188,36.009792],[139.027188,36.00975]]],[[[139.027188,36.00975],[139.027219,36.009729],[139.027219,36.009771],[139.027188,36.00975]]],[[[139.026938,36.00975],[139.026969,36.009771],[139.026938,36.009792],[139.026938,36.00975]]],[[[139.026938,36.00975],[139.026938,36.009792],[139.0269065,36.009771],[139.026938,36.00975]]],[[[139.026938,36.00975],[139.0269065,36.009771],[139.0269065,36.009729],[139.026938,36.00975]]],[[[139.026938,36.00975],[139.027,36.00975],[139.026969,36.009771],[139.026938,36.00975]]],[[[139.026875,36.00975],[139.0269065,36.009771],[139.026875,36.009792],[139.026875,36.00975]]],[[[139.026875,36.00975],[139.026813,36.00975],[139.026844,36.009729],[139.026875,36.00975]]],[[[139.026875,36.00975],[139.0269065,36.009729],[139.0269065,36.009771],[139.026875,36.00975]]],[[[139.026813,36.00975],[139.02675,36.00975],[139.0267815,36.009729],[139.026813,36.00975]]],[[[139.026813,36.00975],[139.0267815,36.009729],[139.026844,36.009729],[139.026813,36.00975]]],[[[139.02725,36.009792],[139.02725,36.009833],[139.027219,36.0098125],[139.02725,36.009792]]],[[[139.02725,36.009792],[139.027219,36.0098125],[139.027219,36.009771],[139.02725,36.009792]]],[[[139.027,36.00975],[139.027,36.009792],[139.026969,36.009771],[139.027,36.00975]]],[[[139.027188,36.009792],[139.0271565,36.0098125],[139.027125,36.009792],[139.027188,36.009792]]],[[[139.027188,36.009792],[139.027219,36.009771],[139.027219,36.0098125],[139.027188,36.009792]]],[[[139.027188,36.009792],[139.027219,36.0098125],[139.0271565,36.0098125],[139.027188,36.009792]]],[[[139.027,36.009792],[139.0270315,36.0098125],[139.027,36.009833],[139.027,36.009792]]],[[[139.027,36.009792],[139.027,36.009833],[139.026969,36.0098125],[139.027,36.009792]]],[[[139.027,36.009792],[139.026969,36.0098125],[139.026969,36.009771],[139.027,36.009792]]],[[[139.027,36.009792],[139.027063,36.009792],[139.0270315,36.0098125],[139.027,36.009792]]],[[[139.026875,36.009792],[139.0269065,36.009771],[139.026938,36.009792],[139.026875,36.009792]]],[[[139.026938,36.009792],[139.026969,36.0098125],[139.026938,36.009833],[139.026938,36.009792]]],[[[139.026938,36.009792],[139.026969,36.009771],[139.026969,36.0098125],[139.026938,36.009792]]],[[[139.027125,36.009792],[139.0271565,36.0098125],[139.027094,36.0098125],[139.027125,36.009792]]],[[[139.027125,36.009792],[139.027094,36.0098125],[139.027063,36.009792],[139.027125,36.009792]]],[[[139.027063,36.009792],[139.027094,36.0098125],[139.0270315,36.0098125],[139.027063,36.009792]]],[[[139.026969,36.0098125],[139.027,36.009833],[139.026938,36.009833],[139.026969,36.0098125]]],[[[139.0270315,36.0098125],[139.0270315,36.009854],[139.027,36.009833],[139.0270315,36.0098125]]],[[[139.0270315,36.0098125],[139.027094,36.0098125],[139.0270315,36.009854],[139.0270315,36.0098125]]],[[[139.027094,36.0098125],[139.0271565,36.009854],[139.027094,36.009854],[139.027094,36.0098125]]],[[[139.027094,36.0098125],[139.027094,36.009854],[139.0270315,36.009854],[139.027094,36.0098125]]],[[[139.027094,36.0098125],[139.0271565,36.0098125],[139.0271565,36.009854],[139.027094,36.0098125]]],[[[139.0271565,36.0098125],[139.027219,36.009854],[139.0271565,36.009854],[139.0271565,36.0098125]]],[[[139.0271565,36.0098125],[139.027219,36.0098125],[139.027219,36.009854],[139.0271565,36.0098125]]],[[[139.027219,36.0098125],[139.02725,36.009833],[139.027219,36.009854],[139.027219,36.0098125]]],[[[139.0267815,36.009729],[139.0267815,36.0096875],[139.026844,36.0096875],[139.0267815,36.009729]]],[[[139.0267815,36.009729],[139.026844,36.0096875],[139.026844,36.009729],[139.0267815,36.009729]]],[[[139.0267815,36.0096875],[139.026813,36.009667],[139.026844,36.0096875],[139.0267815,36.0096875]]],[[[139.0267815,36.0096875],[139.02675,36.009667],[139.026813,36.009667],[139.0267815,36.0096875]]],[[[139.0270315,36.0094375],[139.0270315,36.009396],[139.027094,36.0094375],[139.0270315,36.0094375]]],[[[139.026844,36.0096875],[139.026813,36.009667],[139.026875,36.009667],[139.026844,36.0096875]]],[[[139.027219,36.0096875],[139.027188,36.009667],[139.027219,36.009646],[139.027219,36.0096875]]],[[[139.027219,36.0096875],[139.027219,36.009646],[139.0272815,36.0096875],[139.027219,36.0096875]]],[[[139.0272815,36.0096875],[139.027219,36.009646],[139.0272815,36.009646],[139.0272815,36.0096875]]],[[[139.0272815,36.0096875],[139.0272815,36.009646],[139.027313,36.009667],[139.0272815,36.0096875]]],[[[139.02725,36.009833],[139.02725,36.009875],[139.027219,36.009854],[139.02725,36.009833]]],[[[139.027,36.009833],[139.0270315,36.009854],[139.027,36.009875],[139.027,36.009833]]],[[[139.02725,36.009875],[139.027188,36.009875],[139.027219,36.009854],[139.02725,36.009875]]],[[[139.027188,36.009875],[139.027125,36.009875],[139.0271565,36.009854],[139.027188,36.009875]]],[[[139.027188,36.009875],[139.0271565,36.009854],[139.027219,36.009854],[139.027188,36.009875]]],[[[139.027125,36.009875],[139.027063,36.009875],[139.027094,36.009854],[139.027125,36.009875]]],[[[139.027125,36.009875],[139.027094,36.009854],[139.0271565,36.009854],[139.027125,36.009875]]],[[[139.027,36.009875],[139.0270315,36.009854],[139.027063,36.009875],[139.027,36.009875]]],[[[139.027063,36.009875],[139.0270315,36.009854],[139.027094,36.009854],[139.027063,36.009875]]],[[[139.027375,36.00925],[139.027438,36.00925],[139.0274065,36.009271],[139.027375,36.00925]]],[[[139.027375,36.00925],[139.0274065,36.009271],[139.027344,36.009271],[139.027375,36.00925]]],[[[139.027375,36.00925],[139.027344,36.009271],[139.027313,36.00925],[139.027375,36.00925]]],[[[139.0274065,36.009354],[139.027469,36.009396],[139.0274065,36.009396],[139.0274065,36.009354]]],[[[139.0274065,36.009354],[139.0274065,36.009396],[139.027344,36.009354],[139.0274065,36.009354]]],[[[139.0274065,36.009354],[139.027344,36.009354],[139.0274065,36.0093125],[139.0274065,36.009354]]],[[[139.0274065,36.009354],[139.0274065,36.0093125],[139.027469,36.0093125],[139.0274065,36.009354]]],[[[139.0274065,36.009354],[139.027469,36.0093125],[139.027469,36.009354],[139.0274065,36.009354]]],[[[139.0274065,36.009354],[139.027469,36.009354],[139.027469,36.009396],[139.0274065,36.009354]]],[[[139.027469,36.009354],[139.0275,36.009333],[139.0275,36.009375],[139.027469,36.009354]]],[[[139.027469,36.009354],[139.0275,36.009375],[139.027469,36.009396],[139.027469,36.009354]]],[[[139.027469,36.009354],[139.027469,36.0093125],[139.0275,36.009333],[139.027469,36.009354]]],[[[139.0274065,36.0093125],[139.027344,36.009271],[139.0274065,36.009271],[139.0274065,36.0093125]]],[[[139.0274065,36.0093125],[139.0274065,36.009271],[139.027438,36.009292],[139.0274065,36.0093125]]],[[[139.0274065,36.0093125],[139.027438,36.009292],[139.027469,36.0093125],[139.0274065,36.0093125]]],[[[139.0274065,36.0093125],[139.027344,36.009354],[139.027344,36.0093125],[139.0274065,36.0093125]]],[[[139.0274065,36.0093125],[139.027344,36.0093125],[139.027344,36.009271],[139.0274065,36.0093125]]],[[[139.027469,36.0093125],[139.027438,36.009292],[139.0275,36.009292],[139.027469,36.0093125]]],[[[139.027469,36.0093125],[139.0275,36.009292],[139.0275,36.009333],[139.027469,36.0093125]]],[[[139.0274065,36.009271],[139.027438,36.00925],[139.027438,36.009292],[139.0274065,36.009271]]],[[[139.0275,36.0095],[139.0275,36.009542],[139.027469,36.009521],[139.0275,36.0095]]],[[[139.0275,36.0095],[139.027469,36.009521],[139.027469,36.009479],[139.0275,36.0095]]],[[[139.0275,36.0095],[139.027469,36.009479],[139.0275315,36.009479],[139.0275,36.0095]]],[[[139.0275,36.0095],[139.0275315,36.009479],[139.027563,36.0095],[139.0275,36.0095]]],[[[139.027375,36.0095],[139.027344,36.009479],[139.0274065,36.009479],[139.027375,36.0095]]],[[[139.027375,36.0095],[139.0274065,36.009479],[139.0274065,36.009521],[139.027375,36.0095]]],[[[139.027375,36.0095],[139.0274065,36.009521],[139.027375,36.009542],[139.027375,36.0095]]],[[[139.027375,36.0095],[139.027313,36.0095],[139.027344,36.009479],[139.027375,36.0095]]],[[[139.0274065,36.009521],[139.027469,36.009479],[139.027469,36.009521],[139.0274065,36.009521]]],[[[139.0274065,36.009521],[139.027469,36.009521],[139.027469,36.0095625],[139.0274065,36.009521]]],[[[139.0274065,36.009521],[139.027469,36.0095625],[139.0274065,36.0095625],[139.0274065,36.009521]]],[[[139.0274065,36.009521],[139.0274065,36.0095625],[139.027375,36.009542],[139.0274065,36.009521]]],[[[139.0274065,36.009521],[139.0274065,36.009479],[139.027469,36.009479],[139.0274065,36.009521]]],[[[139.027469,36.009521],[139.0275,36.009542],[139.027469,36.0095625],[139.027469,36.009521]]],[[[139.027594,36.009521],[139.027563,36.0095],[139.027594,36.009479],[139.027594,36.009521]]],[[[139.027594,36.009521],[139.027594,36.009479],[139.027625,36.0095],[139.027594,36.009521]]],[[[139.027594,36.009521],[139.027625,36.0095],[139.027625,36.009542],[139.027594,36.009521]]],[[[139.027594,36.009521],[139.027625,36.009542],[139.027563,36.009542],[139.027594,36.009521]]],[[[139.027594,36.009521],[139.027563,36.009542],[139.027563,36.0095],[139.027594,36.009521]]],[[[139.0274065,36.009479],[139.027469,36.0094375],[139.027469,36.009479],[139.0274065,36.009479]]],[[[139.0274065,36.009479],[139.027344,36.009479],[139.0274065,36.0094375],[139.0274065,36.009479]]],[[[139.0274065,36.009479],[139.0274065,36.0094375],[139.027469,36.0094375],[139.0274065,36.009479]]],[[[139.027469,36.009479],[139.027469,36.0094375],[139.0275315,36.0094375],[139.027469,36.009479]]],[[[139.027469,36.009479],[139.0275315,36.0094375],[139.0275315,36.009479],[139.027469,36.009479]]],[[[139.0275315,36.009479],[139.0275315,36.0094375],[139.027563,36.009458],[139.0275315,36.009479]]],[[[139.0275315,36.009479],[139.027563,36.009458],[139.027563,36.0095],[139.0275315,36.009479]]],[[[139.027594,36.009479],[139.027563,36.009458],[139.027625,36.009458],[139.027594,36.009479]]],[[[139.027594,36.009479],[139.027563,36.0095],[139.027563,36.009458],[139.027594,36.009479]]],[[[139.0274065,36.0094375],[139.027344,36.009479],[139.027344,36.0094375],[139.0274065,36.0094375]]],[[[139.0274065,36.0094375],[139.027344,36.0094375],[139.027344,36.009396],[139.0274065,36.0094375]]],[[[139.0274065,36.0094375],[139.027344,36.009396],[139.0274065,36.009396],[139.0274065,36.0094375]]],[[[139.0274065,36.0094375],[139.0274065,36.009396],[139.027469,36.0094375],[139.0274065,36.0094375]]],[[[139.027469,36.0094375],[139.0274065,36.009396],[139.027469,36.009396],[139.027469,36.0094375]]],[[[139.027469,36.0094375],[139.027469,36.009396],[139.0275315,36.0094375],[139.027469,36.0094375]]],[[[139.0275315,36.0094375],[139.0275315,36.009396],[139.027563,36.009417],[139.0275315,36.0094375]]],[[[139.0275315,36.0094375],[139.027563,36.009417],[139.027563,36.009458],[139.0275315,36.0094375]]],[[[139.0275315,36.0094375],[139.027469,36.009396],[139.0275315,36.009396],[139.0275315,36.0094375]]],[[[139.0274065,36.009396],[139.027344,36.009396],[139.027344,36.009354],[139.0274065,36.009396]]],[[[139.027469,36.009396],[139.0275,36.009375],[139.0275315,36.009396],[139.027469,36.009396]]],[[[139.0275315,36.009396],[139.027563,36.009375],[139.027563,36.009417],[139.0275315,36.009396]]],[[[139.0275315,36.009396],[139.0275,36.009375],[139.027563,36.009375],[139.0275315,36.009396]]],[[[139.027563,36.009542],[139.027563,36.009583],[139.0275315,36.0095625],[139.027563,36.009542]]],[[[139.027563,36.009542],[139.0275315,36.0095625],[139.0275,36.009542],[139.027563,36.009542]]],[[[139.0275,36.009542],[139.0275315,36.0095625],[139.0275,36.009583],[139.0275,36.009542]]],[[[139.0275,36.009542],[139.0275,36.009583],[139.027469,36.0095625],[139.0275,36.009542]]],[[[139.027375,36.009542],[139.0274065,36.0095625],[139.027344,36.0095625],[139.027375,36.009542]]],[[[139.027375,36.009542],[139.027344,36.0095625],[139.027313,36.009542],[139.027375,36.009542]]],[[[139.027563,36.009583],[139.0275,36.009583],[139.0275315,36.0095625],[139.027563,36.009583]]],[[[139.0275,36.009583],[139.0275,36.009625],[139.027469,36.009604],[139.0275,36.009583]]],[[[139.0275,36.009583],[139.027469,36.009604],[139.027469,36.0095625],[139.0275,36.009583]]],[[[139.0275,36.009625],[139.027438,36.009625],[139.027469,36.009604],[139.0275,36.009625]]],[[[139.027438,36.009625],[139.027375,36.009625],[139.0274065,36.009604],[139.027438,36.009625]]],[[[139.027438,36.009625],[139.0274065,36.009604],[139.027469,36.009604],[139.027438,36.009625]]],[[[139.027375,36.009625],[139.027344,36.009646],[139.027344,36.009604],[139.027375,36.009625]]],[[[139.027375,36.009625],[139.027344,36.009604],[139.0274065,36.009604],[139.027375,36.009625]]],[[[139.027375,36.009625],[139.027375,36.009667],[139.027344,36.009646],[139.027375,36.009625]]],[[[139.027375,36.009667],[139.027313,36.009667],[139.027344,36.009646],[139.027375,36.009667]]],[[[139.0274065,36.0095625],[139.027469,36.0095625],[139.0274065,36.009604],[139.0274065,36.0095625]]],[[[139.0274065,36.0095625],[139.0274065,36.009604],[139.027344,36.0095625],[139.0274065,36.0095625]]],[[[139.027469,36.0095625],[139.027469,36.009604],[139.0274065,36.009604],[139.027469,36.0095625]]],[[[139.0274065,36.009604],[139.027344,36.009604],[139.027344,36.0095625],[139.0274065,36.009604]]],[[[139.027,36.009333],[139.027063,36.009333],[139.0270315,36.009354],[139.027,36.009333]]],[[[139.027,36.009333],[139.0270315,36.009354],[139.027,36.009375],[139.027,36.009333]]],[[[139.027125,36.009333],[139.027188,36.009333],[139.0271565,36.009354],[139.027125,36.009333]]],[[[139.027125,36.009333],[139.0271565,36.009354],[139.027094,36.009354],[139.027125,36.009333]]],[[[139.027125,36.009333],[139.027094,36.009354],[139.027063,36.009333],[139.027125,36.009333]]],[[[139.027188,36.009333],[139.027219,36.009354],[139.0271565,36.009354],[139.027188,36.009333]]],[[[139.027188,36.009333],[139.027188,36.009292],[139.027219,36.0093125],[139.027188,36.009333]]],[[[139.027188,36.009333],[139.027219,36.0093125],[139.027219,36.009354],[139.027188,36.009333]]],[[[139.027188,36.009292],[139.02725,36.009292],[139.027219,36.0093125],[139.027188,36.009292]]],[[[139.02725,36.009292],[139.027313,36.009292],[139.0272815,36.0093125],[139.02725,36.009292]]],[[[139.02725,36.009292],[139.0272815,36.0093125],[139.027219,36.0093125],[139.02725,36.009292]]],[[[139.027313,36.009292],[139.027344,36.0093125],[139.0272815,36.0093125],[139.027313,36.009292]]],[[[139.027313,36.009292],[139.027313,36.00925],[139.027344,36.009271],[139.027313,36.009292]]],[[[139.027313,36.009292],[139.027344,36.009271],[139.027344,36.0093125],[139.027313,36.009292]]],[[[139.0270315,36.009354],[139.0270315,36.009396],[139.027,36.009375],[139.0270315,36.009354]]],[[[139.0270315,36.009354],[139.027063,36.009333],[139.027094,36.009354],[139.0270315,36.009354]]],[[[139.0270315,36.009354],[139.027094,36.009354],[139.0270315,36.009396],[139.0270315,36.009354]]],[[[139.027094,36.009354],[139.0271565,36.009396],[139.027094,36.009396],[139.027094,36.009354]]],[[[139.027094,36.009354],[139.027094,36.009396],[139.0270315,36.009396],[139.027094,36.009354]]],[[[139.027094,36.009354],[139.0271565,36.009354],[139.0271565,36.009396],[139.027094,36.009354]]],[[[139.027219,36.0093125],[139.0272815,36.0093125],[139.027219,36.009354],[139.027219,36.0093125]]],[[[139.0271565,36.009354],[139.027219,36.009396],[139.0271565,36.009396],[139.0271565,36.009354]]],[[[139.0271565,36.009354],[139.027219,36.009354],[139.027219,36.009396],[139.0271565,36.009354]]],[[[139.027219,36.009354],[139.0272815,36.0093125],[139.0272815,36.009354],[139.027219,36.009354]]],[[[139.027219,36.009354],[139.0272815,36.009354],[139.027219,36.009396],[139.027219,36.009354]]],[[[139.0272815,36.009354],[139.027344,36.0093125],[139.027344,36.009354],[139.0272815,36.009354]]],[[[139.0272815,36.009354],[139.027344,36.009354],[139.027344,36.009396],[139.0272815,36.009354]]],[[[139.0272815,36.009354],[139.027344,36.009396],[139.0272815,36.009396],[139.0272815,36.009354]]],[[[139.0272815,36.009354],[139.0272815,36.009396],[139.027219,36.009396],[139.0272815,36.009354]]],[[[139.0272815,36.009354],[139.0272815,36.0093125],[139.027344,36.0093125],[139.0272815,36.009354]]],[[[139.027313,36.0095],[139.02725,36.0095],[139.0272815,36.009479],[139.027313,36.0095]]],[[[139.027313,36.0095],[139.0272815,36.009479],[139.027344,36.009479],[139.027313,36.0095]]],[[[139.02725,36.0095],[139.027188,36.0095],[139.027219,36.009479],[139.02725,36.0095]]],[[[139.02725,36.0095],[139.027219,36.009479],[139.0272815,36.009479],[139.02725,36.0095]]],[[[139.027125,36.0095],[139.027125,36.009458],[139.0271565,36.009479],[139.027125,36.0095]]],[[[139.027125,36.0095],[139.0271565,36.009479],[139.027188,36.0095],[139.027125,36.0095]]],[[[139.027188,36.0095],[139.0271565,36.009479],[139.027219,36.009479],[139.027188,36.0095]]],[[[139.026875,36.009375],[139.026938,36.009375],[139.0269065,36.009396],[139.026875,36.009375]]],[[[139.026875,36.009375],[139.0269065,36.009396],[139.026875,36.009417],[139.026875,36.009375]]],[[[139.026875,36.009417],[139.0269065,36.009396],[139.026938,36.009417],[139.026875,36.009417]]],[[[139.026938,36.009417],[139.0269065,36.009396],[139.026938,36.009375],[139.026938,36.009417]]],[[[139.026938,36.009417],[139.026938,36.009375],[139.026969,36.009396],[139.026938,36.009417]]],[[[139.026938,36.009417],[139.026969,36.009396],[139.027,36.009417],[139.026938,36.009417]]],[[[139.026938,36.009375],[139.027,36.009375],[139.026969,36.009396],[139.026938,36.009375]]],[[[139.027,36.009375],[139.027,36.009417],[139.026969,36.009396],[139.027,36.009375]]],[[[139.027,36.009375],[139.0270315,36.009396],[139.027,36.009417],[139.027,36.009375]]],[[[139.0271565,36.009479],[139.027125,36.009458],[139.0271565,36.0094375],[139.0271565,36.009479]]],[[[139.0271565,36.009479],[139.0271565,36.0094375],[139.027219,36.009479],[139.0271565,36.009479]]],[[[139.027219,36.009479],[139.0271565,36.0094375],[139.027219,36.0094375],[139.027219,36.009479]]],[[[139.027219,36.009479],[139.027219,36.0094375],[139.0272815,36.009479],[139.027219,36.009479]]],[[[139.0272815,36.009479],[139.027219,36.0094375],[139.0272815,36.0094375],[139.0272815,36.009479]]],[[[139.0272815,36.009479],[139.0272815,36.0094375],[139.027344,36.0094375],[139.0272815,36.009479]]],[[[139.0272815,36.009479],[139.027344,36.0094375],[139.027344,36.009479],[139.0272815,36.009479]]],[[[139.0270315,36.0094375],[139.027,36.009458],[139.027,36.009417],[139.0270315,36.0094375]]],[[[139.0270315,36.0094375],[139.027,36.009417],[139.0270315,36.009396],[139.0270315,36.0094375]]],[[[139.027594,36.009479],[139.027625,36.009458],[139.027625,36.0095],[139.027594,36.009479]]],[[[139.0270315,36.0094375],[139.027094,36.0094375],[139.027063,36.009458],[139.0270315,36.0094375]]],[[[139.0270315,36.0094375],[139.027063,36.009458],[139.027,36.009458],[139.0270315,36.0094375]]],[[[139.027094,36.0094375],[139.0271565,36.0094375],[139.027125,36.009458],[139.027094,36.0094375]]],[[[139.027094,36.0094375],[139.027125,36.009458],[139.027063,36.009458],[139.027094,36.0094375]]],[[[139.027094,36.0094375],[139.0270315,36.009396],[139.027094,36.009396],[139.027094,36.0094375]]],[[[139.027094,36.0094375],[139.027094,36.009396],[139.0271565,36.0094375],[139.027094,36.0094375]]],[[[139.0271565,36.0094375],[139.027094,36.009396],[139.0271565,36.009396],[139.0271565,36.0094375]]],[[[139.0271565,36.0094375],[139.0271565,36.009396],[139.027219,36.009396],[139.0271565,36.0094375]]],[[[139.0271565,36.0094375],[139.027219,36.009396],[139.027219,36.0094375],[139.0271565,36.0094375]]],[[[139.027219,36.0094375],[139.027219,36.009396],[139.0272815,36.0094375],[139.027219,36.0094375]]],[[[139.0272815,36.0094375],[139.027219,36.009396],[139.0272815,36.009396],[139.0272815,36.0094375]]],[[[139.0272815,36.0094375],[139.0272815,36.009396],[139.027344,36.0094375],[139.0272815,36.0094375]]],[[[139.027344,36.0094375],[139.0272815,36.009396],[139.027344,36.009396],[139.027344,36.0094375]]],[[[139.027313,36.009583],[139.0272815,36.009604],[139.02725,36.009583],[139.027313,36.009583]]],[[[139.027313,36.009583],[139.027313,36.009542],[139.027344,36.0095625],[139.027313,36.009583]]],[[[139.027313,36.009583],[139.027344,36.0095625],[139.027344,36.009604],[139.027313,36.009583]]],[[[139.027313,36.009583],[139.027344,36.009604],[139.0272815,36.009604],[139.027313,36.009583]]],[[[139.02725,36.009583],[139.0272815,36.009604],[139.02725,36.009625],[139.02725,36.009583]]],[[[139.02725,36.009625],[139.027219,36.009646],[139.027188,36.009625],[139.02725,36.009625]]],[[[139.02725,36.009625],[139.0272815,36.009604],[139.0272815,36.009646],[139.02725,36.009625]]],[[[139.02725,36.009625],[139.0272815,36.009646],[139.027219,36.009646],[139.02725,36.009625]]],[[[139.027313,36.009667],[139.0272815,36.009646],[139.027344,36.009646],[139.027313,36.009667]]],[[[139.027188,36.009625],[139.027219,36.009646],[139.027188,36.009667],[139.027188,36.009625]]],[[[139.027344,36.009604],[139.027344,36.009646],[139.0272815,36.009646],[139.027344,36.009604]]],[[[139.027344,36.009604],[139.0272815,36.009646],[139.0272815,36.009604],[139.027344,36.009604]]],[[[139.027313,36.009708],[139.02725,36.009708],[139.0272815,36.0096875],[139.027313,36.009708]]],[[[139.027313,36.009708],[139.0272815,36.0096875],[139.027313,36.009667],[139.027313,36.009708]]],[[[139.02725,36.009708],[139.02725,36.00975],[139.027219,36.009729],[139.02725,36.009708]]],[[[139.02725,36.009708],[139.027219,36.009729],[139.027219,36.0096875],[139.02725,36.009708]]],[[[139.02725,36.009708],[139.027219,36.0096875],[139.0272815,36.0096875],[139.02725,36.009708]]]]},"properties":{"layer":"flood","class_code":"2","class_label":"0.5m以上3m未満","scale_code":"2","scale_label":"L2（想定最大規模）"}},{"type":"Feature","id":"fld_d7d7ddea-e0b3-4864-a40d-36585d72bd47","geometry":{"type":"MultiPolygon","coordinates":[[[[139.027594,36.009229],[139.027625,36.00925],[139.027563,36.00925],[139.027594,36.009229]]],[[[139.027594,36.009229],[139.027563,36.00925],[139.027563,36.009208],[139.027594,36.009229]]],[[[139.027594,36.009229],[139.027563,36.009208],[139.027625,36.009208],[139.027594,36.009229]]],[[[139.027594,36.009229],[139.027625,36.009208],[139.027625,36.00925],[139.027594,36.009229]]]]},"properties":{"layer":"flood","class_code":"2","class_label":"0.5m以上3m未満","scale_code":"2","scale_label":"L2（想定最大規模）"}},{"type":"Feature","id":"fld_66d4db93-da6b-4787-91d3-012b751bed3e","geometry":{"type":"MultiPolygon","coordinates":[[[[139.034375,36.009125],[139.034344,36.009104],[139.034375,36.009083],[139.034375,36.009125]]],[[[139.034313,36.009083],[139.034375,36.009083],[139.034344,36.009104],[139.034313,36.009083]]],[[[139.034344,36.009146],[139.034344,36.009104],[139.034375,36.009125],[139.034344,36.009146]]],[[[139.034344,36.009146],[139.034375,36.009125],[139.034375,36.009167],[139.034344,36.009146]]],[[[139.034344,36.009146],[139.034375,36.009167],[139.034313,36.009167],[139.034344,36.009146]]],[[[139.034344,36.009146],[139.034313,36.009167],[139.034313,36.009125],[139.034344,36.009146]]],[[[139.034344,36.009146],[139.034313,36.009125],[139.034344,36.009104],[139.034344,36.009146]]],[[[139.034313,36.009125],[139.034313,36.009083],[139.034344,36.009104],[139.034313,36.009125]]]]},"properties":{"layer":"flood","class_code":"2","class_label":"0.5m以上3m未満","scale_code":"2","scale_label":"L2（想定最大規模）"}},{"type":"Feature","id":"fld_0a1cce68-9325-435b-8cc6-80494e064b66","geometry":{"type":"MultiPolygon","coordinates":[[[[139.03425,36.009083],[139.03425,36.009042],[139.0342815,36.0090625],[139.03425,36.009083]]],[[[139.03425,36.009083],[139.0342815,36.0090625],[139.034313,36.009083],[139.03425,36.009083]]],[[[139.034313,36.009083],[139.0342815,36.0090625],[139.034313,36.009042],[139.034313,36.009083]]],[[[139.03425,36.009042],[139.03425,36.009],[139.0342815,36.009021],[139.03425,36.009042]]],[[[139.03425,36.009042],[139.0342815,36.009021],[139.0342815,36.0090625],[139.03425,36.009042]]],[[[139.034313,36.009042],[139.0342815,36.009021],[139.034313,36.009],[139.034313,36.009042]]],[[[139.034313,36.009042],[139.0342815,36.0090625],[139.0342815,36.009021],[139.034313,36.009042]]],[[[139.03425,36.009],[139.03425,36.008958],[139.0342815,36.008979],[139.03425,36.009]]],[[[139.03425,36.009],[139.0342815,36.008979],[139.0342815,36.009021],[139.03425,36.009]]],[[[139.03425,36.008958],[139.034313,36.008958],[139.0342815,36.008979],[139.03425,36.008958]]],[[[139.034313,36.009],[139.0342815,36.009021],[139.0342815,36.008979],[139.034313,36.009]]],[[[139.034313,36.009],[139.0342815,36.008979],[139.034313,36.008958],[139.034313,36.009]]]]},"properties":{"layer":"flood","class_code":"2","class_label":"0.5m以上3m未満","scale_code":"2","scale_label":"L2（想定最大規模）"}},{"type":"Feature","id":"fld_7f812c18-5773-4458-bb51-328b8b658945","geometry":{"type":"MultiPolygon","coordinates":[[[[139.025844,36.0098125],[139.0259065,36.0098125],[139.025875,36.009833],[139.025844,36.0098125]]],[[[139.0259065,36.0098125],[139.025844,36.009771],[139.0259065,36.009771],[139.0259065,36.0098125]]],[[[139.0259065,36.0098125],[139.025938,36.009833],[139.025875,36.009833],[139.0259065,36.0098125]]],[[[139.025875,36.009833],[139.025875,36.009875],[139.025844,36.009854],[139.025875,36.009833]]],[[[139.025063,36.009958],[139.025125,36.009958],[139.025094,36.009979],[139.025063,36.009958]]],[[[139.025063,36.009958],[139.025094,36.009979],[139.025063,36.01],[139.025063,36.009958]]],[[[139.025125,36.009958],[139.025188,36.009958],[139.0251565,36.009979],[139.025125,36.009958]]],[[[139.025125,36.009958],[139.0251565,36.009979],[139.025094,36.009979],[139.025125,36.009958]]],[[[139.025188,36.009958],[139.02525,36.009958],[139.025219,36.009979],[139.025188,36.009958]]],[[[139.025188,36.009958],[139.025219,36.009979],[139.0251565,36.009979],[139.025188,36.009958]]],[[[139.02525,36.009958],[139.0252815,36.009979],[139.025219,36.009979],[139.02525,36.009958]]],[[[139.02525,36.009958],[139.02525,36.009917],[139.0252815,36.0099375],[139.02525,36.009958]]],[[[139.02525,36.009958],[139.0252815,36.0099375],[139.0252815,36.009979],[139.02525,36.009958]]],[[[139.02525,36.009917],[139.025313,36.009917],[139.0252815,36.0099375],[139.02525,36.009917]]],[[[139.025313,36.009917],[139.025375,36.009917],[139.025344,36.0099375],[139.025313,36.009917]]],[[[139.025313,36.009917],[139.025344,36.0099375],[139.0252815,36.0099375],[139.025313,36.009917]]],[[[139.025375,36.009917],[139.0254065,36.0099375],[139.025344,36.0099375],[139.025375,36.009917]]],[[[139.025375,36.009917],[139.025375,36.009875],[139.0254065,36.009896],[139.025375,36.009917]]],[[[139.025375,36.009917],[139.0254065,36.009896],[139.0254065,36.0099375],[139.025375,36.009917]]],[[[139.025375,36.009875],[139.025438,36.009875],[139.0254065,36.009896],[139.025375,36.009875]]],[[[139.025438,36.009875],[139.0255,36.009875],[139.025469,36.009896],[139.025438,36.009875]]],[[[139.025438,36.009875],[139.025469,36.009896],[139.0254065,36.009896],[139.025438,36.009875]]],[[[139.0255,36.009875],[139.0255315,36.009896],[139.025469,36.009896],[139.0255,36.009875]]],[[[139.0255,36.009875],[139.0255,36.009833],[139.0255315,36.009854],[139.0255,36.009875]]],[[[139.0255,36.009875],[139.0255315,36.009854],[139.0255315,36.009896],[139.0255,36.009875]]],[[[139.0255,36.009833],[139.025563,36.009833],[139.0255315,36.009854],[139.0255,36.009833]]],[[[139.025563,36.009833],[139.025625,36.009833],[139.025594,36.009854],[139.025563,36.009833]]],[[[139.025563,36.009833],[139.025594,36.009854],[139.0255315,36.009854],[139.025563,36.009833]]],[[[139.025625,36.009833],[139.025688,36.009833],[139.0256565,36.009854],[139.025625,36.009833]]],[[[139.025625,36.009833],[139.0256565,36.009854],[139.025594,36.009854],[139.025625,36.009833]]],[[[139.0252815,36.0099375],[139.025344,36.0099375],[139.0252815,36.009979],[139.0252815,36.0099375]]],[[[139.0254065,36.009896],[139.025469,36.009896],[139.0254065,36.0099375],[139.0254065,36.009896]]],[[[139.0255315,36.009854],[139.025594,36.009854],[139.025594,36.009896],[139.0255315,36.009854]]],[[[139.0255315,36.009854],[139.025594,36.009896],[139.0255315,36.009896],[139.0255315,36.009854]]],[[[139.025594,36.009854],[139.0256565,36.009854],[139.025594,36.009896],[139.025594,36.009854]]],[[[139.025875,36.009875],[139.025813,36.009875],[139.025844,36.009854],[139.025875,36.009875]]],[[[139.025813,36.009875],[139.02575,36.009875],[139.0257815,36.009854],[139.025813,36.009875]]],[[[139.025813,36.009875],[139.0257815,36.009854],[139.025844,36.009854],[139.025813,36.009875]]],[[[139.02575,36.009875],[139.025719,36.009896],[139.025719,36.009854],[139.02575,36.009875]]],[[[139.02575,36.009875],[139.025719,36.009854],[139.0257815,36.009854],[139.02575,36.009875]]],[[[139.02575,36.009875],[139.02575,36.009917],[139.025719,36.009896],[139.02575,36.009875]]],[[[139.02575,36.009917],[139.02575,36.009958],[139.025719,36.0099375],[139.02575,36.009917]]],[[[139.02575,36.009917],[139.025719,36.0099375],[139.025719,36.009896],[139.02575,36.009917]]],[[[139.02575,36.009958],[139.025688,36.009958],[139.025719,36.0099375],[139.02575,36.009958]]],[[[139.025688,36.009958],[139.0256565,36.009979],[139.0256565,36.0099375],[139.025688,36.009958]]],[[[139.025688,36.009958],[139.0256565,36.0099375],[139.025719,36.0099375],[139.025688,36.009958]]],[[[139.025688,36.009958],[139.025688,36.01],[139.0256565,36.009979],[139.025688,36.009958]]],[[[139.025344,36.0099375],[139.025344,36.009979],[139.0252815,36.009979],[139.025344,36.0099375]]],[[[139.025344,36.0099375],[139.0254065,36.0099375],[139.025344,36.009979],[139.025344,36.0099375]]],[[[139.0254065,36.0099375],[139.025469,36.009979],[139.0254065,36.009979],[139.0254065,36.0099375]]],[[[139.0254065,36.0099375],[139.0254065,36.009979],[139.025344,36.009979],[139.0254065,36.0099375]]],[[[139.0254065,36.0099375],[139.025469,36.009896],[139.025469,36.0099375],[139.0254065,36.0099375]]],[[[139.0254065,36.0099375],[139.025469,36.0099375],[139.025469,36.009979],[139.0254065,36.0099375]]],[[[139.025469,36.0099375],[139.0255315,36.009896],[139.0255315,36.0099375],[139.025469,36.0099375]]],[[[139.025469,36.0099375],[139.0255315,36.0099375],[139.025469,36.009979],[139.025469,36.0099375]]],[[[139.025469,36.0099375],[139.025469,36.009896],[139.0255315,36.009896],[139.025469,36.0099375]]],[[[139.0255315,36.0099375],[139.025594,36.0099375],[139.0255315,36.009979],[139.0255315,36.0099375]]],[[[139.0255315,36.0099375],[139.0255315,36.009979],[139.025469,36.009979],[139.0255315,36.0099375]]],[[[139.0255315,36.0099375],[139.0255315,36.009896],[139.025594,36.0099375],[139.0255315,36.0099375]]],[[[139.025594,36.0099375],[139.0256565,36.0099375],[139.025594,36.009979],[139.025594,36.0099375]]],[[[139.025594,36.0099375],[139.025594,36.009979],[139.0255315,36.009979],[139.025594,36.0099375]]],[[[139.025594,36.0099375],[139.0255315,36.009896],[139.025594,36.009896],[139.025594,36.0099375]]],[[[139.025594,36.0099375],[139.025594,36.009896],[139.0256565,36.0099375],[139.025594,36.0099375]]],[[[139.0256565,36.0099375],[139.025594,36.009896],[139.0256565,36.009896],[139.0256565,36.0099375]]],[[[139.0256565,36.0099375],[139.0256565,36.009896],[139.025719,36.009896],[139.0256565,36.0099375]]],[[[139.0256565,36.0099375],[139.025719,36.009896],[139.025719,36.0099375],[139.0256565,36.0099375]]],[[[139.0256565,36.0099375],[139.0256565,36.009979],[139.025594,36.009979],[139.0256565,36.0099375]]],[[[139.025594,36.009896],[139.0256565,36.009854],[139.0256565,36.009896],[139.025594,36.009896]]],[[[139.0256565,36.009896],[139.0256565,36.009854],[139.025719,36.009854],[139.0256565,36.009896]]],[[[139.0256565,36.009896],[139.025719,36.009854],[139.025719,36.009896],[139.0256565,36.009896]]],[[[139.025,36.01],[139.025063,36.01],[139.0250315,36.010021],[139.025,36.01]]],[[[139.025,36.01],[139.0250315,36.010021],[139.025,36.010042],[139.025,36.01]]],[[[139.025,36.010125],[139.025,36.010083],[139.0250315,36.010104],[139.025,36.010125]]],[[[139.025,36.010125],[139.0250315,36.010104],[139.025063,36.010125],[139.025,36.010125]]],[[[139.025688,36.01],[139.025625,36.01],[139.0256565,36.009979],[139.025688,36.01]]],[[[139.025625,36.010042],[139.025563,36.010042],[139.025594,36.010021],[139.025625,36.010042]]],[[[139.025625,36.010042],[139.025594,36.010021],[139.025625,36.01],[139.025625,36.010042]]],[[[139.025625,36.01],[139.025594,36.010021],[139.025594,36.009979],[139.025625,36.01]]],[[[139.025625,36.01],[139.025594,36.009979],[139.0256565,36.009979],[139.025625,36.01]]],[[[139.025563,36.010042],[139.0255,36.010042],[139.0255315,36.010021],[139.025563,36.010042]]],[[[139.025563,36.010042],[139.0255315,36.010021],[139.025594,36.010021],[139.025563,36.010042]]],[[[139.0255,36.010042],[139.025438,36.010042],[139.025469,36.010021],[139.0255,36.010042]]],[[[139.0255,36.010042],[139.025469,36.010021],[139.0255315,36.010021],[139.0255,36.010042]]],[[[139.025438,36.010042],[139.0254065,36.0100625],[139.0254065,36.010021],[139.025438,36.010042]]],[[[139.025438,36.010042],[139.0254065,36.010021],[139.025469,36.010021],[139.025438,36.010042]]],[[[139.025438,36.010042],[139.025438,36.010083],[139.0254065,36.0100625],[139.025438,36.010042]]],[[[139.025,36.010042],[139.0250315,36.010021],[139.0250315,36.0100625],[139.025,36.010042]]],[[[139.025,36.010042],[139.0250315,36.0100625],[139.025,36.010083],[139.025,36.010042]]],[[[139.025438,36.010083],[139.025375,36.010083],[139.0254065,36.0100625],[139.025438,36.010083]]],[[[139.025375,36.010083],[139.025313,36.010083],[139.025344,36.0100625],[139.025375,36.010083]]],[[[139.025375,36.010083],[139.025344,36.0100625],[139.0254065,36.0100625],[139.025375,36.010083]]],[[[139.025313,36.010083],[139.02525,36.010083],[139.0252815,36.0100625],[139.025313,36.010083]]],[[[139.025313,36.010083],[139.0252815,36.0100625],[139.025344,36.0100625],[139.025313,36.010083]]],[[[139.02525,36.010083],[139.025188,36.010083],[139.025219,36.0100625],[139.02525,36.010083]]],[[[139.02525,36.010083],[139.025219,36.0100625],[139.0252815,36.0100625],[139.02525,36.010083]]],[[[139.025188,36.010083],[139.0251565,36.010104],[139.0251565,36.0100625],[139.025188,36.010083]]],[[[139.025188,36.010083],[139.0251565,36.0100625],[139.025219,36.0100625],[139.025188,36.010083]]],[[[139.025188,36.010083],[139.025188,36.010125],[139.0251565,36.010104],[139.025188,36.010083]]],[[[139.025188,36.010125],[139.025125,36.010125],[139.0251565,36.010104],[139.025188,36.010125]]],[[[139.025063,36.01],[139.025094,36.010021],[139.0250315,36.010021],[139.025063,36.01]]],[[[139.025063,36.01],[139.025094,36.009979],[139.025094,36.010021],[139.025063,36.01]]],[[[139.025094,36.009979],[139.0251565,36.009979],[139.0251565,36.010021],[139.025094,36.009979]]],[[[139.025094,36.009979],[139.0251565,36.010021],[139.025094,36.010021],[139.025094,36.009979]]],[[[139.0251565,36.009979],[139.025219,36.009979],[139.025219,36.010021],[139.0251565,36.009979]]],[[[139.0251565,36.009979],[139.025219,36.010021],[139.0251565,36.010021],[139.0251565,36.009979]]],[[[139.025,36.010083],[139.0250315,36.0100625],[139.0250315,36.010104],[139.025,36.010083]]],[[[139.025063,36.010125],[139.025094,36.010104],[139.025125,36.010125],[139.025063,36.010125]]],[[[139.025063,36.010125],[139.0250315,36.010104],[139.025094,36.010104],[139.025063,36.010125]]],[[[139.025125,36.010125],[139.025094,36.010104],[139.0251565,36.010104],[139.025125,36.010125]]],[[[139.0250315,36.010104],[139.0250315,36.0100625],[139.025094,36.0100625],[139.0250315,36.010104]]],[[[139.0250315,36.010104],[139.025094,36.0100625],[139.025094,36.010104],[139.0250315,36.010104]]],[[[139.025094,36.010104],[139.025094,36.0100625],[139.0251565,36.0100625],[139.025094,36.010104]]],[[[139.025094,36.010104],[139.0251565,36.0100625],[139.0251565,36.010104],[139.025094,36.010104]]],[[[139.0250315,36.0100625],[139.0250315,36.010021],[139.025094,36.0100625],[139.0250315,36.0100625]]],[[[139.025094,36.0100625],[139.025094,36.010021],[139.0251565,36.0100625],[139.025094,36.0100625]]],[[[139.025938,36.009792],[139.0259065,36.009771],[139.025938,36.00975],[139.025938,36.009792]]],[[[139.0251565,36.0100625],[139.025094,36.010021],[139.0251565,36.010021],[139.0251565,36.0100625]]],[[[139.0251565,36.0100625],[139.0251565,36.010021],[139.025219,36.010021],[139.0251565,36.0100625]]],[[[139.0251565,36.0100625],[139.025219,36.010021],[139.025219,36.0100625],[139.0251565,36.0100625]]],[[[139.025219,36.0100625],[139.025219,36.010021],[139.0252815,36.010021],[139.025219,36.0100625]]],[[[139.025219,36.0100625],[139.0252815,36.010021],[139.0252815,36.0100625],[139.025219,36.0100625]]],[[[139.0252815,36.0100625],[139.0252815,36.010021],[139.025344,36.0100625],[139.0252815,36.0100625]]],[[[139.025344,36.0100625],[139.0252815,36.010021],[139.025344,36.010021],[139.025344,36.0100625]]],[[[139.025344,36.0100625],[139.025344,36.010021],[139.0254065,36.0100625],[139.025344,36.0100625]]],[[[139.0254065,36.0100625],[139.025344,36.010021],[139.0254065,36.010021],[139.0254065,36.0100625]]],[[[139.025469,36.010021],[139.025469,36.009979],[139.0255315,36.010021],[139.025469,36.010021]]],[[[139.025938,36.009792],[139.025938,36.009833],[139.0259065,36.0098125],[139.025938,36.009792]]],[[[139.025938,36.009792],[139.0259065,36.0098125],[139.0259065,36.009771],[139.025938,36.009792]]],[[[139.025813,36.00975],[139.025875,36.00975],[139.025844,36.009771],[139.025813,36.00975]]],[[[139.025813,36.00975],[139.025844,36.009771],[139.025813,36.009792],[139.025813,36.00975]]],[[[139.0254065,36.010021],[139.025469,36.009979],[139.025469,36.010021],[139.0254065,36.010021]]],[[[139.025219,36.010021],[139.0252815,36.009979],[139.0252815,36.010021],[139.025219,36.010021]]],[[[139.025219,36.010021],[139.025219,36.009979],[139.0252815,36.009979],[139.025219,36.010021]]],[[[139.0254065,36.010021],[139.0254065,36.009979],[139.025469,36.009979],[139.0254065,36.010021]]],[[[139.0254065,36.010021],[139.025344,36.009979],[139.0254065,36.009979],[139.0254065,36.010021]]],[[[139.025344,36.010021],[139.0252815,36.009979],[139.025344,36.009979],[139.025344,36.010021]]],[[[139.0252815,36.010021],[139.0252815,36.009979],[139.025344,36.010021],[139.0252815,36.010021]]],[[[139.0255315,36.010021],[139.0255315,36.009979],[139.025594,36.010021],[139.0255315,36.010021]]],[[[139.025094,36.0100625],[139.0250315,36.010021],[139.025094,36.010021],[139.025094,36.0100625]]],[[[139.0255315,36.010021],[139.025469,36.009979],[139.0255315,36.009979],[139.0255315,36.010021]]],[[[139.025344,36.010021],[139.025344,36.009979],[139.0254065,36.010021],[139.025344,36.010021]]],[[[139.025688,36.009833],[139.025719,36.009854],[139.0256565,36.009854],[139.025688,36.009833]]],[[[139.025813,36.009792],[139.025844,36.0098125],[139.0257815,36.0098125],[139.025813,36.009792]]],[[[139.025813,36.009792],[139.0257815,36.0098125],[139.02575,36.009792],[139.025813,36.009792]]],[[[139.025813,36.009792],[139.025844,36.009771],[139.025844,36.0098125],[139.025813,36.009792]]],[[[139.025688,36.009792],[139.02575,36.009792],[139.025719,36.0098125],[139.025688,36.009792]]],[[[139.025688,36.009792],[139.025719,36.0098125],[139.025688,36.009833],[139.025688,36.009792]]],[[[139.02575,36.009792],[139.0257815,36.0098125],[139.025719,36.0098125],[139.02575,36.009792]]],[[[139.025875,36.00975],[139.0259065,36.009729],[139.0259065,36.009771],[139.025875,36.00975]]],[[[139.025875,36.00975],[139.0259065,36.009771],[139.025844,36.009771],[139.025875,36.00975]]],[[[139.025875,36.00975],[139.025875,36.009708],[139.0259065,36.009729],[139.025875,36.00975]]],[[[139.025875,36.009708],[139.025938,36.009708],[139.0259065,36.009729],[139.025875,36.009708]]],[[[139.025938,36.00975],[139.0259065,36.009729],[139.025938,36.009708],[139.025938,36.00975]]],[[[139.025938,36.00975],[139.0259065,36.009771],[139.0259065,36.009729],[139.025938,36.00975]]],[[[139.025719,36.0098125],[139.0257815,36.009854],[139.025719,36.009854],[139.025719,36.0098125]]],[[[139.025719,36.0098125],[139.025719,36.009854],[139.025688,36.009833],[139.025719,36.0098125]]],[[[139.025719,36.0098125],[139.0257815,36.0098125],[139.0257815,36.009854],[139.025719,36.0098125]]],[[[139.0257815,36.0098125],[139.025844,36.009854],[139.0257815,36.009854],[139.0257815,36.0098125]]],[[[139.0257815,36.0098125],[139.025844,36.0098125],[139.025844,36.009854],[139.0257815,36.0098125]]],[[[139.025844,36.0098125],[139.025875,36.009833],[139.025844,36.009854],[139.025844,36.0098125]]],[[[139.025844,36.0098125],[139.025844,36.009771],[139.0259065,36.0098125],[139.025844,36.0098125]]],[[[139.025594,36.010021],[139.0255315,36.009979],[139.025594,36.009979],[139.025594,36.010021]]]]},"properties":{"layer":"flood","class_code":"2","class_label":"0.5m以上3m未満","scale_code":"2","scale_label":"L2（想定最大規模）"}},{"type":"Feature","id":"fld_e5f5c735-81e0-420e-ae9c-a07aa6b652de","geometry":{"type":"MultiPolygon","coordinates":[[[[139.027563,36.009542],[139.0275315,36.009521],[139.027563,36.0095],[139.027563,36.009542]]],[[[139.0275,36.009542],[139.0275,36.0095],[139.0275315,36.009521],[139.0275,36.009542]]],[[[139.0275,36.009542],[139.0275315,36.009521],[139.027563,36.009542],[139.0275,36.009542]]],[[[139.0275315,36.009521],[139.0275,36.0095],[139.027563,36.0095],[139.0275315,36.009521]]]]},"properties":{"layer":"flood","class_code":"3","class_label":"3m以上5m未満","scale_code":"2","scale_label":"L2（想定最大規模）"}},{"type":"Feature","id":"fld_78ad8184-f3a4-4787-b995-e6f2d6ec16ab","geometry":{"type":"MultiPolygon","coordinates":[[[[139.027563,36.009208],[139.027563,36.00925],[139.0275315,36.009229],[139.027563,36.009208]]],[[[139.027594,36.009271],[139.0275315,36.009271],[139.027563,36.00925],[139.027594,36.009271]]],[[[139.027594,36.009271],[139.027563,36.00925],[139.027625,36.00925],[139.027594,36.009271]]],[[[139.027594,36.009271],[139.027625,36.00925],[139.027625,36.009292],[139.027594,36.009271]]],[[[139.027594,36.009271],[139.027625,36.009292],[139.027594,36.0093125],[139.027594,36.009271]]],[[[139.027594,36.009271],[139.027594,36.0093125],[139.0275315,36.009271],[139.027594,36.009271]]],[[[139.0275315,36.009271],[139.0275315,36.0093125],[139.0275,36.009292],[139.0275315,36.009271]]],[[[139.0275315,36.009271],[139.0275,36.009292],[139.027469,36.009271],[139.0275315,36.009271]]],[[[139.0275315,36.009271],[139.027469,36.009271],[139.027469,36.009229],[139.0275315,36.009271]]],[[[139.0275315,36.009271],[139.027469,36.009229],[139.0275315,36.009229],[139.0275315,36.009271]]],[[[139.0275315,36.009271],[139.0275315,36.009229],[139.027563,36.00925],[139.0275315,36.009271]]],[[[139.0275315,36.009271],[139.027594,36.0093125],[139.0275315,36.0093125],[139.0275315,36.009271]]],[[[139.027469,36.009229],[139.027469,36.009271],[139.027438,36.00925],[139.027469,36.009229]]],[[[139.027469,36.009271],[139.0275,36.009292],[139.027438,36.009292],[139.027469,36.009271]]],[[[139.027469,36.009271],[139.027438,36.009292],[139.027438,36.00925],[139.027469,36.009271]]],[[[139.027594,36.0093125],[139.027625,36.009292],[139.027625,36.009333],[139.027594,36.0093125]]],[[[139.0275315,36.0093125],[139.0275,36.009333],[139.0275,36.009292],[139.0275315,36.0093125]]],[[[139.027625,36.009375],[139.027625,36.009417],[139.027594,36.009396],[139.027625,36.009375]]],[[[139.027625,36.009375],[139.027594,36.009396],[139.027594,36.009354],[139.027625,36.009375]]],[[[139.027625,36.009375],[139.027594,36.009354],[139.027625,36.009333],[139.027625,36.009375]]],[[[139.027594,36.009354],[139.027594,36.0093125],[139.027625,36.009333],[139.027594,36.009354]]],[[[139.027594,36.009354],[139.027594,36.009396],[139.027563,36.009375],[139.027594,36.009354]]],[[[139.027594,36.009354],[139.027563,36.009375],[139.0275315,36.009354],[139.027594,36.009354]]],[[[139.027594,36.009354],[139.0275315,36.009354],[139.027594,36.0093125],[139.027594,36.009354]]],[[[139.0275315,36.009354],[139.0275,36.009375],[139.0275,36.009333],[139.0275315,36.009354]]],[[[139.0275315,36.009354],[139.0275,36.009333],[139.0275315,36.0093125],[139.0275315,36.009354]]],[[[139.0275315,36.009354],[139.0275315,36.0093125],[139.027594,36.0093125],[139.0275315,36.009354]]],[[[139.0275315,36.009354],[139.027563,36.009375],[139.0275,36.009375],[139.0275315,36.009354]]],[[[139.027594,36.009396],[139.027563,36.009417],[139.027563,36.009375],[139.027594,36.009396]]],[[[139.027594,36.009396],[139.027625,36.009417],[139.027594,36.0094375],[139.027594,36.009396]]],[[[139.027594,36.009396],[139.027594,36.0094375],[139.027563,36.009417],[139.027594,36.009396]]],[[[139.027438,36.009208],[139.0275,36.009208],[139.027469,36.009229],[139.027438,36.009208]]],[[[139.027594,36.0094375],[139.027563,36.009458],[139.027563,36.009417],[139.027594,36.0094375]]],[[[139.027594,36.0094375],[139.027625,36.009417],[139.027625,36.009458],[139.027594,36.0094375]]],[[[139.027438,36.009208],[139.027469,36.009229],[139.027438,36.00925],[139.027438,36.009208]]],[[[139.0275,36.009208],[139.027563,36.009208],[139.0275315,36.009229],[139.0275,36.009208]]],[[[139.027594,36.0094375],[139.027625,36.009458],[139.027563,36.009458],[139.027594,36.0094375]]],[[[139.0275,36.009208],[139.0275315,36.009229],[139.027469,36.009229],[139.0275,36.009208]]]]},"properties":{"layer":"flood","class_code":"3","class_label":"3m以上5m未満","scale_code":"2","scale_label":"L2（想定最大規模）"}},{"type":"Feature","id":"fld_c1de4889-f5d5-4f00-90ac-4469f27b5f25","geometry":{"type":"MultiPolygon","coordinates":[[[[139.03425,36.009125],[139.03425,36.009083],[139.0342815,36.009104],[139.03425,36.009125]]],[[[139.03425,36.009125],[139.0342815,36.009104],[139.034313,36.009125],[139.03425,36.009125]]],[[[139.03425,36.009083],[139.034313,36.009083],[139.0342815,36.009104],[139.03425,36.009083]]],[[[139.0342815,36.009104],[139.034313,36.009083],[139.034313,36.009125],[139.0342815,36.009104]]]]},"properties":{"layer":"flood","class_code":"3","class_label":"3m以上5m未満","scale_code":"2","scale_label":"L2（想定最大規模）"}}]}