{"type":"FeatureCollection","properties":{"mesh_code":"53397045","source":"PLATEAU秩父市2025","layer":"road"},"features":[{"type":"Feature","id":"tran_6b370c35-6d1a-4724-b7a9-1d0b2fe80017","geometry":{"type":"Polygon","coordinates":[[[139.0663153,35.9547355],[139.0663555,35.9547141],[139.0663996,35.9546947],[139.066449,35.9546767],[139.066587,35.9546207],[139.0665902,35.9546193],[139.0667221,35.9545569],[139.0667392,35.9545461],[139.066813,35.9544958],[139.0668487,35.954469],[139.0669181,35.9544117],[139.0669231,35.9544083],[139.0669541,35.9543884],[139.066987,35.95437],[139.067021,35.9543534],[139.0670478,35.9543419],[139.067084,35.9543283],[139.0671213,35.9543167],[139.0671601,35.9543067],[139.0671957,35.9543008],[139.0672499,35.954294],[139.067285,35.9542914],[139.0673046,35.95429],[139.0673383,35.954289],[139.0673931,35.9542895],[139.067448,35.9542928],[139.0674699,35.9542952],[139.0675286,35.9542967],[139.0675602,35.9542946],[139.067615,35.9542883],[139.0676448,35.9542836],[139.0676985,35.954273],[139.0677509,35.9542597],[139.0678014,35.954244],[139.0678215,35.9542355],[139.0678621,35.9542163],[139.0679009,35.9541953],[139.067938,35.9541723],[139.0679709,35.9541491],[139.0680043,35.9541226],[139.0680142,35.9541138],[139.0681029,35.9540202],[139.0681219,35.9540025],[139.0681422,35.9539857],[139.0681636,35.9539702],[139.0681769,35.9539615],[139.0682001,35.9539478],[139.0682245,35.9539352],[139.0682498,35.9539238],[139.0682759,35.9539138],[139.0683028,35.953905],[139.0683304,35.9538978],[139.0683585,35.9538919],[139.0683768,35.9538891],[139.0685213,35.9538716],[139.0685377,35.9538701],[139.0686833,35.9538608],[139.0688696,35.953852],[139.0688817,35.9538512],[139.0691353,35.9538273],[139.0691394,35.9538271],[139.0691982,35.9538218],[139.0692561,35.9538136],[139.0693134,35.9538023],[139.0693376,35.9537967],[139.0693934,35.9537813],[139.0694477,35.9537632],[139.0695016,35.9537419],[139.069521,35.9537345],[139.0695775,35.9537103],[139.0696321,35.9536833],[139.0696406,35.9536788],[139.0696926,35.9536485],[139.0697418,35.9536159],[139.0697872,35.9535818],[139.0698698,35.9534982],[139.0699566,35.9534024],[139.0700134,35.953354],[139.0700432,35.9533315],[139.07008,35.9532986],[139.0701192,35.9532676],[139.0701383,35.9532539],[139.0701809,35.9532259],[139.0702255,35.9532002],[139.0702489,35.9531881],[139.0705996,35.9530294],[139.0710083,35.9528651],[139.0710561,35.9528708],[139.0712006,35.9528166],[139.0713372,35.9527665],[139.0713787,35.9527528],[139.0715088,35.9527143],[139.0715873,35.952658],[139.0716116,35.9526524],[139.0716507,35.9526467],[139.0716905,35.9526451],[139.0717232,35.9526468],[139.0717624,35.9526526],[139.0717725,35.9526544],[139.0717864,35.9526582],[139.0717998,35.9526635],[139.0718076,35.9526676],[139.0718194,35.9526749],[139.0718298,35.9526834],[139.0718388,35.9526929],[139.0718604,35.9526966],[139.0718948,35.9527045],[139.0719003,35.9527062],[139.0719162,35.952712],[139.0719467,35.9527247],[139.0719761,35.9527389],[139.0720043,35.9527546],[139.0720108,35.9527585],[139.0720374,35.9527759],[139.0720627,35.9527946],[139.0720864,35.9528147],[139.0722282,35.9529328],[139.0723256,35.9530127],[139.0723331,35.9530187],[139.0723582,35.9530375],[139.0723846,35.9530549],[139.0724124,35.953071],[139.0724402,35.9530851],[139.0724702,35.9530983],[139.0725013,35.9531099],[139.072533,35.9531199],[139.0725466,35.953123],[139.0725652,35.9531263],[139.0725841,35.9531288],[139.0726031,35.9531302],[139.0726221,35.9531307],[139.0726413,35.9531302],[139.0726603,35.9531288],[139.0726791,35.9531263],[139.0726831,35.9531257],[139.0727017,35.9531221],[139.0727199,35.9531175],[139.0727378,35.953112],[139.0727553,35.9531057],[139.0727722,35.9530985],[139.0727884,35.9530904],[139.0728041,35.9530814],[139.0728581,35.9530308],[139.0728899,35.9530487],[139.0728798,35.9530586],[139.0728302,35.953105],[139.0728097,35.9531167],[139.0727913,35.9531259],[139.0727723,35.9531341],[139.0727526,35.9531412],[139.0727325,35.9531473],[139.0727119,35.9531525],[139.0726914,35.9531564],[139.0726859,35.9531573],[139.0726652,35.9531601],[139.0726438,35.9531617],[139.0726221,35.9531622],[139.0726006,35.9531617],[139.0725793,35.9531601],[139.0725579,35.9531574],[139.0725371,35.9531536],[139.0725207,35.9531499],[139.072486,35.9531389],[139.0724529,35.9531264],[139.0724208,35.9531124],[139.072391,35.9530973],[139.0723612,35.9530801],[139.0723328,35.9530613],[139.0723063,35.9530415],[139.0722981,35.9530349],[139.0722006,35.9529549],[139.0720586,35.9528366],[139.0720356,35.9528173],[139.0720122,35.9527999],[139.0719871,35.9527835],[139.0719818,35.9527803],[139.0719552,35.9527656],[139.0719278,35.9527523],[139.0718993,35.9527404],[139.0718843,35.9527349],[139.071851,35.9527273],[139.0718173,35.9527214],[139.0717946,35.9527186],[139.0717359,35.9527166],[139.0716792,35.9527191],[139.0716576,35.9527206],[139.0715902,35.9527267],[139.0715804,35.9527285],[139.0715518,35.9527352],[139.0713926,35.9527822],[139.0713525,35.9527955],[139.0712167,35.9528452],[139.0709396,35.952951],[139.0707104,35.9530367],[139.0704966,35.953125],[139.0702964,35.9532169],[139.0702274,35.9532522],[139.0701613,35.9532909],[139.0701004,35.9533314],[139.0700407,35.9533765],[139.0699864,35.9534227],[139.0699005,35.9535175],[139.0698157,35.9536033],[139.0697673,35.9536397],[139.0697161,35.9536736],[139.0696625,35.9537048],[139.0696529,35.9537099],[139.0695967,35.9537378],[139.0695382,35.9537627],[139.0695184,35.9537704],[139.0694636,35.953792],[139.069407,35.9538108],[139.0693492,35.9538268],[139.0693233,35.9538328],[139.069264,35.9538444],[139.0692038,35.953853],[139.069143,35.9538585],[139.069139,35.9538587],[139.0689069,35.9538807],[139.0688855,35.9538826],[139.0688723,35.9538835],[139.0686859,35.9538923],[139.0685414,35.9539015],[139.0685265,35.9539029],[139.0683832,35.9539202],[139.0683669,35.9539226],[139.0683412,35.9539281],[139.0683161,35.9539348],[139.0682914,35.9539427],[139.0682675,35.9539519],[139.0682443,35.9539623],[139.0682219,35.9539739],[139.0682005,35.9539866],[139.0681888,35.9539943],[139.0681689,35.9540086],[139.0681504,35.9540239],[139.0681339,35.9540393],[139.0680524,35.9541264],[139.0680323,35.9541445],[139.0679972,35.9541724],[139.0679625,35.9541968],[139.0679235,35.9542209],[139.0678827,35.9542431],[139.0678401,35.9542632],[139.0678173,35.9542728],[139.0677637,35.9542895],[139.0677089,35.9543034],[139.0676532,35.9543145],[139.0676213,35.9543194],[139.0675646,35.954326],[139.067534,35.954328],[139.0674668,35.9543267],[139.0674439,35.9543241],[139.0673914,35.954321],[139.0673387,35.9543205],[139.067307,35.9543215],[139.0672546,35.9543253],[139.0672025,35.9543318],[139.0671699,35.9543373],[139.0671341,35.9543464],[139.067099,35.9543575],[139.067065,35.9543702],[139.0670402,35.9543809],[139.067008,35.9543965],[139.0669771,35.9544139],[139.0669476,35.9544327],[139.0669444,35.9544349],[139.0668757,35.9544917],[139.0668386,35.9545195],[139.0667635,35.9545706],[139.0667438,35.9545831],[139.0666093,35.9546468],[139.0666049,35.9546488],[139.0664656,35.9547052],[139.0663826,35.9547359],[139.0662961,35.9547848],[139.0661938,35.9548478],[139.0660994,35.9549128],[139.0659901,35.9549775],[139.0658942,35.9550378],[139.065812,35.9550867],[139.0657226,35.9551457],[139.0656314,35.9552088],[139.0655425,35.9552677],[139.0654596,35.9553234],[139.0653948,35.9553543],[139.0653173,35.9553806],[139.0652438,35.9553967],[139.0651843,35.9554107],[139.0651376,35.9554259],[139.0650601,35.9554531],[139.0649395,35.9555065],[139.0648437,35.9555433],[139.0647445,35.9555803],[139.0646457,35.9556094],[139.0645354,35.9556407],[139.0644311,35.9556635],[139.064359,35.9556854],[139.0643315,35.9556971],[139.0643042,35.9557212],[139.0642852,35.955747],[139.064276,35.9557769],[139.0642789,35.9558459],[139.0642916,35.9559024],[139.0643174,35.9559791],[139.0643364,35.9560526],[139.0643449,35.9561267],[139.0643417,35.9561952],[139.0643195,35.9562537],[139.0642796,35.9563113],[139.0642369,35.9563723],[139.0641886,35.956426],[139.0641404,35.9564726],[139.0640743,35.956522],[139.0639999,35.9565752],[139.0639151,35.9566319],[139.063828,35.9567013],[139.0637442,35.956781],[139.0636821,35.9568356],[139.0636304,35.9568871],[139.0635528,35.9569444],[139.0634752,35.9569976],[139.0634181,35.9570335],[139.0633599,35.957083],[139.0633202,35.9571332],[139.0632779,35.9571951],[139.0632251,35.9572724],[139.0631895,35.9573254],[139.0631602,35.9573821],[139.0631423,35.9574297],[139.0631303,35.957469],[139.0631126,35.9575176],[139.0630982,35.9575723],[139.0630783,35.9576287],[139.063067,35.9576794],[139.0630434,35.9577321],[139.0630141,35.9577888],[139.0629864,35.9578353],[139.0629411,35.9578999],[139.0628822,35.9579461],[139.0628268,35.9579854],[139.0627766,35.958035],[139.0627474,35.9580828],[139.0627286,35.9581304],[139.0627168,35.9581672],[139.0627089,35.9582089],[139.062701,35.9582648],[139.0626951,35.9583214],[139.0626852,35.9583732],[139.0626712,35.9584312],[139.0626628,35.958476],[139.0626594,35.9585231],[139.0626617,35.9585774],[139.0626688,35.9586229],[139.0626794,35.9586767],[139.0626354,35.9586816],[139.0626294,35.9586363],[139.062623,35.9585794],[139.0626204,35.9585227],[139.0626243,35.9584726],[139.062633,35.9584258],[139.062647,35.9583678],[139.0626566,35.9583176],[139.0626623,35.9582616],[139.0626704,35.9582047],[139.0626787,35.9581608],[139.0626913,35.9581215],[139.0627114,35.958071],[139.0627439,35.9580178],[139.0627988,35.9579634],[139.062856,35.9579229],[139.0629102,35.9578804],[139.0629521,35.9578206],[139.0629788,35.9577758],[139.0630073,35.9577206],[139.0630294,35.9576711],[139.0630405,35.9576215],[139.0630606,35.9575646],[139.0630749,35.9575098],[139.0630929,35.9574608],[139.063105,35.9574213],[139.0631236,35.9573714],[139.0631545,35.9573117],[139.0631911,35.9572572],[139.063244,35.9571798],[139.0632868,35.9571169],[139.0633294,35.9570635],[139.0633921,35.95701],[139.0634509,35.956973],[139.0635273,35.9569207],[139.0636022,35.9568653],[139.0636527,35.9568149],[139.0637152,35.95676],[139.0637996,35.9566797],[139.0638892,35.9566084],[139.0639748,35.9565513],[139.0640483,35.9564985],[139.0641123,35.9564507],[139.064158,35.9564065],[139.0642043,35.9563551],[139.0642458,35.9562958],[139.0642836,35.9562411],[139.0643032,35.95619],[139.064306,35.9561275],[139.064298,35.9560573],[139.0642865,35.9560126],[139.0642744,35.9559782],[139.0642589,35.9559405],[139.0642451,35.9559061],[139.0642344,35.9558659],[139.0642301,35.9558272],[139.064229,35.9557905],[139.0642326,35.955757],[139.0642472,35.9557171],[139.0642615,35.955699],[139.0642809,35.9556862],[139.0643063,35.9556728],[139.0643075,35.9556717],[139.0643432,35.9556565],[139.0644192,35.9556334],[139.064524,35.9556106],[139.0646327,35.9555796],[139.0647297,35.9555511],[139.0648272,35.9555147],[139.0649219,35.9554784],[139.0650431,35.9554248],[139.0651227,35.9553967],[139.0651717,35.9553808],[139.0652334,35.9553663],[139.0653047,35.9553507],[139.0653774,35.955326],[139.0654373,35.9552974],[139.0655179,35.9552433],[139.0656066,35.9551845],[139.0656978,35.9551215],[139.0657884,35.9550617],[139.0658709,35.9550126],[139.0659668,35.9549522],[139.0660754,35.954888],[139.0661696,35.9548232],[139.0662733,35.9547592],[139.0663153,35.9547355]]]},"properties":{"layer":"road","class_code":"1040","class_label":"道路"}},{"type":"Feature","id":"tran_91b504b2-8b32-4938-9dd0-363c6bc6b48a","geometry":{"type":"Polygon","coordinates":[[[139.0728581,35.9530308],[139.0728803,35.9530046],[139.0729275,35.952949],[139.0729593,35.952967],[139.0728899,35.9530487],[139.0728581,35.9530308]]]},"properties":{"layer":"road","class_code":"1040","class_label":"道路"}},{"type":"Feature","id":"tran_2956881f-bf15-4dc9-be53-a4246f88c42a","geometry":{"type":"Polygon","coordinates":[[[139.07703,35.9496354],[139.076969,35.9496341],[139.0769374,35.9496366],[139.0768937,35.9496419],[139.0768423,35.9496533],[139.0767167,35.949685],[139.0766692,35.9497019],[139.0766228,35.9497208],[139.0765778,35.9497418],[139.0765343,35.9497648],[139.0765068,35.9497807],[139.076466,35.9498068],[139.0764271,35.9498346],[139.07639,35.9498641],[139.0763405,35.9499076],[139.0762699,35.9499639],[139.0761958,35.9500171],[139.0761698,35.9500343],[139.0760909,35.9500829],[139.076009,35.9501279],[139.0759608,35.950154],[139.0759004,35.9501832],[139.0758382,35.9502098],[139.0757744,35.9502334],[139.075709,35.9502543],[139.0756423,35.9502722],[139.0756093,35.9502798],[139.075541,35.9502933],[139.075472,35.9503036],[139.0754664,35.9503041],[139.0754166,35.9503098],[139.0753672,35.9503177],[139.0753184,35.9503278],[139.0752704,35.95034],[139.0752232,35.9503543],[139.0751771,35.9503707],[139.0751534,35.9503801],[139.0751091,35.9503996],[139.0750897,35.9504093],[139.0750577,35.9504189],[139.0750472,35.9504216],[139.0750182,35.9504296],[139.074983,35.9504405],[139.0749142,35.9504637],[139.0748405,35.9504892],[139.0748154,35.9505039],[139.0747991,35.9505134],[139.0747872,35.9505211],[139.074778,35.9505285],[139.0747663,35.9505381],[139.0747609,35.9505429],[139.074756,35.9505499],[139.0747528,35.9505565],[139.0747491,35.9505693],[139.0747453,35.9505944],[139.0747391,35.9506225],[139.074724,35.9506744],[139.0747114,35.950722],[139.0746972,35.9507908],[139.0746874,35.95086],[139.0746819,35.9509296],[139.0746809,35.9509993],[139.0746844,35.9510689],[139.0746917,35.9511353],[139.0746971,35.9511663],[139.074705,35.9511829],[139.0747574,35.9512415],[139.0747971,35.9512677],[139.0748004,35.9512698],[139.0748648,35.9513078],[139.0749315,35.9513432],[139.0750005,35.9513757],[139.0750107,35.9513819],[139.0750286,35.9513919],[139.0750471,35.951401],[139.0750661,35.9514094],[139.0750857,35.9514169],[139.0751055,35.9514237],[139.075126,35.9514296],[139.0751467,35.9514346],[139.0751618,35.9514377],[139.075183,35.9514412],[139.0752043,35.9514439],[139.0752258,35.9514457],[139.0752474,35.9514464],[139.0752691,35.9514464],[139.0752907,35.9514454],[139.0753122,35.9514435],[139.0753172,35.9514439],[139.0753249,35.9514447],[139.0753327,35.9514457],[139.0753403,35.9514471],[139.0753478,35.9514489],[139.0753553,35.9514509],[139.0753624,35.9514532],[139.0753696,35.9514559],[139.0753765,35.9514588],[139.0753833,35.9514621],[139.0753887,35.951465],[139.0753951,35.9514687],[139.0754012,35.9514726],[139.075407,35.9514769],[139.0754125,35.9514814],[139.0754178,35.9514861],[139.0754227,35.951491],[139.0754273,35.9514961],[139.0754317,35.9515014],[139.0754356,35.9515069],[139.0754392,35.9515125],[139.0754425,35.9515183],[139.0754471,35.9515248],[139.0754628,35.9515486],[139.075477,35.9515729],[139.0754896,35.9515978],[139.075495,35.9516097],[139.0755052,35.9516353],[139.0755139,35.9516613],[139.0755208,35.9516875],[139.075528,35.9517205],[139.0755338,35.9517575],[139.0755372,35.9517946],[139.0755383,35.951832],[139.0755369,35.9518692],[139.0755334,35.9519064],[139.0755322,35.9519145],[139.0755257,35.9519514],[139.0755168,35.951988],[139.0755057,35.9520242],[139.0754923,35.9520599],[139.0754908,35.9520656],[139.0754893,35.9520739],[139.0754882,35.9520823],[139.0754877,35.9520907],[139.0754877,35.9520991],[139.0754882,35.9521075],[139.0754893,35.9521159],[139.0754909,35.9521242],[139.0754931,35.9521325],[139.0754957,35.9521407],[139.0754988,35.9521486],[139.0755025,35.9521566],[139.0755066,35.9521642],[139.0755113,35.9521718],[139.0755163,35.9521791],[139.0755219,35.9521862],[139.075528,35.9521931],[139.0755345,35.9521998],[139.0755414,35.9522061],[139.0755486,35.9522121],[139.0755562,35.9522178],[139.0755641,35.9522232],[139.0755725,35.9522283],[139.0755811,35.9522329],[139.0755899,35.9522373],[139.0755991,35.9522413],[139.0756025,35.9522426],[139.0756088,35.9522456],[139.0756149,35.9522487],[139.0756207,35.952252],[139.0756265,35.9522557],[139.0756314,35.9522592],[139.0756366,35.9522632],[139.0756415,35.9522675],[139.0756462,35.952272],[139.0756505,35.9522766],[139.0756546,35.9522814],[139.0756583,35.9522865],[139.0756617,35.9522916],[139.0756649,35.9522969],[139.0756676,35.9523024],[139.07567,35.9523079],[139.075672,35.9523135],[139.0756737,35.9523192],[139.0756758,35.9523257],[139.0756776,35.9523331],[139.075679,35.9523406],[139.0756798,35.9523481],[139.0756802,35.9523557],[139.0756801,35.9523633],[139.0756796,35.9523708],[139.0756785,35.9523783],[139.075677,35.9523858],[139.0756749,35.9523932],[139.0756725,35.9524004],[139.0756696,35.9524076],[139.0756662,35.9524147],[139.0756623,35.9524217],[139.0756582,35.9524284],[139.0756535,35.9524349],[139.0756507,35.9524385],[139.0756454,35.9524448],[139.0756397,35.9524507],[139.0756336,35.9524564],[139.0756272,35.952462],[139.0756205,35.9524672],[139.0756134,35.9524721],[139.075606,35.9524767],[139.0755984,35.952481],[139.0755905,35.9524849],[139.0755849,35.9524866],[139.0755051,35.9525076],[139.0754242,35.9525253],[139.0753727,35.9525347],[139.0752902,35.9525468],[139.0752219,35.9525606],[139.0751586,35.9525756],[139.0750947,35.9525906],[139.0750204,35.9526108],[139.0749208,35.9526403],[139.0747661,35.9526801],[139.074705,35.9526938],[139.0745472,35.9527245],[139.0744515,35.952739],[139.0743548,35.9527486],[139.0742743,35.9527529],[139.074177,35.9527534],[139.0740797,35.9527489],[139.0740512,35.9527467],[139.0739023,35.9527322],[139.0738004,35.9527178],[139.0736596,35.9526917],[139.0736111,35.952683],[139.0735633,35.952672],[139.0735166,35.9526585],[139.0734709,35.9526427],[139.0734389,35.9526299],[139.0733956,35.9526101],[139.0733539,35.9525882],[139.073314,35.9525642],[139.0732813,35.9525419],[139.0732789,35.9525402],[139.073192,35.9524906],[139.0731016,35.9524455],[139.073014,35.9524076],[139.0729175,35.9523718],[139.0728864,35.9523621],[139.0728184,35.9523408],[139.0727982,35.9523353],[139.0726694,35.9522907],[139.0725784,35.9522544],[139.0724562,35.9521988],[139.0723909,35.9521654],[139.0723793,35.9521583],[139.0723682,35.9521506],[139.0723578,35.9521423],[139.072348,35.9521336],[139.0723389,35.9521244],[139.0723306,35.9521147],[139.072323,35.9521045],[139.0723162,35.9520941],[139.0723102,35.9520833],[139.0723079,35.9520783],[139.0723031,35.9520671],[139.0722993,35.9520556],[139.0722963,35.9520441],[139.0722942,35.9520323],[139.0722931,35.9520205],[139.0722929,35.9520087],[139.0722933,35.952],[139.0722988,35.9519381],[139.0722996,35.9518758],[139.0722994,35.9518694],[139.0722992,35.951861],[139.0722983,35.9518526],[139.0722968,35.9518444],[139.0722947,35.9518362],[139.0722919,35.9518282],[139.0722885,35.9518202],[139.0722845,35.9518125],[139.0722799,35.951805],[139.0722747,35.9517978],[139.072269,35.9517908],[139.0722628,35.9517842],[139.0722561,35.9517778],[139.0722498,35.9517727],[139.0722422,35.951767],[139.0722343,35.9517617],[139.0722258,35.9517569],[139.0722171,35.9517525],[139.072208,35.9517486],[139.0721987,35.9517451],[139.072189,35.9517422],[139.0721828,35.9517405],[139.0721788,35.9517391],[139.0721746,35.9517379],[139.0721702,35.9517369],[139.0721659,35.9517362],[139.0721615,35.9517357],[139.0721571,35.9517354],[139.0721526,35.9517353],[139.0721481,35.9517354],[139.0721436,35.9517358],[139.0721393,35.9517364],[139.072135,35.9517372],[139.0721307,35.9517383],[139.0721265,35.9517395],[139.0721224,35.9517409],[139.0721185,35.9517426],[139.0721146,35.9517445],[139.0721111,35.9517466],[139.0721075,35.9517489],[139.0721041,35.9517513],[139.0721011,35.9517539],[139.0720988,35.9517559],[139.072096,35.9517588],[139.0720935,35.9517618],[139.0720913,35.9517649],[139.0720891,35.9517681],[139.0720874,35.9517714],[139.0720859,35.9517749],[139.0720846,35.9517784],[139.0720836,35.9517819],[139.0720829,35.9517855],[139.0720825,35.9517891],[139.0720822,35.9517927],[139.0720824,35.9517963],[139.0720828,35.9517999],[139.0720835,35.9518035],[139.0720844,35.951807],[139.0720856,35.9518105],[139.0720858,35.9518111],[139.0720922,35.9518401],[139.0721008,35.9518687],[139.0721075,35.9518869],[139.0721197,35.9519147],[139.072134,35.9519417],[139.0721376,35.951948],[139.0721386,35.9519497],[139.0721778,35.9520271],[139.0722007,35.952083],[139.0722215,35.9521377],[139.0722245,35.9521505],[139.0722274,35.95216],[139.0722312,35.9521694],[139.0722355,35.9521785],[139.0722406,35.9521875],[139.0722468,35.9521965],[139.0722473,35.9521972],[139.0722542,35.9522059],[139.0722614,35.9522138],[139.0722692,35.9522214],[139.0722788,35.9522295],[139.0722904,35.9522417],[139.0723005,35.952251],[139.0723114,35.9522598],[139.072323,35.9522681],[139.0723351,35.9522758],[139.0723478,35.9522827],[139.0723616,35.9522894],[139.072362,35.9522895],[139.0723763,35.9522953],[139.0723775,35.9522958],[139.0724247,35.9523174],[139.0724429,35.9523283],[139.0724467,35.9523309],[139.0724754,35.9523534],[139.0725012,35.9523765],[139.0725262,35.9524018],[139.0725489,35.9524279],[139.0725534,35.9524335],[139.0725916,35.9525073],[139.0726398,35.9525978],[139.0726479,35.95261],[139.0726574,35.9526221],[139.0726678,35.9526338],[139.0726791,35.9526449],[139.0726903,35.9526548],[139.0727032,35.9526647],[139.0727168,35.952674],[139.0727311,35.9526824],[139.0727459,35.9526902],[139.0727614,35.9526972],[139.072778,35.9527036],[139.0727793,35.9527041],[139.0728038,35.9527138],[139.0728279,35.9527249],[139.0728508,35.9527371],[139.0728657,35.9527459],[139.0728826,35.9527571],[139.0728869,35.9527599],[139.0729073,35.9527752],[139.072926,35.9527912],[139.0729343,35.9527989],[139.0729442,35.9528126],[139.0729516,35.9528246],[139.072958,35.9528369],[139.0729636,35.9528496],[139.0729681,35.9528626],[139.0729715,35.9528754],[139.0729731,35.9528831],[139.072975,35.9528962],[139.0729759,35.9529097],[139.0729757,35.9529231],[139.0729746,35.9529365],[139.0729724,35.9529495],[139.0729593,35.952967],[139.0729275,35.952949],[139.0729286,35.9529439],[139.0729304,35.9529328],[139.0729314,35.9529216],[139.0729315,35.9529105],[139.0729308,35.9528993],[139.0729292,35.9528882],[139.072928,35.9528822],[139.0729251,35.9528713],[139.0729213,35.9528606],[139.0729168,35.95285],[139.0729113,35.9528398],[139.0729052,35.9528297],[139.0728982,35.9528201],[139.0728934,35.9528156],[139.0728822,35.952806],[139.0728761,35.952801],[139.0728579,35.9527872],[139.0728386,35.9527745],[139.0728256,35.9527668],[139.0728047,35.9527557],[139.0727831,35.9527458],[139.0727608,35.9527369],[139.0727596,35.9527364],[139.072741,35.9527293],[139.0727231,35.9527211],[139.0727059,35.9527122],[139.0726894,35.9527023],[139.0726737,35.9526916],[139.0726588,35.9526802],[139.0726457,35.9526686],[139.0726327,35.9526558],[139.0726207,35.9526423],[139.0726096,35.9526282],[139.0725998,35.9526136],[139.0725508,35.9525215],[139.0725141,35.9524506],[139.0725123,35.9524481],[139.0724908,35.9524235],[139.0724675,35.9524],[139.0724435,35.9523786],[139.0724168,35.9523576],[139.0724105,35.9523531],[139.0723932,35.9523432],[139.0723622,35.9523297],[139.0723578,35.9523281],[139.0723416,35.9523215],[139.0723397,35.9523207],[139.0723241,35.9523132],[139.0723091,35.952305],[139.0722947,35.9522959],[139.0722811,35.9522862],[139.0722683,35.9522758],[139.0722563,35.9522647],[139.0722451,35.9522531],[139.0722362,35.9522454],[139.0722266,35.9522361],[139.0722178,35.9522264],[139.0722096,35.9522163],[139.0722082,35.9522144],[139.0722011,35.9522038],[139.0721948,35.9521928],[139.0721894,35.9521816],[139.0721848,35.95217],[139.0721811,35.9521583],[139.0721784,35.9521464],[139.0721585,35.9520941],[139.0721362,35.9520397],[139.0720976,35.9519634],[139.0720935,35.9519566],[139.0720784,35.9519279],[139.0720654,35.9518981],[139.072058,35.9518782],[139.0720488,35.9518475],[139.0720426,35.9518194],[139.0720415,35.9518159],[139.0720398,35.9518101],[139.0720388,35.9518042],[139.0720381,35.9517984],[139.0720379,35.9517925],[139.0720382,35.9517866],[139.0720389,35.9517808],[139.0720401,35.9517749],[139.0720417,35.9517692],[139.0720437,35.9517635],[139.0720462,35.951758],[139.0720492,35.9517526],[139.0720524,35.9517473],[139.0720561,35.9517423],[139.0720603,35.9517375],[139.0720646,35.9517329],[139.0720686,35.9517293],[139.0720736,35.9517252],[139.0720789,35.9517213],[139.0720846,35.9517176],[139.0720905,35.9517142],[139.0720968,35.9517112],[139.0721032,35.9517085],[139.0721098,35.9517061],[139.0721166,35.951704],[139.0721236,35.9517024],[139.0721306,35.9517011],[139.0721378,35.9517],[139.072145,35.9516994],[139.0721522,35.9516992],[139.0721594,35.9516994],[139.0721666,35.9516998],[139.0721738,35.9517007],[139.0721809,35.9517019],[139.0721879,35.9517035],[139.0721947,35.9517054],[139.0721984,35.9517067],[139.0722037,35.9517081],[139.0722157,35.9517119],[139.0722276,35.9517163],[139.0722391,35.9517212],[139.0722503,35.9517268],[139.072261,35.951733],[139.0722712,35.9517396],[139.0722808,35.9517467],[139.0722888,35.9517534],[139.0722973,35.9517614],[139.0723052,35.9517699],[139.0723124,35.9517787],[139.072319,35.951788],[139.0723247,35.9517975],[139.0723299,35.9518073],[139.0723342,35.9518174],[139.0723378,35.9518276],[139.0723404,35.9518379],[139.0723423,35.9518485],[139.0723434,35.9518591],[139.0723437,35.9518685],[139.0723439,35.9518756],[139.0723431,35.9519395],[139.0723375,35.952002],[139.0723372,35.9520091],[139.0723375,35.9520188],[139.0723384,35.9520284],[139.0723401,35.9520379],[139.0723424,35.9520472],[139.0723455,35.9520565],[139.0723494,35.9520658],[139.0723512,35.9520693],[139.0723561,35.9520783],[139.0723616,35.9520868],[139.0723678,35.9520949],[139.0723745,35.9521028],[139.0723818,35.9521102],[139.0723897,35.9521173],[139.0723981,35.952124],[139.0724071,35.9521302],[139.072416,35.9521358],[139.0724789,35.9521677],[139.0725991,35.9522225],[139.0726879,35.9522579],[139.0728141,35.9523016],[139.0728334,35.952307],[139.0728868,35.9523235],[139.0729347,35.9523384],[139.0730337,35.9523753],[139.0731236,35.9524142],[139.0732164,35.9524604],[139.0733059,35.9525116],[139.0733339,35.9525306],[139.0733415,35.9525359],[139.0733792,35.9525585],[139.0734185,35.9525793],[139.0734596,35.952598],[139.0734894,35.9526099],[139.0735327,35.952625],[139.0735768,35.9526377],[139.0736219,35.952648],[139.0736692,35.9526565],[139.0738092,35.9526824],[139.0739087,35.9526966],[139.074056,35.9527108],[139.0740831,35.952713],[139.074178,35.9527173],[139.0742727,35.9527168],[139.0743507,35.9527127],[139.0744447,35.9527034],[139.0745391,35.952689],[139.0746926,35.9526546],[139.0747518,35.9526411],[139.0749047,35.9526018],[139.0750039,35.9525725],[139.0750798,35.9525518],[139.0752089,35.9525214],[139.0752798,35.9525071],[139.0753628,35.9524949],[139.0754122,35.952486],[139.075491,35.9524687],[139.0755701,35.9524367],[139.075575,35.9524335],[139.0755797,35.9524303],[139.0755841,35.9524268],[139.0755884,35.9524233],[139.0755924,35.9524194],[139.0755961,35.9524155],[139.0755998,35.9524112],[139.0756014,35.9524092],[139.0756046,35.9524046],[139.0756075,35.9524001],[139.0756099,35.9523955],[139.0756122,35.9523909],[139.0756141,35.9523861],[139.0756157,35.9523813],[139.0756171,35.9523764],[139.075618,35.9523714],[139.0756188,35.9523665],[139.0756191,35.9523615],[139.0756192,35.9523565],[139.075619,35.9523515],[139.0756184,35.9523465],[139.0756176,35.9523415],[139.0756163,35.9523365],[139.0756145,35.9523309],[139.0756132,35.9523263],[139.0756121,35.9523232],[139.0756107,35.9523201],[139.0756091,35.952317],[139.0756074,35.952314],[139.0756054,35.9523112],[139.0756033,35.9523083],[139.075601,35.9523056],[139.0755986,35.952303],[139.075596,35.9523005],[139.0755932,35.9522981],[139.0755903,35.9522957],[139.0755875,35.9522938],[139.0755843,35.9522917],[139.0755809,35.9522899],[139.0755775,35.9522881],[139.0755736,35.9522863],[139.075571,35.9522852],[139.07556,35.9522805],[139.0755332,35.9522551],[139.0755233,35.9522484],[139.0755139,35.9522413],[139.0755048,35.9522337],[139.0754963,35.9522258],[139.0754886,35.952218],[139.0754877,35.952217],[139.0754806,35.9522089],[139.0754736,35.9522],[139.0754672,35.9521909],[139.0754615,35.9521814],[139.0754562,35.9521719],[139.0754517,35.952162],[139.0754478,35.952152],[139.0754444,35.9521419],[139.0754419,35.9521316],[139.0754399,35.9521212],[139.0754385,35.9521107],[139.0754378,35.9521002],[139.0754378,35.9520897],[139.0754385,35.9520792],[139.0754398,35.9520687],[139.0754418,35.9520585],[139.0754439,35.9520499],[139.0754576,35.9520133],[139.0754682,35.9519791],[139.0754765,35.9519446],[139.0754828,35.9519094],[139.0754836,35.9519025],[139.0754872,35.9518671],[139.0754884,35.9518318],[139.0754874,35.9517967],[139.0754841,35.9517615],[139.0754787,35.9517266],[139.0754719,35.9516953],[139.0754654,35.9516708],[139.0754575,35.9516469],[139.0754478,35.951623],[139.0754432,35.9516125],[139.0754314,35.9515893],[139.0754183,35.9515668],[139.0754036,35.9515447],[139.0753981,35.951537],[139.0753944,35.9515304],[139.075392,35.9515266],[139.0753893,35.9515229],[139.0753864,35.9515193],[139.0753833,35.9515159],[139.0753799,35.9515126],[139.0753764,35.9515094],[139.0753728,35.9515064],[139.0753688,35.9515036],[139.0753648,35.9515009],[139.0753605,35.9514983],[139.0753569,35.9514965],[139.0753523,35.9514943],[139.0753477,35.9514923],[139.0753429,35.9514906],[139.075338,35.951489],[139.0753331,35.9514876],[139.075328,35.9514864],[139.0753229,35.9514855],[139.0753177,35.9514847],[139.0753128,35.9514842],[139.0752947,35.9514858],[139.0752706,35.951487],[139.0752464,35.951487],[139.0752222,35.9514861],[139.0751982,35.9514842],[139.0751742,35.9514812],[139.0751507,35.9514773],[139.0751334,35.9514737],[139.0751104,35.9514682],[139.0750877,35.9514616],[139.0750654,35.951454],[139.0750435,35.9514455],[139.0750281,35.9514388],[139.0750222,35.9514362],[139.0750015,35.9514259],[139.0749818,35.9514149],[139.074973,35.9514095],[139.0749055,35.9513778],[139.0748365,35.9513413],[139.0747705,35.9513023],[139.0747662,35.9512995],[139.0747248,35.9512722],[139.0746767,35.9512268],[139.0746744,35.9512245],[139.0746498,35.9511838],[139.0746421,35.9511399],[139.0746346,35.9510716],[139.0746311,35.9509999],[139.0746321,35.9509281],[139.0746378,35.9508564],[139.0746479,35.950785],[139.0746624,35.9507144],[139.0746775,35.9506569],[139.0746903,35.9506141],[139.074696,35.9505883],[139.0747,35.9505622],[139.074705,35.9505446],[139.0747107,35.9505324],[139.0747205,35.9505186],[139.0747303,35.95051],[139.0747427,35.9504999],[139.0747538,35.9504908],[139.074769,35.950481],[139.0747863,35.9504709],[139.0748159,35.9504536],[139.0748948,35.9504264],[139.0749658,35.9504025],[139.0750008,35.9503921],[139.0750299,35.9503836],[139.0750427,35.9503802],[139.075063,35.9503751],[139.0750842,35.9503645],[139.0751306,35.9503441],[139.0751562,35.9503339],[139.0752045,35.9503167],[139.0752542,35.9503016],[139.0753048,35.9502887],[139.0753563,35.9502781],[139.0754083,35.9502698],[139.0754603,35.9502639],[139.0754648,35.9502635],[139.0755306,35.9502536],[139.0755915,35.9502416],[139.0758875,35.9501237],[139.0759204,35.9501106],[139.0760092,35.9500789],[139.0760619,35.95005],[139.0761389,35.9500025],[139.0761635,35.9499861],[139.0762359,35.9499342],[139.0763046,35.9498793],[139.0763542,35.9498358],[139.0763931,35.9498048],[139.0764342,35.9497756],[139.0764769,35.9497483],[139.0765062,35.9497313],[139.0765518,35.9497072],[139.0765992,35.9496852],[139.0766479,35.9496652],[139.076698,35.9496474],[139.0767953,35.9495837],[139.0768129,35.9495793],[139.0768309,35.9495761],[139.0769915,35.9495627],[139.0770344,35.9496178],[139.07703,35.9496354]]]},"properties":{"layer":"road","class_code":"1040","class_label":"道路"}}]}