{"type":"FeatureCollection","properties":{"mesh_code":"53397053","source":"PLATEAU秩父市2025","layer":"road"},"features":[{"type":"Feature","id":"tran_91c925f0-8c3e-406c-a58f-72606cb17692","geometry":{"type":"Polygon","coordinates":[[[139.03758,35.9652852],[139.0376061,35.9652947],[139.0375953,35.9653057],[139.0375692,35.965296],[139.03758,35.9652852]]]},"properties":{"layer":"road","class_code":"1040","class_label":"道路"}},{"type":"Feature","id":"tran_6c5a1ecc-f589-465f-90d6-c0f48a208599","geometry":{"type":"Polygon","coordinates":[[[139.03758,35.9652852],[139.0376276,35.9652373],[139.0376424,35.9652255],[139.0378132,35.9651338],[139.0378537,35.9651137],[139.0378737,35.9650897],[139.037896,35.9650642],[139.0379177,35.9650783],[139.0378965,35.9651025],[139.0378733,35.9651303],[139.0378281,35.9651528],[139.0376599,35.9652431],[139.0376482,35.9652525],[139.0376061,35.9652947],[139.03758,35.9652852]]]},"properties":{"layer":"road","class_code":"1040","class_label":"道路"}},{"type":"Feature","id":"tran_0c010bf0-3e45-4feb-99f4-7693f8d37200","geometry":{"type":"Polygon","coordinates":[[[139.0376061,35.9652947],[139.0376167,35.9652987],[139.0377865,35.965353],[139.0378114,35.9653604],[139.0378559,35.9653718],[139.037901,35.9653812],[139.0379466,35.9653887],[139.0379928,35.9653941],[139.0379939,35.9653942],[139.0380404,35.9653975],[139.0380873,35.9653987],[139.0382321,35.9654004],[139.0385544,35.9653933],[139.0385701,35.9653919],[139.0385822,35.9653906],[139.0385975,35.9653882],[139.038612,35.9653849],[139.0386262,35.9653802],[139.0386399,35.9653759],[139.0386511,35.9653705],[139.0386645,35.9653639],[139.0386675,35.9653619],[139.0386704,35.9653601],[139.0386827,35.9653687],[139.0386802,35.9653694],[139.0386774,35.9653706],[139.0386597,35.9653821],[139.0386472,35.9653882],[139.0386323,35.9653927],[139.0386174,35.9653976],[139.0386014,35.9654013],[139.0385848,35.965404],[139.038572,35.9654053],[139.0385554,35.9654068],[139.0382325,35.9654139],[139.0380869,35.9654122],[139.0380395,35.965411],[139.0379922,35.9654077],[139.0379907,35.9654075],[139.0379437,35.965402],[139.0378972,35.9653945],[139.0378513,35.9653848],[139.0378061,35.9653731],[139.0377807,35.9653656],[139.0376101,35.9653111],[139.0375953,35.9653057],[139.0376061,35.9652947]]]},"properties":{"layer":"road","class_code":"1040","class_label":"道路"}},{"type":"Feature","id":"tran_40f030e8-e891-4555-a26c-be9d634800f9","geometry":{"type":"Polygon","coordinates":[[[139.038829,35.966187],[139.0388654,35.9661998],[139.038898,35.9662096],[139.0389556,35.9662245],[139.0390143,35.9662365],[139.039015,35.9662366],[139.0392094,35.9662746],[139.0392977,35.9662816],[139.039341,35.9662837],[139.0393894,35.9662843],[139.0394689,35.9662816],[139.0396402,35.9663005],[139.0396995,35.9663026],[139.0398102,35.966305],[139.0398427,35.966305],[139.0398719,35.9663043],[139.0399083,35.9663019],[139.0399358,35.9662983],[139.0399617,35.9662954],[139.0400046,35.966291],[139.040032,35.9662901],[139.0400835,35.9662896],[139.0401102,35.9662902],[139.0401625,35.9662931],[139.0402601,35.9662982],[139.0403005,35.966301],[139.040294,35.9663639],[139.0402544,35.9663612],[139.0401573,35.966356],[139.0401063,35.9663532],[139.0400827,35.9663527],[139.0400329,35.9663532],[139.0399916,35.9663548],[139.0396969,35.9663603],[139.039671,35.9663615],[139.0395528,35.9663636],[139.0394674,35.9663673],[139.039395,35.9663623],[139.0393207,35.9663581],[139.0392746,35.9663554],[139.0392448,35.9663517],[139.03919,35.9663404],[139.0389965,35.9663025],[139.0389954,35.9663023],[139.0389329,35.9662896],[139.0388708,35.9662735],[139.0388343,35.9662625],[139.0387966,35.9662493],[139.038829,35.966187]]]},"properties":{"layer":"road","class_code":"1040","class_label":"道路"}},{"type":"Feature","id":"tran_3949617d-38c1-47a8-8518-9f299e0c26f2","geometry":{"type":"Polygon","coordinates":[[[139.0388188,35.9661835],[139.038829,35.966187],[139.0387966,35.9662493],[139.0387865,35.9662457],[139.0388188,35.9661835]]]},"properties":{"layer":"road","class_code":"1040","class_label":"道路"}},{"type":"Feature","id":"tran_3a696240-389e-426f-9549-36377b7ae11b","geometry":{"type":"Polygon","coordinates":[[[139.0386977,35.9653702],[139.0387046,35.9653631],[139.0389308,35.9655085],[139.0389686,35.965534],[139.0389615,35.9655409],[139.0389239,35.9655154],[139.0386977,35.9653702]]]},"properties":{"layer":"road","class_code":"1040","class_label":"道路"}},{"type":"Feature","id":"tran_b0efc0e4-344f-4714-988f-b528737f9f62","geometry":{"type":"Polygon","coordinates":[[[139.0386704,35.9653601],[139.038672,35.9653571],[139.0386723,35.965353],[139.0386794,35.9653461],[139.0387031,35.9653621],[139.0387046,35.9653631],[139.0386977,35.9653702],[139.0386882,35.9653684],[139.0386827,35.9653687],[139.0386704,35.9653601]]]},"properties":{"layer":"road","class_code":"1040","class_label":"道路"}},{"type":"Feature","id":"tran_d3e68dd9-11eb-4d98-b6f6-769baf8becbb","geometry":{"type":"Polygon","coordinates":[[[139.0400407,35.9650756],[139.0400471,35.965083],[139.0400027,35.9651081],[139.0399576,35.9651325],[139.0399324,35.9651411],[139.039909,35.9651462],[139.039891,35.9651481],[139.0398735,35.9651486],[139.0398553,35.965149],[139.0398352,35.9651473],[139.0397442,35.9651339],[139.0395755,35.9650907],[139.0394101,35.9650457],[139.0392923,35.9650248],[139.0392836,35.9650242],[139.039275,35.965024],[139.0392671,35.9650243],[139.0392602,35.965025],[139.0392537,35.9650271],[139.0392485,35.9650306],[139.0392344,35.965045],[139.0392265,35.9650544],[139.0392115,35.9650769],[139.039205,35.9650898],[139.0391803,35.9651403],[139.0391741,35.9651519],[139.0391678,35.9651592],[139.0391578,35.9651656],[139.0391439,35.9651706],[139.0391203,35.9651732],[139.0390859,35.9651721],[139.0390185,35.9651664],[139.0389442,35.9651579],[139.0388714,35.965153],[139.0388267,35.9651528],[139.0387698,35.9651582],[139.038746,35.9651622],[139.0386829,35.9651781],[139.0386771,35.9651795],[139.038671,35.9651814],[139.0386649,35.9651835],[139.0386591,35.965186],[139.0386534,35.9651887],[139.0386481,35.9651917],[139.0386429,35.965195],[139.038638,35.9651986],[139.0386333,35.9652024],[139.0386291,35.9652063],[139.038625,35.9652106],[139.0386213,35.965215],[139.0386181,35.9652197],[139.038615,35.9652244],[139.0386124,35.9652294],[139.0386111,35.9652325],[139.0386091,35.9652377],[139.0386075,35.9652429],[139.0386064,35.9652481],[139.0386056,35.9652534],[139.0386054,35.9652588],[139.0386054,35.9652641],[139.0386059,35.9652695],[139.0386069,35.9652747],[139.0386082,35.9652799],[139.0386099,35.9652851],[139.038612,35.9652901],[139.0386132,35.9652927],[139.0386258,35.9653076],[139.0386364,35.965317],[139.0386794,35.9653461],[139.0386723,35.965353],[139.0386287,35.9653235],[139.038617,35.9653131],[139.0386034,35.965297],[139.0386016,35.9652933],[139.0385993,35.9652877],[139.0385974,35.965282],[139.0385959,35.9652762],[139.0385949,35.9652704],[139.0385943,35.9652645],[139.0385943,35.9652586],[139.0385946,35.9652527],[139.0385954,35.9652468],[139.0385967,35.965241],[139.0385984,35.9652353],[139.0386006,35.9652297],[139.0386022,35.965226],[139.038605,35.9652206],[139.0386082,35.9652153],[139.038612,35.9652103],[139.038616,35.9652053],[139.0386205,35.9652007],[139.0386252,35.9651962],[139.0386303,35.965192],[139.0386358,35.9651881],[139.0386415,35.9651844],[139.0386475,35.9651811],[139.0386537,35.9651781],[139.0386602,35.9651754],[139.0386669,35.965173],[139.0386737,35.9651709],[139.0386798,35.9651695],[139.0387433,35.9651536],[139.038768,35.9651494],[139.0388262,35.9651438],[139.0388719,35.965144],[139.0389455,35.9651489],[139.0390198,35.9651574],[139.0390866,35.9651632],[139.0391199,35.9651642],[139.0391408,35.9651619],[139.0391521,35.9651578],[139.0391597,35.965153],[139.0391644,35.9651475],[139.03917,35.9651369],[139.0391947,35.9650865],[139.0392015,35.965073],[139.0392171,35.9650497],[139.0392254,35.9650398],[139.0392406,35.9650243],[139.039248,35.9650193],[139.0392575,35.9650162],[139.039266,35.9650154],[139.0392749,35.965015],[139.0392841,35.9650152],[139.039294,35.9650158],[139.0394131,35.9650369],[139.0395789,35.9650822],[139.0397469,35.9651251],[139.0398368,35.9651383],[139.0398558,35.9651399],[139.0398731,35.9651396],[139.0398901,35.9651391],[139.0399067,35.9651374],[139.0399287,35.9651326],[139.0399523,35.9651245],[139.0399965,35.9651006],[139.0400407,35.9650756]]]},"properties":{"layer":"road","class_code":"1040","class_label":"道路"}},{"type":"Feature","id":"tran_dab0e13f-2021-4651-a27e-eed3effafcd6","geometry":{"type":"Polygon","coordinates":[[[139.0384401,35.9660054],[139.0384499,35.9660017],[139.038465,35.9660084],[139.0384587,35.9660176],[139.0384065,35.9660703],[139.0383879,35.9660581],[139.0384401,35.9660054]]]},"properties":{"layer":"road","class_code":"1040","class_label":"道路"}},{"type":"Feature","id":"tran_a3abe1ad-536d-4bb9-bec7-ad7561c16fe5","geometry":{"type":"Polygon","coordinates":[[[139.0389686,35.965534],[139.0390014,35.9655561],[139.0389942,35.9655631],[139.0389847,35.9655647],[139.0389812,35.9655656],[139.0389771,35.965568],[139.0389621,35.9655584],[139.0389635,35.9655536],[139.0389642,35.9655497],[139.0389628,35.965544],[139.0389615,35.9655409],[139.0389686,35.965534]]]},"properties":{"layer":"road","class_code":"1040","class_label":"道路"}},{"type":"Feature","id":"tran_ffc4c35c-2e5f-499b-af56-e521d3f7db5c","geometry":{"type":"Polygon","coordinates":[[[139.0384587,35.9660176],[139.0384666,35.9660228],[139.0385546,35.9660717],[139.0386464,35.966116],[139.0386585,35.9661213],[139.0387538,35.9661603],[139.0388098,35.9661803],[139.0388188,35.9661835],[139.0387865,35.9662457],[139.0387766,35.9662423],[139.0387183,35.9662214],[139.0386199,35.9661812],[139.0386052,35.9661747],[139.03851,35.9661287],[139.0384169,35.9660771],[139.0384065,35.9660703],[139.0384587,35.9660176]]]},"properties":{"layer":"road","class_code":"1040","class_label":"道路"}},{"type":"Feature","id":"tran_c2f44dee-8f10-4a37-beac-a00985d47eda","geometry":{"type":"Polygon","coordinates":[[[139.0422439,35.9664312],[139.0422214,35.9664493],[139.0421897,35.9664411],[139.0421367,35.9664169],[139.0420902,35.9663937],[139.042019,35.9663545],[139.0419844,35.966334],[139.0419686,35.9663241],[139.0419408,35.9662993],[139.0419326,35.9662937],[139.0419241,35.9662906],[139.0419149,35.9662901],[139.0419086,35.9662908],[139.0418971,35.9662937],[139.0418888,35.9662975],[139.0418861,35.9663001],[139.041884,35.9663052],[139.0418842,35.9663128],[139.0418901,35.9663398],[139.0419004,35.9663898],[139.0419056,35.9664252],[139.0419103,35.9664672],[139.0419168,35.9665443],[139.0419185,35.9665717],[139.0419181,35.9665795],[139.0419156,35.9665886],[139.0419102,35.9665983],[139.0418978,35.9666149],[139.0418694,35.9666009],[139.0418807,35.9665857],[139.0418838,35.9665799],[139.041885,35.9665759],[139.0418852,35.9665718],[139.0418836,35.9665459],[139.0418771,35.9664693],[139.0418726,35.9664281],[139.0418674,35.9663936],[139.0418574,35.9663444],[139.041851,35.9663155],[139.0418506,35.9663011],[139.0418567,35.9662863],[139.0418675,35.9662763],[139.0418838,35.9662688],[139.0419012,35.9662644],[139.0419137,35.9662629],[139.0419324,35.966264],[139.0419504,35.9662706],[139.041973,35.966286],[139.0420384,35.9663406],[139.0421783,35.9664107],[139.0422439,35.9664312]]]},"properties":{"layer":"road","class_code":"1040","class_label":"道路"}},{"type":"Feature","id":"tran_c2b889ef-f0a2-4e12-9df8-26379ff9c581","geometry":{"type":"Polygon","coordinates":[[[139.0418233,35.9666326],[139.0418261,35.9666286],[139.0418274,35.966625],[139.0418282,35.9666196],[139.0418283,35.9666149],[139.0418276,35.9666099],[139.0418262,35.9666054],[139.0418446,35.9665901],[139.0418584,35.9665968],[139.0418694,35.9666009],[139.0418978,35.9666149],[139.0418928,35.9666216],[139.041882,35.9666335],[139.0418741,35.96664],[139.041857,35.9666511],[139.0418233,35.9666326]]]},"properties":{"layer":"road","class_code":"1040","class_label":"道路"}},{"type":"Feature","id":"tran_25902633-b56b-468f-9eef-bb07d5b33375","geometry":{"type":"Polygon","coordinates":[[[139.0416407,35.9661837],[139.0416582,35.9661948],[139.041602,35.9662538],[139.0415359,35.9663004],[139.0414967,35.9663322],[139.0414885,35.9663429],[139.0414859,35.9663499],[139.0414854,35.9663557],[139.0414861,35.9663626],[139.0414885,35.9663703],[139.0414941,35.9663784],[139.0415055,35.9663889],[139.0415883,35.9664429],[139.0417175,35.9665178],[139.0418285,35.9665823],[139.0418446,35.9665901],[139.0418262,35.9666054],[139.0418156,35.9665969],[139.0417046,35.9665325],[139.041575,35.9664573],[139.0414902,35.9664021],[139.0414758,35.9663889],[139.0414677,35.966377],[139.0414643,35.9663656],[139.0414631,35.9663558],[139.041464,35.9663465],[139.0414682,35.9663353],[139.0414792,35.9663209],[139.0415207,35.9662871],[139.0415858,35.9662414],[139.0416407,35.9661837]]]},"properties":{"layer":"road","class_code":"1040","class_label":"道路"}},{"type":"Feature","id":"tran_cbff099b-e7be-408f-bc7f-7751db4544d0","geometry":{"type":"Polygon","coordinates":[[[139.0412113,35.9666136],[139.0412441,35.9666302],[139.0412803,35.9666448],[139.0412374,35.966701],[139.0412069,35.9667222],[139.0411982,35.966715],[139.0411905,35.9667076],[139.0411835,35.9666976],[139.041179,35.9666906],[139.0411703,35.9666672],[139.0412113,35.9666136]]]},"properties":{"layer":"road","class_code":"1040","class_label":"道路"}},{"type":"Feature","id":"tran_e11209f9-3cae-4741-9fc6-4261ded91825","geometry":{"type":"Polygon","coordinates":[[[139.040559,35.9663333],[139.0405842,35.9663402],[139.0407108,35.9663788],[139.0408562,35.9664394],[139.0410467,35.9665305],[139.0412113,35.9666136],[139.0411703,35.9666672],[139.0410066,35.9665845],[139.0408188,35.9664948],[139.0406794,35.9664366],[139.0405582,35.9663996],[139.0405342,35.9663931],[139.040559,35.9663333]]]},"properties":{"layer":"road","class_code":"1040","class_label":"道路"}},{"type":"Feature","id":"tran_4c69e682-c9ae-421b-b987-f821c58ac294","geometry":{"type":"Polygon","coordinates":[[[139.0405014,35.9663841],[139.0405262,35.9663243],[139.040559,35.9663333],[139.0405342,35.9663931],[139.0405306,35.9663942],[139.0405289,35.9663961],[139.040527,35.9663989],[139.0405031,35.9663942],[139.0405037,35.9663877],[139.0405014,35.9663841]]]},"properties":{"layer":"road","class_code":"1040","class_label":"道路"}},{"type":"Feature","id":"tran_23a7e322-ef13-4669-bff6-de15b7b447b9","geometry":{"type":"Polygon","coordinates":[[[139.0404526,35.9663119],[139.0404577,35.9663122],[139.0404793,35.9663137],[139.0405076,35.9663192],[139.0405262,35.9663243],[139.0405014,35.9663841],[139.0404862,35.9663799],[139.0404669,35.9663762],[139.0404508,35.9663751],[139.0404452,35.9663747],[139.0404526,35.9663119]]]},"properties":{"layer":"road","class_code":"1040","class_label":"道路"}},{"type":"Feature","id":"tran_cb404fed-1e97-450e-b6d3-30e36e90a729","geometry":{"type":"Polygon","coordinates":[[[139.0404226,35.9665826],[139.0404763,35.9664574],[139.0405031,35.9663942],[139.040527,35.9663989],[139.0404995,35.9664639],[139.0404458,35.9665891],[139.0404226,35.9665826]]]},"properties":{"layer":"road","class_code":"1040","class_label":"道路"}},{"type":"Feature","id":"tran_c97443c7-9c46-4a7a-923b-c2db06a63966","geometry":{"type":"Polygon","coordinates":[[[139.040371,35.9663058],[139.0403866,35.9662974],[139.040395,35.9662923],[139.0404018,35.9662864],[139.0404092,35.9662799],[139.0404439,35.9662819],[139.0404432,35.9662899],[139.0404427,35.9662985],[139.0404434,35.9663038],[139.0404457,35.9663078],[139.0404526,35.9663119],[139.0404452,35.9663747],[139.0403667,35.9663688],[139.040371,35.9663058]]]},"properties":{"layer":"road","class_code":"1040","class_label":"道路"}},{"type":"Feature","id":"tran_f4ffee27-e980-449a-9a91-105cd6a2114c","geometry":{"type":"Polygon","coordinates":[[[139.0403005,35.966301],[139.0403668,35.9663055],[139.040371,35.9663058],[139.0403667,35.9663688],[139.0403577,35.9663713],[139.040353,35.9663738],[139.0403489,35.9663771],[139.0403453,35.9663813],[139.0403043,35.9663815],[139.0403041,35.9663759],[139.040303,35.9663713],[139.0403012,35.9663681],[139.040294,35.9663639],[139.0403005,35.966301]]]},"properties":{"layer":"road","class_code":"1040","class_label":"道路"}},{"type":"Feature","id":"tran_745d24ee-2393-483a-8b59-9a343d7febc4","geometry":{"type":"Polygon","coordinates":[[[139.0402269,35.9665855],[139.0402451,35.9665596],[139.0402533,35.966546],[139.0402604,35.9665305],[139.0403043,35.9663815],[139.0403453,35.9663813],[139.0403268,35.9664152],[139.0402905,35.9665379],[139.0402823,35.9665561],[139.0402729,35.9665716],[139.0402541,35.9665982],[139.0402269,35.9665855]]]},"properties":{"layer":"road","class_code":"1040","class_label":"道路"}},{"type":"Feature","id":"tran_858b3a0f-7f98-42b4-9af6-abe03a5a9ae8","geometry":{"type":"Polygon","coordinates":[[[139.0406106,35.9657828],[139.0405978,35.9658028],[139.0404638,35.9657462],[139.0404021,35.965722],[139.0403914,35.9657203],[139.0403793,35.9657183],[139.0403649,35.9657175],[139.0402985,35.9657168],[139.040288,35.9657168],[139.0402803,35.9657177],[139.0402694,35.9657195],[139.0401615,35.965756],[139.0401195,35.9657717],[139.0400956,35.965783],[139.0400907,35.9657864],[139.0400858,35.9657952],[139.0400831,35.9658011],[139.0400822,35.9658058],[139.0400818,35.9658155],[139.0400819,35.9658248],[139.0400834,35.9658346],[139.0400851,35.965842],[139.0400882,35.9658484],[139.040098,35.9658634],[139.0401632,35.9659371],[139.0401953,35.9659675],[139.0402863,35.9660441],[139.0403322,35.9660882],[139.040381,35.9661412],[139.0404283,35.9661893],[139.040436,35.9662002],[139.0404421,35.9662104],[139.0404447,35.9662196],[139.0404474,35.9662278],[139.0404478,35.9662399],[139.0404455,35.9662637],[139.0404439,35.9662819],[139.0404092,35.9662799],[139.0404179,35.9662618],[139.0404201,35.9662394],[139.0404198,35.9662311],[139.0404178,35.9662249],[139.0404159,35.9662179],[139.0404117,35.9662107],[139.0404053,35.966202],[139.0403591,35.966155],[139.0403105,35.9661022],[139.0402656,35.9660592],[139.0401748,35.9659827],[139.0401414,35.965951],[139.0400744,35.9658753],[139.040063,35.9658579],[139.0400583,35.9658483],[139.0400559,35.9658379],[139.0400543,35.9658263],[139.0400541,35.9658153],[139.0400545,35.9658035],[139.0400563,35.9657953],[139.0400601,35.9657868],[139.0400679,35.9657727],[139.0400794,35.9657646],[139.0401067,35.9657517],[139.0401504,35.9657354],[139.0402613,35.9656978],[139.0402756,35.9656955],[139.040286,35.9656943],[139.0402987,35.9656943],[139.040366,35.965695],[139.040383,35.965696],[139.0403968,35.9656982],[139.040411,35.9657005],[139.0404762,35.965726],[139.0406106,35.9657828]]]},"properties":{"layer":"road","class_code":"1040","class_label":"道路"}},{"type":"Feature","id":"tran_323dca9a-1620-40f1-9989-b545fc3acda6","geometry":{"type":"Polygon","coordinates":[[[139.0389942,35.9655631],[139.0390014,35.9655561],[139.0390437,35.9655847],[139.0390484,35.9655927],[139.0390506,35.9656006],[139.0390291,35.9656729],[139.0390264,35.9656855],[139.039025,35.9656985],[139.0390239,35.9657111],[139.0390243,35.9657199],[139.0390264,35.9657271],[139.0390533,35.9657632],[139.0390584,35.9657688],[139.0390633,35.9657759],[139.0390647,35.9657814],[139.0390651,35.9657877],[139.0390639,35.9657944],[139.0390484,35.9658114],[139.0390393,35.9658199],[139.0390291,35.9658272],[139.0390125,35.9658359],[139.0389892,35.9658454],[139.0389803,35.9658478],[139.0389743,35.9658503],[139.0389712,35.965852],[139.03897,35.965854],[139.0389672,35.9658609],[139.0389215,35.9659866],[139.0388551,35.9661401],[139.038829,35.966187],[139.0388188,35.9661835],[139.0388448,35.9661368],[139.0389109,35.9659839],[139.0389566,35.9658582],[139.0389598,35.9658505],[139.0389626,35.9658459],[139.0389686,35.9658426],[139.0389758,35.9658394],[139.038985,35.9658371],[139.039007,35.9658281],[139.0390224,35.96582],[139.0390314,35.9658135],[139.0390397,35.9658057],[139.0390534,35.9657909],[139.039054,35.9657873],[139.0390536,35.9657826],[139.0390527,35.9657791],[139.039049,35.9657737],[139.0390441,35.9657682],[139.0390161,35.9657307],[139.0390133,35.9657212],[139.0390127,35.9657109],[139.039014,35.9656978],[139.0390154,35.9656843],[139.0390182,35.965671],[139.0390392,35.9656006],[139.0390378,35.9655956],[139.0390348,35.9655904],[139.0389942,35.9655631]]]},"properties":{"layer":"road","class_code":"1040","class_label":"道路"}},{"type":"Feature","id":"tran_5c74464b-4e4f-4827-8c51-e71b5a79d021","geometry":{"type":"Polygon","coordinates":[[[139.0389537,35.9655676],[139.0389621,35.9655584],[139.0389771,35.965568],[139.0389643,35.965578],[139.0388838,35.9656315],[139.0388557,35.9656535],[139.0388425,35.9656651],[139.0388298,35.9656773],[139.0387733,35.9657353],[139.0387273,35.9657724],[139.0386752,35.9658108],[139.038614,35.9658561],[139.0385486,35.9658997],[139.038537,35.965909],[139.0385295,35.9659167],[139.0385233,35.965926],[139.0385168,35.9659356],[139.038468,35.966004],[139.038465,35.9660084],[139.0384499,35.9660017],[139.0384536,35.9659972],[139.0385023,35.9659291],[139.0385086,35.9659195],[139.0385156,35.9659092],[139.0385246,35.9658999],[139.0385375,35.9658896],[139.0386031,35.9658458],[139.038664,35.9658008],[139.0387158,35.9657626],[139.0387609,35.9657263],[139.0388169,35.9656687],[139.0388301,35.9656562],[139.0388439,35.9656441],[139.0388727,35.9656215],[139.0389537,35.9655676]]]},"properties":{"layer":"road","class_code":"1040","class_label":"道路"}},{"type":"Feature","id":"tran_39e4147a-6557-4c12-8039-d6d9821f6bd4","geometry":{"type":"Polygon","coordinates":[[[139.0372983,35.9656916],[139.0373463,35.9656961],[139.0375031,35.965717],[139.0377709,35.9657404],[139.0379585,35.9657637],[139.0379997,35.9657713],[139.0380585,35.9657865],[139.0381036,35.9658071],[139.0381507,35.9658325],[139.0381761,35.9658479],[139.0382388,35.9658693],[139.0382852,35.9659024],[139.0383596,35.9659526],[139.0384401,35.9660054],[139.0383879,35.9660581],[139.0383074,35.9660052],[139.0382312,35.9659538],[139.038187,35.9659221],[139.0381423,35.9658958],[139.0381276,35.9658884],[139.0380792,35.965867],[139.0380297,35.9658499],[139.0379857,35.9658361],[139.0379439,35.9658257],[139.0377609,35.965803],[139.0374926,35.9657796],[139.0373355,35.9657585],[139.0372894,35.9657542],[139.0372983,35.9656916]]]},"properties":{"layer":"road","class_code":"1040","class_label":"道路"}},{"type":"Feature","id":"tran_7273951b-10a1-4494-a791-46e623ca520a","geometry":{"type":"Polygon","coordinates":[[[139.0443331,35.9667709],[139.044345,35.9667478],[139.044376,35.9666935],[139.044437,35.9665884],[139.0444571,35.9665479],[139.0444612,35.9665437],[139.0444642,35.9665426],[139.0444708,35.9665422],[139.044487,35.966545],[139.0445121,35.9665519],[139.0445639,35.9665684],[139.0445795,35.966574],[139.0445823,35.9665758],[139.0445836,35.9665791],[139.0445872,35.966597],[139.0445924,35.966616],[139.0446113,35.9666785],[139.0445748,35.9666897],[139.0445546,35.9666232],[139.04455,35.9666062],[139.0445498,35.9666044],[139.0445494,35.9666026],[139.0445486,35.9666009],[139.0445476,35.9665993],[139.0445462,35.9665979],[139.0445447,35.9665966],[139.0445429,35.9665955],[139.0445409,35.9665946],[139.0445388,35.966594],[139.0445367,35.9665936],[139.0444989,35.9665816],[139.0444968,35.9665817],[139.0444947,35.966582],[139.0444926,35.9665823],[139.0444906,35.9665827],[139.0444886,35.9665833],[139.0444866,35.9665839],[139.0444847,35.9665847],[139.0444828,35.9665855],[139.044481,35.9665864],[139.0444793,35.9665874],[139.0444726,35.966601],[139.0444112,35.9667069],[139.0443805,35.9667605],[139.0443688,35.9667831],[139.0443331,35.9667709]]]},"properties":{"layer":"road","class_code":"1040","class_label":"道路"}}]}