{"type":"FeatureCollection","properties":{"mesh_code":"53397066","source":"PLATEAU秩父市2025","layer":"road"},"features":[{"type":"Feature","id":"tran_6e4ca01a-f904-4282-a7de-650e0691f10d","geometry":{"type":"Polygon","coordinates":[[[139.0750034,35.9746406],[139.0750048,35.9746389],[139.0750232,35.9746149],[139.0750404,35.9745837],[139.0750535,35.9745428],[139.0750599,35.9745451],[139.0750964,35.9744968],[139.0751365,35.9744498],[139.0751933,35.9743871],[139.075225,35.9744068],[139.0752155,35.974416],[139.0751963,35.9744361],[139.0751467,35.9744855],[139.0751286,35.9745057],[139.0751018,35.9745421],[139.075092,35.9745566],[139.0750876,35.9745687],[139.0750821,35.9745833],[139.0750735,35.9746063],[139.0750575,35.9746355],[139.0750399,35.9746596],[139.0750034,35.9746406]]]},"properties":{"layer":"road","class_code":"1040","class_label":"道路"}},{"type":"Feature","id":"tran_c57df82f-6a16-4418-8374-b52512919e40","geometry":{"type":"Polygon","coordinates":[[[139.0829696,35.9734469],[139.0829967,35.9734801],[139.0830249,35.9734969],[139.0830582,35.9735103],[139.0831743,35.9735555],[139.0832725,35.9735903],[139.08342,35.973668],[139.0834551,35.9737047],[139.0834744,35.9737558],[139.0834828,35.9738091],[139.0834816,35.9738655],[139.0834615,35.9739511],[139.0834387,35.9739949],[139.0834286,35.9740088],[139.0834284,35.9740229],[139.0834018,35.9740101],[139.0834188,35.9739868],[139.0834401,35.9739459],[139.0834594,35.9738636],[139.0834606,35.97381],[139.0834526,35.9737596],[139.083435,35.9737132],[139.0834048,35.9736815],[139.0832621,35.9736062],[139.083165,35.9735719],[139.0830485,35.9735265],[139.0830133,35.9735124],[139.0829804,35.9734927],[139.0829511,35.9734569],[139.0829696,35.9734469]]]},"properties":{"layer":"road","class_code":"1040","class_label":"道路"}},{"type":"Feature","id":"tran_a0236dce-f3f6-49a8-8832-12564ffdd0b8","geometry":{"type":"Polygon","coordinates":[[[139.0838503,35.9741193],[139.0838959,35.9741159],[139.0839342,35.9741307],[139.0842389,35.9740835],[139.0843155,35.9740746],[139.0843538,35.974111],[139.0842472,35.9741235],[139.0839384,35.9741714],[139.0839245,35.9741718],[139.0838628,35.9741481],[139.0838503,35.9741193]]]},"properties":{"layer":"road","class_code":"1040","class_label":"道路"}},{"type":"Feature","id":"tran_220b9a21-0b27-463c-aa9d-3ce7309e0737","geometry":{"type":"Polygon","coordinates":[[[139.0773419,35.9748794],[139.0773567,35.9748769],[139.0773662,35.9748735],[139.0773879,35.9748856],[139.0773468,35.9749346],[139.0773271,35.9749237],[139.0773266,35.9749203],[139.0773251,35.9749172],[139.0773236,35.974914],[139.0773207,35.9749122],[139.0773419,35.9748794]]]},"properties":{"layer":"road","class_code":"1040","class_label":"道路"}},{"type":"Feature","id":"tran_997ad0a1-6b40-4913-9980-883fb5be1cc2","geometry":{"type":"Polygon","coordinates":[[[139.075215,35.9743495],[139.0752316,35.9743442],[139.0752662,35.9743637],[139.0752679,35.9743787],[139.0752436,35.9744013],[139.075225,35.9744068],[139.0751933,35.9743871],[139.0751893,35.9743668],[139.075215,35.9743495]]]},"properties":{"layer":"road","class_code":"1040","class_label":"道路"}},{"type":"Feature","id":"tran_92b47e05-1dd9-47bb-aba4-9f6e636b46d2","geometry":{"type":"Polygon","coordinates":[[[139.0754119,35.9749092],[139.0754194,35.9748845],[139.0754248,35.9748856],[139.0754426,35.9748881],[139.0754448,35.9748884],[139.0754652,35.9748905],[139.0754635,35.9749149],[139.0754469,35.9749136],[139.0754423,35.9749131],[139.0754227,35.9749108],[139.0754119,35.9749092]]]},"properties":{"layer":"road","class_code":"1040","class_label":"道路"}},{"type":"Feature","id":"tran_2875836c-c846-442a-8a67-a44f401f7b43","geometry":{"type":"Polygon","coordinates":[[[139.0835933,35.9721712],[139.0836062,35.9721858],[139.0835385,35.9722255],[139.0834687,35.9722697],[139.0833966,35.9723272],[139.0833219,35.9723968],[139.0832299,35.9724841],[139.0831847,35.9725269],[139.0831685,35.9725145],[139.083213,35.9724724],[139.0833052,35.9723851],[139.0833804,35.9723148],[139.0834541,35.972256],[139.0835252,35.9722111],[139.0835933,35.9721712]]]},"properties":{"layer":"road","class_code":"1040","class_label":"道路"}},{"type":"Feature","id":"tran_e958c169-bb2b-4dbe-8acc-ef00aa8b2e23","geometry":{"type":"Polygon","coordinates":[[[139.0773893,35.9748488],[139.0774064,35.9748276],[139.0774256,35.9747885],[139.077471,35.9747877],[139.0774585,35.9748026],[139.0774271,35.9748398],[139.0774025,35.9748682],[139.0773879,35.9748856],[139.0773662,35.9748735],[139.0773716,35.9748686],[139.0773893,35.9748488]]]},"properties":{"layer":"road","class_code":"1040","class_label":"道路"}},{"type":"Feature","id":"tran_a04157fe-a5b2-4c50-b2ec-7f63d1dc5448","geometry":{"type":"Polygon","coordinates":[[[139.082694,35.9747557],[139.0827192,35.9747689],[139.0827029,35.9747907],[139.0826806,35.9748287],[139.0826776,35.9748405],[139.0826773,35.9748487],[139.0826777,35.9748558],[139.0826815,35.974869],[139.0826878,35.9748853],[139.082701,35.9749083],[139.0827127,35.9749249],[139.0827242,35.9749379],[139.082734,35.9749493],[139.0827499,35.9749647],[139.0827586,35.9749729],[139.0827617,35.9749755],[139.0827492,35.9749964],[139.0827442,35.9749931],[139.0827298,35.9749816],[139.0827105,35.9749645],[139.0826998,35.974952],[139.0826875,35.974938],[139.0826744,35.9749195],[139.0826598,35.9748941],[139.0826525,35.9748754],[139.0826478,35.9748587],[139.0826472,35.9748494],[139.0826476,35.9748381],[139.0826514,35.9748227],[139.0826773,35.9747782],[139.082694,35.9747557]]]},"properties":{"layer":"road","class_code":"1040","class_label":"道路"}},{"type":"Feature","id":"tran_39732c96-6e18-4054-a11c-df69c2ba86ed","geometry":{"type":"Polygon","coordinates":[[[139.0753841,35.9749077],[139.0754047,35.9749117],[139.0753996,35.9749219],[139.0753762,35.9749628],[139.0753578,35.9749566],[139.0753733,35.9749286],[139.0753841,35.9749077]]]},"properties":{"layer":"road","class_code":"1040","class_label":"道路"}},{"type":"Feature","id":"tran_3fda1b17-1066-4603-bbff-875de6f57adf","geometry":{"type":"Polygon","coordinates":[[[139.0772217,35.9750386],[139.0773234,35.9749294],[139.077326,35.9749262],[139.0773271,35.9749237],[139.0773468,35.9749346],[139.0773371,35.9749462],[139.0772543,35.9750482],[139.0772535,35.9750538],[139.0772217,35.9750386]]]},"properties":{"layer":"road","class_code":"1040","class_label":"道路"}},{"type":"Feature","id":"tran_d135c084-968a-4185-b64d-75deeb0a532c","geometry":{"type":"Polygon","coordinates":[[[139.0753913,35.9748777],[139.0754085,35.9748824],[139.0754194,35.9748845],[139.0754119,35.9749092],[139.0754078,35.97491],[139.0754047,35.9749117],[139.0753841,35.9749077],[139.0753849,35.9749042],[139.0753822,35.9749003],[139.0753913,35.9748777]]]},"properties":{"layer":"road","class_code":"1040","class_label":"道路"}},{"type":"Feature","id":"tran_35820602-65f4-4c2a-a17a-9a5d8a53c574","geometry":{"type":"Polygon","coordinates":[[[139.0770935,35.9748548],[139.0771018,35.9748366],[139.0771386,35.9748468],[139.0771654,35.9748542],[139.0771999,35.9748611],[139.0772364,35.9748666],[139.0772985,35.9748781],[139.0773217,35.9748799],[139.0773419,35.9748794],[139.0773207,35.9749122],[139.0773089,35.9749081],[139.0772574,35.9748992],[139.0771975,35.9748867],[139.0771535,35.9748744],[139.0770935,35.9748548]]]},"properties":{"layer":"road","class_code":"1040","class_label":"道路"}},{"type":"Feature","id":"tran_40c2535f-ad10-4271-9b08-ca9f77318c2f","geometry":{"type":"Polygon","coordinates":[[[139.0831631,35.9725476],[139.0831847,35.9725269],[139.0832039,35.9725404],[139.0832541,35.9725622],[139.0832894,35.9725821],[139.0833112,35.9725959],[139.0833632,35.9726356],[139.0833856,35.9726541],[139.0834243,35.9726918],[139.08344,35.9727213],[139.0834537,35.97277],[139.0834573,35.972858],[139.083459,35.9728868],[139.0834642,35.9729097],[139.0834748,35.9729284],[139.0835032,35.9729667],[139.0835618,35.9730294],[139.0836078,35.9730807],[139.0836473,35.9731239],[139.0836875,35.9731727],[139.0837311,35.9732381],[139.0837564,35.973276],[139.083773,35.9732957],[139.0837896,35.9733086],[139.083829,35.9733321],[139.0838989,35.9733667],[139.0839362,35.9733931],[139.0839701,35.9734349],[139.0840152,35.973528],[139.0840269,35.9735913],[139.0840314,35.9736386],[139.0840394,35.9736756],[139.0840458,35.9737101],[139.0840533,35.97374],[139.0840713,35.9737875],[139.0841026,35.9738372],[139.0841645,35.9739191],[139.0842143,35.9739614],[139.0842696,35.9740011],[139.0842886,35.9740172],[139.0843487,35.9740628],[139.0843155,35.9740746],[139.0842652,35.9740364],[139.0842465,35.9740207],[139.0841912,35.9739808],[139.084138,35.9739357],[139.0840735,35.9738504],[139.0840403,35.9737978],[139.0840209,35.9737466],[139.084013,35.9737148],[139.0840067,35.9736799],[139.0839983,35.9736421],[139.0839939,35.9735943],[139.0839829,35.973535],[139.0839404,35.9734475],[139.083911,35.973411],[139.0838792,35.9733887],[139.0838105,35.9733546],[139.0837681,35.9733294],[139.0837475,35.9733132],[139.083728,35.9732901],[139.0837019,35.9732509],[139.083659,35.9731867],[139.0836202,35.9731395],[139.083581,35.9730968],[139.083535,35.9730456],[139.0834756,35.9729819],[139.0834453,35.9729411],[139.0834323,35.972918],[139.0834259,35.9728899],[139.0834241,35.9728592],[139.0834206,35.9727735],[139.0834082,35.9727298],[139.0833956,35.9727061],[139.0833609,35.9726722],[139.08334,35.9726551],[139.0832895,35.9726165],[139.0832697,35.9726039],[139.0832367,35.9725853],[139.0831851,35.9725628],[139.0831631,35.9725476]]]},"properties":{"layer":"road","class_code":"1040","class_label":"道路"}},{"type":"Feature","id":"tran_344d02f2-fb21-4997-8e65-df7c7ab47561","geometry":{"type":"Polygon","coordinates":[[[139.076755,35.9745002],[139.0768207,35.9745215],[139.0768976,35.974546],[139.0769497,35.9745729],[139.0769834,35.9745873],[139.0770549,35.9746154],[139.0770817,35.9746266],[139.0771014,35.9746341],[139.0771949,35.974665],[139.0772404,35.9746818],[139.0773099,35.9747079],[139.077349,35.9747134],[139.0773529,35.9747138],[139.0773396,35.9747408],[139.0772994,35.9747277],[139.0772186,35.9746983],[139.0771946,35.9746896],[139.0770722,35.9746448],[139.0770594,35.9746406],[139.0770391,35.974634],[139.077036,35.974633],[139.0770083,35.9746189],[139.076933,35.9745855],[139.0768815,35.9745602],[139.0768239,35.974541],[139.0768132,35.9745376],[139.0768024,35.9745351],[139.0767765,35.9745298],[139.0767639,35.9745273],[139.0767512,35.974525],[139.076755,35.9745002]]]},"properties":{"layer":"road","class_code":"1040","class_label":"道路"}},{"type":"Feature","id":"tran_bd0bbd66-5197-4b31-95b3-5ee74b32a4a2","geometry":{"type":"Polygon","coordinates":[[[139.0827492,35.9749964],[139.0827617,35.9749755],[139.0827651,35.974977],[139.0827679,35.974977],[139.0827699,35.9749763],[139.0827741,35.9749725],[139.0828097,35.9749814],[139.0828036,35.9749976],[139.0827968,35.9750158],[139.0827954,35.97502],[139.0827528,35.9750108],[139.0827539,35.9750056],[139.0827525,35.9750009],[139.0827492,35.9749964]]]},"properties":{"layer":"road","class_code":"1040","class_label":"道路"}},{"type":"Feature","id":"tran_3b762ba4-70b7-4dd7-91d0-9304b97a51fc","geometry":{"type":"Polygon","coordinates":[[[139.0835978,35.974101],[139.0836061,35.974061],[139.0836134,35.9740625],[139.0837253,35.9740926],[139.0837348,35.9740914],[139.0838298,35.9740716],[139.0838286,35.9741137],[139.0837446,35.9741312],[139.0837253,35.9741335],[139.0837138,35.9741322],[139.0835978,35.974101]]]},"properties":{"layer":"road","class_code":"1040","class_label":"道路"}},{"type":"Feature","id":"tran_b6803a26-cb8c-423c-b411-729f430f40e8","geometry":{"type":"Polygon","coordinates":[[[139.0834357,35.9740317],[139.0834495,35.9740371],[139.0834805,35.9740436],[139.0834721,35.9740835],[139.0834154,35.9740756],[139.0834094,35.9740759],[139.0834357,35.9740317]]]},"properties":{"layer":"road","class_code":"1040","class_label":"道路"}},{"type":"Feature","id":"tran_c0dd4543-655f-4d8c-a300-cedfe6593c52","geometry":{"type":"Polygon","coordinates":[[[139.0756544,35.9751692],[139.0757026,35.9751069],[139.0758032,35.9749934],[139.075873,35.9749225],[139.0759362,35.9748122],[139.0759625,35.9747383],[139.0759972,35.9747381],[139.0759674,35.9748218],[139.0759014,35.9749369],[139.0758297,35.9750098],[139.0757302,35.975122],[139.0756826,35.9751836],[139.0756544,35.9751692]]]},"properties":{"layer":"road","class_code":"1040","class_label":"道路"}},{"type":"Feature","id":"tran_06ee7f94-6124-4e22-8cef-672dcfd7bec5","geometry":{"type":"Polygon","coordinates":[[[139.0754255,35.9744624],[139.0754276,35.9744635],[139.0754465,35.974474],[139.0754564,35.9744793],[139.0754984,35.9745019],[139.0754655,35.9745349],[139.075453,35.9745267],[139.0754461,35.9745226],[139.0754449,35.9745219],[139.0753974,35.974494],[139.0754255,35.9744624]]]},"properties":{"layer":"road","class_code":"1040","class_label":"道路"}},{"type":"Feature","id":"tran_535f8523-dad7-4f78-aabd-95485ff80c12","geometry":{"type":"Polygon","coordinates":[[[139.0831559,35.9725036],[139.0831685,35.9725145],[139.0831443,35.9725331],[139.0831317,35.9725223],[139.0831559,35.9725036]]]},"properties":{"layer":"road","class_code":"1040","class_label":"道路"}},{"type":"Feature","id":"tran_37ce6b40-b346-4e7c-bdda-f1f2a02ef8e4","geometry":{"type":"Polygon","coordinates":[[[139.0767123,35.9745075],[139.0767529,35.9744996],[139.076755,35.9745002],[139.0767512,35.974525],[139.0767453,35.9745245],[139.07673,35.9745252],[139.0767252,35.9745257],[139.0767214,35.9745264],[139.0767096,35.9745157],[139.0767114,35.9745144],[139.0767124,35.9745129],[139.0767129,35.9745106],[139.0767129,35.9745089],[139.0767123,35.9745075]]]},"properties":{"layer":"road","class_code":"1040","class_label":"道路"}},{"type":"Feature","id":"tran_911efe72-6ca7-4eae-903b-fcd51abf9027","geometry":{"type":"Polygon","coordinates":[[[139.0763658,35.9746568],[139.0763706,35.9746549],[139.0764355,35.9746302],[139.0764594,35.9746227],[139.0764746,35.9746225],[139.0765616,35.9745978],[139.0765848,35.9745898],[139.0766293,35.9745647],[139.0766984,35.9745225],[139.0767096,35.9745157],[139.0767214,35.9745264],[139.0766851,35.9745454],[139.076591,35.9745983],[139.0765812,35.9746041],[139.076556,35.9746138],[139.0764348,35.9746555],[139.0764139,35.974662],[139.0764118,35.9746636],[139.0763658,35.9746568]]]},"properties":{"layer":"road","class_code":"1040","class_label":"道路"}},{"type":"Feature","id":"tran_d4c3edbe-b4b2-4253-8066-db2d5a8ca74d","geometry":{"type":"Polygon","coordinates":[[[139.0764093,35.9746675],[139.0766107,35.9747638],[139.0766501,35.9747826],[139.0768102,35.9748593],[139.0769133,35.9749053],[139.0770721,35.9749849],[139.0770846,35.9749905],[139.0770631,35.9750222],[139.0770408,35.9750112],[139.0769661,35.9749739],[139.0769369,35.9749592],[139.0769101,35.9749462],[139.0768846,35.9749338],[139.076884,35.9749334],[139.0768625,35.9749233],[139.076833,35.9749091],[139.0768167,35.9749013],[139.0768127,35.9748992],[139.0767728,35.974879],[139.0767679,35.9748764],[139.0766727,35.9748317],[139.0766601,35.9748256],[139.0766526,35.9748221],[139.0766519,35.9748229],[139.0766445,35.974819],[139.076645,35.9748183],[139.0766339,35.9748126],[139.0765912,35.9747903],[139.0765674,35.974778],[139.0765501,35.974769],[139.0765319,35.9747598],[139.0765194,35.9747535],[139.0764861,35.9747371],[139.07646,35.974727],[139.0764153,35.9747129],[139.0763812,35.9747034],[139.0763583,35.9746992],[139.0764093,35.9746675]]]},"properties":{"layer":"road","class_code":"1040","class_label":"道路"}},{"type":"Feature","id":"tran_2e057493-72d6-4834-8f14-26727a00cb00","geometry":{"type":"Polygon","coordinates":[[[139.0827741,35.9749725],[139.0827799,35.9749562],[139.0827861,35.9749381],[139.082794,35.9749185],[139.0828039,35.9748987],[139.0828233,35.974873],[139.0828469,35.9748443],[139.0828874,35.974795],[139.0829501,35.9747467],[139.082981,35.9747346],[139.0829864,35.9747314],[139.0829948,35.9747213],[139.0830255,35.9746664],[139.0830687,35.9745928],[139.0831202,35.9745058],[139.0831231,35.9745002],[139.083132,35.9744743],[139.0831366,35.9744239],[139.0831479,35.9743836],[139.0831729,35.9743397],[139.0832204,35.9742637],[139.0832762,35.9741829],[139.0833536,35.9740764],[139.0833775,35.9740878],[139.0833002,35.9741941],[139.0832449,35.9742743],[139.0831979,35.9743496],[139.0831742,35.9743909],[139.083164,35.9744272],[139.0831594,35.9744783],[139.0831476,35.9745126],[139.0830931,35.9746142],[139.0830596,35.9746736],[139.0830314,35.9747241],[139.0830208,35.9747377],[139.0830084,35.9747491],[139.0829986,35.9747572],[139.0829556,35.9747852],[139.0829525,35.9747872],[139.0829178,35.974816],[139.0828977,35.9748386],[139.0828878,35.9748498],[139.0828551,35.9748895],[139.0828461,35.9749014],[139.0828377,35.9749126],[139.0828292,35.9749295],[139.0828211,35.9749473],[139.0828163,35.9749642],[139.0828097,35.9749814],[139.0827741,35.9749725]]]},"properties":{"layer":"road","class_code":"1040","class_label":"道路"}},{"type":"Feature","id":"tran_0d3528e3-b0c5-4623-aa08-9b2b4723cb29","geometry":{"type":"Polygon","coordinates":[[[139.0838286,35.9741137],[139.0838298,35.9740716],[139.0838716,35.9740597],[139.0838959,35.9741159],[139.0838503,35.9741193],[139.0838286,35.9741137]]]},"properties":{"layer":"road","class_code":"1040","class_label":"道路"}},{"type":"Feature","id":"tran_caa81c64-d771-4d84-819a-ffc99190f504","geometry":{"type":"Polygon","coordinates":[[[139.0763052,35.9746383],[139.0763658,35.9746568],[139.0764118,35.9746636],[139.0764093,35.9746675],[139.0763583,35.9746992],[139.0763438,35.9746974],[139.0763188,35.9746953],[139.0762918,35.9746967],[139.0762834,35.9746661],[139.0763052,35.9746383]]]},"properties":{"layer":"road","class_code":"1040","class_label":"道路"}},{"type":"Feature","id":"tran_64ad8918-c516-45c0-8208-6b4acc91d5f5","geometry":{"type":"Polygon","coordinates":[[[139.0831324,35.9724827],[139.0831373,35.9724877],[139.0831559,35.9725036],[139.0831317,35.9725223],[139.0831063,35.9724995],[139.0831324,35.9724827]]]},"properties":{"layer":"road","class_code":"1040","class_label":"道路"}},{"type":"Feature","id":"tran_f6531ef7-a36e-4906-b96b-5116dd561922","geometry":{"type":"Polygon","coordinates":[[[139.0762461,35.9743753],[139.0762483,35.9744102],[139.0762494,35.9744284],[139.0762562,35.9744852],[139.0762586,35.9744926],[139.0762639,35.9745026],[139.0763028,35.9745615],[139.0763548,35.9746391],[139.0763658,35.9746568],[139.0763052,35.9746383],[139.0762583,35.9745733],[139.076223,35.9745219],[139.0762143,35.9745079],[139.0762109,35.9744954],[139.0762079,35.9744829],[139.0761981,35.9743777],[139.0762461,35.9743753]]]},"properties":{"layer":"road","class_code":"1040","class_label":"道路"}},{"type":"Feature","id":"tran_edfc79ac-3bf8-4b8c-9dbc-1933415b8510","geometry":{"type":"Polygon","coordinates":[[[139.0833536,35.9740764],[139.0834018,35.9740101],[139.0834284,35.9740229],[139.0834357,35.9740317],[139.0834094,35.9740759],[139.0834021,35.9740764],[139.0833884,35.9740803],[139.0833775,35.9740878],[139.0833536,35.9740764]]]},"properties":{"layer":"road","class_code":"1040","class_label":"道路"}},{"type":"Feature","id":"tran_9fe70df3-5b84-47c7-a6c2-3638adbbb8bf","geometry":{"type":"Polygon","coordinates":[[[139.0755243,35.9744996],[139.075529,35.9744976],[139.0755336,35.9744951],[139.0755379,35.9744918],[139.0755551,35.9744745],[139.0755823,35.9744454],[139.07566,35.9743581],[139.0757269,35.974284],[139.0757448,35.9742628],[139.0757639,35.9742401],[139.0757895,35.9742126],[139.0757939,35.9742077],[139.0757983,35.9742029],[139.0758011,35.9741999],[139.0758437,35.9742095],[139.0758215,35.9742303],[139.0757506,35.9742974],[139.0756923,35.9743635],[139.0756376,35.974425],[139.0755775,35.9744892],[139.0755611,35.9745061],[139.0755539,35.9745142],[139.0755508,35.9745181],[139.0755243,35.9744996]]]},"properties":{"layer":"road","class_code":"1040","class_label":"道路"}},{"type":"Feature","id":"tran_ac940929-7900-4327-aff5-ae79523cd3c9","geometry":{"type":"Polygon","coordinates":[[[139.0752316,35.9743442],[139.0752372,35.9743387],[139.0752394,35.9743368],[139.0752376,35.9743355],[139.0752563,35.9743196],[139.0752723,35.9743061],[139.075277,35.9743017],[139.0753044,35.9742766],[139.0753434,35.974242],[139.0753707,35.9742206],[139.0753991,35.9741959],[139.0754461,35.9741548],[139.0754496,35.9741521],[139.075472,35.9741353],[139.0754896,35.9741252],[139.0754984,35.974121],[139.0755348,35.9741114],[139.0755591,35.9741065],[139.0755692,35.9741061],[139.0755855,35.9741095],[139.0756383,35.9741232],[139.0756845,35.9741378],[139.0757849,35.9741671],[139.0758167,35.9741759],[139.075798,35.9741959],[139.0757854,35.9741921],[139.0757145,35.9741674],[139.075676,35.9741546],[139.0756515,35.9741483],[139.0756261,35.9741416],[139.0755836,35.9741338],[139.0755628,35.9741317],[139.0755347,35.9741326],[139.0755069,35.9741451],[139.0755,35.9741492],[139.0754891,35.9741554],[139.0754866,35.9741575],[139.0754789,35.9741636],[139.0754492,35.9741925],[139.0754286,35.9742126],[139.0754065,35.9742322],[139.0754087,35.9742342],[139.0753404,35.9742963],[139.0752992,35.9743332],[139.0752692,35.9743609],[139.0752662,35.9743637],[139.0752316,35.9743442]]]},"properties":{"layer":"road","class_code":"1040","class_label":"道路"}},{"type":"Feature","id":"tran_607c944e-6f34-4fe2-bd56-89c191ecef49","geometry":{"type":"Polygon","coordinates":[[[139.0837572,35.9737948],[139.0838716,35.9740597],[139.0838298,35.9740716],[139.0837154,35.9738067],[139.0837572,35.9737948]]]},"properties":{"layer":"road","class_code":"1040","class_label":"道路"}},{"type":"Feature","id":"tran_a274dbb8-e069-4e80-825c-0b5ca60a71c7","geometry":{"type":"Polygon","coordinates":[[[139.0750248,35.9746914],[139.0750413,35.9746733],[139.0751704,35.9747507],[139.0752067,35.9747723],[139.0752406,35.9747917],[139.0752855,35.9748198],[139.0753331,35.9748491],[139.075358,35.9748632],[139.0753852,35.9748761],[139.0753913,35.9748777],[139.0753822,35.9749003],[139.0753717,35.9748957],[139.0753432,35.9748822],[139.0753168,35.9748674],[139.0752688,35.9748379],[139.0752241,35.9748098],[139.0751907,35.9747907],[139.0751539,35.9747688],[139.0750248,35.9746914]]]},"properties":{"layer":"road","class_code":"1040","class_label":"道路"}},{"type":"Feature","id":"tran_0b00b1fb-9988-43f1-a025-12cf6a9b0dc6","geometry":{"type":"Polygon","coordinates":[[[139.0759972,35.9747381],[139.0760023,35.9747005],[139.0760769,35.9746917],[139.0761276,35.9746845],[139.0761479,35.9746821],[139.0762834,35.9746661],[139.0762918,35.9746967],[139.0762786,35.9746988],[139.0762331,35.974706],[139.076136,35.9747226],[139.0760829,35.9747284],[139.0760241,35.9747353],[139.0759972,35.9747381]]]},"properties":{"layer":"road","class_code":"1040","class_label":"道路"}},{"type":"Feature","id":"tran_badcf95a-787d-43c8-9aaf-ed4afb403b48","geometry":{"type":"Polygon","coordinates":[[[139.0759625,35.9747383],[139.0759692,35.9747004],[139.0759752,35.9747011],[139.0760023,35.9747005],[139.0759972,35.9747381],[139.0759625,35.9747383]]]},"properties":{"layer":"road","class_code":"1040","class_label":"道路"}},{"type":"Feature","id":"tran_7fcfa552-be83-4279-b1ef-2040a33104a6","geometry":{"type":"Polygon","coordinates":[[[139.0767529,35.9744996],[139.0767123,35.9745075],[139.0767062,35.9744985],[139.0766903,35.9744796],[139.0766674,35.9744573],[139.0766568,35.9744492],[139.0766481,35.9744426],[139.0766407,35.9744369],[139.0766293,35.9744263],[139.0766218,35.9744132],[139.0766122,35.9744012],[139.0765981,35.9743876],[139.0765883,35.9743808],[139.0765734,35.9743729],[139.0765573,35.9743676],[139.0765325,35.9743387],[139.0765214,35.974329],[139.0765089,35.9743224],[139.0764831,35.9743148],[139.0764157,35.9742977],[139.0763581,35.9742839],[139.0763234,35.9742773],[139.0763088,35.9742745],[139.076255,35.9742645],[139.0762444,35.9742628],[139.076212,35.9742608],[139.076184,35.974256],[139.076167,35.9742516],[139.076117,35.9742386],[139.0760349,35.9742195],[139.0760244,35.9742167],[139.0760153,35.9742155],[139.0760083,35.9742165],[139.0760024,35.9742202],[139.075994,35.9742311],[139.0759876,35.9742429],[139.0759767,35.9742673],[139.0759715,35.9742884],[139.0759711,35.9743015],[139.0759756,35.9743339],[139.0759756,35.9743493],[139.0759755,35.9743672],[139.0759746,35.9743891],[139.0759769,35.9744024],[139.075984,35.9744233],[139.0759896,35.9744338],[139.076006,35.9744645],[139.0760094,35.9744715],[139.0760262,35.974506],[139.0760328,35.9745189],[139.0760157,35.9745235],[139.0760118,35.9745102],[139.0759948,35.974472],[139.0759931,35.9744683],[139.0759772,35.9744344],[139.0759712,35.9744216],[139.075963,35.9743895],[139.075962,35.9743685],[139.0759647,35.9743502],[139.0759632,35.9743335],[139.0759583,35.9743175],[139.0759555,35.974301],[139.0759573,35.9742811],[139.0759634,35.9742605],[139.0759776,35.9742244],[139.0759844,35.9742133],[139.0759955,35.9742015],[139.0760228,35.974196],[139.0760428,35.9742007],[139.0760738,35.974208],[139.0761893,35.9742352],[139.0762219,35.9742395],[139.0762593,35.974244],[139.0762841,35.9742481],[139.0763328,35.974256],[139.0763878,35.9742673],[139.0764764,35.9742891],[139.076479,35.9742898],[139.0765091,35.9742978],[139.0765216,35.9743025],[139.0765341,35.974311],[139.0765576,35.9743307],[139.0765653,35.9743388],[139.0765704,35.9743441],[139.0765733,35.9743505],[139.0765742,35.9743523],[139.0766054,35.9743704],[139.076623,35.9743845],[139.0766408,35.9744053],[139.0766563,35.9744275],[139.0766633,35.9744352],[139.0766745,35.9744447],[139.0767055,35.9744693],[139.0767266,35.9744826],[139.0767529,35.9744996]]]},"properties":{"layer":"road","class_code":"1040","class_label":"道路"}},{"type":"Feature","id":"tran_da895ff4-6d44-4f46-b15e-22f9568aa52e","geometry":{"type":"Polygon","coordinates":[[[139.0831063,35.9724995],[139.0831317,35.9725223],[139.0831101,35.9725724],[139.0830935,35.9726034],[139.0830726,35.9725747],[139.083079,35.9725625],[139.0831063,35.9724995]]]},"properties":{"layer":"road","class_code":"1040","class_label":"道路"}},{"type":"Feature","id":"tran_8cb44c0d-d883-4ea6-858a-e12d27fb5140","geometry":{"type":"Polygon","coordinates":[[[139.0830726,35.9725747],[139.0830935,35.9726034],[139.0830736,35.9726406],[139.0830527,35.972612],[139.0830726,35.9725747]]]},"properties":{"layer":"road","class_code":"1040","class_label":"道路"}},{"type":"Feature","id":"tran_13515682-6480-4cc1-b46b-c5ed6209f75c","geometry":{"type":"Polygon","coordinates":[[[139.0773529,35.9747138],[139.0773742,35.9747062],[139.0773885,35.9747202],[139.0773877,35.9747273],[139.0773759,35.9747525],[139.0773699,35.9747507],[139.0773396,35.9747408],[139.0773529,35.9747138]]]},"properties":{"layer":"road","class_code":"1040","class_label":"道路"}},{"type":"Feature","id":"tran_bfdfffb2-d6b7-4280-b7ef-c096a65ce5c5","geometry":{"type":"Polygon","coordinates":[[[139.0808834,35.9740647],[139.080899,35.9740546],[139.0809524,35.9741088],[139.0809819,35.9741695],[139.0810016,35.9742382],[139.0810105,35.9742944],[139.0810115,35.9743593],[139.0810216,35.9744308],[139.0810337,35.9745246],[139.0810537,35.9746157],[139.0810821,35.9747094],[139.0811077,35.9748313],[139.0811237,35.9749104],[139.0811439,35.9749709],[139.0811656,35.9750469],[139.0811767,35.9751194],[139.0811768,35.9751616],[139.0811727,35.9751955],[139.0811653,35.9752356],[139.0811373,35.9753204],[139.0810847,35.9754499],[139.0810803,35.9754926],[139.081081,35.9755329],[139.081093,35.975602],[139.0811101,35.9756481],[139.081081,35.9756537],[139.0810637,35.9756072],[139.0810552,35.9755476],[139.0810604,35.9754921],[139.081065,35.9754467],[139.0811181,35.9753158],[139.0811457,35.9752323],[139.081153,35.9751935],[139.0811569,35.9751608],[139.0811567,35.9751204],[139.081146,35.9750498],[139.0811245,35.9749749],[139.0811041,35.9749139],[139.0810879,35.974834],[139.0810625,35.9747127],[139.0810342,35.9746191],[139.081014,35.9745269],[139.0810018,35.9744326],[139.0809915,35.9743603],[139.0809906,35.9742955],[139.080982,35.974241],[139.0809628,35.9741744],[139.0809349,35.9741171],[139.0808834,35.9740647]]]},"properties":{"layer":"road","class_code":"1040","class_label":"道路"}},{"type":"Feature","id":"tran_a482317f-5e77-45ba-9535-b6536ce11a56","geometry":{"type":"Polygon","coordinates":[[[139.0752679,35.9743787],[139.0752941,35.9743925],[139.0753505,35.9744228],[139.0753527,35.974424],[139.0753273,35.9744534],[139.0753189,35.9744486],[139.0753138,35.9744456],[139.0752436,35.9744013],[139.0752679,35.9743787]]]},"properties":{"layer":"road","class_code":"1040","class_label":"道路"}},{"type":"Feature","id":"tran_d236aa05-8bc2-4258-a96f-5ef51b830645","geometry":{"type":"Polygon","coordinates":[[[139.0753791,35.97442],[139.0753921,35.9744126],[139.0754045,35.9744016],[139.0756167,35.9741912],[139.0756502,35.9742135],[139.0754443,35.9744177],[139.0754243,35.9744431],[139.0753791,35.97442]]]},"properties":{"layer":"road","class_code":"1040","class_label":"道路"}},{"type":"Feature","id":"tran_13ae80ba-a4ac-4118-9f49-3d61855732d9","geometry":{"type":"Polygon","coordinates":[[[139.0758167,35.9741759],[139.0758336,35.9741779],[139.0758553,35.9741751],[139.0758437,35.9742095],[139.0758011,35.9741999],[139.075798,35.9741959],[139.0758167,35.9741759]]]},"properties":{"layer":"road","class_code":"1040","class_label":"道路"}},{"type":"Feature","id":"tran_167ddcb6-8b2d-4bf4-af25-a9d50f4cb5cc","geometry":{"type":"Polygon","coordinates":[[[139.0773742,35.9747062],[139.0773757,35.9747051],[139.0774002,35.9746824],[139.0774108,35.9746655],[139.0774304,35.9746316],[139.0774422,35.9746212],[139.077455,35.9746158],[139.0774834,35.9746093],[139.0775541,35.9745956],[139.0776203,35.9745802],[139.0776438,35.974572],[139.077653,35.9745665],[139.0776617,35.9745568],[139.0776621,35.9745417],[139.0776527,35.9744409],[139.0776494,35.9743304],[139.0776716,35.9743335],[139.0776748,35.97444],[139.0776843,35.9745412],[139.0776838,35.9745629],[139.0776688,35.9745794],[139.0776549,35.9745877],[139.0776277,35.9745972],[139.0775597,35.974613],[139.077489,35.9746267],[139.0774632,35.9746327],[139.0774558,35.9746357],[139.077449,35.9746418],[139.0774147,35.9746989],[139.0773901,35.9747181],[139.0773885,35.9747202],[139.0773742,35.9747062]]]},"properties":{"layer":"road","class_code":"1040","class_label":"道路"}},{"type":"Feature","id":"tran_15b48839-3109-4746-b70e-1e6c9cf7f7d7","geometry":{"type":"Polygon","coordinates":[[[139.0758437,35.9742095],[139.0758553,35.9741751],[139.0758788,35.974171],[139.0758999,35.9741644],[139.0759128,35.9741583],[139.0759233,35.9741516],[139.0759425,35.9741329],[139.0759672,35.9741065],[139.0759962,35.9740748],[139.0760048,35.9740625],[139.0760102,35.9740507],[139.0760154,35.9740316],[139.0760178,35.9740191],[139.0760233,35.9739726],[139.0760246,35.9739524],[139.0760231,35.9739216],[139.0760251,35.9738991],[139.0760301,35.9738759],[139.0760682,35.9738833],[139.0760538,35.9739151],[139.0760506,35.973925],[139.0760431,35.9739747],[139.0760429,35.9739928],[139.0760496,35.9740227],[139.0760516,35.974036],[139.076052,35.9740437],[139.0760495,35.9740563],[139.0760422,35.9740729],[139.0760065,35.9741284],[139.0759929,35.97414],[139.0759461,35.9741713],[139.0759155,35.9741884],[139.0758943,35.9741973],[139.0758747,35.974203],[139.0758437,35.9742095]]]},"properties":{"layer":"road","class_code":"1040","class_label":"道路"}},{"type":"Feature","id":"tran_33a60686-23f6-41ca-9b8f-e43502baf4f1","geometry":{"type":"Polygon","coordinates":[[[139.0773759,35.9747525],[139.0773877,35.9747273],[139.0774665,35.9747577],[139.0774692,35.9747585],[139.0774188,35.9747658],[139.0773759,35.9747525]]]},"properties":{"layer":"road","class_code":"1040","class_label":"道路"}},{"type":"Feature","id":"tran_ca7d3afc-f514-4cd0-a15a-bb1e9360b28c","geometry":{"type":"Polygon","coordinates":[[[139.0831685,35.9725145],[139.0831847,35.9725269],[139.0831631,35.9725476],[139.0831535,35.972541],[139.0831443,35.9725331],[139.0831685,35.9725145]]]},"properties":{"layer":"road","class_code":"1040","class_label":"道路"}},{"type":"Feature","id":"tran_23af107e-4e52-4429-9d8a-d3a0cc291ccc","geometry":{"type":"Polygon","coordinates":[[[139.0753273,35.9744534],[139.0753527,35.974424],[139.0753664,35.9744227],[139.0753791,35.97442],[139.0754243,35.9744431],[139.0754237,35.9744524],[139.0754255,35.9744624],[139.0753974,35.974494],[139.0753838,35.9744861],[139.0753581,35.974471],[139.0753273,35.9744534]]]},"properties":{"layer":"road","class_code":"1040","class_label":"道路"}},{"type":"Feature","id":"tran_149ddf90-b9b3-410b-8b9c-7da078722006","geometry":{"type":"Polygon","coordinates":[[[139.0830093,35.9720882],[139.0830277,35.9720555],[139.083054,35.9720763],[139.0830701,35.9721016],[139.0830776,35.9721287],[139.0830786,35.972146],[139.0830762,35.972171],[139.083069,35.9721859],[139.0830472,35.9722191],[139.0830368,35.9722447],[139.0830314,35.9722716],[139.0830309,35.9722946],[139.0830328,35.9723233],[139.0830396,35.9723546],[139.0830517,35.9723817],[139.0830733,35.9724219],[139.0831324,35.9724827],[139.0831063,35.9724995],[139.0830445,35.972436],[139.0830207,35.9723917],[139.0830074,35.9723616],[139.0829997,35.9723264],[139.0829976,35.972295],[139.0829983,35.9722692],[139.0830043,35.9722383],[139.0830166,35.9722083],[139.0830388,35.9721747],[139.0830434,35.972165],[139.0830452,35.9721456],[139.0830445,35.9721325],[139.0830399,35.9721166],[139.0830316,35.9721026],[139.0830093,35.9720882]]]},"properties":{"layer":"road","class_code":"1040","class_label":"道路"}},{"type":"Feature","id":"tran_dd9fded1-28bc-4ea1-b385-d33734ef6a0b","geometry":{"type":"Polygon","coordinates":[[[139.0838722,35.9671782],[139.0838943,35.9671803],[139.083888,35.9672216],[139.0838772,35.96726],[139.0838625,35.9672921],[139.0836883,35.9674675],[139.0835567,35.9675921],[139.0834794,35.9676531],[139.0834321,35.9676888],[139.0833535,35.9677236],[139.0832836,35.9677538],[139.0832252,35.9677834],[139.083142,35.9678482],[139.0829784,35.9679573],[139.0828954,35.9680376],[139.0828275,35.9681261],[139.0827378,35.9682418],[139.0826068,35.9683616],[139.0824999,35.9684371],[139.0824299,35.9684777],[139.0823375,35.9685155],[139.0822456,35.9685509],[139.0822061,35.9685737],[139.0821795,35.9685987],[139.0821631,35.9686234],[139.0821547,35.9686523],[139.0821553,35.9686943],[139.0821644,35.9687445],[139.0821932,35.9688645],[139.0822306,35.968991],[139.0822469,35.9690554],[139.0822472,35.9691076],[139.0822369,35.9692457],[139.0822451,35.9693098],[139.0822611,35.9693603],[139.0822852,35.9694121],[139.0823,35.9694572],[139.0823,35.969502],[139.0822917,35.9695503],[139.0822747,35.9696022],[139.0822502,35.9696458],[139.0822178,35.969713],[139.0822009,35.9697611],[139.0821932,35.9698072],[139.0821893,35.9698696],[139.0821877,35.9699508],[139.0821888,35.9700568],[139.0821851,35.9702593],[139.0821849,35.9703367],[139.0821887,35.9704513],[139.0821872,35.9705301],[139.0821438,35.9705164],[139.0821469,35.9704802],[139.0821525,35.9704007],[139.0821629,35.9702586],[139.0821666,35.9700567],[139.0821655,35.9699507],[139.0821671,35.9698689],[139.0821712,35.9698057],[139.0821792,35.9697574],[139.0821968,35.9697072],[139.0822298,35.9696388],[139.0822538,35.9695961],[139.0822699,35.9695466],[139.0822778,35.9695007],[139.0822778,35.9694595],[139.0822641,35.9694177],[139.08224,35.9693657],[139.0822232,35.969313],[139.0822146,35.969246],[139.082225,35.9691071],[139.0822247,35.9690573],[139.0822089,35.9689949],[139.0821715,35.9688683],[139.0821425,35.9687475],[139.0821331,35.9686957],[139.0821325,35.9686502],[139.0821422,35.9686168],[139.0821612,35.9685884],[139.0821911,35.9685603],[139.0822344,35.9685352],[139.0823278,35.9684993],[139.0824184,35.9684622],[139.0824862,35.968423],[139.0825912,35.9683488],[139.0827201,35.968231],[139.0828087,35.9681166],[139.0828774,35.968027],[139.0829627,35.9679445],[139.0831273,35.9678347],[139.0832115,35.9677691],[139.0832725,35.9677382],[139.083343,35.9677077],[139.0834191,35.967674],[139.0834641,35.96764],[139.0835405,35.9675797],[139.0836714,35.967456],[139.083843,35.9672831],[139.083856,35.9672548],[139.0838662,35.9672185],[139.0838722,35.9671782]]]},"properties":{"layer":"road","class_code":"1040","class_label":"道路"}},{"type":"Feature","id":"tran_1e4fe566-52de-47c3-bd7b-e8ea3a6d11fc","geometry":{"type":"Polygon","coordinates":[[[139.0774909,35.9747655],[139.0775136,35.9747728],[139.0775288,35.9747769],[139.0775963,35.9747972],[139.077665,35.9748189],[139.0777615,35.97484],[139.0778192,35.9748505],[139.077847,35.9748583],[139.0778595,35.9748616],[139.0778771,35.9748662],[139.0779101,35.9748917],[139.0778767,35.9749388],[139.0778532,35.9749651],[139.0777974,35.9750272],[139.0777906,35.9750348],[139.0777493,35.9750814],[139.0777273,35.9751084],[139.0777206,35.9751168],[139.0776883,35.9751612],[139.0776525,35.97514],[139.0776806,35.9751086],[139.0776954,35.975093],[139.0777501,35.975031],[139.07776,35.9750192],[139.0777974,35.9749724],[139.0778382,35.9749211],[139.0778138,35.9748987],[139.0778088,35.9748801],[139.0777535,35.9748661],[139.0777027,35.9748556],[139.0775875,35.9748272],[139.0775188,35.9748013],[139.077471,35.9747877],[139.0774909,35.9747655]]]},"properties":{"layer":"road","class_code":"1040","class_label":"道路"}},{"type":"Feature","id":"tran_cc2dcd61-e9c6-4791-bc1e-6c05e393b5e9","geometry":{"type":"Polygon","coordinates":[[[139.0749775,35.9746735],[139.0750034,35.9746406],[139.0750399,35.9746596],[139.0750397,35.9746663],[139.0750413,35.9746733],[139.0750248,35.9746914],[139.0750195,35.97469],[139.0750099,35.9746904],[139.0749775,35.9746735]]]},"properties":{"layer":"road","class_code":"1040","class_label":"道路"}},{"type":"Feature","id":"tran_2bf98f4f-eb1f-4c1c-8dbc-13e59661fcf1","geometry":{"type":"Polygon","coordinates":[[[139.0755274,35.9745737],[139.0755558,35.9745412],[139.0756127,35.9745801],[139.0756541,35.9746036],[139.0756984,35.9746286],[139.0757589,35.9746555],[139.0758053,35.9746754],[139.0758228,35.9746822],[139.0758354,35.9746848],[139.0759692,35.9747004],[139.0759625,35.9747383],[139.0758928,35.9747295],[139.0758251,35.9747154],[139.075799,35.9747111],[139.0757831,35.9747047],[139.0757452,35.9746894],[139.075668,35.9746576],[139.0756242,35.9746336],[139.07556,35.9745924],[139.0755274,35.9745737]]]},"properties":{"layer":"road","class_code":"1040","class_label":"道路"}},{"type":"Feature","id":"tran_d3c7b83c-0a7a-49ca-8a5f-f797b686e7b2","geometry":{"type":"Polygon","coordinates":[[[139.078127,35.9723908],[139.078149,35.9723887],[139.07816,35.9724666],[139.0781888,35.9725619],[139.0782155,35.9726414],[139.0782541,35.9727214],[139.078277,35.9728036],[139.0782932,35.9728705],[139.0782961,35.9729237],[139.0782939,35.9729917],[139.078276,35.9730845],[139.078256,35.9731621],[139.078229,35.9732691],[139.0782095,35.9733652],[139.0781825,35.9734686],[139.0781557,35.973565],[139.0781501,35.9736434],[139.0781543,35.9737063],[139.0781638,35.9738096],[139.0781722,35.9738764],[139.0781815,35.9739422],[139.0781912,35.9740359],[139.0781896,35.9741271],[139.07818,35.974164],[139.0781492,35.9742415],[139.0780768,35.9743686],[139.078008,35.9744536],[139.0779282,35.97454],[139.0778434,35.974585],[139.0777248,35.9746406],[139.0775982,35.9747113],[139.0774927,35.9747638],[139.0774909,35.9747655],[139.0774692,35.9747585],[139.0774778,35.97475],[139.0775861,35.9746962],[139.077713,35.9746254],[139.0778318,35.9745696],[139.0779129,35.9745266],[139.0779898,35.9744432],[139.0780573,35.9743598],[139.0781285,35.974235],[139.0781585,35.9741594],[139.0781675,35.9741251],[139.078169,35.9740366],[139.0781594,35.9739441],[139.0781502,35.9738783],[139.0781417,35.9738112],[139.0781321,35.9737075],[139.0781279,35.9736434],[139.0781337,35.9735626],[139.0781608,35.9734648],[139.0781877,35.9733618],[139.0782071,35.9732659],[139.0782343,35.9731584],[139.0782541,35.9730813],[139.0782718,35.97299],[139.0782739,35.9729239],[139.0782711,35.9728726],[139.0782552,35.9728073],[139.0782329,35.9727267],[139.0781945,35.972647],[139.0781673,35.9725665],[139.0781381,35.9724698],[139.078127,35.9723908]]]},"properties":{"layer":"road","class_code":"1040","class_label":"道路"}},{"type":"Feature","id":"tran_a3be3794-1ea7-44ef-bd83-c5fc765d942c","geometry":{"type":"Polygon","coordinates":[[[139.0834721,35.9740835],[139.0834805,35.9740436],[139.0836061,35.974061],[139.0835978,35.974101],[139.0834721,35.9740835]]]},"properties":{"layer":"road","class_code":"1040","class_label":"道路"}},{"type":"Feature","id":"tran_53835119-a0fa-494a-b346-5553db65ef53","geometry":{"type":"Polygon","coordinates":[[[139.0821438,35.9705164],[139.0821872,35.9705301],[139.08218,35.9706088],[139.082179,35.97062],[139.0821358,35.9706063],[139.0821438,35.9705164]]]},"properties":{"layer":"road","class_code":"1040","class_label":"道路"}},{"type":"Feature","id":"tran_d450fdfe-ffb4-43f1-ae0d-ee49d3623845","geometry":{"type":"Polygon","coordinates":[[[139.0821358,35.9706063],[139.082179,35.97062],[139.0821762,35.9706423],[139.0821811,35.9706694],[139.0821924,35.9707024],[139.0822042,35.9707336],[139.0822172,35.9707566],[139.0822368,35.9707862],[139.0822511,35.9708041],[139.0822727,35.9708274],[139.0823232,35.9708709],[139.0823692,35.9709078],[139.0824268,35.9709548],[139.0824559,35.9709901],[139.0824742,35.9710207],[139.0824845,35.9710645],[139.0824845,35.9710794],[139.0824823,35.9711022],[139.0824726,35.9711341],[139.0824554,35.971169],[139.0824462,35.9711848],[139.0824419,35.9712096],[139.0824465,35.9712424],[139.0824678,35.9712945],[139.0825004,35.971344],[139.0825135,35.9713741],[139.082517,35.9713914],[139.0825177,35.9714149],[139.0825,35.9715001],[139.0824811,35.9715743],[139.0824589,35.9716438],[139.082432,35.9717316],[139.0824184,35.9717628],[139.0824055,35.9717882],[139.0823838,35.9718108],[139.0823538,35.9718441],[139.0823277,35.9718719],[139.082316,35.9718836],[139.0823087,35.9718993],[139.0823036,35.9719222],[139.0823033,35.9719621],[139.0823082,35.9719879],[139.0823153,35.9720135],[139.0823291,35.9720385],[139.0823464,35.9720602],[139.0823676,35.9720839],[139.0823815,35.9720968],[139.0823897,35.9721015],[139.0823997,35.9721045],[139.0824173,35.9721073],[139.0824357,35.9721078],[139.0824603,35.9721068],[139.0824844,35.9721028],[139.0825173,35.9720972],[139.0825493,35.9720832],[139.0825928,35.9720571],[139.0826652,35.9720008],[139.0826951,35.971984],[139.0827128,35.9719774],[139.0827369,35.971973],[139.0827697,35.971972],[139.0827983,35.9719728],[139.082828,35.9719776],[139.0828574,35.9719882],[139.0829268,35.972018],[139.0829084,35.9720508],[139.0828427,35.9720125],[139.0828178,35.9720035],[139.0827944,35.9719998],[139.0827697,35.971999],[139.0827412,35.9719999],[139.0827235,35.9720032],[139.0827116,35.9720076],[139.0826864,35.9720219],[139.0826142,35.9720778],[139.0825672,35.9721061],[139.0825288,35.9721229],[139.0824911,35.9721293],[139.0824645,35.9721337],[139.082436,35.9721349],[139.0824136,35.9721343],[139.0823905,35.9721306],[139.0823741,35.9721256],[139.0823592,35.9721172],[139.0823416,35.9721008],[139.082319,35.9720755],[139.0822998,35.9720514],[139.0822835,35.9720221],[139.0822754,35.9719929],[139.08227,35.971964],[139.0822703,35.9719198],[139.0822765,35.9718919],[139.0822869,35.9718699],[139.0823016,35.9718551],[139.0823271,35.971828],[139.0823574,35.9717945],[139.0823765,35.9717745],[139.0823873,35.9717531],[139.0824,35.9717238],[139.0824266,35.9716371],[139.0824486,35.9715681],[139.0824672,35.9714951],[139.0824844,35.9714129],[139.0824838,35.971394],[139.0824811,35.9713808],[139.08247,35.971355],[139.0824371,35.9713052],[139.0824139,35.9712483],[139.0824085,35.9712093],[139.0824066,35.9711804],[139.0824105,35.9711513],[139.0824209,35.9711136],[139.0824281,35.9710823],[139.0824324,35.9710458],[139.0824297,35.9710081],[139.0824269,35.9710036],[139.0824011,35.970972],[139.0823457,35.9709269],[139.0822994,35.9708897],[139.0822473,35.9708448],[139.0822238,35.9708195],[139.0822076,35.970799],[139.0821873,35.9707688],[139.0821729,35.9707432],[139.0821605,35.97071],[139.0821484,35.9706749],[139.0821395,35.970642],[139.082136,35.9706085],[139.0821358,35.9706063]]]},"properties":{"layer":"road","class_code":"1040","class_label":"道路"}},{"type":"Feature","id":"tran_243b14b4-5212-4fbe-86b8-9fd18c1428e5","geometry":{"type":"Polygon","coordinates":[[[139.0843487,35.9740628],[139.0843855,35.9741],[139.0843538,35.974111],[139.0843155,35.9740746],[139.0843487,35.9740628]]]},"properties":{"layer":"road","class_code":"1040","class_label":"道路"}},{"type":"Feature","id":"tran_8b095eac-373f-4b92-b4ff-8099c54fca48","geometry":{"type":"Polygon","coordinates":[[[139.0774188,35.9747658],[139.0774692,35.9747585],[139.0774909,35.9747655],[139.077471,35.9747877],[139.0774256,35.9747885],[139.077425,35.9747846],[139.0774188,35.9747658]]]},"properties":{"layer":"road","class_code":"1040","class_label":"道路"}},{"type":"Feature","id":"tran_094adc3e-c7eb-4513-89f6-01cfe314cc1d","geometry":{"type":"Polygon","coordinates":[[[139.0829084,35.9720508],[139.0829268,35.972018],[139.0830277,35.9720555],[139.0830093,35.9720882],[139.0829084,35.9720508]]]},"properties":{"layer":"road","class_code":"1040","class_label":"道路"}},{"type":"Feature","id":"tran_1d1152df-1330-4f34-837e-1be443253c89","geometry":{"type":"Polygon","coordinates":[[[139.0754655,35.9745349],[139.0754984,35.9745019],[139.075514,35.9745019],[139.0755189,35.974501],[139.0755243,35.9744996],[139.0755508,35.9745181],[139.0755493,35.9745209],[139.0755489,35.9745224],[139.0755488,35.9745233],[139.0755558,35.9745412],[139.0755274,35.9745737],[139.0755263,35.9745731],[139.0755028,35.9745595],[139.0754655,35.9745349]]]},"properties":{"layer":"road","class_code":"1040","class_label":"道路"}}]}