{"type":"FeatureCollection","properties":{"mesh_code":"53397099","source":"PLATEAU秩父市2025","layer":"road"},"features":[{"type":"Feature","id":"tran_7228ff56-6529-49ca-87d9-7e6ad834d708","geometry":{"type":"Polygon","coordinates":[[[139.1173772,35.9977562],[139.1173949,35.9977763],[139.1174205,35.9977866],[139.1174467,35.997784],[139.1174689,35.997766],[139.1174994,35.9976686],[139.1175298,35.9976179],[139.1175672,35.9975925],[139.1176033,35.9975863],[139.1176366,35.9975938],[139.117677,35.9976359],[139.1177174,35.9976943],[139.1177347,35.9977485],[139.1177718,35.9978734],[139.1178492,35.9980848],[139.1178724,35.9981118],[139.1179115,35.9981289],[139.1179738,35.9981311],[139.1181325,35.9981004],[139.1181776,35.998093],[139.1182012,35.9980872],[139.1182418,35.9980749],[139.118258,35.9980688],[139.1182861,35.9980565],[139.118308,35.9980446],[139.1183434,35.9980223],[139.118356,35.9980149],[139.1183799,35.9980029],[139.1184029,35.997994],[139.1184186,35.9979893],[139.1184481,35.9979832],[139.1184794,35.9979795],[139.1184979,35.9979788],[139.1185295,35.9979792],[139.1185917,35.997984],[139.1186462,35.9979902],[139.1187737,35.9980079],[139.1188706,35.9980238],[139.1189561,35.9980401],[139.119056,35.9980597],[139.1191029,35.9980679],[139.1191448,35.9980739],[139.119166,35.9980765],[139.1191988,35.99808],[139.119233,35.9980829],[139.1192506,35.9980842],[139.1192876,35.9980864],[139.1193069,35.9980874],[139.1193371,35.9980887],[139.1193688,35.9980898],[139.1193907,35.9980905],[139.119436,35.9980918],[139.1195065,35.9980938],[139.1196015,35.9980977],[139.1196483,35.9981004],[139.1197368,35.9981079],[139.1197788,35.9981121],[139.1198387,35.9981181],[139.1198768,35.9981215],[139.1198952,35.9981229],[139.1199222,35.9981246],[139.1199485,35.9981258],[139.1199655,35.9981262],[139.1199987,35.9981263],[139.1200458,35.9981251],[139.1200748,35.9981235],[139.1201275,35.9981191],[139.1201774,35.9981131],[139.1202341,35.9981057],[139.1202613,35.998103],[139.120302,35.9981014],[139.1203297,35.998102],[139.1203486,35.9981033],[139.1203863,35.9981074],[139.12043,35.9981145],[139.1204955,35.9981255],[139.1205338,35.9981305],[139.1206009,35.9981369],[139.1206974,35.9981464],[139.1207442,35.9981533],[139.1207825,35.9981615],[139.1208012,35.9981668],[139.1208273,35.9981762],[139.1208521,35.9981877],[139.1208647,35.9981948],[139.1208877,35.9982101],[139.1208993,35.9982192],[139.1209159,35.9982337],[139.1209323,35.9982502],[139.1209636,35.9982864],[139.1209941,35.9983259],[139.1210336,35.9983793],[139.1210527,35.9984046],[139.1210914,35.9984514],[139.1211119,35.9984736],[139.1211467,35.9985082],[139.1211662,35.9985264],[139.1212117,35.9985663],[139.1212855,35.9986272],[139.1213254,35.9986584],[139.1213852,35.9987026],[139.1214406,35.9987395],[139.1214652,35.9987539],[139.1215591,35.9987982],[139.1216637,35.998852],[139.1217797,35.9989291],[139.1219191,35.9990007],[139.1221139,35.9991329],[139.1221464,35.9991532],[139.1221947,35.9991744],[139.1222526,35.9991886],[139.1222894,35.9991954],[139.1222846,35.999213],[139.122247,35.9992061],[139.1221861,35.9991911],[139.1221344,35.9991683],[139.1220997,35.9991467],[139.121906,35.9990153],[139.1217667,35.9989437],[139.1216507,35.9988666],[139.1215475,35.9988135],[139.1214522,35.9987685],[139.121427,35.9987538],[139.1213707,35.9987162],[139.1213102,35.9986716],[139.1212699,35.99864],[139.1211956,35.9985788],[139.1211497,35.9985384],[139.1211297,35.9985199],[139.1210944,35.9984847],[139.1210733,35.9984618],[139.1210341,35.9984144],[139.1210146,35.9983887],[139.1209752,35.9983353],[139.1209451,35.9982964],[139.1209146,35.9982611],[139.1208991,35.9982455],[139.1208835,35.9982318],[139.120873,35.9982236],[139.1208514,35.9982092],[139.1208403,35.998203],[139.1208173,35.9981923],[139.120793,35.9981836],[139.120776,35.9981788],[139.1207394,35.9981709],[139.1206941,35.9981642],[139.1205982,35.9981548],[139.1205307,35.9981483],[139.1204915,35.9981432],[139.1204255,35.9981322],[139.1203826,35.9981252],[139.1203463,35.9981212],[139.1203285,35.9981201],[139.1203022,35.9981195],[139.1202632,35.998121],[139.1202372,35.9981235],[139.1201808,35.9981309],[139.1201303,35.998137],[139.1200767,35.9981415],[139.1200469,35.9981431],[139.119999,35.9981444],[139.1199651,35.9981442],[139.1199476,35.9981438],[139.1199208,35.9981426],[139.1198933,35.9981409],[139.1198745,35.9981394],[139.1198362,35.998136],[139.1197761,35.99813],[139.1197343,35.9981258],[139.1196463,35.9981184],[139.1196001,35.9981157],[139.1195055,35.9981118],[139.1194352,35.9981098],[139.1193899,35.9981085],[139.1193679,35.9981078],[139.119336,35.9981067],[139.1193056,35.9981054],[139.1192861,35.9981044],[139.1192488,35.9981021],[139.1192309,35.9981008],[139.1191962,35.9980979],[139.1191629,35.9980944],[139.1191412,35.9980917],[139.1190987,35.9980856],[139.1190511,35.9980773],[139.118951,35.9980576],[139.1188659,35.9980414],[139.1187697,35.9980256],[139.1186428,35.998008],[139.1185891,35.9980019],[139.1185283,35.9979972],[139.1184983,35.9979968],[139.1184815,35.9979975],[139.1184525,35.9980009],[139.1184252,35.9980066],[139.1184115,35.9980106],[139.1183905,35.9980188],[139.1183683,35.9980299],[139.1183567,35.9980367],[139.118321,35.9980592],[139.1182975,35.9980719],[139.1182679,35.998085],[139.1182503,35.9980915],[139.1182083,35.9981043],[139.1181835,35.9981104],[139.1181376,35.9981176],[139.1179759,35.9981492],[139.1179054,35.9981467],[139.1178571,35.9981257],[139.117829,35.9980927],[139.1177504,35.997878],[139.1177132,35.9977529],[139.1176966,35.9977011],[139.1176585,35.9976459],[139.1176236,35.9976096],[139.1176025,35.9976049],[139.1175771,35.9976092],[139.1175476,35.9976293],[139.1175203,35.9976748],[139.1174889,35.9977753],[139.117457,35.9978011],[139.1174167,35.9978051],[139.1173801,35.9977905],[139.1173592,35.9977667],[139.1173772,35.9977562]]]},"properties":{"layer":"road","class_code":"1040","class_label":"道路"}}]}