{"type":"FeatureCollection","properties":{"mesh_code":"53397056","source":"PLATEAU秩父市2025","layer":"road"},"features":[{"type":"Feature","id":"tran_95e30fd7-2b7f-49f8-978d-8fef8407f7d4","geometry":{"type":"Polygon","coordinates":[[[139.0778152,35.9638236],[139.0778483,35.9638206],[139.0778498,35.9638325],[139.0778467,35.9638594],[139.0778381,35.9638587],[139.077806,35.9638518],[139.0778152,35.9638236]]]},"properties":{"layer":"road","class_code":"1040","class_label":"道路"}},{"type":"Feature","id":"tran_b02e7075-6cbf-4a72-b83d-cfba7b783c10","geometry":{"type":"Polygon","coordinates":[[[139.0778498,35.9638325],[139.0779066,35.9638369],[139.0780348,35.9638141],[139.0782307,35.963758],[139.0783621,35.9637021],[139.0785113,35.9636052],[139.0786496,35.9634861],[139.0787505,35.9634039],[139.0788592,35.963325],[139.0789634,35.9632791],[139.0791309,35.9632117],[139.0791457,35.9632359],[139.0789787,35.9633031],[139.0788784,35.9633473],[139.0787734,35.9634236],[139.0786735,35.9635049],[139.0785339,35.9636252],[139.0783803,35.9637248],[139.078244,35.9637827],[139.0780439,35.9638403],[139.0779085,35.9638642],[139.0778467,35.9638594],[139.0778498,35.9638325]]]},"properties":{"layer":"road","class_code":"1040","class_label":"道路"}},{"type":"Feature","id":"tran_9f37824c-f39a-4742-a4c7-f8db25933e0b","geometry":{"type":"Polygon","coordinates":[[[139.0778229,35.9636324],[139.0778483,35.9638206],[139.0778152,35.9638236],[139.0777899,35.9636353],[139.0778229,35.9636324]]]},"properties":{"layer":"road","class_code":"1040","class_label":"道路"}}]}