{"type":"FeatureCollection","properties":{"mesh_code":"54390024","source":"PLATEAU秩父市2025","layer":"road"},"features":[{"type":"Feature","id":"tran_523e90e0-ddbd-4bf3-84e5-78fc99a62223","geometry":{"type":"Polygon","coordinates":[[[139.0614168,36.0177234],[139.0615143,36.0176368],[139.0615258,36.0176453],[139.0615375,36.0176536],[139.0615606,36.0176694],[139.061585,36.0176837],[139.0616107,36.0176966],[139.0616375,36.0177078],[139.0616653,36.0177174],[139.0616939,36.0177252],[139.0617231,36.0177313],[139.0617528,36.0177355],[139.0617828,36.017738],[139.0616926,36.017859],[139.061582,36.0178048],[139.0615647,36.0177958],[139.0615299,36.0177779],[139.0614168,36.0177234]]]},"properties":{"layer":"road","class_code":"1040","class_label":"道路"}},{"type":"Feature","id":"tran_f414cab3-b354-43f6-903d-4e42bcfd0e8c","geometry":{"type":"Polygon","coordinates":[[[139.0611825,36.0173461],[139.0612589,36.0172419],[139.0613046,36.0172713],[139.0612284,36.0173755],[139.0611825,36.0173461]]]},"properties":{"layer":"road","class_code":"1040","class_label":"道路"}},{"type":"Feature","id":"tran_bcca13f0-d131-494f-9fa4-9129eadc6252","geometry":{"type":"Polygon","coordinates":[[[139.0623507,36.0180777],[139.0624996,36.018151],[139.0626219,36.0182147],[139.0626418,36.0182242],[139.0625886,36.0182981],[139.0625668,36.0182877],[139.0625432,36.018279],[139.0624762,36.0182459],[139.0624409,36.0182275],[139.0622977,36.018157],[139.0623507,36.0180777]]]},"properties":{"layer":"road","class_code":"1040","class_label":"道路"}},{"type":"Feature","id":"tran_c34ce7c4-eda5-4195-a153-dacf46b61d03","geometry":{"type":"Polygon","coordinates":[[[139.0611422,36.0174068],[139.0611825,36.0173461],[139.0612284,36.0173755],[139.0613852,36.0175209],[139.0614662,36.0175961],[139.0614412,36.0176139],[139.0613601,36.0175387],[139.0613491,36.0175316],[139.0613372,36.0175254],[139.0613246,36.0175202],[139.0613114,36.0175162],[139.0612978,36.0175132],[139.0612737,36.0175092],[139.0612499,36.0175038],[139.0612267,36.017497],[139.0612042,36.0174888],[139.0611826,36.0174793],[139.0611618,36.0174685],[139.0611504,36.0174612],[139.0611418,36.0174518],[139.0611364,36.0174409],[139.0611346,36.0174292],[139.0611366,36.0174176],[139.0611422,36.0174068]]]},"properties":{"layer":"road","class_code":"1040","class_label":"道路"}},{"type":"Feature","id":"tran_058fcfb8-c41e-49ed-a315-7806a42dff87","geometry":{"type":"Polygon","coordinates":[[[139.0611058,36.0175837],[139.0611166,36.0175802],[139.0611255,36.0175897],[139.0611535,36.0176124],[139.0612065,36.0176493],[139.0612283,36.0176652],[139.0612416,36.0176866],[139.0612675,36.0177437],[139.0612821,36.017772],[139.061296,36.0177941],[139.0613064,36.0178106],[139.0613162,36.0178263],[139.0613233,36.017836],[139.0613316,36.0178436],[139.0613604,36.0178699],[139.0613847,36.0178974],[139.0614029,36.0179158],[139.0614089,36.0179245],[139.0614113,36.0179331],[139.0614109,36.0179397],[139.0614031,36.0179561],[139.0613928,36.0179529],[139.0614,36.0179378],[139.0614002,36.0179339],[139.0613985,36.0179278],[139.0613937,36.0179209],[139.0613759,36.0179029],[139.0613517,36.0178756],[139.0613233,36.0178496],[139.0613143,36.0178413],[139.0613065,36.0178307],[139.0612966,36.0178147],[139.0612836,36.017794],[139.061272,36.0177758],[139.0612573,36.0177471],[139.0612313,36.0176902],[139.0612193,36.0176707],[139.0611991,36.0176561],[139.061146,36.017619],[139.0611171,36.0175955],[139.0611058,36.0175837]]]},"properties":{"layer":"road","class_code":"1040","class_label":"道路"}},{"type":"Feature","id":"tran_6e93b422-b0c3-4572-bcda-f64426099972","geometry":{"type":"Polygon","coordinates":[[[139.0615578,36.0178707],[139.0616333,36.0178996],[139.0617039,36.0179287],[139.0617635,36.0179458],[139.0617887,36.017953],[139.061812,36.017961],[139.0618776,36.0179827],[139.0619329,36.0180064],[139.0620594,36.0180636],[139.0621867,36.0181187],[139.0622036,36.0181228],[139.0622348,36.0181325],[139.0622156,36.0181554],[139.0621631,36.0181365],[139.0620449,36.0180853],[139.0619184,36.0180281],[139.0618648,36.0180051],[139.0618004,36.0179838],[139.0617768,36.0179758],[139.0616994,36.0179658],[139.0616371,36.0179643],[139.0616006,36.0179634],[139.0615999,36.0179475],[139.0616002,36.0179376],[139.0615975,36.017932],[139.0615907,36.0179261],[139.0615853,36.0179221],[139.061579,36.0179188],[139.0615418,36.0179066],[139.0615578,36.0178707]]]},"properties":{"layer":"road","class_code":"1040","class_label":"道路"}},{"type":"Feature","id":"tran_0cf822f5-e678-4c2f-9458-f4aa630be829","geometry":{"type":"Polygon","coordinates":[[[139.061116,36.0175749],[139.0611727,36.0174987],[139.0613332,36.0175739],[139.0614343,36.0176215],[139.0613757,36.0177036],[139.0612475,36.017639],[139.061116,36.0175749]]]},"properties":{"layer":"road","class_code":"1040","class_label":"道路"}},{"type":"Feature","id":"tran_4f8f8eab-7b59-4f7d-b23a-cb80dc31ecdf","geometry":{"type":"Polygon","coordinates":[[[139.0612589,36.0172419],[139.061311,36.0171713],[139.0613204,36.0171587],[139.0613458,36.0171038],[139.061406,36.0171222],[139.0613542,36.0171918],[139.0613046,36.0172713],[139.0612589,36.0172419]]]},"properties":{"layer":"road","class_code":"1040","class_label":"道路"}},{"type":"Feature","id":"tran_aee02108-2231-4969-a889-9a95afc94557","geometry":{"type":"Polygon","coordinates":[[[139.0614343,36.0176215],[139.0614412,36.0176139],[139.0614662,36.0175961],[139.0614711,36.0176006],[139.0614815,36.0176099],[139.0614922,36.0176191],[139.0615031,36.017628],[139.0615143,36.0176368],[139.0614168,36.0177234],[139.0613764,36.0177039],[139.0613757,36.0177036],[139.0614343,36.0176215]]]},"properties":{"layer":"road","class_code":"1040","class_label":"道路"}},{"type":"Feature","id":"tran_e6fe8160-5836-44ed-8a77-676eb6e50b2b","geometry":{"type":"Polygon","coordinates":[[[139.0617754,36.0178996],[139.0618357,36.0178187],[139.0618475,36.0178245],[139.0620925,36.0179448],[139.0623069,36.0180471],[139.0622424,36.0181296],[139.0621748,36.0180947],[139.06215,36.0180819],[139.0620328,36.018026],[139.0617874,36.0179055],[139.0617754,36.0178996]]]},"properties":{"layer":"road","class_code":"1040","class_label":"道路"}},{"type":"Feature","id":"tran_57577f1d-be1a-418a-b2c1-1454ecec4bf9","geometry":{"type":"Polygon","coordinates":[[[139.0613354,36.0170356],[139.0614112,36.0170268],[139.0614263,36.0170324],[139.0614603,36.0170622],[139.0614384,36.0170786],[139.061406,36.0171222],[139.0613458,36.0171038],[139.0613459,36.0170847],[139.0613406,36.0170541],[139.0613354,36.0170356]]]},"properties":{"layer":"road","class_code":"1040","class_label":"道路"}},{"type":"Feature","id":"tran_ba9eb28d-a02a-4e74-8a12-aff3216c3d85","geometry":{"type":"Polygon","coordinates":[[[139.0614263,36.0170324],[139.0617288,36.0168045],[139.0620685,36.0165525],[139.0621027,36.016582],[139.0617625,36.0168343],[139.0614603,36.0170622],[139.0614263,36.0170324]]]},"properties":{"layer":"road","class_code":"1040","class_label":"道路"}},{"type":"Feature","id":"tran_a278cb96-cad2-4cdb-89b0-76fe13f32a88","geometry":{"type":"Polygon","coordinates":[[[139.0611608,36.0174932],[139.0611727,36.0174987],[139.061116,36.0175749],[139.0611166,36.0175802],[139.0611058,36.0175837],[139.0611042,36.0175691],[139.0611608,36.0174932]]]},"properties":{"layer":"road","class_code":"1040","class_label":"道路"}},{"type":"Feature","id":"tran_55c2b20e-83d5-477e-abc6-7b9a7d51d0bf","geometry":{"type":"Polygon","coordinates":[[[139.0604657,36.0165957],[139.0604946,36.0165742],[139.0605914,36.0165952],[139.0606511,36.0166161],[139.0610861,36.0167703],[139.061217,36.0168372],[139.0612845,36.0168832],[139.0613083,36.0169064],[139.061336,36.0169332],[139.0613676,36.0169676],[139.0614112,36.0170268],[139.0613354,36.0170356],[139.0613317,36.0170221],[139.0613167,36.0169799],[139.0612968,36.0169583],[139.06127,36.0169324],[139.061249,36.0169119],[139.0611875,36.01687],[139.0610627,36.0168062],[139.0606314,36.0166533],[139.0604657,36.0165957]]]},"properties":{"layer":"road","class_code":"1040","class_label":"道路"}},{"type":"Feature","id":"tran_df6725e4-9bd9-4c7f-8a49-eb082083bdf5","geometry":{"type":"Polygon","coordinates":[[[139.0597937,36.0165043],[139.0598249,36.0165413],[139.0598812,36.0165953],[139.0599595,36.0166532],[139.0600559,36.0167194],[139.0601428,36.0167754],[139.0602413,36.0168417],[139.0602998,36.0168876],[139.0604223,36.0170076],[139.0605315,36.0171195],[139.0605941,36.0171781],[139.0606365,36.0172103],[139.0606834,36.0172408],[139.0608864,36.0173606],[139.0609665,36.0174022],[139.0611608,36.0174932],[139.0611042,36.0175691],[139.0609118,36.0174754],[139.060827,36.0174314],[139.0606195,36.0173089],[139.0605676,36.0172752],[139.0605182,36.0172377],[139.0604503,36.0171742],[139.0603405,36.0170615],[139.0602225,36.016946],[139.0601709,36.0169055],[139.0600764,36.0168419],[139.0599892,36.0167857],[139.05989,36.0167176],[139.0598052,36.0166549],[139.059741,36.0165933],[139.0597068,36.0165527],[139.0597937,36.0165043]]]},"properties":{"layer":"road","class_code":"1040","class_label":"道路"}},{"type":"Feature","id":"tran_a8d9696c-ff63-469f-8013-11e3c35c76cb","geometry":{"type":"Polygon","coordinates":[[[139.0622348,36.0181325],[139.0622424,36.0181296],[139.0623069,36.0180471],[139.0623568,36.0180708],[139.0623507,36.0180777],[139.0622977,36.018157],[139.0622913,36.0181603],[139.062286,36.0181629],[139.0622758,36.0181656],[139.062258,36.0181658],[139.0622495,36.0181652],[139.0622156,36.0181554],[139.0622348,36.0181325]]]},"properties":{"layer":"road","class_code":"1040","class_label":"道路"}},{"type":"Feature","id":"tran_bc244acb-36a0-40b8-900a-55c66f5be9c8","geometry":{"type":"Polygon","coordinates":[[[139.0566648,36.020343],[139.056693,36.0203571],[139.056665,36.0203941],[139.0566368,36.0203798],[139.0566648,36.020343]]]},"properties":{"layer":"road","class_code":"1040","class_label":"道路"}},{"type":"Feature","id":"tran_690d78e6-99f4-463c-8a27-304f290a7990","geometry":{"type":"Polygon","coordinates":[[[139.0616926,36.017859],[139.0617828,36.017738],[139.0617823,36.0177308],[139.0618197,36.0177292],[139.0618473,36.0177265],[139.0618552,36.0177253],[139.0618614,36.0177519],[139.0618306,36.0177879],[139.0618357,36.0178187],[139.0617754,36.0178996],[139.0616926,36.017859]]]},"properties":{"layer":"road","class_code":"1040","class_label":"道路"}}]}