{"type":"FeatureCollection","properties":{"mesh_code":"54390059","source":"PLATEAU秩父市2025","layer":"road"},"features":[{"type":"Feature","id":"tran_57a1a173-8618-4fab-afbc-ca6c663486fa","geometry":{"type":"Polygon","coordinates":[[[139.115135,36.0452933],[139.1151422,36.0452658],[139.1151691,36.0452705],[139.1152208,36.0452749],[139.1152604,36.0452775],[139.115291,36.0452788],[139.1153152,36.0452793],[139.115336,36.0452789],[139.1153563,36.0452778],[139.115381,36.0452755],[139.1154164,36.0452713],[139.1154649,36.0452649],[139.115519,36.0452573],[139.1155697,36.0452498],[139.1156122,36.045243],[139.1156469,36.045237],[139.1156743,36.0452314],[139.1156973,36.0452254],[139.11572,36.0452174],[139.1157455,36.0452063],[139.1157739,36.0451923],[139.1158045,36.045176],[139.1158364,36.0451584],[139.1158678,36.0451413],[139.1158972,36.045126],[139.1159243,36.0451132],[139.1159492,36.0451035],[139.1159714,36.0450969],[139.11599,36.0450929],[139.1160049,36.0450907],[139.1160174,36.0450898],[139.1160292,36.0450901],[139.1160421,36.0450917],[139.1160585,36.0450953],[139.1160804,36.0451018],[139.1161078,36.0451108],[139.1161373,36.0451209],[139.1161655,36.0451303],[139.1161919,36.0451383],[139.1162176,36.0451449],[139.116243,36.04515],[139.1162671,36.0451537],[139.1162881,36.045156],[139.1163063,36.0451569],[139.1163237,36.0451566],[139.1163426,36.0451548],[139.1163637,36.0451513],[139.1163879,36.0451454],[139.1164155,36.0451366],[139.1164457,36.0451251],[139.1164776,36.0451115],[139.116512,36.0450947],[139.1165509,36.0450728],[139.1165952,36.0450447],[139.1166412,36.0450119],[139.1166838,36.0449769],[139.11672,36.0449427],[139.1167495,36.0449133],[139.1167723,36.0448925],[139.1167904,36.04488],[139.116806,36.0448729],[139.1168211,36.0448686],[139.1168364,36.0448666],[139.1168517,36.0448671],[139.1168663,36.0448702],[139.1168796,36.0448752],[139.1168917,36.0448815],[139.1169026,36.0448888],[139.1169121,36.0448968],[139.1169203,36.0449053],[139.1169272,36.0449138],[139.1169329,36.0449222],[139.1169375,36.0449304],[139.1169411,36.0449385],[139.1169442,36.0449467],[139.1169466,36.0449554],[139.1169481,36.0449646],[139.1169483,36.0449751],[139.116947,36.0449891],[139.1169438,36.0450098],[139.1169367,36.0450439],[139.1169227,36.0450998],[139.1168983,36.0451854],[139.1168908,36.0452139],[139.1168873,36.0452212],[139.1168694,36.0452836],[139.1168183,36.0452739],[139.1168498,36.0452289],[139.1168569,36.0452134],[139.1168652,36.0451818],[139.11689,36.0450944],[139.116904,36.045039],[139.1169109,36.0450059],[139.1169139,36.0449864],[139.116915,36.0449743],[139.1169149,36.0449666],[139.1169138,36.0449602],[139.116912,36.0449536],[139.1169095,36.0449471],[139.1169066,36.0449406],[139.1169031,36.0449343],[139.1168987,36.0449278],[139.1168933,36.0449211],[139.116887,36.0449147],[139.1168798,36.0449086],[139.116872,36.0449033],[139.1168637,36.044899],[139.1168551,36.0448958],[139.1168467,36.044894],[139.1168383,36.0448937],[139.1168294,36.0448949],[139.1168198,36.0448977],[139.1168095,36.0449023],[139.1167957,36.0449119],[139.1167749,36.0449308],[139.1167456,36.0449601],[139.1167083,36.0449953],[139.1166641,36.0450316],[139.1166165,36.0450655],[139.1165706,36.0450946],[139.1165301,36.0451174],[139.116494,36.045135],[139.1164605,36.0451494],[139.1164286,36.0451614],[139.1163988,36.0451709],[139.1163719,36.0451776],[139.1163478,36.0451816],[139.116326,36.0451836],[139.1163057,36.045184],[139.1162849,36.0451829],[139.1162618,36.0451804],[139.1162359,36.0451765],[139.1162085,36.045171],[139.116181,36.0451639],[139.1161534,36.0451554],[139.1161246,36.0451459],[139.1160951,36.0451358],[139.1160684,36.045127],[139.1160484,36.0451211],[139.1160352,36.0451182],[139.1160261,36.0451171],[139.1160183,36.0451169],[139.1160094,36.0451175],[139.1159973,36.0451193],[139.1159814,36.0451227],[139.1159622,36.0451284],[139.11594,36.0451371],[139.1159146,36.0451491],[139.1158861,36.0451639],[139.1158551,36.0451809],[139.115823,36.0451985],[139.1157916,36.0452152],[139.115762,36.0452298],[139.1157345,36.0452418],[139.115709,36.0452508],[139.1156834,36.0452575],[139.1156544,36.0452633],[139.1156189,36.0452695],[139.1155759,36.0452764],[139.1155248,36.0452839],[139.1154704,36.0452916],[139.1154215,36.045298],[139.1153853,36.0453024],[139.1153592,36.0453048],[139.1153375,36.0453059],[139.1153152,36.0453063],[139.1152897,36.0453059],[139.1152582,36.0453045],[139.1152177,36.0453018],[139.1151656,36.0452974],[139.115135,36.0452933]]]},"properties":{"layer":"road","class_code":"1040","class_label":"道路"}},{"type":"Feature","id":"tran_ed7e247e-c347-4e81-b82d-028e6399ba71","geometry":{"type":"Polygon","coordinates":[[[139.1132908,36.0484514],[139.1132983,36.0484671],[139.113301,36.0484739],[139.1133096,36.0484993],[139.1133105,36.0485024],[139.113328,36.0485576],[139.1133329,36.0485689],[139.113344,36.0485994],[139.1133547,36.0486349],[139.1133593,36.048654],[139.1133616,36.0486652],[139.1133631,36.0486769],[139.1133638,36.0486885],[139.1133637,36.0487],[139.1133632,36.0487079],[139.1133619,36.0487194],[139.1133598,36.0487309],[139.1133569,36.0487424],[139.1133533,36.0487534],[139.1133397,36.0488008],[139.1133377,36.0488095],[139.1133278,36.0488579],[139.1133278,36.0488585],[139.1133263,36.0488665],[139.1133253,36.0488736],[139.113325,36.0488808],[139.1133251,36.0488879],[139.1133257,36.048895],[139.1133268,36.0489023],[139.1133273,36.0489048],[139.1133291,36.048912],[139.1133312,36.0489189],[139.1133316,36.0489195],[139.1133501,36.0489628],[139.1133528,36.0489681],[139.1133558,36.0489731],[139.1133592,36.0489781],[139.1133629,36.0489829],[139.1133659,36.0489862],[139.1133702,36.0489908],[139.1133747,36.0489949],[139.1133796,36.048999],[139.1133846,36.0490028],[139.1133901,36.0490066],[139.1133931,36.0490084],[139.1133958,36.0490102],[139.1133973,36.0490111],[139.113399,36.0490119],[139.1134006,36.0490127],[139.1134023,36.0490135],[139.1134041,36.0490141],[139.1134058,36.0490147],[139.1134077,36.0490151],[139.1134096,36.0490155],[139.1134113,36.0490158],[139.1134133,36.049016],[139.1134151,36.0490162],[139.113417,36.0490162],[139.113419,36.0490162],[139.1134209,36.0490161],[139.1134228,36.0490159],[139.1134247,36.0490156],[139.1134266,36.0490152],[139.1134284,36.0490148],[139.1134302,36.0490143],[139.1134323,36.0490136],[139.113531,36.048979],[139.1135767,36.0489622],[139.1136037,36.0489527],[139.1136214,36.0489471],[139.1136501,36.0489393],[139.1136547,36.0489383],[139.1136591,36.0489376],[139.1136636,36.0489371],[139.1136681,36.0489368],[139.1136727,36.0489366],[139.1136772,36.0489366],[139.1136817,36.0489369],[139.1136862,36.0489374],[139.1136907,36.0489381],[139.1136949,36.0489389],[139.1136981,36.0489396],[139.1137022,36.0489408],[139.1137064,36.0489422],[139.1137105,36.0489438],[139.1137144,36.0489455],[139.1137183,36.0489474],[139.1137221,36.0489494],[139.1137257,36.0489517],[139.1137291,36.0489541],[139.1137324,36.0489566],[139.1137355,36.0489593],[139.1137384,36.0489621],[139.113741,36.048965],[139.1137426,36.0489668],[139.1137984,36.0490621],[139.1138444,36.0491432],[139.1138815,36.049213],[139.1139238,36.0493084],[139.1139311,36.0493257],[139.1139408,36.049347],[139.1139519,36.0493682],[139.1139726,36.0493988],[139.113974,36.0494009],[139.1139753,36.0494025],[139.1139769,36.0494041],[139.1139784,36.0494057],[139.1139799,36.0494071],[139.1139817,36.0494086],[139.1139836,36.0494098],[139.1139855,36.0494111],[139.1139874,36.0494123],[139.1139895,36.0494133],[139.1139916,36.0494143],[139.1139939,36.0494151],[139.1139962,36.049416],[139.1139985,36.0494166],[139.1140002,36.049417],[139.1140026,36.0494175],[139.114005,36.0494179],[139.1140075,36.0494182],[139.1140099,36.0494183],[139.1140124,36.0494184],[139.1140139,36.0494183],[139.1140165,36.0494183],[139.1140403,36.0494202],[139.1140538,36.0494228],[139.1140619,36.0494256],[139.1140757,36.0494334],[139.1140786,36.0494359],[139.114081,36.0494383],[139.1140832,36.0494406],[139.1140852,36.0494432],[139.114087,36.0494458],[139.1140887,36.0494484],[139.1140901,36.0494512],[139.1140914,36.049454],[139.1140925,36.0494568],[139.114093,36.0494584],[139.1141075,36.0495034],[139.1141107,36.0495121],[139.1141151,36.0495251],[139.1141282,36.0495715],[139.1141307,36.0495823],[139.1141322,36.0495873],[139.1141341,36.0495922],[139.1141363,36.049597],[139.1141388,36.0496016],[139.1141415,36.0496062],[139.1141448,36.0496107],[139.1141457,36.049612],[139.1141493,36.0496163],[139.1141531,36.0496204],[139.1141572,36.0496243],[139.1141608,36.0496275],[139.1141638,36.0496301],[139.1141671,36.0496333],[139.1141703,36.0496367],[139.1141732,36.0496402],[139.1141758,36.0496438],[139.1141782,36.0496476],[139.1141804,36.0496514],[139.1141822,36.0496554],[139.1141839,36.0496593],[139.1141852,36.0496634],[139.1141862,36.0496676],[139.1141864,36.0496684],[139.114187,36.0496715],[139.1141873,36.0496741],[139.1141877,36.0496781],[139.1141878,36.0496823],[139.1141875,36.0496865],[139.114187,36.0496907],[139.1141863,36.0496949],[139.1141853,36.049699],[139.1141839,36.0497031],[139.1141823,36.0497071],[139.1141804,36.0497111],[139.1141785,36.0497147],[139.114178,36.0497153],[139.1141531,36.0497054],[139.1141534,36.0497051],[139.1141548,36.0497023],[139.1141562,36.0496996],[139.1141573,36.0496968],[139.1141582,36.0496939],[139.1141589,36.0496909],[139.1141595,36.049688],[139.1141599,36.049685],[139.11416,36.049682],[139.1141599,36.049679],[139.1141597,36.0496761],[139.1141595,36.0496745],[139.1141589,36.0496715],[139.1141581,36.0496687],[139.114158,36.0496682],[139.1141572,36.0496658],[139.1141561,36.049663],[139.1141548,36.0496602],[139.1141532,36.0496575],[139.1141515,36.0496547],[139.1141496,36.0496522],[139.1141477,36.0496498],[139.1141455,36.0496473],[139.114143,36.049645],[139.1141405,36.0496429],[139.1141364,36.0496393],[139.1141314,36.0496344],[139.1141268,36.0496294],[139.1141224,36.0496242],[139.1141209,36.0496223],[139.1141171,36.0496168],[139.1141136,36.0496112],[139.1141105,36.0496054],[139.1141078,36.0495994],[139.1141056,36.0495934],[139.1141036,36.0495872],[139.1141009,36.0495762],[139.114088,36.0495305],[139.114084,36.0495182],[139.1140808,36.0495096],[139.1140661,36.0494641],[139.1140658,36.049463],[139.1140651,36.0494613],[139.1140644,36.0494596],[139.1140635,36.049458],[139.1140625,36.0494565],[139.1140614,36.0494549],[139.1140603,36.0494535],[139.114059,36.049452],[139.1140575,36.0494506],[139.1140484,36.0494454],[139.114045,36.0494442],[139.1140358,36.0494424],[139.1140153,36.0494409],[139.1140145,36.0494408],[139.1140123,36.0494409],[139.1140084,36.0494408],[139.1140044,36.0494405],[139.1140005,36.0494401],[139.1139965,36.0494395],[139.1139928,36.0494387],[139.1139899,36.049438],[139.1139861,36.0494369],[139.1139825,36.0494357],[139.1139789,36.0494342],[139.1139754,36.0494327],[139.1139721,36.049431],[139.1139689,36.0494291],[139.1139658,36.0494271],[139.1139628,36.049425],[139.1139599,36.0494228],[139.1139573,36.0494203],[139.1139548,36.0494179],[139.1139525,36.0494152],[139.1139504,36.0494125],[139.1139484,36.0494097],[139.1139153,36.049361],[139.1139019,36.049336],[139.1138897,36.0493113],[139.1138504,36.049223],[139.1138139,36.0491543],[139.1137682,36.0490735],[139.113715,36.048982],[139.1137139,36.0489806],[139.1137123,36.0489789],[139.1137105,36.0489772],[139.1137086,36.0489757],[139.1137067,36.0489741],[139.1137047,36.0489727],[139.1137026,36.0489713],[139.1137002,36.0489701],[139.1136979,36.0489689],[139.1136956,36.0489679],[139.1136932,36.048967],[139.1136906,36.0489662],[139.1136881,36.0489654],[139.1136863,36.0489651],[139.1136838,36.0489645],[139.1136811,36.0489641],[139.1136783,36.0489639],[139.1136757,36.0489637],[139.113673,36.0489636],[139.1136702,36.0489637],[139.1136676,36.0489639],[139.1136649,36.0489642],[139.1136622,36.0489647],[139.1136596,36.0489652],[139.1136327,36.0489726],[139.1136164,36.0489776],[139.1135902,36.048987],[139.1135444,36.0490038],[139.1134458,36.0490383],[139.1134423,36.0490394],[139.1134388,36.0490405],[139.1134352,36.0490413],[139.1134316,36.049042],[139.1134279,36.0490426],[139.1134242,36.049043],[139.1134204,36.0490432],[139.1134168,36.0490432],[139.113413,36.0490431],[139.1134092,36.0490429],[139.1134056,36.0490424],[139.1134021,36.0490419],[139.1133985,36.0490411],[139.1133949,36.0490402],[139.1133914,36.0490391],[139.113388,36.0490379],[139.1133847,36.0490365],[139.1133814,36.049035],[139.1133784,36.0490333],[139.1133753,36.0490315],[139.1133724,36.0490296],[139.1133693,36.0490277],[139.1133626,36.0490232],[139.1133562,36.0490183],[139.1133501,36.0490133],[139.1133444,36.0490079],[139.113339,36.0490023],[139.1133352,36.0489978],[139.1133306,36.0489919],[139.1133263,36.0489856],[139.1133225,36.0489793],[139.1133191,36.0489728],[139.1133187,36.0489717],[139.1133001,36.0489284],[139.1132995,36.0489271],[139.1132992,36.0489264],[139.1132966,36.0489181],[139.1132945,36.0489096],[139.1132938,36.0489061],[139.1132925,36.0488975],[139.1132918,36.048889],[139.1132917,36.0488803],[139.1132921,36.0488717],[139.1132932,36.0488631],[139.1132947,36.0488546],[139.1132949,36.0488539],[139.1133049,36.0488047],[139.1133072,36.0487952],[139.113321,36.0487467],[139.1133213,36.048746],[139.1133245,36.0487362],[139.113327,36.0487262],[139.1133289,36.0487161],[139.1133301,36.048706],[139.1133305,36.0486994],[139.1133305,36.0486891],[139.1133299,36.0486789],[139.1133285,36.0486688],[139.1133266,36.0486588],[139.1133221,36.0486408],[139.1133119,36.0486064],[139.1133012,36.0485773],[139.113296,36.0485655],[139.113278,36.0485086],[139.1132773,36.0485057],[139.1132692,36.0484818],[139.1132669,36.0484763],[139.1132597,36.0484611],[139.1132908,36.0484514]]]},"properties":{"layer":"road","class_code":"1040","class_label":"道路"}},{"type":"Feature","id":"tran_31c6a0f1-2dc9-4218-af9c-60199af0050f","geometry":{"type":"Polygon","coordinates":[[[139.1177184,36.0448764],[139.1177459,36.044899],[139.1177219,36.0449178],[139.1177216,36.0449176],[139.1176947,36.0448949],[139.1177184,36.0448764]]]},"properties":{"layer":"road","class_code":"1040","class_label":"道路"}},{"type":"Feature","id":"tran_ff543231-5df9-4d71-90d9-775ba60403bc","geometry":{"type":"Polygon","coordinates":[[[139.1132376,36.0484157],[139.1132683,36.0484053],[139.113272,36.0484125],[139.113274,36.048416],[139.1132908,36.0484514],[139.1132597,36.0484611],[139.1132585,36.0484608],[139.1132536,36.0484621],[139.1132501,36.0484648],[139.1132241,36.0484571],[139.1132293,36.0484453],[139.1132314,36.0484401],[139.1132385,36.0484235],[139.1132388,36.0484205],[139.1132376,36.0484157]]]},"properties":{"layer":"road","class_code":"1040","class_label":"道路"}},{"type":"Feature","id":"tran_b9697e15-77de-4df7-a1b0-f9846e1fc9a1","geometry":{"type":"Polygon","coordinates":[[[139.1132376,36.0484157],[139.1132144,36.0483705],[139.1132129,36.048368],[139.1132109,36.0483648],[139.1132087,36.0483618],[139.1132061,36.0483589],[139.1132036,36.0483562],[139.1132017,36.0483544],[139.1131989,36.0483519],[139.1131957,36.0483494],[139.1131925,36.0483471],[139.1131891,36.048345],[139.1131855,36.048343],[139.1131819,36.048341],[139.1131812,36.0483409],[139.1131772,36.0483397],[139.1131733,36.0483387],[139.1131692,36.0483378],[139.1131649,36.0483372],[139.1131606,36.0483367],[139.1131564,36.0483364],[139.1131523,36.0483364],[139.1131481,36.0483364],[139.1131464,36.0483364],[139.1131439,36.0483365],[139.1131412,36.0483367],[139.1131385,36.0483369],[139.113136,36.0483373],[139.1131334,36.0483379],[139.1131309,36.0483385],[139.1131284,36.0483393],[139.113126,36.0483402],[139.1131236,36.0483411],[139.1131213,36.0483422],[139.1131209,36.0483424],[139.1131187,36.0483436],[139.1131166,36.0483448],[139.1131146,36.0483462],[139.1131126,36.0483477],[139.1131108,36.0483492],[139.113109,36.0483509],[139.1131074,36.0483525],[139.1131059,36.0483543],[139.1131045,36.0483562],[139.1131041,36.0483569],[139.1130927,36.048373],[139.1129825,36.0485596],[139.1129683,36.0485855],[139.1129585,36.0485984],[139.1129488,36.0486099],[139.112936,36.0486205],[139.1129241,36.0486275],[139.1129131,36.0486316],[139.1129021,36.0486339],[139.1128975,36.0486344],[139.1128783,36.0486359],[139.1128591,36.0486366],[139.1128496,36.0486366],[139.112822,36.0486329],[139.1127517,36.048619],[139.1126564,36.048598],[139.1126011,36.0485813],[139.1125976,36.0485798],[139.1125783,36.048571],[139.1125594,36.0485614],[139.1125556,36.0485594],[139.1125376,36.0485487],[139.1125204,36.0485373],[139.1125183,36.0485359],[139.1125159,36.048534],[139.1125136,36.048532],[139.1125115,36.0485298],[139.1125094,36.0485276],[139.1125075,36.0485253],[139.1125059,36.0485229],[139.1125044,36.0485204],[139.1125029,36.0485179],[139.1125017,36.0485153],[139.1125008,36.0485127],[139.1124999,36.04851],[139.1124992,36.0485072],[139.1124987,36.0485044],[139.1124984,36.0485016],[139.1124983,36.0484989],[139.1124984,36.048496],[139.1124981,36.0484897],[139.1124983,36.0484835],[139.1124989,36.0484773],[139.1124991,36.0484753],[139.1125002,36.0484692],[139.1125017,36.0484631],[139.1125036,36.048457],[139.112506,36.0484511],[139.1125087,36.0484452],[139.1125129,36.0484377],[139.1125212,36.0484239],[139.1125307,36.0484104],[139.112539,36.0483996],[139.11255,36.0483869],[139.1125618,36.0483748],[139.1125671,36.0483694],[139.1125764,36.0483606],[139.1126041,36.0483774],[139.1125993,36.0483811],[139.1125873,36.0483922],[139.1125767,36.0484031],[139.1125667,36.0484146],[139.1125592,36.0484243],[139.1125507,36.0484365],[139.112543,36.0484491],[139.1125395,36.0484555],[139.1125374,36.04846],[139.1125356,36.0484645],[139.1125341,36.0484691],[139.112533,36.0484738],[139.1125321,36.0484787],[139.112532,36.0484797],[139.1125315,36.0484847],[139.1125314,36.0484895],[139.1125318,36.048496],[139.1125316,36.0484988],[139.1125317,36.0485001],[139.1125318,36.0485014],[139.112532,36.0485027],[139.1125324,36.048504],[139.1125328,36.0485052],[139.1125332,36.0485065],[139.1125338,36.0485077],[139.1125344,36.0485089],[139.1125352,36.04851],[139.112536,36.0485111],[139.1125368,36.0485122],[139.1125377,36.0485132],[139.1125387,36.0485142],[139.1125398,36.0485152],[139.112541,36.0485161],[139.1125419,36.0485167],[139.1125579,36.0485273],[139.1125747,36.0485371],[139.1125775,36.0485388],[139.1125951,36.0485477],[139.1126133,36.0485559],[139.1126147,36.0485565],[139.1126666,36.0485723],[139.1127601,36.0485929],[139.1128285,36.0486064],[139.1128524,36.0486095],[139.1128586,36.0486096],[139.112876,36.048609],[139.1128933,36.0486076],[139.1128955,36.0486074],[139.112902,36.048606],[139.1129072,36.048604],[139.1129141,36.0486],[139.112923,36.0485926],[139.1129306,36.0485835],[139.1129402,36.0485711],[139.1129524,36.0485479],[139.1130627,36.0483613],[139.1130721,36.0483484],[139.1130735,36.0483459],[139.1130757,36.0483427],[139.113078,36.0483395],[139.1130805,36.0483366],[139.1130833,36.0483337],[139.1130862,36.0483309],[139.1130893,36.0483283],[139.1130926,36.0483259],[139.113096,36.0483236],[139.1130996,36.0483214],[139.113103,36.0483196],[139.1131043,36.048319],[139.1131077,36.0483173],[139.1131118,36.0483157],[139.1131159,36.0483142],[139.1131201,36.0483129],[139.1131243,36.0483119],[139.1131287,36.048311],[139.113133,36.0483103],[139.1131374,36.0483098],[139.1131419,36.0483094],[139.1131462,36.0483094],[139.1131478,36.0483094],[139.1131522,36.0483092],[139.1131582,36.0483094],[139.1131642,36.0483098],[139.1131697,36.0483104],[139.113171,36.0483105],[139.1131765,36.0483115],[139.1131823,36.0483127],[139.113188,36.048314],[139.1131933,36.0483157],[139.1131971,36.0483169],[139.1132038,36.0483204],[139.1132089,36.0483232],[139.1132137,36.0483263],[139.1132183,36.0483296],[139.1132227,36.048333],[139.1132268,36.0483365],[139.1132295,36.0483393],[139.1132331,36.0483432],[139.1132367,36.0483472],[139.1132398,36.0483515],[139.1132427,36.0483559],[139.1132449,36.0483596],[139.1132683,36.0484053],[139.1132376,36.0484157]]]},"properties":{"layer":"road","class_code":"1040","class_label":"道路"}},{"type":"Feature","id":"tran_99e9b1de-81cd-4197-8b77-77b339e17c87","geometry":{"type":"Polygon","coordinates":[[[139.1150556,36.0452798],[139.1150609,36.0452531],[139.1150916,36.0452571],[139.1151422,36.0452658],[139.115135,36.0452933],[139.1150695,36.0453116],[139.1150525,36.0452882],[139.1150558,36.0452866],[139.115058,36.0452838],[139.1150556,36.0452798]]]},"properties":{"layer":"road","class_code":"1040","class_label":"道路"}},{"type":"Feature","id":"tran_061c42d1-2c2c-408c-b425-e95be9e98564","geometry":{"type":"Polygon","coordinates":[[[139.1177184,36.0448764],[139.1177455,36.0448693],[139.1177605,36.0448647],[139.1178129,36.0448511],[139.1178417,36.0448466],[139.1178799,36.0448431],[139.1179347,36.0448452],[139.1179724,36.0448484],[139.1180417,36.0448448],[139.1180467,36.0448446],[139.1181389,36.0448241],[139.1181959,36.0448068],[139.1182119,36.0448028],[139.1182267,36.0448],[139.1182367,36.0447987],[139.1182757,36.0447963],[139.1183078,36.044797],[139.1183301,36.0447992],[139.118342,36.0448017],[139.1183576,36.0448058],[139.118366,36.0448086],[139.1183733,36.0448125],[139.118401,36.0448291],[139.1184413,36.0448612],[139.1184609,36.0448746],[139.1184898,36.0448906],[139.1185018,36.0448951],[139.1185106,36.0448964],[139.118537,36.0448952],[139.1185723,36.0448894],[139.1185816,36.0448861],[139.1186081,36.0448748],[139.1186169,36.0448705],[139.1186503,36.044853],[139.1186931,36.0448336],[139.1186985,36.0448415],[139.118656,36.0448606],[139.118623,36.044878],[139.1186133,36.0448827],[139.1185842,36.0448952],[139.1185754,36.0448981],[139.1185385,36.0449042],[139.11851,36.0449054],[139.1184985,36.0449037],[139.1184844,36.0448985],[139.1184541,36.0448819],[139.1184338,36.0448679],[139.1183938,36.0448359],[139.1183659,36.0448192],[139.1183604,36.0448165],[139.1183539,36.0448142],[139.1183369,36.0448099],[139.1183249,36.0448078],[139.118307,36.044806],[139.1182759,36.0448053],[139.1182394,36.0448075],[139.1182291,36.0448088],[139.1182125,36.0448119],[139.1181999,36.0448151],[139.1181423,36.0448327],[139.1180524,36.0448526],[139.1180436,36.0448538],[139.1179722,36.0448575],[139.1179339,36.0448542],[139.1178803,36.0448522],[139.1178434,36.0448555],[139.1178156,36.0448599],[139.1177607,36.0448741],[139.1177477,36.0448783],[139.1177459,36.044899],[139.1177184,36.0448764]]]},"properties":{"layer":"road","class_code":"1040","class_label":"道路"}},{"type":"Feature","id":"tran_ec993d93-ff04-4491-99fa-9d7f26cb7a96","geometry":{"type":"Polygon","coordinates":[[[139.1169984,36.04527],[139.1170039,36.0452618],[139.1170072,36.0452568],[139.1170638,36.0451542],[139.1171382,36.0450307],[139.1172006,36.0449414],[139.1172067,36.0449351],[139.117213,36.044929],[139.1172199,36.0449232],[139.1172271,36.0449177],[139.1172347,36.0449126],[139.1172426,36.0449078],[139.1172498,36.0449039],[139.1172658,36.0448956],[139.1172833,36.0448893],[139.1173016,36.0448852],[139.1173205,36.0448834],[139.1173396,36.0448839],[139.1173583,36.0448866],[139.1173827,36.0448909],[139.117416,36.0448957],[139.1174385,36.0448979],[139.1174548,36.0448986],[139.117468,36.0448985],[139.1174786,36.0448977],[139.1174874,36.0448965],[139.1174949,36.0448948],[139.1175021,36.0448927],[139.1175101,36.0448898],[139.1175198,36.0448858],[139.1175317,36.0448807],[139.1175451,36.044875],[139.1175593,36.0448692],[139.1175736,36.0448638],[139.1175875,36.0448591],[139.1176004,36.0448553],[139.1176121,36.0448523],[139.1176225,36.0448501],[139.117632,36.0448489],[139.1176409,36.0448484],[139.1176494,36.0448487],[139.1176578,36.0448498],[139.1176662,36.0448515],[139.1176749,36.044854],[139.1176843,36.0448573],[139.1176961,36.0448626],[139.1177123,36.0448714],[139.1177184,36.0448764],[139.1176947,36.0448949],[139.1176931,36.0448935],[139.1176787,36.0448857],[139.1176696,36.0448816],[139.1176627,36.0448792],[139.1176566,36.0448774],[139.1176511,36.0448763],[139.1176461,36.0448757],[139.1176411,36.0448755],[139.1176358,36.0448758],[139.1176294,36.0448766],[139.1176212,36.0448783],[139.1176111,36.0448809],[139.1175996,36.0448843],[139.117587,36.0448885],[139.1175738,36.0448935],[139.1175603,36.044899],[139.1175472,36.0449046],[139.1175351,36.0449098],[139.1175245,36.0449142],[139.1175147,36.0449178],[139.1175049,36.0449206],[139.1174945,36.0449229],[139.117483,36.0449246],[139.1174696,36.0449255],[139.1174541,36.0449256],[139.1174356,36.0449248],[139.1174111,36.0449224],[139.1173763,36.0449174],[139.117327,36.0449089],[139.117316,36.0449085],[139.117305,36.0449093],[139.1172942,36.0449112],[139.1172838,36.0449141],[139.1172739,36.044918],[139.1172647,36.0449229],[139.1172586,36.0449262],[139.1172519,36.0449303],[139.1172455,36.0449347],[139.1172394,36.0449393],[139.1172336,36.0449442],[139.1172282,36.0449493],[139.1172238,36.0449539],[139.1171628,36.0450412],[139.117089,36.0451637],[139.1170355,36.0452607],[139.1170227,36.0452804],[139.1169984,36.04527]]]},"properties":{"layer":"road","class_code":"1040","class_label":"道路"}},{"type":"Feature","id":"tran_bdd22f30-32f5-4265-a566-3a99d1cdc0f8","geometry":{"type":"Polygon","coordinates":[[[139.1177239,36.0468793],[139.1177342,36.0468759],[139.1177367,36.0468995],[139.1177204,36.0469027],[139.1177179,36.0468802],[139.1177239,36.0468793]]]},"properties":{"layer":"road","class_code":"1040","class_label":"道路"}},{"type":"Feature","id":"tran_aae430a0-0bd0-460c-a78f-8a22deef82d2","geometry":{"type":"Polygon","coordinates":[[[139.1177367,36.0468995],[139.1177434,36.0469609],[139.1177471,36.0469768],[139.1177513,36.0469857],[139.1177572,36.0469935],[139.1177653,36.0470019],[139.1177752,36.047011],[139.117789,36.0470213],[139.1178103,36.0470337],[139.1178326,36.0470458],[139.117846,36.0470543],[139.1178524,36.0470617],[139.1178564,36.0470707],[139.1178583,36.0470827],[139.1178584,36.0470981],[139.1178569,36.0471153],[139.1178544,36.0471331],[139.1178517,36.0471511],[139.1178496,36.0471681],[139.1178483,36.0471826],[139.1178481,36.047194],[139.1178493,36.0472026],[139.1178523,36.0472116],[139.1178575,36.0472232],[139.1178639,36.047237],[139.1178704,36.0472523],[139.1178756,36.0472685],[139.1178781,36.0472878],[139.117876,36.0473156],[139.1178634,36.047366],[139.1178471,36.0473634],[139.1178594,36.0473138],[139.1178614,36.0472881],[139.1178592,36.0472709],[139.1178545,36.0472562],[139.1178482,36.0472416],[139.1178418,36.0472278],[139.1178364,36.0472156],[139.1178329,36.0472051],[139.1178315,36.0471947],[139.1178316,36.0471821],[139.117833,36.0471669],[139.1178352,36.0471496],[139.1178378,36.0471315],[139.1178403,36.0471141],[139.1178418,36.0470977],[139.1178417,36.0470836],[139.1178401,36.0470739],[139.1178375,36.0470681],[139.1178338,36.0470638],[139.1178228,36.0470567],[139.1178009,36.0470449],[139.1177784,36.0470318],[139.1177633,36.0470205],[139.1177526,36.0470106],[139.1177435,36.0470013],[139.1177363,36.0469917],[139.1177311,36.0469805],[139.1177269,36.0469628],[139.1177204,36.0469027],[139.1177367,36.0468995]]]},"properties":{"layer":"road","class_code":"1040","class_label":"道路"}},{"type":"Feature","id":"tran_f7bd89f0-70f6-4c8b-a951-d57c9362cef8","geometry":{"type":"Polygon","coordinates":[[[139.1171389,36.0473247],[139.11716,36.0472852],[139.1171716,36.0472634],[139.117192,36.0472705],[139.1172101,36.0472812],[139.1172219,36.0472965],[139.1172111,36.047302],[139.1172062,36.047305],[139.1171593,36.0473319],[139.1171389,36.0473247]]]},"properties":{"layer":"road","class_code":"1040","class_label":"道路"}},{"type":"Feature","id":"tran_10ba27cb-ff4d-491c-bf59-663b73882bb5","geometry":{"type":"Polygon","coordinates":[[[139.1171716,36.0472634],[139.1171869,36.0472346],[139.1172116,36.0471895],[139.1172335,36.0471521],[139.1172527,36.0471241],[139.1172708,36.0471046],[139.1172921,36.0470879],[139.1173217,36.0470671],[139.1173696,36.0470349],[139.1174483,36.0469842],[139.1175242,36.0469327],[139.1175338,36.0469266],[139.1175438,36.0469209],[139.1175542,36.0469156],[139.1175649,36.0469109],[139.117576,36.0469065],[139.1175874,36.0469027],[139.117599,36.0468995],[139.1176106,36.0468967],[139.1176225,36.0468945],[139.1176346,36.0468927],[139.1177179,36.0468802],[139.1177204,36.0469027],[139.1177185,36.046903],[139.1177143,36.046904],[139.1176874,36.0469098],[139.117685,36.0469088],[139.1176823,36.0469084],[139.1176395,36.0469149],[139.1176281,36.0469165],[139.1176177,36.0469185],[139.1176074,36.0469209],[139.1175973,36.0469238],[139.1175873,36.0469272],[139.1175776,36.0469309],[139.1175682,36.0469351],[139.1175591,36.0469397],[139.1174621,36.0469983],[139.1173835,36.0470489],[139.117336,36.0470808],[139.1173071,36.0471012],[139.1172875,36.0471166],[139.1172714,36.047134],[139.1172532,36.0471604],[139.1172317,36.047197],[139.1172072,36.0472418],[139.117192,36.0472705],[139.1171716,36.0472634]]]},"properties":{"layer":"road","class_code":"1040","class_label":"道路"}},{"type":"Feature","id":"tran_6fa8f0bd-c1fe-43a8-b7be-1cda0d3db62b","geometry":{"type":"Polygon","coordinates":[[[139.1179132,36.0467621],[139.1179658,36.0468114],[139.1178873,36.0468534],[139.1178547,36.0468631],[139.1178067,36.0468775],[139.1177615,36.0468934],[139.1177367,36.0468995],[139.1177342,36.0468759],[139.1177428,36.046873],[139.1177595,36.0468646],[139.1177765,36.0468566],[139.1178041,36.046838],[139.1178548,36.0467997],[139.1179132,36.0467621]]]},"properties":{"layer":"road","class_code":"1040","class_label":"道路"}},{"type":"Feature","id":"tran_c7437f94-c668-4a26-968c-dfcde8270b11","geometry":{"type":"Polygon","coordinates":[[[139.1131285,36.0486702],[139.1132241,36.0484571],[139.1132501,36.0484648],[139.1131545,36.0486779],[139.1131285,36.0486702]]]},"properties":{"layer":"road","class_code":"1040","class_label":"道路"}},{"type":"Feature","id":"tran_fe926048-1093-4ff8-bd61-57c5a44d9def","geometry":{"type":"Polygon","coordinates":[[[139.1166917,36.0453624],[139.1166971,36.0454225],[139.1166842,36.0454235],[139.1166604,36.0454248],[139.1166498,36.0454247],[139.1166299,36.0454246],[139.1164633,36.045423],[139.1164231,36.0454222],[139.1163852,36.045423],[139.1163466,36.0454256],[139.1163441,36.0454258],[139.1163057,36.0454303],[139.1162733,36.0454355],[139.1162619,36.0454376],[139.1162514,36.04544],[139.1162405,36.045443],[139.1162401,36.0454431],[139.1162328,36.0454455],[139.1162167,36.0454527],[139.1162053,36.0454584],[139.116191,36.0454666],[139.1161772,36.0454752],[139.1161641,36.0454844],[139.1161458,36.0455005],[139.116133,36.0455127],[139.1161165,36.0455301],[139.1161013,36.0455481],[139.1160922,36.04556],[139.1159824,36.0456967],[139.1159641,36.0457213],[139.1159604,36.0457267],[139.115895,36.0458105],[139.1158628,36.0458511],[139.1158523,36.0458618],[139.1158428,36.0458694],[139.1158269,36.0458809],[139.1158103,36.0458916],[139.115793,36.0459016],[139.1157879,36.0459043],[139.1157697,36.0459133],[139.115751,36.0459215],[139.1157317,36.0459288],[139.115712,36.0459353],[139.1156946,36.0459401],[139.1156624,36.0459512],[139.1156293,36.0459608],[139.1156162,36.0459642],[139.1155824,36.0459717],[139.1155507,36.0459773],[139.11551,36.0459836],[139.1154689,36.0459881],[139.1154533,36.0459893],[139.1154118,36.0459912],[139.1153703,36.0459913],[139.1153545,36.0459909],[139.1152204,36.0459822],[139.1152183,36.045982],[139.1151868,36.0459799],[139.1150777,36.0459759],[139.1150717,36.0459754],[139.1150658,36.0459752],[139.1150599,36.0459752],[139.1150541,36.0459756],[139.1150482,36.0459761],[139.1150424,36.0459769],[139.1150366,36.045978],[139.1150309,36.0459793],[139.1150254,36.0459809],[139.1150205,36.0459825],[139.1150151,36.0459845],[139.1150099,36.0459868],[139.1150049,36.0459893],[139.115,36.045992],[139.1149953,36.045995],[139.1149908,36.0459981],[139.1149866,36.0460015],[139.1149844,36.0460033],[139.11498,36.0460095],[139.114976,36.0460157],[139.1149725,36.0460223],[139.1149693,36.046029],[139.1149692,36.0460295],[139.1149666,36.0460362],[139.1149644,36.0460431],[139.1149627,36.0460501],[139.1149615,36.0460571],[139.1149608,36.0460642],[139.1149605,36.0460713],[139.1149605,36.0460723],[139.1149609,36.0460774],[139.1149616,36.0460824],[139.1149627,36.0460875],[139.1149641,36.0460925],[139.1149658,36.0460973],[139.1149679,36.0461022],[139.1149703,36.0461069],[139.1149729,36.0461115],[139.1149738,36.0461128],[139.1149769,36.0461172],[139.1149803,36.0461216],[139.1149839,36.0461258],[139.1149878,36.0461297],[139.1149919,36.0461334],[139.1150024,36.0461397],[139.1150169,36.0461459],[139.1150372,36.0461533],[139.1150563,36.0461593],[139.1150774,36.0461649],[139.115099,36.0461696],[139.1151209,36.0461733],[139.1151274,36.0461743],[139.1151719,36.0461837],[139.1152154,36.0461946],[139.1154655,36.0462637],[139.1154852,36.0462703],[139.1155133,36.0462809],[139.1155729,36.0463063],[139.1155914,36.0463143],[139.1156048,36.0463209],[139.1156223,36.0463303],[139.1156391,36.0463405],[139.1156551,36.0463514],[139.1156704,36.0463629],[139.1156709,36.0463634],[139.1156769,36.0463686],[139.1156825,36.046374],[139.1156878,36.0463796],[139.1156926,36.0463855],[139.1156971,36.0463916],[139.1156994,36.0463951],[139.1157032,36.0464014],[139.1157066,36.0464079],[139.1157095,36.0464146],[139.1157119,36.0464214],[139.115714,36.0464283],[139.1157155,36.0464353],[139.1157166,36.0464423],[139.1157172,36.0464494],[139.1157173,36.0464535],[139.1157213,36.0465291],[139.1157253,36.0466263],[139.1157286,36.0466786],[139.1157321,36.0467207],[139.1157364,36.0467615],[139.1157388,36.0467773],[139.1157468,36.0468178],[139.1157491,36.0468269],[139.115756,36.0468474],[139.1157597,36.0468557],[139.1157684,36.046872],[139.1157782,36.046888],[139.1157793,36.0468896],[139.1157902,36.0469051],[139.1158022,36.04692],[139.1158151,36.0469344],[139.115818,36.0469374],[139.1160823,36.0471799],[139.1164051,36.0474637],[139.1165645,36.0476181],[139.1166912,36.0477376],[139.1167028,36.0477495],[139.116718,36.047767],[139.116732,36.0477851],[139.1167421,36.0477997],[139.1167538,36.0478188],[139.1167643,36.0478385],[139.1167734,36.0478586],[139.1167812,36.0478791],[139.1167876,36.0478998],[139.1167925,36.0479209],[139.1167945,36.0479317],[139.1167954,36.0479368],[139.1167238,36.0479443],[139.1167231,36.0479397],[139.1167214,36.0479306],[139.1167171,36.0479124],[139.1167117,36.0478948],[139.1167051,36.0478774],[139.1166973,36.0478603],[139.1166884,36.0478435],[139.1166783,36.0478271],[139.1166699,36.047815],[139.116658,36.0477995],[139.116645,36.0477846],[139.1166356,36.0477749],[139.1165096,36.0476561],[139.1163509,36.0475024],[139.1160287,36.0472192],[139.1157625,36.0469749],[139.1157575,36.0469698],[139.1157427,36.0469533],[139.1157287,36.0469356],[139.1157162,36.046918],[139.1157141,36.0469149],[139.1157029,36.0468967],[139.1156927,36.0468774],[139.1156872,36.0468652],[139.1156789,36.0468404],[139.1156759,36.0468284],[139.1156743,36.0468208],[139.1156723,36.0468028],[139.1156676,36.0467434],[139.1156658,36.0467249],[139.1156621,36.0466819],[139.1156588,36.0466286],[139.1156547,36.0465311],[139.1156508,36.0464554],[139.1156506,36.0464519],[139.1156503,36.0464474],[139.1156497,36.0464434],[139.1156487,36.0464393],[139.1156475,36.0464354],[139.1156461,36.0464314],[139.1156444,36.0464275],[139.1156425,36.0464237],[139.1156401,36.0464197],[139.1156391,36.0464183],[139.1156363,36.0464144],[139.1156335,36.046411],[139.1156305,36.0464077],[139.1156272,36.0464046],[139.1156238,36.0464016],[139.115611,36.046392],[139.1155977,36.046383],[139.1155839,36.0463745],[139.1155694,36.0463667],[139.1155585,36.0463614],[139.1155465,36.0463562],[139.1154943,36.0463327],[139.1154764,36.0463253],[139.1154441,36.046315],[139.1152223,36.0462537],[139.1152056,36.0462503],[139.1151878,36.046247],[139.1151595,36.0462431],[139.1150881,36.0462348],[139.1150257,36.0462256],[139.1150056,36.04622],[139.1149884,36.046214],[139.1149689,36.0462049],[139.1149284,36.0461787],[139.1149143,36.046165],[139.1148976,36.0461472],[139.1148872,36.0461319],[139.1148804,36.04612],[139.1148748,36.0461026],[139.1148729,36.0460938],[139.114871,36.0460711],[139.1148714,36.0460441],[139.1148759,36.0460261],[139.1148822,36.0460088],[139.1148882,36.0459966],[139.1149013,36.0459768],[139.1149057,36.0459712],[139.1149163,36.0459599],[139.1149284,36.0459496],[139.1149416,36.0459413],[139.1149593,36.0459323],[139.1149843,36.0459222],[139.1150064,36.0459155],[139.11503,36.0459108],[139.1150694,36.0459077],[139.1150994,36.0459092],[139.1151876,36.04592],[139.1152355,36.0459245],[139.1153585,36.0459323],[139.1153714,36.0459327],[139.1154096,36.0459326],[139.1154477,36.0459309],[139.1154607,36.0459299],[139.1154984,36.0459258],[139.1155363,36.0459199],[139.115565,36.0459148],[139.1155957,36.045908],[139.1156063,36.0459052],[139.1156361,36.0458966],[139.1156688,36.0458853],[139.1156867,36.0458803],[139.1157029,36.0458751],[139.1157186,36.045869],[139.1157339,36.0458625],[139.1157492,36.0458548],[139.1157523,36.0458532],[139.115767,36.0458447],[139.1157805,36.045836],[139.1157934,36.0458267],[139.1158072,36.045813],[139.1158343,36.045779],[139.1158811,36.0457189],[139.115902,36.0456911],[139.1159192,36.0456684],[139.1159242,36.0456619],[139.1160313,36.0455285],[139.1160409,36.0455161],[139.1160581,36.0454956],[139.1160769,36.0454759],[139.1160917,36.0454616],[139.116114,36.0454422],[139.1161313,36.04543],[139.1161483,36.0454193],[139.1161647,36.04541],[139.1161828,36.0454001],[139.1161867,36.0453984],[139.1161999,36.0453932],[139.1162135,36.0453886],[139.1162161,36.0453878],[139.1162301,36.045384],[139.1162442,36.0453807],[139.1162585,36.0453781],[139.1162937,36.0453725],[139.116335,36.0453677],[139.1163395,36.0453673],[139.1163812,36.0453645],[139.116423,36.0453636],[139.1164647,36.0453645],[139.1166307,36.045366],[139.1166917,36.0453624]]]},"properties":{"layer":"road","class_code":"1040","class_label":"道路"}},{"type":"Feature","id":"tran_ef5f7db2-5662-479b-98d4-b6b6e0b643b2","geometry":{"type":"Polygon","coordinates":[[[139.1148745,36.0453715],[139.1149504,36.0453366],[139.1150182,36.0453046],[139.1150525,36.0452882],[139.1150695,36.0453116],[139.1150351,36.0453281],[139.1149671,36.0453602],[139.114891,36.0453951],[139.1148745,36.0453715]]]},"properties":{"layer":"road","class_code":"1040","class_label":"道路"}},{"type":"Feature","id":"tran_e613ef47-5f2a-4209-941c-a2cdefd5de89","geometry":{"type":"Polygon","coordinates":[[[139.1172101,36.0472812],[139.117265,36.0472531],[139.1173426,36.0472165],[139.1173438,36.0472156],[139.1173472,36.0472135],[139.1173506,36.0472116],[139.1173542,36.0472099],[139.1173579,36.0472083],[139.1173617,36.0472067],[139.1173655,36.0472055],[139.1173695,36.0472044],[139.1173735,36.0472035],[139.1173776,36.0472027],[139.1173817,36.0472022],[139.1173858,36.0472018],[139.11739,36.0472016],[139.117394,36.0472015],[139.1173969,36.0472016],[139.1174009,36.0472019],[139.117405,36.0472024],[139.1174091,36.0472031],[139.1174132,36.0472039],[139.1174172,36.0472049],[139.117421,36.0472061],[139.1174249,36.0472075],[139.1174287,36.047209],[139.1174323,36.0472107],[139.1174383,36.0472139],[139.1174977,36.0472743],[139.1174804,36.0472855],[139.1174232,36.0472274],[139.1174206,36.047226],[139.1174181,36.0472248],[139.1174155,36.0472237],[139.1174128,36.0472228],[139.1174099,36.047222],[139.1174072,36.0472213],[139.1174043,36.0472206],[139.1174014,36.0472201],[139.1173984,36.0472199],[139.1173955,36.0472197],[139.1173936,36.0472196],[139.1173906,36.0472196],[139.1173877,36.0472197],[139.1173847,36.04722],[139.1173819,36.0472204],[139.117379,36.0472209],[139.1173761,36.0472216],[139.1173733,36.0472224],[139.1173705,36.0472233],[139.1173678,36.0472243],[139.1173653,36.0472254],[139.1173627,36.0472267],[139.1173603,36.0472281],[139.1173579,36.0472295],[139.1173556,36.0472312],[139.1172765,36.0472685],[139.1172219,36.0472965],[139.1172101,36.0472812]]]},"properties":{"layer":"road","class_code":"1040","class_label":"道路"}},{"type":"Feature","id":"tran_bf5f1a95-b249-4b5c-839c-d6d9d0f283c7","geometry":{"type":"Polygon","coordinates":[[[139.1164918,36.0456009],[139.1165373,36.0455689],[139.1165605,36.045554],[139.1166246,36.0455057],[139.1166283,36.0455023],[139.1166955,36.0454409],[139.1167277,36.0454609],[139.1167259,36.0454628],[139.1166587,36.0455242],[139.1166537,36.0455288],[139.1165869,36.0455792],[139.1165632,36.0455943],[139.1165184,36.0456259],[139.1164918,36.0456009]]]},"properties":{"layer":"road","class_code":"1040","class_label":"道路"}},{"type":"Feature","id":"tran_88ce65ea-6151-4a63-a7d8-8027daa068db","geometry":{"type":"Polygon","coordinates":[[[139.1198028,36.0431589],[139.1198033,36.0431751],[139.1197754,36.0431757],[139.1197476,36.0431777],[139.11972,36.0431811],[139.1196928,36.043186],[139.1196855,36.0431875],[139.1196587,36.0431941],[139.1196326,36.043202],[139.1196143,36.0432084],[139.1195985,36.0432192],[139.1195836,36.0432309],[139.1195769,36.0432365],[139.1195634,36.0432491],[139.1195507,36.0432624],[139.1195473,36.0432662],[139.1195037,36.0433028],[139.1194435,36.0433477],[139.1194321,36.0433555],[139.1194236,36.0433643],[139.1194145,36.0433725],[139.1194047,36.0433803],[139.1193943,36.0433876],[139.1193834,36.0433943],[139.119383,36.0433945],[139.1193717,36.0434007],[139.1193597,36.0434063],[139.1193475,36.0434112],[139.1193348,36.0434155],[139.1192754,36.0434172],[139.1192641,36.0434175],[139.1192526,36.0434183],[139.1192414,36.0434195],[139.1192302,36.0434213],[139.1192192,36.0434236],[139.1192083,36.0434263],[139.1191976,36.0434296],[139.1191871,36.0434332],[139.1191789,36.0434366],[139.119169,36.0434411],[139.1191593,36.043446],[139.11915,36.0434514],[139.1191411,36.0434572],[139.1191326,36.0434633],[139.1191246,36.0434699],[139.1191067,36.0434941],[139.1191047,36.0434998],[139.1191004,36.0435164],[139.1190971,36.0435332],[139.119095,36.0435502],[139.119094,36.043567],[139.1190941,36.043584],[139.1190954,36.043601],[139.119097,36.0436118],[139.1191155,36.0436906],[139.1191232,36.0437164],[139.1191338,36.0437454],[139.1191476,36.0437769],[139.1191497,36.0437809],[139.1191817,36.0438402],[139.1191972,36.0438636],[139.1191999,36.0438665],[139.1192204,36.0438887],[139.1192286,36.043894],[139.1192372,36.0438987],[139.1192463,36.0439028],[139.1192558,36.0439064],[139.1192599,36.0439077],[139.1192697,36.0439104],[139.1192798,36.0439124],[139.1192901,36.0439138],[139.1193004,36.0439145],[139.1193109,36.0439146],[139.1193213,36.043914],[139.1193698,36.0439147],[139.1194532,36.0439147],[139.1194612,36.0439157],[139.1194755,36.0439182],[139.1194897,36.0439212],[139.1195037,36.0439248],[139.1195174,36.0439292],[139.1195208,36.0439304],[139.1195111,36.0439466],[139.1195088,36.0439458],[139.1194963,36.0439418],[139.1194834,36.0439385],[139.1194705,36.0439357],[139.1194572,36.0439335],[139.1194514,36.0439327],[139.1193696,36.0439327],[139.1193219,36.043932],[139.1193116,36.0439326],[139.1192995,36.0439325],[139.1192873,36.0439317],[139.1192753,36.0439301],[139.1192636,36.0439277],[139.1192523,36.0439247],[139.119247,36.0439229],[139.1192361,36.0439189],[139.1192256,36.0439141],[139.1192155,36.0439085],[139.1192061,36.0439025],[139.1191821,36.0438774],[139.1191784,36.0438732],[139.1191618,36.0438481],[139.1191292,36.043788],[139.1191269,36.0437834],[139.1191127,36.0437511],[139.1191018,36.0437211],[139.1190938,36.0436945],[139.119075,36.0436146],[139.1190733,36.0436026],[139.1190719,36.0435846],[139.1190719,36.0435666],[139.1190729,36.0435489],[139.1190751,36.0435309],[139.1190785,36.0435131],[139.1190833,36.0434955],[139.1190861,36.0434869],[139.1191069,36.0434587],[139.1191174,36.0434502],[139.1191268,36.0434434],[139.1191366,36.0434369],[139.1191469,36.0434311],[139.1191576,36.0434255],[139.1191685,36.0434206],[139.1191779,36.0434169],[139.1191893,36.0434128],[139.1192011,36.0434092],[139.1192131,36.0434062],[139.1192254,36.0434037],[139.1192378,36.0434018],[139.1192503,36.0434003],[139.1192628,36.0433995],[139.1192748,36.0433992],[139.1193295,36.0433997],[139.1193392,36.0433964],[139.1193503,36.0433919],[139.1193611,36.0433869],[139.1193716,36.0433812],[139.1193818,36.043375],[139.1193912,36.0433684],[139.1194001,36.0433614],[139.1194084,36.0433538],[139.1194177,36.0433442],[139.1194302,36.0433356],[139.1194897,36.0432911],[139.119532,36.0432559],[139.1195347,36.0432528],[139.1195479,36.0432389],[139.1195621,36.0432255],[139.1195694,36.0432193],[139.1195852,36.0432072],[139.1196037,36.0431946],[139.1196252,36.0431869],[139.1196523,36.0431787],[139.11968,36.0431719],[139.119688,36.0431702],[139.1197164,36.0431651],[139.1197452,36.0431616],[139.1197742,36.0431594],[139.1198028,36.0431589]]]},"properties":{"layer":"road","class_code":"1040","class_label":"道路"}},{"type":"Feature","id":"tran_77b6264f-79c4-41d9-98f2-e57fdbc1061f","geometry":{"type":"Polygon","coordinates":[[[139.1137662,36.0448247],[139.1137783,36.0448449],[139.1136817,36.0448835],[139.1136398,36.0449021],[139.1135895,36.0449277],[139.1134876,36.0449814],[139.1134449,36.0450075],[139.1134334,36.0450155],[139.113423,36.0450256],[139.1134139,36.0450362],[139.1134039,36.0450511],[139.1133941,36.0450686],[139.113386,36.0450869],[139.1133732,36.0451268],[139.1133483,36.0452164],[139.1133044,36.0453517],[139.1132786,36.0454429],[139.1132748,36.0454627],[139.1132473,36.0454591],[139.1132514,36.0454386],[139.1132775,36.0453464],[139.1133214,36.0452111],[139.1133463,36.0451215],[139.1133594,36.0450801],[139.1133684,36.0450602],[139.113379,36.0450412],[139.1133901,36.0450244],[139.1134009,36.0450118],[139.1134136,36.0449996],[139.1134274,36.04499],[139.1134717,36.0449629],[139.1135746,36.0449088],[139.1136258,36.0448827],[139.1136689,36.0448635],[139.1137662,36.0448247]]]},"properties":{"layer":"road","class_code":"1040","class_label":"道路"}},{"type":"Feature","id":"tran_b6899d62-926a-4e37-8104-9cff22a08411","geometry":{"type":"Polygon","coordinates":[[[139.1150609,36.0452531],[139.1150556,36.0452798],[139.1150406,36.0452778],[139.1150396,36.0452776],[139.1149946,36.0452737],[139.1149868,36.0452733],[139.1149571,36.0452725],[139.1149349,36.0452728],[139.1149053,36.0452745],[139.1148758,36.0452773],[139.1148467,36.0452815],[139.1148366,36.0452832],[139.1146266,36.0453093],[139.1144238,36.0453319],[139.1142892,36.0453477],[139.1142368,36.045355],[139.1142045,36.0453607],[139.1141817,36.0453647],[139.1141466,36.0453707],[139.1141372,36.0453723],[139.1140754,36.0453811],[139.1140036,36.0453922],[139.1139316,36.0454008],[139.1139205,36.0454033],[139.1138556,36.0454086],[139.1138533,36.0453779],[139.1139267,36.0453741],[139.113998,36.0453655],[139.1140694,36.0453544],[139.1141309,36.0453457],[139.1141976,36.0453343],[139.1142297,36.0453286],[139.1142835,36.0453211],[139.1144191,36.0453051],[139.1146219,36.0452825],[139.1148306,36.0452566],[139.1148403,36.045255],[139.114871,36.0452505],[139.1149023,36.0452475],[139.1149335,36.0452459],[139.1149574,36.0452455],[139.1149886,36.0452463],[139.1149976,36.0452468],[139.1150436,36.0452508],[139.1150456,36.0452511],[139.1150609,36.0452531]]]},"properties":{"layer":"road","class_code":"1040","class_label":"道路"}},{"type":"Feature","id":"tran_0b5678f9-26a6-4091-a489-51f2c9b5ca59","geometry":{"type":"Polygon","coordinates":[[[139.1137905,36.045381],[139.1138028,36.0453804],[139.1138533,36.0453779],[139.1138556,36.0454086],[139.1138511,36.0454143],[139.113848,36.0454202],[139.1138454,36.0454269],[139.1138444,36.0454293],[139.113843,36.045444],[139.1138115,36.0454435],[139.1138096,36.0454337],[139.1138035,36.0454234],[139.1137929,36.0454125],[139.1137905,36.045381]]]},"properties":{"layer":"road","class_code":"1040","class_label":"道路"}},{"type":"Feature","id":"tran_71979650-34fa-4061-8abe-81db7989657b","geometry":{"type":"Polygon","coordinates":[[[139.1170227,36.0452804],[139.1170136,36.0452945],[139.1170101,36.0452993],[139.1169907,36.0453185],[139.1169737,36.0453312],[139.1169027,36.0453798],[139.1168967,36.0453835],[139.1168871,36.0453888],[139.1168773,36.0453937],[139.1168692,36.0453972],[139.1168588,36.0454013],[139.1168482,36.045405],[139.1168373,36.0454081],[139.1168261,36.0454107],[139.1168149,36.0454128],[139.1168035,36.0454144],[139.1167976,36.0454151],[139.116788,36.0454158],[139.1167805,36.0454174],[139.1167757,36.0454188],[139.1167709,36.0454218],[139.1167599,36.0454302],[139.1167472,36.0454402],[139.1167277,36.0454609],[139.1166955,36.0454409],[139.1167035,36.0454306],[139.1167051,36.0454273],[139.1167051,36.0454261],[139.1167045,36.045424],[139.1167039,36.0454237],[139.1167021,36.0454229],[139.1166971,36.0454225],[139.1166917,36.0453624],[139.1167087,36.0453614],[139.1167149,36.0453595],[139.1167222,36.0453568],[139.1167292,36.0453539],[139.1167361,36.0453506],[139.1167429,36.045347],[139.1167493,36.0453431],[139.1167554,36.045339],[139.1167612,36.0453346],[139.1167667,36.0453299],[139.116772,36.0453251],[139.1167768,36.04532],[139.1167813,36.0453146],[139.116816,36.0452766],[139.1168183,36.0452739],[139.1168694,36.0452836],[139.1168665,36.0452939],[139.1168653,36.0453009],[139.1168653,36.0453049],[139.1168685,36.0453071],[139.1168731,36.0453079],[139.1168776,36.0453063],[139.1168903,36.0452899],[139.1169184,36.045245],[139.1169873,36.0452631],[139.1169855,36.0452685],[139.1169853,36.0452708],[139.1169878,36.045272],[139.1169926,36.0452717],[139.1169984,36.04527],[139.1170227,36.0452804]]]},"properties":{"layer":"road","class_code":"1040","class_label":"道路"}},{"type":"Feature","id":"tran_00e8d3c9-8bc7-4882-954b-2da6f1541818","geometry":{"type":"Polygon","coordinates":[[[139.1132931,36.0454742],[139.1132973,36.0454706],[139.113309,36.0454617],[139.1133213,36.0454535],[139.113334,36.0454457],[139.1133472,36.0454386],[139.1133554,36.0454346],[139.1133692,36.0454285],[139.1133837,36.0454229],[139.1133984,36.0454179],[139.1134144,36.0454134],[139.11344,36.0454084],[139.1134838,36.0454015],[139.1135196,36.0453973],[139.1135633,36.0453939],[139.1136376,36.0453885],[139.1137817,36.0453815],[139.1137905,36.045381],[139.1137929,36.0454125],[139.1137841,36.0454129],[139.1136405,36.04542],[139.1135669,36.0454253],[139.1135242,36.0454287],[139.1134903,36.0454326],[139.1134483,36.0454393],[139.1134254,36.0454438],[139.1134122,36.0454475],[139.1133994,36.0454517],[139.113387,36.0454566],[139.1133748,36.0454619],[139.113368,36.0454653],[139.1133564,36.0454716],[139.1133454,36.0454783],[139.1133346,36.0454854],[139.1133246,36.0454931],[139.1133212,36.045496],[139.1132931,36.0454742]]]},"properties":{"layer":"road","class_code":"1040","class_label":"道路"}},{"type":"Feature","id":"tran_6cc46f40-be1f-4629-ae00-a55cd886b66a","geometry":{"type":"Polygon","coordinates":[[[139.1167954,36.0479368],[139.1168089,36.0479366],[139.1168257,36.0479484],[139.1168015,36.0479722],[139.1167295,36.0479798],[139.1167238,36.0479443],[139.1167954,36.0479368]]]},"properties":{"layer":"road","class_code":"1040","class_label":"道路"}},{"type":"Feature","id":"tran_2c6b1187-1d38-4c5f-ab52-f505cd5706f3","geometry":{"type":"Polygon","coordinates":[[[139.1168089,36.0479366],[139.1168484,36.0478994],[139.1168787,36.0478733],[139.1168996,36.0478556],[139.1169132,36.0478423],[139.1169245,36.0478278],[139.1169378,36.0478067],[139.1169526,36.0477797],[139.1169663,36.0477505],[139.1169772,36.0477213],[139.1169857,36.0476914],[139.116993,36.0476594],[139.1170001,36.0476253],[139.1170083,36.0475906],[139.117019,36.0475568],[139.1170333,36.0475221],[139.1170522,36.0474837],[139.1170762,36.0474394],[139.1171033,36.0473905],[139.1171317,36.0473383],[139.1171389,36.0473247],[139.1171593,36.0473319],[139.117152,36.0473455],[139.1171236,36.0473979],[139.1170964,36.0474468],[139.1170727,36.0474906],[139.1170541,36.0475283],[139.1170403,36.0475619],[139.1170299,36.0475946],[139.1170219,36.0476285],[139.1170148,36.0476625],[139.1170075,36.0476951],[139.1169986,36.047726],[139.1169874,36.0477563],[139.1169731,36.0477866],[139.1169578,36.0478145],[139.1169438,36.0478367],[139.1169312,36.0478529],[139.1169162,36.0478676],[139.1168948,36.0478858],[139.1168649,36.0479115],[139.1168257,36.0479484],[139.1168089,36.0479366]]]},"properties":{"layer":"road","class_code":"1040","class_label":"道路"}},{"type":"Feature","id":"tran_5b03ad19-46eb-4abf-b2a0-54df89f61456","geometry":{"type":"Polygon","coordinates":[[[139.1177219,36.0449178],[139.1177459,36.044899],[139.1178119,36.044956],[139.1178351,36.0449799],[139.1178423,36.0449932],[139.1178453,36.0450041],[139.1178463,36.0450133],[139.1178464,36.0450223],[139.1178456,36.0450331],[139.1178432,36.0450485],[139.1178367,36.0450744],[139.1178229,36.0451171],[139.1178045,36.0451698],[139.1177884,36.0452147],[139.1177787,36.0452418],[139.1177723,36.0452585],[139.1177656,36.0452735],[139.1177573,36.0452892],[139.1177471,36.0453058],[139.1177343,36.0453241],[139.1177181,36.0453452],[139.1176982,36.0453697],[139.1176764,36.0453959],[139.1176544,36.0454219],[139.1176309,36.0454493],[139.1176033,36.0454807],[139.1175731,36.0455149],[139.1175478,36.0455446],[139.117533,36.0455646],[139.117526,36.0455788],[139.1175225,36.0455933],[139.1175211,36.0456105],[139.117522,36.0456297],[139.1175251,36.0456499],[139.1175306,36.0456696],[139.1175383,36.0456878],[139.1175481,36.0457045],[139.1175599,36.04572],[139.1175735,36.0457341],[139.117589,36.0457471],[139.1176071,36.0457594],[139.1176293,36.0457726],[139.1176558,36.0457877],[139.1176833,36.0458033],[139.1177073,36.0458174],[139.117727,36.0458304],[139.1177436,36.0458444],[139.1177581,36.0458604],[139.1177701,36.0458769],[139.1177799,36.0458929],[139.1177876,36.045909],[139.1177932,36.0459259],[139.1177967,36.0459439],[139.1177984,36.045963],[139.1177988,36.0459828],[139.1177988,36.0460005],[139.1177992,36.0460135],[139.1178005,36.0460224],[139.117803,36.0460297],[139.1178128,36.046046],[139.1178444,36.0460912],[139.1178154,36.0461045],[139.1177833,36.0460586],[139.1177717,36.0460392],[139.1177678,36.0460276],[139.117766,36.0460156],[139.1177655,36.0460009],[139.1177655,36.045983],[139.1177651,36.0459642],[139.1177636,36.045947],[139.1177606,36.0459315],[139.1177559,36.0459174],[139.1177494,36.0459039],[139.1177409,36.0458898],[139.1177303,36.0458753],[139.1177181,36.0458619],[139.1177044,36.0458503],[139.1176871,36.0458389],[139.117664,36.0458254],[139.1176367,36.0458099],[139.1176099,36.0457945],[139.1175866,36.0457807],[139.1175664,36.0457669],[139.1175483,36.045752],[139.1175325,36.0457354],[139.1175188,36.0457175],[139.1175074,36.045698],[139.1174985,36.0456769],[139.1174923,36.0456545],[139.1174887,36.0456319],[139.1174877,36.0456101],[139.1174894,36.0455898],[139.117494,36.045571],[139.1175031,36.0455526],[139.1175198,36.0455299],[139.1175459,36.0454993],[139.1175762,36.045465],[139.1176037,36.0454337],[139.117627,36.0454065],[139.1176489,36.0453807],[139.1176705,36.0453547],[139.11769,36.0453306],[139.1177057,36.0453102],[139.1177177,36.0452931],[139.1177271,36.0452778],[139.1177346,36.0452635],[139.1177407,36.0452499],[139.1177468,36.045234],[139.1177564,36.0452072],[139.1177725,36.0451623],[139.1177908,36.0451099],[139.1178042,36.0450683],[139.1178104,36.0450441],[139.1178124,36.0450306],[139.1178131,36.0450216],[139.117813,36.0450146],[139.1178124,36.0450082],[139.1178105,36.0450017],[139.1178063,36.0449939],[139.1177866,36.0449737],[139.1177219,36.0449178]]]},"properties":{"layer":"road","class_code":"1040","class_label":"道路"}},{"type":"Feature","id":"tran_30f4cce7-6cf2-4340-9e06-fa0d4afcdb45","geometry":{"type":"Polygon","coordinates":[[[139.1205146,36.0411066],[139.1205148,36.041107],[139.1205273,36.0411113],[139.1205336,36.0411138],[139.1205398,36.0411166],[139.1205457,36.0411196],[139.120562,36.0411343],[139.1205761,36.0411503],[139.120588,36.0411675],[139.1205974,36.0411857],[139.1206042,36.0412046],[139.1206085,36.041224],[139.12061,36.0412437],[139.1206088,36.0412634],[139.1206049,36.0412828],[139.1205984,36.0413018],[139.1205893,36.0413201],[139.1205778,36.0413375],[139.1205639,36.0413536],[139.1205479,36.0413685],[139.12053,36.0413818],[139.1205103,36.0413934],[139.1204867,36.0414046],[139.1204612,36.0414127],[139.1204344,36.0414174],[139.1204071,36.0414186],[139.1203798,36.0414163],[139.1203534,36.0414104],[139.1202953,36.041394],[139.120238,36.0413756],[139.1201818,36.0413552],[139.1201266,36.041333],[139.1200727,36.0413089],[139.12002,36.0412829],[139.1199919,36.0412692],[139.1199675,36.0412552],[139.119945,36.0412407],[139.1199222,36.041225],[139.1198977,36.0412074],[139.1198705,36.0411872],[139.1198405,36.041164],[139.1198088,36.0411379],[139.1197771,36.0411094],[139.1197465,36.0410788],[139.1197144,36.0410445],[139.1196778,36.0410043],[139.1196369,36.0409595],[139.1195976,36.0409167],[139.1195663,36.0408831],[139.1195437,36.0408598],[139.1195243,36.0408422],[139.1195028,36.0408253],[139.1194786,36.0408082],[139.1194545,36.0407928],[139.1194332,36.0407805],[139.1194143,36.0407712],[139.1193962,36.0407638],[139.1193777,36.0407577],[139.1193585,36.0407525],[139.1193388,36.0407481],[139.1193187,36.0407444],[139.1192984,36.0407413],[139.1192779,36.0407388],[139.1192573,36.0407369],[139.1192363,36.0407357],[139.1192145,36.0407354],[139.119191,36.0407361],[139.1191641,36.0407381],[139.1191324,36.0407415],[139.1190951,36.0407464],[139.1190514,36.0407526],[139.1190018,36.0407598],[139.1189494,36.0407677],[139.1188981,36.0407757],[139.1188499,36.0407835],[139.1188037,36.040791],[139.1187586,36.0407981],[139.1187144,36.0408048],[139.1186726,36.040811],[139.1186345,36.0408165],[139.1185999,36.0408219],[139.1185674,36.0408278],[139.1185337,36.0408356],[139.1184837,36.0408511],[139.1184268,36.0408715],[139.1184039,36.0408821],[139.1183821,36.0408941],[139.1183616,36.0409075],[139.1183424,36.0409221],[139.1183246,36.0409378],[139.1183084,36.0409546],[139.1182554,36.041011],[139.1182399,36.0410266],[139.1182257,36.0410429],[139.1182125,36.0410598],[139.1182036,36.0410725],[139.1181923,36.0410903],[139.1181824,36.0411085],[139.1181737,36.0411272],[139.1181559,36.0411739],[139.1181236,36.0412686],[139.1180631,36.0414414],[139.1180487,36.0414831],[139.1180421,36.0414989],[139.1180382,36.0415058],[139.1180294,36.0415172],[139.1180234,36.0415234],[139.118016,36.0415302],[139.1180083,36.0415367],[139.118,36.0415428],[139.117992,36.0415482],[139.1179829,36.0415536],[139.1179737,36.0415586],[139.1179641,36.041563],[139.1179542,36.0415672],[139.1179439,36.0415708],[139.1179336,36.041574],[139.117923,36.0415767],[139.1179171,36.041578],[139.1177841,36.0416118],[139.1177006,36.0416311],[139.1176867,36.0416358],[139.117673,36.0416411],[139.1176597,36.0416471],[139.1176469,36.0416536],[139.1176439,36.0416553],[139.117629,36.0416656],[139.1176204,36.0416733],[139.1176,36.0416965],[139.1175816,36.0417175],[139.1174467,36.0418807],[139.1173456,36.0420143],[139.1171544,36.0422577],[139.1171447,36.0422726],[139.1171389,36.0422831],[139.1171349,36.0422927],[139.1171308,36.0423048],[139.1171275,36.0423171],[139.1171251,36.0423295],[139.1171248,36.0423309],[139.1171233,36.0423434],[139.1171226,36.042356],[139.1171227,36.0423685],[139.1171238,36.0423811],[139.1171256,36.0423936],[139.1171282,36.042406],[139.1171291,36.0424089],[139.1171311,36.0424196],[139.1171339,36.0424301],[139.1171374,36.0424405],[139.1171415,36.0424508],[139.1171464,36.0424609],[139.1171519,36.0424706],[139.1171545,36.0424748],[139.1171609,36.0424842],[139.117168,36.0424933],[139.1171757,36.0425021],[139.1171839,36.0425106],[139.1171927,36.0425186],[139.1172021,36.0425264],[139.1172119,36.0425335],[139.1172184,36.042538],[139.1172511,36.0425628],[139.1172696,36.042578],[139.1172996,36.0426051],[139.1173162,36.0426215],[139.1173283,36.0426342],[139.1173396,36.0426475],[139.11735,36.0426613],[139.1173594,36.0426755],[139.1173597,36.0426762],[139.1173682,36.0426908],[139.1173756,36.0427058],[139.1173787,36.0427132],[139.1174154,36.0428014],[139.1174239,36.0428212],[139.1174367,36.0428574],[139.1174466,36.0428927],[139.1174607,36.0429495],[139.1174701,36.0430239],[139.1174704,36.0430347],[139.1175172,36.0436882],[139.1175265,36.0437967],[139.117527,36.0438395],[139.1175246,36.0438822],[139.1175195,36.043924],[139.1175113,36.0439663],[139.1175004,36.0440082],[139.1174917,36.0440352],[139.11743,36.0442021],[139.1173816,36.0443547],[139.1173272,36.0445283],[139.1172818,36.0446607],[139.1171821,36.0448829],[139.1170702,36.0450991],[139.1169873,36.0452631],[139.1169184,36.045245],[139.1169255,36.0452311],[139.1170036,36.0450767],[139.1171149,36.0448615],[139.1172132,36.0446428],[139.1172575,36.0445132],[139.1173117,36.0443402],[139.1173606,36.0441863],[139.1174223,36.0440194],[139.1174301,36.0439948],[139.1174404,36.0439557],[139.1174478,36.0439165],[139.1174526,36.043878],[139.1174549,36.0438384],[139.1174544,36.043799],[139.1174452,36.043692],[139.1173982,36.0430369],[139.117398,36.0430274],[139.1173894,36.0429583],[139.1173761,36.042905],[139.1173667,36.042872],[139.117355,36.0428389],[139.1173471,36.0428204],[139.1173104,36.042732],[139.1173079,36.0427261],[139.117302,36.0427142],[139.1172951,36.0427021],[139.1172874,36.0426905],[139.117279,36.0426794],[139.11727,36.0426688],[139.1172598,36.042658],[139.1172448,36.0426433],[139.1172171,36.0426182],[139.1172008,36.0426048],[139.1171708,36.042582],[139.1171646,36.0425779],[139.1171522,36.0425687],[139.1171401,36.0425587],[139.1171286,36.0425483],[139.117118,36.0425373],[139.117108,36.0425259],[139.1170987,36.042514],[139.1170908,36.0425023],[139.1170868,36.042496],[139.1170799,36.0424837],[139.1170736,36.0424707],[139.1170683,36.0424574],[139.1170638,36.042444],[139.1170601,36.0424302],[139.1170581,36.0424195],[139.1170575,36.0424171],[139.1170543,36.0424022],[139.117052,36.0423865],[139.1170507,36.0423707],[139.1170505,36.0423549],[139.1170513,36.0423393],[139.1170532,36.0423242],[139.1170537,36.0423211],[139.1170566,36.0423062],[139.1170607,36.0422907],[139.1170659,36.0422755],[139.1170716,36.0422617],[139.1170799,36.0422467],[139.1170922,36.0422281],[139.1172844,36.0419832],[139.1173861,36.041849],[139.1175222,36.0416843],[139.1175413,36.0416624],[139.117564,36.0416367],[139.1175785,36.0416235],[139.1175998,36.0416089],[139.117607,36.0416048],[139.1176232,36.0415966],[139.1176399,36.0415891],[139.1176571,36.0415824],[139.1176768,36.0415757],[139.1177634,36.0415556],[139.1178969,36.0415218],[139.1179027,36.0415205],[139.1179099,36.0415186],[139.1179166,36.0415166],[139.1179231,36.0415142],[139.1179296,36.0415115],[139.1179358,36.0415087],[139.1179419,36.0415055],[139.1179477,36.041502],[139.1179528,36.0414985],[139.1179582,36.0414946],[139.1179632,36.0414904],[139.1179679,36.041486],[139.1179703,36.0414835],[139.1179746,36.0414779],[139.1179751,36.041477],[139.1179798,36.0414657],[139.1179936,36.0414256],[139.1180541,36.0412528],[139.1180867,36.0411574],[139.1181054,36.0411082],[139.1181157,36.0410863],[139.1181272,36.0410651],[139.11814,36.0410446],[139.1181507,36.0410295],[139.1181659,36.0410101],[139.1181824,36.0409913],[139.1181986,36.040975],[139.1182541,36.0409158],[139.11827,36.0408991],[139.1182875,36.0408834],[139.1183063,36.0408688],[139.1183265,36.0408555],[139.1183478,36.0408434],[139.1183703,36.0408327],[139.1184584,36.0408011],[139.1185126,36.0407843],[139.1185509,36.0407754],[139.1185864,36.0407689],[139.1186224,36.0407634],[139.1186608,36.0407578],[139.1187023,36.0407516],[139.1187461,36.040745],[139.1187908,36.0407379],[139.1188369,36.0407304],[139.1188854,36.0407226],[139.1189371,36.0407146],[139.1189898,36.0407066],[139.1190398,36.0406993],[139.119084,36.040693],[139.1191228,36.040688],[139.1191568,36.0406843],[139.1191868,36.0406821],[139.1192139,36.0406813],[139.1192392,36.0406817],[139.1192633,36.040683],[139.1192866,36.0406852],[139.1193095,36.040688],[139.1193322,36.0406914],[139.119355,36.0406956],[139.1193778,36.0407007],[139.1194008,36.0407069],[139.1194238,36.0407145],[139.1194467,36.0407239],[139.1194699,36.0407354],[139.1194945,36.0407495],[139.119521,36.0407666],[139.1195478,36.0407854],[139.1195723,36.0408047],[139.1195946,36.040825],[139.119619,36.04085],[139.1196509,36.0408843],[139.1196904,36.0409273],[139.1197313,36.0409721],[139.1197677,36.041012],[139.1197988,36.0410454],[139.1198277,36.0410742],[139.1198572,36.0411007],[139.1198872,36.0411254],[139.119916,36.0411477],[139.1199422,36.0411672],[139.1199658,36.0411841],[139.1199873,36.0411989],[139.1200075,36.041212],[139.1200283,36.0412239],[139.1200527,36.0412358],[139.1200826,36.0412485],[139.1201186,36.041263],[139.1201604,36.0412796],[139.1202052,36.0412973],[139.1202487,36.0413138],[139.1202877,36.0413272],[139.1203257,36.0413381],[139.12037,36.0413481],[139.1203875,36.0413508],[139.1204053,36.041351],[139.1204229,36.0413487],[139.1204397,36.0413439],[139.1204553,36.0413369],[139.1204692,36.0413279],[139.1204781,36.0413184],[139.120486,36.0413084],[139.120493,36.0412979],[139.1204988,36.041287],[139.1205036,36.0412757],[139.1205117,36.0412523],[139.1205113,36.0412279],[139.1205026,36.0412046],[139.120486,36.0411843],[139.1204632,36.0411686],[139.1205146,36.0411066]]]},"properties":{"layer":"road","class_code":"1040","class_label":"道路"}},{"type":"Feature","id":"tran_75dbd15a-e55d-435b-a954-7601d719e23a","geometry":{"type":"Polygon","coordinates":[[[139.1132473,36.0454591],[139.1132748,36.0454627],[139.1132777,36.0454692],[139.1132804,36.0454724],[139.113284,36.045474],[139.1132879,36.0454749],[139.1132896,36.0454749],[139.1132931,36.0454742],[139.1133212,36.045496],[139.113315,36.0455012],[139.1133104,36.0455054],[139.1132946,36.0455175],[139.1132651,36.0455403],[139.1132568,36.0455467],[139.1132554,36.0455477],[139.1132326,36.045528],[139.1132346,36.0455254],[139.1132359,36.0455228],[139.1132368,36.0455198],[139.1132378,36.0455151],[139.1132387,36.0455067],[139.1132407,36.0454945],[139.1132415,36.0454886],[139.1132473,36.0454591]]]},"properties":{"layer":"road","class_code":"1040","class_label":"道路"}},{"type":"Feature","id":"tran_9cda081d-b0ac-4c4f-8509-4fe22bd72758","geometry":{"type":"Polygon","coordinates":[[[139.1138115,36.0454435],[139.113843,36.045444],[139.1138413,36.0454661],[139.1138362,36.0455107],[139.1138262,36.0455599],[139.1138181,36.0456118],[139.1138056,36.0457243],[139.1137988,36.0457589],[139.1137978,36.0457634],[139.1137939,36.0457747],[139.1137894,36.045804],[139.1137895,36.0458227],[139.113791,36.0458474],[139.1137964,36.0458725],[139.1138001,36.0459023],[139.1138044,36.0459142],[139.1137906,36.0459175],[139.113786,36.0459046],[139.1137821,36.045874],[139.1137779,36.0458541],[139.113769,36.0458339],[139.1137656,36.0458221],[139.113764,36.045816],[139.1137614,36.0458006],[139.1137611,36.0457949],[139.1137616,36.0457808],[139.1137641,36.0457698],[139.1137684,36.0457574],[139.1137718,36.0457436],[139.1137868,36.045609],[139.113795,36.0455562],[139.1138049,36.0455074],[139.1138098,36.0454641],[139.1138115,36.0454435]]]},"properties":{"layer":"road","class_code":"1040","class_label":"道路"}},{"type":"Feature","id":"tran_447b9d23-0d70-422b-8f79-7fe05eadfb69","geometry":{"type":"Polygon","coordinates":[[[139.112637,36.0483209],[139.1126431,36.0483215],[139.1126469,36.0483216],[139.1126498,36.0483218],[139.1126507,36.0483178],[139.1126729,36.0483183],[139.1126726,36.0483417],[139.1126707,36.0483429],[139.1126618,36.0483444],[139.112654,36.0483449],[139.112646,36.0483457],[139.1126396,36.0483473],[139.112637,36.0483209]]]},"properties":{"layer":"road","class_code":"1040","class_label":"道路"}},{"type":"Feature","id":"tran_d30f3ff5-bd7f-4a42-a39e-775538107ebd","geometry":{"type":"Polygon","coordinates":[[[139.1205207,36.0410805],[139.1205391,36.0410834],[139.1205497,36.0410858],[139.1205578,36.0410885],[139.1205637,36.0410906],[139.1205698,36.041093],[139.1205757,36.0410956],[139.1205814,36.0410986],[139.120587,36.0411018],[139.1205922,36.0411052],[139.1205971,36.0411088],[139.1205995,36.0411107],[139.1206256,36.0411343],[139.120646,36.0411613],[139.1206602,36.0411909],[139.1206676,36.0412221],[139.1206681,36.0412538],[139.1206616,36.0412851],[139.1206507,36.0413132],[139.1206422,36.0413359],[139.1206356,36.0413542],[139.1206306,36.0413686],[139.120627,36.0413798],[139.1206244,36.0413885],[139.1206226,36.0413954],[139.1206215,36.041401],[139.1206208,36.0414053],[139.1206206,36.0414086],[139.1206207,36.0414111],[139.1206211,36.0414132],[139.1206217,36.0414154],[139.1206226,36.0414179],[139.1206238,36.0414205],[139.1206253,36.0414232],[139.1206269,36.041426],[139.1206289,36.0414288],[139.1206311,36.0414316],[139.1206336,36.0414345],[139.1206364,36.0414372],[139.1206394,36.04144],[139.1206429,36.0414427],[139.1206467,36.0414454],[139.1206511,36.0414481],[139.1206561,36.0414507],[139.1206617,36.0414534],[139.120668,36.0414561],[139.1206749,36.0414588],[139.1206822,36.0414615],[139.1206899,36.0414642],[139.1206977,36.0414669],[139.1207056,36.0414696],[139.1207136,36.0414724],[139.1207216,36.0414751],[139.1207296,36.041478],[139.1207377,36.041481],[139.1207459,36.0414842],[139.1207542,36.0414876],[139.1207627,36.0414913],[139.1207714,36.0414952],[139.1207802,36.0414995],[139.120789,36.041504],[139.1207978,36.041509],[139.1208066,36.0415143],[139.1208153,36.04152],[139.1208239,36.0415262],[139.1208323,36.0415327],[139.1208405,36.0415395],[139.1208487,36.0415467],[139.1208568,36.0415543],[139.1208649,36.0415622],[139.1208731,36.0415706],[139.1208818,36.0415802],[139.1208913,36.041592],[139.1209019,36.041607],[139.1209142,36.0416262],[139.1209285,36.0416507],[139.1209636,36.0417104],[139.1209796,36.0417369],[139.1209896,36.0417488],[139.1209981,36.0417559],[139.1210078,36.0417628],[139.1210193,36.041771],[139.1210324,36.041781],[139.1210452,36.0417925],[139.1210565,36.0418054],[139.1210666,36.0418224],[139.1210772,36.041847],[139.1210885,36.041878],[139.1210988,36.041909],[139.1211068,36.0419357],[139.121113,36.04196],[139.1211183,36.041985],[139.121123,36.042014],[139.1211271,36.0420505],[139.121131,36.0421014],[139.1211355,36.0421786],[139.1211535,36.0422819],[139.1211604,36.0423516],[139.1211669,36.0423922],[139.1211683,36.0423978],[139.1211701,36.0424032],[139.1211722,36.0424086],[139.1211747,36.0424139],[139.1211777,36.0424191],[139.1211809,36.0424241],[139.1211844,36.0424289],[139.1211846,36.0424292],[139.1211885,36.0424339],[139.1211927,36.0424385],[139.1211972,36.0424428],[139.121202,36.042447],[139.121207,36.0424509],[139.1212123,36.0424546],[139.1212171,36.0424575],[139.1212262,36.0424616],[139.1212359,36.0424654],[139.1212456,36.0424687],[139.1212483,36.0424695],[139.1212582,36.0424723],[139.1212685,36.0424746],[139.1212788,36.0424765],[139.1212892,36.0424779],[139.1212998,36.0424788],[139.1213103,36.0424793],[139.1213128,36.0424794],[139.121329,36.0424799],[139.1213451,36.0424812],[139.1213612,36.0424832],[139.1213771,36.0424859],[139.1213927,36.0424892],[139.121394,36.0424896],[139.1214094,36.0424937],[139.1214245,36.0424985],[139.1214393,36.042504],[139.1214536,36.0425101],[139.1214619,36.0425141],[139.1214697,36.0425191],[139.1214725,36.0425215],[139.1214784,36.042527],[139.1214837,36.0425327],[139.1214888,36.0425388],[139.1214935,36.042545],[139.1214977,36.0425514],[139.1214982,36.0425522],[139.1215019,36.0425588],[139.1215052,36.0425656],[139.121508,36.0425725],[139.1215141,36.0425905],[139.1215167,36.0426012],[139.1215205,36.0426203],[139.1215226,36.0426312],[139.1215239,36.0426438],[139.1215237,36.0426519],[139.1215231,36.04266],[139.1215219,36.042668],[139.1215201,36.0426759],[139.1215181,36.0426828],[139.1215136,36.042699],[139.1214815,36.0426988],[139.1214473,36.0426966],[139.1214549,36.042665],[139.121456,36.0426598],[139.1214568,36.0426547],[139.1214573,36.0426497],[139.1214573,36.0426457],[139.1214565,36.0426378],[139.1214547,36.0426288],[139.1214512,36.0426109],[139.1214493,36.0426031],[139.1214443,36.042588],[139.1214425,36.042584],[139.1214406,36.04258],[139.1214383,36.0425758],[139.1214357,36.0425718],[139.1214328,36.0425681],[139.1214299,36.0425645],[139.1214267,36.0425612],[139.1214242,36.0425588],[139.121421,36.0425573],[139.1214099,36.0425526],[139.1213985,36.0425483],[139.1213867,36.0425445],[139.1213742,36.0425412],[139.1213616,36.0425385],[139.1213493,36.0425364],[139.1213369,36.0425349],[139.1213244,36.0425339],[139.1213107,36.0425333],[139.1213078,36.0425333],[139.1212944,36.0425327],[139.1212802,36.0425315],[139.1212661,36.0425296],[139.1212523,36.0425271],[139.1212386,36.042524],[139.1212257,36.0425205],[139.121221,36.0425189],[139.1212085,36.0425147],[139.1211956,36.0425097],[139.1211804,36.0425028],[139.1211703,36.0424965],[139.1211624,36.042491],[139.1211547,36.0424851],[139.1211474,36.0424788],[139.1211406,36.0424722],[139.1211342,36.0424653],[139.1211288,36.0424587],[139.1211275,36.0424571],[139.1211226,36.0424503],[139.1211177,36.0424426],[139.1211133,36.0424347],[139.1211095,36.0424267],[139.1211062,36.0424185],[139.1211035,36.0424102],[139.1211012,36.0424011],[139.1210941,36.0423572],[139.1210867,36.042282],[139.1211007,36.0421525],[139.1210978,36.0421029],[139.1210939,36.0420525],[139.1210899,36.042017],[139.1210854,36.0419891],[139.1210803,36.0419651],[139.1210743,36.0419417],[139.1210666,36.0419157],[139.1210565,36.0418853],[139.1210455,36.0418553],[139.1210358,36.0418328],[139.1210278,36.0418192],[139.1210193,36.0418095],[139.1210085,36.0417999],[139.1209969,36.0417909],[139.1209859,36.0417832],[139.1209752,36.0417755],[139.1209638,36.0417661],[139.1209507,36.0417506],[139.1209337,36.0417223],[139.1209033,36.0416601],[139.1208893,36.0416362],[139.1208776,36.0416178],[139.1208676,36.0416038],[139.120859,36.0415931],[139.1208511,36.0415843],[139.1208433,36.0415764],[139.1208356,36.0415689],[139.120828,36.0415617],[139.1208204,36.041555],[139.1208128,36.0415487],[139.1208051,36.0415428],[139.1207974,36.0415372],[139.1207896,36.0415321],[139.1207817,36.0415273],[139.1207737,36.0415228],[139.1207656,36.0415186],[139.1207575,36.0415147],[139.1207495,36.0415111],[139.1207415,36.0415076],[139.1207337,36.0415044],[139.1207259,36.0415014],[139.1207182,36.0414986],[139.1207105,36.0414958],[139.1207027,36.0414931],[139.1206949,36.0414904],[139.1206869,36.0414877],[139.1206789,36.0414849],[139.1206709,36.0414821],[139.1206631,36.0414792],[139.1206555,36.0414762],[139.1206482,36.0414731],[139.1206414,36.0414699],[139.1206351,36.0414665],[139.1206294,36.041463],[139.1206242,36.0414593],[139.1206195,36.0414556],[139.1206153,36.0414519],[139.1206115,36.0414481],[139.1206081,36.0414443],[139.1206051,36.0414404],[139.1206024,36.0414366],[139.1206001,36.0414327],[139.120598,36.0414289],[139.1205963,36.0414251],[139.1205949,36.0414212],[139.1205938,36.0414173],[139.120593,36.041413],[139.1205928,36.0414084],[139.1205932,36.0414033],[139.120594,36.0413977],[139.1205954,36.0413912],[139.1205973,36.0413836],[139.1206001,36.0413743],[139.1206038,36.0413627],[139.1206089,36.041348],[139.1206156,36.0413295],[139.1206242,36.0413065],[139.1206351,36.0412784],[139.1206407,36.0412511],[139.1206402,36.0412234],[139.1206336,36.0411962],[139.120621,36.0411705],[139.1206029,36.041147],[139.1205798,36.0411266],[139.1205782,36.0411253],[139.1205743,36.0411224],[139.1205703,36.0411198],[139.120566,36.0411173],[139.1205615,36.041115],[139.1205569,36.0411129],[139.1205522,36.0411111],[139.1205474,36.0411094],[139.1205465,36.0411092],[139.1205151,36.0411059],[139.1205207,36.0410805]]]},"properties":{"layer":"road","class_code":"1040","class_label":"道路"}},{"type":"Feature","id":"tran_da0e27c8-df46-4db9-8cdb-cddffb6e8efd","geometry":{"type":"Polygon","coordinates":[[[139.1125411,36.0483005],[139.112542,36.0482999],[139.1125506,36.048291],[139.1125546,36.0482818],[139.1125567,36.0482689],[139.1125559,36.0482594],[139.1126021,36.0482464],[139.1126099,36.0482576],[139.112614,36.0482642],[139.1126259,36.0482839],[139.1126263,36.0482848],[139.112627,36.0482869],[139.1126275,36.048289],[139.1126279,36.0482911],[139.1126282,36.0482933],[139.1126283,36.0482946],[139.1126283,36.0482968],[139.1126281,36.048299],[139.112628,36.0483],[139.1126288,36.0483147],[139.1126296,36.048318],[139.1126321,36.04832],[139.112637,36.0483209],[139.1126396,36.0483473],[139.1126304,36.0483513],[139.1126262,36.048354],[139.1126041,36.0483774],[139.1125764,36.0483606],[139.1125801,36.0483528],[139.1125802,36.0483486],[139.11258,36.0483409],[139.1125795,36.048337],[139.1125769,36.0483325],[139.1125736,36.0483308],[139.1125694,36.0483292],[139.1125621,36.0483293],[139.1125411,36.0483005]]]},"properties":{"layer":"road","class_code":"1040","class_label":"道路"}}]}