{"type":"FeatureCollection","properties":{"mesh_code":"54390068","source":"PLATEAU秩父市2025","layer":"road"},"features":[{"type":"Feature","id":"tran_334d5c58-e8c2-46af-a1e3-cf5a7518ce4f","geometry":{"type":"Polygon","coordinates":[[[139.1083815,36.0506883],[139.1083874,36.0506815],[139.1083939,36.0506727],[139.1084123,36.0506829],[139.1084055,36.050701],[139.108399,36.0506993],[139.1083815,36.0506883]]]},"properties":{"layer":"road","class_code":"1040","class_label":"道路"}},{"type":"Feature","id":"tran_459784f0-7722-45a6-be2b-42388a10ad2e","geometry":{"type":"Polygon","coordinates":[[[139.1015385,36.0520964],[139.1015526,36.0520435],[139.101566,36.0520373],[139.1015704,36.0520337],[139.1016148,36.0520329],[139.1016151,36.052045],[139.1016192,36.0520676],[139.1016339,36.0521152],[139.1015903,36.0521241],[139.1015576,36.0520997],[139.1015385,36.0520964]]]},"properties":{"layer":"road","class_code":"1040","class_label":"道路"}},{"type":"Feature","id":"tran_4b934ad3-18cd-4d9a-b540-02ecb8bbdb8c","geometry":{"type":"Polygon","coordinates":[[[139.1084123,36.0506829],[139.1084405,36.0506906],[139.1084703,36.0506982],[139.1086556,36.0507487],[139.1086654,36.050748],[139.1086798,36.0507335],[139.1087216,36.0506588],[139.1087418,36.0506662],[139.1086988,36.0507431],[139.1086766,36.0507652],[139.108653,36.050767],[139.1084644,36.0507156],[139.1084055,36.050701],[139.1084123,36.0506829]]]},"properties":{"layer":"road","class_code":"1040","class_label":"道路"}},{"type":"Feature","id":"tran_1d6a1a6c-0385-473d-b450-a4212dcae3ec","geometry":{"type":"Polygon","coordinates":[[[139.1003134,36.0535986],[139.1003332,36.0536058],[139.1003498,36.0536116],[139.1003466,36.0536434],[139.1003316,36.0536424],[139.1003272,36.0536427],[139.1003239,36.0536442],[139.1003214,36.0536456],[139.1003182,36.0536486],[139.1003151,36.0536546],[139.100266,36.053654],[139.1002661,36.0536489],[139.1002641,36.0536245],[139.1002605,36.0536178],[139.1003134,36.0535986]]]},"properties":{"layer":"road","class_code":"1040","class_label":"道路"}},{"type":"Feature","id":"tran_f4eb07cf-a3db-46aa-bb1c-15106df031d5","geometry":{"type":"Polygon","coordinates":[[[139.1014945,36.0530762],[139.1014963,36.0530492],[139.1018479,36.0530647],[139.101846,36.0530916],[139.1014945,36.0530762]]]},"properties":{"layer":"road","class_code":"1040","class_label":"道路"}},{"type":"Feature","id":"tran_b7a0bf20-6669-4175-a933-aa505c902bef","geometry":{"type":"Polygon","coordinates":[[[139.1014852,36.051119],[139.1017711,36.0510914],[139.1017897,36.0510859],[139.1018124,36.0510788],[139.101857,36.0510711],[139.1018606,36.0510972],[139.1018044,36.0511019],[139.1014848,36.0511326],[139.1014852,36.051119]]]},"properties":{"layer":"road","class_code":"1040","class_label":"道路"}},{"type":"Feature","id":"tran_d6968733-2d2b-4a36-8e54-6201ff64253a","geometry":{"type":"Polygon","coordinates":[[[139.1014516,36.0533364],[139.1014517,36.0533274],[139.1015951,36.0533285],[139.101679,36.0533293],[139.1017703,36.0533303],[139.1018141,36.0533257],[139.1018278,36.0533238],[139.1018712,36.0533167],[139.101914,36.0533076],[139.1019339,36.0533026],[139.1020429,36.053281],[139.1021529,36.0532602],[139.1022328,36.0532454],[139.1022442,36.0532438],[139.1022874,36.0532398],[139.1023123,36.0532381],[139.1023432,36.0532362],[139.1024669,36.0532467],[139.1024659,36.0532557],[139.102342,36.0532451],[139.1023132,36.0532471],[139.1022886,36.0532487],[139.1022455,36.0532527],[139.1022353,36.0532542],[139.1021555,36.0532691],[139.1020454,36.0532898],[139.1019368,36.0533113],[139.101917,36.0533162],[139.1018736,36.0533254],[139.1018298,36.0533327],[139.1018157,36.0533346],[139.1017708,36.0533393],[139.1016789,36.0533383],[139.101595,36.0533375],[139.1014516,36.0533364]]]},"properties":{"layer":"road","class_code":"1040","class_label":"道路"}},{"type":"Feature","id":"tran_6079df35-bd07-4fe3-91ee-c06a7c72f5c2","geometry":{"type":"Polygon","coordinates":[[[139.1016218,36.0522177],[139.1016652,36.0522095],[139.1016708,36.0522379],[139.1016723,36.052261],[139.1016674,36.0523119],[139.1016491,36.0524547],[139.1016296,36.0526183],[139.1016205,36.0526521],[139.1016105,36.0526779],[139.1016019,36.0527003],[139.1015981,36.0527088],[139.1015478,36.0528023],[139.1015405,36.0528184],[139.1015344,36.0528347],[139.1015329,36.0528393],[139.1015258,36.0528604],[139.1015177,36.0528959],[139.1014963,36.0530492],[139.1014522,36.0530452],[139.1014736,36.0528906],[139.1014824,36.0528523],[139.1014901,36.0528297],[139.1014918,36.0528248],[139.1014983,36.052807],[139.1015067,36.0527888],[139.1015552,36.0526985],[139.1015595,36.0526898],[139.1015681,36.0526672],[139.1015765,36.0526457],[139.1015863,36.0526076],[139.1016049,36.0524511],[139.1016226,36.0523126],[139.1016236,36.0523046],[139.1016278,36.0522606],[139.1016266,36.0522417],[139.1016218,36.0522177]]]},"properties":{"layer":"road","class_code":"1040","class_label":"道路"}},{"type":"Feature","id":"tran_8647179f-2d17-4d9a-b77a-89b53bc3f42c","geometry":{"type":"Polygon","coordinates":[[[139.1000759,36.0529302],[139.1001231,36.0528058],[139.1001565,36.0527129],[139.1001907,36.052628],[139.100198,36.05261],[139.1002982,36.0526369],[139.1002909,36.0526547],[139.1002753,36.0526933],[139.1002649,36.0527233],[139.1002566,36.0527516],[139.1002513,36.0527772],[139.1002462,36.052812],[139.1002415,36.0528534],[139.1002392,36.0528899],[139.100238,36.0529269],[139.1002381,36.0529708],[139.1000759,36.0529302]]]},"properties":{"layer":"road","class_code":"1040","class_label":"道路"}},{"type":"Feature","id":"tran_9e248f4c-dc70-4281-a2bc-02452101f7b8","geometry":{"type":"Polygon","coordinates":[[[139.1009898,36.0534828],[139.1009913,36.053444],[139.1010513,36.0534442],[139.101202,36.053444],[139.1012156,36.0534438],[139.1012162,36.0534708],[139.1012023,36.053471],[139.1010513,36.0534713],[139.1010302,36.0534711],[139.1009898,36.0534828]]]},"properties":{"layer":"road","class_code":"1040","class_label":"道路"}},{"type":"Feature","id":"tran_3b918bd1-b337-4588-81fe-b493bec33623","geometry":{"type":"Polygon","coordinates":[[[139.1014876,36.0504569],[139.1015223,36.050485],[139.1016001,36.0505379],[139.101667,36.0505838],[139.1016384,36.0506113],[139.1015715,36.0505654],[139.1014938,36.0505127],[139.1014562,36.0504844],[139.1014876,36.0504569]]]},"properties":{"layer":"road","class_code":"1040","class_label":"道路"}},{"type":"Feature","id":"tran_f0ae8bd1-eca8-4014-abc3-1b990de23e6d","geometry":{"type":"Polygon","coordinates":[[[139.1014322,36.0530658],[139.1014512,36.0530525],[139.1014522,36.0530452],[139.1014963,36.0530492],[139.1014945,36.0530762],[139.1014925,36.0530761],[139.1014881,36.0531077],[139.101444,36.0531036],[139.101431,36.0530928],[139.1014322,36.0530658]]]},"properties":{"layer":"road","class_code":"1040","class_label":"道路"}},{"type":"Feature","id":"tran_ee973866-259a-41a0-add2-0d56561a7ee2","geometry":{"type":"Polygon","coordinates":[[[139.1003111,36.0526051],[139.1005012,36.0526205],[139.1006332,36.0526374],[139.1006323,36.0526419],[139.1006367,36.0526424],[139.1007382,36.0526551],[139.100734,36.0526774],[139.1006324,36.0526647],[139.100497,36.0526474],[139.1003075,36.052632],[139.1003111,36.0526051]]]},"properties":{"layer":"road","class_code":"1040","class_label":"道路"}},{"type":"Feature","id":"tran_33f52f13-a1ef-479d-bf18-7d0a51b6f72f","geometry":{"type":"Polygon","coordinates":[[[139.1069717,36.0501239],[139.1070075,36.0501123],[139.1070198,36.0501375],[139.1069841,36.0501491],[139.1069717,36.0501239]]]},"properties":{"layer":"road","class_code":"1040","class_label":"道路"}},{"type":"Feature","id":"tran_d6329c98-61f6-43f4-9d7a-de20af5e60c0","geometry":{"type":"Polygon","coordinates":[[[139.101444,36.0531036],[139.1014881,36.0531077],[139.1014663,36.0532654],[139.1014582,36.0533005],[139.1014488,36.053317],[139.1014104,36.0532999],[139.1014145,36.0532939],[139.1014224,36.0532598],[139.101444,36.0531036]]]},"properties":{"layer":"road","class_code":"1040","class_label":"道路"}},{"type":"Feature","id":"tran_bf7b0621-f22f-4a27-ad55-3bd4e6735633","geometry":{"type":"Polygon","coordinates":[[[139.1011289,36.0542308],[139.1011251,36.0542525],[139.1010999,36.0542496],[139.1010527,36.054244],[139.1010453,36.054247],[139.1010053,36.0542315],[139.1010343,36.0541812],[139.1010303,36.0541748],[139.1010327,36.054166],[139.101042,36.0541676],[139.1010451,36.0541624],[139.1010928,36.0541683],[139.1010903,36.0541818],[139.1010914,36.0541933],[139.1010941,36.0542021],[139.1011014,36.0542112],[139.1011173,36.0542244],[139.1011233,36.0542293],[139.1011289,36.0542308]]]},"properties":{"layer":"road","class_code":"1040","class_label":"道路"}},{"type":"Feature","id":"tran_d459b3a2-56a3-4b6e-9456-7a71fb764288","geometry":{"type":"Polygon","coordinates":[[[139.1003498,36.0536116],[139.1004262,36.0536438],[139.1004852,36.0536704],[139.1005282,36.0536856],[139.100542,36.0536886],[139.1005672,36.0536917],[139.1006215,36.0536942],[139.1006893,36.0536986],[139.1007517,36.0537017],[139.1008326,36.0537079],[139.1008473,36.0537082],[139.1008665,36.0537077],[139.1008963,36.0537057],[139.1009076,36.0537048],[139.1009642,36.0537015],[139.1009703,36.0537006],[139.1009742,36.0537189],[139.1009093,36.0537228],[139.1008678,36.0537258],[139.1008473,36.0537262],[139.1008314,36.0537259],[139.10075,36.0537197],[139.1006878,36.0537166],[139.10062,36.0537123],[139.1005649,36.0537096],[139.1005375,36.0537063],[139.1005208,36.0537026],[139.1004754,36.0536866],[139.1004154,36.0536595],[139.1003989,36.0536532],[139.1003771,36.0536471],[139.1003552,36.0536439],[139.1003466,36.0536434],[139.1003498,36.0536116]]]},"properties":{"layer":"road","class_code":"1040","class_label":"道路"}},{"type":"Feature","id":"tran_91694169-1dfa-47cf-b6a9-de7e16108b75","geometry":{"type":"Polygon","coordinates":[[[139.1011354,36.0548991],[139.1011406,36.0549349],[139.1010907,36.0549396],[139.1010103,36.0549454],[139.1010064,36.0549095],[139.1010863,36.0549037],[139.1011354,36.0548991]]]},"properties":{"layer":"road","class_code":"1040","class_label":"道路"}},{"type":"Feature","id":"tran_35cbde9c-fd7c-48b3-a0ae-47b223162c3d","geometry":{"type":"Polygon","coordinates":[[[139.1003565,36.0535051],[139.1004566,36.0535004],[139.1006396,36.0534938],[139.1006416,36.0535298],[139.1004589,36.0535363],[139.1003591,36.0535411],[139.1003565,36.0535051]]]},"properties":{"layer":"road","class_code":"1040","class_label":"道路"}},{"type":"Feature","id":"tran_dff5d80f-df42-4b7c-88e5-e5c7b448a5ec","geometry":{"type":"Polygon","coordinates":[[[139.1017147,36.0505882],[139.1018631,36.0506021],[139.1019506,36.0506115],[139.101968,36.0506144],[139.1019815,36.050621],[139.1019886,36.0506259],[139.1019937,36.0506284],[139.1020493,36.0506457],[139.1020964,36.0506625],[139.1020897,36.0506749],[139.1020429,36.0506582],[139.1019864,36.0506406],[139.1019789,36.050637],[139.1019717,36.050632],[139.1019619,36.0506271],[139.1019479,36.0506248],[139.1018611,36.0506155],[139.1017128,36.0506016],[139.1017147,36.0505882]]]},"properties":{"layer":"road","class_code":"1040","class_label":"道路"}},{"type":"Feature","id":"tran_38d21c08-697e-491b-babc-4e036fd1b5b8","geometry":{"type":"Polygon","coordinates":[[[139.1014104,36.0532999],[139.1014488,36.053317],[139.1014517,36.0533274],[139.1014516,36.0533364],[139.1014137,36.0533678],[139.1013756,36.0533492],[139.1014071,36.0533049],[139.1014104,36.0532999]]]},"properties":{"layer":"road","class_code":"1040","class_label":"道路"}},{"type":"Feature","id":"tran_21fd0f63-48e8-4fc0-8abe-83fb7db00eec","geometry":{"type":"Polygon","coordinates":[[[139.1000464,36.0530079],[139.1000759,36.0529302],[139.1002381,36.0529708],[139.1002394,36.0530052],[139.1002402,36.0530133],[139.1002554,36.0530244],[139.100255,36.0530515],[139.1002448,36.0530552],[139.1001776,36.053059],[139.1001746,36.0530419],[139.1001731,36.0530383],[139.1001707,36.0530362],[139.1001674,36.0530352],[139.1001639,36.0530354],[139.1001579,36.0530358],[139.1000464,36.0530079]]]},"properties":{"layer":"road","class_code":"1040","class_label":"道路"}},{"type":"Feature","id":"tran_11b65171-6e9e-40e4-96f6-bfd12c23f1d9","geometry":{"type":"Polygon","coordinates":[[[139.1012024,36.0522211],[139.1013646,36.0521888],[139.1013754,36.0521881],[139.1013889,36.052188],[139.1014407,36.0521901],[139.1015256,36.0521927],[139.1016137,36.0521939],[139.1016133,36.0522119],[139.101525,36.0522107],[139.1014397,36.0522081],[139.1013884,36.052206],[139.1013762,36.0522061],[139.1013681,36.0522066],[139.1012076,36.0522386],[139.1012024,36.0522211]]]},"properties":{"layer":"road","class_code":"1040","class_label":"道路"}},{"type":"Feature","id":"tran_566cd643-3773-4dfc-8eb6-b2411fc4eb62","geometry":{"type":"Polygon","coordinates":[[[139.1000292,36.0541587],[139.1000477,36.054138],[139.1001418,36.0540311],[139.1001801,36.0539842],[139.1001936,36.053962],[139.1002063,36.0539389],[139.1002172,36.0539136],[139.1002249,36.0538896],[139.1002416,36.053831],[139.1002541,36.0537792],[139.100264,36.0537132],[139.1002657,36.053676],[139.100266,36.053654],[139.1003151,36.0536546],[139.1003217,36.0537341],[139.1002949,36.0537685],[139.1002926,36.0537842],[139.1002796,36.0538376],[139.1002627,36.0538971],[139.1002544,36.0539228],[139.1002425,36.0539505],[139.1002288,36.0539755],[139.1002137,36.054],[139.1001742,36.0540485],[139.1001234,36.0541128],[139.1000881,36.0541618],[139.1000697,36.0541825],[139.1000292,36.0541587]]]},"properties":{"layer":"road","class_code":"1040","class_label":"道路"}},{"type":"Feature","id":"tran_47fd4e19-d74d-4047-9090-3640d7102dec","geometry":{"type":"Polygon","coordinates":[[[139.1009508,36.0549546],[139.100995,36.0549583],[139.1009895,36.0549999],[139.1009851,36.0550427],[139.1009814,36.0550657],[139.1009785,36.0550845],[139.1009737,36.0550961],[139.1009249,36.0551584],[139.1008902,36.0551355],[139.1009334,36.0550804],[139.1009351,36.0550764],[139.1009374,36.0550612],[139.1009408,36.0550389],[139.1009453,36.0549965],[139.1009508,36.0549546]]]},"properties":{"layer":"road","class_code":"1040","class_label":"道路"}},{"type":"Feature","id":"tran_5cf2b180-35c4-4591-8546-7c1c48b4b165","geometry":{"type":"Polygon","coordinates":[[[139.0997936,36.0518106],[139.0997958,36.0517948],[139.0999573,36.0518178],[139.0999713,36.0518207],[139.0999964,36.0518286],[139.1000514,36.0518498],[139.1001671,36.0518919],[139.1002415,36.051915],[139.1003005,36.0519423],[139.100351,36.0519682],[139.1003563,36.0519702],[139.1004201,36.0519887],[139.1004108,36.0520188],[139.1003802,36.0519992],[139.1003391,36.0519835],[139.100289,36.0519578],[139.100232,36.0519314],[139.1001586,36.0519086],[139.100042,36.0518661],[139.0999876,36.0518452],[139.0999645,36.0518379],[139.0999458,36.051834],[139.0997936,36.0518106]]]},"properties":{"layer":"road","class_code":"1040","class_label":"道路"}},{"type":"Feature","id":"tran_db1ded34-ab26-4fe9-85df-20e898e4d5fc","geometry":{"type":"Polygon","coordinates":[[[139.1013469,36.0503798],[139.1013793,36.05031],[139.1014116,36.0502273],[139.1015333,36.0502586],[139.1015,36.050344],[139.1014664,36.0504164],[139.1013469,36.0503798]]]},"properties":{"layer":"road","class_code":"1040","class_label":"道路"}},{"type":"Feature","id":"tran_cefaea38-1334-4d5d-9def-c8cf913b89fc","geometry":{"type":"Polygon","coordinates":[[[139.1013464,36.0501625],[139.1013537,36.0501455],[139.1013663,36.0501449],[139.101438,36.0501595],[139.1015603,36.0501891],[139.1015571,36.0501979],[139.1015333,36.0502586],[139.1014116,36.0502273],[139.1013424,36.0502132],[139.1013568,36.0501742],[139.1013567,36.0501725],[139.1013554,36.0501703],[139.1013532,36.0501676],[139.1013464,36.0501625]]]},"properties":{"layer":"road","class_code":"1040","class_label":"道路"}},{"type":"Feature","id":"tran_80375df6-1474-4310-be0f-c49bc231c874","geometry":{"type":"Polygon","coordinates":[[[139.1004201,36.0519887],[139.1004766,36.0519964],[139.1005739,36.0520292],[139.1005719,36.0520332],[139.100547,36.0520845],[139.1004489,36.052053],[139.1004108,36.0520188],[139.1004201,36.0519887]]]},"properties":{"layer":"road","class_code":"1040","class_label":"道路"}},{"type":"Feature","id":"tran_ddced59d-b16f-4dd2-8988-fb6d77977122","geometry":{"type":"Polygon","coordinates":[[[139.1010446,36.0536903],[139.1011155,36.05369],[139.1012042,36.0536919],[139.1011744,36.0537183],[139.1011151,36.053717],[139.1010448,36.0537174],[139.1010446,36.0536903]]]},"properties":{"layer":"road","class_code":"1040","class_label":"道路"}},{"type":"Feature","id":"tran_645a257b-1cb3-488f-9d7d-cac3f1c73320","geometry":{"type":"Polygon","coordinates":[[[139.1004163,36.0551124],[139.1004225,36.0551119],[139.1004389,36.0551056],[139.1004422,36.0551018],[139.1004619,36.055118],[139.1004672,36.0551237],[139.1004602,36.0551594],[139.1004531,36.0551637],[139.1004093,36.0551575],[139.1004002,36.0551462],[139.1004163,36.0551124]]]},"properties":{"layer":"road","class_code":"1040","class_label":"道路"}},{"type":"Feature","id":"tran_0a4fabc9-59de-45c0-8cc0-a637507e753c","geometry":{"type":"Polygon","coordinates":[[[139.1004834,36.0549712],[139.1005009,36.0549822],[139.1004872,36.0549967],[139.1004847,36.0550006],[139.1004825,36.0550052],[139.1004801,36.0550111],[139.1004619,36.055118],[139.1004422,36.0551018],[139.1004584,36.055007],[139.1004616,36.0549991],[139.1004644,36.0549932],[139.1004683,36.054987],[139.1004834,36.0549712]]]},"properties":{"layer":"road","class_code":"1040","class_label":"道路"}},{"type":"Feature","id":"tran_2da72775-0262-4a27-8b30-6665a1e96b64","geometry":{"type":"Polygon","coordinates":[[[139.1013756,36.0533492],[139.1014137,36.0533678],[139.1013607,36.0534367],[139.1013495,36.0534521],[139.1013112,36.0534338],[139.1013228,36.053418],[139.1013756,36.0533492]]]},"properties":{"layer":"road","class_code":"1040","class_label":"道路"}},{"type":"Feature","id":"tran_9505e8a4-d9a7-4c18-8519-9404192777e9","geometry":{"type":"Polygon","coordinates":[[[139.1010451,36.0541624],[139.1010527,36.0541431],[139.1010689,36.0540566],[139.1010711,36.0540445],[139.1011151,36.0540498],[139.1011127,36.054062],[139.1010928,36.0541683],[139.1010451,36.0541624]]]},"properties":{"layer":"road","class_code":"1040","class_label":"道路"}},{"type":"Feature","id":"tran_8091dd4b-1def-4a73-97b1-c38331411f32","geometry":{"type":"Polygon","coordinates":[[[139.1098547,36.0502108],[139.1098701,36.0502049],[139.1099446,36.0501701],[139.1100707,36.05012],[139.1101488,36.0500942],[139.1101679,36.0500822],[139.1101834,36.0500687],[139.1101867,36.0500661],[139.1101937,36.0500633],[139.1102371,36.0500508],[139.1102939,36.0500391],[139.1103086,36.0500858],[139.1101977,36.0501122],[139.1100866,36.0501488],[139.1099645,36.0501973],[139.1099413,36.0502107],[139.1099328,36.0502181],[139.1099288,36.0502245],[139.1099264,36.0502298],[139.1099256,36.050242],[139.109927,36.0502548],[139.1099442,36.050284],[139.1099053,36.050299],[139.1098547,36.0502108]]]},"properties":{"layer":"road","class_code":"1040","class_label":"道路"}},{"type":"Feature","id":"tran_810ad25f-9925-406b-9aac-9c0effcbb097","geometry":{"type":"Polygon","coordinates":[[[139.1099053,36.050299],[139.1099166,36.050314],[139.1099242,36.0503302],[139.1099262,36.0503495],[139.1099235,36.0503593],[139.1099157,36.0503799],[139.1099151,36.0503937],[139.1098985,36.0503923],[139.1098992,36.0503777],[139.1099074,36.0503558],[139.1099093,36.0503485],[139.1099079,36.0503332],[139.1098937,36.050303],[139.1099053,36.050299]]]},"properties":{"layer":"road","class_code":"1040","class_label":"道路"}},{"type":"Feature","id":"tran_0e1804dd-1ecc-4d80-8c61-68b4e0ea84cc","geometry":{"type":"Polygon","coordinates":[[[139.101266,36.0505861],[139.1012712,36.0505724],[139.1013743,36.0506072],[139.1013263,36.050701],[139.1012475,36.050846],[139.1011469,36.0510181],[139.1010931,36.0511115],[139.1010225,36.0512349],[139.1009593,36.0513437],[139.1008959,36.0514494],[139.1008411,36.0515441],[139.1007383,36.0517231],[139.1006872,36.0518123],[139.1006518,36.0518775],[139.10061,36.0519586],[139.1005739,36.0520292],[139.1004766,36.0519964],[139.1005127,36.0519257],[139.1005549,36.0518438],[139.1005911,36.051777],[139.1006425,36.0516874],[139.1007407,36.0515058],[139.1007958,36.0514105],[139.1008592,36.0513047],[139.1009219,36.0511966],[139.1009926,36.0510735],[139.1010465,36.0509797],[139.1011466,36.0508085],[139.1012244,36.0506652],[139.101266,36.0505861]]]},"properties":{"layer":"road","class_code":"1040","class_label":"道路"}},{"type":"Feature","id":"tran_9aa1cf06-548d-40b1-95ca-341ec6f0083c","geometry":{"type":"Polygon","coordinates":[[[139.1016648,36.0506331],[139.1016988,36.0506098],[139.1016999,36.0506108],[139.1017257,36.0506414],[139.1017549,36.0506911],[139.1018256,36.0508462],[139.1018601,36.0509231],[139.1018814,36.0509847],[139.1018937,36.0510289],[139.1019006,36.0510628],[139.1019009,36.0510652],[139.101857,36.0510711],[139.1018566,36.0510678],[139.10185,36.0510358],[139.1018384,36.0509936],[139.1018178,36.0509342],[139.1017839,36.0508587],[139.1017141,36.0507052],[139.1016871,36.0506594],[139.1016648,36.0506331]]]},"properties":{"layer":"road","class_code":"1040","class_label":"道路"}},{"type":"Feature","id":"tran_48d5dbfa-3296-49af-a0d4-54d9321f3e57","geometry":{"type":"Polygon","coordinates":[[[139.1099219,36.0503124],[139.1099536,36.0503001],[139.1099582,36.0503078],[139.1099626,36.0503092],[139.1100074,36.0503],[139.1100197,36.0503278],[139.1099804,36.0503353],[139.10998,36.050345],[139.1099312,36.0503445],[139.1099297,36.0503292],[139.1099219,36.0503124]]]},"properties":{"layer":"road","class_code":"1040","class_label":"道路"}},{"type":"Feature","id":"tran_15bac2f8-0558-4ea0-9031-bf038bf13663","geometry":{"type":"Polygon","coordinates":[[[139.1013209,36.0504358],[139.1013242,36.0504287],[139.1013469,36.0503798],[139.1014664,36.0504164],[139.1014876,36.0504569],[139.1014562,36.0504844],[139.1014403,36.0504724],[139.1013209,36.0504358]]]},"properties":{"layer":"road","class_code":"1040","class_label":"道路"}},{"type":"Feature","id":"tran_c1777cfa-ac8d-48af-bd40-64b47c428ba8","geometry":{"type":"Polygon","coordinates":[[[139.1004602,36.0551594],[139.1004672,36.0551237],[139.1006083,36.0551405],[139.1007088,36.055145],[139.1007853,36.0551474],[139.1007821,36.0551834],[139.1007067,36.0551809],[139.1006038,36.0551764],[139.1004602,36.0551594]]]},"properties":{"layer":"road","class_code":"1040","class_label":"道路"}},{"type":"Feature","id":"tran_1d20b53d-dc10-49e7-8a4c-b5de6ed312ca","geometry":{"type":"Polygon","coordinates":[[[139.1014403,36.0504724],[139.1014091,36.0505394],[139.1012898,36.0505027],[139.1013209,36.0504358],[139.1014403,36.0504724]]]},"properties":{"layer":"road","class_code":"1040","class_label":"道路"}},{"type":"Feature","id":"tran_386eca22-c775-48d7-a8e8-51c7bc9148c8","geometry":{"type":"Polygon","coordinates":[[[139.1103191,36.0501504],[139.1103189,36.0501413],[139.1103183,36.0501138],[139.1103551,36.0501099],[139.1103464,36.0501544],[139.1103391,36.0501824],[139.1103268,36.0502122],[139.110316,36.0502267],[139.1103057,36.0502377],[139.1102947,36.0502474],[139.110272,36.0502615],[139.110235,36.0502829],[139.1102189,36.0502645],[139.1102555,36.0502434],[139.1102759,36.0502306],[139.1102844,36.0502233],[139.1102929,36.050214],[139.1103016,36.0502026],[139.1103123,36.0501765],[139.1103191,36.0501504]]]},"properties":{"layer":"road","class_code":"1040","class_label":"道路"}},{"type":"Feature","id":"tran_41221802-ca54-4bca-979d-b3c68a01c312","geometry":{"type":"Polygon","coordinates":[[[139.100932,36.0539066],[139.1009341,36.0538898],[139.1009361,36.0538756],[139.1009398,36.0538626],[139.1009537,36.0538204],[139.1009684,36.0537787],[139.1009831,36.0537274],[139.1010168,36.053729],[139.1010006,36.0537855],[139.1009858,36.0538276],[139.100972,36.0538691],[139.100969,36.0538801],[139.1009671,36.0538927],[139.1009652,36.0539092],[139.100932,36.0539066]]]},"properties":{"layer":"road","class_code":"1040","class_label":"道路"}},{"type":"Feature","id":"tran_a17e6220-3541-4654-a5c3-62f08b4bfa2e","geometry":{"type":"Polygon","coordinates":[[[139.1007853,36.0551474],[139.100872,36.0551448],[139.1008835,36.0551408],[139.1008902,36.0551355],[139.1009249,36.0551584],[139.1008553,36.0552134],[139.1008027,36.0552118],[139.1008027,36.0552093],[139.1008021,36.055206],[139.1008015,36.0552035],[139.1007993,36.0551988],[139.1007821,36.0551834],[139.1007853,36.0551474]]]},"properties":{"layer":"road","class_code":"1040","class_label":"道路"}},{"type":"Feature","id":"tran_302e2809-ecda-4635-ad64-994bfd498e2f","geometry":{"type":"Polygon","coordinates":[[[139.1012369,36.054949],[139.1012508,36.0549138],[139.1013306,36.0549345],[139.1013758,36.0549449],[139.1013668,36.0549678],[139.1013153,36.0549633],[139.1012369,36.054949]]]},"properties":{"layer":"road","class_code":"1040","class_label":"道路"}},{"type":"Feature","id":"tran_fe77fd4a-837c-47b5-9186-b15a35706e0b","geometry":{"type":"Polygon","coordinates":[[[139.1019789,36.0521779],[139.101978,36.0521959],[139.1019634,36.0521954],[139.101959,36.0521951],[139.1019225,36.0521914],[139.1018865,36.0521852],[139.1018681,36.0521811],[139.1018573,36.0521782],[139.1018507,36.052176],[139.1018399,36.0521719],[139.1018312,36.0521679],[139.1018217,36.0521627],[139.1018167,36.0521594],[139.1018063,36.0521537],[139.1017933,36.0521481],[139.1017854,36.052146],[139.1017845,36.0521458],[139.1017766,36.0521443],[139.1017692,36.0521435],[139.1017579,36.0521428],[139.1017401,36.0521417],[139.1017238,36.0521415],[139.1016762,36.0521501],[139.101664,36.0521548],[139.101649,36.0521356],[139.1017033,36.0521258],[139.1017223,36.0521234],[139.101741,36.0521236],[139.1017597,36.0521247],[139.1017719,36.0521255],[139.1017806,36.0521266],[139.10179,36.0521284],[139.1017918,36.0521287],[139.101802,36.0521314],[139.1018179,36.0521383],[139.1018298,36.0521449],[139.1018348,36.0521482],[139.1018429,36.0521526],[139.10185,36.0521558],[139.1018598,36.0521596],[139.101865,36.0521613],[139.1018745,36.0521638],[139.1018917,36.0521676],[139.1019262,36.0521735],[139.1019613,36.0521772],[139.1019648,36.0521775],[139.1019789,36.0521779]]]},"properties":{"layer":"road","class_code":"1040","class_label":"道路"}},{"type":"Feature","id":"tran_71cab1f7-52ca-407e-b1d8-e04bd2441225","geometry":{"type":"Polygon","coordinates":[[[139.1000292,36.0541587],[139.1000697,36.0541825],[139.0999894,36.0542723],[139.099949,36.0542484],[139.1000292,36.0541587]]]},"properties":{"layer":"road","class_code":"1040","class_label":"道路"}},{"type":"Feature","id":"tran_83518a62-2a1c-489b-bc16-b0647e78479c","geometry":{"type":"Polygon","coordinates":[[[139.1012468,36.0537473],[139.1016561,36.0538147],[139.1016429,36.0538677],[139.1012386,36.053801],[139.1012468,36.0537473]]]},"properties":{"layer":"road","class_code":"1040","class_label":"道路"}},{"type":"Feature","id":"tran_85940f58-ea48-4999-ad62-638707542fe1","geometry":{"type":"Polygon","coordinates":[[[139.1010711,36.0540445],[139.1010721,36.054039],[139.1010841,36.0539712],[139.1011281,36.0539763],[139.1011477,36.0539981],[139.101142,36.0540339],[139.1011151,36.0540498],[139.1010711,36.0540445]]]},"properties":{"layer":"road","class_code":"1040","class_label":"道路"}},{"type":"Feature","id":"tran_52c6c6e2-589e-4c12-a34b-1be058642e0f","geometry":{"type":"Polygon","coordinates":[[[139.0997259,36.0549513],[139.0998782,36.0549995],[139.0999781,36.0550317],[139.1000013,36.0550367],[139.1000836,36.0550492],[139.1001137,36.0550524],[139.1001416,36.0550559],[139.1002232,36.0550718],[139.1002938,36.0550856],[139.1004163,36.0551124],[139.1004002,36.0551462],[139.1002828,36.0551205],[139.1002128,36.0551069],[139.100133,36.0550913],[139.1001074,36.055088],[139.1000768,36.0550849],[139.0999915,36.0550719],[139.0999668,36.0550666],[139.0999617,36.0550652],[139.0998619,36.0550331],[139.0997144,36.0549864],[139.0997259,36.0549513]]]},"properties":{"layer":"road","class_code":"1040","class_label":"道路"}},{"type":"Feature","id":"tran_7f94a7c9-3dfe-471d-82b6-3711796507dd","geometry":{"type":"Polygon","coordinates":[[[139.1009946,36.0549059],[139.1009505,36.0549095],[139.1009439,36.0548562],[139.1009328,36.0548054],[139.1009297,36.0547634],[139.1009304,36.0547476],[139.1009328,36.0547306],[139.1009386,36.0547089],[139.1009443,36.0546931],[139.1009823,36.0546186],[139.1009893,36.0546024],[139.1009924,36.0545895],[139.1009947,36.0545741],[139.1009945,36.0545572],[139.1009915,36.0545404],[139.1009848,36.0545149],[139.100959,36.0544557],[139.1009514,36.0544323],[139.1009484,36.0544146],[139.1009465,36.0543938],[139.1009473,36.0543623],[139.100952,36.0543362],[139.1009583,36.0543178],[139.1009666,36.054299],[139.1009757,36.0542817],[139.1010053,36.0542315],[139.1010453,36.054247],[139.1010107,36.0543059],[139.1010007,36.0543288],[139.1009956,36.0543437],[139.1009917,36.0543653],[139.100991,36.0543929],[139.1009926,36.0544109],[139.1009949,36.0544252],[139.1010019,36.0544464],[139.1010281,36.0545074],[139.1010353,36.0545341],[139.1010388,36.0545546],[139.101039,36.0545761],[139.1010363,36.0545951],[139.1010323,36.0546118],[139.1010238,36.0546314],[139.1009861,36.0547051],[139.1009816,36.0547178],[139.1009767,36.0547364],[139.1009748,36.0547503],[139.1009743,36.0547631],[139.100977,36.0548011],[139.1009879,36.0548513],[139.1009946,36.0549059]]]},"properties":{"layer":"road","class_code":"1040","class_label":"道路"}},{"type":"Feature","id":"tran_175688c0-834c-40a0-9962-57de7d8e2a86","geometry":{"type":"Polygon","coordinates":[[[139.1103542,36.0500192],[139.1103751,36.0500072],[139.1103954,36.0500287],[139.1103784,36.0500491],[139.1103649,36.0500708],[139.1103616,36.0500805],[139.1103551,36.0501099],[139.1103183,36.0501138],[139.1103156,36.0500981],[139.1103129,36.0500907],[139.1103096,36.0500864],[139.1103086,36.0500858],[139.1102939,36.0500391],[139.1103132,36.0500351],[139.1103542,36.0500192]]]},"properties":{"layer":"road","class_code":"1040","class_label":"道路"}},{"type":"Feature","id":"tran_39c11245-5a94-407b-a7ca-5da47fcd5e0a","geometry":{"type":"Polygon","coordinates":[[[139.1006721,36.0541106],[139.1006745,36.0541018],[139.1010327,36.054166],[139.1010303,36.0541748],[139.1006721,36.0541106]]]},"properties":{"layer":"road","class_code":"1040","class_label":"道路"}},{"type":"Feature","id":"tran_c483b22f-5d1e-400e-8f67-7f62b0833e61","geometry":{"type":"Polygon","coordinates":[[[139.101667,36.0505838],[139.1017147,36.0505882],[139.1017128,36.0506016],[139.1017014,36.050604],[139.1016988,36.0506098],[139.1016648,36.0506331],[139.1016491,36.0506186],[139.1016384,36.0506113],[139.101667,36.0505838]]]},"properties":{"layer":"road","class_code":"1040","class_label":"道路"}},{"type":"Feature","id":"tran_9cd999ff-170b-4cd8-9573-a68c8cf6bc4b","geometry":{"type":"Polygon","coordinates":[[[139.1010841,36.0539712],[139.1010859,36.053961],[139.1011003,36.0539098],[139.1011117,36.0538725],[139.101127,36.0538378],[139.1011437,36.0538059],[139.1011846,36.0538201],[139.1011689,36.05385],[139.1011542,36.0538829],[139.1011435,36.0539181],[139.1011296,36.0539676],[139.1011281,36.0539763],[139.1010841,36.0539712]]]},"properties":{"layer":"road","class_code":"1040","class_label":"道路"}},{"type":"Feature","id":"tran_dcb445e8-4733-40f6-9d7b-eaa9ad8675c0","geometry":{"type":"Polygon","coordinates":[[[139.1007498,36.0507804],[139.100827,36.0507834],[139.100845,36.0507762],[139.1008835,36.0507479],[139.1009363,36.0506976],[139.1009961,36.0506578],[139.1010831,36.0506079],[139.1011514,36.0505704],[139.1012144,36.0505369],[139.1012297,36.05053],[139.1012486,36.0505575],[139.1012346,36.0505639],[139.1011728,36.0505967],[139.1011052,36.0506338],[139.1010197,36.0506829],[139.100961,36.050722],[139.1009215,36.05075],[139.1008761,36.05078],[139.1008559,36.0507926],[139.1008482,36.0507948],[139.1008338,36.0507984],[139.1007536,36.0507945],[139.100696,36.0508047],[139.1006687,36.0508136],[139.1006537,36.0508223],[139.1006411,36.0508313],[139.1006301,36.0508393],[139.1006204,36.0508452],[139.1006109,36.0508487],[139.1006009,36.0508498],[139.1005894,36.0508473],[139.1005734,36.0508391],[139.1005485,36.0508234],[139.100518,36.0508031],[139.1004908,36.0507854],[139.1004733,36.0507753],[139.1004632,36.0507713],[139.1004563,36.0507702],[139.1004498,36.0507706],[139.1004422,36.0507726],[139.1004324,36.0507765],[139.1004171,36.0507841],[139.1003921,36.0507971],[139.1003584,36.0508148],[139.1003233,36.0508324],[139.1002935,36.0508454],[139.1002699,36.0508536],[139.1002502,36.0508587],[139.1002328,36.050862],[139.1002172,36.0508639],[139.1002033,36.0508642],[139.10019,36.0508624],[139.1001766,36.0508578],[139.1001624,36.0508498],[139.1001477,36.0508378],[139.1001333,36.0508211],[139.1001195,36.0508018],[139.1001068,36.0507838],[139.1000951,36.0507704],[139.1000834,36.0507609],[139.1000696,36.0507531],[139.1000519,36.0507454],[139.1000282,36.0507368],[139.0999978,36.0507264],[139.0999658,36.0507158],[139.0999405,36.050708],[139.0999276,36.0507048],[139.0999245,36.0507048],[139.0999228,36.0507057],[139.09991,36.0507268],[139.0998751,36.0507996],[139.0998585,36.0507943],[139.0998937,36.050721],[139.0999089,36.050696],[139.099919,36.0506903],[139.0999303,36.0506904],[139.0999463,36.0506943],[139.0999723,36.0507024],[139.1000046,36.0507131],[139.1000353,36.0507236],[139.1000597,36.0507325],[139.1000789,36.0507408],[139.1000948,36.0507498],[139.1001087,36.0507611],[139.1001217,36.050776],[139.1001349,36.0507946],[139.1001483,36.0508133],[139.1001614,36.0508285],[139.1001739,36.0508387],[139.1001852,36.0508451],[139.100195,36.0508485],[139.1002044,36.0508497],[139.1002157,36.0508495],[139.1002294,36.0508478],[139.1002454,36.0508448],[139.1002637,36.05084],[139.1002858,36.0508324],[139.1003144,36.0508199],[139.100349,36.0508026],[139.1003825,36.050785],[139.1004076,36.0507718],[139.1004239,36.0507639],[139.1004356,36.0507592],[139.1004463,36.0507564],[139.1004573,36.0507557],[139.1004688,36.0507575],[139.1004823,36.0507628],[139.1005015,36.0507739],[139.1005292,36.0507919],[139.1005595,36.0508121],[139.1005836,36.0508273],[139.1005966,36.0508339],[139.1006021,36.0508351],[139.1006059,36.0508347],[139.1006113,36.0508327],[139.1006189,36.0508282],[139.1006293,36.0508205],[139.1006426,36.050811],[139.1006601,36.0508009],[139.1006907,36.0507908],[139.1007498,36.0507804]]]},"properties":{"layer":"road","class_code":"1040","class_label":"道路"}},{"type":"Feature","id":"tran_d428c7ea-acc8-4ce9-915c-e500b5007d17","geometry":{"type":"Polygon","coordinates":[[[139.1012671,36.0535351],[139.1013104,36.0535431],[139.101307,36.0535552],[139.1012839,36.0536283],[139.1012625,36.053697],[139.1012135,36.053687],[139.1012157,36.053683],[139.1012413,36.0536184],[139.101264,36.0535463],[139.1012671,36.0535351]]]},"properties":{"layer":"road","class_code":"1040","class_label":"道路"}},{"type":"Feature","id":"tran_5e414801-e386-4496-9f44-7b06cedd47ba","geometry":{"type":"Polygon","coordinates":[[[139.1013112,36.0534338],[139.1013495,36.0534521],[139.1013429,36.0534612],[139.101333,36.0534779],[139.1013228,36.0534988],[139.1013104,36.0535431],[139.1012671,36.0535351],[139.1012671,36.0535237],[139.1012656,36.0535201],[139.1012639,36.0535174],[139.1012609,36.0535129],[139.1012258,36.0534749],[139.1012221,36.0534724],[139.1012192,36.0534715],[139.1012162,36.0534708],[139.1012156,36.0534438],[139.1012918,36.0534426],[139.1013112,36.0534338]]]},"properties":{"layer":"road","class_code":"1040","class_label":"道路"}},{"type":"Feature","id":"tran_20b7ba69-c7c2-460a-aa80-f3c9807c7a37","geometry":{"type":"Polygon","coordinates":[[[139.1009946,36.0549059],[139.1010064,36.0549095],[139.1010103,36.0549454],[139.100995,36.0549583],[139.1009508,36.0549546],[139.1009505,36.0549095],[139.1009946,36.0549059]]]},"properties":{"layer":"road","class_code":"1040","class_label":"道路"}},{"type":"Feature","id":"tran_dad5cd92-c1b6-4512-b0b2-82f36bce3fa0","geometry":{"type":"Polygon","coordinates":[[[139.1009703,36.0537006],[139.1010446,36.0536903],[139.1010448,36.0537174],[139.1010168,36.053729],[139.1009831,36.0537274],[139.1009821,36.0537243],[139.1009778,36.0537201],[139.1009742,36.0537189],[139.1009703,36.0537006]]]},"properties":{"layer":"road","class_code":"1040","class_label":"道路"}},{"type":"Feature","id":"tran_33449db4-3af8-483d-945c-da1a8a251411","geometry":{"type":"Polygon","coordinates":[[[139.0999195,36.0564427],[139.1001994,36.0565542],[139.1001799,36.0565865],[139.0999018,36.0564757],[139.0999195,36.0564427]]]},"properties":{"layer":"road","class_code":"1040","class_label":"道路"}},{"type":"Feature","id":"tran_412ac2c7-0961-404d-8b2a-b71ff824df67","geometry":{"type":"Polygon","coordinates":[[[139.1014091,36.0505394],[139.1013743,36.0506072],[139.1012712,36.0505724],[139.1012711,36.0505641],[139.1012699,36.0505606],[139.101268,36.0505579],[139.1012657,36.0505565],[139.101262,36.0505557],[139.1012585,36.0505555],[139.1012559,36.0505556],[139.1012486,36.0505575],[139.1012297,36.05053],[139.1012898,36.0505027],[139.1014091,36.0505394]]]},"properties":{"layer":"road","class_code":"1040","class_label":"道路"}},{"type":"Feature","id":"tran_f5e29741-08a1-4aa8-8c9d-3016eb05253e","geometry":{"type":"Polygon","coordinates":[[[139.1099442,36.050284],[139.1099536,36.0503001],[139.1099219,36.0503124],[139.1099166,36.050314],[139.1099053,36.050299],[139.1099442,36.050284]]]},"properties":{"layer":"road","class_code":"1040","class_label":"道路"}},{"type":"Feature","id":"tran_a0644756-0041-4a79-b365-a64490384ef5","geometry":{"type":"Polygon","coordinates":[[[139.1011114,36.0549687],[139.1011429,36.0549548],[139.1011758,36.0549757],[139.1011459,36.0550067],[139.1011114,36.0549687]]]},"properties":{"layer":"road","class_code":"1040","class_label":"道路"}},{"type":"Feature","id":"tran_3d53f1cf-cc69-471b-b8a1-845340d7b79f","geometry":{"type":"Polygon","coordinates":[[[139.1070369,36.0500828],[139.1070778,36.0500949],[139.1070824,36.0501039],[139.107066,36.0501312],[139.1070524,36.0501315],[139.1070198,36.0501375],[139.1070075,36.0501123],[139.1070183,36.0501057],[139.1070246,36.050101],[139.1070317,36.0500933],[139.1070369,36.0500828]]]},"properties":{"layer":"road","class_code":"1040","class_label":"道路"}},{"type":"Feature","id":"tran_87354c50-7c9b-4c99-986e-c8e25af6cfa0","geometry":{"type":"Polygon","coordinates":[[[139.1011289,36.0542308],[139.1011438,36.0542325],[139.1011529,36.054233],[139.1011927,36.0542364],[139.101232,36.0542389],[139.1012851,36.0542432],[139.1013893,36.0542549],[139.1013856,36.0542773],[139.1012818,36.0542656],[139.1012295,36.0542614],[139.1011902,36.0542589],[139.1011503,36.0542555],[139.1011251,36.0542525],[139.1011289,36.0542308]]]},"properties":{"layer":"road","class_code":"1040","class_label":"道路"}},{"type":"Feature","id":"tran_be1e6cb5-5ed7-4d48-8112-6ecc83c9f8e3","geometry":{"type":"Polygon","coordinates":[[[139.1011877,36.0537352],[139.1011892,36.0537294],[139.1011889,36.0537267],[139.1011863,36.053723],[139.1011836,36.0537208],[139.1011798,36.0537195],[139.1011744,36.0537183],[139.1012042,36.0536919],[139.1012135,36.053687],[139.1012625,36.053697],[139.1012468,36.0537473],[139.1012386,36.053801],[139.1011846,36.0538201],[139.1011437,36.0538059],[139.1011603,36.0537742],[139.1011873,36.0537358],[139.1011877,36.0537352]]]},"properties":{"layer":"road","class_code":"1040","class_label":"道路"}},{"type":"Feature","id":"tran_ca03530a-ae10-4a5d-b614-5d3776793d2a","geometry":{"type":"Polygon","coordinates":[[[139.1070824,36.0501039],[139.1071123,36.0501203],[139.1071151,36.0501212],[139.1071389,36.0501366],[139.1071251,36.0501506],[139.1071039,36.050137],[139.1070935,36.0501338],[139.107066,36.0501312],[139.1070824,36.0501039]]]},"properties":{"layer":"road","class_code":"1040","class_label":"道路"}},{"type":"Feature","id":"tran_42f63073-6893-44ab-976d-d65b1ce68cd3","geometry":{"type":"Polygon","coordinates":[[[139.1062808,36.0503222],[139.1062842,36.0503136],[139.1063053,36.050319],[139.1063267,36.0503212],[139.1063483,36.0503203],[139.1063694,36.0503163],[139.1063897,36.0503092],[139.106506,36.0502646],[139.1065653,36.0502436],[139.1066022,36.0502312],[139.1066935,36.0502044],[139.1066978,36.0502122],[139.1066059,36.0502396],[139.1065697,36.0502518],[139.1065102,36.0502729],[139.1063941,36.0503175],[139.1063729,36.0503249],[139.1063499,36.0503293],[139.1063263,36.0503303],[139.1063029,36.0503278],[139.1062808,36.0503222]]]},"properties":{"layer":"road","class_code":"1040","class_label":"道路"}},{"type":"Feature","id":"tran_9a2ed764-57d7-43a1-81ca-e15fccbda2de","geometry":{"type":"Polygon","coordinates":[[[139.1073612,36.050279],[139.1073727,36.0502803],[139.1073866,36.0502819],[139.1074172,36.0502905],[139.1074313,36.0502997],[139.1074341,36.0503028],[139.1074412,36.0503091],[139.1074275,36.0503344],[139.1074243,36.0503381],[139.1074037,36.0503448],[139.1073877,36.0503272],[139.1073869,36.0503262],[139.1073756,36.0503163],[139.1073451,36.0503026],[139.1073612,36.050279]]]},"properties":{"layer":"road","class_code":"1040","class_label":"道路"}},{"type":"Feature","id":"tran_7db18c2f-d995-4e89-b456-51b2cad6e33e","geometry":{"type":"Polygon","coordinates":[[[139.105708,36.0503533],[139.1057146,36.0503344],[139.1057287,36.0503098],[139.1057551,36.0502782],[139.1058292,36.0502112],[139.1059447,36.0500966],[139.1061334,36.0499154],[139.1062458,36.0498205],[139.106292,36.0497807],[139.1063427,36.049734],[139.1063493,36.0497277],[139.1064203,36.0496563],[139.1064209,36.0496556],[139.1064434,36.0496708],[139.1064304,36.049682],[139.1063707,36.0497421],[139.1063636,36.0497487],[139.1063128,36.0497956],[139.1063046,36.0498026],[139.1062658,36.049836],[139.1061534,36.049931],[139.1059662,36.0501109],[139.1058507,36.0502255],[139.1057845,36.0502943],[139.1057651,36.0503185],[139.1057551,36.0503397],[139.1057524,36.0503558],[139.1057561,36.0503841],[139.1057608,36.0503988],[139.1057709,36.0504123],[139.1057887,36.0504268],[139.1057952,36.0504304],[139.1058134,36.0504382],[139.1058165,36.050439],[139.1058397,36.050447],[139.105869,36.0504545],[139.1059134,36.0504667],[139.1059534,36.0504698],[139.1059994,36.0504729],[139.1060567,36.0504795],[139.1060972,36.0504899],[139.106139,36.0505029],[139.1061892,36.050522],[139.1062374,36.0505442],[139.1063273,36.0505855],[139.1063986,36.0506237],[139.1065499,36.050716],[139.10661,36.0507479],[139.1066139,36.0507503],[139.1066207,36.0507541],[139.1066278,36.0507574],[139.1066353,36.0507603],[139.1066429,36.0507627],[139.1066508,36.0507646],[139.1066588,36.050766],[139.1066638,36.0507666],[139.106672,36.0507671],[139.1066803,36.0507671],[139.1066884,36.0507666],[139.1066937,36.0507659],[139.1067046,36.0507641],[139.1067152,36.0507616],[139.1067251,36.0507586],[139.1067351,36.0507547],[139.1067447,36.0507502],[139.1067538,36.0507452],[139.1067625,36.0507396],[139.1067706,36.0507334],[139.1067752,36.0507296],[139.1068267,36.0506824],[139.1068426,36.0506662],[139.1068877,36.0506148],[139.1069346,36.0505564],[139.106999,36.050483],[139.1070581,36.0504142],[139.1071059,36.0503616],[139.1071216,36.0503457],[139.1071432,36.0503269],[139.1071575,36.0503159],[139.1071819,36.0502995],[139.1071925,36.0502925],[139.1072038,36.0502863],[139.1072157,36.0502808],[139.1072281,36.050276],[139.1072407,36.0502721],[139.1072539,36.0502689],[139.1072672,36.0502667],[139.1072752,36.0502658],[139.1072888,36.0502649],[139.1073024,36.0502648],[139.1073161,36.0502657],[139.1073612,36.050279],[139.1073451,36.0503026],[139.107325,36.0502935],[139.107314,36.0502881],[139.1073014,36.0502873],[139.10729,36.0502874],[139.1072783,36.0502882],[139.1072721,36.0502889],[139.1072607,36.0502909],[139.1072497,36.0502935],[139.1072389,36.0502968],[139.1072285,36.0503008],[139.1072186,36.0503054],[139.1072091,36.0503107],[139.1071995,36.0503169],[139.1071759,36.0503327],[139.107163,36.0503427],[139.1071426,36.0503605],[139.1071274,36.0503758],[139.1070808,36.0504271],[139.1070216,36.050496],[139.1069574,36.0505691],[139.1069106,36.0506276],[139.1068646,36.0506797],[139.1068479,36.0506969],[139.1067956,36.0507448],[139.1067901,36.0507495],[139.1067807,36.0507567],[139.1067703,36.0507633],[139.1067594,36.0507694],[139.1067479,36.0507747],[139.1067359,36.0507793],[139.1067241,36.0507829],[139.1067114,36.050786],[139.1066986,36.0507881],[139.1066915,36.050789],[139.1066813,36.0507897],[139.1066708,36.0507896],[139.1066606,36.0507889],[139.106654,36.0507881],[139.106644,36.0507865],[139.106634,36.0507841],[139.1066243,36.050781],[139.1066149,36.0507775],[139.1066059,36.0507733],[139.1065976,36.0507685],[139.1065938,36.0507662],[139.1065347,36.0507349],[139.1063827,36.0506422],[139.1063128,36.0506047],[139.1062237,36.0505637],[139.1061764,36.050542],[139.1061281,36.0505237],[139.1060882,36.0505112],[139.1060505,36.0505016],[139.1059962,36.0504952],[139.105951,36.0504922],[139.1059079,36.0504887],[139.1058666,36.0504819],[139.1058035,36.0504699],[139.1057923,36.0504669],[139.1057814,36.0504628],[139.1057716,36.0504572],[139.1057517,36.0504451],[139.1057426,36.0504362],[139.1057337,36.0504274],[139.1057263,36.0504163],[139.1057179,36.0504026],[139.1057142,36.0503931],[139.1057089,36.0503774],[139.1057075,36.0503653],[139.105708,36.0503533]]]},"properties":{"layer":"road","class_code":"1040","class_label":"道路"}},{"type":"Feature","id":"tran_26880bfa-e30e-4f89-b026-6f19f874bbe6","geometry":{"type":"Polygon","coordinates":[[[139.101142,36.0540339],[139.1011477,36.0539981],[139.1012637,36.0540141],[139.1013998,36.0540357],[139.1013912,36.0540711],[139.1012557,36.0540495],[139.101142,36.0540339]]]},"properties":{"layer":"road","class_code":"1040","class_label":"道路"}},{"type":"Feature","id":"tran_3843484e-dcd2-47a3-9e42-bc324086c05d","geometry":{"type":"Polygon","coordinates":[[[139.1008027,36.0552118],[139.1008553,36.0552134],[139.1008451,36.0552339],[139.1008409,36.0552513],[139.1008391,36.0552722],[139.1008394,36.0552872],[139.1008411,36.0552979],[139.1008709,36.0553758],[139.1009035,36.0554483],[139.1009426,36.0555193],[139.1009223,36.0555266],[139.1008829,36.055455],[139.1008499,36.0553816],[139.1008291,36.0553271],[139.1007949,36.055282],[139.1008027,36.0552118]]]},"properties":{"layer":"road","class_code":"1040","class_label":"道路"}},{"type":"Feature","id":"tran_223e9a7e-9c91-4509-9781-ef9024f2e87a","geometry":{"type":"Polygon","coordinates":[[[139.1016133,36.0522119],[139.1016137,36.0521939],[139.1016162,36.0521939],[139.101615,36.052189],[139.101658,36.0521802],[139.1016652,36.0522095],[139.1016218,36.0522177],[139.1016133,36.0522119]]]},"properties":{"layer":"road","class_code":"1040","class_label":"道路"}},{"type":"Feature","id":"tran_00f34d7a-fe23-4da9-a8cb-be07b47e2489","geometry":{"type":"Polygon","coordinates":[[[139.1074037,36.0503448],[139.1074243,36.0503381],[139.1074841,36.0504584],[139.1075469,36.0505676],[139.1075981,36.0506501],[139.1076261,36.0506972],[139.1076581,36.0507561],[139.1076754,36.0507892],[139.1076846,36.0508077],[139.1076919,36.0508221],[139.1076996,36.0508355],[139.1077078,36.0508486],[139.1077168,36.0508617],[139.1077268,36.0508749],[139.1077377,36.0508881],[139.1077495,36.0509012],[139.1077621,36.050914],[139.107775,36.0509265],[139.1077878,36.0509383],[139.1078005,36.0509494],[139.1078138,36.05096],[139.1078287,36.0509705],[139.1078454,36.050981],[139.107862,36.0509908],[139.1078757,36.050999],[139.1078626,36.0510136],[139.1078489,36.0510054],[139.1078321,36.0509954],[139.1078146,36.0509845],[139.1077987,36.0509732],[139.1077845,36.0509619],[139.1077713,36.0509504],[139.1077582,36.0509382],[139.1077449,36.0509254],[139.1077319,36.0509121],[139.1077196,36.0508985],[139.1077081,36.0508846],[139.1076977,36.0508708],[139.1076882,36.0508571],[139.1076796,36.0508434],[139.1076716,36.0508293],[139.107664,36.0508146],[139.1076549,36.050796],[139.1076378,36.0507632],[139.1076058,36.0507046],[139.1075786,36.0506588],[139.107527,36.0505755],[139.1074637,36.0504657],[139.1074498,36.0504375],[139.1074037,36.0503448]]]},"properties":{"layer":"road","class_code":"1040","class_label":"道路"}},{"type":"Feature","id":"tran_6b0c5e05-c3c0-407d-8e54-bf484b4a487a","geometry":{"type":"Polygon","coordinates":[[[139.1074412,36.0503091],[139.1074489,36.0503136],[139.1074796,36.050329],[139.1075197,36.0503438],[139.1075204,36.0503441],[139.1075328,36.0503475],[139.1075449,36.0503496],[139.1075571,36.0503504],[139.1075699,36.0503498],[139.1075757,36.0503491],[139.107588,36.0503467],[139.1075908,36.0503458],[139.107599,36.0503433],[139.1076095,36.0503391],[139.107625,36.0503338],[139.1076408,36.0503291],[139.1076569,36.0503252],[139.1076733,36.050322],[139.1076897,36.0503194],[139.1077064,36.0503177],[139.1077153,36.0503171],[139.107732,36.0503165],[139.1077381,36.0503165],[139.1077501,36.050318],[139.107767,36.0503209],[139.1077676,36.0503211],[139.1077862,36.0503264],[139.1078045,36.0503326],[139.1078178,36.0503378],[139.1078252,36.050341],[139.1079101,36.0503822],[139.107931,36.050392],[139.1080154,36.0504275],[139.1080534,36.0504415],[139.10813,36.0504659],[139.1082049,36.0504854],[139.1082127,36.0504868],[139.1082219,36.0504881],[139.1082312,36.0504891],[139.1082365,36.0504895],[139.1082459,36.0504897],[139.1082553,36.0504896],[139.1082587,36.0505167],[139.1082455,36.0505169],[139.1082345,36.0505165],[139.1082277,36.050516],[139.1082169,36.050515],[139.1082059,36.0505133],[139.108196,36.0505115],[139.1081189,36.0504914],[139.1080404,36.0504664],[139.1080008,36.0504518],[139.1079178,36.0504119],[139.1078961,36.0504016],[139.1078115,36.0503606],[139.1078053,36.0503579],[139.1077932,36.0503531],[139.1077762,36.0503475],[139.1077597,36.0503427],[139.107745,36.0503401],[139.1077358,36.050339],[139.1077326,36.050339],[139.1077172,36.0503395],[139.1077094,36.0503401],[139.107694,36.0503417],[139.107679,36.050344],[139.1076641,36.050347],[139.1076496,36.0503506],[139.1076351,36.0503548],[139.107621,36.0503597],[139.1076111,36.0503636],[139.1075964,36.0503682],[139.107581,36.0503712],[139.1075726,36.0503723],[139.1075568,36.0503729],[139.1075411,36.0503719],[139.1075255,36.0503694],[139.1075106,36.0503652],[139.1075085,36.0503645],[139.1074275,36.0503344],[139.1074412,36.0503091]]]},"properties":{"layer":"road","class_code":"1040","class_label":"道路"}},{"type":"Feature","id":"tran_96015884-8802-4b65-b84f-a06491ce15d2","geometry":{"type":"Polygon","coordinates":[[[139.1012508,36.0549138],[139.1012369,36.054949],[139.1012241,36.0549487],[139.1012173,36.054949],[139.1012098,36.0549501],[139.1012044,36.0549518],[139.1011978,36.0549552],[139.1011891,36.0549619],[139.1011758,36.0549757],[139.1011429,36.0549548],[139.1011469,36.0549516],[139.1011485,36.0549481],[139.1011406,36.0549349],[139.1011354,36.0548991],[139.1011449,36.0548981],[139.101172,36.054897],[139.1011879,36.054898],[139.1011971,36.0548998],[139.1012508,36.0549138]]]},"properties":{"layer":"road","class_code":"1040","class_label":"道路"}},{"type":"Feature","id":"tran_5bac278a-f9de-48f6-9827-a5bdae68aeef","geometry":{"type":"Polygon","coordinates":[[[139.1078757,36.050999],[139.1078963,36.0509976],[139.1079142,36.0510084],[139.1079045,36.0510195],[139.107897,36.0510298],[139.107892,36.0510399],[139.1078711,36.0510338],[139.1078626,36.0510136],[139.1078757,36.050999]]]},"properties":{"layer":"road","class_code":"1040","class_label":"道路"}},{"type":"Feature","id":"tran_dd426ec7-50cb-432a-b6e6-dbb09359bbd2","geometry":{"type":"Polygon","coordinates":[[[139.1001776,36.053059],[139.1002448,36.0530552],[139.1002452,36.0530656],[139.1002484,36.0531029],[139.1002534,36.0531525],[139.1002605,36.0532025],[139.1002716,36.0532703],[139.1002861,36.0533471],[139.1003015,36.0534204],[139.1003118,36.053479],[139.1002458,36.0534866],[139.1002358,36.0534287],[139.1002205,36.0533557],[139.1002057,36.053278],[139.1001944,36.0532092],[139.1001871,36.0531578],[139.100182,36.0531069],[139.1001782,36.0530626],[139.1001776,36.053059]]]},"properties":{"layer":"road","class_code":"1040","class_label":"道路"}},{"type":"Feature","id":"tran_191025df-4bc5-45cd-92d8-2f6a4b06a0b1","geometry":{"type":"Polygon","coordinates":[[[139.1083815,36.0506883],[139.108399,36.0506993],[139.1083922,36.050706],[139.1083846,36.0507118],[139.1083765,36.0507173],[139.1083667,36.0507226],[139.1083554,36.0507278],[139.1083429,36.0507331],[139.1083273,36.0507391],[139.1083108,36.0507453],[139.108292,36.0507523],[139.1082737,36.0507592],[139.1082559,36.0507659],[139.1082411,36.0507719],[139.1082272,36.0507776],[139.108215,36.0507831],[139.1082024,36.0507889],[139.1081896,36.050795],[139.1081761,36.0508019],[139.1081623,36.0508091],[139.1081481,36.0508172],[139.1081339,36.0508256],[139.1081197,36.0508345],[139.1081059,36.0508435],[139.1080925,36.0508526],[139.1080801,36.0508617],[139.1080678,36.050871],[139.1080558,36.0508808],[139.1080436,36.0508913],[139.1080312,36.0509023],[139.1080175,36.0509147],[139.1080032,36.0509276],[139.1079871,36.0509417],[139.1079708,36.0509559],[139.1079544,36.0509702],[139.1079395,36.0509837],[139.1079255,36.0509967],[139.1079142,36.0510084],[139.1078963,36.0509976],[139.1079084,36.0509852],[139.1079229,36.0509717],[139.107938,36.0509581],[139.1079546,36.0509436],[139.1079708,36.0509294],[139.1079868,36.0509155],[139.108001,36.0509026],[139.1080148,36.0508902],[139.1080273,36.0508791],[139.1080399,36.0508683],[139.1080523,36.0508581],[139.1080651,36.0508484],[139.108078,36.0508389],[139.1080919,36.0508296],[139.1081059,36.0508203],[139.1081206,36.0508112],[139.1081352,36.0508025],[139.10815,36.0507941],[139.1081642,36.0507867],[139.1081781,36.0507796],[139.1081913,36.0507733],[139.1082041,36.0507673],[139.1082168,36.0507616],[139.1082311,36.0507557],[139.1082463,36.0507497],[139.1082643,36.0507428],[139.1082827,36.0507359],[139.1083015,36.050729],[139.1083179,36.0507228],[139.1083331,36.050717],[139.1083448,36.050712],[139.108355,36.0507073],[139.1083632,36.0507029],[139.1083699,36.0506983],[139.108376,36.0506936],[139.1083815,36.0506883]]]},"properties":{"layer":"road","class_code":"1040","class_label":"道路"}},{"type":"Feature","id":"tran_7a6c95f7-b403-49f3-9097-46fb0b2ad52b","geometry":{"type":"Polygon","coordinates":[[[139.100211,36.0525782],[139.1003111,36.0526051],[139.1003075,36.052632],[139.1002982,36.0526369],[139.100198,36.05261],[139.100211,36.0525782]]]},"properties":{"layer":"road","class_code":"1040","class_label":"道路"}},{"type":"Feature","id":"tran_e1c1e50b-7ac4-4659-87ea-78e528372851","geometry":{"type":"Polygon","coordinates":[[[139.1011847,36.0519786],[139.1015526,36.0520435],[139.1015385,36.0520964],[139.1011706,36.0520315],[139.1011847,36.0519786]]]},"properties":{"layer":"road","class_code":"1040","class_label":"道路"}},{"type":"Feature","id":"tran_36058fb4-957a-4e7d-b229-5cc39ff4f283","geometry":{"type":"Polygon","coordinates":[[[139.100211,36.0525782],[139.1002298,36.0525322],[139.1002766,36.0524216],[139.1003399,36.0522811],[139.1003902,36.052176],[139.1004268,36.0520985],[139.1004489,36.052053],[139.100547,36.0520845],[139.1005251,36.0521296],[139.1004886,36.0522068],[139.1004386,36.0523114],[139.1003759,36.0524502],[139.1003297,36.0525595],[139.1003111,36.0526051],[139.100211,36.0525782]]]},"properties":{"layer":"road","class_code":"1040","class_label":"道路"}},{"type":"Feature","id":"tran_d8b0cd04-8284-4677-9a30-cdd0eb8ccd9a","geometry":{"type":"Polygon","coordinates":[[[139.1002472,36.0534948],[139.1002458,36.0534866],[139.1003118,36.053479],[139.1003565,36.0535051],[139.1003591,36.0535411],[139.1003262,36.0535426],[139.1003118,36.0535485],[139.1002392,36.0535548],[139.1002315,36.053496],[139.1002472,36.0534948]]]},"properties":{"layer":"road","class_code":"1040","class_label":"道路"}},{"type":"Feature","id":"tran_7732f0bc-b610-47f8-bacc-9cedc55301a1","geometry":{"type":"Polygon","coordinates":[[[139.101857,36.0510711],[139.1019009,36.0510652],[139.1019048,36.0510936],[139.1019049,36.0510952],[139.1018606,36.0510972],[139.101857,36.0510711]]]},"properties":{"layer":"road","class_code":"1040","class_label":"道路"}},{"type":"Feature","id":"tran_6f3017df-eddd-4922-a806-5768bfd8c41c","geometry":{"type":"Polygon","coordinates":[[[139.1002392,36.0535548],[139.1003118,36.0535485],[139.1003134,36.0535986],[139.1002605,36.0536178],[139.1002435,36.0535869],[139.1002392,36.0535548]]]},"properties":{"layer":"road","class_code":"1040","class_label":"道路"}},{"type":"Feature","id":"tran_e2f77ffe-de80-441e-ba98-9566264fa897","geometry":{"type":"Polygon","coordinates":[[[139.1082553,36.0504896],[139.1082595,36.050489],[139.1082659,36.0504877],[139.1082722,36.0504862],[139.1082783,36.0504844],[139.1082844,36.0504823],[139.1082903,36.05048],[139.1082939,36.0504784],[139.1082995,36.0504756],[139.108305,36.0504726],[139.1083102,36.0504694],[139.1083151,36.0504659],[139.1083168,36.0504647],[139.1083184,36.0504636],[139.1083415,36.0504843],[139.1083414,36.0504916],[139.1083441,36.0505019],[139.1083462,36.050509],[139.1083508,36.0505145],[139.1083322,36.0505275],[139.1083181,36.0505204],[139.1082993,36.0505176],[139.108283,36.0505173],[139.1082587,36.0505167],[139.1082553,36.0504896]]]},"properties":{"layer":"road","class_code":"1040","class_label":"道路"}},{"type":"Feature","id":"tran_dd6b735e-76e6-4b86-a374-d1942cf66f17","geometry":{"type":"Polygon","coordinates":[[[139.1002554,36.0530244],[139.100288,36.0530248],[139.1003157,36.0530252],[139.1003395,36.0530257],[139.1003603,36.0530263],[139.100379,36.0530269],[139.1003966,36.0530276],[139.1004138,36.0530284],[139.1004309,36.0530292],[139.1004484,36.0530301],[139.1004665,36.053031],[139.1004857,36.053032],[139.1005063,36.0530331],[139.1005286,36.0530343],[139.1005526,36.0530355],[139.1005788,36.0530367],[139.100607,36.053038],[139.1006376,36.0530394],[139.1006707,36.0530408],[139.1007065,36.0530422],[139.1007449,36.0530436],[139.1007861,36.0530451],[139.1008301,36.0530467],[139.100877,36.0530484],[139.1009275,36.0530502],[139.1009861,36.0530522],[139.1010594,36.0530546],[139.1011538,36.0530575],[139.1012759,36.0530612],[139.1014322,36.0530658],[139.101431,36.0530928],[139.1012747,36.0530882],[139.1011525,36.0530845],[139.101058,36.0530816],[139.1009847,36.0530792],[139.100926,36.0530772],[139.1008756,36.0530754],[139.1008286,36.0530737],[139.1007846,36.0530721],[139.1007433,36.0530706],[139.1007049,36.0530692],[139.1006691,36.0530678],[139.1006359,36.0530664],[139.1006052,36.053065],[139.1005768,36.0530637],[139.1005506,36.0530625],[139.1005265,36.0530613],[139.1005042,36.0530601],[139.1004836,36.053059],[139.1004644,36.053058],[139.1004463,36.053057],[139.1004289,36.0530562],[139.1004119,36.0530553],[139.1003949,36.0530546],[139.1003776,36.0530539],[139.1003591,36.0530533],[139.1003385,36.0530528],[139.1003149,36.0530523],[139.1002874,36.0530518],[139.100255,36.0530515],[139.1002554,36.0530244]]]},"properties":{"layer":"road","class_code":"1040","class_label":"道路"}},{"type":"Feature","id":"tran_c5453138-5bd6-4c09-b1b3-a3f5fedbdaa4","geometry":{"type":"Polygon","coordinates":[[[139.1086918,36.0496353],[139.1087039,36.0496212],[139.1087309,36.0496366],[139.1087167,36.0496536],[139.1086738,36.0497049],[139.1086582,36.0497249],[139.108644,36.0497458],[139.1086404,36.0497516],[139.108628,36.0497732],[139.1086213,36.049786],[139.1085895,36.0498545],[139.10855,36.0499413],[139.1084995,36.0500717],[139.1084732,36.0501593],[139.1084527,36.0502506],[139.1084431,36.0503015],[139.1084315,36.0503406],[139.1084252,36.0503596],[139.1084138,36.0503889],[139.1084018,36.0504149],[139.1083963,36.0504248],[139.1083901,36.0504341],[139.1083835,36.0504431],[139.1083763,36.0504517],[139.1083738,36.0504544],[139.108366,36.0504626],[139.1083574,36.0504706],[139.1083547,36.0504727],[139.1083468,36.0504791],[139.1083415,36.0504843],[139.1083184,36.0504636],[139.1083251,36.0504587],[139.1083329,36.0504521],[139.1083403,36.0504453],[139.1083472,36.0504382],[139.1083491,36.0504361],[139.1083554,36.0504286],[139.1083611,36.0504208],[139.1083664,36.0504128],[139.1083712,36.0504045],[139.1083824,36.0503801],[139.1083933,36.050352],[139.1083964,36.0503424],[139.1084078,36.0503104],[139.1084199,36.0502461],[139.1084406,36.0501537],[139.1084673,36.0500647],[139.1085186,36.0499324],[139.1085583,36.0498451],[139.1085906,36.0497756],[139.1085975,36.0497623],[139.1086104,36.0497397],[139.1086146,36.0497331],[139.1086296,36.0497112],[139.108646,36.0496901],[139.1086893,36.0496382],[139.1086918,36.0496353]]]},"properties":{"layer":"road","class_code":"1040","class_label":"道路"}},{"type":"Feature","id":"tran_59450e8b-ba24-4651-bbbd-8b4993a7e94d","geometry":{"type":"Polygon","coordinates":[[[139.1028124,36.0591473],[139.1028258,36.0590963],[139.1028419,36.0590672],[139.102868,36.0590338],[139.102909,36.058992],[139.1029164,36.0589868],[139.1029938,36.0589268],[139.1030555,36.0588779],[139.1030568,36.0588758],[139.1030662,36.05886],[139.1030744,36.0588441],[139.1030816,36.0588278],[139.1030877,36.0588111],[139.1030914,36.0587987],[139.1030955,36.0587816],[139.1030985,36.0587645],[139.1031003,36.0587471],[139.1031008,36.0587422],[139.1031025,36.0587324],[139.1031048,36.0587227],[139.1031078,36.058713],[139.1031115,36.0587035],[139.1031143,36.0586972],[139.1031189,36.058688],[139.1031242,36.0586792],[139.1031301,36.0586704],[139.1031366,36.058662],[139.1031436,36.0586539],[139.1031512,36.0586461],[139.1031592,36.0586385],[139.1031681,36.0586313],[139.1031701,36.05863],[139.103181,36.0586236],[139.1031926,36.0586177],[139.1032044,36.0586123],[139.1032167,36.0586075],[139.1032237,36.058605],[139.1032364,36.0586011],[139.1032493,36.0585976],[139.1032624,36.0585947],[139.1032758,36.0585925],[139.1032892,36.0585908],[139.1033028,36.0585897],[139.1033159,36.0585893],[139.1033912,36.0585824],[139.1034794,36.058578],[139.1035677,36.0585776],[139.1035924,36.0585781],[139.1036806,36.0585826],[139.1037683,36.0585911],[139.1040136,36.0586256],[139.1041237,36.0586387],[139.1041451,36.05864],[139.1042165,36.0586421],[139.104288,36.058641],[139.1043263,36.0586391],[139.104328,36.0586389],[139.1043385,36.0586377],[139.1043491,36.058636],[139.1043537,36.0586352],[139.1043641,36.0586328],[139.1043741,36.0586301],[139.1043848,36.0586266],[139.1043895,36.0586257],[139.1043955,36.0586247],[139.1044015,36.058624],[139.1044075,36.0586236],[139.1044092,36.0586235],[139.1044152,36.0586234],[139.1044213,36.0586236],[139.1044274,36.058624],[139.1044335,36.0586248],[139.1044395,36.0586257],[139.1044451,36.0586269],[139.1044457,36.058627],[139.104448,36.0586274],[139.1044504,36.0586276],[139.1044527,36.0586278],[139.104455,36.0586279],[139.1044574,36.0586279],[139.1044597,36.0586277],[139.104462,36.0586274],[139.1044644,36.0586271],[139.1044666,36.0586267],[139.1044688,36.0586261],[139.1044707,36.0586256],[139.1044729,36.0586248],[139.1044751,36.058624],[139.1044771,36.0586231],[139.1044791,36.0586221],[139.104481,36.058621],[139.1044832,36.0586196],[139.1044907,36.0586154],[139.1045129,36.058602],[139.1045196,36.0585976],[139.1045406,36.058583],[139.1045605,36.0585675],[139.10458,36.0585505],[139.1045995,36.058539],[139.1046287,36.0585231],[139.1046592,36.0585086],[139.1046904,36.0584955],[139.1046975,36.0584927],[139.1047296,36.0584814],[139.1047473,36.0584715],[139.1047511,36.0584685],[139.1047547,36.0584656],[139.1047579,36.0584625],[139.1047612,36.0584593],[139.1047641,36.0584558],[139.1047668,36.0584523],[139.1047692,36.0584487],[139.1047713,36.058445],[139.1047732,36.0584412],[139.1047749,36.0584374],[139.1047763,36.0584335],[139.1047774,36.0584295],[139.1047847,36.0584026],[139.1047939,36.0583756],[139.1048048,36.0583491],[139.1048176,36.0583232],[139.1048287,36.0583033],[139.1048444,36.0582785],[139.1048619,36.0582545],[139.1048808,36.0582313],[139.1048812,36.0582309],[139.1048935,36.0582183],[139.1049067,36.0582063],[139.1049206,36.0581948],[139.1049353,36.058184],[139.1049507,36.0581739],[139.1049668,36.0581645],[139.1049835,36.0581557],[139.1050007,36.0581478],[139.1050185,36.0581406],[139.1050367,36.0581342],[139.1050468,36.0581312],[139.1052181,36.0580957],[139.105221,36.0580952],[139.1052506,36.0580912],[139.1052803,36.0580885],[139.1052845,36.0580882],[139.1053144,36.0580871],[139.1053426,36.0580872],[139.1054623,36.0581019],[139.1054689,36.0581028],[139.1055072,36.0581065],[139.1055395,36.0581082],[139.1055781,36.0581087],[139.1056167,36.0581076],[139.1056475,36.0581053],[139.1056732,36.058103],[139.1056985,36.0580996],[139.1057237,36.0580951],[139.1057464,36.0580899],[139.105748,36.0580894],[139.1058168,36.0580607],[139.1058436,36.0580415],[139.1058855,36.0579963],[139.1058953,36.0579803],[139.1059071,36.0579588],[139.1059264,36.0579193],[139.1059431,36.0578789],[139.1059569,36.0578379],[139.1059639,36.0578118],[139.1059739,36.0577797],[139.105985,36.0577504],[139.1059971,36.0577221],[139.1060172,36.0576877],[139.1060426,36.0576556],[139.1060713,36.0576276],[139.1060923,36.0576115],[139.1061379,36.0575739],[139.1061724,36.0575381],[139.1061807,36.0575212],[139.1061854,36.0575082],[139.1061911,36.0574841],[139.1061949,36.057427],[139.1061923,36.0573857],[139.1061807,36.0573269],[139.1061804,36.0573195],[139.106182,36.057278],[139.1061893,36.0572394],[139.1062032,36.0571995],[139.1062076,36.05719],[139.1062207,36.0571682],[139.106237,36.0571478],[139.1062384,36.0571464],[139.1062579,36.0571281],[139.1062803,36.0571117],[139.1063051,36.0570977],[139.1063317,36.0570864],[139.1063598,36.0570778],[139.106498,36.0570492],[139.1066426,36.0570122],[139.1066568,36.05701],[139.106685,36.0570033],[139.1067117,36.0569938],[139.1067368,36.0569817],[139.1067599,36.0569672],[139.1067758,36.0569545],[139.1067946,36.0569359],[139.1067975,36.056933],[139.1068073,36.0569211],[139.1068151,36.0569083],[139.1068155,36.0569076],[139.1068211,36.056894],[139.1068245,36.0568801],[139.1068259,36.0568661],[139.106825,36.056852],[139.1068218,36.0568377],[139.1067767,36.056638],[139.1067202,36.0564022],[139.1067198,36.0563308],[139.1067231,36.0562985],[139.1067387,36.0562258],[139.1067654,36.0561556],[139.1067926,36.056086],[139.1068681,36.0559409],[139.1069421,36.0558338],[139.1071145,36.0555448],[139.1071947,36.0554017],[139.1072057,36.0553857],[139.1072287,36.0553432],[139.107245,36.0552988],[139.1072543,36.0552532],[139.1072564,36.0552226],[139.1072539,36.0551764],[139.107223,36.055043],[139.1072187,36.0550257],[139.1071645,36.0548243],[139.1070739,36.0545761],[139.1070416,36.0545064],[139.1069985,36.05444],[139.1069868,36.054425],[139.1069316,36.0543649],[139.1069252,36.0543598],[139.1069007,36.054337],[139.1068799,36.0543119],[139.106863,36.0542849],[139.1068575,36.0542734],[139.1068467,36.0542444],[139.1068406,36.0542145],[139.1068391,36.0541844],[139.1068387,36.0541595],[139.1068425,36.05413],[139.1068494,36.0541048],[139.1068615,36.0540768],[139.1069039,36.053987],[139.1069303,36.0539364],[139.1069498,36.0538934],[139.1069648,36.0538559],[139.1069769,36.0538221],[139.1069874,36.053791],[139.1069974,36.0537614],[139.1070076,36.0537328],[139.1070179,36.0537059],[139.1070278,36.0536819],[139.1070373,36.0536614],[139.1070471,36.0536429],[139.1070582,36.0536245],[139.1070713,36.0536049],[139.1070848,36.053585],[139.1070969,36.0535662],[139.1071062,36.0535496],[139.1071129,36.0535347],[139.1071173,36.0535208],[139.10712,36.053507],[139.1071213,36.0534935],[139.1071213,36.0534806],[139.1071205,36.0534684],[139.1071188,36.0534566],[139.1071164,36.0534442],[139.1071134,36.053431],[139.1071102,36.0534172],[139.1071072,36.0534034],[139.1071048,36.05339],[139.107103,36.0533764],[139.1071017,36.0533619],[139.1071009,36.0533458],[139.1071012,36.0533282],[139.1071036,36.0533097],[139.1071085,36.0532912],[139.1071149,36.0532734],[139.1071215,36.0532573],[139.1071272,36.0532431],[139.1071314,36.0532305],[139.1071338,36.0532182],[139.1071342,36.0532052],[139.1071329,36.0531911],[139.1071302,36.0531757],[139.1071264,36.0531593],[139.1071203,36.0531409],[139.1071104,36.0531192],[139.1070952,36.053093],[139.1070744,36.0530621],[139.1070478,36.0530267],[139.1070161,36.0529875],[139.1069836,36.0529486],[139.1069551,36.0529145],[139.1069346,36.0528889],[139.1069211,36.0528703],[139.1069126,36.052856],[139.1069074,36.0528438],[139.1069049,36.0528327],[139.1069045,36.0528221],[139.1069059,36.0528115],[139.1069093,36.0528009],[139.1069152,36.0527908],[139.1069239,36.0527822],[139.1069349,36.0527754],[139.1069476,36.0527702],[139.1069624,36.0527664],[139.1069809,36.0527641],[139.1070054,36.0527635],[139.1070383,36.0527652],[139.1070799,36.0527718],[139.1071292,36.0527863],[139.1071812,36.0528025],[139.1072018,36.052806],[139.1072385,36.0528088],[139.1072603,36.0528093],[139.1072732,36.0528067],[139.1072941,36.0527998],[139.1073158,36.0527902],[139.1073584,36.0527617],[139.1074215,36.0526973],[139.1074447,36.0526551],[139.1074589,36.0526111],[139.107464,36.0525723],[139.1074642,36.052553],[139.1074621,36.0525389],[139.1074588,36.0525325],[139.1074523,36.0525216],[139.1074425,36.052513],[139.1074297,36.052504],[139.1074124,36.0524973],[139.1074048,36.0524955],[139.1073542,36.0524825],[139.1073217,36.0524766],[139.1072983,36.0524747],[139.1072762,36.0524743],[139.1072558,36.0524745],[139.1071853,36.0524773],[139.1071733,36.0524777],[139.1071488,36.0524777],[139.1071326,36.0524748],[139.1071183,36.0524707],[139.1071019,36.0524645],[139.1070916,36.0524586],[139.1070877,36.052456],[139.1070753,36.0524434],[139.107022,36.0523697],[139.1069737,36.0523025],[139.1069625,36.0522896],[139.1069439,36.0522703],[139.1069045,36.0522388],[139.1068299,36.0521913],[139.1067544,36.0521517],[139.1066901,36.0521228],[139.1066844,36.0521201],[139.1066804,36.0521185],[139.106667,36.052112],[139.1066542,36.0521039],[139.1066428,36.0520945],[139.1066288,36.0520834],[139.1066167,36.0520704],[139.1066095,36.0520563],[139.1066066,36.052041],[139.1066059,36.0520241],[139.1066085,36.0520087],[139.1066127,36.051999],[139.1066224,36.0519873],[139.1066423,36.0519752],[139.1066732,36.051965],[139.1066825,36.0519632],[139.1066921,36.0519625],[139.1067018,36.0519626],[139.1067032,36.0519628],[139.1067173,36.0519653],[139.1067528,36.0519703],[139.1068174,36.0519787],[139.1068943,36.0519796],[139.1069424,36.051976],[139.1069982,36.0519633],[139.1070936,36.0519298],[139.1071783,36.0518973],[139.1072225,36.0518816],[139.1072582,36.0518752],[139.1073226,36.0518692],[139.1073995,36.0518667],[139.1075811,36.0518491],[139.1076244,36.0518424],[139.1076613,36.0518306],[139.1076781,36.051823],[139.1077542,36.0517836],[139.1077901,36.0517627],[139.1079645,36.0516529],[139.1081136,36.0515424],[139.1081316,36.0515168],[139.1081381,36.0514932],[139.1081419,36.0514643],[139.1081424,36.0514441],[139.1081297,36.0514145],[139.1081202,36.0514004],[139.1081024,36.0513802],[139.1079122,36.0511995],[139.1078977,36.0511776],[139.1078815,36.0511347],[139.1078689,36.0510982],[139.107865,36.0510769],[139.1078645,36.0510604],[139.1078662,36.0510462],[139.1078711,36.0510338],[139.107892,36.0510399],[139.1078881,36.0510499],[139.1078868,36.051061],[139.1078872,36.0510754],[139.1078907,36.0510945],[139.1079028,36.0511296],[139.1079189,36.0511723],[139.1079315,36.0511901],[139.1081199,36.0513692],[139.108139,36.0513907],[139.10815,36.0514071],[139.1081648,36.0514412],[139.1081641,36.0514655],[139.10816,36.0514962],[139.1081525,36.0515234],[139.1081311,36.0515539],[139.1079788,36.0516666],[139.1078034,36.0517773],[139.1077666,36.0517986],[139.1076895,36.0518385],[139.1076707,36.0518468],[139.1076306,36.0518598],[139.1075845,36.0518669],[139.1074013,36.0518847],[139.1073244,36.0518872],[139.1072619,36.0518929],[139.1072294,36.0518988],[139.1071875,36.0519137],[139.1071026,36.0519461],[139.1070057,36.0519803],[139.1069465,36.0519939],[139.1068951,36.0519976],[139.1068156,36.0519967],[139.1067492,36.0519881],[139.1067134,36.051983],[139.1067067,36.0519814],[139.1067,36.0519807],[139.106693,36.0519805],[139.1066861,36.0519811],[139.1066794,36.0519823],[139.1066756,36.0519834],[139.1066693,36.0519857],[139.1066634,36.0519887],[139.106658,36.0519922],[139.1066532,36.0519962],[139.1066496,36.0520002],[139.1066444,36.0520082],[139.1066406,36.0520165],[139.1066381,36.0520253],[139.1066372,36.0520306],[139.1066368,36.0520396],[139.1066378,36.0520485],[139.1066398,36.0520557],[139.1066446,36.0520647],[139.1066514,36.052074],[139.1066595,36.0520826],[139.106669,36.0520903],[139.1066795,36.0520971],[139.1066911,36.0521026],[139.1066942,36.0521039],[139.1067008,36.052107],[139.1067658,36.0521362],[139.1068428,36.0521766],[139.1069191,36.0522252],[139.1069605,36.0522583],[139.1069827,36.0522812],[139.106995,36.0522961],[139.1070412,36.0523605],[139.1070936,36.0524331],[139.1071036,36.0524432],[139.107105,36.0524442],[139.107113,36.0524488],[139.1071268,36.052454],[139.1071388,36.0524575],[139.1071513,36.0524597],[139.1071734,36.0524597],[139.1072552,36.0524565],[139.1072763,36.0524562],[139.1072997,36.0524567],[139.1073252,36.0524588],[139.10736,36.052465],[139.107422,36.052481],[139.1074419,36.0524888],[139.107458,36.0525001],[139.1074708,36.0525113],[139.1074791,36.0525251],[139.1074838,36.0525344],[139.1074864,36.0525521],[139.1074862,36.0525733],[139.1074808,36.0526143],[139.1074658,36.0526611],[139.1074406,36.0527068],[139.1073744,36.0527745],[139.1073284,36.0528052],[139.1073036,36.0528162],[139.10728,36.0528238],[139.1072627,36.0528273],[139.1072373,36.0528268],[139.1071984,36.0528239],[139.1071743,36.0528198],[139.1071217,36.0528032],[139.107074,36.0527892],[139.1070354,36.0527831],[139.1070051,36.0527816],[139.1069829,36.0527821],[139.1069674,36.052784],[139.106956,36.0527869],[139.1069467,36.0527907],[139.1069394,36.0527952],[139.106934,36.0528006],[139.1069302,36.0528071],[139.1069278,36.0528147],[139.1069268,36.0528228],[139.106927,36.0528308],[139.1069289,36.0528392],[139.1069332,36.0528491],[139.1069407,36.0528618],[139.1069535,36.0528794],[139.1069736,36.0529045],[139.1070019,36.0529384],[139.1070346,36.0529775],[139.1070666,36.0530171],[139.1070936,36.0530531],[139.107115,36.0530848],[139.1071309,36.0531122],[139.1071415,36.0531354],[139.1071481,36.0531552],[139.1071522,36.0531728],[139.107155,36.0531891],[139.1071564,36.0532048],[139.1071559,36.0532199],[139.1071531,36.0532342],[139.1071484,36.0532483],[139.1071426,36.0532629],[139.1071361,36.0532788],[139.1071301,36.0532956],[139.1071256,36.0533126],[139.1071234,36.0533293],[139.1071231,36.0533456],[139.1071238,36.0533608],[139.1071251,36.0533747],[139.1071269,36.0533877],[139.1071292,36.0534005],[139.1071321,36.053414],[139.1071352,36.0534277],[139.1071383,36.0534412],[139.1071408,36.0534541],[139.1071426,36.0534669],[139.1071435,36.0534801],[139.1071435,36.0534942],[139.1071421,36.0535091],[139.1071391,36.0535245],[139.1071341,36.0535401],[139.1071268,36.0535564],[139.1071169,36.0535741],[139.1071043,36.0535935],[139.1070908,36.0536135],[139.107078,36.0536328],[139.1070672,36.0536505],[139.1070579,36.0536681],[139.1070487,36.0536879],[139.107039,36.0537114],[139.1070289,36.0537379],[139.1070188,36.0537663],[139.1070088,36.0537958],[139.1069983,36.0538271],[139.106986,36.0538612],[139.1069708,36.0538993],[139.1069509,36.0539431],[139.1069244,36.053994],[139.1068769,36.0540821],[139.1068654,36.0541085],[139.1068589,36.0541322],[139.1068554,36.0541601],[139.1068557,36.0541841],[139.1068571,36.0542131],[139.106863,36.0542414],[139.1068732,36.0542689],[139.1068783,36.0542793],[139.1068943,36.054305],[139.1069139,36.0543288],[139.1069373,36.0543505],[139.1069442,36.054356],[139.1070006,36.0544173],[139.1070129,36.0544333],[139.1070568,36.0545009],[139.1070897,36.0545718],[139.1071807,36.0548209],[139.107235,36.0550228],[139.1072395,36.0550405],[139.1072704,36.0551749],[139.1072731,36.0552227],[139.1072708,36.0552546],[139.1072611,36.0553019],[139.1072443,36.0553479],[139.1072206,36.0553916],[139.1072097,36.0554078],[139.1071296,36.0555505],[139.1069568,36.0558401],[139.106883,36.0559468],[139.1068082,36.0560907],[139.1067813,36.0561596],[139.106755,36.056229],[139.1067396,36.0563003],[139.1067364,36.0563312],[139.1067369,36.0564008],[139.106793,36.0566355],[139.1068383,36.0568353],[139.1068416,36.0568505],[139.1068425,36.0568663],[139.106841,36.056882],[139.1068372,36.0568975],[139.1068311,36.0569123],[139.1068302,36.0569139],[139.1068216,36.0569279],[139.106811,36.0569409],[139.1068076,36.0569444],[139.1067881,36.0569637],[139.1067709,36.0569773],[139.1067462,36.0569929],[139.1067194,36.0570058],[139.1066906,36.057016],[139.1066608,36.0570231],[139.1066467,36.0570253],[139.1065025,36.0570622],[139.1063648,36.0570908],[139.1063385,36.0570987],[139.1063136,36.0571093],[139.1062906,36.0571223],[139.1062698,36.0571375],[139.1062514,36.0571549],[139.1062507,36.0571557],[139.1062352,36.0571749],[139.1062229,36.0571954],[139.1062191,36.0572037],[139.1062056,36.0572423],[139.1061986,36.0572793],[139.106197,36.0573194],[139.1061973,36.0573255],[139.1062088,36.0573843],[139.1062116,36.057427],[139.1062076,36.0574857],[139.1062016,36.0575114],[139.1061964,36.0575256],[139.1061869,36.0575448],[139.1061505,36.0575828],[139.106104,36.0576212],[139.1060834,36.0576369],[139.1060561,36.0576636],[139.1060318,36.0576943],[139.1060126,36.0577272],[139.1060009,36.0577548],[139.1059904,36.0577817],[139.1059818,36.0578085],[139.1059731,36.0578411],[139.1059591,36.0578829],[139.1059421,36.0579239],[139.1059225,36.057964],[139.1059104,36.0579861],[139.1058998,36.0580034],[139.1058558,36.0580508],[139.1058262,36.0580719],[139.1057546,36.0581019],[139.1057512,36.0581028],[139.1057278,36.0581082],[139.1057018,36.0581129],[139.1056755,36.0581164],[139.1056492,36.0581188],[139.1056177,36.058121],[139.1055782,36.0581223],[139.1055388,36.0581217],[139.1055057,36.0581199],[139.1054665,36.0581162],[139.1054598,36.0581152],[139.1053412,36.0581008],[139.1053147,36.0581006],[139.1052855,36.0581018],[139.1052819,36.0581019],[139.1052528,36.0581045],[139.1052242,36.0581084],[139.1052219,36.0581089],[139.1050518,36.0581442],[139.1050429,36.0581468],[139.1050255,36.0581529],[139.1050086,36.0581598],[139.1049921,36.0581673],[139.1049762,36.0581756],[139.1049608,36.0581846],[139.1049462,36.0581943],[139.1049321,36.0582046],[139.1049188,36.0582155],[139.1049063,36.058227],[139.1048945,36.058239],[139.104876,36.0582616],[139.104859,36.058285],[139.1048437,36.0583093],[139.1048329,36.0583285],[139.1048204,36.0583537],[139.1048097,36.0583795],[139.1048008,36.0584058],[139.1047936,36.0584325],[139.1047925,36.0584369],[139.1047908,36.0584415],[139.1047888,36.058446],[139.1047866,36.0584505],[139.104784,36.0584549],[139.1047812,36.0584591],[139.104778,36.0584632],[139.1047748,36.0584671],[139.1047744,36.0584675],[139.1047708,36.0584712],[139.1047669,36.0584748],[139.1047627,36.0584782],[139.1047585,36.0584813],[139.1047362,36.0584938],[139.1047045,36.058505],[139.1046978,36.0585077],[139.1046671,36.0585204],[139.1046376,36.0585346],[139.1046089,36.05855],[139.1045911,36.0585606],[139.1045724,36.058577],[139.1045518,36.058593],[139.1045303,36.058608],[139.1045231,36.0586127],[139.1045003,36.0586264],[139.1044931,36.0586304],[139.104491,36.0586319],[139.1044883,36.0586334],[139.1044855,36.0586347],[139.1044827,36.058636],[139.1044798,36.0586372],[139.1044768,36.0586382],[139.104474,36.058639],[139.1044709,36.0586398],[139.1044678,36.0586404],[139.1044646,36.0586408],[139.1044614,36.0586411],[139.1044581,36.0586414],[139.1044549,36.0586415],[139.1044517,36.0586414],[139.1044485,36.0586411],[139.1044453,36.0586407],[139.1044422,36.0586402],[139.104441,36.05864],[139.1044357,36.0586389],[139.1044306,36.0586381],[139.1044255,36.0586374],[139.1044203,36.0586371],[139.1044151,36.0586369],[139.1044099,36.058637],[139.1044087,36.058637],[139.1044033,36.0586375],[139.1043982,36.0586381],[139.1043931,36.0586388],[139.1043899,36.0586395],[139.1043799,36.0586427],[139.104369,36.0586458],[139.1043579,36.0586483],[139.1043526,36.0586493],[139.1043413,36.058651],[139.1043299,36.0586523],[139.1043276,36.0586525],[139.1042886,36.0586545],[139.1042164,36.0586556],[139.1041442,36.0586535],[139.1041219,36.0586522],[139.104011,36.0586389],[139.1037659,36.0586045],[139.103679,36.0585961],[139.1035916,36.0585916],[139.1035675,36.0585911],[139.1034799,36.0585915],[139.1033926,36.0585959],[139.1033172,36.0586028],[139.103304,36.0586033],[139.1032913,36.0586043],[139.1032788,36.0586058],[139.1032663,36.0586079],[139.1032541,36.0586105],[139.1032419,36.0586138],[139.10323,36.0586175],[139.1032237,36.0586198],[139.1032122,36.0586243],[139.1032011,36.0586293],[139.1031903,36.0586349],[139.10318,36.0586409],[139.1031791,36.0586415],[139.1031715,36.0586478],[139.103164,36.0586547],[139.103157,36.0586619],[139.1031505,36.0586694],[139.1031444,36.0586772],[139.103139,36.0586853],[139.1031342,36.0586936],[139.1031298,36.0587021],[139.1031273,36.0587078],[139.1031239,36.0587166],[139.1031211,36.0587255],[139.1031189,36.0587346],[139.1031174,36.0587437],[139.1031168,36.0587482],[139.103115,36.058766],[139.1031119,36.0587839],[139.1031077,36.0588016],[139.1031038,36.0588147],[139.1030975,36.0588319],[139.10309,36.058849],[139.1030814,36.0588656],[139.1030717,36.0588818],[139.1030689,36.0588861],[139.1030053,36.0589365],[139.1029277,36.0589967],[139.1029211,36.0590014],[139.1028816,36.0590417],[139.1028566,36.0590736],[139.1028416,36.0591006],[139.1028287,36.0591501],[139.1028124,36.0591473]]]},"properties":{"layer":"road","class_code":"1040","class_label":"道路"}},{"type":"Feature","id":"tran_b25544fe-7bbf-4cd2-8aa9-b8e84a394669","geometry":{"type":"Polygon","coordinates":[[[139.1016515,36.0521628],[139.101658,36.0521802],[139.101615,36.052189],[139.1016091,36.0521735],[139.1016515,36.0521628]]]},"properties":{"layer":"road","class_code":"1040","class_label":"道路"}},{"type":"Feature","id":"tran_da134bcb-eb1c-4936-ad42-6487f7f992e2","geometry":{"type":"Polygon","coordinates":[[[139.099868,36.0564023],[139.0999243,36.0563016],[139.1000447,36.0560804],[139.1000474,36.0560755],[139.1001122,36.055963],[139.1001471,36.0558912],[139.1001492,36.0558845],[139.1001497,36.0558808],[139.1001497,36.0558805],[139.100149,36.0558759],[139.1001484,36.055872],[139.1001253,36.0557569],[139.1001256,36.0557351],[139.1001279,36.0557165],[139.100133,36.0556994],[139.1001414,36.0556814],[139.1001531,36.0556617],[139.1002032,36.0555894],[139.1002347,36.0555444],[139.1002787,36.0554853],[139.1003218,36.0554241],[139.100343,36.0553893],[139.1003464,36.055384],[139.1003744,36.0553265],[139.1003784,36.0553128],[139.1004093,36.0551575],[139.1004531,36.0551637],[139.100422,36.0553199],[139.1004168,36.0553374],[139.1003877,36.0553972],[139.1003828,36.0554053],[139.1003717,36.0554236],[139.1003228,36.0554955],[139.1003171,36.0555036],[139.1002729,36.0555627],[139.1002419,36.0556073],[139.1001926,36.0556783],[139.1001823,36.0556956],[139.1001755,36.0557101],[139.1001716,36.0557227],[139.10017,36.055737],[139.1001698,36.0557542],[139.1001927,36.055869],[139.1001942,36.0558785],[139.1001941,36.0558833],[139.1001928,36.0558911],[139.1001894,36.0559023],[139.1001531,36.0559772],[139.1000875,36.0560908],[139.1000839,36.0560975],[139.0999649,36.0563161],[139.0999083,36.0564172],[139.099868,36.0564023]]]},"properties":{"layer":"road","class_code":"1040","class_label":"道路"}},{"type":"Feature","id":"tran_76975d18-ade3-4eb4-bccc-8355d245e826","geometry":{"type":"Polygon","coordinates":[[[139.1083508,36.0505145],[139.1083629,36.0505241],[139.1084093,36.0505536],[139.1084162,36.0505598],[139.1084272,36.0505715],[139.1084353,36.0505848],[139.10844,36.050599],[139.1084414,36.0506137],[139.1084393,36.0506283],[139.1084339,36.0506424],[139.1084234,36.0506631],[139.1084137,36.050681],[139.1084123,36.0506829],[139.1083939,36.0506727],[139.108403,36.0506561],[139.1084133,36.0506355],[139.1084171,36.0506246],[139.1084183,36.0506132],[139.1084171,36.0506019],[139.1084134,36.0505909],[139.1084074,36.0505807],[139.1083993,36.0505714],[139.1083941,36.0505669],[139.1083322,36.0505275],[139.1083508,36.0505145]]]},"properties":{"layer":"road","class_code":"1040","class_label":"道路"}},{"type":"Feature","id":"tran_d4d1dadc-2793-4595-8d6b-720c1d5e37b8","geometry":{"type":"Polygon","coordinates":[[[139.1016394,36.052131],[139.101649,36.0521356],[139.101664,36.0521548],[139.1016515,36.0521628],[139.1016091,36.0521735],[139.101597,36.0521417],[139.1016394,36.052131]]]},"properties":{"layer":"road","class_code":"1040","class_label":"道路"}},{"type":"Feature","id":"tran_db4fafa7-7f69-4f55-8d1d-52fabe8b70dd","geometry":{"type":"Polygon","coordinates":[[[139.1016339,36.0521152],[139.1016366,36.0521237],[139.1016394,36.052131],[139.101597,36.0521417],[139.1015903,36.0521241],[139.1016339,36.0521152]]]},"properties":{"layer":"road","class_code":"1040","class_label":"道路"}},{"type":"Feature","id":"tran_77d3346c-9cf8-4377-86de-116e580772ab","geometry":{"type":"Polygon","coordinates":[[[139.1018606,36.0510972],[139.1019049,36.0510952],[139.101907,36.0511256],[139.1019065,36.0511715],[139.1019055,36.051212],[139.1019021,36.0512572],[139.1018957,36.0513031],[139.1018841,36.0513522],[139.1018608,36.0514205],[139.1018514,36.0514596],[139.101841,36.0515154],[139.101831,36.051568],[139.1018179,36.051604],[139.1017728,36.0517047],[139.1017245,36.0517889],[139.1016386,36.051932],[139.1016252,36.0519617],[139.1016194,36.0519799],[139.1016153,36.0520042],[139.1016145,36.052024],[139.1016148,36.0520329],[139.1015704,36.0520337],[139.1015701,36.0520237],[139.101571,36.0520012],[139.1015757,36.0519729],[139.1015828,36.0519509],[139.1015976,36.0519179],[139.1016843,36.0517733],[139.1017317,36.0516909],[139.1017757,36.0515927],[139.1017875,36.0515601],[139.1017971,36.0515099],[139.1018075,36.0514542],[139.1018181,36.0514109],[139.1018408,36.051344],[139.1018518,36.0512977],[139.1018578,36.0512541],[139.1018611,36.0512105],[139.1018622,36.0511711],[139.1018626,36.0511264],[139.1018606,36.0510972]]]},"properties":{"layer":"road","class_code":"1040","class_label":"道路"}}]}