{"type":"FeatureCollection","properties":{"mesh_code":"54390066","source":"PLATEAU秩父市2025","layer":"road"},"features":[{"type":"Feature","id":"tran_8bb27233-cf25-4fc2-a8ac-73a3464a8677","geometry":{"type":"Polygon","coordinates":[[[139.0872612,36.0499466],[139.0872909,36.0500158],[139.0873231,36.0500918],[139.0873549,36.0501678],[139.0873865,36.0502442],[139.0874024,36.0502844],[139.0873229,36.0503046],[139.0873074,36.0502652],[139.0872761,36.0501895],[139.0872443,36.0501136],[139.0872122,36.0500379],[139.0871823,36.049968],[139.0872612,36.0499466]]]},"properties":{"layer":"road","class_code":"1040","class_label":"道路"}}]}