{"type":"FeatureCollection","properties":{"mesh_code":"54390009","source":"PLATEAU秩父市2025","layer":"road"},"features":[{"type":"Feature","id":"tran_e251b997-51fd-4350-ba2a-b12ecccde22f","geometry":{"type":"Polygon","coordinates":[[[139.1132344,36.0042008],[139.1132402,36.0041838],[139.1132417,36.0041678],[139.1132402,36.0041559],[139.1132356,36.0041462],[139.113261,36.0041371],[139.1132995,36.0041353],[139.1133347,36.0041761],[139.1133004,36.0041957],[139.1132675,36.0042252],[139.1132344,36.0042008]]]},"properties":{"layer":"road","class_code":"1040","class_label":"道路"}},{"type":"Feature","id":"tran_bc710c91-54d1-4310-8335-74cd53d163f6","geometry":{"type":"Polygon","coordinates":[[[139.1131167,36.0045326],[139.1131788,36.0045492],[139.1132032,36.0045525],[139.1132422,36.004551],[139.1133002,36.0045498],[139.1133971,36.0045488],[139.1135072,36.0045425],[139.1136742,36.0045219],[139.1137934,36.0045029],[139.1137966,36.0045162],[139.1136771,36.0045353],[139.1135091,36.0045559],[139.1133979,36.0045623],[139.1133006,36.0045633],[139.1132428,36.0045646],[139.1131806,36.0045648],[139.1131685,36.0045621],[139.1131117,36.0045448],[139.1131167,36.0045326]]]},"properties":{"layer":"road","class_code":"1040","class_label":"道路"}},{"type":"Feature","id":"tran_ba39eede-baea-40c2-a27e-7e99420d55d6","geometry":{"type":"Polygon","coordinates":[[[139.1131331,36.0039225],[139.1131579,36.0039634],[139.1131806,36.0040012],[139.1132402,36.0040982],[139.1132591,36.0041329],[139.113261,36.0041371],[139.1132356,36.0041462],[139.1132334,36.0041415],[139.1132152,36.0041078],[139.1131556,36.0040112],[139.113133,36.0039734],[139.1131082,36.0039323],[139.1131331,36.0039225]]]},"properties":{"layer":"road","class_code":"1040","class_label":"道路"}},{"type":"Feature","id":"tran_9c48b759-8ef0-42db-bff9-b7f061b06335","geometry":{"type":"Polygon","coordinates":[[[139.1133733,36.0046073],[139.1133626,36.0046423],[139.1132177,36.0046131],[139.1131531,36.0045974],[139.113095,36.0045783],[139.1130888,36.0045752],[139.1131117,36.0045448],[139.1131677,36.0045633],[139.1132293,36.0045783],[139.1133733,36.0046073]]]},"properties":{"layer":"road","class_code":"1040","class_label":"道路"}},{"type":"Feature","id":"tran_d98d6685-055e-43e3-bafc-a5efbd13c7ae","geometry":{"type":"Polygon","coordinates":[[[139.1130475,36.0044677],[139.1130574,36.0044505],[139.1131169,36.0043554],[139.1131386,36.0043204],[139.1131608,36.0042885],[139.1131859,36.0042582],[139.1132175,36.0042232],[139.1132344,36.0042008],[139.1132675,36.0042252],[139.1132476,36.0042431],[139.1132178,36.0042764],[139.1131939,36.0043052],[139.1131729,36.0043353],[139.1131515,36.0043697],[139.1130923,36.0044643],[139.1130826,36.0044811],[139.1130475,36.0044677]]]},"properties":{"layer":"road","class_code":"1040","class_label":"道路"}},{"type":"Feature","id":"tran_b799b282-4ae4-4470-9407-53f5555081cc","geometry":{"type":"Polygon","coordinates":[[[139.1131117,36.0045448],[139.1130888,36.0045752],[139.1130692,36.0045654],[139.1130361,36.0045608],[139.1130011,36.0045473],[139.1130475,36.0044677],[139.1130826,36.0044811],[139.1131045,36.0045294],[139.1131167,36.0045326],[139.1131117,36.0045448]]]},"properties":{"layer":"road","class_code":"1040","class_label":"道路"}},{"type":"Feature","id":"tran_227d1a2f-7b5f-4bb0-9bec-eca83f44f3ee","geometry":{"type":"Polygon","coordinates":[[[139.1129683,36.0080311],[139.1130229,36.0079965],[139.1131516,36.007916],[139.1132333,36.0078636],[139.1132886,36.0078337],[139.1133493,36.0078068],[139.1134696,36.0077629],[139.1136416,36.0077084],[139.1137269,36.0076661],[139.1137498,36.0076474],[139.1137648,36.007629],[139.1137732,36.0076071],[139.1138197,36.0076262],[139.1138082,36.0076419],[139.1137844,36.0076651],[139.1137565,36.0076859],[139.1137168,36.0077038],[139.1136527,36.0077291],[139.1134803,36.0077837],[139.1133616,36.007827],[139.1133029,36.007853],[139.1132495,36.0078818],[139.1131688,36.0079338],[139.1130398,36.0080143],[139.1129854,36.0080489],[139.1129683,36.0080311]]]},"properties":{"layer":"road","class_code":"1040","class_label":"道路"}},{"type":"Feature","id":"tran_dfa2d087-0801-4606-9c42-6d26658dd778","geometry":{"type":"Polygon","coordinates":[[[139.1129365,36.0046555],[139.1129454,36.00464],[139.1129991,36.0045508],[139.1130011,36.0045473],[139.1130361,36.0045608],[139.1130341,36.0045644],[139.1129804,36.0046537],[139.1129716,36.0046689],[139.1129365,36.0046555]]]},"properties":{"layer":"road","class_code":"1040","class_label":"道路"}},{"type":"Feature","id":"tran_b0d4697e-85de-4abc-bd8d-91f6ee03ade7","geometry":{"type":"Polygon","coordinates":[[[139.1129506,36.0048242],[139.1129891,36.0048554],[139.1130472,36.0048698],[139.113153,36.0048598],[139.1131829,36.0048599],[139.113286,36.0048865],[139.1133566,36.0048924],[139.1134897,36.0049086],[139.1134832,36.0049443],[139.1133511,36.0049282],[139.113254,36.0049201],[139.1131839,36.004908],[139.1131227,36.0049064],[139.1130456,36.0049122],[139.1128999,36.0048656],[139.1129506,36.0048242]]]},"properties":{"layer":"road","class_code":"1040","class_label":"道路"}},{"type":"Feature","id":"tran_36d9ab0f-cd87-4102-a17a-52d42317f641","geometry":{"type":"Polygon","coordinates":[[[139.1128753,36.004711],[139.1128964,36.0046681],[139.1129365,36.0046555],[139.1129716,36.0046689],[139.1129342,36.0047337],[139.1128985,36.0047213],[139.1128753,36.004711]]]},"properties":{"layer":"road","class_code":"1040","class_label":"道路"}},{"type":"Feature","id":"tran_4a9adbca-eb8a-4992-a913-a039845c6ca5","geometry":{"type":"Polygon","coordinates":[[[139.1128445,36.0080822],[139.1129632,36.0080343],[139.1129683,36.0080311],[139.1129854,36.0080489],[139.112971,36.0080732],[139.1129766,36.008123],[139.1129307,36.0081263],[139.1129169,36.0081193],[139.1129009,36.008115],[139.1128845,36.0081145],[139.1128647,36.0081152],[139.1128445,36.0080822]]]},"properties":{"layer":"road","class_code":"1040","class_label":"道路"}},{"type":"Feature","id":"tran_de8c1eb2-d2cc-4240-ad03-c322e5207ccf","geometry":{"type":"Polygon","coordinates":[[[139.1128985,36.0047213],[139.1129342,36.0047337],[139.1129115,36.0047789],[139.1128725,36.0047669],[139.1128985,36.0047213]]]},"properties":{"layer":"road","class_code":"1040","class_label":"道路"}},{"type":"Feature","id":"tran_ebe5dc0f-62a7-4047-8c24-4ed4499fdf44","geometry":{"type":"Polygon","coordinates":[[[139.1128681,36.0047752],[139.1128725,36.0047669],[139.1129115,36.0047789],[139.1129072,36.0047891],[139.1128681,36.0047752]]]},"properties":{"layer":"road","class_code":"1040","class_label":"道路"}},{"type":"Feature","id":"tran_5ec22a57-d98c-47a5-8ecf-85b2d8f21098","geometry":{"type":"Polygon","coordinates":[[[139.1128327,36.0048289],[139.112848,36.0048105],[139.1128587,36.0047926],[139.1128681,36.0047752],[139.1129072,36.0047891],[139.1129506,36.0048242],[139.1128999,36.0048656],[139.1128327,36.0048289]]]},"properties":{"layer":"road","class_code":"1040","class_label":"道路"}},{"type":"Feature","id":"tran_3026a890-541d-4f32-8d9c-8fee9a9725cd","geometry":{"type":"Polygon","coordinates":[[[139.1126422,36.0066379],[139.11269,36.0066862],[139.1126998,36.0066993],[139.1128452,36.0068932],[139.1129195,36.0070031],[139.1129381,36.0070355],[139.1129786,36.0071066],[139.1129898,36.0071194],[139.1130222,36.0071253],[139.1131843,36.0070511],[139.1132969,36.0069995],[139.1133187,36.0070309],[139.1129898,36.0071815],[139.1129401,36.0071249],[139.1128799,36.0070193],[139.1128068,36.0069113],[139.1126537,36.006707],[139.1126076,36.0066605],[139.1126422,36.0066379]]]},"properties":{"layer":"road","class_code":"1040","class_label":"道路"}},{"type":"Feature","id":"tran_b796ebcf-bed0-46f5-b665-eff3cc6c1fc3","geometry":{"type":"Polygon","coordinates":[[[139.1125469,36.0066328],[139.112548,36.0066058],[139.1125554,36.006606],[139.1125882,36.006584],[139.1126119,36.0066073],[139.1126422,36.0066379],[139.1126076,36.0066605],[139.1125469,36.0066328]]]},"properties":{"layer":"road","class_code":"1040","class_label":"道路"}},{"type":"Feature","id":"tran_94a9a7f6-73e4-4a95-9945-361c708b7fc0","geometry":{"type":"Polygon","coordinates":[[[139.1123922,36.0044817],[139.1126415,36.004508],[139.1127268,36.0045178],[139.1127404,36.0045279],[139.1127873,36.004646],[139.1128165,36.0046627],[139.1128964,36.0046681],[139.1128753,36.004711],[139.1128425,36.0047071],[139.112809,36.0047041],[139.1127676,36.0047038],[139.112768,36.0046836],[139.1127021,36.0046129],[139.1126453,36.0045514],[139.112627,36.0045428],[139.1123865,36.0045174],[139.1123922,36.0044817]]]},"properties":{"layer":"road","class_code":"1040","class_label":"道路"}},{"type":"Feature","id":"tran_74c90d4d-683f-48b9-a95f-23b0c3118bea","geometry":{"type":"Polygon","coordinates":[[[139.1128445,36.0080822],[139.1128647,36.0081152],[139.1128455,36.0081186],[139.1128336,36.008122],[139.1126113,36.008208],[139.1124262,36.0082772],[139.1122458,36.0083497],[139.1122168,36.0083633],[139.1121147,36.0084112],[139.1120953,36.0083838],[139.1122274,36.0083219],[139.1124094,36.0082488],[139.1125948,36.0081795],[139.1128115,36.0080955],[139.1128445,36.0080822]]]},"properties":{"layer":"road","class_code":"1040","class_label":"道路"}},{"type":"Feature","id":"tran_34363978-e6ef-4abc-9dad-5574f1917a24","geometry":{"type":"Polygon","coordinates":[[[139.1156506,36.0023592],[139.1156548,36.0023579],[139.1157852,36.0023094],[139.1157966,36.00233],[139.1157608,36.0023433],[139.1157169,36.0023596],[139.1156655,36.0023787],[139.1156158,36.0023941],[139.115572,36.0024031],[139.1155335,36.0024086],[139.1154636,36.0024136],[139.1154612,36.0023911],[139.1155299,36.0023862],[139.1155662,36.0023811],[139.1156073,36.0023726],[139.1156506,36.0023592]]]},"properties":{"layer":"road","class_code":"1040","class_label":"道路"}},{"type":"Feature","id":"tran_1dc873d6-4300-4598-91f3-fa2286e6433e","geometry":{"type":"Polygon","coordinates":[[[139.1134006,36.0041775],[139.1134515,36.004167],[139.1134339,36.0042117],[139.1134188,36.0042392],[139.1134152,36.0042526],[139.1133751,36.0042264],[139.1133899,36.0042082],[139.113399,36.0041952],[139.1134012,36.0041872],[139.1134006,36.0041775]]]},"properties":{"layer":"road","class_code":"1040","class_label":"道路"}},{"type":"Feature","id":"tran_22364da8-613e-4306-b81b-ac43ebcd831d","geometry":{"type":"Polygon","coordinates":[[[139.1133787,36.0046692],[139.1134187,36.0046535],[139.1134408,36.0046909],[139.1134009,36.0047065],[139.1133787,36.0046692]]]},"properties":{"layer":"road","class_code":"1040","class_label":"道路"}},{"type":"Feature","id":"tran_4dd3322f-c221-4a85-b3ea-e4fb292993b4","geometry":{"type":"Polygon","coordinates":[[[139.113577,36.0032597],[139.1136042,36.0032557],[139.1136195,36.0033244],[139.1135956,36.0033586],[139.113528,36.0034449],[139.1134893,36.0034944],[139.1134628,36.0035358],[139.1134468,36.0035686],[139.1134425,36.003585],[139.1134376,36.0036048],[139.1134345,36.0036227],[139.1134344,36.0036434],[139.1134378,36.0036725],[139.1134489,36.0037305],[139.1134562,36.0037809],[139.1134596,36.0038266],[139.1134599,36.0038709],[139.113458,36.00392],[139.1134535,36.0039721],[139.113447,36.0040231],[139.1134367,36.0040847],[139.1134092,36.0040817],[139.1134194,36.0040204],[139.1134258,36.0039701],[139.1134303,36.0039188],[139.1134322,36.0038706],[139.1134318,36.0038274],[139.1134286,36.0037829],[139.1134215,36.0037336],[139.1134102,36.0036753],[139.1134066,36.0036444],[139.1134067,36.003621],[139.1134103,36.003601],[139.1134153,36.0035804],[139.1134202,36.003562],[139.1134374,36.0035264],[139.1134652,36.0034832],[139.1135046,36.0034328],[139.1135719,36.0033469],[139.1135905,36.0033203],[139.113577,36.0032597]]]},"properties":{"layer":"road","class_code":"1040","class_label":"道路"}},{"type":"Feature","id":"tran_e1df8f2f-f296-4a53-9e08-f52b6f36a54b","geometry":{"type":"Polygon","coordinates":[[[139.1134293,36.0046185],[139.1134961,36.004632],[139.1134853,36.004667],[139.1134187,36.0046535],[139.1134293,36.0046185]]]},"properties":{"layer":"road","class_code":"1040","class_label":"道路"}},{"type":"Feature","id":"tran_3400a78c-ef33-4ce6-91da-24b5b08f5389","geometry":{"type":"Polygon","coordinates":[[[139.1139477,36.0036111],[139.1139748,36.0036556],[139.1139515,36.003669],[139.1139208,36.0036864],[139.1138904,36.0037066],[139.1138586,36.0037315],[139.1138251,36.0037606],[139.1137978,36.0037872],[139.11377,36.00382],[139.113736,36.0038625],[139.1136853,36.0039262],[139.1136308,36.0039965],[139.1135865,36.0040425],[139.1135568,36.0040678],[139.1135288,36.0040875],[139.1134961,36.0041049],[139.1134604,36.0041181],[139.1134547,36.0040828],[139.1134822,36.0040799],[139.1135086,36.0040659],[139.1135338,36.0040482],[139.1135613,36.0040248],[139.1136036,36.0039809],[139.1136572,36.0039116],[139.1137081,36.0038479],[139.1137423,36.003805],[139.1137712,36.0037709],[139.1138034,36.0037305],[139.1138325,36.0036995],[139.1138643,36.0036715],[139.1138917,36.0036481],[139.1139166,36.0036295],[139.1139477,36.0036111]]]},"properties":{"layer":"road","class_code":"1040","class_label":"道路"}},{"type":"Feature","id":"tran_4f1622dd-f192-412b-b2a9-2dec9b922764","geometry":{"type":"Polygon","coordinates":[[[139.1132995,36.0041353],[139.1133221,36.0041321],[139.1133406,36.0041267],[139.1133562,36.004121],[139.1133741,36.0041536],[139.1133347,36.0041761],[139.1132995,36.0041353]]]},"properties":{"layer":"road","class_code":"1040","class_label":"道路"}},{"type":"Feature","id":"tran_228afc82-882c-4d2e-96d2-dd28082d1669","geometry":{"type":"Polygon","coordinates":[[[139.1139477,36.0036111],[139.1139741,36.0035998],[139.1139725,36.0035745],[139.1139878,36.0035689],[139.1139998,36.0035907],[139.1140714,36.0036237],[139.1140434,36.0036638],[139.1139748,36.0036556],[139.1139477,36.0036111]]]},"properties":{"layer":"road","class_code":"1040","class_label":"道路"}},{"type":"Feature","id":"tran_7b50be5b-5d1a-4fdf-8103-a307525ec848","geometry":{"type":"Polygon","coordinates":[[[139.1139998,36.0035907],[139.1140075,36.0035881],[139.1140321,36.0035774],[139.1140511,36.0035649],[139.1140594,36.0035571],[139.1141069,36.0035699],[139.1141037,36.0035776],[139.1140714,36.0036237],[139.1139998,36.0035907]]]},"properties":{"layer":"road","class_code":"1040","class_label":"道路"}},{"type":"Feature","id":"tran_0569e514-e2d6-47c9-ae58-aca09bb15163","geometry":{"type":"Polygon","coordinates":[[[139.1140594,36.0035571],[139.1140703,36.0035302],[139.1140749,36.0035145],[139.1141229,36.0035236],[139.1141303,36.0035476],[139.1141147,36.0035507],[139.1141069,36.0035699],[139.1140594,36.0035571]]]},"properties":{"layer":"road","class_code":"1040","class_label":"道路"}},{"type":"Feature","id":"tran_7d6b1ccd-4b67-4b18-b71b-856526196377","geometry":{"type":"Polygon","coordinates":[[[139.1140749,36.0035145],[139.1140836,36.0034843],[139.1140941,36.0034348],[139.1141029,36.0034034],[139.1141184,36.0033662],[139.1141459,36.0033228],[139.1141795,36.0032788],[139.1142151,36.0032459],[139.1142619,36.0032043],[139.1142875,36.0031817],[139.1143868,36.0030941],[139.1145223,36.0029653],[139.1145643,36.0029312],[139.1146039,36.0028989],[139.1146513,36.0028642],[139.1147155,36.0028308],[139.1148209,36.0027948],[139.114965,36.0027563],[139.1150392,36.0027495],[139.1151468,36.0027493],[139.1152008,36.0027516],[139.115228,36.0027458],[139.1152442,36.0027358],[139.1152674,36.0027093],[139.1152981,36.0026459],[139.1152986,36.0026448],[139.1153447,36.0026604],[139.1153444,36.0026609],[139.1153116,36.0027288],[139.1152805,36.0027644],[139.1152503,36.002783],[139.115206,36.0027925],[139.1151456,36.0027899],[139.1151153,36.00279],[139.1150421,36.0027901],[139.1149757,36.0027962],[139.1148384,36.0028328],[139.1147388,36.0028668],[139.1146817,36.0028966],[139.1146384,36.0029284],[139.1145589,36.0029928],[139.1144241,36.0031211],[139.1142987,36.0032318],[139.1142524,36.0032728],[139.1142198,36.003303],[139.1141893,36.0033428],[139.1141644,36.0033821],[139.114151,36.0034145],[139.114143,36.0034428],[139.1141326,36.0034923],[139.1141229,36.0035236],[139.1140749,36.0035145]]]},"properties":{"layer":"road","class_code":"1040","class_label":"道路"}},{"type":"Feature","id":"tran_c1bdd85e-9220-4ff7-ba4a-cf9ca941114d","geometry":{"type":"Polygon","coordinates":[[[139.1145045,36.0035878],[139.1145107,36.0035901],[139.1145121,36.0035904],[139.1145135,36.0035905],[139.1145195,36.0035904],[139.1145252,36.0035895],[139.1145389,36.003585],[139.1145449,36.003582],[139.1145474,36.0035803],[139.1145541,36.003575],[139.1145705,36.0035604],[139.1146244,36.0035115],[139.1146509,36.0034888],[139.1146633,36.0034798],[139.1146953,36.0034538],[139.1147051,36.0034508],[139.114738,36.0034673],[139.1147686,36.003493],[139.1147794,36.003504],[139.1147902,36.0035191],[139.1147946,36.0035282],[139.1147985,36.0035413],[139.1147995,36.0035548],[139.1147988,36.003565],[139.1147947,36.0035875],[139.1147874,36.0036177],[139.1147821,36.0036348],[139.1147719,36.0036595],[139.1147588,36.0036807],[139.1147494,36.0036927],[139.1147335,36.0037105],[139.1147253,36.0037205],[139.1147218,36.0037256],[139.1147159,36.003737],[139.1147125,36.0037461],[139.1147068,36.0037699],[139.1147012,36.0037974],[139.1146954,36.0038127],[139.1146863,36.0038266],[139.1146623,36.0038546],[139.1146423,36.0038803],[139.1146332,36.0038937],[139.1146225,36.0039125],[139.1146174,36.0039273],[139.1146165,36.0039349],[139.1146166,36.0039392],[139.1146181,36.003949],[139.114623,36.0039636],[139.1146256,36.0039685],[139.1146305,36.0039743],[139.1146357,36.0039777],[139.1146384,36.0039786],[139.1146492,36.0039802],[139.1146609,36.0039794],[139.1146655,36.0039783],[139.1146743,36.003975],[139.1146874,36.0039671],[139.1146933,36.0039621],[139.1147038,36.0039505],[139.1147414,36.0038956],[139.1147566,36.0038774],[139.1147667,36.0038669],[139.1147812,36.0038544],[139.1147974,36.0038668],[139.1147836,36.0038786],[139.1147745,36.003888],[139.1147603,36.0039051],[139.1147225,36.0039603],[139.1147103,36.0039737],[139.1147021,36.0039807],[139.1146857,36.0039906],[139.1146732,36.0039953],[139.1146649,36.0039972],[139.1146482,36.0039983],[139.1146318,36.003996],[139.1146242,36.0039932],[139.1146141,36.0039867],[139.1146062,36.0039772],[139.114602,36.0039696],[139.1145963,36.0039526],[139.1145944,36.0039405],[139.1145943,36.0039342],[139.1145955,36.0039239],[139.1146016,36.0039063],[139.1146134,36.0038855],[139.1146232,36.0038711],[139.1146439,36.0038446],[139.1146673,36.0038172],[139.1146748,36.0038057],[139.1146796,36.0037932],[139.114685,36.0037667],[139.114691,36.0037418],[139.114695,36.0037309],[139.1147018,36.0037177],[139.1147064,36.0037111],[139.1147153,36.0037003],[139.114731,36.0036826],[139.1147395,36.0036718],[139.1147514,36.0036526],[139.1147608,36.0036297],[139.1147658,36.0036138],[139.1147729,36.0035844],[139.1147767,36.0035631],[139.1147773,36.0035549],[139.1147765,36.003544],[139.1147734,36.0035337],[139.1147701,36.003527],[139.114761,36.0035142],[139.1147522,36.0035053],[139.1147393,36.0034954],[139.1147329,36.0034916],[139.1147239,36.0034878],[139.1147182,36.0034864],[139.1147074,36.0034856],[139.1147002,36.0034865],[139.1146959,36.0034879],[139.1146878,36.0034922],[139.1146702,36.003505],[139.1146448,36.0035268],[139.1145911,36.0035755],[139.114574,36.0035907],[139.1145659,36.0035971],[139.1145611,36.0036003],[139.1145515,36.0036052],[139.1145331,36.0036112],[139.1145227,36.0036129],[139.114512,36.0036131],[139.1145067,36.0036125],[139.1145014,36.0036114],[139.1144912,36.0036076],[139.1144812,36.003602],[139.1144745,36.0035972],[139.114461,36.0035856],[139.1144505,36.0035753],[139.114429,36.0035536],[139.1144125,36.0035391],[139.1143971,36.0035294],[139.1143885,36.0035258],[139.1143732,36.0035218],[139.1143541,36.0035195],[139.1143426,36.003519],[139.1143184,36.0035192],[139.1143037,36.00352],[139.1142776,36.0035224],[139.1142271,36.0035295],[139.1141595,36.0035416],[139.1141303,36.0035476],[139.1141229,36.0035236],[139.1141544,36.0035241],[139.1142228,36.0035118],[139.1142745,36.0035046],[139.1143017,36.003502],[139.1143175,36.0035011],[139.1143432,36.0035009],[139.1143563,36.0035016],[139.1143782,36.0035042],[139.114397,36.0035091],[139.1144091,36.0035141],[139.1144275,36.0035257],[139.1144458,36.0035418],[139.1144677,36.0035639],[139.1144776,36.0035736],[139.1145045,36.0035878]]]},"properties":{"layer":"road","class_code":"1040","class_label":"道路"}},{"type":"Feature","id":"tran_6d649096-a44f-49b2-85d9-667ba75571e8","geometry":{"type":"Polygon","coordinates":[[[139.1149077,36.0018563],[139.1149823,36.0019295],[139.1150511,36.0019807],[139.115085,36.0020027],[139.1151182,36.0020195],[139.1151559,36.0020322],[139.1151972,36.0020407],[139.1152454,36.0020489],[139.1152594,36.0020508],[139.1152961,36.0020504],[139.1153098,36.0020494],[139.1153132,36.0020784],[139.1152882,36.0020729],[139.1152412,36.0020665],[139.1151922,36.0020582],[139.1151488,36.0020494],[139.1151079,36.0020355],[139.1150723,36.0020175],[139.1150366,36.0019944],[139.1149661,36.0019419],[139.1148906,36.0018678],[139.1149077,36.0018563]]]},"properties":{"layer":"road","class_code":"1040","class_label":"道路"}},{"type":"Feature","id":"tran_650ec9ac-f1e2-4fef-9c60-b56e7e149b97","geometry":{"type":"Polygon","coordinates":[[[139.1154699,36.0018072],[139.1154794,36.0018607],[139.1152504,36.0018877],[139.1152464,36.0019003],[139.1152811,36.001928],[139.115406,36.0020281],[139.1154072,36.0020438],[139.1153353,36.0020474],[139.1151019,36.0018604],[139.1151073,36.0018499],[139.1154699,36.0018072]]]},"properties":{"layer":"road","class_code":"1040","class_label":"道路"}},{"type":"Feature","id":"tran_a78f3bc3-d3db-4cb6-bb00-477cdbebb279","geometry":{"type":"Polygon","coordinates":[[[139.1153374,36.0021014],[139.1154112,36.0020962],[139.1153543,36.0022155],[139.1153525,36.0022281],[139.1153549,36.0022381],[139.1153602,36.0022509],[139.1154687,36.0023232],[139.1154737,36.0023331],[139.1154731,36.0023524],[139.1154714,36.0023581],[139.1154612,36.0023911],[139.1154128,36.0023814],[139.11542,36.0023578],[139.1154233,36.0023469],[139.1154234,36.0023455],[139.1152888,36.0022558],[139.115281,36.0022476],[139.1152774,36.0022345],[139.1152794,36.002223],[139.1153374,36.0021014]]]},"properties":{"layer":"road","class_code":"1040","class_label":"道路"}},{"type":"Feature","id":"tran_f5ce7495-9681-4c22-be57-e89fcfcfc265","geometry":{"type":"Polygon","coordinates":[[[139.1152986,36.0026448],[139.115312,36.0026181],[139.1153575,36.0026349],[139.1153447,36.0026604],[139.1152986,36.0026448]]]},"properties":{"layer":"road","class_code":"1040","class_label":"道路"}},{"type":"Feature","id":"tran_ddc3a20f-0bd6-4a22-879c-4235c334ad8a","geometry":{"type":"Polygon","coordinates":[[[139.1153353,36.0020474],[139.1154072,36.0020438],[139.1154112,36.0020962],[139.1153374,36.0021014],[139.1153326,36.00209],[139.1153263,36.0020842],[139.1153132,36.0020784],[139.1153098,36.0020494],[139.1153353,36.0020474]]]},"properties":{"layer":"road","class_code":"1040","class_label":"道路"}},{"type":"Feature","id":"tran_a1dbb294-42e5-44a8-9a48-7022c145326d","geometry":{"type":"Polygon","coordinates":[[[139.1153358,36.0025706],[139.115382,36.0025859],[139.1153972,36.0026245],[139.1153575,36.0026349],[139.115312,36.0026181],[139.1153358,36.0025706]]]},"properties":{"layer":"road","class_code":"1040","class_label":"道路"}},{"type":"Feature","id":"tran_e379d0e8-44d2-4bf7-a241-632f4d390cd0","geometry":{"type":"Polygon","coordinates":[[[139.1153358,36.0025706],[139.1153509,36.0025404],[139.1154033,36.0024128],[139.1154058,36.0024046],[139.1154541,36.0024143],[139.1154507,36.0024256],[139.1153977,36.0025546],[139.115382,36.0025859],[139.1153358,36.0025706]]]},"properties":{"layer":"road","class_code":"1040","class_label":"道路"}},{"type":"Feature","id":"tran_d5e4e9a4-c2f1-4a55-943c-81a4bfd1990b","geometry":{"type":"Polygon","coordinates":[[[139.1159937,36.0024057],[139.1160148,36.0024423],[139.1158414,36.0025083],[139.1157774,36.0025269],[139.1156764,36.002552],[139.1153972,36.0026245],[139.115382,36.0025859],[139.1156614,36.0025134],[139.1157619,36.0024883],[139.1158202,36.0024716],[139.1159937,36.0024057]]]},"properties":{"layer":"road","class_code":"1040","class_label":"道路"}},{"type":"Feature","id":"tran_ed9a9017-0e78-4138-ace4-03e4a4b0561a","geometry":{"type":"Polygon","coordinates":[[[139.1154128,36.0023814],[139.1154612,36.0023911],[139.1154636,36.0024136],[139.1154541,36.0024143],[139.1154058,36.0024046],[139.1154128,36.0023814]]]},"properties":{"layer":"road","class_code":"1040","class_label":"道路"}},{"type":"Feature","id":"tran_8143fc76-32ca-4961-9a8a-a4980e0c90b3","geometry":{"type":"Polygon","coordinates":[[[139.1154124,36.0020101],[139.1154794,36.0018607],[139.1155212,36.0018731],[139.1154541,36.0020225],[139.1154124,36.0020101]]]},"properties":{"layer":"road","class_code":"1040","class_label":"道路"}},{"type":"Feature","id":"tran_20f20b56-13d4-4d95-8b9e-59a8ded35f66","geometry":{"type":"Polygon","coordinates":[[[139.113924,36.0035072],[139.1139484,36.0035208],[139.1139628,36.0035328],[139.1139798,36.0035545],[139.1139878,36.0035689],[139.1139725,36.0035745],[139.1139651,36.003561],[139.1139497,36.0035412],[139.1139377,36.0035312],[139.1139146,36.0035183],[139.113924,36.0035072]]]},"properties":{"layer":"road","class_code":"1040","class_label":"道路"}},{"type":"Feature","id":"tran_eeaf035a-c91e-468e-9fa1-33b008c5c9f4","geometry":{"type":"Polygon","coordinates":[[[139.1155207,36.0018014],[139.1155293,36.001855],[139.1155212,36.0018731],[139.1154794,36.0018607],[139.1154699,36.0018072],[139.1155107,36.0018024],[139.1155207,36.0018014]]]},"properties":{"layer":"road","class_code":"1040","class_label":"道路"}},{"type":"Feature","id":"tran_1764f2ba-8dc8-4d8b-be33-c52b62ce9b8e","geometry":{"type":"Polygon","coordinates":[[[139.1158353,36.0017681],[139.1158438,36.0018217],[139.1155293,36.001855],[139.1155207,36.0018014],[139.1158353,36.0017681]]]},"properties":{"layer":"road","class_code":"1040","class_label":"道路"}},{"type":"Feature","id":"tran_2143874c-119c-447d-9675-cdcd1f5f9f9f","geometry":{"type":"Polygon","coordinates":[[[139.1159421,36.0022189],[139.1159836,36.0023007],[139.1160176,36.0023614],[139.1160272,36.0023785],[139.1159869,36.0023934],[139.1159687,36.0023611],[139.1159428,36.0023151],[139.115901,36.0022326],[139.1159421,36.0022189]]]},"properties":{"layer":"road","class_code":"1040","class_label":"道路"}},{"type":"Feature","id":"tran_cb5abf07-4b9d-4ea0-ac7a-d9d7d42ede4b","geometry":{"type":"Polygon","coordinates":[[[139.1159869,36.0023934],[139.1160272,36.0023785],[139.1160552,36.002427],[139.1160148,36.0024423],[139.1159937,36.0024057],[139.1159869,36.0023934]]]},"properties":{"layer":"road","class_code":"1040","class_label":"道路"}},{"type":"Feature","id":"tran_ea3d8070-f3c3-4c1e-aa8b-00b4b2a15e42","geometry":{"type":"Polygon","coordinates":[[[139.1160272,36.0023785],[139.1160634,36.0023617],[139.116069,36.0023591],[139.1161076,36.0023412],[139.1162801,36.0021729],[139.116294,36.0021618],[139.1163273,36.0021935],[139.1163158,36.0022015],[139.1161511,36.0023622],[139.1161459,36.0023671],[139.1160639,36.0024237],[139.1160552,36.002427],[139.1160272,36.0023785]]]},"properties":{"layer":"road","class_code":"1040","class_label":"道路"}},{"type":"Feature","id":"tran_a155006e-5c49-4ee4-9253-e82e092c3aa0","geometry":{"type":"Polygon","coordinates":[[[139.1163419,36.0021192],[139.1164063,36.0021054],[139.1164137,36.0021283],[139.116424,36.0021633],[139.1163758,36.0021727],[139.1163523,36.0021798],[139.1163343,36.0021886],[139.1163273,36.0021935],[139.116294,36.0021618],[139.116283,36.0021321],[139.1163419,36.0021192]]]},"properties":{"layer":"road","class_code":"1040","class_label":"道路"}},{"type":"Feature","id":"tran_78be247f-7dc8-419c-b849-48f26bbb9338","geometry":{"type":"Polygon","coordinates":[[[139.1166323,36.0018389],[139.116722,36.0018109],[139.1167479,36.0018655],[139.1166237,36.0019043],[139.1165522,36.0019266],[139.116493,36.0019451],[139.1163979,36.0019747],[139.1163776,36.0020168],[139.1164063,36.0021054],[139.1163419,36.0021192],[139.116286,36.0019469],[139.1166323,36.0018389]]]},"properties":{"layer":"road","class_code":"1040","class_label":"道路"}},{"type":"Feature","id":"tran_2687cfd8-6897-4bfa-8108-0494a18d668d","geometry":{"type":"Polygon","coordinates":[[[139.1165143,36.0021087],[139.1166166,36.0020888],[139.1166341,36.0020819],[139.116674,36.0020662],[139.1166964,36.0020539],[139.1167505,36.0020243],[139.1167699,36.002013],[139.1167899,36.0020012],[139.1168159,36.0020304],[139.116776,36.0020539],[139.1166961,36.0020976],[139.1166316,36.002123],[139.116424,36.0021633],[139.1164137,36.0021283],[139.1165143,36.0021087]]]},"properties":{"layer":"road","class_code":"1040","class_label":"道路"}},{"type":"Feature","id":"tran_f021c5d4-f02a-4834-b040-1fa86638b8a5","geometry":{"type":"Polygon","coordinates":[[[139.116722,36.0018109],[139.116725,36.00181],[139.1167828,36.0017919],[139.1168087,36.0018466],[139.1168135,36.0018613],[139.1167707,36.0018705],[139.1167479,36.0018655],[139.116722,36.0018109]]]},"properties":{"layer":"road","class_code":"1040","class_label":"道路"}},{"type":"Feature","id":"tran_987e28a2-63de-4ffa-b217-082a384b120d","geometry":{"type":"Polygon","coordinates":[[[139.1167707,36.0018705],[139.1168135,36.0018613],[139.116847,36.0019648],[139.1168041,36.001974],[139.1167707,36.0018705]]]},"properties":{"layer":"road","class_code":"1040","class_label":"道路"}},{"type":"Feature","id":"tran_d8e69227-87a8-4e9d-8c6b-4a45ad8ffead","geometry":{"type":"Polygon","coordinates":[[[139.1167828,36.0017919],[139.1168756,36.0017629],[139.1169015,36.0018177],[139.1168087,36.0018466],[139.1167828,36.0017919]]]},"properties":{"layer":"road","class_code":"1040","class_label":"道路"}},{"type":"Feature","id":"tran_733fdad3-9a62-4702-8b26-0225b14cd818","geometry":{"type":"Polygon","coordinates":[[[139.1168041,36.001974],[139.116847,36.0019648],[139.1168559,36.0019921],[139.1168615,36.0020096],[139.1168408,36.0020158],[139.1168159,36.0020304],[139.1167899,36.0020012],[139.1168041,36.001974]]]},"properties":{"layer":"road","class_code":"1040","class_label":"道路"}},{"type":"Feature","id":"tran_5edd6389-c42a-43f9-b729-9188ea7189e0","geometry":{"type":"Polygon","coordinates":[[[139.1168559,36.0019921],[139.1170214,36.0019698],[139.117025,36.0019876],[139.1168615,36.0020096],[139.1168559,36.0019921]]]},"properties":{"layer":"road","class_code":"1040","class_label":"道路"}},{"type":"Feature","id":"tran_735e4dfc-2a17-496c-9c61-dda52f475de2","geometry":{"type":"Polygon","coordinates":[[[139.1134092,36.0040817],[139.1134367,36.0040847],[139.1134547,36.0040828],[139.1134604,36.0041181],[139.1134515,36.004167],[139.1134006,36.0041775],[139.113392,36.0041627],[139.1133839,36.0041542],[139.1133741,36.0041536],[139.1133562,36.004121],[139.1133689,36.0041165],[139.1133849,36.0041077],[139.1133952,36.0040991],[139.1134092,36.0040817]]]},"properties":{"layer":"road","class_code":"1040","class_label":"道路"}},{"type":"Feature","id":"tran_609e6b17-e6c5-4afc-b4fb-0e1be7b12832","geometry":{"type":"Polygon","coordinates":[[[139.1133733,36.0046073],[139.1134293,36.0046185],[139.1134187,36.0046535],[139.1133787,36.0046692],[139.1133626,36.0046423],[139.1133733,36.0046073]]]},"properties":{"layer":"road","class_code":"1040","class_label":"道路"}}]}