{"type":"FeatureCollection","properties":{"mesh_code":"54390004","source":"PLATEAU秩父市2025","layer":"road"},"features":[{"type":"Feature","id":"tran_fca6f219-3fd5-40aa-891c-901ff4b47668","geometry":{"type":"Polygon","coordinates":[[[139.0616549,36.0055227],[139.0617031,36.0054059],[139.0617401,36.0053182],[139.0617648,36.0052581],[139.0617823,36.0052172],[139.0617962,36.0051889],[139.0618085,36.0051689],[139.0618208,36.0051534],[139.0618275,36.005147],[139.0618486,36.0051616],[139.0618431,36.0051669],[139.0618326,36.00518],[139.0618216,36.0051981],[139.0618083,36.0052251],[139.0617911,36.0052654],[139.0617664,36.0053254],[139.0617293,36.0054132],[139.0616761,36.0055282],[139.0616549,36.0055227]]]},"properties":{"layer":"road","class_code":"1040","class_label":"道路"}},{"type":"Feature","id":"tran_9b909a0c-2346-4238-8e2f-e954bbb79c6c","geometry":{"type":"Polygon","coordinates":[[[139.0617151,36.0050918],[139.061719,36.0050846],[139.0618428,36.0051135],[139.0618097,36.0051418],[139.0617829,36.0052057],[139.061675,36.0051685],[139.0616506,36.0051578],[139.0616787,36.005094],[139.0617151,36.0050918]]]},"properties":{"layer":"road","class_code":"1040","class_label":"道路"}},{"type":"Feature","id":"tran_46af5908-1844-409b-a23b-f02298ca73f4","geometry":{"type":"Polygon","coordinates":[[[139.0517318,36.0072814],[139.0517569,36.0072719],[139.051773,36.0073051],[139.051787,36.007338],[139.0517967,36.0073819],[139.0517995,36.0074261],[139.0517948,36.007462],[139.0517801,36.0075172],[139.0517457,36.0076099],[139.051745,36.0076192],[139.0517428,36.0076455],[139.0517445,36.007672],[139.0517492,36.0076894],[139.0517628,36.0077151],[139.0517839,36.0077483],[139.0517923,36.0077585],[139.0517693,36.0077711],[139.0517599,36.0077597],[139.0517378,36.0077247],[139.0517226,36.0076963],[139.051717,36.007675],[139.051715,36.0076453],[139.0517174,36.0076179],[139.0517182,36.0076059],[139.0517532,36.0075115],[139.0517673,36.0074584],[139.0517717,36.0074254],[139.0517692,36.0073844],[139.0517601,36.0073438],[139.0517469,36.0073129],[139.0517318,36.0072814]]]},"properties":{"layer":"road","class_code":"1040","class_label":"道路"}},{"type":"Feature","id":"tran_8820d4e7-efd7-4529-9d89-240f6eca1d20","geometry":{"type":"Polygon","coordinates":[[[139.0536473,36.0000476],[139.0537131,36.0000355],[139.0537351,36.0000844],[139.0536702,36.0000984],[139.0536473,36.0000476]]]},"properties":{"layer":"road","class_code":"1040","class_label":"道路"}},{"type":"Feature","id":"tran_7372388e-3fb5-4d01-9ab7-8fb657645466","geometry":{"type":"Polygon","coordinates":[[[139.051716,36.0072526],[139.0517427,36.007246],[139.0517569,36.0072719],[139.0517318,36.0072814],[139.051716,36.0072526]]]},"properties":{"layer":"road","class_code":"1040","class_label":"道路"}},{"type":"Feature","id":"tran_2586f605-e7d4-40e3-89c2-56d4f93d1014","geometry":{"type":"Polygon","coordinates":[[[139.051686,36.0036419],[139.0516924,36.00362],[139.0521734,36.0037133],[139.0523625,36.0037551],[139.0523783,36.0037583],[139.0523702,36.0037843],[139.0523502,36.0037757],[139.0521665,36.0037351],[139.051686,36.0036419]]]},"properties":{"layer":"road","class_code":"1040","class_label":"道路"}},{"type":"Feature","id":"tran_ff1b25a3-9ad2-4b10-b661-4ef3a70e7584","geometry":{"type":"Polygon","coordinates":[[[139.051716,36.0072526],[139.0517318,36.0072814],[139.0516379,36.0073152],[139.0516183,36.0072878],[139.051716,36.0072526]]]},"properties":{"layer":"road","class_code":"1040","class_label":"道路"}},{"type":"Feature","id":"tran_5cac63e7-54ad-4879-ba37-fd9b4517b53b","geometry":{"type":"Polygon","coordinates":[[[139.0516063,36.0073243],[139.0516379,36.0073152],[139.0516511,36.0073374],[139.0516723,36.0073746],[139.0516775,36.0073977],[139.0516801,36.0074243],[139.0516789,36.0074494],[139.0516673,36.0074934],[139.0516301,36.0075934],[139.0516288,36.0076135],[139.0516262,36.0076448],[139.0516287,36.0076846],[139.0516378,36.0077185],[139.0516576,36.0077557],[139.0516834,36.0077964],[139.0517062,36.007824],[139.0517552,36.0078712],[139.0519118,36.0079966],[139.0519544,36.008027],[139.0519968,36.0080526],[139.0520313,36.0080703],[139.0520741,36.0080845],[139.0520976,36.0080928],[139.0521447,36.008105],[139.0521742,36.0081089],[139.052198,36.0081094],[139.0522242,36.0081092],[139.0522542,36.0081097],[139.0523109,36.0081011],[139.0524189,36.0080612],[139.0524607,36.0080482],[139.0524887,36.0080414],[139.0525303,36.0080378],[139.052565,36.0080384],[139.0525927,36.0080397],[139.0526215,36.0080453],[139.0526561,36.0080535],[139.0526895,36.0080678],[139.0527364,36.0080967],[139.0528842,36.0082433],[139.0530182,36.0083869],[139.053109,36.0084833],[139.0531457,36.0085319],[139.053167,36.0085773],[139.0531781,36.0086179],[139.0531901,36.008676],[139.053191,36.0087317],[139.0531882,36.0087899],[139.0531851,36.0088479],[139.0531848,36.0088818],[139.0531934,36.0089177],[139.053206,36.0089565],[139.0532429,36.0090252],[139.0532889,36.0090824],[139.0533463,36.0091318],[139.053426,36.0091894],[139.0535256,36.0092632],[139.0536123,36.0093334],[139.0536679,36.0093821],[139.0537094,36.0094284],[139.0537538,36.0094806],[139.0538079,36.0095568],[139.0538191,36.009577],[139.0537937,36.0095862],[139.0537832,36.0095671],[139.0537304,36.0094927],[139.0536867,36.0094415],[139.0536465,36.0093964],[139.0535922,36.009349],[139.0535065,36.0092796],[139.0534074,36.0092062],[139.053327,36.009148],[139.0532672,36.0090964],[139.0532184,36.0090359],[139.0531797,36.0089639],[139.0531663,36.0089227],[139.0531571,36.0088838],[139.0531573,36.0088473],[139.0531605,36.008789],[139.0531633,36.0087315],[139.0531623,36.008678],[139.0531509,36.0086222],[139.0531404,36.0085838],[139.0531208,36.0085419],[139.0530861,36.0084961],[139.0529962,36.0084006],[139.0528624,36.0082572],[139.0527171,36.0081131],[139.0526745,36.0080869],[139.0526456,36.0080745],[139.0526143,36.0080671],[139.0525886,36.008062],[139.0525639,36.0080609],[139.0525315,36.0080604],[139.0524943,36.0080636],[139.0524697,36.0080696],[139.0524293,36.0080821],[139.0523122,36.0081283],[139.0522493,36.008135],[139.0522253,36.0081363],[139.0521977,36.0081365],[139.0521712,36.0081358],[139.0521369,36.0081314],[139.0520859,36.0081182],[139.0520612,36.0081094],[139.052016,36.0080944],[139.0519779,36.0080749],[139.0519324,36.0080473],[139.0518891,36.0080163],[139.0517318,36.0078904],[139.0516795,36.0078403],[139.0516547,36.0078102],[139.0516274,36.0077672],[139.051606,36.0077268],[139.0515956,36.0076882],[139.0515928,36.0076446],[139.0515956,36.0076119],[139.0515971,36.0075887],[139.051635,36.0074866],[139.0516458,36.0074461],[139.0516467,36.0074249],[139.0516445,36.0074012],[139.0516403,36.0073829],[139.051621,36.007349],[139.0516063,36.0073243]]]},"properties":{"layer":"road","class_code":"1040","class_label":"道路"}},{"type":"Feature","id":"tran_7fb9b7dc-0f34-41f5-aedd-af7850583133","geometry":{"type":"Polygon","coordinates":[[[139.0580039,36.0068033],[139.0580306,36.0067971],[139.058034,36.0068209],[139.0580331,36.0068534],[139.0580218,36.0068895],[139.0580131,36.0069288],[139.0580117,36.0069609],[139.0580142,36.0070005],[139.0580278,36.0070495],[139.0580513,36.0071142],[139.0580693,36.0071638],[139.0580731,36.0072023],[139.0580767,36.0072668],[139.0580823,36.0073384],[139.0580861,36.0074031],[139.0580793,36.0074548],[139.0580637,36.0074872],[139.0580402,36.0075255],[139.0580122,36.0075548],[139.0579833,36.0075763],[139.0579608,36.0075921],[139.0579476,36.0075716],[139.0579649,36.0075596],[139.0579917,36.0075394],[139.0580166,36.0075135],[139.0580382,36.007478],[139.0580522,36.0074493],[139.0580583,36.0074024],[139.0580547,36.0073397],[139.0580489,36.0072681],[139.0580454,36.0072038],[139.0580419,36.007168],[139.0580248,36.0071206],[139.0580009,36.0070551],[139.0579866,36.0070036],[139.057984,36.0069611],[139.0579854,36.0069263],[139.0579947,36.0068848],[139.0580054,36.0068503],[139.0580062,36.006822],[139.0580039,36.0068033]]]},"properties":{"layer":"road","class_code":"1040","class_label":"道路"}},{"type":"Feature","id":"tran_548ed78b-9484-49ec-8251-194008eea00a","geometry":{"type":"Polygon","coordinates":[[[139.0568825,36.0034386],[139.0568959,36.0034363],[139.0569151,36.0034238],[139.0569329,36.0034071],[139.0569467,36.0033881],[139.0569552,36.0033659],[139.0569947,36.0033683],[139.0569841,36.0033944],[139.0569683,36.0034189],[139.0569302,36.0034549],[139.0569054,36.0034686],[139.0569026,36.0034697],[139.0568825,36.0034386]]]},"properties":{"layer":"road","class_code":"1040","class_label":"道路"}},{"type":"Feature","id":"tran_7ce42de4-f76d-4a69-ae17-197d7d5360bc","geometry":{"type":"Polygon","coordinates":[[[139.0563448,36.0027118],[139.056379,36.0027121],[139.0563687,36.0027394],[139.0563671,36.0027618],[139.056373,36.0027813],[139.0564246,36.0028798],[139.0563992,36.0028886],[139.0563467,36.0027884],[139.0563392,36.002764],[139.0563411,36.0027354],[139.0563448,36.0027118]]]},"properties":{"layer":"road","class_code":"1040","class_label":"道路"}},{"type":"Feature","id":"tran_94dcec78-5f46-456b-bc48-a7b4c156a1ae","geometry":{"type":"Polygon","coordinates":[[[139.0582972,36.008342],[139.0583405,36.0083077],[139.058381,36.0082744],[139.0584076,36.0082466],[139.0584284,36.0082221],[139.0584563,36.0081982],[139.058493,36.008171],[139.0585135,36.0081535],[139.0585275,36.0081355],[139.0585382,36.0081184],[139.0585478,36.0081029],[139.0585524,36.0080869],[139.0585528,36.0080697],[139.0585472,36.0080339],[139.058504,36.0078476],[139.0585313,36.0078434],[139.0585746,36.0080304],[139.0585806,36.0080684],[139.0585801,36.0080897],[139.058574,36.0081107],[139.058566,36.0081238],[139.0585516,36.0081467],[139.0585354,36.0081676],[139.0585124,36.0081871],[139.0584757,36.0082142],[139.05845,36.0082363],[139.05843,36.0082599],[139.0584018,36.0082893],[139.05836,36.0083236],[139.0583166,36.0083581],[139.0583063,36.0083692],[139.0582836,36.0083477],[139.0582972,36.008342]]]},"properties":{"layer":"road","class_code":"1040","class_label":"道路"}},{"type":"Feature","id":"tran_a5d25601-9438-41f6-8fc2-171fc8374cb1","geometry":{"type":"Polygon","coordinates":[[[139.0509052,36.0075586],[139.0509555,36.0075264],[139.0510069,36.0074954],[139.0510538,36.0074713],[139.0510966,36.0074513],[139.0511741,36.007428],[139.0512565,36.007413],[139.0513333,36.0074023],[139.0513929,36.0073893],[139.051486,36.0073375],[139.0515891,36.0073009],[139.0516063,36.0073243],[139.0515022,36.0073613],[139.0514069,36.0074142],[139.0513405,36.0074287],[139.051263,36.0074395],[139.0511835,36.0074541],[139.0511108,36.0074758],[139.051071,36.0074945],[139.0510257,36.0075176],[139.0509758,36.0075479],[139.0509176,36.0075852],[139.0509052,36.0075586]]]},"properties":{"layer":"road","class_code":"1040","class_label":"道路"}},{"type":"Feature","id":"tran_873f3b4e-37ab-43ba-be95-a16a67016e21","geometry":{"type":"Polygon","coordinates":[[[139.055295,36.0013627],[139.0553332,36.0013709],[139.0553148,36.001427],[139.0552913,36.0014389],[139.0552764,36.0014194],[139.055295,36.0013627]]]},"properties":{"layer":"road","class_code":"1040","class_label":"道路"}},{"type":"Feature","id":"tran_18e771a3-2368-4731-a757-6f97bf864148","geometry":{"type":"Polygon","coordinates":[[[139.0566424,36.0037338],[139.0566426,36.0037254],[139.0566538,36.0036923],[139.0566779,36.003657],[139.0567055,36.0036328],[139.0567109,36.0036276],[139.0567623,36.003662],[139.0567554,36.0036687],[139.0567322,36.003689],[139.0567159,36.0037128],[139.056709,36.0037331],[139.0567088,36.0037537],[139.0567139,36.0037813],[139.0567266,36.0038181],[139.0567481,36.0038622],[139.0568531,36.0040755],[139.0568849,36.0041802],[139.0568894,36.0042165],[139.0568918,36.0042443],[139.0568911,36.0042719],[139.0568803,36.0043252],[139.056811,36.0044688],[139.0567865,36.004521],[139.0567709,36.004574],[139.0567599,36.0046136],[139.056756,36.0046488],[139.0567557,36.0046741],[139.0567603,36.0047116],[139.0567825,36.0048396],[139.0568105,36.0049987],[139.0568349,36.0051375],[139.0568601,36.0052929],[139.0568805,36.0053925],[139.0568956,36.005446],[139.0569126,36.0054943],[139.0569291,36.0055339],[139.0569652,36.0055993],[139.0570031,36.0056622],[139.057039,36.005729],[139.0570633,36.0057768],[139.0570752,36.005822],[139.0570845,36.00588],[139.0570901,36.0059293],[139.0570896,36.0059811],[139.0570801,36.0060287],[139.0570164,36.0062663],[139.0569127,36.0066213],[139.0569086,36.0066557],[139.0569071,36.0066888],[139.0569118,36.0067157],[139.0569403,36.0067877],[139.0569696,36.0068638],[139.056972,36.0068695],[139.0570318,36.0069481],[139.0570632,36.0070248],[139.0570646,36.0070986],[139.0570707,36.0071139],[139.0570966,36.0071763],[139.0571089,36.0072186],[139.0571192,36.0072635],[139.057124,36.007315],[139.0571254,36.0073648],[139.0571254,36.0073817],[139.0571253,36.0074569],[139.0571032,36.0076682],[139.0570931,36.0077251],[139.0570758,36.0077794],[139.057039,36.007842],[139.0570041,36.0078941],[139.0569655,36.0079533],[139.0569467,36.0079796],[139.0569241,36.0080113],[139.056904,36.0080474],[139.0568408,36.0080296],[139.0568648,36.0079866],[139.0569073,36.007927],[139.0569454,36.0078685],[139.0569797,36.0078173],[139.0570129,36.0077608],[139.0570278,36.0077144],[139.0570371,36.0076621],[139.0570586,36.0074545],[139.0570588,36.0073653],[139.0570575,36.0073176],[139.0570531,36.0072706],[139.0570438,36.0072298],[139.0570326,36.0071912],[139.0570077,36.007131],[139.0569063,36.0068803],[139.0568768,36.0068041],[139.0568468,36.0067279],[139.0568404,36.0066917],[139.0568421,36.006652],[139.056847,36.0066124],[139.0569515,36.0062543],[139.0570147,36.0060186],[139.0570231,36.0059765],[139.0570235,36.0059315],[139.0570184,36.0058859],[139.0570096,36.0058312],[139.0569995,36.0057929],[139.0569776,36.0057501],[139.0569427,36.0056849],[139.056905,36.0056222],[139.0568671,36.0055536],[139.0568491,36.0055104],[139.0568312,36.0054596],[139.0568152,36.005403],[139.0567942,36.005301],[139.0567689,36.0051449],[139.0567166,36.0048472],[139.0566941,36.004718],[139.0566891,36.0046764],[139.0566895,36.0046461],[139.0566941,36.0046052],[139.0567061,36.0045618],[139.0567227,36.004505],[139.056749,36.0044492],[139.0568158,36.0043107],[139.0568247,36.0042669],[139.0568252,36.0042456],[139.0568231,36.0042212],[139.0568192,36.0041895],[139.0568093,36.0041572],[139.0567896,36.004092],[139.0566864,36.0038823],[139.0566634,36.0038354],[139.0566486,36.0037927],[139.0566421,36.0037574],[139.0566424,36.0037338]]]},"properties":{"layer":"road","class_code":"1040","class_label":"道路"}},{"type":"Feature","id":"tran_6c071be2-2366-4702-8cbb-ba200ec23bf3","geometry":{"type":"Polygon","coordinates":[[[139.0516183,36.0072878],[139.0516379,36.0073152],[139.0516063,36.0073243],[139.0515891,36.0073009],[139.0516183,36.0072878]]]},"properties":{"layer":"road","class_code":"1040","class_label":"道路"}},{"type":"Feature","id":"tran_4c3b38a5-62a2-4832-9b7a-e8e26bc8447c","geometry":{"type":"Polygon","coordinates":[[[139.0562931,36.002674],[139.0563456,36.0026483],[139.0563624,36.0026401],[139.0563967,36.0026864],[139.056379,36.0027121],[139.0563448,36.0027118],[139.0562931,36.002674]]]},"properties":{"layer":"road","class_code":"1040","class_label":"道路"}},{"type":"Feature","id":"tran_ae33d74f-999a-42a4-9b89-564bc3d04b1f","geometry":{"type":"Polygon","coordinates":[[[139.0567475,36.0035898],[139.0568161,36.003605],[139.0567846,36.0036404],[139.0567623,36.003662],[139.0567109,36.0036276],[139.0566924,36.0036138],[139.0566926,36.0035913],[139.0567231,36.0035915],[139.0567442,36.0035899],[139.0567475,36.0035898]]]},"properties":{"layer":"road","class_code":"1040","class_label":"道路"}},{"type":"Feature","id":"tran_994238b3-9a3f-4efc-ba24-738204e5036d","geometry":{"type":"Polygon","coordinates":[[[139.0569026,36.0034697],[139.0568687,36.0034842],[139.0568039,36.0034719],[139.0568068,36.0034618],[139.0568074,36.0034442],[139.0568732,36.0034357],[139.0568825,36.0034386],[139.0569026,36.0034697]]]},"properties":{"layer":"road","class_code":"1040","class_label":"道路"}},{"type":"Feature","id":"tran_40dd4d54-ab48-46bb-bb21-92f29cd37fc7","geometry":{"type":"Polygon","coordinates":[[[139.05397,36.0004539],[139.054032,36.0004753],[139.0540367,36.000477],[139.0540882,36.0004914],[139.0540948,36.0004919],[139.0541046,36.0004925],[139.0541145,36.0004927],[139.0541244,36.0004927],[139.0541343,36.0004924],[139.0541442,36.0004917],[139.054154,36.0004908],[139.0541638,36.0004897],[139.0541735,36.0004882],[139.0541786,36.0004873],[139.0542181,36.0004684],[139.054235,36.0004916],[139.0541909,36.0005128],[139.0541801,36.0005147],[139.0541692,36.0005164],[139.0541583,36.0005177],[139.0541473,36.0005187],[139.0541362,36.0005193],[139.0541252,36.0005197],[139.0541141,36.0005197],[139.054103,36.0005195],[139.054092,36.0005189],[139.054081,36.000518],[139.0540245,36.0005022],[139.0539576,36.0004778],[139.05397,36.0004539]]]},"properties":{"layer":"road","class_code":"1040","class_label":"道路"}},{"type":"Feature","id":"tran_f7e12425-66a5-4462-9702-0ccb1afae24b","geometry":{"type":"Polygon","coordinates":[[[139.0622071,36.0042867],[139.0622893,36.0043429],[139.0623484,36.0043841],[139.0623939,36.0044152],[139.0624298,36.0044534],[139.0624576,36.0044958],[139.0624724,36.004537],[139.0624758,36.004574],[139.0624637,36.0046232],[139.0623215,36.0047197],[139.0623446,36.0046674],[139.0623621,36.0046183],[139.0623707,36.0045802],[139.0623682,36.0045523],[139.0623595,36.0045282],[139.0623408,36.0044998],[139.0623172,36.0044747],[139.0622801,36.0044493],[139.0622212,36.0044082],[139.062138,36.0043513],[139.0622071,36.0042867]]]},"properties":{"layer":"road","class_code":"1040","class_label":"道路"}},{"type":"Feature","id":"tran_6fc4b9fc-7256-4da4-92a5-9fe2655ab300","geometry":{"type":"Polygon","coordinates":[[[139.058003,36.0067133],[139.0580278,36.0067887],[139.0580306,36.0067971],[139.0580039,36.0068033],[139.0580038,36.006803],[139.0579762,36.0067192],[139.058003,36.0067133]]]},"properties":{"layer":"road","class_code":"1040","class_label":"道路"}},{"type":"Feature","id":"tran_599d4c06-ab35-42df-8dc9-72a0852d0bd4","geometry":{"type":"Polygon","coordinates":[[[139.062076,36.0067112],[139.0621016,36.006693],[139.0621027,36.0066936],[139.0621151,36.0066987],[139.0621284,36.0067024],[139.0621439,36.0067058],[139.0621702,36.0067103],[139.0621883,36.0067131],[139.0621833,36.0067352],[139.0621609,36.0067552],[139.0621398,36.0067664],[139.0620839,36.0067185],[139.062076,36.0067112]]]},"properties":{"layer":"road","class_code":"1040","class_label":"道路"}},{"type":"Feature","id":"tran_108ed3fc-0256-4033-adb2-648474c2ce73","geometry":{"type":"Polygon","coordinates":[[[139.0620223,36.0020483],[139.0620419,36.0020159],[139.0620705,36.0020265],[139.0620881,36.002033],[139.0621632,36.0020559],[139.0621476,36.0020897],[139.062071,36.0020663],[139.0620223,36.0020483]]]},"properties":{"layer":"road","class_code":"1040","class_label":"道路"}},{"type":"Feature","id":"tran_f6dcd587-c613-4fac-b78e-16bf9a93c4fa","geometry":{"type":"Polygon","coordinates":[[[139.0539078,36.0005147],[139.0539576,36.0004778],[139.0539705,36.0004863],[139.0539984,36.0005029],[139.0540558,36.0005269],[139.0540802,36.0005379],[139.054126,36.0005586],[139.0541684,36.0005799],[139.0541969,36.0006012],[139.0542303,36.0006302],[139.0542764,36.0006756],[139.0543195,36.000726],[139.0543555,36.0007712],[139.0543931,36.0008196],[139.0544148,36.0008578],[139.0544313,36.0008928],[139.0544528,36.0009389],[139.0544774,36.0009973],[139.0545045,36.0010507],[139.0545298,36.0010909],[139.0545581,36.0011236],[139.0545885,36.0011575],[139.0546218,36.0011856],[139.0546559,36.0012087],[139.0546932,36.0012316],[139.0547464,36.0012598],[139.0548531,36.001315],[139.0549683,36.0013755],[139.0549908,36.0013855],[139.055011,36.0013928],[139.0550288,36.0013959],[139.0550473,36.0013977],[139.0550757,36.0013951],[139.0551097,36.0013897],[139.0551618,36.001377],[139.0552479,36.0013583],[139.0552945,36.0013626],[139.055295,36.0013627],[139.0552764,36.0014194],[139.0552685,36.001418],[139.0552415,36.0014173],[139.0552035,36.0014233],[139.0551256,36.0014423],[139.0550858,36.0014486],[139.0550469,36.0014521],[139.0550177,36.0014492],[139.0549905,36.0014445],[139.0549613,36.0014341],[139.0549341,36.0014218],[139.0548172,36.0013606],[139.0547103,36.0013053],[139.0546548,36.0012759],[139.0546146,36.001251],[139.0545763,36.0012253],[139.0545374,36.0011923],[139.054504,36.001155],[139.0544728,36.001119],[139.0544439,36.0010734],[139.0544151,36.0010164],[139.0543902,36.0009573],[139.0543692,36.0009122],[139.0543535,36.0008789],[139.0543344,36.0008454],[139.0542994,36.0008003],[139.0542643,36.0007562],[139.0542233,36.0007082],[139.0541817,36.0006672],[139.05415,36.0006395],[139.054128,36.0006232],[139.0540923,36.0006053],[139.0540244,36.0005746],[139.0539634,36.000549],[139.05393,36.0005292],[139.0539078,36.0005147]]]},"properties":{"layer":"road","class_code":"1040","class_label":"道路"}},{"type":"Feature","id":"tran_ff0a1a31-ede3-47dc-9c76-492873ce242f","geometry":{"type":"Polygon","coordinates":[[[139.0578873,36.0075948],[139.0579146,36.0075843],[139.0579476,36.0075716],[139.0579608,36.0075921],[139.057943,36.0076105],[139.057937,36.0076261],[139.0579374,36.0076444],[139.0578881,36.0076549],[139.0578719,36.0076489],[139.0578602,36.0076483],[139.0578454,36.0076169],[139.0578705,36.0076014],[139.0578873,36.0075948]]]},"properties":{"layer":"road","class_code":"1040","class_label":"道路"}},{"type":"Feature","id":"tran_f2d8b1f5-519d-415f-a1fe-dfaacfc6af1b","geometry":{"type":"Polygon","coordinates":[[[139.0579374,36.0076444],[139.0579408,36.0076632],[139.0579731,36.0077249],[139.0580128,36.0078107],[139.0580494,36.0079368],[139.0580798,36.0080374],[139.05816,36.0082413],[139.0581722,36.00827],[139.0581885,36.0082984],[139.0582063,36.0083178],[139.0582345,36.0083396],[139.0582562,36.0083528],[139.0582355,36.0083683],[139.0582165,36.0083568],[139.0581854,36.0083328],[139.0581645,36.00831],[139.0581531,36.0082898],[139.0581412,36.008266],[139.0581336,36.0082484],[139.0580531,36.0080434],[139.0580224,36.007942],[139.0579862,36.0078173],[139.0579473,36.0077332],[139.0579197,36.0076805],[139.0578881,36.0076549],[139.0579374,36.0076444]]]},"properties":{"layer":"road","class_code":"1040","class_label":"道路"}},{"type":"Feature","id":"tran_cb923095-fb99-4fee-ae69-4d16483c8f45","geometry":{"type":"Polygon","coordinates":[[[139.061969,36.0043068],[139.0619699,36.0043035],[139.0619925,36.0041513],[139.0620971,36.0041615],[139.0621105,36.0041908],[139.0621233,36.004213],[139.0621384,36.0042311],[139.0621568,36.0042512],[139.0622057,36.0042858],[139.0622071,36.0042867],[139.062138,36.0043513],[139.0621229,36.0043522],[139.0621057,36.0043601],[139.0620893,36.0043783],[139.061969,36.0043068]]]},"properties":{"layer":"road","class_code":"1040","class_label":"道路"}},{"type":"Feature","id":"tran_a982651c-cc3a-4275-b4d7-aca1bf5a82b0","geometry":{"type":"Polygon","coordinates":[[[139.0523702,36.0037843],[139.0523783,36.0037583],[139.052384,36.0037511],[139.0524099,36.0037417],[139.0524246,36.0037676],[139.0524137,36.003803],[139.0523702,36.0037843]]]},"properties":{"layer":"road","class_code":"1040","class_label":"道路"}},{"type":"Feature","id":"tran_a708b686-3c69-4572-b2f4-03fe0c64fd6b","geometry":{"type":"Polygon","coordinates":[[[139.0619757,36.0019661],[139.0619936,36.0019637],[139.062009,36.0019563],[139.0620275,36.001967],[139.0620259,36.0019832],[139.0620315,36.0019996],[139.0619757,36.0019661]]]},"properties":{"layer":"road","class_code":"1040","class_label":"道路"}},{"type":"Feature","id":"tran_8cee2114-4148-43fe-86d8-19c28beb6c9f","geometry":{"type":"Polygon","coordinates":[[[139.0619438,36.0019652],[139.0619757,36.0019661],[139.0620315,36.0019996],[139.0620419,36.0020159],[139.0620223,36.0020483],[139.062017,36.0020464],[139.0619764,36.0020302],[139.0619689,36.0020259],[139.0619458,36.0020127],[139.061916,36.0019933],[139.0619438,36.0019652]]]},"properties":{"layer":"road","class_code":"1040","class_label":"道路"}},{"type":"Feature","id":"tran_e7d52ea0-bf83-4a5d-9b2b-9f8040444a39","geometry":{"type":"Polygon","coordinates":[[[139.0618713,36.0051195],[139.061882,36.0051155],[139.0619024,36.0051106],[139.0619236,36.0051074],[139.0619442,36.0051055],[139.0619633,36.0051047],[139.0619814,36.0051052],[139.0619988,36.005107],[139.0620162,36.0051103],[139.0620338,36.0051153],[139.0620523,36.0051221],[139.0620737,36.0051308],[139.0621002,36.005142],[139.0621311,36.005155],[139.0621621,36.0051677],[139.0621894,36.0051785],[139.0622131,36.0051873],[139.0622346,36.0051949],[139.0622547,36.0052017],[139.0622736,36.0052085],[139.0622912,36.0052158],[139.0623075,36.0052239],[139.0623235,36.0052327],[139.0623421,36.0052445],[139.0623703,36.0052646],[139.062415,36.0052983],[139.0624701,36.0053407],[139.0625205,36.0053799],[139.0625561,36.0054075],[139.0625811,36.0054275],[139.0626022,36.0054455],[139.0626079,36.005451],[139.0625868,36.0054656],[139.0625816,36.0054606],[139.0625613,36.0054433],[139.0625368,36.0054237],[139.0625014,36.0053961],[139.062451,36.0053571],[139.0623961,36.0053148],[139.0623517,36.0052813],[139.0623244,36.0052618],[139.0623071,36.0052509],[139.0622925,36.0052428],[139.0622776,36.0052355],[139.0622617,36.0052289],[139.0622437,36.0052224],[139.0622237,36.0052156],[139.0622018,36.0052079],[139.0621776,36.0051988],[139.0621498,36.0051879],[139.0621185,36.005175],[139.0620875,36.005162],[139.062061,36.0051509],[139.0620404,36.0051424],[139.0620235,36.0051363],[139.0620084,36.005132],[139.0619938,36.0051292],[139.0619791,36.0051276],[139.0619636,36.0051272],[139.0619465,36.0051279],[139.0619278,36.0051297],[139.0619089,36.0051325],[139.0618918,36.0051366],[139.0618829,36.00514],[139.0618713,36.0051195]]]},"properties":{"layer":"road","class_code":"1040","class_label":"道路"}},{"type":"Feature","id":"tran_454c7ac6-f1e3-4a7e-93c4-011acd7dead4","geometry":{"type":"Polygon","coordinates":[[[139.0618713,36.0051195],[139.0618829,36.00514],[139.0618775,36.005142],[139.0618649,36.0051487],[139.0618536,36.0051568],[139.0618486,36.0051616],[139.0618275,36.005147],[139.0618713,36.0051195]]]},"properties":{"layer":"road","class_code":"1040","class_label":"道路"}},{"type":"Feature","id":"tran_5469e3c8-6a9e-48d0-84f0-8b6afa344c7a","geometry":{"type":"Polygon","coordinates":[[[139.0618097,36.0051418],[139.0618428,36.0051135],[139.0618713,36.0051195],[139.0618275,36.005147],[139.0618097,36.0051418]]]},"properties":{"layer":"road","class_code":"1040","class_label":"道路"}},{"type":"Feature","id":"tran_3c4da1f5-3841-4858-8517-b5247a9ed0c0","geometry":{"type":"Polygon","coordinates":[[[139.0618577,36.0019017],[139.0619307,36.0019566],[139.0619438,36.0019652],[139.061916,36.0019933],[139.0619017,36.0019839],[139.06184,36.0019376],[139.0618577,36.0019017]]]},"properties":{"layer":"road","class_code":"1040","class_label":"道路"}},{"type":"Feature","id":"tran_c8b7b9b5-221a-4973-8563-ed8b36f581a3","geometry":{"type":"Polygon","coordinates":[[[139.06184,36.0019376],[139.0618724,36.0019858],[139.0618992,36.0020254],[139.0619705,36.0021306],[139.0620783,36.0022882],[139.0620442,36.0023125],[139.0619317,36.0021481],[139.0618484,36.0020251],[139.0618335,36.0020031],[139.0618011,36.0019548],[139.06184,36.0019376]]]},"properties":{"layer":"road","class_code":"1040","class_label":"道路"}},{"type":"Feature","id":"tran_5b825719-ed87-46f8-8739-bc74fdd4c6da","geometry":{"type":"Polygon","coordinates":[[[139.0523614,36.0036407],[139.0523885,36.0036463],[139.0523844,36.0036703],[139.0523855,36.0036905],[139.0523893,36.0037052],[139.0524099,36.0037417],[139.052384,36.0037511],[139.0523628,36.0037123],[139.0523579,36.0036934],[139.0523566,36.0036692],[139.0523614,36.0036407]]]},"properties":{"layer":"road","class_code":"1040","class_label":"道路"}},{"type":"Feature","id":"tran_8f12460d-3fca-4123-9d7b-feb53fdd6b6b","geometry":{"type":"Polygon","coordinates":[[[139.0566978,36.0083484],[139.0567071,36.0083267],[139.0567627,36.0081912],[139.0567838,36.0081395],[139.0567866,36.008134],[139.0568495,36.0081517],[139.0568463,36.0081582],[139.0568258,36.0082082],[139.056772,36.0083397],[139.0567702,36.0083441],[139.0567607,36.0083662],[139.0566978,36.0083484]]]},"properties":{"layer":"road","class_code":"1040","class_label":"道路"}},{"type":"Feature","id":"tran_4ec62b8e-45ea-4849-9680-79d174a6f9c4","geometry":{"type":"Polygon","coordinates":[[[139.061969,36.0043068],[139.0620893,36.0043783],[139.0620621,36.0044295],[139.0620265,36.004482],[139.062056,36.0044949],[139.0620481,36.0045241],[139.0620468,36.004548],[139.0620398,36.0046719],[139.0620025,36.0047952],[139.0619078,36.0049298],[139.0618827,36.0050006],[139.0618428,36.0051135],[139.061719,36.0050846],[139.0617231,36.0050766],[139.0618298,36.0047749],[139.061894,36.0045616],[139.0619343,36.0044282],[139.061969,36.0043068]]]},"properties":{"layer":"road","class_code":"1040","class_label":"道路"}},{"type":"Feature","id":"tran_5bd4a2aa-f82f-4b8b-aef3-036b47c19e69","geometry":{"type":"Polygon","coordinates":[[[139.0617439,36.0018799],[139.0617793,36.0018582],[139.061805,36.0018469],[139.0618577,36.0019017],[139.06184,36.0019376],[139.0618011,36.0019548],[139.0617773,36.0019195],[139.0617466,36.0018828],[139.0617439,36.0018799]]]},"properties":{"layer":"road","class_code":"1040","class_label":"道路"}},{"type":"Feature","id":"tran_ee7e7f02-50f3-4801-bbb0-bfec67cf66d4","geometry":{"type":"Polygon","coordinates":[[[139.0611668,36.0015862],[139.0611764,36.0015445],[139.0611971,36.001511],[139.0611997,36.0015068],[139.0612376,36.0014806],[139.0612796,36.001463],[139.0613275,36.0014577],[139.0613733,36.0014642],[139.0614166,36.0014828],[139.0614514,36.0015101],[139.0614968,36.0015565],[139.061549,36.0016177],[139.0616348,36.0017009],[139.0617089,36.001782],[139.0617793,36.0018582],[139.0617439,36.0018799],[139.0616733,36.0018036],[139.0615999,36.0017233],[139.0615137,36.0016396],[139.0614612,36.0015781],[139.0614186,36.0015344],[139.0613904,36.0015123],[139.0613588,36.0014987],[139.0613267,36.0014942],[139.0612931,36.0014979],[139.0612625,36.0015108],[139.0612353,36.0015295],[139.0612189,36.0015561],[139.0612141,36.0015769],[139.0612111,36.00159],[139.0612109,36.0015956],[139.0612076,36.0017284],[139.0612114,36.001865],[139.0612169,36.0018957],[139.0612402,36.0019386],[139.0612637,36.0019696],[139.0612839,36.0019872],[139.0613417,36.0020218],[139.0613532,36.0020287],[139.0614768,36.0021023],[139.0615097,36.0021271],[139.0615269,36.0021466],[139.061542,36.0021766],[139.0615526,36.0022102],[139.0615554,36.0022428],[139.0615492,36.0022704],[139.0615385,36.0022924],[139.0615194,36.002323],[139.0614194,36.002493],[139.0613426,36.0026246],[139.0612859,36.0027228],[139.0612463,36.0027928],[139.0612208,36.0028395],[139.0612064,36.0028678],[139.0612001,36.0028824],[139.0611985,36.0028882],[139.0611983,36.0028918],[139.0611983,36.002896],[139.0611984,36.0028999],[139.0611988,36.0029036],[139.0611993,36.0029071],[139.0612001,36.0029104],[139.0612011,36.0029137],[139.0612023,36.0029169],[139.0612038,36.0029202],[139.0612056,36.0029235],[139.0612078,36.002927],[139.0612102,36.0029304],[139.0612131,36.0029339],[139.0612164,36.0029375],[139.06122,36.0029411],[139.0612241,36.0029447],[139.0612287,36.0029484],[139.0612339,36.0029521],[139.0612395,36.0029558],[139.0612456,36.0029596],[139.0612521,36.0029632],[139.0612588,36.0029668],[139.0612657,36.0029702],[139.0612727,36.0029734],[139.0612796,36.0029765],[139.0612865,36.0029793],[139.0612932,36.0029818],[139.0612998,36.002984],[139.0613062,36.002986],[139.0613126,36.0029878],[139.0613189,36.0029894],[139.0613253,36.0029908],[139.0613316,36.002992],[139.061338,36.0029932],[139.0613445,36.0029942],[139.061351,36.002995],[139.0613576,36.0029958],[139.061364,36.0029965],[139.0613704,36.002997],[139.0613766,36.0029975],[139.0613825,36.0029978],[139.0613881,36.002998],[139.0613934,36.0029981],[139.0613981,36.0029981],[139.0614025,36.0029981],[139.0614068,36.0029978],[139.0614114,36.0029973],[139.0614166,36.0029966],[139.0614227,36.0029956],[139.0614299,36.0029942],[139.0614385,36.0029923],[139.0614487,36.00299],[139.0614603,36.0029872],[139.0614732,36.002984],[139.061487,36.0029806],[139.0615014,36.0029768],[139.0615163,36.0029729],[139.0615314,36.0029689],[139.0615463,36.0029649],[139.0615609,36.0029608],[139.061575,36.0029569],[139.0615885,36.002953],[139.0616016,36.0029493],[139.0616142,36.0029457],[139.0616265,36.0029422],[139.0616385,36.0029389],[139.0616503,36.0029359],[139.0616618,36.002933],[139.0616732,36.0029304],[139.0616843,36.002928],[139.0616952,36.0029259],[139.0617057,36.0029241],[139.061716,36.0029224],[139.0617259,36.0029209],[139.0617355,36.0029196],[139.0617447,36.0029184],[139.0617534,36.0029174],[139.0617618,36.0029164],[139.0617699,36.0029155],[139.0617777,36.0029148],[139.0617854,36.0029142],[139.061793,36.0029137],[139.0618005,36.0029133],[139.061808,36.0029131],[139.0618156,36.002913],[139.0618232,36.0029132],[139.0618308,36.0029134],[139.0618385,36.0029139],[139.0618461,36.0029145],[139.0618538,36.0029153],[139.0618614,36.0029162],[139.0618689,36.0029173],[139.0618764,36.0029185],[139.0618837,36.0029199],[139.0618909,36.0029215],[139.0618979,36.0029232],[139.061905,36.0029251],[139.0619119,36.0029271],[139.0619187,36.0029294],[139.0619256,36.0029319],[139.0619323,36.0029346],[139.0619391,36.0029376],[139.061946,36.0029408],[139.0619531,36.0029445],[139.0619602,36.0029486],[139.0619674,36.0029534],[139.0619745,36.002959],[139.0619812,36.0029653],[139.0619874,36.0029725],[139.061993,36.0029806],[139.0619975,36.002989],[139.0619619,36.0030016],[139.0619582,36.0029947],[139.0619545,36.0029893],[139.0619505,36.0029847],[139.0619461,36.0029806],[139.0619415,36.0029769],[139.0619366,36.0029737],[139.0619314,36.0029706],[139.0619259,36.0029678],[139.0619203,36.0029651],[139.0619146,36.0029627],[139.061909,36.0029605],[139.0619034,36.0029584],[139.0618978,36.0029565],[139.0618921,36.0029548],[139.0618863,36.0029533],[139.0618804,36.0029519],[139.0618743,36.0029506],[139.0618681,36.0029494],[139.0618617,36.0029483],[139.0618551,36.0029474],[139.0618485,36.0029465],[139.0618418,36.0029459],[139.0618352,36.0029453],[139.0618285,36.0029449],[139.0618219,36.0029447],[139.0618154,36.0029446],[139.0618089,36.0029446],[139.0618024,36.0029448],[139.0617958,36.0029451],[139.061789,36.0029456],[139.0617819,36.0029462],[139.0617746,36.0029469],[139.061767,36.0029477],[139.061759,36.0029486],[139.0617505,36.0029496],[139.0617418,36.0029507],[139.0617327,36.002952],[139.0617233,36.0029534],[139.0617137,36.0029549],[139.0617038,36.0029567],[139.0616937,36.0029587],[139.0616833,36.0029608],[139.0616728,36.0029633],[139.0616619,36.002966],[139.0616507,36.0029689],[139.0616391,36.0029721],[139.061627,36.0029755],[139.0616145,36.002979],[139.0616014,36.0029828],[139.0615878,36.0029867],[139.0615735,36.0029907],[139.0615587,36.0029948],[139.0615436,36.0029989],[139.0615283,36.0030029],[139.0615133,36.0030069],[139.0614986,36.0030107],[139.0614845,36.0030142],[139.0614714,36.0030174],[139.0614594,36.0030203],[139.0614488,36.0030227],[139.0614394,36.0030247],[139.0614312,36.0030264],[139.0614238,36.0030276],[139.061417,36.0030285],[139.0614106,36.0030292],[139.0614045,36.0030296],[139.0613986,36.0030297],[139.0613927,36.0030297],[139.0613866,36.0030295],[139.0613802,36.0030293],[139.0613736,36.0030289],[139.0613667,36.0030284],[139.0613596,36.0030278],[139.0613524,36.0030271],[139.0613451,36.0030262],[139.0613377,36.0030252],[139.0613303,36.0030241],[139.0613229,36.0030228],[139.0613155,36.0030213],[139.061308,36.0030196],[139.0613006,36.0030178],[139.061293,36.0030156],[139.0612854,36.0030133],[139.0612776,36.0030106],[139.0612698,36.0030077],[139.0612619,36.0030045],[139.0612539,36.0030011],[139.0612459,36.0029974],[139.061238,36.0029935],[139.0612303,36.0029894],[139.0612228,36.0029851],[139.0612156,36.0029807],[139.0612087,36.0029761],[139.0612022,36.0029714],[139.0611963,36.0029667],[139.0611908,36.0029618],[139.0611858,36.002957],[139.0611813,36.002952],[139.0611773,36.0029471],[139.0611737,36.0029421],[139.0611705,36.0029371],[139.0611678,36.0029321],[139.0611655,36.0029271],[139.0611636,36.0029221],[139.0611621,36.002917],[139.0611609,36.0029119],[139.0611601,36.0029068],[139.0611596,36.0029016],[139.0611594,36.0028963],[139.0611595,36.0028908],[139.0611599,36.0028841],[139.0611626,36.0028738],[139.0611701,36.0028565],[139.0611852,36.002827],[139.061211,36.0027798],[139.0612507,36.0027096],[139.0613075,36.0026111],[139.0613843,36.0024794],[139.0614843,36.0023094],[139.0615021,36.0022693],[139.0615063,36.0022605],[139.0615107,36.0022408],[139.0615087,36.002216],[139.0614998,36.002188],[139.0614877,36.0021641],[139.0614762,36.0021511],[139.0614485,36.0021302],[139.061327,36.0020578],[139.061266,36.0020213],[139.0612576,36.0020164],[139.0612104,36.0019768],[139.0611957,36.0019612],[139.0611834,36.0019443],[139.0611736,36.0019263],[139.0611665,36.0019076],[139.0611621,36.0018882],[139.0611606,36.0018686],[139.0611582,36.0018073],[139.0611567,36.0017222],[139.0611603,36.0016312],[139.0611668,36.0015862]]]},"properties":{"layer":"road","class_code":"1040","class_label":"道路"}},{"type":"Feature","id":"tran_68e9537d-2f70-4897-a270-13c6903de4e8","geometry":{"type":"Polygon","coordinates":[[[139.0539115,36.0004333],[139.0539157,36.0004352],[139.05397,36.0004539],[139.0539576,36.0004778],[139.0539078,36.0005147],[139.053891,36.0005037],[139.0538491,36.0004663],[139.0539115,36.0004333]]]},"properties":{"layer":"road","class_code":"1040","class_label":"道路"}},{"type":"Feature","id":"tran_b1269e4e-d9de-4f37-9261-ee24e5b7c09b","geometry":{"type":"Polygon","coordinates":[[[139.0510357,36.005887],[139.0510692,36.0058753],[139.0511,36.0058632],[139.0511277,36.0058511],[139.051152,36.0058395],[139.0511728,36.0058284],[139.0511909,36.0058177],[139.051207,36.0058075],[139.0512215,36.0057975],[139.051235,36.0057878],[139.0512477,36.0057784],[139.0512596,36.0057693],[139.0512709,36.0057606],[139.0512816,36.0057523],[139.051292,36.0057443],[139.0513022,36.0057363],[139.0513125,36.0057281],[139.0513233,36.0057194],[139.0513345,36.0057101],[139.0513459,36.0057003],[139.051357,36.0056902],[139.0513675,36.00568],[139.0513772,36.00567],[139.051386,36.0056601],[139.0513941,36.0056506],[139.0514018,36.0056416],[139.051409,36.0056335],[139.0514163,36.0056261],[139.0514239,36.0056192],[139.0514324,36.0056126],[139.0514423,36.0056058],[139.0514539,36.0055986],[139.0514673,36.0055908],[139.0514822,36.0055823],[139.0514986,36.0055731],[139.0515162,36.0055632],[139.0515347,36.0055527],[139.051554,36.0055416],[139.0515737,36.0055302],[139.0515936,36.0055185],[139.0516133,36.0055066],[139.0516331,36.0054948],[139.051653,36.0054832],[139.0516732,36.005472],[139.0516936,36.0054615],[139.0517142,36.0054517],[139.0517348,36.0054426],[139.0517551,36.005434],[139.051775,36.0054256],[139.0517944,36.0054175],[139.0518133,36.0054095],[139.0518315,36.0054019],[139.051849,36.0053948],[139.0518657,36.0053883],[139.0518813,36.0053825],[139.051896,36.0053772],[139.0519097,36.0053724],[139.0519227,36.0053679],[139.0519352,36.0053636],[139.0519481,36.0053593],[139.0519622,36.0053551],[139.0519781,36.0053509],[139.0519964,36.0053468],[139.0520171,36.0053425],[139.0520399,36.0053379],[139.0520644,36.0053328],[139.0520906,36.005327],[139.0521186,36.0053203],[139.0521497,36.0053126],[139.0521852,36.0053039],[139.0522264,36.0052941],[139.0522739,36.0052834],[139.052326,36.0052719],[139.0523793,36.0052603],[139.0524307,36.0052489],[139.0524771,36.0052383],[139.0525169,36.0052287],[139.0525507,36.0052199],[139.0525795,36.0052118],[139.052604,36.0052042],[139.0526252,36.005197],[139.0526439,36.0051898],[139.052661,36.0051824],[139.0526774,36.0051743],[139.0526939,36.0051653],[139.0527122,36.0051544],[139.0527344,36.0051399],[139.0527629,36.0051201],[139.0528,36.0050934],[139.0528391,36.0050644],[139.0528722,36.0050308],[139.0528986,36.0049936],[139.0529177,36.0049535],[139.052929,36.0049115],[139.0529322,36.0048685],[139.0529143,36.0047924],[139.0528498,36.0045635],[139.0528406,36.004493],[139.0528434,36.004413],[139.0528489,36.0043199],[139.0528541,36.0042673],[139.0528532,36.0042565],[139.0527943,36.0041323],[139.0524915,36.0038486],[139.0524523,36.0038195],[139.0524137,36.003803],[139.0524246,36.0037676],[139.0524503,36.0037728],[139.0524812,36.0037861],[139.0525272,36.0038202],[139.0528376,36.0041111],[139.0528756,36.0041909],[139.0528819,36.0042674],[139.0528766,36.0043214],[139.0528711,36.0044139],[139.0528685,36.0044922],[139.0528772,36.0045598],[139.0529414,36.0047878],[139.0529597,36.0048658],[139.0529565,36.0049123],[139.0529446,36.0049579],[139.0529242,36.0050015],[139.0528959,36.005042],[139.0528604,36.0050785],[139.0528184,36.0051102],[139.0527811,36.0051371],[139.0527521,36.0051572],[139.0527291,36.0051722],[139.0527099,36.0051837],[139.0526923,36.0051934],[139.0526747,36.005202],[139.0526564,36.0052099],[139.0526365,36.0052175],[139.0526143,36.0052251],[139.0525889,36.005233],[139.0525595,36.0052413],[139.0525251,36.0052502],[139.0524849,36.0052599],[139.0524381,36.0052706],[139.0523865,36.005282],[139.0523332,36.0052937],[139.0522813,36.0053051],[139.052234,36.0053158],[139.0521931,36.0053255],[139.0521578,36.0053341],[139.0521265,36.0053419],[139.0520982,36.0053487],[139.0520715,36.0053546],[139.0520466,36.0053598],[139.0520238,36.0053644],[139.0520035,36.0053686],[139.051986,36.0053725],[139.0519712,36.0053764],[139.0519581,36.0053803],[139.0519458,36.0053844],[139.0519336,36.0053886],[139.0519207,36.0053931],[139.0519071,36.0053979],[139.0518927,36.005403],[139.0518774,36.0054087],[139.0518612,36.005415],[139.0518441,36.005422],[139.051826,36.0054295],[139.0518071,36.0054375],[139.0517877,36.0054457],[139.0517679,36.005454],[139.0517479,36.0054625],[139.0517279,36.0054713],[139.051708,36.0054807],[139.0516884,36.0054908],[139.0516689,36.0055016],[139.0516494,36.005513],[139.0516298,36.0055248],[139.05161,36.0055367],[139.05159,36.0055485],[139.0515701,36.00556],[139.0515506,36.0055711],[139.051532,36.0055817],[139.0515143,36.0055916],[139.0514981,36.0056007],[139.0514834,36.0056091],[139.0514705,36.0056167],[139.0514597,36.0056234],[139.051451,36.0056294],[139.0514438,36.005635],[139.0514374,36.0056407],[139.0514311,36.0056471],[139.0514244,36.0056547],[139.0514169,36.0056634],[139.0514086,36.0056731],[139.0513993,36.0056835],[139.0513891,36.0056942],[139.0513779,36.005705],[139.0513663,36.0057155],[139.0513545,36.0057257],[139.051343,36.0057353],[139.051332,36.0057442],[139.0513215,36.0057525],[139.0513112,36.0057606],[139.0513008,36.0057686],[139.05129,36.005777],[139.0512786,36.0057857],[139.0512665,36.0057949],[139.0512536,36.0058046],[139.0512396,36.0058146],[139.0512245,36.0058249],[139.0512076,36.0058357],[139.0511886,36.0058469],[139.0511666,36.0058586],[139.0511414,36.0058708],[139.0511126,36.0058833],[139.0510807,36.0058958],[139.051046,36.0059079],[139.0510278,36.0059135],[139.0510239,36.0058904],[139.0510357,36.005887]]]},"properties":{"layer":"road","class_code":"1040","class_label":"道路"}},{"type":"Feature","id":"tran_8635f32c-de5d-4c09-b7da-5b6bb58f5c31","geometry":{"type":"Polygon","coordinates":[[[139.0616465,36.0058307],[139.0616687,36.0058297],[139.0616708,36.0058795],[139.0616743,36.005962],[139.0616767,36.0060096],[139.0616788,36.0060363],[139.0616813,36.0060547],[139.0616845,36.0060693],[139.0616883,36.0060815],[139.061693,36.0060931],[139.0616984,36.0061045],[139.0617044,36.0061156],[139.0617108,36.0061266],[139.0617178,36.0061376],[139.0617256,36.006149],[139.0617346,36.0061613],[139.061745,36.0061749],[139.0617574,36.0061901],[139.0617722,36.0062076],[139.0617887,36.0062266],[139.0618054,36.0062456],[139.0618207,36.006263],[139.0618341,36.0062783],[139.0618464,36.0062925],[139.0618587,36.006307],[139.0618715,36.0063224],[139.0618846,36.0063386],[139.0618973,36.0063553],[139.0619094,36.0063723],[139.0619214,36.0063901],[139.0619342,36.0064096],[139.061948,36.0064309],[139.061962,36.0064526],[139.0619748,36.006473],[139.0619857,36.0064907],[139.0619946,36.0065062],[139.0620021,36.0065205],[139.0620087,36.0065344],[139.0620149,36.0065491],[139.0620214,36.0065654],[139.0620286,36.0065842],[139.0620365,36.0066045],[139.0620445,36.0066238],[139.0620518,36.00664],[139.0620587,36.0066528],[139.0620642,36.0066613],[139.0620717,36.0066709],[139.0620807,36.0066796],[139.0620911,36.0066872],[139.0621016,36.006693],[139.062076,36.0067112],[139.0620686,36.0067035],[139.0620617,36.0066955],[139.0620554,36.0066871],[139.0620497,36.0066785],[139.0620446,36.0066697],[139.0620387,36.0066606],[139.0620313,36.0066467],[139.0620235,36.0066298],[139.0620154,36.0066101],[139.0620075,36.0065897],[139.0620002,36.0065708],[139.0619939,36.0065548],[139.0619878,36.0065406],[139.0619816,36.0065272],[139.0619743,36.0065136],[139.0619657,36.0064985],[139.061955,36.0064811],[139.0619423,36.0064609],[139.0619284,36.0064392],[139.0619146,36.006418],[139.0619019,36.0063987],[139.0618901,36.0063811],[139.0618783,36.0063645],[139.0618659,36.0063483],[139.0618531,36.0063324],[139.0618403,36.0063172],[139.0618282,36.0063028],[139.0618159,36.0062887],[139.0618027,36.0062735],[139.0617874,36.0062561],[139.0617706,36.006237],[139.061754,36.0062179],[139.061739,36.0062002],[139.0617264,36.0061846],[139.0617156,36.0061707],[139.0617063,36.006158],[139.0616982,36.0061461],[139.0616909,36.0061346],[139.0616842,36.0061231],[139.0616779,36.0061113],[139.0616721,36.0060992],[139.061667,36.0060866],[139.0616628,36.0060731],[139.0616593,36.0060573],[139.0616567,36.0060379],[139.0616545,36.0060105],[139.0616521,36.0059627],[139.0616486,36.0058801],[139.0616465,36.0058307]]]},"properties":{"layer":"road","class_code":"1040","class_label":"道路"}},{"type":"Feature","id":"tran_84835a01-7648-476c-9026-16975a9dc524","geometry":{"type":"Polygon","coordinates":[[[139.0517427,36.007246],[139.0517526,36.0072436],[139.0517806,36.0072376],[139.0518709,36.007226],[139.051925,36.0072165],[139.0519569,36.0072062],[139.0519906,36.0071908],[139.0520228,36.0071763],[139.0520367,36.007201],[139.0520068,36.0072144],[139.0519712,36.0072306],[139.0519349,36.0072425],[139.051877,36.0072525],[139.0517875,36.007264],[139.051764,36.0072691],[139.0517569,36.0072719],[139.0517427,36.007246]]]},"properties":{"layer":"road","class_code":"1040","class_label":"道路"}},{"type":"Feature","id":"tran_1fa57635-d5a0-4a6a-9cd8-87860ed7f74b","geometry":{"type":"Polygon","coordinates":[[[139.0509556,36.0059035],[139.0509756,36.005885],[139.0509869,36.0058891],[139.0509991,36.0058915],[139.0510116,36.0058919],[139.0510239,36.0058904],[139.0510278,36.0059135],[139.0510188,36.0059173],[139.0510105,36.0059218],[139.0510029,36.0059272],[139.0509961,36.0059332],[139.0509903,36.0059398],[139.0509622,36.0059316],[139.0509628,36.0059292],[139.0509632,36.0059267],[139.0509634,36.0059243],[139.0509635,36.0059219],[139.0509634,36.0059195],[139.0509632,36.0059172],[139.0509627,36.0059151],[139.0509621,36.0059131],[139.0509611,36.005911],[139.0509598,36.0059087],[139.050958,36.0059063],[139.0509556,36.0059035]]]},"properties":{"layer":"road","class_code":"1040","class_label":"道路"}},{"type":"Feature","id":"tran_46b9f45b-e8c4-4bd4-b70a-9a62c518ec3a","geometry":{"type":"Polygon","coordinates":[[[139.0537351,36.0000844],[139.0537454,36.0001481],[139.0537644,36.0002201],[139.053785,36.0002721],[139.0538114,36.0003221],[139.0538404,36.0003622],[139.0538726,36.0004004],[139.05388,36.0004088],[139.0538828,36.000412],[139.0538858,36.0004151],[139.053889,36.0004181],[139.0538923,36.000421],[139.0538959,36.0004238],[139.0538995,36.0004264],[139.0539034,36.0004288],[139.0539074,36.0004311],[139.0539115,36.0004333],[139.0538491,36.0004663],[139.053818,36.0004315],[139.0537841,36.0003911],[139.053752,36.0003466],[139.0537227,36.000291],[139.0537001,36.0002341],[139.0536794,36.0001551],[139.0536702,36.0000984],[139.0537351,36.0000844]]]},"properties":{"layer":"road","class_code":"1040","class_label":"道路"}},{"type":"Feature","id":"tran_a39f43b6-26b1-45b7-8813-c0a7ae115840","geometry":{"type":"Polygon","coordinates":[[[139.0563473,36.0028286],[139.056376,36.0029239],[139.0563877,36.0029526],[139.0563984,36.0029707],[139.0564175,36.0029941],[139.0564793,36.0030476],[139.0564881,36.0030566],[139.0564974,36.0030652],[139.0565072,36.0030734],[139.0565174,36.0030814],[139.056528,36.0030889],[139.0565391,36.003096],[139.0565505,36.0031027],[139.0565623,36.003109],[139.0565744,36.0031149],[139.0565869,36.0031203],[139.0566759,36.0031648],[139.0567061,36.0031879],[139.0567406,36.0032151],[139.0567654,36.0032454],[139.0567951,36.0032823],[139.0568062,36.0032959],[139.0567508,36.0033259],[139.0567395,36.0033121],[139.0567097,36.0032751],[139.0566891,36.0032498],[139.0566602,36.003227],[139.0566352,36.003208],[139.0565555,36.003168],[139.0565418,36.003162],[139.0565271,36.0031549],[139.0565127,36.0031473],[139.0564989,36.0031391],[139.0564855,36.0031305],[139.0564726,36.0031214],[139.0564602,36.0031118],[139.0564483,36.0031017],[139.0564371,36.0030913],[139.0564273,36.0030814],[139.0563653,36.0030278],[139.0563404,36.0029976],[139.0563259,36.002973],[139.0563119,36.0029389],[139.0562826,36.0028415],[139.0563473,36.0028286]]]},"properties":{"layer":"road","class_code":"1040","class_label":"道路"}},{"type":"Feature","id":"tran_cbeee5e0-c3ea-453c-8cac-07ee9cd898f2","geometry":{"type":"Polygon","coordinates":[[[139.0562642,36.00275],[139.0562664,36.0027269],[139.0562704,36.0027132],[139.0562931,36.002674],[139.0563448,36.0027118],[139.0563336,36.0027312],[139.0563269,36.0027541],[139.0562642,36.00275]]]},"properties":{"layer":"road","class_code":"1040","class_label":"道路"}},{"type":"Feature","id":"tran_dc463f60-3c9e-441b-9f38-88b94a01fc4a","geometry":{"type":"Polygon","coordinates":[[[139.0562642,36.00275],[139.0563269,36.0027541],[139.05633,36.0027707],[139.0563451,36.0028214],[139.0563473,36.0028286],[139.0562826,36.0028415],[139.0562556,36.0028387],[139.0562642,36.00275]]]},"properties":{"layer":"road","class_code":"1040","class_label":"道路"}},{"type":"Feature","id":"tran_d29093b2-549d-4275-9181-20bc05e45fb0","geometry":{"type":"Polygon","coordinates":[[[139.0562474,36.0022109],[139.0563082,36.002189],[139.0563139,36.0021994],[139.0563353,36.0022328],[139.0563605,36.0022689],[139.056397,36.0023134],[139.0564325,36.002358],[139.056499,36.0024263],[139.0565263,36.002459],[139.0565345,36.0024688],[139.0565415,36.0024924],[139.056543,36.0025089],[139.0565385,36.0025366],[139.0565326,36.002559],[139.056521,36.002583],[139.0565071,36.0026054],[139.0564895,36.0026283],[139.056464,36.0026535],[139.0564404,36.002665],[139.0563967,36.0026864],[139.0563624,36.0026401],[139.0564198,36.002612],[139.0564354,36.0025966],[139.056449,36.0025789],[139.0564601,36.002561],[139.0564687,36.0025433],[139.0564728,36.0025273],[139.0564761,36.0025073],[139.0564755,36.0025008],[139.0564726,36.0024911],[139.0564715,36.0024896],[139.0564467,36.0024598],[139.0563783,36.0023895],[139.0563415,36.0023431],[139.0563039,36.0022974],[139.0562768,36.0022586],[139.0562538,36.0022228],[139.0562474,36.0022109]]]},"properties":{"layer":"road","class_code":"1040","class_label":"道路"}},{"type":"Feature","id":"tran_7bd42398-6537-4b12-b4ab-60d855adac62","geometry":{"type":"Polygon","coordinates":[[[139.0562522,36.007447],[139.0564275,36.0076763],[139.0565224,36.0078275],[139.0567693,36.008012],[139.0567179,36.0080471],[139.0564685,36.0078607],[139.0563695,36.0077029],[139.0561956,36.0074755],[139.0562522,36.007447]]]},"properties":{"layer":"road","class_code":"1040","class_label":"道路"}},{"type":"Feature","id":"tran_30817b48-1086-4ed8-ad5b-0c47181140f7","geometry":{"type":"Polygon","coordinates":[[[139.0563082,36.002189],[139.0562474,36.0022109],[139.0562288,36.0021725],[139.0562898,36.0021507],[139.0562907,36.0021526],[139.0563036,36.0021806],[139.0563082,36.002189]]]},"properties":{"layer":"road","class_code":"1040","class_label":"道路"}},{"type":"Feature","id":"tran_2beea4cd-e088-427f-9a95-2001ad3e2215","geometry":{"type":"Polygon","coordinates":[[[139.0567508,36.0033259],[139.0567719,36.0033525],[139.0566571,36.0034003],[139.0566393,36.0033722],[139.0567508,36.0033259]]]},"properties":{"layer":"road","class_code":"1040","class_label":"道路"}},{"type":"Feature","id":"tran_730adf89-3786-4f56-9f44-2092e6d63d0a","geometry":{"type":"Polygon","coordinates":[[[139.0562474,36.0022109],[139.0562311,36.0022102],[139.0562136,36.0022107],[139.0561905,36.0022156],[139.0561236,36.0022383],[139.0561065,36.002205],[139.0561762,36.0021815],[139.0562069,36.0021748],[139.0562288,36.0021725],[139.0562474,36.0022109]]]},"properties":{"layer":"road","class_code":"1040","class_label":"道路"}},{"type":"Feature","id":"tran_1654d4b1-5cfb-4f00-8c30-e0a452c8f711","geometry":{"type":"Polygon","coordinates":[[[139.0560788,36.0033289],[139.0561894,36.0032886],[139.0562194,36.0032718],[139.0562376,36.0032596],[139.0562485,36.003246],[139.0562575,36.0032243],[139.0562599,36.0031892],[139.0562554,36.0031134],[139.0562473,36.0029917],[139.0562533,36.0028625],[139.0562556,36.0028387],[139.0562826,36.0028415],[139.0562819,36.0028461],[139.0562751,36.0029916],[139.0562832,36.0031123],[139.0562876,36.0031893],[139.056285,36.0032287],[139.0562735,36.003256],[139.0562584,36.0032747],[139.0562362,36.0032897],[139.056203,36.0033084],[139.0560902,36.0033494],[139.0560788,36.0033289]]]},"properties":{"layer":"road","class_code":"1040","class_label":"道路"}},{"type":"Feature","id":"tran_caab2645-2a16-4c28-a4b4-cbfd0b3c3ff1","geometry":{"type":"Polygon","coordinates":[[[139.0559488,36.0037484],[139.0560373,36.0036931],[139.0561121,36.0036615],[139.0562283,36.0036265],[139.0563142,36.0036101],[139.0564358,36.0035931],[139.0564546,36.0035923],[139.0565046,36.0035902],[139.0566926,36.0035913],[139.0566924,36.0036138],[139.0565053,36.0036127],[139.0564389,36.0036155],[139.0563198,36.0036322],[139.0562363,36.0036481],[139.0561233,36.0036821],[139.0560523,36.0037122],[139.0559657,36.0037663],[139.0559488,36.0037484]]]},"properties":{"layer":"road","class_code":"1040","class_label":"道路"}},{"type":"Feature","id":"tran_fa39ace1-7b26-49b3-ab6b-256eb16228b1","geometry":{"type":"Polygon","coordinates":[[[139.0508239,36.0076699],[139.0509283,36.0076143],[139.0509508,36.0076801],[139.050969,36.0077403],[139.0509856,36.007806],[139.0509975,36.0078797],[139.0510096,36.0079604],[139.0510166,36.0080452],[139.051042,36.0082987],[139.0509249,36.0083073],[139.0509111,36.008148],[139.0508859,36.0079467],[139.0508703,36.0078441],[139.050853,36.0077622],[139.0508305,36.0076859],[139.0508239,36.0076699]]]},"properties":{"layer":"road","class_code":"1040","class_label":"道路"}},{"type":"Feature","id":"tran_ce1feb2c-23a1-4044-8515-ba7759f64f70","geometry":{"type":"Polygon","coordinates":[[[139.0508138,36.0057562],[139.0508415,36.0057544],[139.0508445,36.0057615],[139.0508487,36.0057735],[139.0508543,36.0057852],[139.0508611,36.0057964],[139.0508692,36.0058071],[139.0508784,36.0058172],[139.0508887,36.0058265],[139.0508948,36.0058309],[139.0509038,36.0058372],[139.0509124,36.005843],[139.0509207,36.0058485],[139.0509286,36.0058537],[139.0509362,36.0058586],[139.0509435,36.0058634],[139.0509503,36.0058681],[139.0509567,36.0058726],[139.0509627,36.0058769],[139.0509654,36.0058791],[139.0509756,36.005885],[139.0509556,36.0059035],[139.0509524,36.0059005],[139.0509484,36.0058971],[139.0509437,36.0058934],[139.0509383,36.0058894],[139.0509324,36.0058852],[139.0509258,36.0058808],[139.0509188,36.0058761],[139.0509113,36.0058712],[139.0509033,36.005866],[139.0508949,36.0058605],[139.0508859,36.0058544],[139.0508765,36.0058479],[139.0508702,36.0058433],[139.0508575,36.0058327],[139.0508462,36.0058212],[139.0508365,36.0058087],[139.0508284,36.0057954],[139.0508221,36.0057815],[139.0508176,36.0057672],[139.0508147,36.0057602],[139.0508138,36.0057562]]]},"properties":{"layer":"road","class_code":"1040","class_label":"道路"}},{"type":"Feature","id":"tran_9408bb1d-a111-438a-a7d6-c528cbfc3b5a","geometry":{"type":"Polygon","coordinates":[[[139.0513031,36.0050577],[139.0513014,36.0050803],[139.0512433,36.0050775],[139.0512104,36.0050767],[139.0511725,36.0050786],[139.0511321,36.00509],[139.0511078,36.0051018],[139.051091,36.0051177],[139.051063,36.0051519],[139.0510483,36.0051848],[139.0510292,36.0052359],[139.050976,36.0053531],[139.0509658,36.005378],[139.0509601,36.0054022],[139.0509585,36.0054303],[139.0509573,36.0054584],[139.0509564,36.0054886],[139.0509444,36.0055123],[139.0509238,36.0055395],[139.0508667,36.0056078],[139.0508427,36.0056542],[139.0508358,36.0056818],[139.0508339,36.0057081],[139.0508062,36.0057075],[139.0508082,36.0056789],[139.0508161,36.0056475],[139.0508422,36.005597],[139.0509006,36.0055273],[139.0509197,36.005502],[139.0509288,36.0054839],[139.0509295,36.0054576],[139.0509309,36.0054294],[139.0509326,36.0053995],[139.0509389,36.0053724],[139.0509498,36.0053457],[139.0510029,36.0052287],[139.0510219,36.0051777],[139.051038,36.0051416],[139.0510688,36.0051041],[139.0510896,36.0050844],[139.0511203,36.0050694],[139.051167,36.0050563],[139.0512099,36.0050541],[139.0512445,36.005055],[139.0513031,36.0050577]]]},"properties":{"layer":"road","class_code":"1040","class_label":"道路"}},{"type":"Feature","id":"tran_13e3e0f2-0224-41ac-b6af-fa510814d926","geometry":{"type":"Polygon","coordinates":[[[139.050801,36.0076142],[139.0509052,36.0075586],[139.0509176,36.0075852],[139.0509201,36.0075905],[139.0509283,36.0076143],[139.0508239,36.0076699],[139.0508007,36.0076671],[139.0507737,36.007627],[139.050801,36.0076142]]]},"properties":{"layer":"road","class_code":"1040","class_label":"道路"}},{"type":"Feature","id":"tran_1958d310-ee5d-447c-9521-c923ce1be231","geometry":{"type":"Polygon","coordinates":[[[139.0507691,36.0057225],[139.050789,36.0057177],[139.050803,36.0057111],[139.0508062,36.0057075],[139.0508339,36.0057081],[139.050836,36.0057308],[139.0508415,36.0057544],[139.0508138,36.0057562],[139.0507659,36.0057452],[139.0507691,36.0057225]]]},"properties":{"layer":"road","class_code":"1040","class_label":"道路"}},{"type":"Feature","id":"tran_8884b45b-b1af-4190-abdd-14a7ee086d90","geometry":{"type":"Polygon","coordinates":[[[139.0506793,36.0076715],[139.0507737,36.007627],[139.0508007,36.0076671],[139.0507065,36.0077088],[139.0506793,36.0076715]]]},"properties":{"layer":"road","class_code":"1040","class_label":"道路"}},{"type":"Feature","id":"tran_50c5a204-4955-4f80-91ed-f9d80b314420","geometry":{"type":"Polygon","coordinates":[[[139.0562898,36.0021507],[139.0562288,36.0021725],[139.0562034,36.0021221],[139.0561474,36.0019883],[139.0561434,36.0019786],[139.0560411,36.001736],[139.0560321,36.0017155],[139.0560259,36.0017048],[139.0560204,36.0016979],[139.056008,36.0016893],[139.0559334,36.0016504],[139.0559134,36.0016405],[139.0554103,36.0014539],[139.0553588,36.0014362],[139.0553148,36.001427],[139.0553332,36.0013709],[139.0553796,36.0013809],[139.0554334,36.0014129],[139.0559463,36.0016032],[139.0560417,36.0016499],[139.0560485,36.0016534],[139.0560551,36.0016573],[139.0560614,36.0016614],[139.0560673,36.0016658],[139.0560729,36.0016706],[139.0560781,36.0016756],[139.056083,36.0016808],[139.0560874,36.0016863],[139.0560914,36.001692],[139.056095,36.0016979],[139.0561038,36.0017181],[139.0562064,36.0019611],[139.0562179,36.0019888],[139.0562658,36.0021031],[139.0562898,36.0021507]]]},"properties":{"layer":"road","class_code":"1040","class_label":"道路"}},{"type":"Feature","id":"tran_dc0491f4-5935-4f5c-9ca1-fc6d50b35215","geometry":{"type":"Polygon","coordinates":[[[139.0553148,36.001427],[139.0553372,36.0014563],[139.0553506,36.0014811],[139.0553648,36.0015178],[139.0553862,36.0015958],[139.0554113,36.0016868],[139.055435,36.0017711],[139.0554461,36.0018333],[139.0554543,36.0018895],[139.0554598,36.0019837],[139.055461,36.002003],[139.0554333,36.0020041],[139.0554321,36.0019835],[139.0554266,36.0018914],[139.0554185,36.0018362],[139.0554078,36.0017751],[139.0553842,36.0016918],[139.0553592,36.0016008],[139.055338,36.0015237],[139.0553247,36.0014891],[139.0553126,36.0014667],[139.0552913,36.0014389],[139.0553148,36.001427]]]},"properties":{"layer":"road","class_code":"1040","class_label":"道路"}},{"type":"Feature","id":"tran_fd340ca0-3731-4b32-be4f-f49229bbe12b","geometry":{"type":"Polygon","coordinates":[[[139.0505013,36.0066944],[139.0505568,36.006738],[139.050594,36.0067618],[139.0506109,36.0067681],[139.0506283,36.0067734],[139.0506462,36.0067777],[139.0506643,36.006781],[139.0506827,36.0067832],[139.0507012,36.0067843],[139.0507198,36.0067844],[139.0507384,36.0067835],[139.0507568,36.0067814],[139.050775,36.0067784],[139.0509913,36.0067018],[139.0510602,36.0066797],[139.0511044,36.0066689],[139.0511378,36.0066625],[139.0511786,36.0066637],[139.0512169,36.006677],[139.051259,36.0067029],[139.0513384,36.0068127],[139.0514945,36.0070627],[139.0515627,36.0071795],[139.0516111,36.007278],[139.0516183,36.0072878],[139.0515891,36.0073009],[139.0515811,36.0072901],[139.0515322,36.0071903],[139.0514646,36.0070745],[139.0513093,36.0068257],[139.0512336,36.0067212],[139.0512,36.0067006],[139.0511713,36.0066905],[139.051141,36.0066897],[139.0511129,36.006695],[139.0510712,36.0067052],[139.0510036,36.0067269],[139.0507851,36.0068043],[139.0507624,36.0068081],[139.0507417,36.0068104],[139.0507208,36.0068115],[139.0506999,36.0068114],[139.050679,36.0068101],[139.0506583,36.0068076],[139.0506378,36.0068039],[139.0506177,36.0067991],[139.0505981,36.0067931],[139.0505765,36.0067851],[139.0505349,36.0067584],[139.0504781,36.0067139],[139.0505013,36.0066944]]]},"properties":{"layer":"road","class_code":"1040","class_label":"道路"}},{"type":"Feature","id":"tran_6522542f-4231-4bfc-82dc-828fdcd49a39","geometry":{"type":"Polygon","coordinates":[[[139.0503195,36.0063509],[139.0503944,36.0063676],[139.0504605,36.0063822],[139.0504897,36.0063846],[139.0505092,36.0063823],[139.0505272,36.0063759],[139.0505425,36.0063658],[139.050554,36.0063528],[139.0505609,36.0063378],[139.0505626,36.0063218],[139.0505646,36.0063048],[139.0505673,36.0062895],[139.0505705,36.0062759],[139.0505742,36.0062638],[139.0505783,36.006253],[139.0505829,36.0062434],[139.0505877,36.0062348],[139.0505928,36.006227],[139.0505981,36.0062198],[139.0506036,36.0062132],[139.0506096,36.006207],[139.0506158,36.0062011],[139.0506224,36.0061955],[139.0506293,36.0061899],[139.0506367,36.0061844],[139.0506446,36.0061787],[139.0506529,36.0061729],[139.0506616,36.0061669],[139.0506708,36.0061608],[139.0506802,36.0061546],[139.05069,36.0061483],[139.0507001,36.0061418],[139.0507105,36.0061353],[139.0507209,36.0061288],[139.0507315,36.0061222],[139.050742,36.0061156],[139.0507523,36.0061091],[139.0507624,36.0061027],[139.0507722,36.0060964],[139.0507815,36.0060903],[139.0507904,36.0060844],[139.050799,36.0060786],[139.0508073,36.0060728],[139.0508154,36.006067],[139.0508234,36.0060611],[139.0508314,36.0060551],[139.0508396,36.0060489],[139.050848,36.0060424],[139.0508565,36.0060357],[139.050865,36.0060289],[139.0508735,36.006022],[139.0508818,36.0060151],[139.05089,36.0060083],[139.0508978,36.0060016],[139.0509052,36.0059952],[139.0509122,36.005989],[139.0509187,36.0059831],[139.0509248,36.0059775],[139.0509304,36.0059722],[139.0509355,36.0059673],[139.0509401,36.0059628],[139.0509441,36.0059586],[139.0509477,36.0059548],[139.0509506,36.0059515],[139.0509532,36.0059485],[139.0509553,36.0059458],[139.050957,36.0059433],[139.0509584,36.005941],[139.0509596,36.0059387],[139.0509606,36.0059364],[139.0509615,36.005934],[139.0509622,36.0059316],[139.0509903,36.0059398],[139.0509854,36.005947],[139.0509836,36.0059504],[139.0509815,36.0059539],[139.0509791,36.0059573],[139.0509764,36.0059609],[139.0509733,36.0059645],[139.0509699,36.0059684],[139.050966,36.0059724],[139.0509617,36.0059769],[139.0509568,36.0059817],[139.0509515,36.0059868],[139.0509457,36.0059923],[139.0509394,36.0059981],[139.0509327,36.0060042],[139.0509255,36.0060105],[139.0509179,36.0060171],[139.0509099,36.0060239],[139.0509017,36.0060309],[139.0508932,36.0060379],[139.0508845,36.0060449],[139.0508758,36.0060518],[139.0508672,36.0060586],[139.0508587,36.0060652],[139.0508503,36.0060716],[139.0508421,36.0060778],[139.0508338,36.0060838],[139.0508254,36.0060898],[139.0508169,36.0060958],[139.0508081,36.0061017],[139.050799,36.0061078],[139.0507895,36.006114],[139.0507796,36.0061204],[139.0507693,36.0061269],[139.0507589,36.0061334],[139.0507484,36.00614],[139.0507379,36.0061466],[139.0507275,36.0061531],[139.0507172,36.0061596],[139.0507072,36.006166],[139.0506976,36.0061722],[139.0506883,36.0061783],[139.0506793,36.0061843],[139.0506708,36.0061901],[139.0506628,36.0061957],[139.0506553,36.0062011],[139.0506485,36.0062063],[139.0506421,36.0062113],[139.0506364,36.0062162],[139.050631,36.0062212],[139.0506261,36.0062264],[139.0506214,36.006232],[139.0506169,36.006238],[139.0506126,36.0062447],[139.0506085,36.0062521],[139.0506046,36.0062604],[139.0506009,36.0062699],[139.0505976,36.0062807],[139.0505946,36.0062932],[139.0505922,36.0063075],[139.0505902,36.006324],[139.0505878,36.0063463],[139.0505782,36.0063674],[139.050562,36.0063856],[139.0505405,36.0063996],[139.0505152,36.0064085],[139.0504878,36.0064117],[139.0504544,36.0064088],[139.0503857,36.0063937],[139.0503129,36.0063775],[139.0502814,36.0063742],[139.050249,36.0063755],[139.0502111,36.0063342],[139.0502242,36.0063315],[139.0502342,36.0063307],[139.0502619,36.0063322],[139.0502885,36.0063374],[139.0503195,36.0063509]]]},"properties":{"layer":"road","class_code":"1040","class_label":"道路"}},{"type":"Feature","id":"tran_7e7e1690-11ad-4577-891b-d891ad4e1484","geometry":{"type":"Polygon","coordinates":[[[139.0501796,36.0063543],[139.0501834,36.0063364],[139.0502111,36.0063342],[139.050249,36.0063755],[139.0502294,36.0063858],[139.0501796,36.0063543]]]},"properties":{"layer":"road","class_code":"1040","class_label":"道路"}},{"type":"Feature","id":"tran_6f7486c2-a781-4637-9294-f7e02afa747b","geometry":{"type":"Polygon","coordinates":[[[139.0501182,36.0064184],[139.0501796,36.0063543],[139.0502294,36.0063858],[139.050168,36.0064499],[139.0501182,36.0064184]]]},"properties":{"layer":"road","class_code":"1040","class_label":"道路"}},{"type":"Feature","id":"tran_b49caa81-6869-47e6-8081-3d4599653917","geometry":{"type":"Polygon","coordinates":[[[139.0501162,36.0062914],[139.050149,36.0062845],[139.0501581,36.0063042],[139.050171,36.0063221],[139.0501834,36.0063364],[139.0501796,36.0063543],[139.0501605,36.006339],[139.0501427,36.0063238],[139.0501262,36.0063079],[139.0501162,36.0062914]]]},"properties":{"layer":"road","class_code":"1040","class_label":"道路"}},{"type":"Feature","id":"tran_ee28790a-6c42-48ff-aed0-06bc51234503","geometry":{"type":"Polygon","coordinates":[[[139.0501063,36.0060818],[139.0501138,36.0060738],[139.0501872,36.0060103],[139.0502467,36.0059583],[139.0502625,36.0059377],[139.0502718,36.0059091],[139.0502857,36.0058821],[139.050358,36.0058284],[139.0504464,36.0057932],[139.0505104,36.0057682],[139.0505596,36.0057539],[139.0506461,36.0057343],[139.0506994,36.005725],[139.0507691,36.0057225],[139.0507659,36.0057452],[139.0507029,36.0057475],[139.0506527,36.0057562],[139.050568,36.0057754],[139.0505211,36.005789],[139.0504585,36.0058135],[139.0503737,36.0058472],[139.0503089,36.0058953],[139.0502982,36.0059163],[139.0502882,36.0059467],[139.0502688,36.005972],[139.0502075,36.0060257],[139.0501351,36.0060883],[139.0501283,36.0060955],[139.0501063,36.0060818]]]},"properties":{"layer":"road","class_code":"1040","class_label":"道路"}},{"type":"Feature","id":"tran_f663acbb-302c-47ab-8ba5-3b4a690ca5f2","geometry":{"type":"Polygon","coordinates":[[[139.0500458,36.006489],[139.0501182,36.0064184],[139.050168,36.0064499],[139.0501281,36.0064834],[139.0500918,36.0065149],[139.0500458,36.006489]]]},"properties":{"layer":"road","class_code":"1040","class_label":"道路"}},{"type":"Feature","id":"tran_bf470694-08e3-4dee-a2ce-488b4726e206","geometry":{"type":"Polygon","coordinates":[[[139.0500888,36.006541],[139.0501053,36.006561],[139.0502023,36.0066726],[139.0504273,36.0069229],[139.0506791,36.0072134],[139.0507404,36.0072852],[139.0507921,36.0073578],[139.050848,36.0074461],[139.0508938,36.0075343],[139.0509052,36.0075586],[139.050801,36.0076142],[139.0507985,36.007608],[139.0507509,36.0075065],[139.0507237,36.0074518],[139.0506886,36.0073991],[139.0506303,36.0073253],[139.0503991,36.0070503],[139.0503259,36.006971],[139.0500948,36.0067724],[139.0500562,36.0067373],[139.0499629,36.0066096],[139.0499394,36.0065713],[139.0499301,36.0065585],[139.0500888,36.006541]]]},"properties":{"layer":"road","class_code":"1040","class_label":"道路"}},{"type":"Feature","id":"tran_d56e9cbe-9277-4728-8474-9192eb26245d","geometry":{"type":"Polygon","coordinates":[[[139.0500888,36.006541],[139.0499301,36.0065585],[139.0499077,36.0065273],[139.049907,36.0065263],[139.0500458,36.006489],[139.0500918,36.0065149],[139.0500888,36.006541]]]},"properties":{"layer":"road","class_code":"1040","class_label":"道路"}},{"type":"Feature","id":"tran_a286d5fd-b2e9-43a3-9c7b-a7652dcb52ad","geometry":{"type":"Polygon","coordinates":[[[139.0567475,36.0035898],[139.0567578,36.0035782],[139.0567799,36.0035361],[139.0567896,36.0035183],[139.056799,36.0034889],[139.0568039,36.0034719],[139.0568687,36.0034842],[139.0568637,36.0035018],[139.0568527,36.0035362],[139.0568409,36.0035576],[139.0568161,36.003605],[139.0567475,36.0035898]]]},"properties":{"layer":"road","class_code":"1040","class_label":"道路"}},{"type":"Feature","id":"tran_ced30ae4-63fd-48a9-b43c-37deb0037e96","geometry":{"type":"Polygon","coordinates":[[[139.0568062,36.0032959],[139.0568278,36.0033222],[139.0567719,36.0033525],[139.0567508,36.0033259],[139.0568062,36.0032959]]]},"properties":{"layer":"road","class_code":"1040","class_label":"道路"}},{"type":"Feature","id":"tran_6adea633-8ff9-4be3-a0f0-9d21334babfd","geometry":{"type":"Polygon","coordinates":[[[139.0578454,36.0076169],[139.0578602,36.0076483],[139.0578465,36.0076486],[139.0577538,36.0076959],[139.0577423,36.0077025],[139.0577264,36.0076829],[139.0578195,36.0076283],[139.0578454,36.0076169]]]},"properties":{"layer":"road","class_code":"1040","class_label":"道路"}},{"type":"Feature","id":"tran_9a597d1c-fbe0-4c03-8577-4a859ae326b8","geometry":{"type":"Polygon","coordinates":[[[139.0567179,36.0080471],[139.0567693,36.008012],[139.0568408,36.0080296],[139.056904,36.0080474],[139.0568789,36.0080925],[139.0568606,36.0081296],[139.0568495,36.0081517],[139.0567866,36.008134],[139.0567179,36.0080471]]]},"properties":{"layer":"road","class_code":"1040","class_label":"道路"}},{"type":"Feature","id":"tran_08d7fe94-47cd-4d05-91a7-343932565c3b","geometry":{"type":"Polygon","coordinates":[[[139.0580394,36.0047344],[139.0580429,36.0047228],[139.0580438,36.004715],[139.0580428,36.0047082],[139.0580382,36.0047031],[139.0580233,36.004699],[139.0580174,36.0046991],[139.0579748,36.0046961],[139.0579244,36.0046887],[139.0578973,36.0046815],[139.0578625,36.0046679],[139.0578746,36.0046476],[139.0579078,36.0046606],[139.0579312,36.0046668],[139.0579785,36.0046737],[139.0580186,36.0046766],[139.0580436,36.0046765],[139.0580545,36.004677],[139.0580707,36.0046846],[139.0580824,36.0046962],[139.058086,36.0047095],[139.0580859,36.004713],[139.0580747,36.0047327],[139.0580559,36.0047546],[139.0580359,36.0047819],[139.0580236,36.0048116],[139.0580176,36.0048382],[139.0580164,36.0048665],[139.0580172,36.0049065],[139.0580189,36.0049602],[139.0580199,36.005005],[139.0580195,36.0050573],[139.0580132,36.0051174],[139.0580029,36.005161],[139.0579906,36.0052182],[139.0579746,36.0052755],[139.0579436,36.0053318],[139.0578761,36.0054681],[139.0578706,36.0054878],[139.0578674,36.0055039],[139.0578708,36.005542],[139.0578718,36.0055698],[139.0578597,36.005607],[139.0578251,36.0057151],[139.0578023,36.0057811],[139.0577887,36.0058337],[139.0577808,36.0058771],[139.0577795,36.0059193],[139.0577815,36.005961],[139.0577869,36.0059954],[139.0577936,36.0060115],[139.0578015,36.0060304],[139.057819,36.0060669],[139.0578444,36.006108],[139.0578824,36.0061524],[139.0579324,36.0062023],[139.0580093,36.0062827],[139.05809,36.0063739],[139.0581119,36.0064123],[139.0581227,36.0064429],[139.0581215,36.0064625],[139.0581071,36.006498],[139.0580895,36.0065427],[139.0580668,36.0065912],[139.0580426,36.0066377],[139.0580214,36.0066775],[139.058003,36.0067133],[139.0579762,36.0067192],[139.0579825,36.0066987],[139.0579957,36.0066691],[139.058017,36.0066288],[139.058041,36.0065828],[139.0580634,36.0065352],[139.0580807,36.0064911],[139.058094,36.0064584],[139.0580948,36.0064455],[139.0580859,36.0064203],[139.0580659,36.0063853],[139.0579871,36.0062962],[139.0579106,36.0062163],[139.0578602,36.0061659],[139.0578205,36.0061195],[139.0577936,36.006076],[139.0577755,36.0060382],[139.0577596,36.0060004],[139.0577539,36.0059629],[139.0577518,36.0059194],[139.0577531,36.0058751],[139.0577614,36.0058296],[139.0577754,36.0057757],[139.0577983,36.0057092],[139.0578329,36.0056014],[139.057844,36.0055672],[139.0578431,36.0055431],[139.0578396,36.0055029],[139.0578433,36.0054835],[139.0578496,36.0054613],[139.057918,36.005323],[139.0579483,36.0052683],[139.0579635,36.0052138],[139.0579757,36.0051569],[139.0579857,36.0051144],[139.0579917,36.0050563],[139.0579921,36.0050052],[139.0579911,36.0049607],[139.0579894,36.0049069],[139.0579887,36.0048663],[139.0579899,36.0048356],[139.0579967,36.0048059],[139.0580106,36.0047726],[139.0580325,36.0047424],[139.0580394,36.0047344]]]},"properties":{"layer":"road","class_code":"1040","class_label":"道路"}},{"type":"Feature","id":"tran_c724e085-39d2-48c6-aa81-035e5ddf3b8c","geometry":{"type":"Polygon","coordinates":[[[139.0568278,36.0033222],[139.0568283,36.0033229],[139.0568546,36.0033688],[139.0568703,36.0034162],[139.0568732,36.0034357],[139.0568074,36.0034442],[139.0568047,36.0034265],[139.0567918,36.0033874],[139.0567719,36.0033525],[139.0568278,36.0033222]]]},"properties":{"layer":"road","class_code":"1040","class_label":"道路"}}]}