{"type":"FeatureCollection","properties":{"mesh_code":"54390110","source":"PLATEAU秩父市2025","layer":"road"},"features":[{"type":"Feature","id":"tran_51d844ab-e72e-41a2-a0f8-d0d7119759e0","geometry":{"type":"Polygon","coordinates":[[[139.1275496,36.0117039],[139.1275557,36.0116818],[139.1275662,36.0116754],[139.1275761,36.0116862],[139.127566,36.0117073],[139.1275501,36.0117039],[139.1275496,36.0117039]]]},"properties":{"layer":"road","class_code":"1040","class_label":"道路"}},{"type":"Feature","id":"tran_c5e8dfde-6200-4376-ba52-a04b5a59cae3","geometry":{"type":"Polygon","coordinates":[[[139.125065,36.0133638],[139.125079,36.0133394],[139.1251087,36.0132539],[139.1251391,36.0132533],[139.1251168,36.0133029],[139.1250893,36.0133711],[139.125065,36.0133638]]]},"properties":{"layer":"road","class_code":"1040","class_label":"道路"}},{"type":"Feature","id":"tran_76fb1abb-8fb8-471e-affd-61deb0f865b0","geometry":{"type":"Polygon","coordinates":[[[139.1246573,36.0137774],[139.1247123,36.0137563],[139.1247783,36.0137213],[139.1248121,36.0137087],[139.1248549,36.0136991],[139.1248787,36.0136938],[139.1249676,36.0136633],[139.1250865,36.0136199],[139.1251799,36.0135807],[139.1252093,36.013566],[139.1252377,36.013548],[139.1252592,36.0135284],[139.1252896,36.0134912],[139.1253231,36.0134366],[139.1253345,36.0134139],[139.1253769,36.0133754],[139.1254682,36.0133059],[139.1255439,36.0132544],[139.1256529,36.0131803],[139.1256806,36.0131629],[139.1257095,36.0131405],[139.1257361,36.013118],[139.1257521,36.0131305],[139.1257252,36.0131532],[139.1256951,36.0131765],[139.1256678,36.013194],[139.1256396,36.0132084],[139.1255955,36.0132311],[139.1254756,36.0133126],[139.1253848,36.0133817],[139.1253441,36.0134187],[139.1253331,36.0134403],[139.1252992,36.0134957],[139.125268,36.013534],[139.1252453,36.0135547],[139.1252157,36.0135734],[139.1251854,36.0135886],[139.1250913,36.013628],[139.1249721,36.0136716],[139.1248823,36.0137024],[139.1248159,36.0137172],[139.1247836,36.0137291],[139.1247177,36.0137642],[139.1246639,36.0137849],[139.1246573,36.0137774]]]},"properties":{"layer":"road","class_code":"1040","class_label":"道路"}},{"type":"Feature","id":"tran_8c6ca718-5b46-4d81-b38a-d8239fca79ab","geometry":{"type":"Polygon","coordinates":[[[139.1257678,36.0130852],[139.1257684,36.0131168],[139.1257521,36.0131305],[139.1257361,36.013118],[139.1257333,36.0130866],[139.1257522,36.0130855],[139.1257678,36.0130852]]]},"properties":{"layer":"road","class_code":"1040","class_label":"道路"}},{"type":"Feature","id":"tran_c7100f5f-e397-4dad-ae69-426d9df9d0a4","geometry":{"type":"Polygon","coordinates":[[[139.1257678,36.0130852],[139.1258059,36.0130847],[139.125817,36.0130854],[139.1258142,36.0131169],[139.1258048,36.0131163],[139.1257684,36.0131168],[139.1257678,36.0130852]]]},"properties":{"layer":"road","class_code":"1040","class_label":"道路"}},{"type":"Feature","id":"tran_1167de63-cede-41a4-975b-265d04f4e67f","geometry":{"type":"Polygon","coordinates":[[[139.1258142,36.0131169],[139.125817,36.0130854],[139.1258396,36.0130665],[139.1258826,36.0130762],[139.1258934,36.0130925],[139.1258868,36.0131236],[139.1258554,36.0131192],[139.1258142,36.0131169]]]},"properties":{"layer":"road","class_code":"1040","class_label":"道路"}},{"type":"Feature","id":"tran_2abf5f43-1a54-4d27-ae56-3bebdb49e0b3","geometry":{"type":"Polygon","coordinates":[[[139.1258396,36.0130665],[139.1258569,36.0130307],[139.1258982,36.0130439],[139.1258826,36.0130762],[139.1258396,36.0130665]]]},"properties":{"layer":"road","class_code":"1040","class_label":"道路"}},{"type":"Feature","id":"tran_f7c76b21-e65d-4fef-9c58-64668fe7cf38","geometry":{"type":"Polygon","coordinates":[[[139.1266358,36.0131558],[139.1266492,36.0131638],[139.1266046,36.0132125],[139.1265653,36.0132365],[139.1265267,36.0132544],[139.1264766,36.0132674],[139.1264715,36.0132546],[139.1265199,36.013242],[139.1265561,36.0132251],[139.1265927,36.0132029],[139.1266358,36.0131558]]]},"properties":{"layer":"road","class_code":"1040","class_label":"道路"}},{"type":"Feature","id":"tran_3d2e5979-f79e-4936-8bff-f917fbafa7ee","geometry":{"type":"Polygon","coordinates":[[[139.1258569,36.0130307],[139.1258868,36.0129885],[139.1259155,36.0129518],[139.1259753,36.0128827],[139.1260079,36.012845],[139.1260868,36.0127555],[139.1261646,36.0126711],[139.1262008,36.0126318],[139.1262292,36.012601],[139.1262635,36.0125671],[139.1262887,36.0125452],[139.1263093,36.0125296],[139.1263292,36.0125188],[139.1263382,36.012514],[139.1263737,36.0124988],[139.1264824,36.0124512],[139.1266376,36.012382],[139.1267262,36.012339],[139.1267778,36.0123116],[139.126788,36.0123057],[139.1269718,36.0121651],[139.1270147,36.012114],[139.1270789,36.0120403],[139.1271443,36.0119644],[139.1272029,36.011892],[139.127251,36.0118355],[139.1272781,36.0118073],[139.1273166,36.0117762],[139.1273631,36.0117456],[139.1274325,36.0117113],[139.1274953,36.0116859],[139.1275263,36.0116804],[139.1275543,36.0116815],[139.1275557,36.0116818],[139.1275496,36.0117039],[139.1275286,36.0117031],[139.1275045,36.0117073],[139.1274458,36.0117311],[139.1273791,36.011764],[139.1273352,36.011793],[139.1272989,36.0118223],[139.1272733,36.0118488],[139.127226,36.0119046],[139.1271673,36.0119771],[139.1271015,36.0120533],[139.1270374,36.0121269],[139.1269862,36.012188],[139.1269405,36.0122323],[139.1268922,36.0122698],[139.1268481,36.0122989],[139.1267934,36.0123303],[139.1267409,36.0123582],[139.126651,36.0124018],[139.1265806,36.0124331],[139.1264956,36.0124709],[139.1263867,36.0125186],[139.1263524,36.0125334],[139.1263267,36.0125473],[139.1263083,36.0125612],[139.1262844,36.012582],[139.1262511,36.0126149],[139.1261868,36.0126845],[139.1261679,36.012705],[139.1261092,36.0127688],[139.1260306,36.0128581],[139.1259986,36.0128972],[139.1259433,36.0129665],[139.1259159,36.0130018],[139.1258982,36.0130439],[139.1258569,36.0130307]]]},"properties":{"layer":"road","class_code":"1040","class_label":"道路"}},{"type":"Feature","id":"tran_590d6733-693f-4595-960a-0db4563cc096","geometry":{"type":"Polygon","coordinates":[[[139.1258868,36.0131236],[139.1258934,36.0130925],[139.1259237,36.0130967],[139.126277,36.013159],[139.1263551,36.0131716],[139.1264089,36.0131787],[139.1264761,36.013181],[139.1265026,36.013182],[139.1265339,36.013176],[139.1265681,36.013162],[139.1266102,36.013132],[139.1266358,36.0131558],[139.1265901,36.0131884],[139.1265473,36.0132058],[139.1265086,36.0132132],[139.1264744,36.0132126],[139.1264049,36.0132101],[139.1263482,36.0132026],[139.1262691,36.0131899],[139.1259163,36.0131277],[139.1258868,36.0131236]]]},"properties":{"layer":"road","class_code":"1040","class_label":"道路"}},{"type":"Feature","id":"tran_96ab33c1-fad3-4ec1-914f-1f7ddf580bea","geometry":{"type":"Polygon","coordinates":[[[139.1366678,36.0128619],[139.136691,36.0128582],[139.1366949,36.0128611],[139.1367013,36.0128637],[139.1367123,36.0128654],[139.1367191,36.0128658],[139.1367237,36.0128655],[139.1367304,36.0128643],[139.1367476,36.0129023],[139.1367157,36.0129119],[139.1366651,36.0129279],[139.1366466,36.0128895],[139.1366552,36.0128835],[139.1366618,36.0128784],[139.1366652,36.0128731],[139.1366673,36.0128685],[139.1366679,36.0128645],[139.1366678,36.0128619]]]},"properties":{"layer":"road","class_code":"1040","class_label":"道路"}},{"type":"Feature","id":"tran_949871b0-7542-4734-bffd-181ec8eee269","geometry":{"type":"Polygon","coordinates":[[[139.1328583,36.0113331],[139.132917,36.0113345],[139.1329135,36.0113727],[139.1328352,36.0113885],[139.1327782,36.0114055],[139.1327592,36.0114159],[139.132748,36.0114256],[139.1327177,36.0114777],[139.1326613,36.011456],[139.1326761,36.0114419],[139.1326904,36.011414],[139.1327024,36.0113996],[139.1327229,36.0113872],[139.1327579,36.0113732],[139.1328222,36.011354],[139.1328387,36.0113507],[139.1328583,36.0113331]]]},"properties":{"layer":"road","class_code":"1040","class_label":"道路"}},{"type":"Feature","id":"tran_ee4e3463-8612-449b-bc5a-64cf29ed0ed9","geometry":{"type":"Polygon","coordinates":[[[139.1288756,36.0131107],[139.1289062,36.0131336],[139.12889,36.0131478],[139.1288747,36.0131666],[139.128866,36.0131899],[139.1288623,36.0132088],[139.1288646,36.0132214],[139.1288717,36.0132389],[139.1288838,36.0132525],[139.1289004,36.0132619],[139.1289219,36.0132684],[139.1289487,36.0132699],[139.1290078,36.0132722],[139.1290144,36.0132738],[139.1290435,36.0132819],[139.1290715,36.0132945],[139.1291025,36.0133141],[139.1291388,36.0133425],[139.1291765,36.0133732],[139.1292225,36.0134015],[139.129264,36.0134186],[139.1293219,36.0134364],[139.1293785,36.0134469],[139.1294205,36.0134518],[139.1294624,36.0134511],[139.1295161,36.0134454],[139.1296295,36.0134299],[139.1297091,36.0134216],[139.129749,36.0134216],[139.1297795,36.0134244],[139.1298012,36.0134288],[139.1298198,36.0134351],[139.1298299,36.0134397],[139.1298427,36.0134494],[139.1298529,36.0134599],[139.129862,36.0134898],[139.1298608,36.0135118],[139.1298558,36.0135263],[139.1298473,36.0135408],[139.1298357,36.0135517],[139.1298238,36.0135603],[139.1298012,36.0135708],[139.1297658,36.0135828],[139.1297039,36.0135992],[139.1296651,36.01361],[139.1296533,36.0136152],[139.1296354,36.0136274],[139.1296194,36.0135893],[139.1296917,36.0135693],[139.1297523,36.0135532],[139.129784,36.0135425],[139.1297975,36.0135362],[139.1298053,36.0135276],[139.1298084,36.013513],[139.129807,36.013497],[139.129802,36.0134801],[139.1297906,36.0134684],[139.1297697,36.0134583],[139.1297443,36.0134531],[139.1297116,36.0134532],[139.1296352,36.0134611],[139.1295219,36.0134766],[139.1294654,36.0134827],[139.1294181,36.0134834],[139.1293714,36.0134779],[139.1293106,36.0134667],[139.1292485,36.0134475],[139.1292018,36.0134284],[139.1291509,36.013397],[139.1291116,36.013365],[139.129077,36.0133379],[139.1290501,36.0133209],[139.1290277,36.013311],[139.1290016,36.0133036],[139.1289465,36.0133015],[139.1289135,36.0132996],[139.1288823,36.01329],[139.1288562,36.0132753],[139.1288366,36.0132533],[139.1288267,36.0132288],[139.128823,36.0132086],[139.128828,36.0131828],[139.1288391,36.013153],[139.1288594,36.0131283],[139.1288756,36.0131107]]]},"properties":{"layer":"road","class_code":"1040","class_label":"道路"}},{"type":"Feature","id":"tran_f033f7d3-f26f-4135-aebe-6619b1840804","geometry":{"type":"Polygon","coordinates":[[[139.1326613,36.011456],[139.1327177,36.0114777],[139.1326652,36.0115678],[139.132662,36.0115766],[139.132634,36.0115727],[139.1326323,36.0115571],[139.1326288,36.0115487],[139.1326244,36.0115435],[139.1326173,36.0115385],[139.1326074,36.0115343],[139.1325978,36.0115335],[139.1325915,36.0115337],[139.1325829,36.011535],[139.1325773,36.0115371],[139.1325598,36.0115197],[139.1325754,36.0115093],[139.1326311,36.0114758],[139.1326613,36.011456]]]},"properties":{"layer":"road","class_code":"1040","class_label":"道路"}},{"type":"Feature","id":"tran_a96e3c55-bb14-4604-923a-448236e96e90","geometry":{"type":"Polygon","coordinates":[[[139.1277752,36.0127318],[139.1277755,36.0126987],[139.1278388,36.0126824],[139.1279803,36.0126287],[139.1282258,36.0125007],[139.1284014,36.0124145],[139.1284763,36.0123765],[139.1285446,36.0123441],[139.1286144,36.0123206],[139.1286801,36.0123032],[139.1287544,36.0122927],[139.1288233,36.0122925],[139.1289063,36.0123017],[139.1290069,36.0123209],[139.1291685,36.0123451],[139.1294349,36.0123871],[139.1296453,36.0124188],[139.1296516,36.0124199],[139.1296443,36.0124463],[139.1296385,36.0124452],[139.1294288,36.0124137],[139.1291623,36.0123717],[139.129,36.0123474],[139.1289002,36.0123283],[139.1288211,36.0123195],[139.1287574,36.0123197],[139.1286882,36.0123294],[139.1286259,36.012346],[139.1285595,36.0123683],[139.1284935,36.0123997],[139.1284192,36.0124375],[139.1282469,36.0125272],[139.127999,36.0126564],[139.1278529,36.0127118],[139.1277752,36.0127318]]]},"properties":{"layer":"road","class_code":"1040","class_label":"道路"}},{"type":"Feature","id":"tran_36388c3a-a77a-41c7-9f17-8a865fbc8b52","geometry":{"type":"Polygon","coordinates":[[[139.1271039,36.0125853],[139.1271233,36.0125692],[139.1271708,36.012605],[139.1271502,36.0126202],[139.1271039,36.0125853]]]},"properties":{"layer":"road","class_code":"1040","class_label":"道路"}},{"type":"Feature","id":"tran_96b3f981-66d5-4c9a-8ce6-e816c5758f67","geometry":{"type":"Polygon","coordinates":[[[139.1275662,36.0116754],[139.1276344,36.0116341],[139.1276839,36.0115956],[139.1277355,36.0115443],[139.1277734,36.0114935],[139.1277863,36.0114778],[139.1278235,36.0114323],[139.127857,36.011399],[139.1279338,36.0113217],[139.1280271,36.0112262],[139.1280566,36.0111921],[139.1281427,36.0110856],[139.1281566,36.011093],[139.1280703,36.0111996],[139.1280404,36.0112343],[139.1279468,36.0113301],[139.1278699,36.0114076],[139.1278369,36.0114404],[139.1277875,36.0115008],[139.1277861,36.0115026],[139.1277491,36.0115521],[139.1276961,36.0116048],[139.1276452,36.0116444],[139.1275761,36.0116862],[139.1275662,36.0116754]]]},"properties":{"layer":"road","class_code":"1040","class_label":"道路"}},{"type":"Feature","id":"tran_4c8f4690-ed08-4e94-ac29-ea942e239209","geometry":{"type":"Polygon","coordinates":[[[139.1324462,36.0120212],[139.1326266,36.0116173],[139.1326302,36.0116067],[139.1326313,36.0116001],[139.1326328,36.011584],[139.1326334,36.0115805],[139.132634,36.0115727],[139.132662,36.0115766],[139.1326604,36.0115863],[139.1326594,36.0115967],[139.1326589,36.0116025],[139.1326575,36.0116112],[139.132653,36.0116241],[139.1325493,36.0118565],[139.1325407,36.0118758],[139.1324823,36.0120066],[139.1324722,36.0120289],[139.1324462,36.0120212]]]},"properties":{"layer":"road","class_code":"1040","class_label":"道路"}},{"type":"Feature","id":"tran_c442045a-7e23-485e-ab5a-ed69984a504a","geometry":{"type":"Polygon","coordinates":[[[139.1305499,36.01413],[139.1305535,36.0141309],[139.1305582,36.0141314],[139.1305746,36.0141308],[139.1305999,36.0141284],[139.1306569,36.0141188],[139.1307315,36.0141043],[139.130784,36.0140943],[139.1308143,36.014091],[139.1308435,36.0140908],[139.1308665,36.0140921],[139.130895,36.0140962],[139.1309261,36.0141056],[139.1309603,36.0141204],[139.1309448,36.0141443],[139.1309123,36.0141303],[139.1308862,36.0141224],[139.1308625,36.0141189],[139.1308425,36.0141179],[139.1308166,36.014118],[139.13079,36.0141209],[139.1307392,36.0141306],[139.1306642,36.0141452],[139.1306054,36.0141552],[139.1305909,36.0141565],[139.1305573,36.0141616],[139.1305499,36.01413]]]},"properties":{"layer":"road","class_code":"1040","class_label":"道路"}},{"type":"Feature","id":"tran_56966c4a-602f-4558-8763-e365fb0d2a5a","geometry":{"type":"Polygon","coordinates":[[[139.1308752,36.0142686],[139.1309016,36.014285],[139.1308814,36.0143066],[139.130861,36.0143222],[139.1308316,36.0143354],[139.1307855,36.0143481],[139.1307219,36.0143627],[139.1306603,36.0143746],[139.1305993,36.0143833],[139.1305492,36.014386],[139.1305109,36.0143867],[139.1305071,36.0143597],[139.1305478,36.014359],[139.1305954,36.0143564],[139.1306536,36.0143481],[139.1307135,36.0143365],[139.1307756,36.0143223],[139.1308181,36.0143106],[139.1308413,36.0143001],[139.1308565,36.0142884],[139.1308752,36.0142686]]]},"properties":{"layer":"road","class_code":"1040","class_label":"道路"}},{"type":"Feature","id":"tran_41bf4433-74dd-4b51-be2f-59e8a632b0f1","geometry":{"type":"Polygon","coordinates":[[[139.1304897,36.0146501],[139.1305102,36.0146479],[139.1305392,36.0146477],[139.1305853,36.0146516],[139.1306883,36.0146641],[139.1307783,36.0146822],[139.1309363,36.014712],[139.1310246,36.0147288],[139.1310638,36.0147343],[139.1310901,36.0147339],[139.1311172,36.0147308],[139.1312234,36.0147062],[139.1314548,36.0146372],[139.1315911,36.0145948],[139.1316729,36.0145754],[139.1317691,36.014561],[139.1319165,36.0145507],[139.1321732,36.0145235],[139.132211,36.0145179],[139.1322544,36.0145086],[139.1323331,36.0144846],[139.1324266,36.014451],[139.1325709,36.0143921],[139.1326957,36.014345],[139.1328153,36.0143105],[139.1329239,36.0142964],[139.1330112,36.0142941],[139.1330792,36.0143009],[139.1331436,36.0143186],[139.1332569,36.0143616],[139.1334247,36.0144273],[139.1335096,36.0144472],[139.1335594,36.0144538],[139.1336066,36.0144566],[139.1336511,36.0144556],[139.1338129,36.0144409],[139.133959,36.0144213],[139.1341347,36.0143905],[139.1342097,36.0143749],[139.134244,36.0143666],[139.1342813,36.0143567],[139.134317,36.0143435],[139.1343592,36.0143242],[139.1344589,36.0142665],[139.1346045,36.0141791],[139.1347544,36.0140846],[139.1348171,36.0140405],[139.1348501,36.0140124],[139.1348812,36.0139744],[139.13491,36.0139327],[139.1349534,36.0138604],[139.1350083,36.0137563],[139.1350466,36.0136683],[139.1350524,36.0136446],[139.1350564,36.013623],[139.1350585,36.0136044],[139.1350599,36.0135819],[139.1350603,36.0135546],[139.1350619,36.0135222],[139.1350644,36.0134764],[139.13507,36.0133945],[139.1350709,36.0133595],[139.1350703,36.013335],[139.1350665,36.0133054],[139.1351032,36.013257],[139.1351404,36.0132209],[139.1351755,36.0131956],[139.1352126,36.0131791],[139.1352426,36.0131707],[139.1352683,36.0131667],[139.1354505,36.0131556],[139.1355528,36.0131444],[139.1357124,36.0131314],[139.1357702,36.0131288],[139.13582,36.0131241],[139.1358716,36.0131154],[139.1359305,36.0131055],[139.1359777,36.0130945],[139.1360924,36.0130635],[139.1362277,36.0130236],[139.1363566,36.0129864],[139.136441,36.0129617],[139.1365669,36.0129203],[139.1366236,36.0129023],[139.1366315,36.0128987],[139.1366466,36.0128895],[139.1366651,36.0129279],[139.1365833,36.0129538],[139.1364568,36.0129953],[139.1363715,36.0130203],[139.1362427,36.0130576],[139.1361071,36.0130974],[139.1359908,36.013129],[139.1359412,36.0131406],[139.1358806,36.0131507],[139.1358271,36.0131597],[139.135774,36.0131647],[139.1357159,36.0131673],[139.1355579,36.0131802],[139.1352614,36.0132127],[139.1352274,36.0132163],[139.1351995,36.0132255],[139.1351702,36.0132474],[139.1351501,36.0132711],[139.135135,36.0132962],[139.1351293,36.0133232],[139.1351256,36.0133518],[139.1351227,36.0133894],[139.135124,36.0134251],[139.1351286,36.013522],[139.1351234,36.0135474],[139.1351109,36.0135938],[139.135095,36.0136382],[139.1350394,36.0137662],[139.1349836,36.0138716],[139.1349396,36.0139453],[139.1349097,36.0139885],[139.1348762,36.0140293],[139.1348401,36.0140601],[139.1347755,36.0141055],[139.1346246,36.0142007],[139.1344785,36.0142884],[139.1343771,36.014347],[139.134332,36.0143677],[139.1342934,36.0143819],[139.134254,36.0143924],[139.1342185,36.0144009],[139.1341423,36.0144168],[139.1339652,36.0144479],[139.1338179,36.0144676],[139.1336138,36.0144908],[139.1335555,36.0144899],[139.1334984,36.0144822],[139.1334096,36.0144564],[139.1332403,36.0143902],[139.133129,36.014348],[139.1330705,36.0143317],[139.1330094,36.0143257],[139.1329278,36.0143279],[139.1328249,36.0143412],[139.1327084,36.01437],[139.1325853,36.0144164],[139.1324408,36.0144754],[139.1323456,36.0145097],[139.1322645,36.0145343],[139.1322182,36.0145443],[139.1321793,36.0145502],[139.1319198,36.0145777],[139.1317735,36.0145878],[139.1316806,36.0146018],[139.1316018,36.0146205],[139.1314664,36.0146625],[139.1312337,36.0147319],[139.1311241,36.0147573],[139.1310929,36.0147608],[139.1310614,36.0147615],[139.1310179,36.0147553],[139.1309288,36.0147383],[139.1307705,36.0147085],[139.1306818,36.0146906],[139.1305811,36.0146784],[139.1305376,36.0146747],[139.1305127,36.0146749],[139.1304941,36.0146769],[139.1304897,36.0146501]]]},"properties":{"layer":"road","class_code":"1040","class_label":"道路"}},{"type":"Feature","id":"tran_659738d1-2d11-4eab-a90e-ff9fb039c666","geometry":{"type":"Polygon","coordinates":[[[139.1304737,36.0141803],[139.130474,36.014178],[139.130481,36.0141295],[139.1304861,36.0140961],[139.1305158,36.0140991],[139.1305199,36.0141085],[139.1305272,36.0141175],[139.1305345,36.0141235],[139.1305394,36.0141261],[139.1305499,36.01413],[139.1305573,36.0141616],[139.1305432,36.0141638],[139.130533,36.0141664],[139.1305197,36.0141723],[139.13051,36.0141788],[139.1305058,36.0141834],[139.1304737,36.0141803]]]},"properties":{"layer":"road","class_code":"1040","class_label":"道路"}},{"type":"Feature","id":"tran_55ffa40d-3ce9-4ba3-b160-06df67032f69","geometry":{"type":"Polygon","coordinates":[[[139.1304737,36.0141803],[139.1305058,36.0141834],[139.1305012,36.0141917],[139.130499,36.0141978],[139.1304878,36.0142764],[139.1304781,36.0143269],[139.1304784,36.0143346],[139.1304801,36.01434],[139.1304481,36.014337],[139.1304603,36.0142734],[139.1304737,36.0141803]]]},"properties":{"layer":"road","class_code":"1040","class_label":"道路"}},{"type":"Feature","id":"tran_6def4819-e1a1-4b53-beb3-03cfd9b0a335","geometry":{"type":"Polygon","coordinates":[[[139.1266102,36.013132],[139.1266259,36.0131208],[139.1266793,36.0130786],[139.1267064,36.0131012],[139.1266492,36.0131638],[139.1266358,36.0131558],[139.1266102,36.013132]]]},"properties":{"layer":"road","class_code":"1040","class_label":"道路"}},{"type":"Feature","id":"tran_9a040b12-de46-422b-9439-2b24b3abd450","geometry":{"type":"Polygon","coordinates":[[[139.1304402,36.0143786],[139.1304481,36.014337],[139.1304801,36.01434],[139.1304822,36.0143442],[139.1304856,36.0143493],[139.1304891,36.014353],[139.1304944,36.0143568],[139.1305017,36.0143591],[139.1305071,36.0143597],[139.1305109,36.0143867],[139.1305028,36.0143878],[139.1304852,36.0143932],[139.1304402,36.0143786]]]},"properties":{"layer":"road","class_code":"1040","class_label":"道路"}},{"type":"Feature","id":"tran_4201a861-7cce-4f98-9ae4-111fd6e3147a","geometry":{"type":"Polygon","coordinates":[[[139.1275268,36.0127352],[139.1275788,36.0127431],[139.1275878,36.0127737],[139.1275735,36.0127765],[139.1275343,36.0127876],[139.1275216,36.0127578],[139.1275268,36.0127352]]]},"properties":{"layer":"road","class_code":"1040","class_label":"道路"}},{"type":"Feature","id":"tran_440108dd-acdd-47f1-b311-de0e1eb5d361","geometry":{"type":"Polygon","coordinates":[[[139.1271502,36.0126202],[139.1271708,36.012605],[139.1272127,36.0126366],[139.1272755,36.0126753],[139.1273259,36.0126962],[139.1273869,36.0127138],[139.1275268,36.0127352],[139.1275216,36.0127578],[139.1275182,36.0127567],[139.1273796,36.0127355],[139.1273148,36.0127169],[139.1272606,36.0126944],[139.1271948,36.0126539],[139.1271502,36.0126202]]]},"properties":{"layer":"road","class_code":"1040","class_label":"道路"}},{"type":"Feature","id":"tran_dc67dd1f-6a19-4d64-864f-68a2ed000d15","geometry":{"type":"Polygon","coordinates":[[[139.1304402,36.0143786],[139.1304852,36.0143932],[139.1304693,36.0144024],[139.1304566,36.0144153],[139.1304484,36.0144295],[139.1304166,36.0144075],[139.1304244,36.0144036],[139.1304271,36.0144015],[139.1304324,36.0143954],[139.1304345,36.014392],[139.1304388,36.0143832],[139.1304402,36.0143786]]]},"properties":{"layer":"road","class_code":"1040","class_label":"道路"}},{"type":"Feature","id":"tran_2b5ea260-96fa-4579-a1af-451a5e5e7689","geometry":{"type":"Polygon","coordinates":[[[139.1266733,36.012541],[139.1267174,36.012529],[139.1267635,36.0125114],[139.1268111,36.0124913],[139.1268358,36.0124807],[139.1268808,36.0124738],[139.1269294,36.0124761],[139.1269852,36.0124899],[139.1270647,36.012525],[139.1271233,36.0125692],[139.1271039,36.0125853],[139.1270484,36.0125434],[139.1269745,36.0125108],[139.1269246,36.0124984],[139.1268826,36.0124965],[139.126845,36.0125022],[139.126824,36.0125113],[139.1267758,36.0125316],[139.1267278,36.01255],[139.1266821,36.0125623],[139.1266733,36.012541]]]},"properties":{"layer":"road","class_code":"1040","class_label":"道路"}},{"type":"Feature","id":"tran_8643f427-716d-4569-bd1b-8701c82b8064","geometry":{"type":"Polygon","coordinates":[[[139.1277755,36.0126987],[139.1277752,36.0127318],[139.1276863,36.0127546],[139.1275878,36.0127737],[139.1275788,36.0127431],[139.1276759,36.0127242],[139.1277755,36.0126987]]]},"properties":{"layer":"road","class_code":"1040","class_label":"道路"}},{"type":"Feature","id":"tran_d0af529e-fd93-4ac4-969f-7f46c2f347af","geometry":{"type":"Polygon","coordinates":[[[139.1266793,36.0130786],[139.1267068,36.0130568],[139.1267661,36.0130088],[139.1268158,36.0129775],[139.1268621,36.0129538],[139.1269432,36.0129264],[139.1269915,36.0129124],[139.1270416,36.0129313],[139.1269571,36.0129558],[139.1268801,36.0129819],[139.1268381,36.0130035],[139.1267917,36.0130326],[139.1267341,36.0130793],[139.1267064,36.0131012],[139.1266793,36.0130786]]]},"properties":{"layer":"road","class_code":"1040","class_label":"道路"}},{"type":"Feature","id":"tran_3aa8ea2c-5174-4502-b3d0-74981bf15471","geometry":{"type":"Polygon","coordinates":[[[139.1257333,36.0130866],[139.1257361,36.013118],[139.1257088,36.0131197],[139.1256558,36.0131259],[139.1252913,36.0131835],[139.1251493,36.013204],[139.1251425,36.0131729],[139.1252842,36.0131525],[139.1256493,36.0130949],[139.1257047,36.0130883],[139.1257333,36.0130866]]]},"properties":{"layer":"road","class_code":"1040","class_label":"道路"}},{"type":"Feature","id":"tran_3aba7a20-a353-4a25-9df1-19c0c68739fc","geometry":{"type":"Polygon","coordinates":[[[139.1275761,36.0116862],[139.1275773,36.0116864],[139.1275962,36.0116962],[139.127616,36.011712],[139.1276368,36.011738],[139.1276654,36.0117902],[139.1276862,36.0118226],[139.1276956,36.0118338],[139.1276728,36.0118466],[139.1276624,36.0118342],[139.1276404,36.0118],[139.1276123,36.0117488],[139.1275943,36.0117263],[139.1275789,36.0117139],[139.127566,36.0117073],[139.1275761,36.0116862]]]},"properties":{"layer":"road","class_code":"1040","class_label":"道路"}},{"type":"Feature","id":"tran_63c08a33-86f2-44b3-bf18-453cd80248bb","geometry":{"type":"Polygon","coordinates":[[[139.1303936,36.0146526],[139.1304025,36.0146465],[139.1304063,36.0146422],[139.130411,36.014635],[139.130416,36.0146255],[139.1304178,36.0146161],[139.1304509,36.0146131],[139.1304527,36.0146269],[139.1304559,36.0146339],[139.1304602,36.0146395],[139.1304663,36.0146445],[139.1304734,36.0146481],[139.1304796,36.0146496],[139.1304897,36.0146501],[139.1304941,36.0146769],[139.130463,36.0146803],[139.1304054,36.0146917],[139.1303936,36.0146526]]]},"properties":{"layer":"road","class_code":"1040","class_label":"道路"}},{"type":"Feature","id":"tran_0de75dfd-4b96-4bbf-8d54-fb562fbf8950","geometry":{"type":"Polygon","coordinates":[[[139.1304415,36.0144512],[139.130437,36.0144837],[139.1304363,36.0145038],[139.130439,36.0145255],[139.1304419,36.0145559],[139.1304471,36.0145854],[139.1304509,36.0146131],[139.1304178,36.0146161],[139.1304141,36.0145889],[139.1304089,36.0145589],[139.1304058,36.0145279],[139.130399,36.0144713],[139.1303979,36.014468],[139.1303891,36.0144505],[139.1304415,36.0144512]]]},"properties":{"layer":"road","class_code":"1040","class_label":"道路"}},{"type":"Feature","id":"tran_38a4c155-42a7-4d1c-a818-fec9b458bd7b","geometry":{"type":"Polygon","coordinates":[[[139.1303681,36.0144269],[139.1303804,36.0144061],[139.130388,36.0144091],[139.1303982,36.0144103],[139.1304031,36.0144102],[139.1304114,36.0144092],[139.1304166,36.0144075],[139.1304484,36.0144295],[139.1304415,36.0144512],[139.1303891,36.0144505],[139.1303792,36.0144366],[139.1303681,36.0144269]]]},"properties":{"layer":"road","class_code":"1040","class_label":"道路"}},{"type":"Feature","id":"tran_a48b7db8-5c20-4db0-a1ec-4d43dc56b1d2","geometry":{"type":"Polygon","coordinates":[[[139.1299985,36.014336],[139.1299991,36.0143135],[139.1301302,36.0143162],[139.1301757,36.0143191],[139.1302143,36.0143239],[139.1302497,36.0143352],[139.1302892,36.014353],[139.1303458,36.0143849],[139.1303804,36.0144061],[139.1303681,36.0144269],[139.1303296,36.0144032],[139.1302746,36.0143722],[139.1302378,36.0143556],[139.130207,36.0143458],[139.1301725,36.0143416],[139.1301288,36.0143386],[139.1299985,36.014336]]]},"properties":{"layer":"road","class_code":"1040","class_label":"道路"}},{"type":"Feature","id":"tran_e8ec5799-5885-4a6f-8d10-5a2baed3ddb0","geometry":{"type":"Polygon","coordinates":[[[139.1296936,36.0124276],[139.1297971,36.0124465],[139.1299168,36.0124618],[139.1299938,36.0124655],[139.1300407,36.0124608],[139.1301194,36.0124397],[139.1302367,36.0123836],[139.1303374,36.0123333],[139.1303933,36.0123122],[139.1304208,36.0123065],[139.1304635,36.0123034],[139.1307611,36.0123058],[139.1309658,36.0123129],[139.1311287,36.0123045],[139.1312455,36.0122916],[139.1313551,36.0122748],[139.1314308,36.0122565],[139.131464,36.0122448],[139.1315309,36.0122065],[139.1317339,36.0120642],[139.1320178,36.01188],[139.132235,36.0117297],[139.1324474,36.0115941],[139.1325598,36.0115197],[139.1325773,36.0115371],[139.1324648,36.0116117],[139.1322525,36.0117472],[139.1320354,36.0118973],[139.1317516,36.0120816],[139.131548,36.0122243],[139.1314777,36.0122645],[139.1314404,36.0122776],[139.1313617,36.0122967],[139.1312499,36.0123139],[139.1311313,36.0123269],[139.1309676,36.0123354],[139.1307604,36.0123329],[139.1304648,36.0123304],[139.1304264,36.0123332],[139.1304045,36.0123378],[139.1303532,36.0123571],[139.1302539,36.0124068],[139.1301331,36.0124645],[139.130048,36.0124872],[139.1299949,36.0124927],[139.1299133,36.0124888],[139.1297908,36.0124732],[139.1296863,36.012454],[139.1296936,36.0124276]]]},"properties":{"layer":"road","class_code":"1040","class_label":"道路"}},{"type":"Feature","id":"tran_00f58925-0ecf-41c5-8e3a-8057f719c004","geometry":{"type":"Polygon","coordinates":[[[139.1296443,36.0124463],[139.1296516,36.0124199],[139.1296936,36.0124276],[139.1296863,36.012454],[139.1296749,36.0124658],[139.1296443,36.0124463]]]},"properties":{"layer":"road","class_code":"1040","class_label":"道路"}},{"type":"Feature","id":"tran_26fb9036-82d6-4923-afc5-00ab96b213d7","geometry":{"type":"Polygon","coordinates":[[[139.1296102,36.0136719],[139.1296106,36.0136802],[139.1296127,36.0136874],[139.1296178,36.0136955],[139.1296217,36.0136995],[139.129631,36.0137059],[139.1296403,36.0137104],[139.1296486,36.0137131],[139.1296594,36.0137148],[139.129667,36.0137146],[139.1296771,36.0137132],[139.1296875,36.0137106],[139.129729,36.0136971],[139.1298304,36.0136708],[139.1299659,36.0136408],[139.1300988,36.0136076],[139.1302005,36.0135838],[139.1302643,36.0135733],[139.1303117,36.013568],[139.1303538,36.0135683],[139.1303769,36.0135703],[139.1303929,36.0135733],[139.1304091,36.0135786],[139.1304201,36.0135834],[139.1304323,36.0135902],[139.130442,36.0135978],[139.1304531,36.0136114],[139.1304578,36.0136217],[139.1304606,36.0136332],[139.1304611,36.0136432],[139.1304599,36.0136551],[139.130457,36.0136646],[139.1304524,36.0136746],[139.1304419,36.0136891],[139.1304342,36.0136958],[139.1304163,36.0137063],[139.1303936,36.0137152],[139.130346,36.0137293],[139.1302704,36.0137488],[139.1302188,36.0137651],[139.1301907,36.0137776],[139.130172,36.013793],[139.1301628,36.0138116],[139.130161,36.0138277],[139.1301669,36.0138448],[139.1301787,36.0138592],[139.1301942,36.0138681],[139.1302126,36.0138725],[139.1302316,36.0138724],[139.1303265,36.0138596],[139.1303823,36.0138535],[139.1304143,36.0138532],[139.1304182,36.0138537],[139.1304421,36.0138581],[139.1304667,36.0138706],[139.1304877,36.0138898],[139.130505,36.013912],[139.1305181,36.0139381],[139.1305227,36.0139655],[139.1305241,36.0139975],[139.1305222,36.0140434],[139.1305149,36.0140907],[139.1305158,36.0140991],[139.1304861,36.0140961],[139.1304944,36.0140416],[139.1304963,36.0139982],[139.1304933,36.0139708],[139.1304873,36.0139483],[139.1304754,36.0139244],[139.1304611,36.0139062],[139.130445,36.0138915],[139.1304293,36.0138834],[139.1304121,36.0138802],[139.1303847,36.0138805],[139.1303315,36.0138863],[139.1302343,36.0138994],[139.130209,36.0139023],[139.130186,36.0138997],[139.1301652,36.0138923],[139.1301448,36.0138791],[139.1301301,36.0138634],[139.1301188,36.0138435],[139.1301126,36.0138268],[139.1301128,36.0138105],[139.1301181,36.0137914],[139.1301308,36.013773],[139.13015,36.0137527],[139.1301862,36.0137302],[139.1302308,36.0137087],[139.1302367,36.0137063],[139.1302468,36.0137031],[139.1302547,36.0137015],[139.1302886,36.0136978],[139.1303852,36.0136877],[139.1303903,36.0136864],[139.1303992,36.013683],[139.1304112,36.013676],[139.1304158,36.0136718],[139.1304222,36.013663],[139.1304268,36.0136529],[139.1304282,36.0136392],[139.1304255,36.0136287],[139.1304218,36.013622],[139.1304166,36.0136156],[139.1304098,36.0136105],[139.1303996,36.0136047],[139.1303781,36.0135977],[139.1303519,36.0135953],[139.1303138,36.013595],[139.1302698,36.0136],[139.1302085,36.0136101],[139.1301082,36.0136335],[139.1299753,36.0136668],[139.1298408,36.0136965],[139.1297435,36.0137263],[139.1297002,36.0137405],[139.1296825,36.0137447],[139.1296712,36.0137461],[139.1296577,36.0137464],[139.1296391,36.0137439],[139.1296194,36.0137377],[139.1296086,36.0137318],[139.1295929,36.0137209],[139.1295853,36.0137132],[139.1295759,36.0136981],[139.1295694,36.0136841],[139.1295675,36.0136786],[139.1296102,36.0136719]]]},"properties":{"layer":"road","class_code":"1040","class_label":"道路"}},{"type":"Feature","id":"tran_f97331f8-80f5-4768-942d-8de3b374ee9c","geometry":{"type":"Polygon","coordinates":[[[139.1295111,36.0136157],[139.1295285,36.0136538],[139.1295061,36.0136559],[139.1294777,36.0136625],[139.1294076,36.0136862],[139.1293472,36.0137076],[139.1292997,36.0137281],[139.1292541,36.0137508],[139.1292001,36.0137775],[139.1291487,36.0138018],[139.1290959,36.0138249],[139.1290587,36.0138402],[139.1289891,36.0138616],[139.1289763,36.0138319],[139.1290341,36.0138173],[139.1290969,36.0137989],[139.1291351,36.0137822],[139.129186,36.0137581],[139.1292396,36.0137315],[139.129286,36.0137084],[139.1293352,36.0136873],[139.1293967,36.0136654],[139.1294477,36.0136482],[139.129455,36.0136437],[139.1294694,36.0136303],[139.1294758,36.0136258],[139.1294991,36.0136194],[139.1295111,36.0136157]]]},"properties":{"layer":"road","class_code":"1040","class_label":"道路"}},{"type":"Feature","id":"tran_2f8579ff-479c-4b96-8ff1-2a61dff49ff6","geometry":{"type":"Polygon","coordinates":[[[139.1296378,36.0129127],[139.1296045,36.0129074],[139.129572,36.0128963],[139.1295063,36.0128668],[139.1294075,36.0128162],[139.1292386,36.0127169],[139.1291448,36.0126732],[139.1291226,36.0126572],[139.1291105,36.0126441],[139.1291029,36.01263],[139.1291008,36.0126115],[139.1291022,36.0125951],[139.1291104,36.0125807],[139.1291289,36.0125684],[139.1291537,36.0125609],[139.1292514,36.0125505],[139.1293035,36.0125484],[139.129406,36.0125441],[139.1294572,36.0125361],[139.1295025,36.0125274],[139.129544,36.0125137],[139.1295764,36.0125002],[139.1296024,36.0124845],[139.1296265,36.0124646],[139.1296443,36.0124463],[139.1296749,36.0124658],[139.1296557,36.0124856],[139.1296279,36.0125084],[139.129597,36.0125271],[139.1295601,36.0125425],[139.1295143,36.0125575],[139.1294654,36.0125669],[139.1294111,36.0125755],[139.1293142,36.0125812],[139.1292572,36.0125862],[139.1291645,36.0125961],[139.1291563,36.0125999],[139.1291529,36.0126035],[139.1291523,36.0126081],[139.1291537,36.0126109],[139.1291564,36.0126133],[139.1291618,36.0126165],[139.129194,36.0126353],[139.129276,36.0126944],[139.1294323,36.0127864],[139.1295289,36.0128358],[139.1295913,36.0128638],[139.1296174,36.0128727],[139.1296398,36.0128763],[139.1296569,36.0128748],[139.1296763,36.0128701],[139.129736,36.012838],[139.129784,36.0128161],[139.1298107,36.0128084],[139.129838,36.0128031],[139.129863,36.0128021],[139.1298863,36.0128058],[139.1299051,36.0128172],[139.129917,36.0128334],[139.1299205,36.0128528],[139.1299161,36.0128752],[139.1299068,36.012896],[139.1297477,36.0131315],[139.1297385,36.0131418],[139.1297182,36.0131579],[139.1297085,36.0131634],[139.1296825,36.0131744],[139.1296491,36.0131828],[139.1296066,36.0131892],[139.1295505,36.0131891],[139.1295328,36.0131869],[139.1293817,36.0131495],[139.1293583,36.0131451],[139.1293375,36.013143],[139.1292569,36.0131419],[139.1292098,36.0131406],[139.1291748,36.0131372],[139.1291164,36.0131292],[139.129041,36.0131164],[139.1290061,36.0131135],[139.1289772,36.0131137],[139.1289515,36.0131167],[139.1289302,36.0131225],[139.1289173,36.0130846],[139.1289452,36.013081],[139.128974,36.0130777],[139.1290082,36.0130775],[139.1290477,36.0130807],[139.1291247,36.0130937],[139.1291812,36.0131016],[139.1292131,36.0131047],[139.129258,36.0131058],[139.1293407,36.0131069],[139.1293662,36.0131095],[139.1293932,36.0131147],[139.1295405,36.0131512],[139.1295568,36.0131531],[139.1296026,36.0131531],[139.1296384,36.0131477],[139.1296655,36.0131409],[139.1296884,36.0131313],[139.1297077,36.0131159],[139.1298662,36.0128812],[139.1298729,36.0128662],[139.1298755,36.0128526],[139.1298743,36.0128456],[139.1298715,36.0128418],[139.1298679,36.0128397],[139.1298597,36.0128383],[139.1298443,36.0128389],[139.1298234,36.012843],[139.1298025,36.012849],[139.129759,36.0128688],[139.1296954,36.012903],[139.1296658,36.0129103],[139.1296378,36.0129127]]]},"properties":{"layer":"road","class_code":"1040","class_label":"道路"}},{"type":"Feature","id":"tran_17f5628f-a412-4ad0-a856-e0d15135e96b","geometry":{"type":"Polygon","coordinates":[[[139.1288778,36.0130889],[139.1288907,36.0130804],[139.1288957,36.0130829],[139.1289048,36.0130845],[139.1289132,36.0130848],[139.1289173,36.0130846],[139.1289302,36.0131225],[139.1289075,36.0131324],[139.1289062,36.0131336],[139.1288756,36.0131107],[139.1288781,36.0131063],[139.1288797,36.0131007],[139.1288795,36.0130934],[139.1288778,36.0130889]]]},"properties":{"layer":"road","class_code":"1040","class_label":"道路"}},{"type":"Feature","id":"tran_87e3601a-9c56-4e1d-983c-018f4b8201a9","geometry":{"type":"Polygon","coordinates":[[[139.1295111,36.0136157],[139.1295309,36.0136097],[139.1295591,36.0136041],[139.1295966,36.0135956],[139.1296194,36.0135893],[139.1296354,36.0136274],[139.1296211,36.0136423],[139.1296132,36.0136573],[139.1296102,36.0136719],[139.1295675,36.0136786],[139.1295618,36.0136689],[139.1295563,36.0136631],[139.1295509,36.0136594],[139.1295419,36.0136558],[139.1295285,36.0136538],[139.1295111,36.0136157]]]},"properties":{"layer":"road","class_code":"1040","class_label":"道路"}},{"type":"Feature","id":"tran_c7030fba-bd55-45c8-8784-2fff0900d8e5","geometry":{"type":"Polygon","coordinates":[[[139.1269915,36.0129124],[139.1270138,36.0129059],[139.1270639,36.0129248],[139.1270569,36.0129371],[139.1270416,36.0129313],[139.1269915,36.0129124]]]},"properties":{"layer":"road","class_code":"1040","class_label":"道路"}},{"type":"Feature","id":"tran_1432d7f8-2319-4ee1-b88a-7baba7c10612","geometry":{"type":"Polygon","coordinates":[[[139.1275216,36.0127578],[139.1275343,36.0127876],[139.1273746,36.0128327],[139.1271711,36.0128937],[139.1270639,36.0129248],[139.1270138,36.0129059],[139.1271578,36.0128641],[139.1273615,36.0128029],[139.1275216,36.0127578]]]},"properties":{"layer":"road","class_code":"1040","class_label":"道路"}},{"type":"Feature","id":"tran_11d7bee5-7920-41ac-bfd9-4cea624d3c8b","geometry":{"type":"Polygon","coordinates":[[[139.1250806,36.0131819],[139.1251425,36.0131729],[139.1251493,36.013204],[139.1251391,36.0132533],[139.1251087,36.0132539],[139.1250874,36.013213],[139.1250806,36.0131819]]]},"properties":{"layer":"road","class_code":"1040","class_label":"道路"}},{"type":"Feature","id":"tran_aa8966d7-7f59-4390-85eb-5b1b5335547e","geometry":{"type":"Polygon","coordinates":[[[139.1288778,36.0130889],[139.1288392,36.0130494],[139.128815,36.0130315],[139.1287885,36.0130209],[139.1287578,36.0130184],[139.1287323,36.0130209],[139.1286624,36.0130383],[139.128366,36.0131148],[139.1282528,36.0131429],[139.1281959,36.0131709],[139.1281456,36.0132047],[139.128102,36.0132424],[139.1280597,36.0132946],[139.1280555,36.0132999],[139.1280488,36.013307],[139.1280471,36.0133083],[139.1280448,36.0133093],[139.1280398,36.0133108],[139.1280351,36.013312],[139.1280315,36.0133122],[139.1280281,36.0133124],[139.1280248,36.0133121],[139.1280184,36.0133104],[139.1280139,36.0133088],[139.1280118,36.0133075],[139.128009,36.0133052],[139.1280063,36.0133014],[139.1280032,36.0132953],[139.1280023,36.0132912],[139.128002,36.013287],[139.128002,36.0132841],[139.1280062,36.0132459],[139.12801,36.0132335],[139.1280355,36.0131822],[139.1280629,36.0131362],[139.1280675,36.0131243],[139.1280694,36.0131184],[139.1280697,36.0131146],[139.1280691,36.0131097],[139.1280682,36.0131066],[139.1280658,36.0131031],[139.1280644,36.0131015],[139.1280636,36.0131012],[139.1280598,36.0130999],[139.1280573,36.0130996],[139.1280528,36.0130996],[139.1280492,36.0131003],[139.1280464,36.013101],[139.1280443,36.0131019],[139.1280171,36.0131177],[139.1279802,36.0131426],[139.1279411,36.0131666],[139.1279359,36.0131685],[139.1279312,36.0131695],[139.1279272,36.0131696],[139.127922,36.0131691],[139.1279177,36.0131683],[139.1279141,36.0131672],[139.1279106,36.0131656],[139.1279081,36.0131632],[139.1279039,36.0131585],[139.1279015,36.0131568],[139.1278988,36.0131562],[139.1278949,36.0131556],[139.1278913,36.0131558],[139.1278875,36.0131565],[139.127883,36.0131581],[139.1277773,36.0132067],[139.1277709,36.0132088],[139.1276971,36.0132332],[139.1276428,36.0132337],[139.1276039,36.0132241],[139.1275756,36.0132049],[139.1275306,36.0131586],[139.1274792,36.0131238],[139.1274297,36.0130939],[139.1273286,36.0130499],[139.1272632,36.0130216],[139.127163,36.0129772],[139.1270569,36.0129371],[139.1270639,36.0129248],[139.1271705,36.0129651],[139.1272711,36.0130098],[139.1273365,36.0130379],[139.1274386,36.0130824],[139.1274895,36.0131132],[139.1275426,36.0131492],[139.1275875,36.0131954],[139.1276119,36.013212],[139.1276451,36.0132201],[139.1276938,36.0132198],[139.12777,36.0131945],[139.127771,36.0131941],[139.1278754,36.013146],[139.1278824,36.0131434],[139.127889,36.0131424],[139.1278956,36.013142],[139.1279026,36.013143],[139.1279098,36.0131447],[139.1279163,36.0131495],[139.1279213,36.0131549],[139.1279224,36.0131553],[139.1279246,36.0131557],[139.1279279,36.013156],[139.1279288,36.013156],[139.1279302,36.0131556],[139.1279324,36.013155],[139.1279698,36.013132],[139.128007,36.013107],[139.1280357,36.0130903],[139.1280401,36.0130884],[139.1280448,36.0130873],[139.128051,36.013086],[139.1280586,36.0130861],[139.128064,36.0130867],[139.1280713,36.013089],[139.1280758,36.0130915],[139.1280799,36.0130958],[139.1280839,36.0131018],[139.1280855,36.0131074],[139.1280864,36.0131145],[139.1280858,36.0131205],[139.1280836,36.013128],[139.1280787,36.0131405],[139.1280508,36.0131877],[139.1280261,36.0132371],[139.1280227,36.0132483],[139.1280186,36.0132848],[139.1280186,36.0132867],[139.1280188,36.0132896],[139.1280192,36.0132915],[139.1280212,36.0132954],[139.1280217,36.0132962],[139.1280234,36.0132974],[139.1280243,36.0132978],[139.1280283,36.0132988],[139.1280287,36.0132988],[139.1280305,36.0132988],[139.128032,36.0132986],[139.1280345,36.013298],[139.1280357,36.0132977],[139.128038,36.0132963],[139.1280418,36.0132922],[139.1280457,36.0132873],[139.128089,36.013234],[139.1281341,36.0131948],[139.1281864,36.0131598],[139.128246,36.0131304],[139.128361,36.0131019],[139.1286574,36.0130255],[139.1287287,36.0130076],[139.1287576,36.0130047],[139.1287932,36.0130077],[139.1288244,36.0130202],[139.1288514,36.0130401],[139.1288907,36.0130804],[139.1288778,36.0130889]]]},"properties":{"layer":"road","class_code":"1040","class_label":"道路"}}]}