{"type":"FeatureCollection","properties":{"mesh_code":"54390008","source":"PLATEAU秩父市2025","layer":"road"},"features":[{"type":"Feature","id":"tran_5be660fb-6e79-4752-b691-6904a894fe5a","geometry":{"type":"Polygon","coordinates":[[[139.1111163,36.006733],[139.1111524,36.0067214],[139.1112035,36.0068258],[139.1112403,36.006875],[139.1112864,36.0069258],[139.1112507,36.0069473],[139.1112032,36.0068951],[139.1111824,36.006867],[139.1111861,36.0068633],[139.1111687,36.0068398],[139.1111163,36.006733]]]},"properties":{"layer":"road","class_code":"1040","class_label":"道路"}},{"type":"Feature","id":"tran_a5e3337b-f1f1-4ce2-8aa6-3a0efb301c2c","geometry":{"type":"Polygon","coordinates":[[[139.1114227,36.0070137],[139.1116088,36.0069076],[139.1116399,36.0069437],[139.1115449,36.0069982],[139.1114775,36.0070368],[139.1114542,36.0070502],[139.1114227,36.0070137]]]},"properties":{"layer":"road","class_code":"1040","class_label":"道路"}},{"type":"Feature","id":"tran_ea74ea66-cd0c-4051-9070-130725eadae4","geometry":{"type":"Polygon","coordinates":[[[139.1100894,36.0078021],[139.1101275,36.0077753],[139.1101601,36.007806],[139.110175,36.0078289],[139.1101407,36.0078437],[139.1101211,36.007832],[139.1100894,36.0078021]]]},"properties":{"layer":"road","class_code":"1040","class_label":"道路"}},{"type":"Feature","id":"tran_ae24a7c0-fde2-48ff-ae11-a456a50aeced","geometry":{"type":"Polygon","coordinates":[[[139.1114922,36.0081459],[139.111502,36.008144],[139.1115154,36.0081887],[139.1114138,36.0082249],[139.1114123,36.0082222],[139.1113907,36.0081821],[139.1114922,36.0081459]]]},"properties":{"layer":"road","class_code":"1040","class_label":"道路"}},{"type":"Feature","id":"tran_f9517b2a-58e3-4f02-8546-dc63bedb9890","geometry":{"type":"Polygon","coordinates":[[[139.111103,36.0067054],[139.1111336,36.0066903],[139.1111441,36.0067044],[139.1111524,36.0067214],[139.1111163,36.006733],[139.1111052,36.0067336],[139.111103,36.0067054]]]},"properties":{"layer":"road","class_code":"1040","class_label":"道路"}},{"type":"Feature","id":"tran_81985975-ddd1-4f2b-a5a4-4e22ff4188f4","geometry":{"type":"Polygon","coordinates":[[[139.1113954,36.0070292],[139.1114227,36.0070137],[139.1114542,36.0070502],[139.111455,36.0070511],[139.1114272,36.007066],[139.1113954,36.0070292]]]},"properties":{"layer":"road","class_code":"1040","class_label":"道路"}},{"type":"Feature","id":"tran_54f5ea52-6649-4356-8198-83cd35627878","geometry":{"type":"Polygon","coordinates":[[[139.1113856,36.0070349],[139.1113954,36.0070292],[139.1114272,36.007066],[139.1114181,36.0070714],[139.1113856,36.0070349]]]},"properties":{"layer":"road","class_code":"1040","class_label":"道路"}},{"type":"Feature","id":"tran_92526966-69b2-4aad-ac39-ce89556da0eb","geometry":{"type":"Polygon","coordinates":[[[139.1113496,36.007056],[139.1113853,36.0070346],[139.1113856,36.0070349],[139.1114181,36.0070714],[139.1113821,36.0070925],[139.1113496,36.007056]]]},"properties":{"layer":"road","class_code":"1040","class_label":"道路"}},{"type":"Feature","id":"tran_a3e88861-1817-4951-b5f6-8fcc5bdaa5ae","geometry":{"type":"Polygon","coordinates":[[[139.111375,36.0048017],[139.111422,36.0048863],[139.1113935,36.0049005],[139.1113452,36.0048138],[139.111375,36.0048017]]]},"properties":{"layer":"road","class_code":"1040","class_label":"道路"}},{"type":"Feature","id":"tran_3f19b878-67a6-4830-9484-e822045ec0ca","geometry":{"type":"Polygon","coordinates":[[[139.1111193,36.00658],[139.1112209,36.0065184],[139.111247,36.0065486],[139.1111374,36.0066113],[139.1111311,36.0066228],[139.1111255,36.0066393],[139.1111234,36.006655],[139.111124,36.0066695],[139.1111269,36.0066814],[139.1111336,36.0066903],[139.111103,36.0067054],[139.1110953,36.0066887],[139.1110906,36.0066704],[139.1110903,36.0066523],[139.1110932,36.0066334],[139.1110981,36.0066149],[139.1111086,36.0065935],[139.1111193,36.00658]]]},"properties":{"layer":"road","class_code":"1040","class_label":"道路"}},{"type":"Feature","id":"tran_1c378152-9b15-493a-bec9-1f82a6742087","geometry":{"type":"Polygon","coordinates":[[[139.1113775,36.0079649],[139.1113879,36.007979],[139.1114304,36.0080443],[139.1114779,36.0081194],[139.1114922,36.0081459],[139.1113907,36.0081821],[139.1113778,36.0081582],[139.1113319,36.0080859],[139.1112912,36.0080232],[139.1112825,36.0080112],[139.1113775,36.0079649]]]},"properties":{"layer":"road","class_code":"1040","class_label":"道路"}},{"type":"Feature","id":"tran_17d2e507-99f4-4af9-8045-579cfd9424cd","geometry":{"type":"Polygon","coordinates":[[[139.1113253,36.0069685],[139.1113272,36.0069707],[139.1113853,36.0070346],[139.1113496,36.007056],[139.1112896,36.0069899],[139.1113253,36.0069685]]]},"properties":{"layer":"road","class_code":"1040","class_label":"道路"}},{"type":"Feature","id":"tran_74f23457-b676-46c1-a68a-83e9918a2c77","geometry":{"type":"Polygon","coordinates":[[[139.1112681,36.0079918],[139.1113632,36.0079455],[139.1113775,36.0079649],[139.1112825,36.0080112],[139.1112672,36.0079923],[139.1112681,36.0079918]]]},"properties":{"layer":"road","class_code":"1040","class_label":"道路"}},{"type":"Feature","id":"tran_82a080d8-bd57-4223-8b21-b33d2f27dc27","geometry":{"type":"Polygon","coordinates":[[[139.1113946,36.006384],[139.1114303,36.0064135],[139.1113287,36.0064961],[139.1113044,36.0065125],[139.1112736,36.0064824],[139.1113946,36.006384]]]},"properties":{"layer":"road","class_code":"1040","class_label":"道路"}},{"type":"Feature","id":"tran_4994ebb9-dd24-463c-aaea-976e562a0064","geometry":{"type":"Polygon","coordinates":[[[139.1112466,36.0069661],[139.1112507,36.0069473],[139.1112864,36.0069258],[139.1113253,36.0069685],[139.1112896,36.0069899],[139.1112635,36.0069897],[139.1112466,36.0069661]]]},"properties":{"layer":"road","class_code":"1040","class_label":"道路"}},{"type":"Feature","id":"tran_bfb45ada-e93a-48f8-8358-8bfb3f4854bc","geometry":{"type":"Polygon","coordinates":[[[139.1110693,36.0054907],[139.1111411,36.0054957],[139.1111379,36.0055271],[139.111066,36.0055222],[139.1110693,36.0054907]]]},"properties":{"layer":"road","class_code":"1040","class_label":"道路"}},{"type":"Feature","id":"tran_94b99e2f-8556-4f56-9b90-72bb8419b543","geometry":{"type":"Polygon","coordinates":[[[139.1109707,36.0067151],[139.1110261,36.0067195],[139.1110761,36.006717],[139.111103,36.0067054],[139.1111052,36.0067336],[139.1110258,36.0067375],[139.1109687,36.006733],[139.1109707,36.0067151]]]},"properties":{"layer":"road","class_code":"1040","class_label":"道路"}},{"type":"Feature","id":"tran_002041f6-446e-4df8-9b8b-04f5af1b7ed3","geometry":{"type":"Polygon","coordinates":[[[139.1112225,36.0065066],[139.1112553,36.0064822],[139.1112736,36.0064824],[139.1113044,36.0065125],[139.1112729,36.0065338],[139.111247,36.0065486],[139.1112209,36.0065184],[139.1112225,36.0065066]]]},"properties":{"layer":"road","class_code":"1040","class_label":"道路"}},{"type":"Feature","id":"tran_6da530aa-9e64-417e-8aeb-a8d9f809ca83","geometry":{"type":"Polygon","coordinates":[[[139.1111379,36.0055271],[139.1111411,36.0054957],[139.1111924,36.0055056],[139.1112389,36.0055169],[139.1114025,36.0055738],[139.1115041,36.0056054],[139.1115388,36.0056214],[139.1115654,36.0056418],[139.1115426,36.0056615],[139.1115188,36.0056432],[139.1114899,36.0056299],[139.11139,36.0055989],[139.1112276,36.0055424],[139.1111838,36.0055317],[139.1111379,36.0055271]]]},"properties":{"layer":"road","class_code":"1040","class_label":"道路"}},{"type":"Feature","id":"tran_68e93d0e-9516-41d9-99e8-4fd8fbf8c4c3","geometry":{"type":"Polygon","coordinates":[[[139.1108482,36.0082006],[139.1109752,36.0081295],[139.1110352,36.0080982],[139.111105,36.0080789],[139.1112672,36.0079923],[139.1112825,36.0080112],[139.1111174,36.0080993],[139.1110473,36.0081186],[139.1109906,36.0081483],[139.1108639,36.0082192],[139.1108482,36.0082006]]]},"properties":{"layer":"road","class_code":"1040","class_label":"道路"}},{"type":"Feature","id":"tran_99825390-5bba-4576-8ca4-3348f0785a76","geometry":{"type":"Polygon","coordinates":[[[139.1111231,36.0070442],[139.1112466,36.0069661],[139.1112635,36.0069897],[139.1111436,36.0070656],[139.1111231,36.0070442]]]},"properties":{"layer":"road","class_code":"1040","class_label":"道路"}},{"type":"Feature","id":"tran_28a044de-0225-40e3-b5ff-e710ae998453","geometry":{"type":"Polygon","coordinates":[[[139.111128,36.0063667],[139.1111314,36.0062844],[139.111177,36.0062964],[139.1111734,36.0063154],[139.1111731,36.0063804],[139.1111823,36.0064176],[139.1112553,36.0064822],[139.1112225,36.0065066],[139.1111512,36.0064435],[139.1111393,36.0064185],[139.1111323,36.0063929],[139.111128,36.0063667]]]},"properties":{"layer":"road","class_code":"1040","class_label":"道路"}},{"type":"Feature","id":"tran_8592c639-58f8-4637-9a75-553997447301","geometry":{"type":"Polygon","coordinates":[[[139.112362,36.0055655],[139.1123701,36.0055488],[139.1124146,36.0054754],[139.112421,36.0054651],[139.1124312,36.0054486],[139.1124408,36.005427],[139.112444,36.0054027],[139.1124369,36.0053048],[139.1124345,36.0052771],[139.1124317,36.0052465],[139.1124266,36.0051799],[139.1124273,36.0051343],[139.1124312,36.0050736],[139.1124467,36.0050327],[139.1124849,36.004994],[139.1126698,36.0049218],[139.1127421,36.0048913],[139.1127729,36.0048771],[139.1127965,36.0048618],[139.1128138,36.0048473],[139.1128316,36.0048303],[139.1128327,36.0048289],[139.1128999,36.0048656],[139.112801,36.0049108],[139.1127658,36.0049269],[139.1126921,36.0049581],[139.1125791,36.0050022],[139.1125287,36.0050299],[139.1125083,36.0050451],[139.1124961,36.0050631],[139.1124874,36.0050776],[139.1124821,36.005095],[139.1124772,36.0051322],[139.1124767,36.0051449],[139.1124753,36.005185],[139.1124761,36.005245],[139.1124811,36.0053011],[139.1124992,36.0054142],[139.1124988,36.0054295],[139.1124706,36.005479],[139.1124102,36.0055644],[139.1124033,36.0055787],[139.112362,36.0055655]]]},"properties":{"layer":"road","class_code":"1040","class_label":"道路"}},{"type":"Feature","id":"tran_84f16a07-126f-4775-ba9b-339f39468add","geometry":{"type":"Polygon","coordinates":[[[139.1123288,36.0056923],[139.1123305,36.0056683],[139.1123746,36.0056722],[139.112373,36.0056943],[139.1123288,36.0056923]]]},"properties":{"layer":"road","class_code":"1040","class_label":"道路"}},{"type":"Feature","id":"tran_52fdba21-8df6-4381-94c9-7d9fbf2e81e8","geometry":{"type":"Polygon","coordinates":[[[139.112297,36.0057026],[139.1123288,36.0056923],[139.112373,36.0056943],[139.1123722,36.0057066],[139.1123752,36.0057512],[139.1123309,36.0057531],[139.112312,36.0057397],[139.112297,36.0057026]]]},"properties":{"layer":"road","class_code":"1040","class_label":"道路"}},{"type":"Feature","id":"tran_e356ce6f-6c57-4e75-aa41-205ecda4d453","geometry":{"type":"Polygon","coordinates":[[[139.1002567,36.0063174],[139.100419,36.0062874],[139.1004321,36.006342],[139.1002671,36.0063595],[139.1002653,36.0063483],[139.1002567,36.0063174]]]},"properties":{"layer":"road","class_code":"1040","class_label":"道路"}},{"type":"Feature","id":"tran_3f832064-1ee0-44da-87e5-b1cb8558352b","geometry":{"type":"Polygon","coordinates":[[[139.1012627,36.0059344],[139.1012835,36.0059761],[139.1012302,36.0059937],[139.1011988,36.0060082],[139.1011802,36.0060224],[139.1011434,36.0060553],[139.1011168,36.0060805],[139.1010957,36.0060982],[139.1010726,36.0061121],[139.1010482,36.0061217],[139.1009356,36.0061624],[139.1007943,36.0062149],[139.1007793,36.0062216],[139.1007724,36.0062273],[139.1007643,36.0062374],[139.1007025,36.0062547],[139.1006044,36.0062833],[139.1004794,36.0063207],[139.1004553,36.0063289],[139.1004321,36.006342],[139.100419,36.0062874],[139.1004603,36.0062784],[139.1005817,36.0062325],[139.1006803,36.0062037],[139.1007245,36.0061913],[139.1009128,36.0061214],[139.1010249,36.0060809],[139.1010437,36.0060735],[139.101059,36.0060642],[139.1010759,36.0060502],[139.1011017,36.0060255],[139.1011406,36.0059908],[139.1011657,36.0059717],[139.1012061,36.0059531],[139.1012627,36.0059344]]]},"properties":{"layer":"road","class_code":"1040","class_label":"道路"}},{"type":"Feature","id":"tran_aa5a2e4f-720f-47bc-bdac-21f6a22ebaa0","geometry":{"type":"Polygon","coordinates":[[[139.1123248,36.0055668],[139.112362,36.0055655],[139.1124033,36.0055787],[139.1123933,36.0055993],[139.112381,36.0056395],[139.1123746,36.0056722],[139.1123305,36.0056683],[139.1123306,36.0056674],[139.1122919,36.0056279],[139.1122682,36.0056041],[139.1123248,36.0055668]]]},"properties":{"layer":"road","class_code":"1040","class_label":"道路"}},{"type":"Feature","id":"tran_d59b72d4-311c-4fa1-be85-7c0d5db1c6a7","geometry":{"type":"Polygon","coordinates":[[[139.1122868,36.0062891],[139.1124407,36.0064391],[139.1124795,36.0064772],[139.1125882,36.006584],[139.1125554,36.006606],[139.1124178,36.006459],[139.1124151,36.0064564],[139.1122613,36.0063064],[139.1122868,36.0062891]]]},"properties":{"layer":"road","class_code":"1040","class_label":"道路"}},{"type":"Feature","id":"tran_afe22a83-5078-46e4-80b2-16c8ac260183","geometry":{"type":"Polygon","coordinates":[[[139.1108756,36.0073397],[139.110985,36.0072754],[139.1111295,36.0071876],[139.1112438,36.0071181],[139.1113496,36.007056],[139.1113821,36.0070925],[139.111283,36.0071508],[139.1112768,36.0071544],[139.111022,36.0073094],[139.111018,36.0073118],[139.1108762,36.007395],[139.1108436,36.0073585],[139.1108756,36.0073397]]]},"properties":{"layer":"road","class_code":"1040","class_label":"道路"}},{"type":"Feature","id":"tran_0a5d4e10-d40a-456b-8f91-23a312c65bb7","geometry":{"type":"Polygon","coordinates":[[[139.1122073,36.0062961],[139.1122125,36.006278],[139.1122554,36.0062573],[139.1122582,36.0062611],[139.1122868,36.0062891],[139.1122613,36.0063064],[139.1122073,36.0062961]]]},"properties":{"layer":"road","class_code":"1040","class_label":"道路"}},{"type":"Feature","id":"tran_b3989a87-4b7a-42ef-b693-2fa3a3a1363e","geometry":{"type":"Polygon","coordinates":[[[139.1123334,36.0044647],[139.1123347,36.004446],[139.112379,36.004448],[139.1123777,36.004468],[139.1123334,36.0044647]]]},"properties":{"layer":"road","class_code":"1040","class_label":"道路"}},{"type":"Feature","id":"tran_f047307a-7fe1-450b-8e20-f0c5c3f7cad7","geometry":{"type":"Polygon","coordinates":[[[139.1121655,36.0060694],[139.1121879,36.0060379],[139.1122572,36.0059567],[139.1123175,36.0058928],[139.112327,36.0058683],[139.1123324,36.0058256],[139.1123316,36.0057625],[139.1123309,36.0057531],[139.1123752,36.0057512],[139.1123759,36.0057613],[139.1123765,36.0058019],[139.1123811,36.0058587],[139.1123803,36.0058706],[139.1123768,36.0058826],[139.1123671,36.0058994],[139.112293,36.0059779],[139.1122254,36.0060572],[139.112204,36.0060874],[139.1121655,36.0060694]]]},"properties":{"layer":"road","class_code":"1040","class_label":"道路"}},{"type":"Feature","id":"tran_f1fcfe8c-dca1-44b9-b2c4-fa7b4a72065f","geometry":{"type":"Polygon","coordinates":[[[139.112548,36.0066058],[139.1125469,36.0066328],[139.1122889,36.0066259],[139.1122512,36.0066271],[139.1121616,36.0066363],[139.1121513,36.0066101],[139.1122484,36.0066001],[139.1122888,36.0065988],[139.112548,36.0066058]]]},"properties":{"layer":"road","class_code":"1040","class_label":"道路"}},{"type":"Feature","id":"tran_0046301d-f773-450e-a941-4d9c3b3f2a31","geometry":{"type":"Polygon","coordinates":[[[139.1108316,36.0074937],[139.110918,36.0074372],[139.1109655,36.0074852],[139.1110114,36.0075333],[139.1110671,36.0075934],[139.1111292,36.0076632],[139.1112037,36.0077464],[139.1112627,36.0078159],[139.111302,36.0078636],[139.1113386,36.0079122],[139.1113632,36.0079455],[139.1112681,36.0079918],[139.1112438,36.0079587],[139.1112086,36.0079121],[139.1111841,36.0078826],[139.111171,36.0078666],[139.1111133,36.0077985],[139.1110578,36.0077366],[139.1110395,36.0077161],[139.1109778,36.0076469],[139.1109233,36.007588],[139.1108784,36.007541],[139.1108316,36.0074937]]]},"properties":{"layer":"road","class_code":"1040","class_label":"道路"}},{"type":"Feature","id":"tran_85fbc94d-7720-44a2-abf2-1d49c672c6a3","geometry":{"type":"Polygon","coordinates":[[[139.1122554,36.0062573],[139.1122125,36.006278],[139.1121772,36.0062258],[139.1121329,36.0061603],[139.1121719,36.006143],[139.1122554,36.0062573]]]},"properties":{"layer":"road","class_code":"1040","class_label":"道路"}},{"type":"Feature","id":"tran_3409b5cc-00fe-4038-885f-ec43d37e65d1","geometry":{"type":"Polygon","coordinates":[[[139.1121145,36.0065933],[139.112117,36.0065897],[139.1121676,36.0064334],[139.1122073,36.0062961],[139.1122613,36.0063064],[139.1122213,36.0064448],[139.1122031,36.0064964],[139.1121766,36.0065616],[139.1121513,36.0066101],[139.1121145,36.0065933]]]},"properties":{"layer":"road","class_code":"1040","class_label":"道路"}},{"type":"Feature","id":"tran_07e8a233-5a41-466d-a0d9-83e59d5b0ddb","geometry":{"type":"Polygon","coordinates":[[[139.1122642,36.0042579],[139.112264,36.004294],[139.1122181,36.0042938],[139.1121965,36.0043101],[139.1121901,36.0044512],[139.1121322,36.0044502],[139.1121328,36.0044262],[139.1121473,36.0044176],[139.1121535,36.00428],[139.1121526,36.0042575],[139.1122642,36.0042579]]]},"properties":{"layer":"road","class_code":"1040","class_label":"道路"}},{"type":"Feature","id":"tran_2afac2dc-1d11-46d9-997d-7f2d0aad9ee8","geometry":{"type":"Polygon","coordinates":[[[139.1107539,36.0074205],[139.110838,36.0073618],[139.1108436,36.0073585],[139.1108762,36.007395],[139.110918,36.0074372],[139.1108316,36.0074937],[139.1107956,36.0074936],[139.1107688,36.0074649],[139.1107642,36.0074302],[139.1107603,36.0074266],[139.1107539,36.0074205]]]},"properties":{"layer":"road","class_code":"1040","class_label":"道路"}},{"type":"Feature","id":"tran_a7944052-b1f9-415c-911d-abce4dd7b82e","geometry":{"type":"Polygon","coordinates":[[[139.1121322,36.0044502],[139.1121901,36.0044512],[139.1122102,36.0044692],[139.1122065,36.0045051],[139.1121587,36.0045019],[139.1121316,36.0045018],[139.1121318,36.0044658],[139.1121322,36.0044502]]]},"properties":{"layer":"road","class_code":"1040","class_label":"道路"}},{"type":"Feature","id":"tran_c0da9b1b-ad06-4f1c-a0cf-9e268e698f8d","geometry":{"type":"Polygon","coordinates":[[[139.1123777,36.004468],[139.1123922,36.0044817],[139.1123865,36.0045174],[139.1123846,36.0045172],[139.112313,36.0045124],[139.1123167,36.0044764],[139.1123334,36.0044647],[139.1123777,36.004468]]]},"properties":{"layer":"road","class_code":"1040","class_label":"道路"}},{"type":"Feature","id":"tran_8e78e35c-7dc2-46d1-81e2-68955e42c55d","geometry":{"type":"Polygon","coordinates":[[[139.1104895,36.0070484],[139.1105601,36.0071096],[139.1107096,36.0072403],[139.110838,36.0073618],[139.1107539,36.0074205],[139.1106268,36.0073004],[139.110479,36.0071711],[139.1104087,36.00711],[139.1104895,36.0070484]]]},"properties":{"layer":"road","class_code":"1040","class_label":"道路"}},{"type":"Feature","id":"tran_a6c338ea-e816-471b-9831-f67317729c66","geometry":{"type":"Polygon","coordinates":[[[139.112103,36.0066099],[139.1121145,36.0065933],[139.1121513,36.0066101],[139.1121616,36.0066363],[139.1121332,36.0066472],[139.1120973,36.0066182],[139.112103,36.0066099]]]},"properties":{"layer":"road","class_code":"1040","class_label":"道路"}},{"type":"Feature","id":"tran_5d43662f-4ce1-4254-931c-c95b486685bb","geometry":{"type":"Polygon","coordinates":[[[139.1004039,36.0073038],[139.1005703,36.0072836],[139.1005733,36.0073001],[139.1005826,36.0073502],[139.1005894,36.0073872],[139.1005962,36.0074151],[139.100433,36.0074414],[139.1004141,36.0074319],[139.1003748,36.00731],[139.1004039,36.0073038]]]},"properties":{"layer":"road","class_code":"1040","class_label":"道路"}},{"type":"Feature","id":"tran_0534fbaf-dd0c-4616-ba69-73af26506de4","geometry":{"type":"Polygon","coordinates":[[[139.1121719,36.006143],[139.1121329,36.0061603],[139.1120976,36.0061163],[139.1120685,36.0060898],[139.1120934,36.0060718],[139.1121655,36.0060694],[139.112204,36.0060874],[139.1121904,36.0061067],[139.1121719,36.006143]]]},"properties":{"layer":"road","class_code":"1040","class_label":"道路"}},{"type":"Feature","id":"tran_971e7169-c141-4d93-ba99-64f94aad0dbe","geometry":{"type":"Polygon","coordinates":[[[139.1119486,36.0045556],[139.1119508,36.0045126],[139.1119516,36.0044628],[139.112038,36.0044655],[139.1121318,36.0044658],[139.1121316,36.0045018],[139.1120379,36.0045015],[139.1120221,36.0045113],[139.1120188,36.0045568],[139.1119486,36.0045556]]]},"properties":{"layer":"road","class_code":"1040","class_label":"道路"}},{"type":"Feature","id":"tran_6789279c-d83d-40af-ba3e-f37971061b7c","geometry":{"type":"Polygon","coordinates":[[[139.1119919,36.0048804],[139.1120756,36.0050451],[139.1120406,36.0051359],[139.1120497,36.0051489],[139.1121712,36.0053232],[139.1121476,36.0053894],[139.1123248,36.0055668],[139.1122682,36.0056041],[139.1120602,36.0053953],[139.1120868,36.0053118],[139.1119685,36.0051422],[139.1120049,36.0050476],[139.1119304,36.0049011],[139.1119919,36.0048804]]]},"properties":{"layer":"road","class_code":"1040","class_label":"道路"}},{"type":"Feature","id":"tran_4453010e-8b4b-4954-885b-fc6d8c0f0424","geometry":{"type":"Polygon","coordinates":[[[139.110358,36.0070859],[139.1103619,36.0070754],[139.1104269,36.0069939],[139.1104449,36.0070098],[139.1104895,36.0070484],[139.1104087,36.00711],[139.1103708,36.0071109],[139.110358,36.0070859]]]},"properties":{"layer":"road","class_code":"1040","class_label":"道路"}},{"type":"Feature","id":"tran_33f829f2-7b58-408a-ab07-7de9db41f253","geometry":{"type":"Polygon","coordinates":[[[139.1117954,36.0052664],[139.1118419,36.0052827],[139.1118859,36.0053039],[139.1119275,36.0053346],[139.1119755,36.0053882],[139.1120736,36.005508],[139.1121881,36.0056459],[139.1122054,36.0056635],[139.1122432,36.0056795],[139.112297,36.0057026],[139.112312,36.0057397],[139.1122275,36.0057035],[139.1121826,36.0056837],[139.1121612,36.0056619],[139.1120459,36.005523],[139.1119483,36.0054037],[139.1119026,36.0053528],[139.1118659,36.0053256],[139.1118267,36.0053068],[139.1117822,36.0052913],[139.1117954,36.0052664]]]},"properties":{"layer":"road","class_code":"1040","class_label":"道路"}},{"type":"Feature","id":"tran_6208f4e0-85f7-430f-9396-146a37d24cdc","geometry":{"type":"Polygon","coordinates":[[[139.111676,36.0057695],[139.1116948,36.0057542],[139.1119203,36.0059296],[139.1120458,36.0060322],[139.1120843,36.0060635],[139.1120934,36.0060718],[139.1120685,36.0060898],[139.11206,36.0060821],[139.1120223,36.0060512],[139.1118967,36.0059487],[139.111676,36.0057695]]]},"properties":{"layer":"road","class_code":"1040","class_label":"道路"}},{"type":"Feature","id":"tran_923be8da-fc1d-465b-8c0c-360f0e974fe9","geometry":{"type":"Polygon","coordinates":[[[139.1096967,36.0080741],[139.1100368,36.0078389],[139.1100894,36.0078021],[139.1101211,36.007832],[139.1100833,36.0078519],[139.1097259,36.0081019],[139.1096967,36.0080741]]]},"properties":{"layer":"road","class_code":"1040","class_label":"道路"}},{"type":"Feature","id":"tran_3f6eb901-21bf-4904-8c83-3d1c7e61b193","geometry":{"type":"Polygon","coordinates":[[[139.1117831,36.0068053],[139.1120973,36.0066182],[139.1121332,36.0066472],[139.1116922,36.0069097],[139.1116638,36.0068763],[139.1117831,36.0068053]]]},"properties":{"layer":"road","class_code":"1040","class_label":"道路"}},{"type":"Feature","id":"tran_bbedd38d-e02e-4df8-b303-4e9fc95f65fa","geometry":{"type":"Polygon","coordinates":[[[139.1116901,36.0069422],[139.1117814,36.0070702],[139.1118898,36.0072356],[139.1118507,36.0072525],[139.1117426,36.0070878],[139.1116517,36.0069602],[139.1116901,36.0069422]]]},"properties":{"layer":"road","class_code":"1040","class_label":"道路"}},{"type":"Feature","id":"tran_5378e7ba-d7d3-48c3-a79e-d5bfebaa8fb4","geometry":{"type":"Polygon","coordinates":[[[139.1116948,36.0057542],[139.111676,36.0057695],[139.1116443,36.0057439],[139.1116644,36.0057276],[139.111686,36.0057235],[139.1116948,36.0057542]]]},"properties":{"layer":"road","class_code":"1040","class_label":"道路"}},{"type":"Feature","id":"tran_821d319c-0fef-4622-9ef9-f2e36826ec4e","geometry":{"type":"Polygon","coordinates":[[[139.111686,36.0057235],[139.1116644,36.0057276],[139.1116401,36.0056429],[139.1116616,36.0056389],[139.111686,36.0057235]]]},"properties":{"layer":"road","class_code":"1040","class_label":"道路"}},{"type":"Feature","id":"tran_2a17f3cc-bb02-44c8-bf9c-d94f661b093a","geometry":{"type":"Polygon","coordinates":[[[139.1116616,36.0056389],[139.1116401,36.0056429],[139.1116316,36.0056128],[139.1116532,36.0056088],[139.1116616,36.0056389]]]},"properties":{"layer":"road","class_code":"1040","class_label":"道路"}},{"type":"Feature","id":"tran_c43f0589-28c5-4970-8a0b-8f1f80c26b51","geometry":{"type":"Polygon","coordinates":[[[139.1103751,36.0069482],[139.1104269,36.0069939],[139.1103619,36.0070754],[139.1103078,36.0070297],[139.1103751,36.0069482]]]},"properties":{"layer":"road","class_code":"1040","class_label":"道路"}},{"type":"Feature","id":"tran_940a4658-c80e-489c-931b-4ed788df1b74","geometry":{"type":"Polygon","coordinates":[[[139.1119534,36.0080547],[139.1119691,36.0081072],[139.1115813,36.0081839],[139.1115656,36.0081314],[139.1119534,36.0080547]]]},"properties":{"layer":"road","class_code":"1040","class_label":"道路"}},{"type":"Feature","id":"tran_dff69e6f-5895-49f4-93be-699d41f92ba8","geometry":{"type":"Polygon","coordinates":[[[139.110358,36.0070859],[139.1103708,36.0071109],[139.1103201,36.007128],[139.1102479,36.0071455],[139.1102382,36.0071197],[139.1103089,36.0071025],[139.110358,36.0070859]]]},"properties":{"layer":"road","class_code":"1040","class_label":"道路"}},{"type":"Feature","id":"tran_f71de8f3-3b02-44d3-8c22-1d3897e2d79f","geometry":{"type":"Polygon","coordinates":[[[139.1101407,36.0078437],[139.110175,36.0078289],[139.1101927,36.0078562],[139.1103315,36.0080283],[139.1103617,36.0080657],[139.1104444,36.0081479],[139.1104144,36.0081679],[139.1103304,36.0080845],[139.1101591,36.0078723],[139.1101407,36.0078437]]]},"properties":{"layer":"road","class_code":"1040","class_label":"道路"}},{"type":"Feature","id":"tran_554b0b83-83eb-419e-a7f7-874582ceb025","geometry":{"type":"Polygon","coordinates":[[[139.1123167,36.0044764],[139.112313,36.0045124],[139.1122065,36.0045051],[139.1122102,36.0044692],[139.1123167,36.0044764]]]},"properties":{"layer":"road","class_code":"1040","class_label":"道路"}},{"type":"Feature","id":"tran_30cb2099-bcae-42f7-bbae-fd39bd48551a","geometry":{"type":"Polygon","coordinates":[[[139.1002671,36.0063595],[139.1004321,36.006342],[139.1004395,36.0063874],[139.1004505,36.0064549],[139.1004677,36.0065723],[139.1004995,36.0068026],[139.1005345,36.0070355],[139.1005634,36.0072461],[139.1005703,36.0072836],[139.1004039,36.0073038],[139.1003692,36.0070512],[139.1003343,36.0068184],[139.1003024,36.0065877],[139.1002854,36.0064717],[139.1002745,36.0064051],[139.1002671,36.0063595]]]},"properties":{"layer":"road","class_code":"1040","class_label":"道路"}},{"type":"Feature","id":"tran_f57bf6c8-035f-498a-a7f9-d77b9452a10c","geometry":{"type":"Polygon","coordinates":[[[139.1116088,36.0069076],[139.1116638,36.0068763],[139.1116922,36.0069097],[139.1116901,36.0069422],[139.1116517,36.0069602],[139.1116399,36.0069437],[139.1116088,36.0069076]]]},"properties":{"layer":"road","class_code":"1040","class_label":"道路"}},{"type":"Feature","id":"tran_a74326bf-92e4-4aae-8209-faee719488f8","geometry":{"type":"Polygon","coordinates":[[[139.1115984,36.0052091],[139.1116205,36.0052075],[139.1116239,36.005237],[139.1116246,36.0053208],[139.1116113,36.0054164],[139.111638,36.0055546],[139.1116532,36.0056088],[139.1116316,36.0056128],[139.1116162,36.0055579],[139.111589,36.0054168],[139.1116024,36.0053198],[139.1116017,36.005238],[139.1115984,36.0052091]]]},"properties":{"layer":"road","class_code":"1040","class_label":"道路"}},{"type":"Feature","id":"tran_87db95d2-7140-4c44-bab4-9050f8642a19","geometry":{"type":"Polygon","coordinates":[[[139.1115613,36.008211],[139.1115813,36.0081839],[139.1118295,36.0083048],[139.1120146,36.0083983],[139.1119941,36.0084251],[139.1118092,36.0083317],[139.1115613,36.008211]]]},"properties":{"layer":"road","class_code":"1040","class_label":"道路"}},{"type":"Feature","id":"tran_14694d51-09af-4b51-901b-76ef8e57e610","geometry":{"type":"Polygon","coordinates":[[[139.1096967,36.0080741],[139.1097259,36.0081019],[139.1097128,36.0081156],[139.1097031,36.0081289],[139.1096988,36.0081424],[139.109698,36.0081573],[139.1097014,36.0081668],[139.10971,36.008183],[139.1097107,36.008184],[139.1096708,36.0082032],[139.1096477,36.0081966],[139.1096277,36.0082007],[139.1095983,36.008188],[139.1096343,36.0081331],[139.1096678,36.0080941],[139.1096967,36.0080741]]]},"properties":{"layer":"road","class_code":"1040","class_label":"道路"}},{"type":"Feature","id":"tran_5b5e5bfc-eba1-4241-adcd-4fd0d3c6df9a","geometry":{"type":"Polygon","coordinates":[[[139.1065368,36.007159],[139.1065649,36.00711],[139.1068546,36.00722],[139.1071267,36.0073239],[139.1072244,36.0073619],[139.1073349,36.0074065],[139.1073893,36.0074294],[139.1074645,36.0074633],[139.1075023,36.0074819],[139.1075221,36.0074927],[139.1075557,36.0075142],[139.1075803,36.0075327],[139.1075962,36.0075457],[139.1076243,36.0075703],[139.1076452,36.0075917],[139.1076548,36.007604],[139.107671,36.0076285],[139.1076912,36.0076628],[139.1077308,36.0077348],[139.1077431,36.0077591],[139.107749,36.0077726],[139.1077608,36.0078043],[139.1077915,36.0078963],[139.1078161,36.0079732],[139.1078616,36.0081158],[139.1078912,36.0082044],[139.1079265,36.0083041],[139.1079464,36.008358],[139.1079705,36.008418],[139.1080083,36.0085284],[139.1080308,36.0085895],[139.108044,36.0086212],[139.1080522,36.0086395],[139.1080693,36.0086742],[139.1081165,36.0087859],[139.1081248,36.008802],[139.1081481,36.008851],[139.1081888,36.008943],[139.1082169,36.0090099],[139.1082287,36.0090412],[139.1082405,36.0090758],[139.1082678,36.0091637],[139.1082937,36.0092528],[139.1082271,36.0092588],[139.1082031,36.0091765],[139.1081762,36.0090896],[139.1081648,36.0090564],[139.1081535,36.0090266],[139.108126,36.0089609],[139.1080857,36.0088699],[139.1080788,36.0088554],[139.108052,36.0088125],[139.1080354,36.0087802],[139.1080063,36.0087264],[139.1079924,36.0087],[139.1079853,36.0086857],[139.1079689,36.0086378],[139.1079568,36.0086087],[139.1079336,36.0085459],[139.1078959,36.0084355],[139.1078732,36.0083746],[139.1078472,36.0083141],[139.1078377,36.0082948],[139.10783,36.0082862],[139.1077834,36.0081909],[139.1077415,36.0080806],[139.1077394,36.0080738],[139.107726,36.0080128],[139.1077127,36.0079512],[139.1076958,36.007877],[139.1076701,36.0077655],[139.1076629,36.0077438],[139.1076308,36.0076855],[139.1076116,36.007653],[139.1075973,36.0076313],[139.1075909,36.0076231],[139.1075737,36.0076055],[139.1075483,36.0075832],[139.1075341,36.0075717],[139.1075124,36.0075554],[139.107483,36.0075365],[139.1074665,36.0075276],[139.1074311,36.0075101],[139.1073578,36.0074771],[139.1073048,36.0074547],[139.1071952,36.0074105],[139.1070982,36.0073727],[139.1068263,36.0072689],[139.1065368,36.007159]]]},"properties":{"layer":"road","class_code":"1040","class_label":"道路"}},{"type":"Feature","id":"tran_c25fe41a-aaf4-4655-b61e-2be27e51194c","geometry":{"type":"Polygon","coordinates":[[[139.1115825,36.0056937],[139.1116048,36.0056756],[139.1116644,36.0057276],[139.1116443,36.0057439],[139.1115825,36.0056937]]]},"properties":{"layer":"road","class_code":"1040","class_label":"道路"}},{"type":"Feature","id":"tran_8cd06319-579a-4ffe-8c62-cb1bed377fbc","geometry":{"type":"Polygon","coordinates":[[[139.1103851,36.0076753],[139.1104578,36.0076516],[139.1106273,36.0075567],[139.1107688,36.0074649],[139.1107956,36.0074936],[139.1106537,36.0075857],[139.1104996,36.0076719],[139.1102691,36.0077471],[139.110211,36.0077788],[139.1101765,36.0077946],[139.1101601,36.007806],[139.1101275,36.0077753],[139.1101476,36.0077612],[139.110212,36.0077318],[139.1103851,36.0076753]]]},"properties":{"layer":"road","class_code":"1040","class_label":"道路"}},{"type":"Feature","id":"tran_c4de1ffe-979a-4dff-9c1a-48d54fae3a05","geometry":{"type":"Polygon","coordinates":[[[139.1116401,36.0056429],[139.1116139,36.0056546],[139.1116048,36.0056756],[139.1115654,36.0056418],[139.1116316,36.0056128],[139.1116401,36.0056429]]]},"properties":{"layer":"road","class_code":"1040","class_label":"道路"}},{"type":"Feature","id":"tran_bacb6276-6219-4563-9f8a-26ebabb87b4a","geometry":{"type":"Polygon","coordinates":[[[139.1116048,36.0056756],[139.1115825,36.0056937],[139.1115475,36.0056652],[139.1115426,36.0056615],[139.1115654,36.0056418],[139.1116048,36.0056756]]]},"properties":{"layer":"road","class_code":"1040","class_label":"道路"}},{"type":"Feature","id":"tran_dc7b87f6-114b-4907-9cc6-c19eb4367dfd","geometry":{"type":"Polygon","coordinates":[[[139.111502,36.008144],[139.1115656,36.0081314],[139.1115813,36.0081839],[139.1115613,36.008211],[139.1115154,36.0081887],[139.111502,36.008144]]]},"properties":{"layer":"road","class_code":"1040","class_label":"道路"}},{"type":"Feature","id":"tran_28661444-1738-4be3-97d4-3548801e8df5","geometry":{"type":"Polygon","coordinates":[[[139.1114272,36.007066],[139.111455,36.0070511],[139.1116702,36.0073147],[139.1117708,36.0074459],[139.1118167,36.0075032],[139.1117539,36.0075227],[139.1117643,36.0074913],[139.1117426,36.0074602],[139.1116422,36.0073293],[139.1114272,36.007066]]]},"properties":{"layer":"road","class_code":"1040","class_label":"道路"}}]}