{"type":"FeatureCollection","properties":{"mesh_code":"54390015","source":"PLATEAU秩父市2025","layer":"road"},"features":[{"type":"Feature","id":"tran_2e6d8edb-da82-4a0d-91bf-c8c59af85d1c","geometry":{"type":"Polygon","coordinates":[[[139.073269,36.0125147],[139.073293,36.0124961],[139.0733083,36.0125092],[139.0733535,36.0125476],[139.07334,36.0125725],[139.0733274,36.0125678],[139.0733138,36.0125651],[139.0732999,36.0125644],[139.0732861,36.0125658],[139.0732728,36.0125692],[139.0732549,36.01255],[139.0732631,36.0125421],[139.0732677,36.0125277],[139.073269,36.0125147]]]},"properties":{"layer":"road","class_code":"1040","class_label":"道路"}},{"type":"Feature","id":"tran_0f73efd6-febf-4076-9919-1588cd7b3e31","geometry":{"type":"Polygon","coordinates":[[[139.0748431,36.0132713],[139.0748712,36.0133246],[139.0748961,36.0133722],[139.0749168,36.0134093],[139.0749473,36.0134682],[139.0749166,36.0134786],[139.0748864,36.0134201],[139.0748656,36.013383],[139.0748406,36.0133352],[139.0748125,36.013282],[139.0748431,36.0132713]]]},"properties":{"layer":"road","class_code":"1040","class_label":"道路"}},{"type":"Feature","id":"tran_ca17c8d4-52ff-4cb4-94f9-cc2ce9175101","geometry":{"type":"Polygon","coordinates":[[[139.0732808,36.0117549],[139.0732982,36.0117588],[139.0733109,36.0118065],[139.0732943,36.0118116],[139.0732824,36.0118146],[139.0732501,36.0118073],[139.0732536,36.0117889],[139.0732479,36.0117591],[139.0732808,36.0117549]]]},"properties":{"layer":"road","class_code":"1040","class_label":"道路"}},{"type":"Feature","id":"tran_303cf618-bf5d-45bc-853d-cbf03a6c0e55","geometry":{"type":"Polygon","coordinates":[[[139.0734073,36.0114095],[139.0734279,36.0114307],[139.073313,36.0115045],[139.0732723,36.0115232],[139.0732456,36.0115359],[139.0732288,36.0115126],[139.0732558,36.0114997],[139.0732943,36.0114821],[139.0734073,36.0114095]]]},"properties":{"layer":"road","class_code":"1040","class_label":"道路"}},{"type":"Feature","id":"tran_329f989a-8b8e-43a1-ae8b-0fadbc30d582","geometry":{"type":"Polygon","coordinates":[[[139.0747974,36.0148115],[139.0748284,36.0147963],[139.0748775,36.0147969],[139.0748949,36.0148154],[139.0748891,36.0148558],[139.0747951,36.014852],[139.0747974,36.0148115]]]},"properties":{"layer":"road","class_code":"1040","class_label":"道路"}},{"type":"Feature","id":"tran_8e4b22eb-4697-4d5a-b58a-448422f928c2","geometry":{"type":"Polygon","coordinates":[[[139.0732379,36.0115448],[139.0732356,36.0115523],[139.0732367,36.0115641],[139.0732483,36.011609],[139.0732639,36.0116803],[139.0732785,36.011743],[139.0732808,36.0117549],[139.0732479,36.0117591],[139.0732457,36.0117476],[139.0732311,36.0116853],[139.0732176,36.0116233],[139.0732156,36.0116142],[139.0732009,36.0115566],[139.0732379,36.0115448]]]},"properties":{"layer":"road","class_code":"1040","class_label":"道路"}},{"type":"Feature","id":"tran_13f01f19-0859-436e-b239-299c0ac22e87","geometry":{"type":"Polygon","coordinates":[[[139.0732288,36.0115126],[139.0732456,36.0115359],[139.0732379,36.0115448],[139.0732009,36.0115566],[139.0731886,36.0115314],[139.0731929,36.0115296],[139.0732288,36.0115126]]]},"properties":{"layer":"road","class_code":"1040","class_label":"道路"}},{"type":"Feature","id":"tran_70d777f0-3717-4922-a549-0bbb45e102fa","geometry":{"type":"Polygon","coordinates":[[[139.0730984,36.0123211],[139.0731194,36.0123423],[139.073196,36.0124133],[139.0732517,36.012461],[139.073293,36.0124961],[139.073269,36.0125147],[139.0732092,36.0124638],[139.0731714,36.0124315],[139.073094,36.0123597],[139.0730679,36.0123412],[139.0730984,36.0123211]]]},"properties":{"layer":"road","class_code":"1040","class_label":"道路"}},{"type":"Feature","id":"tran_d8ec25b1-fff6-407e-be8d-c5cd629a916b","geometry":{"type":"Polygon","coordinates":[[[139.0747146,36.0132804],[139.0747963,36.0132515],[139.0748096,36.0132763],[139.0747277,36.0133052],[139.0747146,36.0132804]]]},"properties":{"layer":"road","class_code":"1040","class_label":"道路"}},{"type":"Feature","id":"tran_4dd74552-6296-4f7a-b2db-795437d3de0d","geometry":{"type":"Polygon","coordinates":[[[139.072999,36.0123096],[139.073007,36.0122999],[139.0730108,36.0122854],[139.0730103,36.012274],[139.0730371,36.012258],[139.0730526,36.0122752],[139.0730984,36.0123211],[139.0730679,36.0123412],[139.073053,36.0123359],[139.0730362,36.0123346],[139.0730191,36.0123375],[139.072999,36.0123096]]]},"properties":{"layer":"road","class_code":"1040","class_label":"道路"}},{"type":"Feature","id":"tran_171de0f9-1d48-434f-94fa-0d64a6783e92","geometry":{"type":"Polygon","coordinates":[[[139.0729892,36.0109856],[139.073075,36.0109284],[139.0730799,36.0109333],[139.0731778,36.011032],[139.0733077,36.0111645],[139.0733839,36.0112417],[139.0732974,36.0112981],[139.0732209,36.0112208],[139.0730912,36.0110883],[139.0729939,36.0109901],[139.0729892,36.0109856]]]},"properties":{"layer":"road","class_code":"1040","class_label":"道路"}},{"type":"Feature","id":"tran_a893d81e-7eff-4c02-b8c4-21f9e07805da","geometry":{"type":"Polygon","coordinates":[[[139.0729716,36.0109681],[139.0730573,36.0109109],[139.073075,36.0109284],[139.0729892,36.0109856],[139.0729716,36.0109681]]]},"properties":{"layer":"road","class_code":"1040","class_label":"道路"}},{"type":"Feature","id":"tran_fecc0905-63d4-4482-91bc-bbec859760b7","geometry":{"type":"Polygon","coordinates":[[[139.0731966,36.0118879],[139.0732165,36.0118648],[139.0732355,36.0118369],[139.0732501,36.0118073],[139.0732824,36.0118146],[139.0732657,36.0118484],[139.0732448,36.0118791],[139.0732238,36.0119034],[139.0732015,36.0119294],[139.0731688,36.0119636],[139.0731339,36.011999],[139.0730975,36.0120317],[139.0730565,36.0120672],[139.0730038,36.0121077],[139.0729893,36.0121233],[139.0729809,36.012138],[139.0729779,36.0121568],[139.0729814,36.0121794],[139.0729929,36.0122],[139.0730141,36.0122325],[139.0730371,36.012258],[139.0730103,36.012274],[139.0729858,36.0122468],[139.072963,36.0122119],[139.0729491,36.0121868],[139.0729444,36.0121567],[139.0729486,36.0121305],[139.0729605,36.0121093],[139.072979,36.0120896],[139.0730328,36.0120481],[139.073073,36.0120133],[139.0731087,36.0119815],[139.0731426,36.011947],[139.0731747,36.0119133],[139.0731966,36.0118879]]]},"properties":{"layer":"road","class_code":"1040","class_label":"道路"}},{"type":"Feature","id":"tran_762b18db-5b6e-467c-aa35-235dd7dc63ee","geometry":{"type":"Polygon","coordinates":[[[139.0746422,36.0147822],[139.0746271,36.0148209],[139.0744979,36.0147876],[139.0743497,36.0147504],[139.0741886,36.0147082],[139.0740851,36.0146759],[139.0739954,36.0146436],[139.0738855,36.0145984],[139.0738058,36.014563],[139.0737477,36.0145364],[139.0737033,36.0145156],[139.0736701,36.0144998],[139.0736456,36.0144877],[139.0736273,36.0144782],[139.073613,36.0144703],[139.0736006,36.0144631],[139.0735897,36.0144564],[139.0735799,36.01445],[139.0735711,36.0144437],[139.073563,36.0144373],[139.0735554,36.0144309],[139.0735479,36.0144241],[139.0735405,36.014417],[139.0735331,36.0144094],[139.0735254,36.0144012],[139.0735173,36.0143923],[139.0735086,36.0143825],[139.0734992,36.0143718],[139.0734893,36.01436],[139.0734787,36.0143472],[139.0734677,36.0143333],[139.0734562,36.0143183],[139.0734442,36.0143018],[139.0734303,36.0142817],[139.0734129,36.0142547],[139.0733901,36.0142178],[139.0733603,36.0141677],[139.0733217,36.0141017],[139.0733067,36.0140795],[139.0732904,36.0140576],[139.0732731,36.0140363],[139.0732548,36.0140155],[139.0732354,36.0139954],[139.0732154,36.0139762],[139.0730881,36.013864],[139.072998,36.0137867],[139.0729359,36.0137354],[139.0728927,36.0137012],[139.0728733,36.0136865],[139.0729036,36.0136602],[139.0729233,36.0136751],[139.0729672,36.0137098],[139.0730299,36.0137616],[139.0731205,36.0138393],[139.073248,36.0139518],[139.0732699,36.0139726],[139.0732903,36.0139939],[139.0733097,36.0140158],[139.073328,36.0140384],[139.0733451,36.0140615],[139.0733612,36.0140853],[139.0734002,36.0141521],[139.0734299,36.0142018],[139.0734524,36.0142383],[139.0734693,36.0142645],[139.0734826,36.0142838],[139.0734941,36.0142996],[139.0735052,36.014314],[139.0735158,36.0143274],[139.073526,36.0143397],[139.0735356,36.0143511],[139.0735447,36.0143615],[139.0735531,36.014371],[139.0735609,36.0143795],[139.0735681,36.0143872],[139.0735749,36.0143942],[139.0735814,36.0144005],[139.0735879,36.0144063],[139.0735944,36.0144118],[139.0736012,36.0144171],[139.0736087,36.0144225],[139.0736171,36.0144281],[139.0736269,36.0144341],[139.0736383,36.0144407],[139.0736517,36.0144481],[139.0736691,36.0144571],[139.0736928,36.0144688],[139.0737255,36.0144845],[139.0737696,36.014505],[139.0738276,36.0145316],[139.0739486,36.0145789],[139.0740168,36.0146069],[139.0741043,36.0146383],[139.0742052,36.01467],[139.0743647,36.0147118],[139.0745128,36.0147489],[139.0746422,36.0147822]]]},"properties":{"layer":"road","class_code":"1040","class_label":"道路"}},{"type":"Feature","id":"tran_69f56882-6027-4927-bce9-779af5ef19f1","geometry":{"type":"Polygon","coordinates":[[[139.0728719,36.0134203],[139.0728814,36.0134512],[139.0728883,36.0134751],[139.0728941,36.0135082],[139.0728973,36.0135389],[139.072895,36.0135855],[139.072895,36.0136065],[139.0728562,36.0136064],[139.0728562,36.0135849],[139.0728583,36.0135396],[139.0728556,36.0135117],[139.0728501,36.013481],[139.0728437,36.0134586],[139.0728342,36.013428],[139.0728719,36.0134203]]]},"properties":{"layer":"road","class_code":"1040","class_label":"道路"}},{"type":"Feature","id":"tran_ef5256c5-e226-4165-aef6-135f31925837","geometry":{"type":"Polygon","coordinates":[[[139.074756,36.0138432],[139.0747957,36.0138272],[139.0748087,36.0138485],[139.0748165,36.0138806],[139.074816,36.0139141],[139.074808,36.0139915],[139.0747942,36.0141029],[139.0747933,36.0141376],[139.0747986,36.014174],[139.0748213,36.0142607],[139.0748432,36.0143461],[139.0748559,36.0144143],[139.0748686,36.0144843],[139.0748762,36.0145117],[139.0748856,36.0145312],[139.0749018,36.0145631],[139.0749277,36.0146064],[139.0749388,36.0146275],[139.0749399,36.0146385],[139.0749409,36.0146478],[139.0749359,36.0146651],[139.0749211,36.0147087],[139.0749134,36.0147313],[139.0748968,36.0147654],[139.0748775,36.0147969],[139.0748284,36.0147963],[139.0748562,36.0147508],[139.0748708,36.0147208],[139.0748934,36.0146543],[139.0748961,36.0146451],[139.0748951,36.0146363],[139.0748874,36.0146213],[139.0748613,36.0145779],[139.0748444,36.0145447],[139.0748336,36.0145222],[139.074825,36.0144909],[139.0748119,36.0144197],[139.0747996,36.0143524],[139.0747779,36.0142682],[139.0747549,36.01418],[139.0747488,36.0141394],[139.0747499,36.0141007],[139.0747639,36.0139881],[139.0747716,36.0139124],[139.0747721,36.0138839],[139.0747664,36.0138603],[139.074756,36.0138432]]]},"properties":{"layer":"road","class_code":"1040","class_label":"道路"}},{"type":"Feature","id":"tran_ae6949f2-797f-4de3-82cd-63ea485fa110","geometry":{"type":"Polygon","coordinates":[[[139.0728374,36.0136131],[139.0728562,36.0136064],[139.072895,36.0136065],[139.072895,36.0136252],[139.0728961,36.0136392],[139.0729036,36.0136602],[139.0728733,36.0136865],[139.0728607,36.0136769],[139.0728363,36.0136593],[139.072816,36.0136454],[139.0728093,36.013641],[139.0728374,36.0136131]]]},"properties":{"layer":"road","class_code":"1040","class_label":"道路"}},{"type":"Feature","id":"tran_21850c38-3151-4629-8123-1ebfbc3ee991","geometry":{"type":"Polygon","coordinates":[[[139.0703865,36.0094754],[139.0704078,36.0094294],[139.0704372,36.0094324],[139.0704666,36.0094298],[139.0704992,36.0094594],[139.070467,36.0094828],[139.0704622,36.0094996],[139.0704703,36.009515],[139.0704459,36.0095255],[139.0703865,36.0094754]]]},"properties":{"layer":"road","class_code":"1040","class_label":"道路"}},{"type":"Feature","id":"tran_ca1f7c0d-146c-4af2-9105-7bc85f92a2b6","geometry":{"type":"Polygon","coordinates":[[[139.0704407,36.0086796],[139.0705352,36.0087778],[139.0705958,36.0088377],[139.0706045,36.0088474],[139.0706399,36.0088755],[139.0706109,36.0088927],[139.0705739,36.0088516],[139.0705136,36.0087919],[139.0704188,36.0086934],[139.0704407,36.0086796]]]},"properties":{"layer":"road","class_code":"1040","class_label":"道路"}},{"type":"Feature","id":"tran_7da79e2a-11a9-4c6e-970b-e9bf5c665dd7","geometry":{"type":"Polygon","coordinates":[[[139.0702011,36.0082898],[139.0702508,36.0083111],[139.0700948,36.0083583],[139.0699969,36.0083999],[139.0698925,36.0084295],[139.0697531,36.0084548],[139.0697399,36.0084071],[139.0699466,36.008364],[139.070082,36.0083269],[139.0702011,36.0082898]]]},"properties":{"layer":"road","class_code":"1040","class_label":"道路"}},{"type":"Feature","id":"tran_db89a685-23ac-452b-9e66-725eeadcd55c","geometry":{"type":"Polygon","coordinates":[[[139.0704459,36.0095255],[139.0704703,36.009515],[139.0704943,36.0095615],[139.0705519,36.0096502],[139.070585,36.0096943],[139.0706263,36.0097401],[139.0706684,36.0097734],[139.0707018,36.0097956],[139.0707508,36.0098181],[139.0707906,36.009834],[139.0708217,36.009852],[139.0708944,36.0099234],[139.0711373,36.0102294],[139.0711186,36.0102392],[139.0708764,36.009934],[139.0708064,36.0098653],[139.0707791,36.0098495],[139.0707404,36.009834],[139.0706893,36.0098106],[139.0706537,36.0097868],[139.0706094,36.009752],[139.0705666,36.0097043],[139.0705327,36.0096591],[139.0704459,36.0095255]]]},"properties":{"layer":"road","class_code":"1040","class_label":"道路"}},{"type":"Feature","id":"tran_6c99169f-3283-4372-ab91-97a1f66ed1a7","geometry":{"type":"Polygon","coordinates":[[[139.0704666,36.0094298],[139.0704944,36.0094217],[139.0705192,36.0094086],[139.0706794,36.0092923],[139.0707825,36.009219],[139.0707959,36.0092093],[139.0710212,36.0090568],[139.0710668,36.0090264],[139.0710709,36.0090233],[139.0710791,36.009065],[139.0710631,36.0090727],[139.0708955,36.0091773],[139.0708038,36.0092375],[139.0707016,36.0093125],[139.0704992,36.0094594],[139.0704666,36.0094298]]]},"properties":{"layer":"road","class_code":"1040","class_label":"道路"}},{"type":"Feature","id":"tran_c7e4bcd2-c831-4f83-83ae-b4c4bc49c01b","geometry":{"type":"Polygon","coordinates":[[[139.0643706,36.016435],[139.0643922,36.0164392],[139.0643779,36.0164883],[139.0643671,36.0165276],[139.0643516,36.0165542],[139.064328,36.0165895],[139.0643055,36.0166233],[139.0642861,36.0166716],[139.0642788,36.0167042],[139.0642754,36.0167437],[139.0642758,36.0167795],[139.0642752,36.016783],[139.0642532,36.0167805],[139.0642536,36.0167783],[139.0642533,36.0167431],[139.0642569,36.016702],[139.0642647,36.0166672],[139.064285,36.0166161],[139.0643084,36.0165809],[139.0643318,36.016546],[139.0643459,36.0165217],[139.0643563,36.0164842],[139.0643706,36.016435]]]},"properties":{"layer":"road","class_code":"1040","class_label":"道路"}},{"type":"Feature","id":"tran_d50c3399-63cb-4615-8d08-e53aa0c809a8","geometry":{"type":"Polygon","coordinates":[[[139.0697626,36.0091888],[139.0698104,36.0092687],[139.0698194,36.0092803],[139.0698316,36.0092897],[139.0698462,36.0092966],[139.0698625,36.0093004],[139.0698793,36.0093009],[139.0698958,36.0092981],[139.069946,36.0092823],[139.0699877,36.0092708],[139.0700338,36.0092659],[139.070071,36.0092656],[139.070121,36.0092773],[139.0702129,36.0093121],[139.0702466,36.0093314],[139.0703202,36.0093835],[139.0703556,36.0094074],[139.0703801,36.0094209],[139.0704078,36.0094294],[139.0703865,36.0094754],[139.0703269,36.0094251],[139.0702805,36.0093848],[139.0702233,36.0093445],[139.0701609,36.0093142],[139.0701128,36.0092941],[139.0700679,36.0092836],[139.0700354,36.0092839],[139.0699928,36.0092884],[139.0699536,36.0092993],[139.0699009,36.0093158],[139.0698815,36.0093215],[139.0698611,36.0093231],[139.0698407,36.0093206],[139.0698218,36.009314],[139.0698054,36.0093039],[139.0697927,36.0092907],[139.0697377,36.0091987],[139.0697626,36.0091888]]]},"properties":{"layer":"road","class_code":"1040","class_label":"道路"}},{"type":"Feature","id":"tran_0eab676f-73a7-41b8-9443-4f974c2c9518","geometry":{"type":"Polygon","coordinates":[[[139.0697159,36.0091622],[139.0697408,36.0091524],[139.0697538,36.0091559],[139.0697678,36.0091757],[139.0697626,36.0091888],[139.0697377,36.0091987],[139.0697159,36.0091622]]]},"properties":{"layer":"road","class_code":"1040","class_label":"道路"}},{"type":"Feature","id":"tran_c4bd4d30-80dd-4443-b87f-f69a62d2c158","geometry":{"type":"Polygon","coordinates":[[[139.0696767,36.0083928],[139.0697098,36.0083759],[139.0697252,36.0083959],[139.0697399,36.0084071],[139.0697531,36.0084548],[139.0697082,36.0084629],[139.0696858,36.0084741],[139.0696628,36.0084615],[139.0696767,36.0083928]]]},"properties":{"layer":"road","class_code":"1040","class_label":"道路"}},{"type":"Feature","id":"tran_92f07051-a8ac-4070-bf7d-0699ef1062be","geometry":{"type":"Polygon","coordinates":[[[139.0696131,36.0083099],[139.0696527,36.0083019],[139.0697098,36.0083759],[139.0696767,36.0083928],[139.0696131,36.0083099]]]},"properties":{"layer":"road","class_code":"1040","class_label":"道路"}},{"type":"Feature","id":"tran_b071ec00-e265-49d8-9f1d-0098b18692d9","geometry":{"type":"Polygon","coordinates":[[[139.0629988,36.0162656],[139.063043,36.0162464],[139.0630686,36.0162721],[139.0631282,36.0163149],[139.0632783,36.0163988],[139.063443,36.0164864],[139.0635812,36.0165503],[139.0636583,36.0166082],[139.0636979,36.016648],[139.0636515,36.0166658],[139.0636217,36.016636],[139.0635516,36.0165832],[139.0634169,36.016521],[139.0632506,36.0164325],[139.0630973,36.016347],[139.0630325,36.0163003],[139.063,36.0162679],[139.0629988,36.0162656]]]},"properties":{"layer":"road","class_code":"1040","class_label":"道路"}},{"type":"Feature","id":"tran_91b37e6f-e873-4fab-bdc0-23c91196cfa0","geometry":{"type":"Polygon","coordinates":[[[139.062981,36.016209],[139.0629812,36.0161975],[139.0629848,36.0161689],[139.0630004,36.0161248],[139.0630146,36.0160558],[139.0630113,36.0160151],[139.0629933,36.0159776],[139.0629901,36.015974],[139.0630377,36.0159583],[139.0630605,36.0160063],[139.0630649,36.0160578],[139.0630492,36.0161338],[139.0630341,36.0161766],[139.0630311,36.0161999],[139.0630309,36.0162096],[139.062981,36.016209]]]},"properties":{"layer":"road","class_code":"1040","class_label":"道路"}},{"type":"Feature","id":"tran_6916d7a5-1eec-43ff-a799-44ca2cfc5896","geometry":{"type":"Polygon","coordinates":[[[139.0629293,36.01625],[139.062981,36.016209],[139.0630309,36.0162096],[139.0630309,36.0162141],[139.0630352,36.0162324],[139.063043,36.0162464],[139.0629988,36.0162656],[139.0629564,36.0162726],[139.0629293,36.01625]]]},"properties":{"layer":"road","class_code":"1040","class_label":"道路"}},{"type":"Feature","id":"tran_5bfecd25-681b-42ac-a4fd-0ef8dfcef8c1","geometry":{"type":"Polygon","coordinates":[[[139.0629039,36.0158738],[139.0629565,36.0158641],[139.0630377,36.0159583],[139.0629901,36.015974],[139.0629803,36.0159676],[139.0629577,36.0159602],[139.0629445,36.0159569],[139.062926,36.0159577],[139.0628997,36.0159222],[139.0629008,36.0159201],[139.0629058,36.0158922],[139.0629039,36.0158738]]]},"properties":{"layer":"road","class_code":"1040","class_label":"道路"}},{"type":"Feature","id":"tran_bbe9f244-237f-4708-b88c-713bc3e3d53b","geometry":{"type":"Polygon","coordinates":[[[139.0628061,36.0163477],[139.0629293,36.01625],[139.0629564,36.0162726],[139.0628339,36.0163697],[139.0628061,36.0163477]]]},"properties":{"layer":"road","class_code":"1040","class_label":"道路"}},{"type":"Feature","id":"tran_1ac75dfe-9d69-4706-9fae-f7e0818bf52c","geometry":{"type":"Polygon","coordinates":[[[139.0621969,36.015095],[139.0622601,36.0151402],[139.0625637,36.0153708],[139.0627405,36.0155104],[139.0628002,36.0155566],[139.0628364,36.0156023],[139.0628659,36.0156576],[139.0628861,36.0157263],[139.0629051,36.015786],[139.0629319,36.0158322],[139.0629565,36.0158641],[139.0629039,36.0158738],[139.0629028,36.0158709],[139.062888,36.0158517],[139.0628579,36.0157998],[139.0628376,36.0157361],[139.0628184,36.0156704],[139.0627922,36.0156215],[139.0627614,36.0155827],[139.0627058,36.0155396],[139.0625292,36.0154002],[139.0622265,36.0151703],[139.0621639,36.0151254],[139.0621969,36.015095]]]},"properties":{"layer":"road","class_code":"1040","class_label":"道路"}},{"type":"Feature","id":"tran_85f1e8fc-05cf-464c-9ce2-fe928706ffe1","geometry":{"type":"Polygon","coordinates":[[[139.0621359,36.0164936],[139.0628997,36.0159222],[139.062926,36.0159577],[139.0621712,36.0165223],[139.0621359,36.0164936]]]},"properties":{"layer":"road","class_code":"1040","class_label":"道路"}},{"type":"Feature","id":"tran_cd65051c-42be-4887-a4f0-3aeb4a59297d","geometry":{"type":"Polygon","coordinates":[[[139.074915,36.0108988],[139.0749582,36.0108906],[139.0749749,36.0109494],[139.0749317,36.0109575],[139.0749054,36.0109511],[139.0748948,36.0109161],[139.074915,36.0108988]]]},"properties":{"layer":"road","class_code":"1040","class_label":"道路"}},{"type":"Feature","id":"tran_85a4df52-6c72-480b-9350-5a611bfffb6a","geometry":{"type":"Polygon","coordinates":[[[139.0748949,36.0148154],[139.074962,36.0148163],[139.0750483,36.014812],[139.0750553,36.0148574],[139.0750081,36.0148576],[139.0748891,36.0148558],[139.0748949,36.0148154]]]},"properties":{"layer":"road","class_code":"1040","class_label":"道路"}},{"type":"Feature","id":"tran_bf8b1c10-23a1-4bb3-871b-f17884f60920","geometry":{"type":"Polygon","coordinates":[[[139.0746776,36.0149031],[139.0747063,36.0149678],[139.0747402,36.0150432],[139.0747669,36.0151313],[139.0747873,36.0152164],[139.0747438,36.0152232],[139.0747236,36.015139],[139.0746977,36.0150538],[139.0746647,36.0149801],[139.0746358,36.0149153],[139.0746776,36.0149031]]]},"properties":{"layer":"road","class_code":"1040","class_label":"道路"}},{"type":"Feature","id":"tran_0b211091-58be-43f1-939b-5736742c1ee0","geometry":{"type":"Polygon","coordinates":[[[139.0747825,36.014811],[139.07478,36.0148514],[139.0746271,36.0148209],[139.0746422,36.0147822],[139.074697,36.0147949],[139.0747452,36.0148048],[139.0747825,36.014811]]]},"properties":{"layer":"road","class_code":"1040","class_label":"道路"}},{"type":"Feature","id":"tran_eded8a7a-20b3-4974-9c82-2b3419b524b1","geometry":{"type":"Polygon","coordinates":[[[139.0746709,36.0136971],[139.0746986,36.0137271],[139.0747628,36.0137876],[139.0747777,36.0138041],[139.0747418,36.0138254],[139.074728,36.01381],[139.0746629,36.0137487],[139.0746364,36.0137151],[139.0746709,36.0136971]]]},"properties":{"layer":"road","class_code":"1040","class_label":"道路"}},{"type":"Feature","id":"tran_99efa183-1202-4b12-8fdd-e0ee21a4d8d3","geometry":{"type":"Polygon","coordinates":[[[139.0746271,36.0148209],[139.07478,36.0148514],[139.0747031,36.0148823],[139.0746849,36.0148933],[139.0746204,36.0148674],[139.0746271,36.0148209]]]},"properties":{"layer":"road","class_code":"1040","class_label":"道路"}},{"type":"Feature","id":"tran_e0060383-8c48-4ccc-aeb2-454064900ff2","geometry":{"type":"Polygon","coordinates":[[[139.0746204,36.0148674],[139.0746849,36.0148933],[139.0746776,36.0149031],[139.0746358,36.0149153],[139.0746264,36.0148942],[139.0746204,36.0148674]]]},"properties":{"layer":"road","class_code":"1040","class_label":"道路"}},{"type":"Feature","id":"tran_1be5031b-0ae7-482a-88f6-c1847ad1ffbd","geometry":{"type":"Polygon","coordinates":[[[139.0746703,36.0128736],[139.0747247,36.012904],[139.0747179,36.0129111],[139.0747639,36.0129368],[139.0748126,36.0129624],[139.0747528,36.0130404],[139.0746793,36.0130032],[139.0746003,36.012962],[139.0746703,36.0128736]]]},"properties":{"layer":"road","class_code":"1040","class_label":"道路"}},{"type":"Feature","id":"tran_78bec6be-b3fa-4ad2-9e08-3859a7697bf2","geometry":{"type":"Polygon","coordinates":[[[139.0745881,36.0136659],[139.0746263,36.0136475],[139.0746312,36.0136543],[139.0746709,36.0136971],[139.0746364,36.0137151],[139.0746198,36.0137115],[139.0745832,36.0136812],[139.0745881,36.0136659]]]},"properties":{"layer":"road","class_code":"1040","class_label":"道路"}},{"type":"Feature","id":"tran_e2829124-e1ff-4f88-9bf2-44d7024741bb","geometry":{"type":"Polygon","coordinates":[[[139.0748948,36.0109161],[139.0749054,36.0109511],[139.0748303,36.010966],[139.0747638,36.0109972],[139.0746075,36.011074],[139.0745845,36.0110431],[139.0747413,36.0109662],[139.0748136,36.0109321],[139.0748948,36.0109161]]]},"properties":{"layer":"road","class_code":"1040","class_label":"道路"}},{"type":"Feature","id":"tran_9f8b4d5f-7172-43ce-83d7-db59340f0eaa","geometry":{"type":"Polygon","coordinates":[[[139.0745582,36.0129399],[139.0746289,36.0128505],[139.0746703,36.0128736],[139.0746003,36.012962],[139.0745721,36.0129704],[139.074545,36.0129498],[139.0745582,36.0129399]]]},"properties":{"layer":"road","class_code":"1040","class_label":"道路"}},{"type":"Feature","id":"tran_cb97c04c-5a23-4c26-b6c6-79a149caf722","geometry":{"type":"Polygon","coordinates":[[[139.0746204,36.0148674],[139.0746264,36.0148942],[139.0745083,36.0149242],[139.0745024,36.0149246],[139.0745017,36.0148975],[139.0746204,36.0148674]]]},"properties":{"layer":"road","class_code":"1040","class_label":"道路"}},{"type":"Feature","id":"tran_9ce3f051-57a5-4ff8-b450-7a7e65ddd0b6","geometry":{"type":"Polygon","coordinates":[[[139.074841,36.0130851],[139.0749,36.0130083],[139.0749218,36.0130198],[139.0750447,36.0130833],[139.0749852,36.0131593],[139.0748628,36.0130961],[139.074841,36.0130851]]]},"properties":{"layer":"road","class_code":"1040","class_label":"道路"}},{"type":"Feature","id":"tran_44723627-8971-4e8a-ad47-2161076f6f2a","geometry":{"type":"Polygon","coordinates":[[[139.0747528,36.0130404],[139.0748126,36.0129624],[139.0749,36.0130083],[139.074841,36.0130851],[139.0747954,36.0130841],[139.0747495,36.0130624],[139.0747528,36.0130404]]]},"properties":{"layer":"road","class_code":"1040","class_label":"道路"}},{"type":"Feature","id":"tran_ffe1ca6d-c4f9-4c8b-a860-2f845a3c018f","geometry":{"type":"Polygon","coordinates":[[[139.0745139,36.0134845],[139.0745185,36.0134936],[139.0745243,36.0135037],[139.0745314,36.0135152],[139.0745405,36.0135288],[139.0745531,36.0135468],[139.0745711,36.013572],[139.0745966,36.0136069],[139.0746263,36.0136475],[139.0745881,36.0136659],[139.0745584,36.0136253],[139.0745329,36.0135903],[139.0745146,36.0135648],[139.0745016,36.0135463],[139.0744921,36.0135319],[139.0744843,36.0135194],[139.0744779,36.0135081],[139.0744723,36.0134973],[139.0745139,36.0134845]]]},"properties":{"layer":"road","class_code":"1040","class_label":"道路"}},{"type":"Feature","id":"tran_6ad9ccb4-850b-4aa3-9f46-fecd4a886311","geometry":{"type":"Polygon","coordinates":[[[139.0745832,36.0136812],[139.0746198,36.0137115],[139.0744837,36.013769],[139.0744607,36.013733],[139.0745832,36.0136812]]]},"properties":{"layer":"road","class_code":"1040","class_label":"道路"}},{"type":"Feature","id":"tran_24ec7cef-13cb-4c9a-a3b1-a6b082f8ae56","geometry":{"type":"Polygon","coordinates":[[[139.0745017,36.0148975],[139.0745024,36.0149246],[139.0744737,36.0149479],[139.0744503,36.0149287],[139.0744471,36.0149018],[139.0745017,36.0148975]]]},"properties":{"layer":"road","class_code":"1040","class_label":"道路"}},{"type":"Feature","id":"tran_6ef885b3-c388-4868-9b3d-f69c4d92cfa0","geometry":{"type":"Polygon","coordinates":[[[139.0744014,36.0149683],[139.0744503,36.0149287],[139.0744737,36.0149479],[139.074434,36.01498],[139.0744315,36.0150268],[139.0744317,36.0151052],[139.0744399,36.0151541],[139.0744069,36.0151577],[139.0743985,36.015107],[139.0743982,36.0150263],[139.0744014,36.0149683]]]},"properties":{"layer":"road","class_code":"1040","class_label":"道路"}},{"type":"Feature","id":"tran_119497ab-7fcf-4fc1-bf3e-2394414147e7","geometry":{"type":"Polygon","coordinates":[[[139.0744057,36.0132014],[139.0747495,36.0130624],[139.0747954,36.0130841],[139.0744216,36.0132352],[139.0744057,36.0132014]]]},"properties":{"layer":"road","class_code":"1040","class_label":"道路"}},{"type":"Feature","id":"tran_c335e1e4-0d87-4da3-b796-f89694c8759c","geometry":{"type":"Polygon","coordinates":[[[139.0744448,36.0134157],[139.0744765,36.0134076],[139.0744776,36.0134103],[139.0745091,36.0134741],[139.0745136,36.013484],[139.0745139,36.0134845],[139.0744723,36.0134973],[139.0744721,36.0134968],[139.0744189,36.013484],[139.074392,36.0134346],[139.0744448,36.0134157]]]},"properties":{"layer":"road","class_code":"1040","class_label":"道路"}},{"type":"Feature","id":"tran_b2a46fd8-f3a3-4165-a72d-8b45659f7ca1","geometry":{"type":"Polygon","coordinates":[[[139.0744103,36.0132607],[139.0744224,36.0132846],[139.0744343,36.0133089],[139.0744447,36.0133308],[139.0744533,36.01335],[139.0744605,36.013367],[139.0744668,36.0133824],[139.0744724,36.0133969],[139.0744765,36.0134076],[139.0744448,36.0134157],[139.0744407,36.013405],[139.0744351,36.0133907],[139.074429,36.0133756],[139.074422,36.013359],[139.0744135,36.0133403],[139.0744033,36.0133187],[139.0743916,36.0132947],[139.0743795,36.0132709],[139.0744103,36.0132607]]]},"properties":{"layer":"road","class_code":"1040","class_label":"道路"}},{"type":"Feature","id":"tran_45e982a0-7982-4e9c-8936-f8f029f68ac2","geometry":{"type":"Polygon","coordinates":[[[139.0743742,36.0131927],[139.0744057,36.0132014],[139.0744216,36.0132352],[139.0744103,36.0132607],[139.0743795,36.0132709],[139.0743787,36.0132694],[139.0743654,36.0132438],[139.0743522,36.013219],[139.0743438,36.0132037],[139.0743742,36.0131927]]]},"properties":{"layer":"road","class_code":"1040","class_label":"道路"}},{"type":"Feature","id":"tran_04c02e41-3ce3-426f-a403-7b46acaea225","geometry":{"type":"Polygon","coordinates":[[[139.0695567,36.0082971],[139.0695958,36.008308],[139.0694957,36.0083642],[139.0693806,36.0084309],[139.069267,36.0085016],[139.0691607,36.0085761],[139.0691389,36.0085556],[139.069246,36.0084806],[139.0693609,36.0084091],[139.0694767,36.0083421],[139.0695567,36.0082971]]]},"properties":{"layer":"road","class_code":"1040","class_label":"道路"}},{"type":"Feature","id":"tran_50268d1b-9c1b-48e6-8a9c-faa95c38bc5d","geometry":{"type":"Polygon","coordinates":[[[139.0706109,36.0088927],[139.0706399,36.0088755],[139.0706502,36.0088798],[139.0706618,36.0088821],[139.0706741,36.0088825],[139.0706939,36.0088811],[139.0706981,36.0088793],[139.0707101,36.0088946],[139.0706578,36.0089165],[139.0706203,36.008931],[139.0706094,36.0089123],[139.0706148,36.0089065],[139.0706164,36.0088989],[139.0706109,36.0088927]]]},"properties":{"layer":"road","class_code":"1040","class_label":"道路"}},{"type":"Feature","id":"tran_90aa8abb-f2a1-4a2d-a7b6-e182b1f9764c","geometry":{"type":"Polygon","coordinates":[[[139.0706981,36.0088793],[139.0708265,36.0087995],[139.0709506,36.0087233],[139.0710601,36.0086472],[139.0710793,36.0086692],[139.071017,36.0087051],[139.0708399,36.0088139],[139.0707101,36.0088946],[139.0706981,36.0088793]]]},"properties":{"layer":"road","class_code":"1040","class_label":"道路"}},{"type":"Feature","id":"tran_1b16bbd4-15dd-43b7-a8de-81b79225692d","geometry":{"type":"Polygon","coordinates":[[[139.0708812,36.0104152],[139.0709995,36.0103323],[139.0710213,36.0103527],[139.070903,36.0104356],[139.0708812,36.0104152]]]},"properties":{"layer":"road","class_code":"1040","class_label":"道路"}},{"type":"Feature","id":"tran_f8c8a467-a481-4479-8c25-23cb84c28d78","geometry":{"type":"Polygon","coordinates":[[[139.0743062,36.0130106],[139.0743119,36.0130108],[139.0743371,36.013007],[139.074545,36.0129498],[139.0745721,36.0129704],[139.0745556,36.0129754],[139.0743455,36.0130332],[139.0743249,36.0130414],[139.0743062,36.0130106]]]},"properties":{"layer":"road","class_code":"1040","class_label":"道路"}},{"type":"Feature","id":"tran_48ad8edc-57d1-4e5d-8a42-4515878e17b6","geometry":{"type":"Polygon","coordinates":[[[139.0742717,36.0130814],[139.0743015,36.0130694],[139.0743236,36.0131059],[139.0743415,36.0131357],[139.0743565,36.0131612],[139.0743698,36.0131846],[139.0743742,36.0131927],[139.0743438,36.0132037],[139.0743395,36.0131958],[139.0743263,36.0131727],[139.0743115,36.0131475],[139.0742937,36.0131178],[139.0742717,36.0130814]]]},"properties":{"layer":"road","class_code":"1040","class_label":"道路"}},{"type":"Feature","id":"tran_9b650e6b-5965-4658-aaaa-d1f6184d8527","geometry":{"type":"Polygon","coordinates":[[[139.0743162,36.0116168],[139.074414,36.0117787],[139.0743742,36.0117946],[139.0742763,36.0116327],[139.0743162,36.0116168]]]},"properties":{"layer":"road","class_code":"1040","class_label":"道路"}},{"type":"Feature","id":"tran_fdfdf806-b21a-42bb-a243-7420f1eb624e","geometry":{"type":"Polygon","coordinates":[[[139.0710122,36.0103234],[139.0710339,36.0103438],[139.0710213,36.0103527],[139.0709995,36.0103323],[139.0710122,36.0103234]]]},"properties":{"layer":"road","class_code":"1040","class_label":"道路"}},{"type":"Feature","id":"tran_b38c771f-35e8-4932-abd6-c3637dee61f3","geometry":{"type":"Polygon","coordinates":[[[139.0749376,36.0113674],[139.0749096,36.0113717],[139.0747719,36.0114043],[139.0746499,36.0114385],[139.0745303,36.0114859],[139.0742926,36.0115778],[139.0742736,36.0115452],[139.0745111,36.0114534],[139.0745136,36.0114525],[139.0745908,36.0114068],[139.0746265,36.0113927],[139.0747307,36.0113634],[139.0748035,36.0113497],[139.0749041,36.0113248],[139.0749117,36.0113219],[139.0749376,36.0113674]]]},"properties":{"layer":"road","class_code":"1040","class_label":"道路"}},{"type":"Feature","id":"tran_be4357b3-ee7a-4def-8583-dc58e00781fb","geometry":{"type":"Polygon","coordinates":[[[139.0710122,36.0103234],[139.0711235,36.0102453],[139.0711452,36.0102658],[139.0710339,36.0103438],[139.0710122,36.0103234]]]},"properties":{"layer":"road","class_code":"1040","class_label":"道路"}},{"type":"Feature","id":"tran_5a799d55-e0df-4b48-87ab-76cb8872a4b1","geometry":{"type":"Polygon","coordinates":[[[139.0743101,36.0094596],[139.0743463,36.00948],[139.0743844,36.0095049],[139.0744102,36.0095306],[139.0744387,36.0095602],[139.0744583,36.0095881],[139.0744789,36.009615],[139.0744412,36.0096341],[139.0744202,36.0096066],[139.0744018,36.0095804],[139.0743754,36.0095532],[139.0743529,36.0095306],[139.0743197,36.0095089],[139.0742878,36.0094909],[139.0742844,36.0094896],[139.0743101,36.0094596]]]},"properties":{"layer":"road","class_code":"1040","class_label":"道路"}},{"type":"Feature","id":"tran_2262f06b-a33c-4763-a963-2726cb2e6d83","geometry":{"type":"Polygon","coordinates":[[[139.0710213,36.0103527],[139.0710339,36.0103438],[139.0711578,36.0104829],[139.0712656,36.0106088],[139.0712678,36.0106103],[139.0712704,36.0106114],[139.0712732,36.0106121],[139.0712761,36.0106122],[139.071279,36.0106117],[139.0712817,36.0106108],[139.0713256,36.0105871],[139.0713472,36.0105759],[139.0713556,36.0105722],[139.0713605,36.0105707],[139.0713647,36.0105697],[139.0713687,36.0105691],[139.0713727,36.0105688],[139.071377,36.010569],[139.0713816,36.0105696],[139.0713864,36.0105709],[139.0713913,36.0105729],[139.0713962,36.0105755],[139.0714015,36.0105788],[139.0714075,36.0105833],[139.0714146,36.0105901],[139.0714236,36.0106003],[139.0714381,36.0106186],[139.0714691,36.0106588],[139.0715376,36.0107474],[139.0715227,36.0107536],[139.071455,36.010666],[139.071424,36.0106258],[139.0714098,36.0106079],[139.0714015,36.0105984],[139.0713954,36.0105926],[139.0713907,36.0105891],[139.0713867,36.0105866],[139.0713831,36.0105847],[139.07138,36.0105835],[139.0713775,36.0105828],[139.0713752,36.0105824],[139.071373,36.0105824],[139.0713708,36.0105825],[139.0713684,36.0105829],[139.0713658,36.0105835],[139.0713626,36.0105845],[139.0713557,36.0105875],[139.0713347,36.0105984],[139.0712675,36.0106347],[139.0711442,36.0104907],[139.0710213,36.0103527]]]},"properties":{"layer":"road","class_code":"1040","class_label":"道路"}},{"type":"Feature","id":"tran_785ab965-f005-4b80-ba3c-0ac665659303","geometry":{"type":"Polygon","coordinates":[[[139.0744471,36.0149018],[139.0744503,36.0149287],[139.0742219,36.0149466],[139.0742187,36.0149196],[139.0744471,36.0149018]]]},"properties":{"layer":"road","class_code":"1040","class_label":"道路"}},{"type":"Feature","id":"tran_4a88bfda-b853-4b75-b226-452207398c3f","geometry":{"type":"Polygon","coordinates":[[[139.071119,36.0086063],[139.071234,36.0086083],[139.071233,36.0086446],[139.0712492,36.0086574],[139.0712718,36.0087035],[139.071231,36.0087166],[139.0711247,36.0087147],[139.0711297,36.0086903],[139.0711027,36.0086737],[139.0710793,36.0086692],[139.0710601,36.0086472],[139.071119,36.0086063]]]},"properties":{"layer":"road","class_code":"1040","class_label":"道路"}},{"type":"Feature","id":"tran_be482a5c-1a39-45ab-9fe5-81577e758339","geometry":{"type":"Polygon","coordinates":[[[139.0742645,36.0093816],[139.0743131,36.0093296],[139.0743788,36.0092635],[139.0744133,36.0092862],[139.074348,36.0093518],[139.0742999,36.0094034],[139.0742645,36.0093816]]]},"properties":{"layer":"road","class_code":"1040","class_label":"道路"}},{"type":"Feature","id":"tran_9bd5bf52-8edc-454b-bcc2-362fad3761d7","geometry":{"type":"Polygon","coordinates":[[[139.0711117,36.0089919],[139.0712226,36.0089946],[139.0712197,36.0090724],[139.0711088,36.0090696],[139.0710871,36.009064],[139.0710791,36.009065],[139.0710709,36.0090233],[139.0711117,36.0089919]]]},"properties":{"layer":"road","class_code":"1040","class_label":"道路"}},{"type":"Feature","id":"tran_4e36eb85-7063-44e2-950e-4759dae10c6f","geometry":{"type":"Polygon","coordinates":[[[139.0743015,36.0130694],[139.0742717,36.0130814],[139.0742256,36.0130191],[139.0742441,36.0129966],[139.0742652,36.0130047],[139.0742852,36.0130098],[139.0743062,36.0130106],[139.0743249,36.0130414],[139.0743015,36.0130694]]]},"properties":{"layer":"road","class_code":"1040","class_label":"道路"}},{"type":"Feature","id":"tran_194ff7ce-7c9e-452d-aa9f-511d9f763077","geometry":{"type":"Polygon","coordinates":[[[139.0711088,36.0090696],[139.0712197,36.0090724],[139.0712154,36.0091884],[139.0712108,36.009282],[139.0712109,36.0093042],[139.0712126,36.0093261],[139.0712157,36.0093478],[139.0712204,36.0093694],[139.0712267,36.0093907],[139.0712344,36.0094117],[139.0712436,36.0094322],[139.0712543,36.0094524],[139.0712664,36.0094721],[139.071281,36.0094932],[139.0712969,36.0095138],[139.0713139,36.0095338],[139.071332,36.0095531],[139.0713511,36.0095718],[139.0713713,36.0095897],[139.0713925,36.0096068],[139.0714146,36.0096232],[139.0714387,36.0096394],[139.0715525,36.0097192],[139.0717211,36.0098325],[139.0716466,36.0099056],[139.0716265,36.0098916],[139.07148,36.0097874],[139.0713671,36.0097082],[139.0713418,36.0096912],[139.071316,36.0096721],[139.0712912,36.0096521],[139.0712676,36.0096311],[139.0712452,36.0096093],[139.071224,36.0095867],[139.0712042,36.0095633],[139.0711856,36.0095392],[139.0711684,36.0095144],[139.0711536,36.0094903],[139.0711404,36.0094655],[139.0711291,36.00944],[139.0711195,36.009414],[139.0711118,36.0093877],[139.0711059,36.009361],[139.071102,36.0093341],[139.0711,36.009307],[139.0710999,36.0092804],[139.0711046,36.0091853],[139.0711088,36.0090696]]]},"properties":{"layer":"road","class_code":"1040","class_label":"道路"}},{"type":"Feature","id":"tran_f86a72b2-e310-43a0-83dd-4ea22d8a76fd","geometry":{"type":"Polygon","coordinates":[[[139.0711117,36.0089919],[139.071115,36.008904],[139.0711194,36.0087408],[139.0711247,36.0087147],[139.071231,36.0087166],[139.0712258,36.0089063],[139.0712226,36.0089946],[139.0711117,36.0089919]]]},"properties":{"layer":"road","class_code":"1040","class_label":"道路"}},{"type":"Feature","id":"tran_7883ffcb-315a-4394-a5d3-baa1632d9286","geometry":{"type":"Polygon","coordinates":[[[139.0711373,36.0102294],[139.0711434,36.0102313],[139.0711631,36.0102532],[139.0711452,36.0102658],[139.0711235,36.0102453],[139.0711186,36.0102392],[139.0711373,36.0102294]]]},"properties":{"layer":"road","class_code":"1040","class_label":"道路"}},{"type":"Feature","id":"tran_636b5bbb-61b5-4322-8edb-a29ad3bf79af","geometry":{"type":"Polygon","coordinates":[[[139.0717046,36.0099539],[139.071721,36.0099774],[139.0716285,36.01002],[139.0715316,36.0100699],[139.0714,36.0101349],[139.0711631,36.0102532],[139.0711434,36.0102313],[139.0713826,36.0101118],[139.0715141,36.010047],[139.0716114,36.0099969],[139.0717046,36.0099539]]]},"properties":{"layer":"road","class_code":"1040","class_label":"道路"}},{"type":"Feature","id":"tran_95c952be-a9a4-484e-8c43-4279f9738ac7","geometry":{"type":"Polygon","coordinates":[[[139.0742199,36.0094294],[139.0742645,36.0093816],[139.0742999,36.0094034],[139.0742936,36.0094214],[139.0742941,36.0094355],[139.0742976,36.0094484],[139.0743055,36.0094577],[139.0743101,36.0094596],[139.0742844,36.0094896],[139.074255,36.0094783],[139.0742284,36.0094732],[139.0742199,36.0094294]]]},"properties":{"layer":"road","class_code":"1040","class_label":"道路"}},{"type":"Feature","id":"tran_a1f26b02-a0cb-449d-abba-8423fc15cdf0","geometry":{"type":"Polygon","coordinates":[[[139.0715132,36.010758],[139.071527,36.0107775],[139.0711891,36.0109345],[139.0711753,36.010915],[139.0715132,36.010758]]]},"properties":{"layer":"road","class_code":"1040","class_label":"道路"}},{"type":"Feature","id":"tran_1514c7a1-286f-4c96-98a2-db9620672867","geometry":{"type":"Polygon","coordinates":[[[139.0712492,36.0086574],[139.0713935,36.0086108],[139.0714444,36.0085992],[139.0714965,36.0085917],[139.0715492,36.0085885],[139.0716021,36.0085896],[139.0716545,36.0085949],[139.0717061,36.0086045],[139.0718711,36.0086455],[139.0720136,36.008583],[139.0720426,36.0086267],[139.0718776,36.0086989],[139.0716904,36.0086524],[139.071644,36.0086438],[139.0715975,36.0086391],[139.0715507,36.0086382],[139.0715041,36.008641],[139.071458,36.0086476],[139.0714131,36.0086578],[139.0712718,36.0087035],[139.0712492,36.0086574]]]},"properties":{"layer":"road","class_code":"1040","class_label":"道路"}},{"type":"Feature","id":"tran_b2f1a331-4004-4a7f-aac2-0cb3d0a80b4d","geometry":{"type":"Polygon","coordinates":[[[139.0715227,36.0107536],[139.0715376,36.0107474],[139.071566,36.0107361],[139.0715783,36.0107563],[139.0715675,36.0107783],[139.0715457,36.0107817],[139.071527,36.0107775],[139.0715132,36.010758],[139.0715227,36.0107536]]]},"properties":{"layer":"road","class_code":"1040","class_label":"道路"}},{"type":"Feature","id":"tran_311554cd-68c2-42e1-9cff-47f7ae025e8d","geometry":{"type":"Polygon","coordinates":[[[139.0715183,36.0114536],[139.0717483,36.0113634],[139.0717627,36.0113877],[139.0715328,36.0114779],[139.0715183,36.0114536]]]},"properties":{"layer":"road","class_code":"1040","class_label":"道路"}},{"type":"Feature","id":"tran_aea3f949-306f-485f-9e07-33ccc24b7099","geometry":{"type":"Polygon","coordinates":[[[139.0742736,36.0115452],[139.0742926,36.0115778],[139.0743162,36.0116168],[139.0742763,36.0116327],[139.0742232,36.011619],[139.074216,36.0116074],[139.074197,36.0115748],[139.0742736,36.0115452]]]},"properties":{"layer":"road","class_code":"1040","class_label":"道路"}},{"type":"Feature","id":"tran_b37d1b0a-a873-4086-97f0-f4568c5c14f3","geometry":{"type":"Polygon","coordinates":[[[139.0742054,36.0094242],[139.0742199,36.0094294],[139.0742284,36.0094732],[139.0742011,36.0094745],[139.0741689,36.0094835],[139.0742054,36.0094242]]]},"properties":{"layer":"road","class_code":"1040","class_label":"道路"}},{"type":"Feature","id":"tran_29dd1f9d-4eb8-4df8-b8c9-e4d7a113232b","geometry":{"type":"Polygon","coordinates":[[[139.0715675,36.0107783],[139.0715795,36.0108283],[139.0715848,36.0108668],[139.0715875,36.0108979],[139.0715887,36.010925],[139.0715868,36.0109531],[139.0715814,36.010988],[139.0715744,36.0110294],[139.0715704,36.0110628],[139.0715705,36.0110875],[139.071574,36.0111099],[139.0715807,36.0111305],[139.0715897,36.0111477],[139.0716009,36.0111617],[139.0716165,36.0111758],[139.0716324,36.0111898],[139.071647,36.0112036],[139.0716655,36.0112209],[139.0716924,36.0112494],[139.0717684,36.0113312],[139.0717507,36.0113421],[139.0716747,36.0112603],[139.0716483,36.0112323],[139.0716302,36.0112154],[139.0716159,36.0112018],[139.0716,36.0111879],[139.0715832,36.0111726],[139.0715701,36.0111562],[139.0715597,36.0111364],[139.0715522,36.0111133],[139.0715484,36.0110886],[139.0715482,36.0110619],[139.0715524,36.0110273],[139.0715595,36.0109856],[139.0715647,36.0109515],[139.0715664,36.0109248],[139.0715654,36.0108988],[139.0715627,36.0108684],[139.0715575,36.010831],[139.0715457,36.0107817],[139.0715675,36.0107783]]]},"properties":{"layer":"road","class_code":"1040","class_label":"道路"}},{"type":"Feature","id":"tran_82c0a198-4ca1-43d4-ba5f-e4ea302e59a3","geometry":{"type":"Polygon","coordinates":[[[139.071566,36.0107361],[139.0723716,36.0104152],[139.0723919,36.0104322],[139.0715783,36.0107563],[139.071566,36.0107361]]]},"properties":{"layer":"road","class_code":"1040","class_label":"道路"}},{"type":"Feature","id":"tran_0b9c6f1d-8653-4e3b-8156-29269736e97f","geometry":{"type":"Polygon","coordinates":[[[139.0716466,36.0099056],[139.0717211,36.0098325],[139.0717495,36.0098524],[139.0716733,36.0099241],[139.0716466,36.0099056]]]},"properties":{"layer":"road","class_code":"1040","class_label":"道路"}},{"type":"Feature","id":"tran_ab09abd6-dfca-4a46-94ae-356d5c1ae0d8","geometry":{"type":"Polygon","coordinates":[[[139.0742054,36.0094242],[139.0741689,36.0094835],[139.0741296,36.0094668],[139.0741429,36.0094455],[139.0741568,36.0094228],[139.0741655,36.0094083],[139.0742054,36.0094242]]]},"properties":{"layer":"road","class_code":"1040","class_label":"道路"}},{"type":"Feature","id":"tran_3ec18a2a-ba10-4489-b473-7e28743ac0af","geometry":{"type":"Polygon","coordinates":[[[139.0749582,36.0108906],[139.074915,36.0108988],[139.0749065,36.0108692],[139.0748701,36.0107099],[139.0748356,36.0105828],[139.0748231,36.0105497],[139.0748098,36.0105274],[139.0747933,36.010513],[139.0747728,36.0104994],[139.074719,36.0104739],[139.0745814,36.0104113],[139.0744412,36.0103454],[139.0743637,36.0103126],[139.0742472,36.0102735],[139.0740715,36.0102185],[139.0740875,36.0101848],[139.0742636,36.01024],[139.0743826,36.0102799],[139.0744625,36.0103138],[139.0746034,36.0103799],[139.0747411,36.0104426],[139.0747982,36.0104697],[139.0748237,36.0104867],[139.0748469,36.0105069],[139.0748645,36.0105364],[139.0748785,36.0105736],[139.0749136,36.0107028],[139.0749499,36.0108618],[139.0749582,36.0108906]]]},"properties":{"layer":"road","class_code":"1040","class_label":"道路"}},{"type":"Feature","id":"tran_c4fc85d2-2942-4dc4-8eb0-da08271c634d","geometry":{"type":"Polygon","coordinates":[[[139.0716733,36.0099241],[139.0717495,36.0098524],[139.0717872,36.0098789],[139.0717114,36.0099507],[139.0716733,36.0099241]]]},"properties":{"layer":"road","class_code":"1040","class_label":"道路"}},{"type":"Feature","id":"tran_b3dda8a1-f28e-4dea-9a01-a1f73eb4bfaa","geometry":{"type":"Polygon","coordinates":[[[139.0699136,36.0091044],[139.0699252,36.0091056],[139.0699369,36.0091018],[139.0701062,36.0090519],[139.0703958,36.0089729],[139.0705244,36.0089381],[139.0705666,36.0089294],[139.0705838,36.0089232],[139.0706094,36.0089123],[139.0706203,36.008931],[139.0705862,36.008944],[139.0705307,36.0089555],[139.0704029,36.0089901],[139.0701136,36.009069],[139.0699447,36.0091187],[139.0697678,36.0091757],[139.0697538,36.0091559],[139.0699136,36.0091044]]]},"properties":{"layer":"road","class_code":"1040","class_label":"道路"}},{"type":"Feature","id":"tran_518b9e78-72c1-408d-93b0-b4c639955ff4","geometry":{"type":"Polygon","coordinates":[[[139.0740715,36.0102185],[139.0740448,36.0102227],[139.0740014,36.0102148],[139.0740045,36.0101972],[139.0739992,36.0101755],[139.0740411,36.0101636],[139.0740875,36.0101848],[139.0740715,36.0102185]]]},"properties":{"layer":"road","class_code":"1040","class_label":"道路"}},{"type":"Feature","id":"tran_f4769656-cd30-475d-896d-1ac515c87ea8","geometry":{"type":"Polygon","coordinates":[[[139.0717114,36.0099507],[139.0717872,36.0098789],[139.0718257,36.0099059],[139.0717498,36.0099775],[139.0717389,36.0099768],[139.071721,36.0099774],[139.0717046,36.0099539],[139.0717114,36.0099507]]]},"properties":{"layer":"road","class_code":"1040","class_label":"道路"}},{"type":"Feature","id":"tran_d17ceab1-10f5-4fc4-b4de-a150e6ca6237","geometry":{"type":"Polygon","coordinates":[[[139.0718047,36.0097673],[139.0718701,36.0097369],[139.071957,36.0096919],[139.072019,36.0096485],[139.0720922,36.0095971],[139.0721419,36.0095546],[139.0722317,36.0094873],[139.072282,36.0094573],[139.0723196,36.009441],[139.072339,36.0094345],[139.0723559,36.0094288],[139.0724031,36.0094227],[139.0724466,36.0094215],[139.072485,36.0094216],[139.0725337,36.0094226],[139.0725779,36.0094254],[139.0726419,36.0094278],[139.0727114,36.0094285],[139.0727465,36.0094253],[139.0727863,36.0094177],[139.072861,36.0093991],[139.0729245,36.0093877],[139.0730265,36.0093777],[139.0730973,36.0093703],[139.0731349,36.0093642],[139.0731692,36.0093536],[139.073224,36.0093348],[139.0732984,36.0093028],[139.0733444,36.0092839],[139.0733752,36.0092771],[139.0734139,36.0092724],[139.0734562,36.0092727],[139.0735324,36.009274],[139.0736032,36.0092733],[139.073771,36.0092627],[139.0738378,36.0094168],[139.0738738,36.0095111],[139.0739051,36.009586],[139.0739251,36.0096289],[139.073942,36.0096657],[139.073923,36.0096765],[139.0739043,36.0096353],[139.0738843,36.0095921],[139.0738527,36.0095166],[139.0738168,36.0094225],[139.0737557,36.0092818],[139.0736042,36.0092913],[139.0735323,36.0092921],[139.0734558,36.0092907],[139.0734155,36.0092904],[139.0733798,36.0092948],[139.0733524,36.0093008],[139.0733085,36.0093189],[139.0732335,36.0093511],[139.0731775,36.0093703],[139.0731411,36.0093815],[139.073101,36.0093881],[139.0730292,36.0093956],[139.0729282,36.0094055],[139.0728666,36.0094165],[139.072792,36.0094352],[139.0727502,36.0094431],[139.0727125,36.0094466],[139.0726408,36.0094458],[139.0725765,36.0094434],[139.0725326,36.0094407],[139.0724847,36.0094396],[139.072447,36.0094396],[139.0724053,36.0094407],[139.072362,36.0094462],[139.0723388,36.009454],[139.072329,36.0094574],[139.0722938,36.0094726],[139.0722458,36.0095012],[139.0721576,36.0095674],[139.0721076,36.0096102],[139.0720335,36.0096622],[139.0719703,36.0097064],[139.0718816,36.0097524],[139.0718178,36.0097819],[139.0717892,36.009803],[139.0717684,36.0098252],[139.0717495,36.0098524],[139.0717211,36.0098325],[139.0717468,36.0098022],[139.0718047,36.0097673]]]},"properties":{"layer":"road","class_code":"1040","class_label":"道路"}},{"type":"Feature","id":"tran_8deedbf8-11f1-4f9a-817a-bd8df73d1d67","geometry":{"type":"Polygon","coordinates":[[[139.0718257,36.0099059],[139.0720084,36.0100342],[139.0722542,36.0102107],[139.072331,36.0102682],[139.0724136,36.0103302],[139.0724463,36.0103563],[139.0723716,36.0104152],[139.0723564,36.0104025],[139.0723299,36.0103825],[139.072197,36.0102827],[139.072092,36.0102129],[139.0718959,36.0100797],[139.0717498,36.0099775],[139.0718257,36.0099059]]]},"properties":{"layer":"road","class_code":"1040","class_label":"道路"}},{"type":"Feature","id":"tran_da14febf-8995-4888-a1d2-c60e6d1bae1e","geometry":{"type":"Polygon","coordinates":[[[139.0717483,36.0113634],[139.0717507,36.0113421],[139.0717684,36.0113312],[139.0718059,36.01134],[139.0718215,36.0113638],[139.0718069,36.0113701],[139.0717847,36.0113791],[139.0717627,36.0113877],[139.0717483,36.0113634]]]},"properties":{"layer":"road","class_code":"1040","class_label":"道路"}},{"type":"Feature","id":"tran_6ce7c850-ba8d-4e8d-9239-850bc0b49b9a","geometry":{"type":"Polygon","coordinates":[[[139.0718235,36.0113321],[139.0718399,36.0113556],[139.071829,36.0113606],[139.0718215,36.0113638],[139.0718059,36.01134],[139.071813,36.0113369],[139.0718235,36.0113321]]]},"properties":{"layer":"road","class_code":"1040","class_label":"道路"}},{"type":"Feature","id":"tran_4df5beb8-d712-43c1-9d13-3b160175dd85","geometry":{"type":"Polygon","coordinates":[[[139.0741689,36.0094835],[139.0741555,36.0095043],[139.074142,36.0095243],[139.0741284,36.0095436],[139.0741142,36.0095626],[139.0740993,36.0095814],[139.0740835,36.0096001],[139.0740667,36.0096189],[139.074049,36.009638],[139.0740302,36.0096578],[139.0740107,36.0096784],[139.0739972,36.0096926],[139.0739621,36.0096705],[139.0739756,36.0096563],[139.0739951,36.0096358],[139.0740137,36.0096162],[139.0740311,36.0095974],[139.0740473,36.0095793],[139.0740624,36.0095614],[139.0740766,36.0095435],[139.0740901,36.0095253],[139.0741033,36.0095066],[139.0741164,36.0094872],[139.0741296,36.0094668],[139.0741689,36.0094835]]]},"properties":{"layer":"road","class_code":"1040","class_label":"道路"}},{"type":"Feature","id":"tran_3a24a41d-a8f7-4cd5-88e4-fda1d07764df","geometry":{"type":"Polygon","coordinates":[[[139.0718235,36.0113321],[139.0718339,36.0113273],[139.0718541,36.0113173],[139.0718728,36.0113067],[139.0718918,36.0113289],[139.0718856,36.0113544],[139.0718665,36.0113666],[139.0718399,36.0113556],[139.0718235,36.0113321]]]},"properties":{"layer":"road","class_code":"1040","class_label":"道路"}},{"type":"Feature","id":"tran_ae9ef487-cdd9-4c03-bb94-fd953e819706","geometry":{"type":"Polygon","coordinates":[[[139.0739992,36.0101755],[139.0739577,36.0100791],[139.0739996,36.0100672],[139.0740411,36.0101636],[139.0739992,36.0101755]]]},"properties":{"layer":"road","class_code":"1040","class_label":"道路"}},{"type":"Feature","id":"tran_836a2948-07cc-4d01-8d5f-44a70f2e33f8","geometry":{"type":"Polygon","coordinates":[[[139.0718856,36.0113544],[139.0718926,36.0113665],[139.072016,36.0115762],[139.0720196,36.0116281],[139.0720231,36.0116811],[139.0720384,36.0117626],[139.0720441,36.011792],[139.072022,36.0117938],[139.0720164,36.0117654],[139.072001,36.011683],[139.0719975,36.0116291],[139.0719941,36.0115807],[139.0718725,36.0113743],[139.0718665,36.0113666],[139.0718856,36.0113544]]]},"properties":{"layer":"road","class_code":"1040","class_label":"道路"}},{"type":"Feature","id":"tran_10dc01a2-88e3-4ee7-9892-4178282fdead","geometry":{"type":"Polygon","coordinates":[[[139.0718728,36.0113067],[139.0719672,36.0112531],[139.0719933,36.0112381],[139.0720199,36.0112234],[139.0720467,36.011209],[139.0720738,36.0111949],[139.0721012,36.0111813],[139.0723339,36.011069],[139.0724768,36.0109929],[139.0724952,36.0110159],[139.0723509,36.0110922],[139.0721184,36.0112044],[139.0720915,36.0112179],[139.0720648,36.0112317],[139.0720384,36.0112458],[139.0720123,36.0112603],[139.0719863,36.0112752],[139.0718918,36.0113289],[139.0718728,36.0113067]]]},"properties":{"layer":"road","class_code":"1040","class_label":"道路"}},{"type":"Feature","id":"tran_0fca355d-7fd9-4fc2-b5ab-2f780ca049a7","geometry":{"type":"Polygon","coordinates":[[[139.0747974,36.0148115],[139.0747951,36.014852],[139.07478,36.0148514],[139.0747825,36.014811],[139.0747974,36.0148115]]]},"properties":{"layer":"road","class_code":"1040","class_label":"道路"}},{"type":"Feature","id":"tran_a4df7b02-dd36-488d-bc26-a0ee9d2ba0a9","geometry":{"type":"Polygon","coordinates":[[[139.0739432,36.0100461],[139.0739849,36.0100338],[139.0739922,36.0100501],[139.0739996,36.0100672],[139.0739577,36.0100791],[139.0739366,36.0100804],[139.0739222,36.0100666],[139.0739432,36.0100461]]]},"properties":{"layer":"road","class_code":"1040","class_label":"道路"}},{"type":"Feature","id":"tran_b96f30b5-f010-4ac1-bbaa-e3b0f91b4702","geometry":{"type":"Polygon","coordinates":[[[139.0748311,36.0132351],[139.0748667,36.0132176],[139.0749435,36.013179],[139.0749852,36.0131593],[139.0750019,36.0131828],[139.0749606,36.0132022],[139.0748841,36.0132407],[139.0748482,36.0132583],[139.0748311,36.0132351]]]},"properties":{"layer":"road","class_code":"1040","class_label":"道路"}},{"type":"Feature","id":"tran_91b61fff-2f77-4a17-aab1-a3c350247c06","geometry":{"type":"Polygon","coordinates":[[[139.073923,36.0096765],[139.073942,36.0096657],[139.0739621,36.0096705],[139.0739972,36.0096926],[139.0739912,36.0096988],[139.0739728,36.0097181],[139.0739668,36.0097245],[139.0739316,36.0097026],[139.073923,36.0096765]]]},"properties":{"layer":"road","class_code":"1040","class_label":"道路"}},{"type":"Feature","id":"tran_6d0d954a-1364-4fc7-a261-90ff9386e352","geometry":{"type":"Polygon","coordinates":[[[139.0738136,36.0136748],[139.0739331,36.013615],[139.0740087,36.0135855],[139.0741447,36.0135124],[139.0742127,36.013499],[139.074392,36.0134346],[139.0744189,36.013484],[139.0742341,36.0135504],[139.0741717,36.0135627],[139.0740416,36.0136326],[139.0739651,36.0136625],[139.0738486,36.0137209],[139.0738136,36.0136748]]]},"properties":{"layer":"road","class_code":"1040","class_label":"道路"}},{"type":"Feature","id":"tran_0658dce0-eede-46ab-a944-27f06b3feeb6","geometry":{"type":"Polygon","coordinates":[[[139.0738665,36.0097709],[139.0739184,36.0097167],[139.0739214,36.0097134],[139.0739316,36.0097026],[139.0739668,36.0097245],[139.0739568,36.0097351],[139.0739435,36.0097497],[139.0739326,36.0097623],[139.0739238,36.0097734],[139.0739167,36.0097837],[139.0739111,36.0097932],[139.0739068,36.0098016],[139.0739037,36.0098087],[139.0739017,36.0098146],[139.0739006,36.0098201],[139.0739,36.0098258],[139.0739001,36.0098322],[139.0739009,36.0098396],[139.0739028,36.0098485],[139.0739061,36.0098593],[139.0739119,36.0098743],[139.0739216,36.0098962],[139.0739363,36.0099276],[139.0739586,36.0099752],[139.0739849,36.0100338],[139.0739432,36.0100461],[139.073917,36.0099878],[139.0738948,36.0099404],[139.0738868,36.0099232],[139.0738499,36.0098503],[139.0738465,36.0098367],[139.0738455,36.0098229],[139.0738471,36.0098091],[139.0738512,36.0097956],[139.0738577,36.0097828],[139.0738665,36.0097709]]]},"properties":{"layer":"road","class_code":"1040","class_label":"道路"}},{"type":"Feature","id":"tran_6ccd0b5d-6f08-470e-a220-3dbf3b49b99c","geometry":{"type":"Polygon","coordinates":[[[139.0739462,36.0116635],[139.0741734,36.011584],[139.074197,36.0115748],[139.074216,36.0116074],[139.0741917,36.0116168],[139.0739637,36.0116966],[139.0738732,36.0117224],[139.0738421,36.0117401],[139.0738161,36.0116934],[139.0738619,36.0116829],[139.0739462,36.0116635]]]},"properties":{"layer":"road","class_code":"1040","class_label":"道路"}},{"type":"Feature","id":"tran_25f48c36-aacd-44a6-9f93-6a89f92a8bbf","geometry":{"type":"Polygon","coordinates":[[[139.0721636,36.0153655],[139.0721754,36.0153859],[139.0721082,36.0154115],[139.0720717,36.015432],[139.0720481,36.015451],[139.0720264,36.0154711],[139.0720096,36.0154895],[139.0719986,36.0155048],[139.071992,36.0155182],[139.071988,36.015531],[139.071986,36.0155448],[139.0719857,36.0155616],[139.0719869,36.0155834],[139.0719892,36.0156128],[139.0719921,36.0156507],[139.0719948,36.0156937],[139.0719965,36.0157384],[139.0719965,36.0157855],[139.0719944,36.0158377],[139.0719898,36.0159051],[139.0719829,36.0160073],[139.0719552,36.016006],[139.0719621,36.0159038],[139.0719667,36.0158368],[139.0719688,36.0157851],[139.0719687,36.0157388],[139.071967,36.0156946],[139.0719644,36.0156519],[139.0719615,36.0156142],[139.0719592,36.0155846],[139.071958,36.0155619],[139.0719583,36.0155434],[139.0719607,36.0155269],[139.0719656,36.0155112],[139.0719737,36.0154949],[139.0719864,36.015477],[139.0720049,36.0154569],[139.0720279,36.0154356],[139.0720539,36.0154146],[139.0720944,36.0153919],[139.0721636,36.0153655]]]},"properties":{"layer":"road","class_code":"1040","class_label":"道路"}},{"type":"Feature","id":"tran_4320f615-f347-4947-b8eb-2613c99ccf18","geometry":{"type":"Polygon","coordinates":[[[139.0738421,36.0117401],[139.073861,36.011778],[139.0738861,36.0118308],[139.0739143,36.0118925],[139.0739299,36.0119319],[139.0739458,36.0119747],[139.0739724,36.0120488],[139.0740063,36.0121443],[139.0740444,36.0122619],[139.0740616,36.0123149],[139.0740826,36.0123723],[139.0740967,36.0124077],[139.0741131,36.0124397],[139.0741323,36.012474],[139.0741542,36.0125062],[139.0741824,36.0125431],[139.0742123,36.0125753],[139.0742496,36.0126117],[139.0742787,36.0126412],[139.074324,36.0126762],[139.0743846,36.0127162],[139.0744462,36.0127532],[139.0745675,36.0128162],[139.0746289,36.0128505],[139.0745582,36.0129399],[139.0744949,36.0129069],[139.0744151,36.0128648],[139.0743509,36.0128283],[139.0743064,36.0128005],[139.0742692,36.0127751],[139.0742287,36.0127402],[139.0741881,36.0127079],[139.074155,36.0126743],[139.0741167,36.0126369],[139.0740818,36.0125993],[139.0740489,36.0125564],[139.0740231,36.0125185],[139.0740013,36.0124793],[139.0739968,36.0124707],[139.0739822,36.0124422],[139.0739661,36.0124018],[139.0739441,36.0123418],[139.0739299,36.0122982],[139.0739263,36.0122872],[139.0738886,36.0121707],[139.0738553,36.0120764],[139.0738288,36.012003],[139.0738133,36.0119613],[139.0737989,36.0119249],[139.0737721,36.011866],[139.0737475,36.0118145],[139.073729,36.0117774],[139.0738421,36.0117401]]]},"properties":{"layer":"road","class_code":"1040","class_label":"道路"}},{"type":"Feature","id":"tran_6fb7ed16-fa10-4850-9ec1-88939bbcbff5","geometry":{"type":"Polygon","coordinates":[[[139.0738421,36.0117401],[139.073729,36.0117774],[139.0737275,36.0117743],[139.0737076,36.0117402],[139.0737061,36.0117379],[139.0736811,36.0117008],[139.0737883,36.0116533],[139.0738161,36.0116934],[139.0738421,36.0117401]]]},"properties":{"layer":"road","class_code":"1040","class_label":"道路"}},{"type":"Feature","id":"tran_74ae3be3-dcda-4424-8160-8e4a7a0bcad0","geometry":{"type":"Polygon","coordinates":[[[139.0720248,36.0118164],[139.0720469,36.0118146],[139.0720487,36.011865],[139.0720238,36.0120214],[139.0720019,36.0120191],[139.0720266,36.011864],[139.0720248,36.0118164]]]},"properties":{"layer":"road","class_code":"1040","class_label":"道路"}},{"type":"Feature","id":"tran_4552cae2-9c23-4cb4-b904-35d44af4bd1d","geometry":{"type":"Polygon","coordinates":[[[139.072022,36.0117938],[139.0720441,36.011792],[139.0720469,36.0118146],[139.0720248,36.0118164],[139.0720244,36.011806],[139.072022,36.0117938]]]},"properties":{"layer":"road","class_code":"1040","class_label":"道路"}},{"type":"Feature","id":"tran_9abf01ac-63fa-4a4b-aa10-2e37406c621a","geometry":{"type":"Polygon","coordinates":[[[139.0747963,36.0132515],[139.0748004,36.0132501],[139.0748311,36.0132351],[139.0748482,36.0132583],[139.0748431,36.0132713],[139.0748125,36.013282],[139.0748096,36.0132763],[139.0747963,36.0132515]]]},"properties":{"layer":"road","class_code":"1040","class_label":"道路"}},{"type":"Feature","id":"tran_1123f444-397a-4d87-b2d6-9aeea4616df1","geometry":{"type":"Polygon","coordinates":[[[139.0750134,36.0112824],[139.074969,36.0112822],[139.0749693,36.0112384],[139.0749678,36.0111524],[139.0749602,36.0110791],[139.0749535,36.0110343],[139.0749428,36.0109963],[139.0749317,36.0109575],[139.0749749,36.0109494],[139.074986,36.0109881],[139.0749973,36.0110281],[139.0750043,36.0110754],[139.0750122,36.0111506],[139.0750137,36.0112382],[139.0750134,36.0112824]]]},"properties":{"layer":"road","class_code":"1040","class_label":"道路"}},{"type":"Feature","id":"tran_e4376045-0027-4e6d-ae9b-0e0120e89784","geometry":{"type":"Polygon","coordinates":[[[139.0750134,36.0112824],[139.0750132,36.0113276],[139.0750158,36.0113478],[139.0750224,36.0113653],[139.0749799,36.0113757],[139.0749642,36.0113695],[139.0749376,36.0113674],[139.0749117,36.0113219],[139.0749366,36.0113126],[139.0749589,36.0112973],[139.074969,36.0112822],[139.0750134,36.0112824]]]},"properties":{"layer":"road","class_code":"1040","class_label":"道路"}},{"type":"Feature","id":"tran_2b376deb-5c9c-474a-80c8-4201d7c18ea9","geometry":{"type":"Polygon","coordinates":[[[139.0720441,36.011792],[139.0721562,36.011775],[139.0722811,36.0117499],[139.0723168,36.0117424],[139.0724213,36.0117205],[139.0725462,36.0116987],[139.0727178,36.011657],[139.0727262,36.0116801],[139.0725531,36.0117205],[139.0724277,36.0117424],[139.0723166,36.0117656],[139.0722879,36.0117718],[139.0721621,36.011797],[139.0720469,36.0118146],[139.0720441,36.011792]]]},"properties":{"layer":"road","class_code":"1040","class_label":"道路"}},{"type":"Feature","id":"tran_1cc2544f-bb25-418e-9c53-4518c13e2f87","geometry":{"type":"Polygon","coordinates":[[[139.0721773,36.0153602],[139.0722199,36.01534],[139.0722637,36.0153461],[139.0722584,36.0153712],[139.0722517,36.0154077],[139.0722062,36.0154025],[139.0721754,36.0153859],[139.0721636,36.0153655],[139.0721773,36.0153602]]]},"properties":{"layer":"road","class_code":"1040","class_label":"道路"}},{"type":"Feature","id":"tran_a610981f-2d19-411a-9305-9dbcf5da36d8","geometry":{"type":"Polygon","coordinates":[[[139.0736364,36.0111194],[139.0736684,36.0110944],[139.0738588,36.0112549],[139.0738269,36.01128],[139.0736364,36.0111194]]]},"properties":{"layer":"road","class_code":"1040","class_label":"道路"}},{"type":"Feature","id":"tran_d275c8fd-cf37-4c28-bbca-8ba434cc6b52","geometry":{"type":"Polygon","coordinates":[[[139.0740014,36.0102148],[139.0740448,36.0102227],[139.0739969,36.0103632],[139.0739489,36.0105127],[139.0739033,36.0106546],[139.0738542,36.010763],[139.0737594,36.0109521],[139.0737274,36.0110059],[139.07371,36.0110266],[139.0736744,36.0110623],[139.0736655,36.0110701],[139.073633,36.0110454],[139.0736409,36.0110386],[139.0736744,36.0110051],[139.0736889,36.0109878],[139.0737189,36.0109374],[139.0738127,36.0107501],[139.0738609,36.0106438],[139.073906,36.0105036],[139.0739541,36.0103538],[139.0740014,36.0102148]]]},"properties":{"layer":"road","class_code":"1040","class_label":"道路"}},{"type":"Feature","id":"tran_9fbc45d4-39e2-41bb-aac0-238eb1c37a85","geometry":{"type":"Polygon","coordinates":[[[139.072218,36.0134645],[139.0722226,36.0134459],[139.0722307,36.0134282],[139.072242,36.0134117],[139.0722564,36.0133969],[139.0722734,36.013384],[139.0722927,36.0133735],[139.0723106,36.0133683],[139.0723293,36.0133654],[139.0723482,36.0133649],[139.0723671,36.0133668],[139.0723853,36.0133711],[139.0724025,36.0133776],[139.0724526,36.0134003],[139.0725167,36.0134341],[139.0725669,36.0134609],[139.0726072,36.0134826],[139.0726416,36.0135009],[139.0726735,36.0135175],[139.0727032,36.0135329],[139.0727311,36.0135476],[139.0727571,36.0135622],[139.0727813,36.0135767],[139.0728037,36.0135909],[139.0728245,36.0136045],[139.0728374,36.0136131],[139.0728093,36.013641],[139.0727966,36.0136325],[139.0727761,36.0136191],[139.0727545,36.0136054],[139.0727313,36.0135916],[139.0727064,36.0135776],[139.0726791,36.0135632],[139.0726496,36.0135479],[139.0726175,36.0135312],[139.0725828,36.0135127],[139.0725425,36.013491],[139.0724924,36.0134642],[139.0724453,36.0134394],[139.0724312,36.0134338],[139.0724166,36.013429],[139.0724016,36.013425],[139.0723863,36.0134218],[139.0723708,36.0134194],[139.0723551,36.0134179],[139.0723388,36.0134179],[139.072323,36.0134208],[139.0723082,36.0134264],[139.0722954,36.0134344],[139.072285,36.0134446],[139.0722775,36.0134563],[139.0722732,36.0134679],[139.0722714,36.0134799],[139.0722721,36.013492],[139.0722752,36.0135039],[139.0722808,36.0135151],[139.0722886,36.0135254],[139.072293,36.0135294],[139.0723016,36.013536],[139.0723101,36.0135416],[139.0723187,36.0135464],[139.0723275,36.0135506],[139.0723368,36.0135543],[139.0723466,36.0135577],[139.0723569,36.0135608],[139.0723677,36.0135638],[139.0723791,36.0135667],[139.0723909,36.0135697],[139.0724031,36.0135727],[139.0724154,36.0135758],[139.0724275,36.0135789],[139.0724393,36.0135819],[139.0724506,36.0135849],[139.0724611,36.0135876],[139.0724708,36.0135903],[139.07248,36.0135928],[139.0724888,36.0135955],[139.0724974,36.0135984],[139.0725059,36.0136016],[139.0725143,36.0136051],[139.0725228,36.0136091],[139.0725314,36.0136135],[139.0725402,36.0136184],[139.0725491,36.0136238],[139.0725583,36.0136297],[139.0725679,36.0136361],[139.0725779,36.013643],[139.0725882,36.0136505],[139.0725986,36.0136584],[139.0726089,36.0136667],[139.0726189,36.0136753],[139.0726284,36.0136842],[139.0726372,36.0136933],[139.0726454,36.0137027],[139.072653,36.0137124],[139.07266,36.0137225],[139.0726666,36.013733],[139.0726727,36.0137441],[139.0726786,36.0137558],[139.072684,36.013768],[139.0726891,36.0137806],[139.0726938,36.0137937],[139.072698,36.013807],[139.0727019,36.0138207],[139.0727052,36.013835],[139.0727081,36.0138506],[139.0727106,36.0138681],[139.0727125,36.0138882],[139.0727141,36.0139117],[139.0727152,36.0139392],[139.0727159,36.0139704],[139.0727162,36.0140038],[139.0727161,36.014038],[139.0727156,36.0140712],[139.0727147,36.0141019],[139.0727137,36.0141228],[139.0726689,36.0141214],[139.07267,36.014106],[139.0726703,36.0141008],[139.0726712,36.0140705],[139.0726717,36.0140377],[139.0726718,36.0140039],[139.0726715,36.0139709],[139.0726708,36.0139401],[139.0726697,36.0139132],[139.0726683,36.0138906],[139.0726664,36.0138716],[139.0726641,36.0138553],[139.0726615,36.0138411],[139.0726584,36.0138281],[139.0726549,36.0138155],[139.072651,36.0138032],[139.0726467,36.0137913],[139.0726421,36.0137798],[139.0726371,36.0137687],[139.072632,36.0137583],[139.0726265,36.0137486],[139.0726209,36.0137395],[139.0726149,36.0137309],[139.0726085,36.0137228],[139.0726016,36.0137149],[139.0725941,36.0137072],[139.0725859,36.0136995],[139.0725771,36.0136918],[139.0725678,36.0136843],[139.0725583,36.0136771],[139.0725487,36.0136702],[139.0725394,36.0136637],[139.0725306,36.0136578],[139.0725222,36.0136525],[139.0725144,36.0136478],[139.0725069,36.0136436],[139.0724998,36.01364],[139.072493,36.0136368],[139.0724863,36.013634],[139.0724796,36.0136314],[139.0724726,36.0136291],[139.0724649,36.0136268],[139.0724566,36.0136244],[139.0724473,36.0136219],[139.072437,36.0136192],[139.0724259,36.0136163],[139.0724142,36.0136133],[139.0724022,36.0136102],[139.07239,36.0136072],[139.0723779,36.0136041],[139.0723659,36.0136011],[139.0723539,36.0135981],[139.072342,36.0135948],[139.0723301,36.0135912],[139.0723183,36.0135871],[139.0723065,36.0135824],[139.0722949,36.0135769],[139.0722835,36.0135705],[139.0722723,36.0135631],[139.0722612,36.0135546],[139.0722503,36.0135448],[139.0722399,36.013534],[139.0722323,36.0135235],[139.0722262,36.0135124],[139.0722217,36.0135008],[139.0722188,36.0134888],[139.0722176,36.0134767],[139.072218,36.0134645]]]},"properties":{"layer":"road","class_code":"1040","class_label":"道路"}},{"type":"Feature","id":"tran_8fb0d3d8-3f99-410d-b862-1aa383883abf","geometry":{"type":"Polygon","coordinates":[[[139.0747418,36.0138254],[139.0747777,36.0138041],[139.0748251,36.0138213],[139.0748183,36.0138337],[139.0747957,36.0138272],[139.074756,36.0138432],[139.0747523,36.0138371],[139.0747418,36.0138254]]]},"properties":{"layer":"road","class_code":"1040","class_label":"道路"}},{"type":"Feature","id":"tran_ff5f29a0-9b97-422c-b44f-b0666459fdbb","geometry":{"type":"Polygon","coordinates":[[[139.0735758,36.0110952],[139.073633,36.0110454],[139.0736655,36.0110701],[139.0736684,36.0110944],[139.0736364,36.0111194],[139.0736082,36.0111199],[139.0735758,36.0110952]]]},"properties":{"layer":"road","class_code":"1040","class_label":"道路"}},{"type":"Feature","id":"tran_525fab2d-fbcc-41e4-83fb-774c86b7896a","geometry":{"type":"Polygon","coordinates":[[[139.0726594,36.0141939],[139.0727026,36.0142022],[139.072698,36.0142161],[139.0726925,36.0142297],[139.0726862,36.0142433],[139.0726791,36.0142569],[139.0726714,36.0142705],[139.072663,36.014284],[139.0726542,36.0142973],[139.0726448,36.0143104],[139.0726351,36.0143232],[139.0726248,36.0143358],[139.0726139,36.0143481],[139.0726023,36.0143602],[139.0725901,36.014372],[139.0725771,36.0143836],[139.0725638,36.0143948],[139.0725504,36.0144056],[139.0725374,36.0144158],[139.072525,36.0144255],[139.0725137,36.0144346],[139.0725038,36.014443],[139.0724951,36.0144508],[139.0724875,36.0144582],[139.0724809,36.0144651],[139.0724751,36.0144718],[139.0724698,36.0144782],[139.0724651,36.0144845],[139.0724609,36.0144906],[139.072457,36.0144968],[139.0724535,36.0145029],[139.0724502,36.0145091],[139.0724471,36.0145153],[139.0724442,36.0145218],[139.0724414,36.0145284],[139.0724386,36.0145354],[139.072436,36.0145428],[139.0724334,36.0145508],[139.0724307,36.0145595],[139.072428,36.014569],[139.0724251,36.0145798],[139.072422,36.0145925],[139.0724184,36.0146078],[139.0724142,36.0146262],[139.0724094,36.0146483],[139.0724038,36.0146747],[139.0723973,36.0147057],[139.0723899,36.0147413],[139.0723815,36.0147819],[139.072372,36.0148274],[139.0723615,36.0148782],[139.0723498,36.0149346],[139.0723364,36.0149984],[139.0723211,36.0150718],[139.0723033,36.015157],[139.0722825,36.0152561],[139.0722637,36.0153461],[139.0722199,36.01534],[139.0722388,36.01525],[139.0722595,36.0151509],[139.0722774,36.0150658],[139.0722927,36.0149924],[139.072306,36.0149286],[139.0723177,36.0148722],[139.0723283,36.0148214],[139.0723377,36.0147759],[139.0723461,36.0147354],[139.0723536,36.0146997],[139.0723601,36.0146686],[139.0723657,36.0146421],[139.0723706,36.0146198],[139.0723748,36.0146011],[139.0723784,36.0145855],[139.0723817,36.0145724],[139.0723847,36.0145611],[139.0723876,36.014551],[139.0723904,36.0145418],[139.0723933,36.0145331],[139.0723962,36.0145249],[139.0723992,36.0145171],[139.0724024,36.0145097],[139.0724057,36.0145024],[139.0724092,36.0144952],[139.0724131,36.014488],[139.0724172,36.0144808],[139.0724218,36.0144736],[139.0724268,36.0144663],[139.0724323,36.0144589],[139.0724384,36.0144514],[139.0724453,36.0144436],[139.072453,36.0144356],[139.0724616,36.0144272],[139.0724713,36.0144184],[139.0724821,36.0144093],[139.072494,36.0143998],[139.0725065,36.0143899],[139.0725194,36.0143798],[139.0725322,36.0143695],[139.0725447,36.0143589],[139.0725566,36.0143483],[139.0725678,36.0143375],[139.0725783,36.0143265],[139.0725883,36.0143152],[139.0725977,36.0143037],[139.0726068,36.0142919],[139.0726154,36.0142797],[139.0726237,36.0142674],[139.0726314,36.0142549],[139.0726385,36.0142424],[139.0726449,36.0142299],[139.0726506,36.0142177],[139.0726554,36.0142058],[139.0726594,36.0141939]]]},"properties":{"layer":"road","class_code":"1040","class_label":"道路"}},{"type":"Feature","id":"tran_111d5203-c078-4b53-9a7c-9c4c3fa6ec10","geometry":{"type":"Polygon","coordinates":[[[139.0737883,36.0116533],[139.0736811,36.0117008],[139.0736632,36.0116764],[139.0736402,36.0116494],[139.0736143,36.0116222],[139.0735423,36.0115479],[139.0734279,36.0114307],[139.073515,36.0113746],[139.0736217,36.0114785],[139.0737181,36.0115735],[139.0737659,36.0116228],[139.0737883,36.0116533]]]},"properties":{"layer":"road","class_code":"1040","class_label":"道路"}},{"type":"Feature","id":"tran_136f2cb3-91a7-4802-b755-cffa9d2659b6","geometry":{"type":"Polygon","coordinates":[[[139.0734214,36.0112297],[139.0735758,36.0110952],[139.0736082,36.0111199],[139.0734538,36.0112542],[139.0734214,36.0112297]]]},"properties":{"layer":"road","class_code":"1040","class_label":"道路"}},{"type":"Feature","id":"tran_2b176ff2-6057-40d5-a828-eec01cedb2ab","geometry":{"type":"Polygon","coordinates":[[[139.0723716,36.0104152],[139.0724463,36.0103563],[139.0724671,36.0103728],[139.0723919,36.0104322],[139.0723716,36.0104152]]]},"properties":{"layer":"road","class_code":"1040","class_label":"道路"}},{"type":"Feature","id":"tran_4fd29792-3675-4f82-b8ab-91c01010c839","geometry":{"type":"Polygon","coordinates":[[[139.0723919,36.0104322],[139.0724671,36.0103728],[139.0726036,36.0104817],[139.0726913,36.0105586],[139.0727094,36.010575],[139.0726278,36.0106345],[139.0725759,36.0105867],[139.0724034,36.0104418],[139.0723919,36.0104322]]]},"properties":{"layer":"road","class_code":"1040","class_label":"道路"}},{"type":"Feature","id":"tran_980444ba-5740-4809-92ca-8791db7ed60c","geometry":{"type":"Polygon","coordinates":[[[139.0724939,36.0125677],[139.0725038,36.0125605],[139.072514,36.0125536],[139.0725246,36.0125471],[139.0725355,36.0125409],[139.0725467,36.012535],[139.0725582,36.0125295],[139.0725807,36.0125191],[139.0726554,36.0124878],[139.072723,36.012464],[139.0727595,36.0124493],[139.0727965,36.0124302],[139.0728797,36.0123809],[139.0729824,36.0123201],[139.072999,36.0123096],[139.0730191,36.0123375],[139.0730021,36.0123419],[139.0728993,36.0124028],[139.0728153,36.0124526],[139.0727758,36.0124728],[139.0727371,36.0124885],[139.0726696,36.0125122],[139.0725966,36.0125428],[139.0725748,36.0125529],[139.0725645,36.0125579],[139.0725544,36.0125631],[139.0725446,36.0125687],[139.0725351,36.0125746],[139.0725259,36.0125808],[139.0725169,36.0125872],[139.0725039,36.0125973],[139.072493,36.0126063],[139.0724837,36.0126144],[139.0724759,36.0126216],[139.0724695,36.0126279],[139.0724642,36.0126336],[139.07246,36.0126387],[139.0724566,36.0126432],[139.072454,36.0126472],[139.072452,36.0126507],[139.0724505,36.012654],[139.0724494,36.0126572],[139.0724486,36.0126603],[139.0724481,36.0126636],[139.0724477,36.0126673],[139.0724475,36.0126712],[139.0724475,36.0126754],[139.0724478,36.0126801],[139.0724483,36.0126853],[139.0724491,36.0126911],[139.0724501,36.0126976],[139.0724516,36.0127048],[139.0724535,36.0127135],[139.0724563,36.0127253],[139.0724605,36.0127421],[139.0724665,36.0127659],[139.0724747,36.0127983],[139.0724857,36.0128414],[139.0724998,36.0128969],[139.0724672,36.0129023],[139.0724531,36.0128469],[139.0724421,36.0128038],[139.0724339,36.0127713],[139.0724279,36.0127475],[139.0724236,36.0127305],[139.0724207,36.0127184],[139.0724187,36.0127093],[139.0724172,36.0127015],[139.072416,36.0126944],[139.0724151,36.0126878],[139.0724145,36.0126817],[139.0724142,36.012676],[139.0724142,36.0126707],[139.0724145,36.0126656],[139.072415,36.0126607],[139.0724158,36.0126558],[139.0724171,36.0126508],[139.0724188,36.0126457],[139.0724212,36.0126405],[139.0724241,36.0126352],[139.0724277,36.0126297],[139.072432,36.012624],[139.0724372,36.0126179],[139.0724433,36.0126113],[139.0724505,36.0126041],[139.072459,36.0125962],[139.072469,36.0125876],[139.0724806,36.0125781],[139.0724939,36.0125677]]]},"properties":{"layer":"road","class_code":"1040","class_label":"道路"}},{"type":"Feature","id":"tran_f1fe9d3f-25af-41f8-bc11-072b169de78f","geometry":{"type":"Polygon","coordinates":[[[139.0724768,36.0109929],[139.0725135,36.0109734],[139.072532,36.010994],[139.0725426,36.0110233],[139.0725184,36.0110343],[139.0724982,36.0110141],[139.0724952,36.0110159],[139.0724768,36.0109929]]]},"properties":{"layer":"road","class_code":"1040","class_label":"道路"}},{"type":"Feature","id":"tran_506ca9d2-f02d-48da-8974-a4b1809681e6","geometry":{"type":"Polygon","coordinates":[[[139.0725135,36.0109734],[139.0725744,36.010941],[139.0726071,36.0109216],[139.0728005,36.0107957],[139.0728181,36.0108131],[139.0726241,36.0109395],[139.072532,36.010994],[139.0725135,36.0109734]]]},"properties":{"layer":"road","class_code":"1040","class_label":"道路"}},{"type":"Feature","id":"tran_0dfc9806-e8d5-45ac-8563-c278f6419c74","geometry":{"type":"Polygon","coordinates":[[[139.0734073,36.0114095],[139.0734942,36.0113535],[139.0735108,36.0113706],[139.073515,36.0113746],[139.0734279,36.0114307],[139.0734073,36.0114095]]]},"properties":{"layer":"road","class_code":"1040","class_label":"道路"}},{"type":"Feature","id":"tran_6c7ca7b2-f929-4c05-997e-adaf51681793","geometry":{"type":"Polygon","coordinates":[[[139.0742441,36.0129966],[139.0742256,36.0130191],[139.0741637,36.0129855],[139.0740216,36.0129],[139.0739073,36.0128407],[139.0738144,36.012793],[139.073796,36.0127865],[139.07334,36.0125725],[139.0733535,36.0125476],[139.0738126,36.0127631],[139.0738298,36.0127689],[139.0739251,36.0128179],[139.0740405,36.0128778],[139.0741828,36.0129634],[139.0742441,36.0129966]]]},"properties":{"layer":"road","class_code":"1040","class_label":"道路"}},{"type":"Feature","id":"tran_e9babeaa-9e8d-4315-8a3c-a7a2b8b74947","geometry":{"type":"Polygon","coordinates":[[[139.0696628,36.0084615],[139.0696858,36.0084741],[139.0695652,36.0086199],[139.0695514,36.0086335],[139.0695371,36.0086464],[139.069522,36.0086586],[139.0695062,36.0086703],[139.0694898,36.0086814],[139.0694736,36.0086913],[139.069466,36.008697],[139.0694605,36.0087033],[139.0694568,36.0087104],[139.0694549,36.008718],[139.069455,36.0087258],[139.069457,36.0087332],[139.0695113,36.0088235],[139.0696112,36.0089483],[139.0696252,36.0089665],[139.0696387,36.008985],[139.0696515,36.0090039],[139.0696636,36.009023],[139.0696749,36.0090422],[139.0697408,36.0091524],[139.0697159,36.0091622],[139.0696499,36.009052],[139.0696387,36.009033],[139.069627,36.0090144],[139.0696146,36.0089962],[139.0696015,36.0089782],[139.0695878,36.0089605],[139.0694871,36.0088347],[139.0694306,36.0087407],[139.0694273,36.0087284],[139.0694271,36.0087159],[139.0694301,36.0087037],[139.0694362,36.0086922],[139.0694451,36.0086821],[139.0694558,36.008674],[139.0694726,36.0086637],[139.069488,36.0086533],[139.0695028,36.0086423],[139.069517,36.0086308],[139.0695305,36.0086188],[139.069543,36.0086064],[139.0696628,36.0084615]]]},"properties":{"layer":"road","class_code":"1040","class_label":"道路"}},{"type":"Feature","id":"tran_42c70666-75a9-4d63-a92f-ccc7f1346ced","geometry":{"type":"Polygon","coordinates":[[[139.0725426,36.0110233],[139.0725943,36.0110984],[139.072617,36.0111281],[139.0726267,36.0111321],[139.0726424,36.0111324],[139.0726604,36.0111281],[139.0727023,36.0111099],[139.0727425,36.0110885],[139.0728709,36.0110213],[139.0729716,36.0109681],[139.0729892,36.0109856],[139.072886,36.0110403],[139.0727576,36.0111074],[139.0727165,36.0111294],[139.072671,36.011149],[139.0726462,36.011155],[139.0726197,36.0111546],[139.0725976,36.0111452],[139.0725705,36.0111098],[139.0725184,36.0110343],[139.0725426,36.0110233]]]},"properties":{"layer":"road","class_code":"1040","class_label":"道路"}},{"type":"Feature","id":"tran_237a5ccb-6c6c-45da-9603-d768f9179308","geometry":{"type":"Polygon","coordinates":[[[139.0727094,36.010575],[139.0727463,36.0105692],[139.0727677,36.0105899],[139.0727546,36.010616],[139.0726726,36.0106758],[139.0726278,36.0106345],[139.0727094,36.010575]]]},"properties":{"layer":"road","class_code":"1040","class_label":"道路"}},{"type":"Feature","id":"tran_eb71a48b-39d9-40db-9c3d-8f1045ec0d53","geometry":{"type":"Polygon","coordinates":[[[139.0726503,36.0114838],[139.0726942,36.0114763],[139.0727655,36.011629],[139.072725,36.0116439],[139.0726503,36.0114838]]]},"properties":{"layer":"road","class_code":"1040","class_label":"道路"}},{"type":"Feature","id":"tran_b22a9bb8-de95-44e8-a19a-30b4eb7935a4","geometry":{"type":"Polygon","coordinates":[[[139.0727546,36.010616],[139.0728107,36.0106667],[139.0728863,36.0107385],[139.0728005,36.0107957],[139.072781,36.0107771],[139.0727267,36.0107256],[139.0727144,36.0107144],[139.0726726,36.0106758],[139.0727546,36.010616]]]},"properties":{"layer":"road","class_code":"1040","class_label":"道路"}},{"type":"Feature","id":"tran_b8787def-5bf9-4dc1-b947-bff3f2a5d686","geometry":{"type":"Polygon","coordinates":[[[139.072666,36.0141603],[139.0726689,36.0141214],[139.0727137,36.0141228],[139.0727451,36.0141702],[139.0727532,36.0141817],[139.0727142,36.0142009],[139.0727026,36.0142022],[139.0726594,36.0141939],[139.0726626,36.0141811],[139.0726653,36.0141663],[139.072666,36.0141603]]]},"properties":{"layer":"road","class_code":"1040","class_label":"道路"}},{"type":"Feature","id":"tran_ca1341ca-a42e-46d2-bf49-2696ac6f7efe","geometry":{"type":"Polygon","coordinates":[[[139.0733437,36.011345],[139.0734302,36.0112885],[139.0734775,36.0113364],[139.0734942,36.0113535],[139.0734073,36.0114095],[139.0733908,36.0113926],[139.0733437,36.011345]]]},"properties":{"layer":"road","class_code":"1040","class_label":"道路"}},{"type":"Feature","id":"tran_9787e00e-a14d-4515-af8a-2a2729f1e4f5","geometry":{"type":"Polygon","coordinates":[[[139.0730824,36.0126525],[139.0732549,36.01255],[139.0732728,36.0125692],[139.0732605,36.0125746],[139.0730763,36.012684],[139.0729936,36.0127357],[139.072887,36.0128031],[139.0728442,36.0128261],[139.0728022,36.012844],[139.0727073,36.0128744],[139.0726972,36.0128534],[139.0727907,36.0128235],[139.0728301,36.0128066],[139.0728708,36.0127848],[139.0729767,36.0127179],[139.0730597,36.012666],[139.0730824,36.0126525]]]},"properties":{"layer":"road","class_code":"1040","class_label":"道路"}},{"type":"Feature","id":"tran_3b3ec74d-00f4-4c1b-88b0-9961fe080b7d","geometry":{"type":"Polygon","coordinates":[[[139.072725,36.0116439],[139.0727655,36.011629],[139.0727866,36.0116378],[139.0727947,36.0116641],[139.0727262,36.0116801],[139.0727178,36.011657],[139.072725,36.0116439]]]},"properties":{"layer":"road","class_code":"1040","class_label":"道路"}},{"type":"Feature","id":"tran_47594e94-b37c-4a36-a52d-f7eb384d0d4b","geometry":{"type":"Polygon","coordinates":[[[139.0732677,36.0102348],[139.0734234,36.0102077],[139.0734934,36.0101982],[139.073559,36.010188],[139.0736511,36.0101742],[139.073677,36.0101686],[139.073716,36.0101568],[139.0737723,36.010136],[139.0739041,36.0100769],[139.0739222,36.0100666],[139.0739366,36.0100804],[139.0739158,36.0100922],[139.0737823,36.0101521],[139.0737245,36.0101735],[139.0736837,36.0101858],[139.0736559,36.0101918],[139.073563,36.0102057],[139.0734974,36.0102158],[139.0734275,36.0102254],[139.0732739,36.0102521],[139.0732531,36.0102584],[139.0732381,36.0102668],[139.0731674,36.0103423],[139.0731471,36.0103605],[139.073123,36.0103728],[139.0730453,36.0104054],[139.0729707,36.0104521],[139.0728651,36.0105232],[139.0727677,36.0105899],[139.0727463,36.0105692],[139.0728438,36.0105026],[139.07295,36.010431],[139.0730273,36.0103825],[139.0731065,36.0103493],[139.0731255,36.0103396],[139.0731417,36.010325],[139.0732118,36.0102501],[139.0732246,36.0102438],[139.0732371,36.0102401],[139.0732677,36.0102348]]]},"properties":{"layer":"road","class_code":"1040","class_label":"道路"}},{"type":"Feature","id":"tran_967414c3-976e-4921-86bf-d5e402182609","geometry":{"type":"Polygon","coordinates":[[[139.0727142,36.0142009],[139.0727532,36.0141817],[139.0727807,36.0142205],[139.0728313,36.0142867],[139.0728937,36.0143398],[139.0729511,36.0143861],[139.0729922,36.0144167],[139.0730329,36.0144559],[139.0730464,36.0144824],[139.0730552,36.0145145],[139.0730445,36.0145646],[139.073025,36.0146628],[139.0730225,36.0146758],[139.0730109,36.0147357],[139.0730129,36.0147709],[139.0730225,36.0148154],[139.0730654,36.0148759],[139.0731085,36.014937],[139.0731259,36.0150141],[139.0731365,36.0150715],[139.0731445,36.0151341],[139.0731337,36.0152],[139.0731044,36.0153164],[139.0730897,36.0153597],[139.0730839,36.0153853],[139.0730826,36.0154034],[139.0730838,36.0154186],[139.0730865,36.0154328],[139.0730914,36.0154476],[139.0731007,36.0154653],[139.0731145,36.0154864],[139.0731303,36.0155092],[139.0731465,36.0155359],[139.0731644,36.0155761],[139.0731846,36.0156341],[139.0732052,36.0156955],[139.0732243,36.0157455],[139.073243,36.0157872],[139.073263,36.0158291],[139.0732837,36.0158718],[139.0733033,36.0159115],[139.0733213,36.0159485],[139.0733383,36.0159868],[139.0733536,36.0160269],[139.0733644,36.0160642],[139.0733691,36.0160951],[139.0733704,36.0161204],[139.0733716,36.0161418],[139.0733754,36.0161595],[139.0733841,36.0161751],[139.073399,36.0161914],[139.0734197,36.0162096],[139.0734466,36.0162303],[139.0734815,36.0162543],[139.0735254,36.0162834],[139.0735768,36.0163199],[139.0736327,36.016364],[139.0736876,36.0164117],[139.0737382,36.0164595],[139.0737885,36.0165086],[139.0738432,36.016561],[139.0738992,36.0166143],[139.07395,36.0166643],[139.0739916,36.0167074],[139.0740223,36.0167404],[139.0740443,36.0167653],[139.0740641,36.0167888],[139.0740858,36.0168155],[139.0741082,36.0168452],[139.0741297,36.0168777],[139.074149,36.0169137],[139.0741648,36.0169534],[139.0741779,36.0169969],[139.0741898,36.0170441],[139.0742006,36.0170934],[139.0742102,36.0171423],[139.074219,36.0171937],[139.0742285,36.0172546],[139.0742395,36.0173282],[139.0742524,36.0174114],[139.0742698,36.0175072],[139.0743107,36.0176844],[139.0743296,36.0177634],[139.0743327,36.0177718],[139.0743377,36.0177826],[139.0743434,36.017793],[139.0743499,36.0178031],[139.0743572,36.0178128],[139.0743652,36.0178223],[139.074374,36.0178311],[139.0743834,36.0178396],[139.0743924,36.0178468],[139.074403,36.0178542],[139.0744143,36.0178611],[139.074426,36.0178674],[139.074439,36.0178736],[139.0744488,36.0178781],[139.074539,36.0179197],[139.0745198,36.0179471],[139.0744198,36.017901],[139.0744055,36.0178943],[139.0743917,36.0178869],[139.0743786,36.0178788],[139.0743771,36.0178777],[139.0743661,36.0178699],[139.0743555,36.0178615],[139.0743444,36.0178516],[139.074334,36.0178411],[139.0743246,36.0178301],[139.074316,36.0178186],[139.0743084,36.0178068],[139.0743016,36.0177945],[139.0742959,36.017782],[139.0742917,36.0177706],[139.074275,36.017688],[139.074237,36.0175118],[139.0742194,36.0174151],[139.0742065,36.0173315],[139.0741954,36.017258],[139.074186,36.0171973],[139.0741772,36.0171463],[139.0741678,36.0170979],[139.0741571,36.0170492],[139.0741455,36.0170028],[139.0741327,36.0169608],[139.0741178,36.0169232],[139.0740998,36.0168896],[139.0740793,36.0168587],[139.0740577,36.01683],[139.0740365,36.0168039],[139.0740171,36.0167808],[139.0739955,36.0167565],[139.0739653,36.0167239],[139.073924,36.0166813],[139.0738737,36.0166317],[139.0738179,36.0165785],[139.073763,36.016526],[139.0737128,36.0164769],[139.0736629,36.0164298],[139.0736089,36.016383],[139.0735542,36.0163398],[139.0735039,36.016304],[139.0734603,36.0162751],[139.0734244,36.0162504],[139.073396,36.0162286],[139.0733734,36.0162087],[139.0733553,36.016189],[139.0733433,36.0161675],[139.0733384,36.0161447],[139.0733372,36.0161216],[139.073336,36.0160973],[139.0733316,36.0160689],[139.0733215,36.016034],[139.0733067,36.0159954],[139.0732901,36.0159581],[139.0732724,36.0159215],[139.0732528,36.0158818],[139.073232,36.015839],[139.0732119,36.0157967],[139.0731928,36.0157541],[139.0731732,36.0157031],[139.0731525,36.0156414],[139.0731327,36.0155844],[139.0731159,36.0155465],[139.0731008,36.0155218],[139.0730853,36.0154994],[139.0730707,36.0154769],[139.0730599,36.0154565],[139.0730539,36.0154385],[139.0730506,36.0154215],[139.0730493,36.0154034],[139.0730508,36.015382],[139.0730572,36.0153537],[139.0730723,36.0153092],[139.0731009,36.0151953],[139.0731109,36.0151337],[139.0731035,36.0150749],[139.0730931,36.0150186],[139.0730768,36.0149464],[139.0730365,36.0148894],[139.0729915,36.0148259],[139.0729688,36.0147756],[139.0729663,36.0147338],[139.0729787,36.0146701],[139.0730007,36.0145587],[139.0730096,36.0145168],[139.0730036,36.0144941],[139.0729931,36.0144734],[139.0729602,36.0144417],[139.0729205,36.0144122],[139.072862,36.014365],[139.072796,36.0143089],[139.0727427,36.0142391],[139.0727142,36.0142009]]]},"properties":{"layer":"road","class_code":"1040","class_label":"道路"}},{"type":"Feature","id":"tran_0bce808e-37a0-4aa7-b96c-1cbbc3f29a1c","geometry":{"type":"Polygon","coordinates":[[[139.0727866,36.0116378],[139.0729189,36.0116108],[139.0730074,36.0115898],[139.073071,36.0115748],[139.0731186,36.0115598],[139.0731886,36.0115314],[139.0732009,36.0115566],[139.0731321,36.0115846],[139.0730816,36.0116005],[139.0730167,36.0116158],[139.0729276,36.0116369],[139.0728203,36.0116589],[139.0727952,36.0116639],[139.0727947,36.0116641],[139.0727866,36.0116378]]]},"properties":{"layer":"road","class_code":"1040","class_label":"道路"}},{"type":"Feature","id":"tran_7c116280-89fc-4340-8521-4d2e83d0f0d1","geometry":{"type":"Polygon","coordinates":[[[139.0732982,36.0117588],[139.0733848,36.0117533],[139.0736811,36.0117008],[139.0737061,36.0117379],[139.0733562,36.0117999],[139.0733109,36.0118065],[139.0732982,36.0117588]]]},"properties":{"layer":"road","class_code":"1040","class_label":"道路"}},{"type":"Feature","id":"tran_d7ed324b-384c-4fd8-ba8e-e51a76730965","geometry":{"type":"Polygon","coordinates":[[[139.0728863,36.0107385],[139.0728941,36.010746],[139.0729038,36.0107559],[139.0728181,36.0108131],[139.0728005,36.0107957],[139.0728863,36.0107385]]]},"properties":{"layer":"road","class_code":"1040","class_label":"道路"}},{"type":"Feature","id":"tran_a6f06d69-d0b0-44c1-b135-fd4f93dfe678","geometry":{"type":"Polygon","coordinates":[[[139.0728181,36.0108131],[139.0729038,36.0107559],[139.0729873,36.0108415],[139.0730573,36.0109109],[139.0729716,36.0109681],[139.0729009,36.0108981],[139.0728181,36.0108131]]]},"properties":{"layer":"road","class_code":"1040","class_label":"道路"}},{"type":"Feature","id":"tran_81f73621-9dfe-4a8f-9cb9-1128f01299a8","geometry":{"type":"Polygon","coordinates":[[[139.0733839,36.0112417],[139.0734214,36.0112297],[139.0734538,36.0112542],[139.0734302,36.0112885],[139.0733437,36.011345],[139.0732974,36.0112981],[139.0733839,36.0112417]]]},"properties":{"layer":"road","class_code":"1040","class_label":"道路"}}]}