{"type":"FeatureCollection","properties":{"mesh_code":"54390078","source":"PLATEAU秩父市2025","layer":"road"},"features":[{"type":"Feature","id":"tran_28cb25b3-db42-40c7-8a1b-899436487ce0","geometry":{"type":"Polygon","coordinates":[[[139.1041748,36.0596359],[139.1042594,36.0596424],[139.1042568,36.0596694],[139.104224,36.0596673],[139.1042116,36.0596691],[139.1042061,36.0596715],[139.1042027,36.0596742],[139.1042007,36.0596776],[139.1041995,36.0596822],[139.1041994,36.0596878],[139.1042013,36.0596946],[139.1042074,36.059705],[139.1042204,36.0597205],[139.1042395,36.05974],[139.1042628,36.059762],[139.1042885,36.0597841],[139.1043153,36.0598045],[139.1043421,36.0598225],[139.1043677,36.0598386],[139.1043912,36.0598535],[139.1044122,36.059868],[139.1044302,36.0598827],[139.1044454,36.0598973],[139.1044588,36.059912],[139.1044707,36.0599275],[139.1044812,36.0599447],[139.1044902,36.059964],[139.1044979,36.0599851],[139.1045058,36.060009],[139.1045171,36.0600383],[139.1045394,36.060083],[139.1045571,36.0601133],[139.1045159,36.0601059],[139.1045089,36.0600939],[139.1044857,36.0600474],[139.1044738,36.0600166],[139.1044659,36.0599925],[139.1044587,36.0599727],[139.1044506,36.0599556],[139.1044415,36.0599406],[139.1044312,36.0599272],[139.1044194,36.0599142],[139.1044056,36.0599011],[139.1043895,36.0598879],[139.1043701,36.0598744],[139.1043472,36.05986],[139.1043213,36.0598436],[139.1042933,36.0598248],[139.104265,36.0598033],[139.104238,36.0597801],[139.1042138,36.0597573],[139.1041936,36.0597365],[139.1041531,36.0597022],[139.1041411,36.0596913],[139.1041352,36.0596776],[139.1041363,36.0596631],[139.1041442,36.05965],[139.1041577,36.0596404],[139.1041748,36.0596359]]]},"properties":{"layer":"road","class_code":"1040","class_label":"道路"}}]}