{"type":"FeatureCollection","properties":{"mesh_code":"54390049","source":"PLATEAU秩父市2025","layer":"road"},"features":[{"type":"Feature","id":"tran_26e48476-de78-4c92-8de0-2dcb199609a5","geometry":{"type":"Polygon","coordinates":[[[139.1157633,36.034137],[139.1159007,36.0342559],[139.11601,36.0343496],[139.1160106,36.0343631],[139.1160953,36.0344349],[139.1161383,36.0344739],[139.1162875,36.034611],[139.1164846,36.0347802],[139.1166097,36.0348833],[139.1166152,36.0348867],[139.1166716,36.0349288],[139.1166976,36.0349502],[139.1167477,36.0349875],[139.1168092,36.0350289],[139.1168346,36.0350448],[139.1168612,36.0350589],[139.1168888,36.0350718],[139.1169172,36.0350835],[139.1169283,36.0350876],[139.1169577,36.0350975],[139.1169877,36.0351061],[139.1170184,36.0351134],[139.1170494,36.0351192],[139.1170698,36.0351223],[139.1173311,36.0351717],[139.1173495,36.0351788],[139.1175061,36.0352076],[139.1176381,36.0352318],[139.117756,36.0352625],[139.1177689,36.0352663],[139.1178832,36.0353023],[139.1179047,36.0353097],[139.1180282,36.0353507],[139.1181861,36.0353969],[139.1183188,36.0354344],[139.1184887,36.0354853],[139.1185851,36.0355131],[139.1185703,36.0355471],[139.1185638,36.0355452],[139.1184735,36.0355192],[139.1183038,36.0354684],[139.1181712,36.0354309],[139.1180123,36.0353843],[139.1178876,36.0353431],[139.1178664,36.0353357],[139.1177535,36.0353001],[139.1177418,36.0352967],[139.1176263,36.0352666],[139.1174964,36.0352428],[139.1173397,36.0352139],[139.1173198,36.0352112],[139.1170596,36.035162],[139.1170391,36.0351589],[139.1170212,36.0351556],[139.1170056,36.0351526],[139.1169725,36.0351447],[139.1169399,36.0351354],[139.1169083,36.0351248],[139.1168955,36.03512],[139.1168651,36.0351075],[139.1168351,36.0350934],[139.1168057,36.0350778],[139.1167781,36.0350606],[139.1167148,36.035018],[139.116663,36.0349794],[139.1166059,36.0349323],[139.1165782,36.0349086],[139.1164526,36.0348053],[139.1162546,36.0346353],[139.1161052,36.0344979],[139.1160675,36.0344638],[139.115871,36.0342961],[139.1157198,36.0341653],[139.1157633,36.034137]]]},"properties":{"layer":"road","class_code":"1040","class_label":"道路"}},{"type":"Feature","id":"tran_fbb4a376-09f6-4a9a-a2a3-7c0b960b6db0","geometry":{"type":"Polygon","coordinates":[[[139.1151109,36.0335316],[139.1152762,36.0336968],[139.1153452,36.0337645],[139.1154158,36.0338293],[139.1155056,36.0339037],[139.1155736,36.033961],[139.1156153,36.0339907],[139.1155589,36.0340158],[139.1155442,36.0340021],[139.1154904,36.0339517],[139.1154351,36.0339033],[139.1153793,36.033857],[139.1153073,36.0337909],[139.1152377,36.0337226],[139.1150721,36.0335572],[139.1151109,36.0335316]]]},"properties":{"layer":"road","class_code":"1040","class_label":"道路"}},{"type":"Feature","id":"tran_c2b642f4-67c4-4fde-a736-e26f1c1f9a8d","geometry":{"type":"Polygon","coordinates":[[[139.1130696,36.0333215],[139.1130937,36.0333079],[139.1131301,36.0333468],[139.1131298,36.033347],[139.1131069,36.0333601],[139.1131056,36.0333608],[139.1130691,36.0333217],[139.1130696,36.0333215]]]},"properties":{"layer":"road","class_code":"1040","class_label":"道路"}},{"type":"Feature","id":"tran_c77ae1ee-008c-44e4-a01e-bf6b208b9eab","geometry":{"type":"Polygon","coordinates":[[[139.1129436,36.033708],[139.112946,36.0337167],[139.1127343,36.0337591],[139.1127629,36.0338623],[139.1127685,36.0338873],[139.1127758,36.0339384],[139.1127647,36.0339395],[139.1127573,36.0338872],[139.112752,36.0338641],[139.1127212,36.0337524],[139.1129436,36.033708]]]},"properties":{"layer":"road","class_code":"1040","class_label":"道路"}},{"type":"Feature","id":"tran_4d7ad5b8-b76d-4eb8-b3bd-bd3583927380","geometry":{"type":"Polygon","coordinates":[[[139.1137286,36.0333811],[139.1137182,36.0334019],[139.113697,36.033395],[139.1137074,36.0333741],[139.1137087,36.0333705],[139.1137312,36.0333745],[139.1137286,36.0333811]]]},"properties":{"layer":"road","class_code":"1040","class_label":"道路"}},{"type":"Feature","id":"tran_2ecbd964-87b3-45d2-9ea7-66341d358e49","geometry":{"type":"Polygon","coordinates":[[[139.1137406,36.0333243],[139.113746,36.0333248],[139.1137312,36.0333745],[139.1137087,36.0333705],[139.1137242,36.033323],[139.1137296,36.0333234],[139.1137406,36.0333243]]]},"properties":{"layer":"road","class_code":"1040","class_label":"道路"}},{"type":"Feature","id":"tran_f2edfe51-659f-48a8-bfb0-c5d662ec3260","geometry":{"type":"Polygon","coordinates":[[[139.1130544,36.0335785],[139.1130757,36.033558],[139.1130955,36.0335248],[139.1131326,36.0335341],[139.113143,36.0335552],[139.1131212,36.0335929],[139.1130841,36.0335989],[139.1130544,36.0335785]]]},"properties":{"layer":"road","class_code":"1040","class_label":"道路"}},{"type":"Feature","id":"tran_00037deb-7535-4831-9442-6252d79a35b5","geometry":{"type":"Polygon","coordinates":[[[139.1226547,36.0377261],[139.1226623,36.0376951],[139.1226828,36.0376981],[139.1227329,36.0377033],[139.1227837,36.0377063],[139.1229689,36.0377126],[139.1232318,36.0377227],[139.123288,36.0377272],[139.1234227,36.0377424],[139.1235389,36.0377604],[139.1235827,36.0377705],[139.1236587,36.0377851],[139.1237355,36.0377964],[139.1237944,36.0378026],[139.1238727,36.0378078],[139.1239537,36.0378115],[139.124048,36.0378197],[139.1241036,36.0378266],[139.1241802,36.0378388],[139.1242417,36.0378449],[139.1242566,36.0378474],[139.124258,36.0378478],[139.1242689,36.0378513],[139.1242794,36.0378555],[139.1242891,36.0378603],[139.1242956,36.0378639],[139.1243045,36.0378696],[139.1243131,36.037876],[139.1243211,36.037883],[139.1243223,36.0378842],[139.1243749,36.0379313],[139.1244058,36.0379531],[139.1244468,36.0379778],[139.1244907,36.0380001],[139.1245063,36.0380071],[139.1245907,36.0380492],[139.1246452,36.0380765],[139.1248634,36.0381883],[139.124938,36.0382336],[139.124955,36.0382451],[139.1250721,36.0383303],[139.1251044,36.0383556],[139.1252138,36.0384471],[139.1252848,36.0385095],[139.1253571,36.0385752],[139.1253617,36.0385813],[139.1253671,36.0385878],[139.1253727,36.0385938],[139.1253786,36.0385996],[139.1253851,36.0386052],[139.1253891,36.0386083],[139.1253963,36.0386135],[139.1254034,36.0386181],[139.1254111,36.0386225],[139.125419,36.0386266],[139.1254713,36.0386505],[139.1254956,36.0386607],[139.1255607,36.0386857],[139.1257002,36.038739],[139.1258736,36.0388074],[139.1258759,36.0388083],[139.125886,36.0388126],[139.1258963,36.0388176],[139.1259061,36.038823],[139.1259131,36.0388272],[139.1259169,36.0388298],[139.1258871,36.0388623],[139.1258823,36.0388591],[139.1258772,36.038856],[139.1258694,36.0388518],[139.1258615,36.0388479],[139.1258533,36.0388445],[139.1258517,36.0388438],[139.1256787,36.0387756],[139.1255394,36.0387225],[139.1254734,36.0386971],[139.1254474,36.0386861],[139.1253934,36.0386614],[139.1253832,36.0386562],[139.1253735,36.0386506],[139.125364,36.0386445],[139.1253551,36.038638],[139.1253496,36.0386336],[139.1253413,36.0386266],[139.1253336,36.0386191],[139.1253264,36.0386113],[139.1253197,36.0386032],[139.1253169,36.0385996],[139.1252478,36.0385368],[139.1251774,36.038475],[139.1250692,36.0383843],[139.1250381,36.0383601],[139.1249223,36.0382757],[139.1249059,36.0382646],[139.1248368,36.0382227],[139.1246189,36.0381109],[139.1245828,36.0380929],[139.1244811,36.0380421],[139.1244653,36.038035],[139.1244187,36.0380113],[139.1243745,36.0379847],[139.1243399,36.0379604],[139.1242841,36.0379104],[139.1242831,36.0379094],[139.1242778,36.0379047],[139.1242721,36.0379005],[139.124266,36.0378966],[139.124262,36.0378944],[139.1242554,36.0378912],[139.1242484,36.0378883],[139.1242412,36.0378861],[139.1242338,36.0378841],[139.1242027,36.037876],[139.1241752,36.0378702],[139.124097,36.0378577],[139.124043,36.037851],[139.1239506,36.037843],[139.12387,36.0378392],[139.1237903,36.037834],[139.1237295,36.0378275],[139.1236507,36.037816],[139.123573,36.037801],[139.12353,36.0377912],[139.1234164,36.0377736],[139.1232834,36.0377585],[139.1232289,36.0377542],[139.122967,36.0377441],[139.1227814,36.0377377],[139.1227291,36.0377347],[139.1226769,36.0377292],[139.1226547,36.0377261]]]},"properties":{"layer":"road","class_code":"1040","class_label":"道路"}},{"type":"Feature","id":"tran_5ffa96ee-6322-4b87-9135-d0a4d495d7d8","geometry":{"type":"Polygon","coordinates":[[[139.1226113,36.0377188],[139.1226189,36.0376878],[139.1226194,36.0376856],[139.1226628,36.037693],[139.1226623,36.0376951],[139.1226547,36.0377261],[139.1226541,36.0377282],[139.1226107,36.0377209],[139.1226113,36.0377188]]]},"properties":{"layer":"road","class_code":"1040","class_label":"道路"}},{"type":"Feature","id":"tran_4bf29fa7-3044-40a9-963e-aca90ee88a9d","geometry":{"type":"Polygon","coordinates":[[[139.1137286,36.0333811],[139.1137677,36.033394],[139.1138548,36.0334249],[139.1139969,36.0334856],[139.1141003,36.0335281],[139.1141662,36.0335598],[139.1142195,36.0335954],[139.1142656,36.0336314],[139.114329,36.0336957],[139.1143074,36.0337099],[139.114245,36.0336467],[139.1142011,36.0336123],[139.1141502,36.0335784],[139.114087,36.0335478],[139.1139842,36.0335057],[139.1138427,36.0334452],[139.113757,36.0334147],[139.1137182,36.0334019],[139.1137286,36.0333811]]]},"properties":{"layer":"road","class_code":"1040","class_label":"道路"}},{"type":"Feature","id":"tran_b80c33c9-12cb-4508-9a2e-d40f8114ad53","geometry":{"type":"Polygon","coordinates":[[[139.1148169,36.0333435],[139.1148478,36.0333117],[139.1148967,36.0333033],[139.1149533,36.033332],[139.1149615,36.0333902],[139.1149241,36.0334226],[139.1148376,36.0333568],[139.1148169,36.0333435]]]},"properties":{"layer":"road","class_code":"1040","class_label":"道路"}},{"type":"Feature","id":"tran_fde7a3f8-aa7a-4c23-9d42-6bd1bcb790a4","geometry":{"type":"Polygon","coordinates":[[[139.1206873,36.0363458],[139.1206895,36.036345],[139.1206926,36.0363434],[139.1206949,36.0363411],[139.1206961,36.0363383],[139.1206966,36.0363345],[139.1206966,36.0363327],[139.1207336,36.0363232],[139.1207533,36.0363737],[139.1207164,36.0363832],[139.1207137,36.0363794],[139.1207103,36.0363769],[139.1207074,36.0363759],[139.1207044,36.0363754],[139.1207012,36.0363755],[139.1206873,36.0363458]]]},"properties":{"layer":"road","class_code":"1040","class_label":"道路"}},{"type":"Feature","id":"tran_78eb60ea-0a2a-443d-a982-f6e15f47152d","geometry":{"type":"Polygon","coordinates":[[[139.1157248,36.0341043],[139.1157594,36.0341336],[139.1157633,36.034137],[139.1157198,36.0341653],[139.1156826,36.0341317],[139.1157248,36.0341043]]]},"properties":{"layer":"road","class_code":"1040","class_label":"道路"}},{"type":"Feature","id":"tran_a115dd30-b64e-4c7e-9746-98e83de2d462","geometry":{"type":"Polygon","coordinates":[[[139.1155685,36.034206],[139.1156826,36.0341317],[139.1157198,36.0341653],[139.115608,36.034238],[139.1155714,36.0342619],[139.1156095,36.0343339],[139.1155636,36.0343499],[139.1155082,36.0342452],[139.1155685,36.034206]]]},"properties":{"layer":"road","class_code":"1040","class_label":"道路"}},{"type":"Feature","id":"tran_2518abb6-d522-487c-bcbb-42e5c2fba5df","geometry":{"type":"Polygon","coordinates":[[[139.1155589,36.0340158],[139.1156153,36.0339907],[139.1156232,36.0339974],[139.1155662,36.0340227],[139.1155589,36.0340158]]]},"properties":{"layer":"road","class_code":"1040","class_label":"道路"}},{"type":"Feature","id":"tran_0738c9f9-9422-4a70-8697-aea90bdd7b87","geometry":{"type":"Polygon","coordinates":[[[139.1156232,36.0339974],[139.1157118,36.0340933],[139.1157248,36.0341043],[139.1156826,36.0341317],[139.1155662,36.0340227],[139.1156232,36.0339974]]]},"properties":{"layer":"road","class_code":"1040","class_label":"道路"}},{"type":"Feature","id":"tran_05ba9fef-3c7a-44f1-ae1f-4018190680a4","geometry":{"type":"Polygon","coordinates":[[[139.1206775,36.036348],[139.1206873,36.0363458],[139.1207012,36.0363755],[139.120699,36.0363759],[139.1206875,36.0363784],[139.1206775,36.036348]]]},"properties":{"layer":"road","class_code":"1040","class_label":"道路"}},{"type":"Feature","id":"tran_952456c9-663f-4171-a58a-0e9adb97d26b","geometry":{"type":"Polygon","coordinates":[[[139.1209682,36.0371543],[139.1209947,36.0371314],[139.1210017,36.03712],[139.1210036,36.0371122],[139.1210054,36.0371002],[139.1210062,36.03709],[139.121005,36.0370818],[139.1210405,36.0370704],[139.121043,36.0370757],[139.121058,36.0371008],[139.1210604,36.0371052],[139.1210662,36.0371142],[139.1210726,36.0371229],[139.1210786,36.0371303],[139.1210861,36.0371385],[139.1210941,36.0371463],[139.1211026,36.0371538],[139.1211095,36.0371593],[139.1211189,36.0371672],[139.1211288,36.0371748],[139.1211393,36.0371819],[139.1211436,36.0371846],[139.1211546,36.0371911],[139.1211333,36.0372173],[139.1211074,36.0372121],[139.1210302,36.0372095],[139.1209682,36.0371543]]]},"properties":{"layer":"road","class_code":"1040","class_label":"道路"}},{"type":"Feature","id":"tran_b615359d-0c2f-484e-b19b-a69117f26e50","geometry":{"type":"Polygon","coordinates":[[[139.1147125,36.0335775],[139.1147421,36.0335618],[139.1147713,36.0335515],[139.1147961,36.0335461],[139.1148868,36.0335383],[139.1149415,36.0335329],[139.1149866,36.0335209],[139.1150036,36.0335631],[139.1148918,36.0335741],[139.1148043,36.0335815],[139.1147861,36.0335856],[139.1147631,36.0335936],[139.1147368,36.0336076],[139.1147125,36.0335775]]]},"properties":{"layer":"road","class_code":"1040","class_label":"道路"}},{"type":"Feature","id":"tran_4bdfe571-756f-4819-9939-0ec7b29f4269","geometry":{"type":"Polygon","coordinates":[[[139.1130955,36.0335248],[139.1131186,36.0334571],[139.1131255,36.0334211],[139.1131251,36.0334014],[139.1131197,36.03338],[139.1131069,36.0333601],[139.1131298,36.033347],[139.1131456,36.0333666],[139.1131566,36.0333854],[139.1131641,36.033406],[139.1131644,36.0334233],[139.1131566,36.0334638],[139.1131326,36.0335341],[139.1130955,36.0335248]]]},"properties":{"layer":"road","class_code":"1040","class_label":"道路"}},{"type":"Feature","id":"tran_e74452ca-7be6-4d7f-8f65-be482445e890","geometry":{"type":"Polygon","coordinates":[[[139.1211546,36.0371911],[139.1211661,36.037197],[139.1211781,36.0372024],[139.1211865,36.0372058],[139.1211985,36.0372105],[139.1212281,36.0372237],[139.1213104,36.0372633],[139.1213572,36.0372882],[139.1214595,36.0373369],[139.1215342,36.037372],[139.1216154,36.0374085],[139.1217952,36.037486],[139.121832,36.0375025],[139.1218686,36.0375168],[139.1219062,36.0375295],[139.1219448,36.0375406],[139.1219549,36.0375432],[139.1221822,36.0375868],[139.1223333,36.037616],[139.1224317,36.0376414],[139.1225672,36.037677],[139.1225934,36.0376831],[139.1226189,36.0376878],[139.1226113,36.0377188],[139.1225836,36.0377136],[139.1225559,36.0377071],[139.1224199,36.0376714],[139.1223229,36.0376464],[139.1221732,36.0376175],[139.1219469,36.0375742],[139.1219462,36.037574],[139.1219326,36.0375705],[139.1218922,36.037559],[139.1218527,36.0375456],[139.1218142,36.0375305],[139.1217767,36.0375137],[139.1215969,36.0374362],[139.1215151,36.0373994],[139.1214399,36.0373642],[139.1213367,36.037315],[139.1212899,36.0372901],[139.121209,36.0372511],[139.1211767,36.0372368],[139.121169,36.037234],[139.1211598,36.0372302],[139.1211462,36.037224],[139.1211333,36.0372173],[139.1211546,36.0371911]]]},"properties":{"layer":"road","class_code":"1040","class_label":"道路"}},{"type":"Feature","id":"tran_1d5880bd-60e7-4d98-92e1-dc7ce95089d9","geometry":{"type":"Polygon","coordinates":[[[139.1149241,36.0334226],[139.1149615,36.0333902],[139.1150621,36.0334842],[139.1150244,36.0335108],[139.114956,36.0334469],[139.1149241,36.0334226]]]},"properties":{"layer":"road","class_code":"1040","class_label":"道路"}},{"type":"Feature","id":"tran_508c02be-ce29-4228-b058-b35cb94a151e","geometry":{"type":"Polygon","coordinates":[[[139.1149284,36.0337409],[139.1149408,36.0337407],[139.1149505,36.0337384],[139.114968,36.0337285],[139.1149976,36.033707],[139.115032,36.0336672],[139.1150411,36.0336521],[139.1150439,36.0336412],[139.1150429,36.0336295],[139.1150344,36.0336109],[139.1150168,36.0335865],[139.1150129,36.0335797],[139.1150401,36.0335696],[139.1150413,36.0335847],[139.1150436,36.0335967],[139.1150525,36.0336117],[139.1150657,36.0336356],[139.1150663,36.0336424],[139.1150624,36.033658],[139.1150511,36.0336765],[139.1150143,36.033719],[139.1149818,36.0337427],[139.1149602,36.033755],[139.1149441,36.0337587],[139.1149288,36.0337589],[139.1149284,36.0337409]]]},"properties":{"layer":"road","class_code":"1040","class_label":"道路"}},{"type":"Feature","id":"tran_795a671c-c2e5-41dc-bd62-c3e3aa2b1d34","geometry":{"type":"Polygon","coordinates":[[[139.1209682,36.0371543],[139.1210302,36.0372095],[139.1208807,36.0373135],[139.1208681,36.0373248],[139.1208658,36.0373306],[139.1208658,36.0373375],[139.1208663,36.0373425],[139.120868,36.037348],[139.1208691,36.0373523],[139.1208746,36.0373582],[139.1208889,36.037366],[139.1209102,36.0373711],[139.121108,36.0374012],[139.1210995,36.0374382],[139.1208993,36.0374077],[139.120869,36.0374004],[139.1208424,36.0373859],[139.1208261,36.0373684],[139.120823,36.0373566],[139.1208205,36.0373488],[139.1208195,36.037339],[139.1208196,36.0373309],[139.1208162,36.0373101],[139.120816,36.0372923],[139.1208159,36.0372789],[139.1208172,36.0372645],[139.1208232,36.0372529],[139.1209682,36.0371543]]]},"properties":{"layer":"road","class_code":"1040","class_label":"道路"}},{"type":"Feature","id":"tran_a90f7d4f-3dc4-4ed9-92be-7a3b267c61b2","geometry":{"type":"Polygon","coordinates":[[[139.1131212,36.0335929],[139.113143,36.0335552],[139.1131555,36.0335652],[139.113172,36.0335699],[139.1132098,36.0335719],[139.1132131,36.0335727],[139.1132258,36.0335454],[139.1132427,36.0335101],[139.1132682,36.0334749],[139.1133153,36.033433],[139.1133843,36.0333874],[139.1134329,36.0333616],[139.113467,36.0333504],[139.1135014,36.0333465],[139.1135635,36.0333481],[139.1136385,36.0333598],[139.1137042,36.0333731],[139.1137074,36.0333741],[139.113697,36.033395],[139.1136956,36.0333945],[139.1136326,36.0333819],[139.1135604,36.0333706],[139.1135029,36.0333691],[139.1134742,36.0333723],[139.1134458,36.0333817],[139.1134007,36.0334056],[139.1133343,36.0334494],[139.1132906,36.0334883],[139.1132677,36.0335199],[139.113255,36.0335465],[139.1132695,36.0335765],[139.1132338,36.0336122],[139.1131212,36.0335929]]]},"properties":{"layer":"road","class_code":"1040","class_label":"道路"}},{"type":"Feature","id":"tran_6e10c06b-c2ee-448e-a33a-d06f339e3a06","geometry":{"type":"Polygon","coordinates":[[[139.1186591,36.0355725],[139.1186739,36.0355387],[139.1186858,36.0355421],[139.1188776,36.0356025],[139.1189484,36.0356246],[139.1190199,36.0356433],[139.1190547,36.0356511],[139.1191278,36.035665],[139.1192018,36.0356757],[139.1192242,36.0356783],[139.1194616,36.0357094],[139.1198088,36.0357518],[139.1201316,36.0357966],[139.1203501,36.0358262],[139.1204311,36.0358355],[139.1204891,36.0358394],[139.1204904,36.0358396],[139.1205019,36.0358398],[139.1205133,36.0358405],[139.1205246,36.0358417],[139.1205319,36.0358428],[139.1205431,36.0358448],[139.12055,36.0358463],[139.1205555,36.0358485],[139.120561,36.0358509],[139.1205663,36.0358537],[139.1205701,36.0358557],[139.1205751,36.0358588],[139.1205798,36.0358621],[139.1205843,36.0358656],[139.1205886,36.0358693],[139.1205926,36.0358732],[139.1205949,36.0358755],[139.1205973,36.0358795],[139.1206047,36.0359042],[139.1206078,36.0359185],[139.1206146,36.0359479],[139.1206247,36.0360048],[139.1206258,36.0360135],[139.12064,36.0360721],[139.120651,36.0361088],[139.1206719,36.0361668],[139.1206854,36.0361991],[139.120726,36.0363034],[139.1207336,36.0363232],[139.1206966,36.0363327],[139.1206955,36.03633],[139.1206889,36.036313],[139.1206485,36.0362089],[139.1206349,36.0361763],[139.1206136,36.0361169],[139.1206021,36.0360789],[139.1205875,36.0360183],[139.1205861,36.0360087],[139.1205805,36.0359771],[139.1205764,36.0359531],[139.120569,36.035922],[139.1205595,36.0359071],[139.1205546,36.0359032],[139.1205495,36.0358993],[139.1205441,36.0358958],[139.1205385,36.0358924],[139.1205326,36.0358894],[139.1205294,36.0358879],[139.1205232,36.0358852],[139.1205169,36.0358828],[139.1205105,36.0358807],[139.120504,36.0358789],[139.1204972,36.0358774],[139.1204905,36.0358762],[139.1204836,36.0358752],[139.1204261,36.0358713],[139.1203433,36.0358619],[139.1201242,36.0358322],[139.1198362,36.0357923],[139.1198017,36.0357875],[139.119497,36.0357501],[139.1194549,36.035745],[139.1192176,36.0357139],[139.1191948,36.0357113],[139.1191188,36.0357004],[139.1190437,36.0356861],[139.1190072,36.0356778],[139.1189336,36.0356585],[139.1188616,36.0356361],[139.1186704,36.035576],[139.1186604,36.0355729],[139.1186591,36.0355725]]]},"properties":{"layer":"road","class_code":"1040","class_label":"道路"}},{"type":"Feature","id":"tran_bc8904f4-26a1-4d02-975f-3338b19ee458","geometry":{"type":"Polygon","coordinates":[[[139.1150244,36.0335108],[139.1150621,36.0334842],[139.1150833,36.0335041],[139.1151109,36.0335316],[139.1150721,36.0335572],[139.1150401,36.0335696],[139.1150129,36.0335797],[139.1150036,36.0335631],[139.1149866,36.0335209],[139.1150244,36.0335108]]]},"properties":{"layer":"road","class_code":"1040","class_label":"道路"}},{"type":"Feature","id":"tran_136d8b83-9eb1-43fe-8770-945c472b2cd9","geometry":{"type":"Polygon","coordinates":[[[139.1157902,36.0339054],[139.1158591,36.0338639],[139.1159296,36.0338301],[139.115957,36.0338265],[139.1159786,36.0338276],[139.1160142,36.0338345],[139.1160463,36.0338512],[139.116113,36.0338988],[139.1161057,36.0339055],[139.1160397,36.0338585],[139.1160098,36.0338428],[139.115977,36.0338366],[139.1159576,36.0338356],[139.1159334,36.0338388],[139.1158653,36.0338714],[139.1158086,36.0339055],[139.1156766,36.0339738],[139.1156232,36.0339974],[139.1156153,36.0339907],[139.1156715,36.0339657],[139.1157902,36.0339054]]]},"properties":{"layer":"road","class_code":"1040","class_label":"道路"}},{"type":"Feature","id":"tran_d89bf881-0ae2-45ee-8eb3-63476ac935cc","geometry":{"type":"Polygon","coordinates":[[[139.1185851,36.0355131],[139.1186739,36.0355387],[139.1186591,36.0355725],[139.1186352,36.035584],[139.1185873,36.0355703],[139.1185703,36.0355471],[139.1185851,36.0355131]]]},"properties":{"layer":"road","class_code":"1040","class_label":"道路"}},{"type":"Feature","id":"tran_d32f6163-a6e9-48f5-8349-03393ceb81f4","geometry":{"type":"Polygon","coordinates":[[[139.1130544,36.0335785],[139.1130841,36.0335989],[139.113072,36.0336106],[139.1130066,36.0336623],[139.1129924,36.033677],[139.1129837,36.0336916],[139.1129817,36.0337004],[139.1129436,36.033708],[139.1129422,36.0336999],[139.1129465,36.0336817],[139.1129591,36.0336603],[139.1129776,36.0336411],[139.1130435,36.0335891],[139.1130544,36.0335785]]]},"properties":{"layer":"road","class_code":"1040","class_label":"道路"}},{"type":"Feature","id":"tran_87506670-3c8f-4e2b-b2a8-99298ce07ca9","geometry":{"type":"Polygon","coordinates":[[[139.1185873,36.0355703],[139.1186352,36.035584],[139.1186139,36.0356915],[139.1187767,36.0357251],[139.1187405,36.0358817],[139.1187353,36.0359111],[139.1187355,36.0359118],[139.118736,36.0359128],[139.1187368,36.0359139],[139.1187382,36.0359151],[139.1187462,36.0359192],[139.1187669,36.0359271],[139.1187939,36.0359364],[139.1188182,36.0359446],[139.118837,36.0359514],[139.1188527,36.0359582],[139.1188669,36.0359663],[139.1188793,36.0359767],[139.118889,36.0359893],[139.1188958,36.0360033],[139.1189001,36.0360195],[139.1189004,36.0360494],[139.1188946,36.0361223],[139.1188448,36.0361197],[139.1188505,36.0360483],[139.1188502,36.036024],[139.1188478,36.0360151],[139.1188442,36.0360076],[139.1188399,36.0360019],[139.1188343,36.0359973],[139.1188264,36.0359927],[139.1188152,36.0359879],[139.1187985,36.0359819],[139.1187745,36.0359738],[139.1187465,36.0359641],[139.1187223,36.0359548],[139.1187062,36.0359467],[139.1186971,36.0359388],[139.1186917,36.0359318],[139.1186874,36.0359238],[139.1186847,36.035912],[139.1186912,36.0358751],[139.118719,36.035755],[139.1185573,36.0357217],[139.1185873,36.0355703]]]},"properties":{"layer":"road","class_code":"1040","class_label":"道路"}},{"type":"Feature","id":"tran_bedfb863-dd64-4c23-9d2d-78b97cd0a6d2","geometry":{"type":"Polygon","coordinates":[[[139.1129436,36.033708],[139.1129817,36.0337004],[139.1129816,36.0337007],[139.1129825,36.033706],[139.1129838,36.0337092],[139.112946,36.0337167],[139.1129436,36.033708]]]},"properties":{"layer":"road","class_code":"1040","class_label":"道路"}},{"type":"Feature","id":"tran_dbda3546-8092-4395-9674-53e0815376db","geometry":{"type":"Polygon","coordinates":[[[139.112946,36.0337167],[139.1129838,36.0337092],[139.1130001,36.0337488],[139.1129632,36.0337588],[139.112946,36.0337167]]]},"properties":{"layer":"road","class_code":"1040","class_label":"道路"}},{"type":"Feature","id":"tran_774d9117-62da-44ae-964d-289203347383","geometry":{"type":"Polygon","coordinates":[[[139.1205146,36.0411066],[139.1204632,36.0411686],[139.1204358,36.0411587],[139.1203857,36.0411383],[139.1204219,36.0410799],[139.1204535,36.0410795],[139.120479,36.0410792],[139.1205139,36.0410795],[139.1205203,36.0410804],[139.1205207,36.0410805],[139.1205151,36.0411059],[139.1205147,36.041106],[139.1205146,36.0411062],[139.1205146,36.0411066]]]},"properties":{"layer":"road","class_code":"1040","class_label":"道路"}},{"type":"Feature","id":"tran_bc5c6128-398a-4f3a-87bc-5fa4c2937ed4","geometry":{"type":"Polygon","coordinates":[[[139.1100621,36.0364988],[139.1101235,36.0364975],[139.1102246,36.0364955],[139.1102431,36.0364924],[139.110252,36.036491],[139.1103056,36.0364797],[139.110342,36.0364728],[139.1103801,36.0364674],[139.1103978,36.0364654],[139.1104364,36.0364624],[139.1104751,36.0364611],[139.1104808,36.036461],[139.1105386,36.0364649],[139.1105409,36.0364651],[139.1105813,36.0364707],[139.110589,36.0364719],[139.1106289,36.0364795],[139.1106681,36.0364889],[139.1106723,36.03649],[139.1106975,36.036497],[139.1107235,36.0365057],[139.1107478,36.0365151],[139.1107502,36.036516],[139.1107739,36.0365265],[139.1107977,36.0365385],[139.1108205,36.0365514],[139.110837,36.0365618],[139.1108526,36.0365739],[139.1109383,36.0366489],[139.1109925,36.0367065],[139.1110072,36.0367256],[139.1110146,36.0367368],[139.1110368,36.0367793],[139.1110555,36.0368245],[139.1110612,36.0368411],[139.111074,36.0368876],[139.1110808,36.036926],[139.1110873,36.0369619],[139.1111051,36.0370442],[139.111132,36.0371378],[139.1111479,36.0371794],[139.1111597,36.0372043],[139.1111823,36.0372444],[139.1111854,36.0372492],[139.1112005,36.0372656],[139.111204,36.0372687],[139.111205,36.0372698],[139.1112132,36.037278],[139.1112217,36.0372859],[139.111231,36.0372932],[139.1112407,36.0373003],[139.1112503,36.0373065],[139.1112609,36.0373127],[139.1112718,36.0373183],[139.1112831,36.0373236],[139.1112947,36.0373282],[139.1113066,36.0373323],[139.1113188,36.0373359],[139.1113312,36.037339],[139.1113438,36.0373415],[139.1113563,36.0373434],[139.1113668,36.0373444],[139.1113839,36.0373455],[139.1114008,36.0373457],[139.1114177,36.0373453],[139.1114346,36.037344],[139.1114513,36.037342],[139.1114678,36.0373394],[139.1114843,36.0373359],[139.1115004,36.0373317],[139.1115163,36.0373268],[139.1115289,36.0373223],[139.1115442,36.0373162],[139.1115589,36.0373093],[139.111573,36.037302],[139.1115762,36.0373002],[139.1115976,36.0372832],[139.1116275,36.0372532],[139.1116535,36.0372225],[139.1116647,36.0372069],[139.1117263,36.0371188],[139.1117624,36.037067],[139.1118334,36.036949],[139.1118665,36.0368967],[139.1118854,36.0368667],[139.1119136,36.036822],[139.1120113,36.0366706],[139.112079,36.0365687],[139.112105,36.0365233],[139.112144,36.0364522],[139.1121632,36.0364151],[139.1121706,36.0364009],[139.1121797,36.0363858],[139.1121899,36.0363712],[139.112201,36.036357],[139.112213,36.0363434],[139.1122257,36.0363305],[139.1122344,36.0363224],[139.1122484,36.0363105],[139.1122635,36.036299],[139.1122794,36.0362882],[139.1122959,36.0362781],[139.1123131,36.0362688],[139.1123307,36.0362604],[139.1123441,36.0362546],[139.1124886,36.0361977],[139.1129129,36.0360227],[139.1129411,36.0360111],[139.1131533,36.0359321],[139.1134381,36.0358218],[139.1137886,36.0356846],[139.1138289,36.0356696],[139.1138889,36.035646],[139.1139666,36.0356137],[139.1140309,36.0355857],[139.1140353,36.0355841],[139.1140475,36.035579],[139.1140592,36.0355734],[139.1140705,36.0355674],[139.1140814,36.0355608],[139.1140923,36.0355533],[139.1140949,36.0355516],[139.1141052,36.0355435],[139.1141143,36.0355354],[139.1141231,36.0355269],[139.1141311,36.0355181],[139.1141386,36.0355088],[139.1141456,36.0354993],[139.1141511,36.0354906],[139.1141774,36.0354378],[139.1142112,36.035365],[139.1142221,36.0353399],[139.1142353,36.0353136],[139.11424,36.0353053],[139.1142555,36.0352799],[139.1142727,36.0352553],[139.1142791,36.0352469],[139.1142877,36.0352374],[139.1142961,36.0352293],[139.114305,36.0352216],[139.1143144,36.0352143],[139.1143243,36.0352074],[139.1143346,36.0352009],[139.1143455,36.035195],[139.1143566,36.0351895],[139.114368,36.0351845],[139.1143798,36.03518],[139.1143918,36.0351761],[139.1144041,36.0351727],[139.1144167,36.0351698],[139.1144295,36.0351675],[139.1144424,36.0351658],[139.1144553,36.0351646],[139.1144684,36.0351641],[139.1144813,36.0351641],[139.1144942,36.0351646],[139.1145042,36.0351655],[139.1146098,36.035176],[139.1146338,36.035179],[139.1147389,36.0351953],[139.114772,36.0352013],[139.1147925,36.0352045],[139.1148158,36.0352092],[139.114839,36.035215],[139.1148615,36.0352218],[139.1148832,36.0352293],[139.114894,36.0352335],[139.1149147,36.0352425],[139.1149354,36.0352526],[139.1149554,36.0352635],[139.1149746,36.0352754],[139.114993,36.0352881],[139.1150102,36.0353013],[139.1150257,36.0353145],[139.1150631,36.0353644],[139.1150684,36.035372],[139.1150988,36.035419],[139.1151143,36.0354458],[139.1151277,36.0354697],[139.11514,36.0354953],[139.1151439,36.035505],[139.1151667,36.0355848],[139.115167,36.0355855],[139.1151739,36.0356165],[139.1151749,36.0356226],[139.1151793,36.0356532],[139.1151799,36.0356594],[139.1151853,36.0357039],[139.1151885,36.0357493],[139.1151885,36.0357683],[139.1151879,36.0357883],[139.1151885,36.0358084],[139.1151905,36.0358283],[139.1151939,36.0358483],[139.1151985,36.0358679],[139.1152028,36.0358822],[139.1152097,36.0359015],[139.115218,36.0359204],[139.1152274,36.0359389],[139.1152331,36.0359485],[139.1152459,36.0359676],[139.1152573,36.0359823],[139.1152623,36.0359878],[139.1152738,36.0359989],[139.1152963,36.0360172],[139.115331,36.0360435],[139.1154791,36.0361596],[139.1155674,36.0362291],[139.1155908,36.0362497],[139.1156127,36.0362714],[139.1156217,36.0362811],[139.1156416,36.0363041],[139.1156598,36.0363279],[139.1156711,36.0363442],[139.1156877,36.0363662],[139.1157031,36.0363889],[139.1157116,36.0364031],[139.1157387,36.0364444],[139.1157426,36.0364502],[139.1157506,36.036464],[139.1157575,36.0364783],[139.1157636,36.0364928],[139.1157659,36.0364989],[139.1157705,36.0365137],[139.1157727,36.0365223],[139.1157806,36.0365574],[139.1157816,36.0365639],[139.1157823,36.0365703],[139.1157826,36.0365768],[139.1157824,36.0365833],[139.1157818,36.0365898],[139.1157813,36.0365927],[139.1157801,36.0365991],[139.1157785,36.0366055],[139.1157763,36.0366117],[139.1157738,36.0366179],[139.1157709,36.036624],[139.1157676,36.0366299],[139.115765,36.0366337],[139.1157449,36.0366587],[139.1157419,36.0366624],[139.1157397,36.0366649],[139.1157337,36.0366712],[139.1157272,36.0366772],[139.1157204,36.036683],[139.1157131,36.0366884],[139.1157055,36.0366935],[139.1157042,36.0366944],[139.1156963,36.036699],[139.1156879,36.0367034],[139.1156794,36.0367073],[139.1156705,36.0367109],[139.1156615,36.0367141],[139.1156523,36.0367169],[139.1156428,36.0367192],[139.1156333,36.0367211],[139.1156327,36.0367213],[139.1156168,36.0367242],[139.1156007,36.0367263],[139.1155844,36.0367278],[139.1155682,36.0367285],[139.1155625,36.0367285],[139.1155461,36.0367283],[139.1155298,36.0367273],[139.1155136,36.0367256],[139.1155047,36.0367244],[139.1154987,36.0367238],[139.1154928,36.036723],[139.1154869,36.0367219],[139.115481,36.0367205],[139.1154753,36.0367188],[139.1154697,36.036717],[139.1154642,36.0367148],[139.1154598,36.0367129],[139.1154546,36.0367103],[139.1154496,36.0367075],[139.1154449,36.0367045],[139.1154402,36.0367013],[139.1154358,36.0366978],[139.1154345,36.0366967],[139.1154207,36.0366796],[139.1154059,36.0366594],[139.1154052,36.0366584],[139.1153742,36.036612],[139.1153494,36.0365757],[139.1151836,36.0363654],[139.1151429,36.0363183],[139.1151041,36.0362761],[139.1150653,36.0362348],[139.1150307,36.0361979],[139.1150025,36.0361671],[139.1149795,36.0361407],[139.1149598,36.0361169],[139.1149425,36.0360945],[139.1149268,36.0360726],[139.1149124,36.0360508],[139.1148998,36.0360293],[139.1148893,36.0360082],[139.1148804,36.0359876],[139.1148728,36.0359668],[139.1148656,36.035943],[139.1148584,36.0359123],[139.1148506,36.0358618],[139.114838,36.0357328],[139.1148349,36.0357056],[139.1148269,36.0356791],[139.1148143,36.0356538],[139.1147973,36.0356302],[139.1147763,36.0356088],[139.1147518,36.0355902],[139.114743,36.0355868],[139.1147341,36.0355837],[139.1147182,36.0355811],[139.1147109,36.0355811],[139.1147036,36.0355813],[139.1146955,36.0355821],[139.1146944,36.0355822],[139.1146864,36.0355834],[139.1146793,36.0355848],[139.1146721,36.0355865],[139.1146652,36.0355885],[139.1146563,36.0355919],[139.1146469,36.0355961],[139.1146376,36.0356007],[139.1146305,36.0356047],[139.1146218,36.0356101],[139.1146174,36.0356131],[139.1146079,36.0356183],[139.1146035,36.0356222],[139.1145992,36.0356262],[139.1145953,36.0356305],[139.1145916,36.035635],[139.1145883,36.0356396],[139.1145853,36.0356444],[139.1145825,36.0356493],[139.1145801,36.0356542],[139.1145792,36.0356564],[139.1145774,36.0356615],[139.1145758,36.0356667],[139.1145746,36.0356721],[139.1145738,36.0356774],[139.1145733,36.0356827],[139.1145732,36.0356843],[139.1145735,36.0356915],[139.1145741,36.0356985],[139.1145755,36.0357053],[139.1145757,36.0357064],[139.114581,36.0357273],[139.1145853,36.0357395],[139.1145886,36.0357482],[139.1145921,36.0357557],[139.1145929,36.0357574],[139.114598,36.035767],[139.1146021,36.0357759],[139.1146046,36.0357802],[139.1146267,36.0358228],[139.1146535,36.0358785],[139.114759,36.0360679],[139.1149153,36.0363186],[139.1150572,36.0365486],[139.115071,36.0365693],[139.1150998,36.0366089],[139.1151315,36.0366472],[139.115159,36.0366773],[139.115195,36.0367128],[139.1152334,36.0367467],[139.1152455,36.0367574],[139.1152833,36.0367921],[139.1152928,36.0368018],[139.1153019,36.036812],[139.1153101,36.0368225],[139.1153176,36.0368333],[139.1153244,36.0368444],[139.1153305,36.0368559],[139.1153315,36.036858],[139.1153366,36.0368698],[139.1153409,36.0368818],[139.1153444,36.0368939],[139.1153472,36.0369061],[139.1153483,36.0369143],[139.1153475,36.0369296],[139.1153459,36.0369389],[139.1153447,36.0369427],[139.1153413,36.0369513],[139.1153375,36.0369597],[139.115333,36.036968],[139.1153279,36.036976],[139.1153224,36.0369838],[139.115322,36.0369841],[139.115316,36.0369917],[139.1153094,36.0369989],[139.1153022,36.0370058],[139.1152947,36.0370124],[139.1152868,36.0370187],[139.1152784,36.0370247],[139.1152696,36.0370301],[139.1152627,36.0370341],[139.1152504,36.0370389],[139.1152378,36.0370431],[139.1152249,36.0370467],[139.1152118,36.0370498],[139.1151997,36.0370521],[139.1151862,36.037054],[139.1151727,36.0370553],[139.1151592,36.0370561],[139.1151477,36.0370562],[139.1150813,36.037052],[139.1150551,36.0370472],[139.1150392,36.0370435],[139.1150173,36.0370367],[139.1150076,36.0370323],[139.1149981,36.0370275],[139.1149889,36.0370223],[139.1149801,36.0370167],[139.1149717,36.0370107],[139.1149649,36.0370052],[139.1149339,36.0369785],[139.1147345,36.0368109],[139.1147278,36.0368055],[139.1147185,36.0368003],[139.1147132,36.0367986],[139.1147077,36.0367971],[139.1147022,36.0367958],[139.1146966,36.0367948],[139.1146909,36.0367941],[139.1146851,36.0367935],[139.1146794,36.0367933],[139.1146736,36.0367932],[139.1146712,36.0367933],[139.1146654,36.0367937],[139.1146597,36.0367943],[139.1146541,36.0367952],[139.1146485,36.0367962],[139.1146429,36.0367976],[139.1146376,36.0367992],[139.1146323,36.0368011],[139.1146271,36.0368031],[139.1146221,36.0368054],[139.1146172,36.0368079],[139.1146125,36.0368107],[139.1146084,36.0368134],[139.1146046,36.0368158],[139.1146004,36.0368193],[139.114594,36.0368265],[139.1145919,36.0368293],[139.1145905,36.0368315],[139.1145874,36.0368363],[139.1145761,36.0368596],[139.1145691,36.0368767],[139.1145684,36.0368785],[139.1145658,36.0368878],[139.1145652,36.0368903],[139.1145631,36.0369055],[139.1145607,36.0369443],[139.11456,36.0369766],[139.1145613,36.0370086],[139.1145623,36.0370182],[139.1145665,36.03705],[139.1145729,36.037081],[139.1145815,36.0371124],[139.1145841,36.0371208],[139.1146002,36.0371854],[139.1146163,36.0372397],[139.1146196,36.0372536],[139.114622,36.0372678],[139.1146234,36.0372822],[139.114624,36.0372966],[139.1146235,36.0373102],[139.1146234,36.0373122],[139.114622,36.0373257],[139.1146196,36.03734],[139.1146162,36.0373541],[139.1146119,36.0373681],[139.1146067,36.0373818],[139.1146004,36.0373953],[139.1145948,36.0374059],[139.114588,36.0374192],[139.1145793,36.0374339],[139.1145696,36.0374483],[139.114559,36.0374621],[139.1145485,36.0374744],[139.1145361,36.0374873],[139.1145228,36.0374997],[139.1145088,36.0375114],[139.114494,36.0375225],[139.1144785,36.0375329],[139.1144626,36.0375424],[139.1144529,36.0375477],[139.1143859,36.0375809],[139.1142807,36.0376287],[139.1142264,36.0376485],[139.114132,36.0376762],[139.1140912,36.0376888],[139.1140827,36.0376909],[139.1139407,36.0377348],[139.1139271,36.0377404],[139.1139147,36.0377478],[139.113904,36.0377566],[139.1138952,36.0377668],[139.1138886,36.037778],[139.1138843,36.0377899],[139.1138825,36.0378023],[139.1138832,36.0378147],[139.1138864,36.0378269],[139.1139412,36.0379167],[139.1139499,36.0379342],[139.1139633,36.0379608],[139.1139817,36.038002],[139.1139965,36.0380309],[139.1140061,36.0380481],[139.1140077,36.0380505],[139.1141748,36.0383117],[139.1142299,36.0383997],[139.1142446,36.0384206],[139.1142673,36.0384535],[139.1142683,36.038455],[139.1142755,36.038465],[139.1142832,36.0384748],[139.1142917,36.0384842],[139.1143008,36.0384933],[139.1143105,36.0385019],[139.1143211,36.0385102],[139.1143263,36.0385141],[139.1143376,36.0385217],[139.1143492,36.0385287],[139.1143613,36.0385351],[139.1143736,36.0385409],[139.1143854,36.0385459],[139.1143965,36.0385493],[139.1144065,36.0385506],[139.114426,36.0385513],[139.1144658,36.0385511],[139.1144758,36.0385508],[139.1145154,36.0385484],[139.114554,36.0385443],[139.1145928,36.0385384],[139.11462,36.0385326],[139.1146467,36.0385256],[139.1146728,36.0385175],[139.1146991,36.038508],[139.1147033,36.0385063],[139.1147288,36.0384954],[139.1147528,36.0384836],[139.1147767,36.0384705],[139.1147812,36.0384679],[139.1148578,36.0384202],[139.1149389,36.0383697],[139.115024,36.0383155],[139.1151121,36.0382652],[139.1151297,36.0382549],[139.1151501,36.0382441],[139.1151713,36.0382343],[139.1151925,36.0382257],[139.1152031,36.0382218],[139.1152251,36.0382145],[139.1152481,36.0382081],[139.1152715,36.0382027],[139.1152953,36.0381984],[139.1153186,36.0381952],[139.1153258,36.0381944],[139.1153891,36.0381867],[139.1154363,36.0381827],[139.1155024,36.0381798],[139.1155428,36.0381794],[139.1156025,36.0381789],[139.115623,36.0381791],[139.1159393,36.0381742],[139.1159859,36.0381737],[139.1159876,36.0381736],[139.1160044,36.0381741],[139.1160212,36.0381754],[139.1160378,36.0381774],[139.1160544,36.0381803],[139.1160606,36.0381815],[139.1160767,36.0381853],[139.1160927,36.0381897],[139.1161083,36.038195],[139.1161234,36.0382007],[139.1161382,36.0382073],[139.1161526,36.0382144],[139.1161664,36.0382222],[139.11617,36.0382244],[139.1164227,36.0383681],[139.1166224,36.0384807],[139.1169058,36.0386491],[139.1170001,36.0387057],[139.1170204,36.0387172],[139.1170399,36.0387297],[139.1170587,36.0387429],[139.1170764,36.038757],[139.1170853,36.0387647],[139.1171015,36.03878],[139.1171168,36.0387958],[139.1171308,36.0388125],[139.1171439,36.0388297],[139.1171557,36.0388474],[139.1171656,36.0388644],[139.1172058,36.0389247],[139.117237,36.0389665],[139.117248,36.0389799],[139.1172865,36.0390191],[139.1173266,36.0390572],[139.1173683,36.0390941],[139.1174115,36.03913],[139.1174562,36.0391646],[139.1175022,36.039198],[139.1184977,36.0398641],[139.1185128,36.0398728],[139.1185289,36.0398803],[139.1185459,36.0398863],[139.1185636,36.0398909],[139.1185818,36.0398939],[139.1186002,36.0398954],[139.1186188,36.0398954],[139.1186372,36.0398938],[139.1186554,36.0398906],[139.1186672,36.0398887],[139.1186787,36.0398863],[139.1186902,36.0398834],[139.118697,36.0398813],[139.1189461,36.0398262],[139.1190959,36.0397908],[139.1192575,36.039759],[139.1192719,36.0397566],[139.1192865,36.0397548],[139.1193013,36.0397536],[139.1193159,36.0397531],[139.1193251,36.0397531],[139.1193399,36.0397537],[139.1193545,36.0397548],[139.1193692,36.0397567],[139.1193836,36.0397592],[139.119395,36.0397616],[139.1194076,36.0397662],[139.1194198,36.0397713],[139.1194317,36.039777],[139.1194432,36.0397831],[139.1194543,36.0397898],[139.1194557,36.0397908],[139.1194663,36.0397979],[139.1194764,36.0398057],[139.1194858,36.0398137],[139.1194949,36.0398223],[139.1195032,36.0398311],[139.1195109,36.0398404],[139.1195173,36.0398488],[139.1196087,36.0399712],[139.1197566,36.0401751],[139.1198046,36.0402464],[139.1198204,36.0402677],[139.1198433,36.0403004],[139.1199114,36.0404048],[139.1199276,36.0404316],[139.119942,36.0404591],[139.1199545,36.0404872],[139.1199641,36.0405126],[139.119973,36.0405416],[139.1199799,36.0405709],[139.1199849,36.0406006],[139.1199873,36.0406235],[139.1199807,36.0406986],[139.1199762,36.040748],[139.1199762,36.040763],[139.1199772,36.0407782],[139.1199793,36.0407932],[139.1199822,36.0408081],[139.1199824,36.0408088],[139.1199865,36.0408236],[139.1199916,36.0408381],[139.1199976,36.0408525],[139.1200046,36.0408665],[139.1200125,36.0408801],[139.1200213,36.0408935],[139.1200255,36.040899],[139.1200464,36.0409189],[139.1200499,36.0409216],[139.1200601,36.0409285],[139.1200706,36.0409351],[139.1200817,36.0409411],[139.1200932,36.0409466],[139.1200962,36.040948],[139.120108,36.0409528],[139.1201118,36.0409542],[139.1201171,36.0409573],[139.1203717,36.0410629],[139.1204158,36.0410781],[139.1204219,36.0410799],[139.1203857,36.0411383],[139.1203778,36.041135],[139.1203637,36.0411302],[139.1200714,36.0410034],[139.1200625,36.0409998],[139.1200573,36.0409975],[139.1200432,36.0409906],[139.1200288,36.0409828],[139.120015,36.0409744],[139.1200019,36.0409653],[139.1199941,36.0409594],[139.1199669,36.0409335],[139.1199588,36.0409226],[139.1199481,36.0409065],[139.1199384,36.04089],[139.11993,36.040873],[139.1199227,36.0408556],[139.1199166,36.040838],[139.1199119,36.0408209],[139.1199112,36.0408185],[139.1199077,36.0408012],[139.1199053,36.040783],[139.1199041,36.0407647],[139.1199041,36.0407457],[139.1199087,36.0406943],[139.1199088,36.0406937],[139.1199193,36.0406386],[139.1199205,36.0406239],[139.1199187,36.0406065],[139.1199143,36.0405797],[139.119908,36.0405532],[139.1198999,36.0405271],[139.1198914,36.0405043],[139.11988,36.0404789],[139.119867,36.0404541],[139.119852,36.0404293],[139.1197925,36.0403381],[139.1197648,36.0402998],[139.1196986,36.0402018],[139.1195515,36.039999],[139.1194913,36.0399183],[139.1194859,36.0399118],[139.1194589,36.0398838],[139.1194345,36.0398647],[139.1194302,36.0398619],[139.1194206,36.0398563],[139.1194107,36.0398511],[139.1194004,36.0398465],[139.1193898,36.0398423],[139.119379,36.0398385],[139.1193679,36.0398352],[139.1193566,36.0398324],[139.1193539,36.0398319],[139.1193424,36.0398296],[139.1193309,36.039828],[139.1193191,36.0398269],[139.1193074,36.0398263],[139.1192956,36.0398262],[139.1192839,36.0398267],[139.1192081,36.0398338],[139.1191416,36.0398421],[139.1191144,36.0398474],[139.1189655,36.0398826],[139.1187189,36.0399372],[139.1187135,36.0399387],[139.1186987,36.0399426],[139.1186834,36.0399459],[139.1186677,36.0399484],[139.1186392,36.0399516],[139.1186105,36.0399523],[139.1185818,36.0399504],[139.1185536,36.039946],[139.1185261,36.0399391],[139.1184997,36.0399298],[139.1184747,36.0399183],[139.1184514,36.0399046],[139.1184301,36.0398889],[139.1174599,36.0392397],[139.1174094,36.0392061],[139.1173609,36.0391706],[139.1173144,36.0391335],[139.11727,36.0390946],[139.1172278,36.0390542],[139.1171879,36.0390122],[139.1171761,36.038998],[139.1171432,36.0389538],[139.1171013,36.0388909],[139.1170913,36.0388739],[139.1170814,36.0388589],[139.1170704,36.0388445],[139.1170585,36.0388305],[139.1170458,36.0388171],[139.1170317,36.038804],[139.117025,36.0387981],[139.1170097,36.038786],[139.1169939,36.0387748],[139.1169775,36.0387644],[139.1169579,36.0387532],[139.1168631,36.0386964],[139.1165804,36.0385284],[139.1163815,36.0384161],[139.1161278,36.0382718],[139.1161243,36.0382697],[139.1161131,36.0382634],[139.1161021,36.0382579],[139.1160908,36.038253],[139.1160792,36.0382485],[139.1160672,36.0382445],[139.116055,36.0382411],[139.1160421,36.0382381],[139.1160384,36.0382373],[139.1160252,36.0382351],[139.1160125,36.0382336],[139.1159996,36.0382326],[139.115989,36.0382323],[139.1159333,36.0382329],[139.1156244,36.0382376],[139.1156034,36.0382374],[139.1155437,36.038238],[139.1155049,36.0382383],[139.115442,36.0382412],[139.1153982,36.0382449],[139.1153358,36.0382524],[139.1153293,36.0382531],[139.1153092,36.0382559],[139.1152894,36.0382595],[139.1152697,36.038264],[139.1152504,36.0382694],[139.1152315,36.0382757],[139.1152235,36.0382786],[139.1152054,36.038286],[139.1151876,36.0382942],[139.1151705,36.0383032],[139.1151541,36.0383129],[139.1150671,36.0383625],[139.1149831,36.038416],[139.1149016,36.0384667],[139.1148243,36.0385148],[139.1148182,36.0385185],[139.1147916,36.038533],[139.1147643,36.0385464],[139.114736,36.0385585],[139.1147297,36.0385611],[139.1147004,36.0385716],[139.1146706,36.0385809],[139.1146402,36.0385889],[139.1146093,36.0385954],[139.1146076,36.0385957],[139.1145654,36.0386021],[139.1145229,36.0386067],[139.11448,36.0386094],[139.1144674,36.0386097],[139.1144244,36.0386099],[139.1143991,36.038609],[139.1143801,36.0386065],[139.1143763,36.0386057],[139.1143568,36.0385997],[139.1143554,36.0385991],[139.114339,36.0385924],[139.1143232,36.0385849],[139.1143079,36.0385768],[139.1142932,36.0385679],[139.1142792,36.0385584],[139.1142717,36.0385529],[139.1142585,36.0385426],[139.1142462,36.0385316],[139.1142347,36.0385201],[139.1142239,36.038508],[139.1142139,36.0384956],[139.1142094,36.0384892],[139.1141679,36.0384292],[139.1141664,36.0384276],[139.1141106,36.0383385],[139.1139436,36.0380774],[139.1138,36.0378525],[139.1137884,36.0378283],[139.113783,36.0378027],[139.113784,36.0377768],[139.1137913,36.0377516],[139.1138047,36.0377281],[139.1138237,36.0377072],[139.1138474,36.0376898],[139.1138748,36.0376766],[139.113905,36.0376681],[139.1139693,36.037655],[139.1140119,36.0376472],[139.1140678,36.0376333],[139.1141069,36.0376213],[139.1141994,36.0375942],[139.1142482,36.0375763],[139.1143495,36.0375303],[139.1144139,36.0374985],[139.114421,36.0374945],[139.114434,36.0374867],[139.1144465,36.0374783],[139.1144584,36.0374694],[139.1144697,36.03746],[139.1144804,36.03745],[139.1144904,36.0374396],[139.1144988,36.0374298],[139.1145073,36.0374186],[139.1145151,36.0374071],[139.1145222,36.0373952],[139.1145284,36.0373831],[139.1145335,36.0373735],[139.1145384,36.0373629],[139.1145425,36.0373522],[139.1145458,36.0373414],[139.1145484,36.0373304],[139.1145503,36.0373193],[139.1145514,36.0373081],[139.1145515,36.0373079],[139.1145518,36.0372966],[139.1145515,36.0372854],[139.1145503,36.0372742],[139.1145484,36.0372631],[139.1145458,36.0372522],[139.1145299,36.0371981],[139.1145138,36.0371339],[139.1145113,36.0371261],[139.114502,36.0370922],[139.1144951,36.0370579],[139.1144904,36.0370234],[139.1144894,36.0370117],[139.1144878,36.0369771],[139.1144886,36.0369424],[139.1144911,36.0369025],[139.1144964,36.0368456],[139.114499,36.0368305],[139.1145015,36.0368221],[139.1145086,36.0368047],[139.1145112,36.0367999],[139.1145166,36.0367911],[139.1145197,36.0367868],[139.1145322,36.0367727],[139.1145456,36.0367616],[139.1145538,36.0367566],[139.1145589,36.0367532],[139.1145674,36.0367482],[139.1145764,36.0367436],[139.1145855,36.0367394],[139.1145951,36.0367356],[139.1146048,36.0367322],[139.1146148,36.0367292],[139.1146249,36.0367267],[139.1146353,36.0367247],[139.1146457,36.036723],[139.1146562,36.0367219],[139.114666,36.0367214],[139.114672,36.0367211],[139.1146819,36.0367212],[139.1146926,36.0367216],[139.1147031,36.0367226],[139.1147135,36.036724],[139.1147239,36.0367258],[139.1147341,36.0367282],[139.1147442,36.036731],[139.1147518,36.0367335],[139.1147617,36.0367385],[139.1147773,36.0367497],[139.1150095,36.0369447],[139.1150192,36.0369518],[139.1150264,36.0369565],[139.1150324,36.0369599],[139.1150418,36.0369644],[139.115047,36.0369673],[139.1150523,36.03697],[139.1150546,36.036971],[139.1150676,36.036975],[139.1150775,36.0369774],[139.1150946,36.0369805],[139.1151507,36.0369841],[139.1151556,36.036984],[139.1151644,36.0369835],[139.1151731,36.0369827],[139.1151818,36.0369814],[139.1151895,36.03698],[139.115198,36.036978],[139.1152063,36.0369756],[139.1152144,36.0369729],[139.1152175,36.0369717],[139.115222,36.0369689],[139.1152268,36.0369656],[139.1152312,36.036962],[139.1152355,36.0369583],[139.1152394,36.0369544],[139.1152431,36.0369503],[139.1152467,36.036946],[139.1152499,36.0369415],[139.1152527,36.036937],[139.1152553,36.0369324],[139.1152574,36.0369276],[139.1152582,36.0369255],[139.115259,36.0369218],[139.1152593,36.0369181],[139.1152585,36.0369134],[139.1152575,36.0369085],[139.1152551,36.0369002],[139.1152521,36.036892],[139.1152483,36.0368832],[139.1152438,36.0368747],[139.1152391,36.036867],[139.1152356,36.0368619],[139.1151863,36.0367944],[139.1151758,36.0367824],[139.1151406,36.0367513],[139.1151022,36.0367134],[139.1150725,36.0366809],[139.1150389,36.0366401],[139.1150082,36.0365981],[139.1149933,36.0365756],[139.1148509,36.036345],[139.1146938,36.0360933],[139.1145877,36.0359026],[139.1145239,36.0357849],[139.1145119,36.0357599],[139.1144996,36.0357302],[139.1144981,36.0357263],[139.1144977,36.0357252],[139.1144934,36.0357061],[139.1144931,36.0356899],[139.114496,36.0356651],[139.1145028,36.0356383],[139.1145091,36.0356211],[139.114519,36.0356002],[139.1145203,36.035598],[139.1145261,36.0355897],[139.1145324,36.0355817],[139.1145392,36.035574],[139.1145428,36.035571],[139.1145541,36.0355622],[139.1145659,36.035554],[139.1145783,36.0355463],[139.1145891,36.0355403],[139.1146024,36.0355336],[139.1146161,36.0355276],[139.1146302,36.0355221],[139.1146331,36.0355213],[139.1146446,36.0355179],[139.1146563,36.0355151],[139.1146681,36.0355128],[139.1146802,36.035511],[139.1146846,36.0355105],[139.1146967,36.0355095],[139.1147089,36.035509],[139.1147211,36.035509],[139.1147333,36.0355096],[139.1147454,36.0355108],[139.1147525,36.0355125],[139.1147662,36.0355165],[139.1147796,36.0355211],[139.1147928,36.0355262],[139.1148055,36.0355319],[139.1148308,36.0355483],[139.1148532,36.0355673],[139.1148721,36.0355887],[139.1148872,36.035612],[139.1148982,36.0356367],[139.1149049,36.0356625],[139.1149168,36.0358563],[139.1149242,36.0359038],[139.1149307,36.0359315],[139.114937,36.0359526],[139.1149438,36.0359709],[139.1149516,36.0359891],[139.1149608,36.0360074],[139.1149719,36.0360264],[139.1149849,36.0360462],[139.1149995,36.0360665],[139.1150157,36.0360875],[139.1150343,36.03611],[139.1150564,36.0361353],[139.1150839,36.0361654],[139.1151183,36.036202],[139.1151573,36.0362435],[139.1151968,36.0362866],[139.1152387,36.036335],[139.1154119,36.0365464],[139.1154501,36.0366024],[139.115456,36.0366103],[139.1154624,36.036618],[139.1154693,36.0366253],[139.1154726,36.0366286],[139.1154802,36.0366355],[139.1154883,36.036642],[139.1154982,36.0366475],[139.1155036,36.0366502],[139.1155088,36.0366517],[139.115518,36.0366538],[139.1155273,36.0366556],[139.1155367,36.0366569],[139.1155462,36.0366578],[139.1155557,36.0366583],[139.1155654,36.0366583],[139.1155749,36.0366579],[139.1155843,36.0366572],[139.1155938,36.036656],[139.1156031,36.0366543],[139.1156124,36.0366523],[139.1156154,36.0366514],[139.1156209,36.0366496],[139.1156263,36.0366474],[139.1156314,36.0366451],[139.1156365,36.0366425],[139.1156413,36.0366398],[139.115646,36.0366367],[139.1156505,36.0366335],[139.1156547,36.0366301],[139.1156573,36.0366278],[139.1156612,36.0366241],[139.1156648,36.0366203],[139.1156682,36.0366163],[139.1156712,36.0366121],[139.1156739,36.0366079],[139.1156764,36.0366035],[139.1156786,36.036599],[139.1156805,36.0365944],[139.1156809,36.0365919],[139.1156834,36.0365754],[139.1156848,36.0365589],[139.1156849,36.0365423],[139.1156841,36.0365258],[139.115683,36.0365155],[139.1156802,36.036499],[139.1156765,36.0364827],[139.1156715,36.0364666],[139.1156679,36.0364571],[139.1156615,36.0364441],[139.1156592,36.0364403],[139.1156516,36.0364265],[139.1156439,36.0364138],[139.1156302,36.0363935],[139.1156137,36.0363717],[139.1156024,36.0363554],[139.1155859,36.0363339],[139.1155679,36.036313],[139.1155605,36.036305],[139.1155406,36.0362852],[139.1155193,36.0362664],[139.1154329,36.0361985],[139.1152852,36.0360827],[139.11525,36.0360561],[139.1152247,36.0360355],[139.1152102,36.0360214],[139.1152025,36.036013],[139.1151884,36.035995],[139.1151739,36.0359731],[139.1151667,36.035961],[139.1151557,36.0359398],[139.1151464,36.0359181],[139.1151385,36.0358962],[139.1151334,36.0358795],[139.1151281,36.035857],[139.1151243,36.0358342],[139.115122,36.0358112],[139.1151212,36.0357883],[139.1151219,36.0357667],[139.115122,36.0357525],[139.1151189,36.0357081],[139.1151136,36.0356642],[139.1151131,36.0356586],[139.115109,36.0356296],[139.1151081,36.0356253],[139.1151048,36.0356102],[139.1150821,36.0355402],[139.1150814,36.0355382],[139.115072,36.0355151],[139.1150613,36.0354925],[139.1150489,36.0354704],[139.1150342,36.0354452],[139.1150051,36.0354001],[139.1150008,36.035394],[139.1149682,36.0353505],[139.1149593,36.035343],[139.1149447,36.0353317],[139.1149293,36.0353211],[139.1149133,36.0353111],[139.1148965,36.0353019],[139.1148793,36.0352935],[139.1148615,36.0352859],[139.1148533,36.0352827],[139.1148348,36.0352761],[139.1148158,36.0352705],[139.1147966,36.0352657],[139.114777,36.0352617],[139.1147572,36.0352587],[139.1147242,36.0352526],[139.1146215,36.0352367],[139.1145999,36.035234],[139.114496,36.0352237],[139.1144885,36.0352231],[139.1144794,36.0352226],[139.1144703,36.0352227],[139.1144612,36.0352231],[139.1144522,36.0352238],[139.1144432,36.035225],[139.1144343,36.0352267],[139.1144255,36.0352286],[139.1144169,36.035231],[139.1144085,36.0352337],[139.1144002,36.0352369],[139.1143923,36.0352403],[139.1143845,36.0352441],[139.114377,36.0352483],[139.1143698,36.0352529],[139.1143629,36.0352576],[139.1143563,36.0352628],[139.1143501,36.0352682],[139.1143443,36.0352738],[139.1143388,36.0352797],[139.1143349,36.035285],[139.1143192,36.0353074],[139.1143052,36.0353304],[139.1143016,36.0353369],[139.1142895,36.0353607],[139.114279,36.0353849],[139.1142445,36.0354591],[139.1142167,36.0355151],[139.1142088,36.0355275],[139.1142,36.0355398],[139.1141902,36.0355517],[139.1141798,36.0355632],[139.1141686,36.0355741],[139.1141566,36.0355846],[139.114144,36.0355944],[139.1141395,36.0355977],[139.114126,36.0356068],[139.1141119,36.0356153],[139.1140973,36.0356232],[139.1140822,36.0356303],[139.1140666,36.0356369],[139.1140507,36.0356427],[139.1140464,36.035644],[139.113992,36.0356639],[139.1138783,36.0357113],[139.1138724,36.035713],[139.1138148,36.0357343],[139.1134669,36.0358705],[139.1131816,36.035981],[139.1129829,36.036055],[139.1129449,36.0360702],[139.1128257,36.0361193],[139.1125818,36.0362199],[139.1125182,36.0362462],[139.1123742,36.0363028],[139.1123633,36.0363075],[139.1123486,36.0363146],[139.1123344,36.0363223],[139.1123208,36.0363306],[139.1123078,36.0363395],[139.1122953,36.0363489],[139.1122835,36.036359],[139.1122768,36.0363652],[139.112266,36.0363761],[139.1122562,36.0363873],[139.1122471,36.0363989],[139.1122386,36.0364111],[139.1122312,36.0364235],[139.1122244,36.0364362],[139.112205,36.0364737],[139.1121656,36.0365456],[139.1121035,36.036654],[139.1120742,36.0366994],[139.1119777,36.036849],[139.1118979,36.0369752],[139.1118273,36.0370927],[139.1117891,36.0371478],[139.1117272,36.0372361],[139.1117145,36.0372539],[139.1116853,36.0372882],[139.111651,36.0373227],[139.1116227,36.0373451],[139.1116138,36.0373503],[139.1115963,36.0373595],[139.1115781,36.0373679],[139.1115595,36.0373754],[139.1115436,36.0373811],[139.1115241,36.0373871],[139.1115042,36.0373922],[139.1114841,36.0373965],[139.1114636,36.0373998],[139.1114429,36.0374022],[139.1114222,36.0374038],[139.1114013,36.0374044],[139.1113806,36.037404],[139.1113597,36.0374028],[139.1113452,36.0374013],[139.1113286,36.0373988],[139.1113122,36.0373956],[139.111296,36.0373916],[139.1112801,36.0373868],[139.1112646,36.0373815],[139.1112493,36.0373754],[139.1112346,36.0373686],[139.1112204,36.0373612],[139.1112067,36.0373532],[139.1111941,36.037345],[139.1111814,36.0373359],[139.1111694,36.0373262],[139.1111582,36.0373159],[139.1111502,36.037308],[139.1111343,36.0372918],[139.1111176,36.0372703],[139.1110931,36.037227],[139.1110797,36.0371986],[139.1110623,36.0371531],[139.1110344,36.037056],[139.1110142,36.0369624],[139.1110092,36.0369338],[139.111003,36.0368982],[139.1109912,36.0368554],[139.1109865,36.0368417],[139.1109693,36.0368001],[139.1109481,36.0367598],[139.1109414,36.0367503],[139.1109301,36.0367368],[139.1108831,36.0366867],[139.1108046,36.0366179],[139.1107851,36.0366032],[139.1107778,36.0365987],[139.110758,36.0365875],[139.1107376,36.0365772],[139.1107165,36.0365678],[139.1107161,36.0365676],[139.1106943,36.0365593],[139.110672,36.0365519],[139.1106493,36.0365454],[139.1106468,36.0365448],[139.1106105,36.0365362],[139.1105736,36.0365291],[139.1105682,36.0365283],[139.1105308,36.0365231],[139.1104932,36.0365196],[139.1104767,36.0365197],[139.1104414,36.0365208],[139.1104062,36.0365236],[139.1103912,36.0365253],[139.1103564,36.0365302],[139.110322,36.0365368],[139.1102576,36.0365497],[139.1101258,36.0365716],[139.1100621,36.0364988]]]},"properties":{"layer":"road","class_code":"1040","class_label":"道路"}},{"type":"Feature","id":"tran_22fac288-08e3-4e1a-b479-b3dd890d080e","geometry":{"type":"Polygon","coordinates":[[[139.1206775,36.036348],[139.1206875,36.0363784],[139.1206112,36.0363949],[139.1206012,36.0363645],[139.1206775,36.036348]]]},"properties":{"layer":"road","class_code":"1040","class_label":"道路"}},{"type":"Feature","id":"tran_b622c8b9-e174-4922-a52e-95be44777fb0","geometry":{"type":"Polygon","coordinates":[[[139.1207533,36.0363737],[139.1207696,36.0364155],[139.12078,36.0364435],[139.1208439,36.0366332],[139.1208491,36.0366507],[139.1208629,36.0366902],[139.1209125,36.0368105],[139.1209361,36.0368644],[139.1209949,36.0369761],[139.1210405,36.0370704],[139.121005,36.0370818],[139.121001,36.0370751],[139.1209589,36.036988],[139.1208999,36.0368759],[139.1208758,36.0368208],[139.1208258,36.0366995],[139.1208115,36.0366588],[139.1208063,36.036641],[139.1207426,36.0364522],[139.1207325,36.0364248],[139.1207172,36.0363858],[139.1207164,36.0363832],[139.1207533,36.0363737]]]},"properties":{"layer":"road","class_code":"1040","class_label":"道路"}}]}