{"type":"FeatureCollection","properties":{"mesh_code":"54390111","source":"PLATEAU秩父市2025","layer":"road"},"features":[{"type":"Feature","id":"tran_1b421278-ae0a-4ea2-96f0-4cfddea6a679","geometry":{"type":"Polygon","coordinates":[[[139.1402639,36.0100913],[139.1402861,36.0100914],[139.1402832,36.0103291],[139.1402783,36.0103515],[139.1402707,36.0103713],[139.1402576,36.0103916],[139.1402341,36.0104164],[139.1402138,36.0104301],[139.1401782,36.0104459],[139.1401549,36.010453],[139.1400893,36.0104661],[139.1400664,36.0104675],[139.1399591,36.0104631],[139.1399367,36.0104605],[139.1398705,36.0104494],[139.1398463,36.010444],[139.1397544,36.0104174],[139.1397376,36.0104141],[139.1396402,36.0104026],[139.1395063,36.0103921],[139.13949,36.0103924],[139.139476,36.0103947],[139.1394592,36.0103994],[139.1394347,36.0104112],[139.1394218,36.0104199],[139.1392836,36.0105519],[139.1391757,36.0106701],[139.1391035,36.0107224],[139.1390037,36.0107768],[139.1387104,36.0109167],[139.138388,36.0110971],[139.1382055,36.0112219],[139.1381498,36.0112582],[139.1381336,36.0112674],[139.1381034,36.0112815],[139.1380872,36.0112876],[139.1379001,36.0113405],[139.1378134,36.011358],[139.1377929,36.0113642],[139.1377738,36.0113735],[139.1377564,36.0113863],[139.1377344,36.0114117],[139.1377255,36.0114257],[139.1376898,36.0114915],[139.1376288,36.011608],[139.1376224,36.0116179],[139.1375745,36.0116793],[139.1375643,36.01169],[139.1374293,36.0117998],[139.1373005,36.011893],[139.1372919,36.0119005],[139.1372595,36.011934],[139.1372512,36.0119451],[139.1372399,36.0119669],[139.1372348,36.0119828],[139.1372243,36.0120332],[139.13719,36.0121617],[139.1371569,36.0122362],[139.137116,36.0122976],[139.1371052,36.0123107],[139.1370173,36.0123889],[139.1367738,36.0125952],[139.1367569,36.0126117],[139.13668,36.0127002],[139.136673,36.0127119],[139.1366657,36.0127368],[139.1366639,36.012754],[139.1366651,36.0127752],[139.136667,36.0127902],[139.1366739,36.01282],[139.1366769,36.0128293],[139.1366883,36.0128544],[139.136691,36.0128582],[139.1366678,36.0128619],[139.1366669,36.0128591],[139.1366558,36.0128347],[139.1366522,36.012824],[139.1366452,36.0127929],[139.1366429,36.0127766],[139.1366416,36.0127536],[139.1366438,36.0127339],[139.136652,36.0127057],[139.1366609,36.012691],[139.1367393,36.0126008],[139.1367572,36.0125832],[139.1370011,36.0123765],[139.1370878,36.0122995],[139.1370969,36.0122883],[139.1371367,36.0122288],[139.1371686,36.0121567],[139.1372026,36.0120297],[139.1372131,36.011979],[139.1372189,36.011961],[139.1372314,36.0119369],[139.1372412,36.0119237],[139.137275,36.0118887],[139.137285,36.0118801],[139.1374141,36.0117866],[139.1375477,36.0116781],[139.1375563,36.011669],[139.1376032,36.0116089],[139.1376088,36.0116002],[139.1376695,36.0114843],[139.1377055,36.011418],[139.1377154,36.0114023],[139.1377398,36.0113744],[139.1377605,36.011359],[139.1377833,36.0113478],[139.1378068,36.0113408],[139.1378938,36.0113231],[139.1380788,36.0112709],[139.1380932,36.0112655],[139.1381216,36.0112522],[139.1381365,36.0112437],[139.1381914,36.0112081],[139.1383746,36.0110828],[139.1386984,36.0109014],[139.138992,36.0107615],[139.1390898,36.0107081],[139.1391593,36.0106578],[139.1392661,36.0105407],[139.1394062,36.0104069],[139.1394218,36.0103964],[139.1394498,36.010383],[139.1394702,36.0103772],[139.1394876,36.0103745],[139.1395071,36.010374],[139.1396429,36.0103847],[139.1397417,36.0103964],[139.1397608,36.0104001],[139.139853,36.0104267],[139.1398758,36.0104319],[139.1399406,36.0104428],[139.1399613,36.0104451],[139.1400662,36.0104494],[139.1400858,36.0104482],[139.1401484,36.0104357],[139.1401689,36.0104295],[139.1402013,36.0104151],[139.140218,36.0104038],[139.1402388,36.0103819],[139.14025,36.0103644],[139.1402567,36.0103472],[139.1402611,36.0103274],[139.1402639,36.0100913]]]},"properties":{"layer":"road","class_code":"1040","class_label":"道路"}}]}