{"type":"FeatureCollection","properties":{"mesh_code":"54390120","source":"PLATEAU秩父市2025","layer":"road"},"features":[{"type":"Feature","id":"tran_d6803bce-3d61-4b1f-95e0-f2d528bff7a0","geometry":{"type":"Polygon","coordinates":[[[139.1253901,36.0247158],[139.1253939,36.024695],[139.125429,36.0247166],[139.1254237,36.0247436],[139.1253901,36.0247158]]]},"properties":{"layer":"road","class_code":"1040","class_label":"道路"}},{"type":"Feature","id":"tran_f6acd05a-3888-479e-86c1-903952919a66","geometry":{"type":"Polygon","coordinates":[[[139.1261271,36.0252557],[139.1261712,36.0250732],[139.1262084,36.0249208],[139.1262572,36.0247158],[139.1262906,36.0245739],[139.1263013,36.0245758],[139.1262681,36.0247175],[139.1262193,36.0249226],[139.126182,36.0250748],[139.1261379,36.0252575],[139.1261271,36.0252557]]]},"properties":{"layer":"road","class_code":"1040","class_label":"道路"}},{"type":"Feature","id":"tran_ba6f3efb-94dc-434b-9d04-c09804a8526d","geometry":{"type":"Polygon","coordinates":[[[139.1262906,36.0245739],[139.1262926,36.0244819],[139.126336,36.0244898],[139.1263013,36.0245758],[139.1262906,36.0245739]]]},"properties":{"layer":"road","class_code":"1040","class_label":"道路"}},{"type":"Feature","id":"tran_f00454d3-f4f2-447d-8d34-4c1dd2712e8e","geometry":{"type":"Polygon","coordinates":[[[139.1262926,36.0244819],[139.1263064,36.0244329],[139.1263464,36.0242904],[139.1263757,36.0242567],[139.1264213,36.0242194],[139.1264478,36.024201],[139.1264639,36.0241851],[139.1264938,36.0241472],[139.1265481,36.0240797],[139.1265734,36.0240497],[139.1265982,36.0240279],[139.1266104,36.0240371],[139.1265864,36.0240581],[139.126562,36.0240873],[139.1265077,36.0241545],[139.1264774,36.0241931],[139.1264598,36.0242102],[139.1264331,36.024229],[139.1263885,36.0242654],[139.1263633,36.0243113],[139.1263341,36.024415],[139.1263489,36.0244437],[139.1263476,36.0244481],[139.126336,36.0244898],[139.1262926,36.0244819]]]},"properties":{"layer":"road","class_code":"1040","class_label":"道路"}},{"type":"Feature","id":"tran_502111d7-4ef4-4e6f-87af-870e73bc06f3","geometry":{"type":"Polygon","coordinates":[[[139.1263013,36.0245758],[139.126336,36.0244898],[139.1265344,36.0245257],[139.1269219,36.0245955],[139.1270928,36.0246266],[139.1270685,36.0247146],[139.1268977,36.0246835],[139.1265103,36.0246136],[139.1263013,36.0245758]]]},"properties":{"layer":"road","class_code":"1040","class_label":"道路"}},{"type":"Feature","id":"tran_20bd02a2-7d1b-4c4a-9222-12efe365a9ae","geometry":{"type":"Polygon","coordinates":[[[139.1254531,36.0243297],[139.1254302,36.0244179],[139.1249697,36.0243341],[139.124853,36.0243123],[139.1248779,36.0242245],[139.1249943,36.0242462],[139.1254531,36.0243297]]]},"properties":{"layer":"road","class_code":"1040","class_label":"道路"}},{"type":"Feature","id":"tran_e0c5aa95-9da7-422d-bbe7-fee761576041","geometry":{"type":"Polygon","coordinates":[[[139.1254531,36.0243297],[139.1254856,36.0243356],[139.1254638,36.024424],[139.1254302,36.0244179],[139.1254531,36.0243297]]]},"properties":{"layer":"road","class_code":"1040","class_label":"道路"}},{"type":"Feature","id":"tran_779454c7-b1fe-419c-a797-744b58cccdc1","geometry":{"type":"Polygon","coordinates":[[[139.1265964,36.02398],[139.1266168,36.024011],[139.1265923,36.0240215],[139.1265719,36.0239905],[139.1265964,36.02398]]]},"properties":{"layer":"road","class_code":"1040","class_label":"道路"}},{"type":"Feature","id":"tran_7a91be72-6784-4388-93b3-9b9698c4b926","geometry":{"type":"Polygon","coordinates":[[[139.1265923,36.0240215],[139.1266168,36.024011],[139.1266253,36.0240049],[139.1266348,36.0240105],[139.1266118,36.0240359],[139.1266104,36.0240371],[139.1265982,36.0240279],[139.1265952,36.0240261],[139.1265923,36.0240215]]]},"properties":{"layer":"road","class_code":"1040","class_label":"道路"}},{"type":"Feature","id":"tran_b80ba52a-392f-4d01-939e-50bc3765a534","geometry":{"type":"Polygon","coordinates":[[[139.1266348,36.0240105],[139.1266488,36.0240189],[139.1267736,36.0240801],[139.1267833,36.0240826],[139.1267963,36.0240836],[139.1268169,36.0240813],[139.1268521,36.024067],[139.1269435,36.0240138],[139.1269734,36.023994],[139.126998,36.0240185],[139.1269672,36.0240389],[139.1268722,36.0240941],[139.1268285,36.0241119],[139.1267969,36.0241152],[139.1267757,36.0241137],[139.1267575,36.0241092],[139.1266271,36.0240451],[139.1266118,36.0240359],[139.1266348,36.0240105]]]},"properties":{"layer":"road","class_code":"1040","class_label":"道路"}},{"type":"Feature","id":"tran_b87c929c-1a6d-4da3-a897-63e59dc73df6","geometry":{"type":"Polygon","coordinates":[[[139.1269734,36.023994],[139.1270016,36.0239754],[139.1270106,36.0239811],[139.1270235,36.0239726],[139.127041,36.0239901],[139.12705,36.0240063],[139.1270318,36.0240233],[139.126998,36.0240185],[139.1269734,36.023994]]]},"properties":{"layer":"road","class_code":"1040","class_label":"道路"}},{"type":"Feature","id":"tran_cf8216ec-7421-401b-96be-dc833b233c1a","geometry":{"type":"Polygon","coordinates":[[[139.1271401,36.0238955],[139.1271576,36.023913],[139.127041,36.0239901],[139.1270235,36.0239726],[139.1271401,36.0238955]]]},"properties":{"layer":"road","class_code":"1040","class_label":"道路"}},{"type":"Feature","id":"tran_97b8bcd2-e452-452f-a2e0-c98bcbd018b7","geometry":{"type":"Polygon","coordinates":[[[139.1270318,36.0240233],[139.12705,36.0240063],[139.1271248,36.0240542],[139.1271535,36.0240749],[139.127185,36.0240881],[139.1272225,36.0241001],[139.1272704,36.0241094],[139.1273779,36.0241253],[139.1273729,36.0241475],[139.1272647,36.0241314],[139.1272142,36.0241217],[139.1271735,36.0241085],[139.1271376,36.0240936],[139.127107,36.0240715],[139.1270318,36.0240233]]]},"properties":{"layer":"road","class_code":"1040","class_label":"道路"}},{"type":"Feature","id":"tran_01aad6a8-029b-460e-b840-7050173ed6bc","geometry":{"type":"Polygon","coordinates":[[[139.1270928,36.0246266],[139.1271566,36.0246383],[139.1271324,36.0247262],[139.1270685,36.0247146],[139.1270928,36.0246266]]]},"properties":{"layer":"road","class_code":"1040","class_label":"道路"}},{"type":"Feature","id":"tran_2492cc2c-2bbd-4186-9018-295bd10fe5c2","geometry":{"type":"Polygon","coordinates":[[[139.1271566,36.0246383],[139.1272701,36.0246589],[139.1272459,36.0247469],[139.1271324,36.0247262],[139.1271566,36.0246383]]]},"properties":{"layer":"road","class_code":"1040","class_label":"道路"}},{"type":"Feature","id":"tran_fce3a48b-c355-4f56-a2fc-7ed5d9c2ca26","geometry":{"type":"Polygon","coordinates":[[[139.1272701,36.0246589],[139.1273025,36.0246348],[139.1273287,36.0246424],[139.1273178,36.0246676],[139.1272935,36.0247555],[139.1272459,36.0247469],[139.1272701,36.0246589]]]},"properties":{"layer":"road","class_code":"1040","class_label":"道路"}},{"type":"Feature","id":"tran_232743f3-1929-4c65-9c49-42228e5c4936","geometry":{"type":"Polygon","coordinates":[[[139.1273178,36.0246676],[139.1278095,36.024757],[139.1289672,36.0249556],[139.1289966,36.0249589],[139.1290291,36.0249624],[139.1290617,36.0249657],[139.1290944,36.0249687],[139.129127,36.0249714],[139.1291597,36.0249739],[139.1291924,36.0249761],[139.1292252,36.0249781],[139.129258,36.0249798],[139.1292891,36.0249812],[139.1293495,36.0249819],[139.1294106,36.0249812],[139.1294716,36.024979],[139.1295325,36.0249753],[139.1295819,36.0249712],[139.1295933,36.0250608],[139.1295423,36.0250651],[139.1294781,36.025069],[139.1294139,36.0250713],[139.1293495,36.025072],[139.1292852,36.0250713],[139.1292514,36.0250697],[139.1292175,36.025068],[139.1291837,36.0250659],[139.1291499,36.0250636],[139.1291162,36.0250611],[139.1290825,36.0250583],[139.1290488,36.0250552],[139.1290151,36.0250518],[139.1289815,36.0250482],[139.128948,36.0250444],[139.1277859,36.0248451],[139.1272935,36.0247555],[139.1273178,36.0246676]]]},"properties":{"layer":"road","class_code":"1040","class_label":"道路"}},{"type":"Feature","id":"tran_e3d6355c-283b-4c86-94a0-a94917b84b31","geometry":{"type":"Polygon","coordinates":[[[139.1273025,36.0246348],[139.1273301,36.0245714],[139.1273562,36.0245047],[139.1273895,36.0244369],[139.1274106,36.0243955],[139.1274171,36.0243745],[139.1274213,36.024346],[139.1274258,36.0242525],[139.1274222,36.0242048],[139.1274147,36.0241786],[139.127404,36.0241638],[139.1274467,36.0241617],[139.1274535,36.0242523],[139.1274489,36.0243477],[139.1274444,36.0243786],[139.1274369,36.0244026],[139.1274152,36.0244453],[139.1273823,36.0245123],[139.1273564,36.0245786],[139.1273439,36.0246075],[139.1273287,36.0246424],[139.1273025,36.0246348]]]},"properties":{"layer":"road","class_code":"1040","class_label":"道路"}},{"type":"Feature","id":"tran_862dd3e1-edd4-4b76-8243-65c2a0bc6f9b","geometry":{"type":"Polygon","coordinates":[[[139.1273779,36.0241253],[139.1273814,36.0241258],[139.1274362,36.0241288],[139.1274443,36.0241285],[139.1274449,36.0241374],[139.1274467,36.0241617],[139.127404,36.0241638],[139.1273886,36.0241533],[139.1273729,36.0241475],[139.1273779,36.0241253]]]},"properties":{"layer":"road","class_code":"1040","class_label":"道路"}},{"type":"Feature","id":"tran_0eaff42e-bc07-4f76-b6b6-d285ec773a0d","geometry":{"type":"Polygon","coordinates":[[[139.1274443,36.0241285],[139.1274738,36.0241271],[139.1276737,36.0241102],[139.1277185,36.0241065],[139.1277623,36.0241053],[139.1277627,36.0241143],[139.1277192,36.0241154],[139.1276736,36.0241193],[139.1274747,36.0241361],[139.1274449,36.0241374],[139.1274443,36.0241285]]]},"properties":{"layer":"road","class_code":"1040","class_label":"道路"}},{"type":"Feature","id":"tran_4de970ee-6d47-4dbd-a0e1-5eb15c8aff95","geometry":{"type":"Polygon","coordinates":[[[139.1295819,36.0249712],[139.1295964,36.0249664],[139.1296105,36.0249609],[139.1296241,36.0249546],[139.1296372,36.0249477],[139.1296497,36.0249401],[139.1296616,36.0249318],[139.1296728,36.024923],[139.1296833,36.0249136],[139.129693,36.0249036],[139.1297019,36.0248932],[139.1297642,36.024825],[139.1298567,36.0248807],[139.1298591,36.0248861],[139.1298621,36.0248913],[139.1298658,36.0248963],[139.1298701,36.024901],[139.1298749,36.0249052],[139.1298802,36.0249091],[139.1298859,36.0249126],[139.129892,36.0249156],[139.1298985,36.024918],[139.1299052,36.02492],[139.1299369,36.0250064],[139.1299218,36.02501],[139.1298595,36.025023],[139.1297967,36.0250344],[139.1297335,36.0250444],[139.1296701,36.0250528],[139.1296063,36.0250597],[139.1295933,36.0250608],[139.1295819,36.0249712]]]},"properties":{"layer":"road","class_code":"1040","class_label":"道路"}},{"type":"Feature","id":"tran_001ed3fc-9846-44c5-bf1c-203eb92e4e36","geometry":{"type":"Polygon","coordinates":[[[139.124079,36.0200813],[139.1241088,36.0200687],[139.1241499,36.0200528],[139.1241916,36.020038],[139.124234,36.0200245],[139.1242768,36.0200121],[139.1243196,36.020001],[139.1243387,36.0199963],[139.1243564,36.0199915],[139.1243739,36.0199861],[139.124391,36.0199803],[139.124408,36.019974],[139.1244247,36.0199673],[139.1244411,36.0199601],[139.1244571,36.0199524],[139.1244729,36.0199443],[139.1244857,36.0199372],[139.1246542,36.0198114],[139.1246815,36.0197953],[139.1247089,36.0197813],[139.1247373,36.0197688],[139.1247666,36.0197578],[139.1247967,36.0197484],[139.1248276,36.0197406],[139.124859,36.0197344],[139.1248908,36.0197299],[139.1249229,36.0197271],[139.1249539,36.0197261],[139.1256989,36.0197073],[139.1257824,36.0197037],[139.1258162,36.0197009],[139.1258324,36.019699],[139.1258576,36.0196948],[139.125916,36.0196839],[139.125947,36.0196766],[139.1259886,36.0196636],[139.1260098,36.0196556],[139.1260422,36.0196415],[139.1260759,36.019625],[139.1261454,36.0195883],[139.1261913,36.0195634],[139.1262124,36.01955],[139.1262314,36.0195356],[139.1262399,36.0195278],[139.1262475,36.0195195],[139.1262604,36.0195021],[139.1262701,36.0194838],[139.1262748,36.0194715],[139.1262772,36.0194633],[139.12628,36.0194474],[139.1262801,36.0194321],[139.126279,36.0194241],[139.1262757,36.019411],[139.1262662,36.0193871],[139.1262591,36.0193725],[139.1262365,36.0193294],[139.1261272,36.0191768],[139.1261077,36.0191359],[139.1261037,36.0191052],[139.1261091,36.0190673],[139.1261364,36.0190098],[139.1261841,36.0189337],[139.1262119,36.0188689],[139.1262231,36.0188222],[139.1262269,36.0187705],[139.1262152,36.0186573],[139.1261867,36.0185282],[139.126161,36.0184383],[139.1261601,36.0184354],[139.126156,36.0184248],[139.126149,36.0184101],[139.126133,36.0183889],[139.1261211,36.0183675],[139.1261136,36.0183475],[139.1261156,36.0183242],[139.1261225,36.018305],[139.1261252,36.0182964],[139.1261281,36.0182841],[139.1261289,36.0182712],[139.1261218,36.0181941],[139.1261138,36.0181082],[139.1260955,36.0179168],[139.1261014,36.0178459],[139.1261124,36.0178055],[139.126139,36.0177655],[139.1263124,36.0176468],[139.1263419,36.01763],[139.1263638,36.0176148],[139.1263884,36.0175937],[139.1264076,36.0175747],[139.1264347,36.0175348],[139.1264726,36.0174773],[139.126506,36.0174308],[139.1265418,36.0173981],[139.1266622,36.0173102],[139.1268336,36.0171977],[139.1269544,36.0171269],[139.1270804,36.0170711],[139.1272354,36.0170265],[139.1273136,36.0170156],[139.127413,36.017019],[139.1275032,36.0170252],[139.12753,36.0170261],[139.12754,36.0170257],[139.1275517,36.0170232],[139.1276121,36.0169841],[139.127738,36.0168992],[139.1277634,36.0168821],[139.1278813,36.0167846],[139.1280643,36.0165846],[139.1280967,36.0165363],[139.1281145,36.0165042],[139.1281294,36.0164553],[139.1281437,36.0163797],[139.1281659,36.0162922],[139.1282237,36.0161363],[139.1282516,36.0160471],[139.1282696,36.0159749],[139.1282947,36.015919],[139.12841,36.0157367],[139.1284949,36.0155715],[139.1285272,36.0154957],[139.1285368,36.0154801],[139.1285579,36.0154538],[139.1285711,36.0154426],[139.1285991,36.0154252],[139.1286144,36.0154169],[139.1286807,36.0153877],[139.1287503,36.0153577],[139.1288008,36.0153229],[139.1289216,36.0152268],[139.128977,36.0151973],[139.1290287,36.0151828],[139.1291345,36.0151661],[139.129213,36.0151553],[139.1292852,36.0151396],[139.1293659,36.0151105],[139.1295253,36.0150532],[139.1296748,36.0149931],[139.129748,36.0149621],[139.1298202,36.0149261],[139.1299056,36.0148807],[139.1300115,36.0148236],[139.1300966,36.0147767],[139.1301786,36.0147373],[139.1302932,36.0146884],[139.1303795,36.0146595],[139.1303936,36.0146526],[139.1304054,36.0146917],[139.1303939,36.014694],[139.1303072,36.0147178],[139.1301984,36.0147644],[139.1301175,36.0148034],[139.1300331,36.0148498],[139.1299268,36.014907],[139.129841,36.0149527],[139.1297671,36.0149896],[139.1296924,36.0150212],[139.1295418,36.0150818],[139.1293816,36.0151394],[139.1292981,36.0151695],[139.1292212,36.0151862],[139.1291416,36.0151971],[139.1290387,36.0152133],[139.1289942,36.0152259],[139.128946,36.0152514],[139.128827,36.0153462],[139.1287723,36.015384],[139.1286991,36.0154156],[139.1286347,36.0154438],[139.1286201,36.0154518],[139.1285995,36.0154645],[139.1285851,36.0154777],[139.1285683,36.0154985],[139.1285626,36.015509],[139.1285312,36.0155828],[139.1284452,36.01575],[139.1283303,36.0159316],[139.1283071,36.0159835],[139.1282895,36.0160541],[139.1282612,36.0161447],[139.1282035,36.0162999],[139.1281819,36.0163853],[139.1281684,36.0164568],[139.1281639,36.0165033],[139.1281608,36.0165196],[139.1281401,36.0165567],[139.128024,36.0166739],[139.1279066,36.0168022],[139.1277666,36.0169179],[139.1277376,36.0169404],[139.1276366,36.0170086],[139.1275589,36.017059],[139.1275467,36.0170615],[139.1275302,36.0170622],[139.1275005,36.0170612],[139.1274098,36.0170549],[139.1273165,36.0170518],[139.1272466,36.0170615],[139.1270985,36.0171041],[139.1269781,36.0171575],[139.1268605,36.0172264],[139.126691,36.0173377],[139.1265733,36.0174236],[139.1265421,36.0174521],[139.1265112,36.017495],[139.1264737,36.017552],[139.1264444,36.017595],[139.1264217,36.0176176],[139.1263944,36.0176409],[139.1263692,36.0176584],[139.1263379,36.0176764],[139.1261652,36.0177886],[139.1261439,36.0178147],[139.1261344,36.0178497],[139.1261289,36.0179166],[139.126147,36.0181061],[139.1261552,36.0181943],[139.1261687,36.018341],[139.1261821,36.0183849],[139.1262008,36.0184125],[139.1262121,36.0184278],[139.1262215,36.0184508],[139.1262232,36.0184781],[139.1262222,36.0184982],[139.1262231,36.0185239],[139.1262253,36.0185498],[139.1262483,36.0186538],[139.1262603,36.0187702],[139.1262563,36.0188257],[139.1262442,36.018876],[139.1262148,36.0189443],[139.1261669,36.0190208],[139.1261417,36.0190739],[139.1261372,36.0191053],[139.1261403,36.0191294],[139.1261573,36.019165],[139.12626,36.0193082],[139.1263105,36.0193554],[139.1263184,36.019372],[139.1263294,36.0193994],[139.1263339,36.019417],[139.1263356,36.0194298],[139.1263354,36.0194508],[139.1263318,36.0194716],[139.1263284,36.0194832],[139.1263223,36.0194994],[139.1263099,36.0195227],[139.1262936,36.0195448],[139.1262828,36.0195563],[139.1262713,36.019567],[139.1262484,36.0195844],[139.1262237,36.0195999],[139.126176,36.019626],[139.1261053,36.0196632],[139.1260696,36.0196807],[139.1260346,36.0196959],[139.1260103,36.0197051],[139.1259647,36.0197193],[139.12593,36.0197276],[139.1258693,36.0197389],[139.125842,36.0197434],[139.125823,36.0197457],[139.1257867,36.0197486],[139.1257012,36.0197523],[139.1250728,36.0197682],[139.1249557,36.0197711],[139.124927,36.0197721],[139.1248985,36.0197746],[139.1248702,36.0197786],[139.1248423,36.019784],[139.1248149,36.019791],[139.1247882,36.0197993],[139.1247621,36.0198091],[139.1247369,36.0198202],[139.1247126,36.0198326],[139.1246894,36.0198463],[139.1245203,36.0199726],[139.1245033,36.019982],[139.124486,36.0199909],[139.1244683,36.0199993],[139.1244503,36.0200073],[139.1244319,36.0200147],[139.1244133,36.0200216],[139.1243943,36.020028],[139.1243751,36.0200339],[139.1243557,36.0200393],[139.1243361,36.0200441],[139.1242945,36.0200548],[139.1242534,36.0200667],[139.1242129,36.0200797],[139.1241729,36.0200938],[139.1241336,36.020109],[139.1241047,36.0201213],[139.124079,36.0200813]]]},"properties":{"layer":"road","class_code":"1040","class_label":"道路"}},{"type":"Feature","id":"tran_ac86a78c-8dd0-4199-9469-0c2575cc5df7","geometry":{"type":"Polygon","coordinates":[[[139.1247901,36.0243274],[139.1247919,36.0243085],[139.124853,36.0243123],[139.1248521,36.0243249],[139.1248532,36.0243284],[139.1248545,36.0243318],[139.1248561,36.0243352],[139.1248578,36.0243384],[139.1248598,36.0243416],[139.1248621,36.0243447],[139.1248645,36.0243477],[139.1248671,36.0243506],[139.12487,36.0243533],[139.124873,36.0243559],[139.1249066,36.0243832],[139.1249231,36.0243928],[139.1250375,36.0244628],[139.1251674,36.0245447],[139.1253939,36.024695],[139.1253901,36.0247158],[139.1251537,36.0245589],[139.1250239,36.0244771],[139.1249099,36.0244073],[139.1248496,36.0243722],[139.1248131,36.0243537],[139.1248095,36.0243515],[139.124806,36.0243491],[139.1248029,36.0243465],[139.1248,36.0243437],[139.1247974,36.0243407],[139.1247951,36.0243376],[139.1247931,36.0243343],[139.1247914,36.0243309],[139.1247901,36.0243274]]]},"properties":{"layer":"road","class_code":"1040","class_label":"道路"}},{"type":"Feature","id":"tran_6643ad60-069c-4710-821f-c2632d5531a5","geometry":{"type":"Polygon","coordinates":[[[139.1254856,36.0243356],[139.1257592,36.0243854],[139.1262926,36.0244819],[139.1262906,36.0245739],[139.125735,36.0244734],[139.1254638,36.024424],[139.1254856,36.0243356]]]},"properties":{"layer":"road","class_code":"1040","class_label":"道路"}}]}