{"type":"FeatureCollection","properties":{"mesh_code":"54390101","source":"PLATEAU秩父市2025","layer":"road"},"features":[{"type":"Feature","id":"tran_3a7777e1-6bf3-48c4-8dbd-f493ebe96271","geometry":{"type":"Polygon","coordinates":[[[139.1455917,36.0072999],[139.1455932,36.0072979],[139.1456084,36.0072662],[139.1456526,36.0072698],[139.1456791,36.0072662],[139.1457148,36.0072705],[139.1457026,36.0073369],[139.1456359,36.0073202],[139.1455917,36.0072999]]]},"properties":{"layer":"road","class_code":"1040","class_label":"道路"}},{"type":"Feature","id":"tran_d949cbfa-3897-45ed-bee0-243087508bf7","geometry":{"type":"Polygon","coordinates":[[[139.1488162,36.002553],[139.1487938,36.0024853],[139.1487747,36.0024354],[139.1487522,36.0023779],[139.1487288,36.0023233],[139.1487205,36.0022763],[139.1487192,36.0022205],[139.1487245,36.0021467],[139.1487408,36.0020737],[139.1487714,36.0019869],[139.148782,36.0019567],[139.1487896,36.0019264],[139.1487976,36.0018879],[139.1488096,36.0018606],[139.1488266,36.0018431],[139.1488448,36.0018317],[139.1488612,36.0018249],[139.1488774,36.0018201],[139.1488916,36.0018185],[139.1489361,36.001816],[139.1489556,36.0018178],[139.1489762,36.0018252],[139.1489924,36.001835],[139.149001,36.001844],[139.1490071,36.0018504],[139.1490204,36.0018701],[139.1490348,36.0018979],[139.1490507,36.0019532],[139.1490672,36.0020054],[139.1490789,36.0020313],[139.1490961,36.002056],[139.1491174,36.0020763],[139.1491548,36.0021017],[139.1492078,36.0021309],[139.1492421,36.0021554],[139.1492773,36.0021868],[139.1492977,36.0022148],[139.1493355,36.0022662],[139.1493553,36.0022927],[139.1493666,36.0023079],[139.1493955,36.0023393],[139.1494331,36.0023651],[139.1494806,36.0023873],[139.1495805,36.0024268],[139.1496341,36.0024506],[139.1496725,36.0024756],[139.1496974,36.0025064],[139.149726,36.0025582],[139.1497397,36.0025827],[139.1497706,36.0026344],[139.1497979,36.0026782],[139.1498297,36.0027358],[139.1498542,36.00277],[139.149884,36.0027991],[139.1499144,36.002821],[139.1499507,36.0028394],[139.1499827,36.0028506],[139.1500155,36.0028578],[139.1500431,36.0028587],[139.1500837,36.0028541],[139.1501451,36.0028488],[139.150185,36.0028502],[139.1502319,36.002858],[139.1502827,36.0028712],[139.1503177,36.0028838],[139.1503749,36.002908],[139.1504445,36.0029392],[139.1505112,36.0029669],[139.1505619,36.0029867],[139.150609,36.0030016],[139.1506528,36.0030112],[139.1507821,36.0030471],[139.150833,36.0030651],[139.1508746,36.0030874],[139.1509035,36.0031124],[139.1509269,36.0031412],[139.1509629,36.0032141],[139.1509902,36.0032657],[139.1510168,36.0033025],[139.1510291,36.0033142],[139.1510459,36.003323],[139.1510701,36.0033285],[139.1510901,36.003329],[139.1511108,36.0033268],[139.1511292,36.0033202],[139.151153,36.0033084],[139.151157,36.0033055],[139.1512529,36.0032185],[139.1513392,36.0031548],[139.1513824,36.0031315],[139.1513945,36.0031273],[139.151419,36.0031227],[139.1514323,36.0031217],[139.1514645,36.0031228],[139.1514768,36.0031247],[139.1515298,36.0031429],[139.1515744,36.003165],[139.1516171,36.0031885],[139.1516682,36.0032277],[139.1517287,36.0032787],[139.1517826,36.0033329],[139.1518243,36.0033779],[139.1518639,36.0034257],[139.151909,36.0034847],[139.1519486,36.0035321],[139.1519845,36.0035659],[139.1520285,36.0036001],[139.1521178,36.0036602],[139.1521222,36.003662],[139.1521305,36.0036633],[139.152135,36.0036633],[139.1521493,36.0036603],[139.1521544,36.0036587],[139.15217,36.0036511],[139.1521753,36.0036477],[139.1521929,36.0036321],[139.1522382,36.0035836],[139.1523247,36.0034916],[139.1524336,36.0033869],[139.1524909,36.0033321],[139.1525295,36.003286],[139.1525641,36.0032363],[139.1525902,36.0031945],[139.1526131,36.0031487],[139.1526296,36.0031071],[139.1526439,36.0030641],[139.152669,36.0029669],[139.1526979,36.0028409],[139.1527277,36.0027295],[139.1527405,36.0026797],[139.1527501,36.0026347],[139.1527571,36.0025868],[139.1527593,36.0025755],[139.1527793,36.0024909],[139.1527981,36.0024384],[139.1528218,36.0023973],[139.152893,36.0023144],[139.1529382,36.0022641],[139.1530115,36.0021697],[139.1530742,36.0020881],[139.1530978,36.002071],[139.153127,36.0020552],[139.1531528,36.0020478],[139.1531809,36.0020486],[139.1532319,36.002058],[139.1533925,36.0020969],[139.1535149,36.0021299],[139.1536549,36.0021721],[139.1537642,36.0022092],[139.1539044,36.0022644],[139.1538922,36.0022846],[139.1537527,36.0022297],[139.1536448,36.0021931],[139.1535056,36.0021512],[139.1533841,36.0021184],[139.1532248,36.0020799],[139.1531773,36.002071],[139.153157,36.0020705],[139.1531394,36.0020755],[139.1531148,36.0020888],[139.1530957,36.0021028],[139.1530349,36.0021817],[139.1529611,36.0022768],[139.1529156,36.0023275],[139.1528458,36.0024086],[139.1528241,36.0024463],[139.1528062,36.0024962],[139.1527873,36.0025756],[139.1527846,36.0025899],[139.1527775,36.002638],[139.1527677,36.0026839],[139.1527549,36.0027342],[139.1527252,36.0028454],[139.1526961,36.0029713],[139.1526709,36.0030694],[139.1526562,36.0031135],[139.1526391,36.0031564],[139.1526154,36.0032039],[139.1525886,36.003247],[139.152553,36.003298],[139.152513,36.0033459],[139.1524546,36.0034014],[139.1523464,36.0035057],[139.1522603,36.0035972],[139.1522143,36.0036466],[139.1521968,36.003662],[139.1521908,36.0036666],[139.1521716,36.003679],[139.1521676,36.0036811],[139.1521548,36.0036857],[139.1521401,36.0036882],[139.1521339,36.0036882],[139.1521229,36.0036863],[139.1521172,36.0036847],[139.1521032,36.0036782],[139.1520842,36.0036668],[139.1520101,36.0036169],[139.1519644,36.0035814],[139.1519266,36.0035459],[139.1518857,36.0034969],[139.1518406,36.0034379],[139.1518017,36.0033909],[139.1517607,36.0033467],[139.1517079,36.0032935],[139.1516487,36.0032437],[139.1515998,36.0032061],[139.1515594,36.003184],[139.1515172,36.003163],[139.1514713,36.0031473],[139.1514586,36.0031451],[139.151434,36.0031443],[139.1514219,36.0031453],[139.151406,36.0031483],[139.1513947,36.0031519],[139.1513562,36.0031726],[139.1512726,36.0032344],[139.1511765,36.0033216],[139.1511695,36.0033266],[139.1511422,36.0033401],[139.1511184,36.0033488],[139.1510915,36.0033516],[139.1510658,36.0033509],[139.1510344,36.0033438],[139.1510107,36.0033313],[139.1509942,36.0033156],[139.1509654,36.003276],[139.1509373,36.0032227],[139.1509022,36.0031517],[139.1508817,36.0031264],[139.1508567,36.0031048],[139.1508197,36.003085],[139.1507726,36.0030682],[139.1506459,36.003033],[139.1506004,36.003023],[139.1505508,36.0030074],[139.150499,36.0029871],[139.1504314,36.002959],[139.1503618,36.0029279],[139.1503057,36.0029041],[139.1502728,36.0028923],[139.1502248,36.0028799],[139.1501816,36.0028727],[139.1501459,36.0028714],[139.1500872,36.0028765],[139.1500446,36.0028813],[139.1500112,36.0028803],[139.1499735,36.0028719],[139.1499379,36.0028594],[139.1498978,36.0028391],[139.149864,36.0028148],[139.1498313,36.0027831],[139.149805,36.0027461],[139.149773,36.0026879],[139.1497458,36.0026444],[139.1497146,36.0025923],[139.1496955,36.0025581],[139.1496731,36.0025174],[139.1496517,36.002491],[139.1496186,36.0024695],[139.1495678,36.0024468],[139.1494675,36.0024072],[139.149417,36.0023837],[139.1493751,36.0023548],[139.1493435,36.0023204],[139.1493118,36.0022778],[139.1492739,36.0022263],[139.1492549,36.0022002],[139.1492225,36.0021715],[139.1491908,36.0021488],[139.1491381,36.0021197],[139.1490979,36.0020924],[139.1490732,36.002069],[139.1490536,36.0020408],[139.1490408,36.0020121],[139.1490237,36.0019585],[139.1490083,36.0019048],[139.1489961,36.0018811],[139.1489807,36.0018639],[139.1489645,36.0018547],[139.1489532,36.001852],[139.1489356,36.0018509],[139.1488911,36.0018536],[139.1488723,36.0018557],[139.1488546,36.0018593],[139.1488422,36.0018634],[139.1488341,36.0018717],[139.1488245,36.0018935],[139.1488169,36.0019304],[139.1488091,36.001962],[139.148798,36.0019931],[139.1487678,36.0020789],[139.1487521,36.0021493],[139.148747,36.0022211],[139.1487481,36.0022745],[139.148756,36.0023179],[139.1487786,36.0023708],[139.1488011,36.0024286],[139.1488206,36.0024793],[139.1488444,36.0025532],[139.1488516,36.0025817],[139.1488769,36.0026871],[139.14893,36.0028927],[139.148944,36.0029673],[139.148953,36.0030218],[139.1489531,36.0030804],[139.1489472,36.0031375],[139.1489338,36.0032004],[139.1489186,36.0032552],[139.1489023,36.0032972],[139.14889,36.0033227],[139.1488683,36.0033557],[139.1488449,36.0033807],[139.1488129,36.0034169],[139.1487734,36.0034529],[139.148745,36.0034858],[139.1487194,36.0035224],[139.1487044,36.0035501],[139.1486914,36.0035782],[139.1486859,36.0036114],[139.1486862,36.0036394],[139.1486892,36.0036688],[139.148697,36.0036922],[139.1487075,36.0037162],[139.1487227,36.0037436],[139.148745,36.0037725],[139.1487727,36.0038042],[139.1488004,36.0038363],[139.1488213,36.0038618],[139.1488335,36.0038841],[139.1488428,36.0039177],[139.148845,36.0039467],[139.148843,36.0039661],[139.1488372,36.0039889],[139.1488157,36.0040474],[139.1487622,36.0041512],[139.1487437,36.0042098],[139.1487389,36.0042494],[139.1487476,36.0043003],[139.1487781,36.0043965],[139.1488688,36.004636],[139.1488914,36.0046943],[139.148903,36.0047299],[139.1489103,36.004767],[139.1489159,36.0048042],[139.1489189,36.0048474],[139.1489123,36.0049377],[139.1489089,36.0049551],[139.1489008,36.0049774],[139.1488851,36.005009],[139.1488639,36.0050358],[139.1488355,36.0050576],[139.1487936,36.0050765],[139.1486993,36.0051072],[139.1485972,36.0051434],[139.1485157,36.0051744],[139.148434,36.005216],[139.1483414,36.0052695],[139.1482415,36.0053247],[139.1481172,36.0053901],[139.1479757,36.0054802],[139.1479349,36.0055062],[139.1479057,36.0055203],[139.1478678,36.0055333],[139.1478259,36.005543],[139.1477857,36.005551],[139.1477378,36.0055565],[139.1476815,36.0055589],[139.1476367,36.0055613],[139.1475967,36.0055648],[139.1475586,36.0055716],[139.1475194,36.0055826],[139.147443,36.0056104],[139.1473157,36.0056628],[139.1471833,36.0057149],[139.1470512,36.0057772],[139.1469423,36.0058251],[139.1467633,36.0059091],[139.1466855,36.0059433],[139.1466251,36.00597],[139.1465758,36.0059889],[139.1465112,36.0060142],[139.146412,36.0060526],[139.1463103,36.0060893],[139.1462049,36.0061303],[139.1461259,36.006163],[139.1458863,36.0062737],[139.1458798,36.0062762],[139.1457486,36.0063152],[139.1456618,36.0063303],[139.1456108,36.0063498],[139.1455593,36.0063787],[139.1455085,36.0064213],[139.1454779,36.0064586],[139.1454601,36.0065017],[139.1454505,36.0065584],[139.1454562,36.0066136],[139.1454693,36.0066685],[139.1455036,36.0067297],[139.1455527,36.0068044],[139.1456669,36.0069562],[139.145701,36.007005],[139.145719,36.0070404],[139.1457308,36.0070734],[139.1457373,36.0071065],[139.1457385,36.0071376],[139.145734,36.0071692],[139.1457231,36.0072251],[139.1457148,36.0072705],[139.1456791,36.0072662],[139.1456968,36.0071996],[139.1457067,36.0071653],[139.1457107,36.0071367],[139.1457096,36.0071086],[139.1457037,36.0070783],[139.1456927,36.0070478],[139.145676,36.0070148],[139.1456431,36.0069676],[139.1455286,36.0068155],[139.1454788,36.0067397],[139.1454426,36.0066754],[139.1454287,36.0066166],[139.1454226,36.0065578],[139.145433,36.0064965],[139.1454527,36.0064486],[139.1454868,36.0064071],[139.1455414,36.0063614],[139.1455969,36.0063303],[139.1456529,36.0063088],[139.1457409,36.0062934],[139.1458672,36.0062559],[139.1458746,36.0062532],[139.1461127,36.0061431],[139.1461925,36.0061102],[139.1462986,36.0060689],[139.1464003,36.0060321],[139.1464992,36.0059939],[139.1465638,36.0059685],[139.1466126,36.0059499],[139.1466722,36.0059235],[139.1467497,36.0058895],[139.1469287,36.0058055],[139.1470376,36.0057576],[139.1471703,36.0056949],[139.1473035,36.0056425],[139.1474311,36.0055901],[139.1475093,36.0055616],[139.1475511,36.0055499],[139.1475922,36.0055426],[139.1476343,36.0055389],[139.1476798,36.0055363],[139.1477351,36.0055341],[139.1477805,36.0055289],[139.1478188,36.0055213],[139.1478586,36.005512],[139.1478931,36.0055002],[139.1479192,36.0054875],[139.1479586,36.0054624],[139.1481011,36.0053718],[139.1482261,36.0053059],[139.1483256,36.005251],[139.1484186,36.0051973],[139.1485025,36.0051545],[139.1485857,36.0051229],[139.1486887,36.0050864],[139.1487817,36.0050561],[139.1488191,36.0050392],[139.1488424,36.0050213],[139.1488603,36.0049986],[139.1488746,36.0049699],[139.1488817,36.0049501],[139.1488847,36.0049353],[139.1488912,36.0048474],[139.1488883,36.0048063],[139.1488827,36.0047702],[139.1488758,36.0047345],[139.1488647,36.0047006],[139.1488424,36.0046427],[139.1487514,36.0044027],[139.1487204,36.0043046],[139.148711,36.0042499],[139.1487163,36.0042059],[139.1487358,36.004144],[139.1487895,36.0040398],[139.1488103,36.0039834],[139.1488155,36.0039629],[139.1488172,36.0039465],[139.1488153,36.0039208],[139.148807,36.0038912],[139.1487969,36.0038726],[139.1487774,36.003849],[139.1487501,36.0038172],[139.148722,36.003785],[139.1486982,36.0037543],[139.1486817,36.0037245],[139.1486706,36.003699],[139.1486617,36.0036727],[139.1486585,36.0036404],[139.1486582,36.00361],[139.1486644,36.0035727],[139.1486786,36.0035415],[139.1486946,36.0035122],[139.1487216,36.0034737],[139.1487517,36.0034389],[139.1487913,36.0034028],[139.1488226,36.0033673],[139.1488449,36.0033435],[139.1488648,36.0033132],[139.1488762,36.0032897],[139.1488918,36.0032494],[139.1489067,36.003196],[139.1489196,36.0031346],[139.1489254,36.0030795],[139.1489252,36.0030232],[139.1489166,36.0029705],[139.1489027,36.0028967],[139.1488497,36.0026916],[139.1488244,36.0025861],[139.1488162,36.002553]]]},"properties":{"layer":"road","class_code":"1040","class_label":"道路"}},{"type":"Feature","id":"tran_dd261191-e96e-4c58-be1b-f9b87144007d","geometry":{"type":"Polygon","coordinates":[[[139.144633,36.0020492],[139.1446845,36.0020221],[139.1447458,36.0019754],[139.1448229,36.0020421],[139.1448189,36.0020559],[139.1448192,36.0020737],[139.1448233,36.00209],[139.1448318,36.0021091],[139.1448605,36.0021585],[139.1448059,36.0021795],[139.1447699,36.0021539],[139.144739,36.0021404],[139.1446995,36.0021326],[139.144633,36.0020492]]]},"properties":{"layer":"road","class_code":"1040","class_label":"道路"}},{"type":"Feature","id":"tran_ec67b267-09b7-4e15-9f76-10e496f884ed","geometry":{"type":"Polygon","coordinates":[[[139.1444588,36.0020297],[139.1444599,36.0020322],[139.1444817,36.0020505],[139.1445071,36.0020619],[139.1445432,36.0020672],[139.1445824,36.0020642],[139.1446278,36.002052],[139.144633,36.0020492],[139.1446995,36.0021326],[139.144654,36.0021343],[139.1445992,36.0021403],[139.1445598,36.0021409],[139.1445157,36.0021346],[139.1444668,36.0021171],[139.1444314,36.0020974],[139.1444249,36.0020923],[139.1444002,36.002073],[139.1443837,36.0020448],[139.1443814,36.0020268],[139.1444588,36.0020297]]]},"properties":{"layer":"road","class_code":"1040","class_label":"道路"}},{"type":"Feature","id":"tran_620edc3d-5a6f-4794-980c-b9e47fa3662a","geometry":{"type":"Polygon","coordinates":[[[139.1447943,36.00253],[139.1448237,36.0024653],[139.1448411,36.0024073],[139.1448548,36.0023469],[139.1448564,36.002329],[139.1448583,36.0023097],[139.1448564,36.0022777],[139.1448496,36.0022462],[139.1448413,36.0022204],[139.1448378,36.0022144],[139.1448059,36.0021795],[139.1448605,36.0021585],[139.1448631,36.002163],[139.1448831,36.0022079],[139.144893,36.0022385],[139.1449006,36.0022738],[139.1449027,36.0023103],[139.1448988,36.0023516],[139.1448845,36.0024148],[139.1448664,36.0024756],[139.1448424,36.0025303],[139.1448226,36.0025685],[139.1447947,36.0026083],[139.1447619,36.0026471],[139.1447274,36.0026795],[139.1446908,36.0027066],[139.1446538,36.0027293],[139.1446121,36.0027483],[139.1445585,36.0027633],[139.1445168,36.0027744],[139.144488,36.0027861],[139.1444361,36.0028174],[139.1444137,36.0028352],[139.144397,36.0028519],[139.1443894,36.0028676],[139.1443858,36.0028906],[139.1443866,36.0029131],[139.1443907,36.0029286],[139.1444005,36.0029467],[139.1444132,36.0029614],[139.1444333,36.002979],[139.1444514,36.0029892],[139.1444781,36.0029985],[139.1444997,36.0030014],[139.1445258,36.0030019],[139.1445496,36.0029997],[139.1445733,36.0029932],[139.1446014,36.002982],[139.1446266,36.0029693],[139.1446559,36.0029504],[139.1446865,36.0029259],[139.1447209,36.0028921],[139.1447708,36.0028373],[139.1448157,36.0027918],[139.1448589,36.0027533],[139.14491,36.0027147],[139.1449774,36.0026682],[139.1450671,36.00261],[139.1451632,36.0025491],[139.1451925,36.0025323],[139.1452406,36.0025042],[139.1453008,36.0024751],[139.1453544,36.0024515],[139.1454051,36.0024342],[139.145471,36.0024202],[139.14564,36.0023997],[139.1458643,36.0023698],[139.1459761,36.002354],[139.1460435,36.0023408],[139.1461083,36.0023258],[139.1461685,36.0023066],[139.1462243,36.0022808],[139.1462672,36.002255],[139.1463204,36.0022144],[139.1463917,36.0021611],[139.1464448,36.002131],[139.1464888,36.0021206],[139.146538,36.0021203],[139.1465889,36.0021322],[139.1466401,36.0021611],[139.1466811,36.0021973],[139.1467122,36.0022423],[139.1467252,36.0022839],[139.1467277,36.0023152],[139.1467246,36.0023464],[139.1467179,36.0023713],[139.1466855,36.0024298],[139.1466288,36.0025135],[139.1466058,36.0025404],[139.146596,36.0025506],[139.1465655,36.0025758],[139.1465149,36.0026134],[139.1464718,36.0026466],[139.1464383,36.0026797],[139.1464249,36.0026973],[139.1463626,36.0028013],[139.1463193,36.0028914],[139.146283,36.0029782],[139.1462741,36.0030108],[139.1462725,36.0030376],[139.1462751,36.0030624],[139.1462815,36.0030911],[139.1462927,36.00313],[139.146325,36.0031958],[139.1463981,36.0033151],[139.1464837,36.0034469],[139.1465577,36.0035555],[139.1465823,36.0035968],[139.1466055,36.0036482],[139.1466242,36.0037024],[139.1466311,36.0037399],[139.146634,36.003789],[139.1466319,36.0038309],[139.1466219,36.0038765],[139.1466068,36.0039219],[139.1466023,36.0039471],[139.1466004,36.0039748],[139.1466005,36.0040089],[139.1466055,36.0040359],[139.1466169,36.0040663],[139.1466332,36.004098],[139.1466567,36.0041348],[139.1466635,36.0041444],[139.1467198,36.0041974],[139.1467445,36.0042287],[139.1467685,36.0042704],[139.1467748,36.0042926],[139.1467758,36.004323],[139.1467724,36.0043553],[139.1467626,36.004373],[139.1467483,36.0043913],[139.1467286,36.00441],[139.1466959,36.0044321],[139.1466604,36.0044497],[139.1466328,36.0044631],[139.1465942,36.0044783],[139.1465457,36.0044915],[139.1464762,36.0045077],[139.1464243,36.004524],[139.1463915,36.0045392],[139.1463654,36.0045566],[139.1463472,36.004575],[139.146332,36.0045977],[139.1463246,36.0046234],[139.1463249,36.0046452],[139.1463292,36.0046608],[139.1463394,36.0046787],[139.1463543,36.004692],[139.1463702,36.0047034],[139.1463922,36.0047108],[139.146425,36.0047155],[139.1464627,36.0047155],[139.1465085,36.004709],[139.1465831,36.0046911],[139.1467223,36.0046553],[139.1468386,36.0046191],[139.1469454,36.0045812],[139.1470557,36.0045347],[139.1471277,36.0045069],[139.1471881,36.0044857],[139.1472365,36.0044738],[139.1472833,36.0044659],[139.1473302,36.0044644],[139.1473765,36.0044686],[139.1474223,36.0044812],[139.1474677,36.0045058],[139.1474988,36.0045256],[139.1475389,36.0045624],[139.1475599,36.0045946],[139.1475646,36.0046127],[139.1475639,36.0046315],[139.1475573,36.0046502],[139.1475386,36.0046767],[139.1475104,36.0047025],[139.1474817,36.0047271],[139.1474513,36.0047475],[139.1474192,36.0047644],[139.1473854,36.0047774],[139.1473223,36.0047942],[139.1472901,36.0048014],[139.1472434,36.0048062],[139.1471591,36.004813],[139.1471082,36.0048182],[139.1470651,36.0048255],[139.1469991,36.0048404],[139.1468969,36.0048654],[139.1467981,36.0048967],[139.1466928,36.0049304],[139.1465966,36.0049642],[139.1465478,36.0049873],[139.1465042,36.0050103],[139.1464656,36.0050334],[139.1464346,36.0050592],[139.1464004,36.0050931],[139.1463735,36.0051323],[139.146312,36.0052379],[139.146268,36.0053109],[139.1462384,36.0053568],[139.1462072,36.0053931],[139.1461772,36.0054193],[139.1461404,36.0054462],[139.1461024,36.0054657],[139.1460609,36.0054789],[139.1459613,36.0055079],[139.1457309,36.0055767],[139.1456814,36.0055921],[139.1456183,36.0056204],[139.1455676,36.0056479],[139.1455076,36.0056901],[139.1454643,36.0057254],[139.1454081,36.005779],[139.1453686,36.0058249],[139.1453263,36.0058767],[139.1453028,36.0059146],[139.1452796,36.0059553],[139.1452582,36.0059922],[139.1451971,36.0061049],[139.1451192,36.0062633],[139.1450994,36.0063192],[139.145088,36.0063658],[139.1450824,36.0064204],[139.1450803,36.0064901],[139.1450853,36.0065885],[139.1450955,36.0066591],[139.1451053,36.0066944],[139.1451263,36.0067341],[139.1451472,36.0067651],[139.145174,36.0067919],[139.1452039,36.0068139],[139.1452426,36.0068363],[139.1453094,36.0068678],[139.1454622,36.0069381],[139.1455062,36.0069605],[139.1455269,36.0069725],[139.145548,36.0069878],[139.1455726,36.0070095],[139.1455991,36.0070411],[139.1456246,36.0070801],[139.1456416,36.0071151],[139.1456522,36.0071575],[139.1456572,36.0072008],[139.1456557,36.0072421],[139.1456526,36.0072698],[139.1456084,36.0072662],[139.1456113,36.0072399],[139.1456127,36.0072019],[139.1456082,36.0071629],[139.1455989,36.0071254],[139.1455842,36.0070952],[139.145561,36.0070597],[139.1455377,36.007032],[139.1455169,36.0070135],[139.1454992,36.0070007],[139.1454815,36.0069905],[139.1454395,36.006969],[139.1452872,36.006899],[139.1452186,36.0068666],[139.145176,36.0068421],[139.1451418,36.0068168],[139.1451102,36.0067853],[139.1450863,36.0067498],[139.145063,36.0067055],[139.1450518,36.0066652],[139.1450411,36.0065914],[139.1450359,36.0064904],[139.1450381,36.0064185],[139.1450439,36.0063608],[139.1450562,36.0063108],[139.1450771,36.0062516],[139.1451337,36.0061365],[139.145196,36.0060288],[139.1452229,36.0059791],[139.145259,36.0059193],[139.145298,36.0058624],[139.1453411,36.0058097],[139.1453818,36.0057624],[139.1454398,36.005707],[139.1454849,36.0056703],[139.1455473,36.0056263],[139.1456011,36.0055972],[139.1456674,36.0055675],[139.1457191,36.0055514],[139.1459496,36.0054826],[139.1460484,36.0054514],[139.1460836,36.005438],[139.1461168,36.005421],[139.1461499,36.0053968],[139.1461769,36.0053733],[139.1462052,36.0053403],[139.1462333,36.0052967],[139.1462771,36.0052241],[139.1463383,36.0051188],[139.1463695,36.0050702],[139.1464015,36.0050351],[139.1464364,36.0050061],[139.1464789,36.0049806],[139.1465245,36.0049566],[139.1465765,36.004932],[139.1466759,36.0048972],[139.146782,36.0048632],[139.1468825,36.0048313],[139.1469867,36.0048058],[139.1470546,36.0047905],[139.1471008,36.0047826],[139.1471542,36.0047772],[139.1472384,36.0047704],[139.1472814,36.004766],[139.1473094,36.0047597],[139.1473691,36.0047438],[139.1473977,36.0047329],[139.147425,36.0047183],[139.1474501,36.0047016],[139.1474673,36.0046842],[139.1474745,36.0046745],[139.1474912,36.0046473],[139.1474967,36.0046292],[139.1474977,36.004623],[139.1474979,36.0046174],[139.1474917,36.0045958],[139.1474773,36.004572],[139.1474583,36.0045506],[139.1474287,36.004529],[139.1474024,36.0045138],[139.1473669,36.0045039],[139.1473288,36.0045005],[139.1472887,36.0045018],[139.1472474,36.0045088],[139.1472033,36.0045196],[139.1471461,36.0045397],[139.1470755,36.004567],[139.1469645,36.0046137],[139.1468555,36.0046524],[139.1467369,36.0046894],[139.1465961,36.0047256],[139.1465186,36.0047442],[139.1464665,36.0047516],[139.1464211,36.0047515],[139.1463797,36.0047456],[139.1463464,36.0047344],[139.1463232,36.0047178],[139.146302,36.004699],[139.1462868,36.0046724],[139.1462806,36.0046493],[139.1462802,36.0046195],[139.14629,36.0045848],[139.1463102,36.0045549],[139.1463337,36.0045311],[139.1463662,36.0045094],[139.1464052,36.0044914],[139.146462,36.0044735],[139.1465325,36.0044571],[139.1465774,36.0044448],[139.1466117,36.0044315],[139.1466357,36.0044197],[139.1466594,36.0044054],[139.1466779,36.0043897],[139.1466982,36.0043636],[139.1467069,36.0043438],[139.1467092,36.0043215],[139.1467085,36.0042995],[139.1466994,36.0042678],[139.1466857,36.0042444],[139.1466448,36.0041905],[139.1466177,36.0041521],[139.146593,36.0041133],[139.1465751,36.0040785],[139.146565,36.0040515],[139.1465591,36.0040276],[139.1465561,36.0040117],[139.146556,36.0039738],[139.146558,36.0039435],[139.1465633,36.0039146],[139.1465784,36.0038686],[139.1465877,36.0038269],[139.1465896,36.0037892],[139.146587,36.0037434],[139.1465808,36.0037099],[139.1465633,36.0036593],[139.1465414,36.0036109],[139.1465183,36.0035721],[139.1464447,36.003464],[139.1463587,36.0033315],[139.1462845,36.0032106],[139.1462515,36.0031434],[139.1462384,36.0030999],[139.146231,36.0030672],[139.1462281,36.0030383],[139.1462299,36.003006],[139.1462403,36.0029684],[139.1462777,36.002879],[139.1463219,36.0027868],[139.146386,36.0026798],[139.1464021,36.0026587],[139.1464393,36.0026219],[139.1465167,36.0025428],[139.1465194,36.0025399],[139.1465858,36.0024785],[139.1466392,36.0024227],[139.1466461,36.0024133],[139.1466755,36.0023599],[139.1466806,36.0023411],[139.1466832,36.002315],[139.1466812,36.0022895],[139.1466707,36.0022559],[139.146645,36.0022187],[139.1466106,36.0021885],[139.1465697,36.0021653],[139.1465319,36.0021564],[139.1464953,36.0021566],[139.1464641,36.002164],[139.1464196,36.0021893],[139.1463506,36.0022408],[139.1462957,36.0022827],[139.1462485,36.002311],[139.1461876,36.0023392],[139.1461225,36.0023601],[139.1460547,36.0023756],[139.1459851,36.0023893],[139.1458717,36.0024053],[139.1456707,36.0024321],[139.145652,36.0024345],[139.1456469,36.0024352],[139.1454799,36.0024555],[139.1454195,36.0024684],[139.1453736,36.002484],[139.1453228,36.0025064],[139.1452691,36.0025327],[139.1451896,36.002578],[139.1450945,36.0026384],[139.1450055,36.002696],[139.1449395,36.0027417],[139.1448906,36.0027787],[139.1448494,36.0028152],[139.1448059,36.0028593],[139.1447558,36.0029143],[139.1447194,36.0029502],[139.1446854,36.0029774],[139.1446522,36.0029989],[139.144623,36.0030136],[139.1445902,36.0030266],[139.1445593,36.0030351],[139.1445277,36.003038],[139.1444955,36.0030374],[139.1444614,36.0030319],[139.1444296,36.0030209],[139.144404,36.0030062],[139.1443786,36.0029841],[139.1443616,36.0029646],[139.1443482,36.0029397],[139.1443424,36.0029174],[139.1443413,36.0028887],[139.1443461,36.0028585],[139.1443582,36.0028336],[139.1443808,36.0028108],[139.1444073,36.0027899],[139.1444646,36.0027553],[139.1444998,36.0027409],[139.1445444,36.0027291],[139.1445938,36.0027153],[139.1446296,36.0026991],[139.1446624,36.0026789],[139.1446955,36.0026543],[139.1447267,36.002625],[139.144757,36.0025892],[139.1447827,36.0025525],[139.1447943,36.00253]]]},"properties":{"layer":"road","class_code":"1040","class_label":"道路"}},{"type":"Feature","id":"tran_76850980-e7d5-4a69-b071-8ae577631fcd","geometry":{"type":"Polygon","coordinates":[[[139.1435307,36.0029356],[139.1435751,36.0030671],[139.1436637,36.0033372],[139.1437123,36.0034966],[139.1437307,36.0035747],[139.1437435,36.0036449],[139.1437511,36.0037119],[139.1437564,36.0037332],[139.1437619,36.0037553],[139.1437621,36.0037564],[139.1437764,36.003793],[139.143798,36.0038269],[139.1438195,36.0038517],[139.1438448,36.003875],[139.1439267,36.0039332],[139.1439531,36.0039496],[139.1441464,36.0040526],[139.1442363,36.0041012],[139.1442883,36.0041397],[139.1443432,36.0041924],[139.1443846,36.0042405],[139.1444202,36.0042976],[139.1444405,36.0043367],[139.1444513,36.0043645],[139.144458,36.0043923],[139.1444658,36.004442],[139.1444666,36.0044677],[139.1444647,36.0045194],[139.1444538,36.0046167],[139.144436,36.0047331],[139.1444164,36.0048674],[139.1444153,36.0048958],[139.1444173,36.0049294],[139.1444187,36.00495],[139.1444226,36.004972],[139.1444535,36.0050734],[139.1445001,36.0051859],[139.1445432,36.0053186],[139.144511,36.0053255],[139.1444682,36.0051937],[139.1444216,36.005081],[139.1443899,36.0049773],[139.1443854,36.0049518],[139.144382,36.0048961],[139.1443831,36.0048655],[139.1444029,36.0047298],[139.1444207,36.0046138],[139.1444315,36.0045177],[139.1444333,36.0044677],[139.1444325,36.0044441],[139.1444251,36.0043967],[139.1444189,36.0043712],[139.1444092,36.0043461],[139.1443901,36.0043089],[139.1443559,36.0042544],[139.144354,36.0042521],[139.1443169,36.0042089],[139.1442974,36.0041902],[139.1442643,36.0041585],[139.1442157,36.0041226],[139.1441281,36.0040752],[139.1439338,36.0039717],[139.1439057,36.0039541],[139.1438212,36.0038941],[139.1437933,36.0038685],[139.1437693,36.0038408],[139.1437456,36.0038034],[139.1437298,36.0037632],[139.1437182,36.0037157],[139.1437105,36.0036482],[139.1436978,36.0035792],[139.1436798,36.0035023],[139.1436749,36.0034863],[139.1436668,36.00346],[139.1436313,36.0033437],[139.143545,36.0031107],[139.1435338,36.0030808],[139.1435323,36.0030765],[139.1434878,36.0029451],[139.1435307,36.0029356]]]},"properties":{"layer":"road","class_code":"1040","class_label":"道路"}},{"type":"Feature","id":"tran_86f215bb-baaa-4ffc-ab93-0ea0e98e0625","geometry":{"type":"Polygon","coordinates":[[[139.1434779,36.0029156],[139.1435207,36.0029061],[139.1435307,36.0029356],[139.1434878,36.0029451],[139.1434706,36.002942],[139.1434779,36.0029156]]]},"properties":{"layer":"road","class_code":"1040","class_label":"道路"}},{"type":"Feature","id":"tran_3c1b3965-dbe6-4ff1-9f0b-32f0a0b6a79e","geometry":{"type":"Polygon","coordinates":[[[139.143349,36.0029196],[139.1433563,36.0028933],[139.1434779,36.0029156],[139.1434706,36.002942],[139.143349,36.0029196]]]},"properties":{"layer":"road","class_code":"1040","class_label":"道路"}},{"type":"Feature","id":"tran_e518a0ad-e5aa-487b-96ba-6e9039298f9d","geometry":{"type":"Polygon","coordinates":[[[139.1424935,36.0020978],[139.142513,36.0021046],[139.142544,36.0021097],[139.1425647,36.0021098],[139.1425881,36.0021074],[139.142602,36.0021057],[139.1426141,36.0021009],[139.1426731,36.0020664],[139.1427139,36.0020509],[139.1427566,36.0020434],[139.142802,36.0020437],[139.1428413,36.0020525],[139.1428795,36.0020694],[139.1429217,36.0020969],[139.1429344,36.0021112],[139.1429499,36.00213],[139.1429706,36.0021617],[139.143019,36.00223],[139.1430986,36.0023359],[139.1431882,36.0024312],[139.1433086,36.0025215],[139.1434049,36.0026305],[139.1434433,36.0026805],[139.1434501,36.0026916],[139.1434578,36.0027084],[139.1434633,36.0027223],[139.1434639,36.0027238],[139.1434792,36.0027729],[139.1435189,36.0029009],[139.1435207,36.0029061],[139.1434779,36.0029156],[139.1434761,36.0029101],[139.1434362,36.0027818],[139.1434211,36.0027336],[139.1434169,36.0027222],[139.1434093,36.0027059],[139.1434046,36.0026981],[139.1433681,36.0026505],[139.1432537,36.0025212],[139.1431633,36.0024492],[139.1430716,36.0023518],[139.1429842,36.0022473],[139.1429151,36.0021567],[139.1428869,36.002132],[139.1428487,36.002107],[139.1428204,36.0020945],[139.1427943,36.0020887],[139.1427623,36.0020885],[139.1427318,36.0020938],[139.1427014,36.0021055],[139.1426465,36.0021375],[139.1426136,36.0021499],[139.1425441,36.0021585],[139.1424996,36.0021608],[139.1424721,36.0021609],[139.142449,36.0021576],[139.1424935,36.0020978]]]},"properties":{"layer":"road","class_code":"1040","class_label":"道路"}}]}