{"type":"FeatureCollection","properties":{"mesh_code":"54390013","source":"PLATEAU秩父市2025","layer":"road"},"features":[{"type":"Feature","id":"tran_610ed44f-5931-47ae-8165-dcab5990da42","geometry":{"type":"Polygon","coordinates":[[[139.0488384,36.0084183],[139.0489241,36.0084626],[139.0489539,36.0084781],[139.0490354,36.0085165],[139.0490769,36.0085337],[139.0491335,36.0085536],[139.0491816,36.0085673],[139.0492148,36.0085741],[139.0492587,36.0085813],[139.0492994,36.0085859],[139.0493358,36.0085883],[139.049379,36.0085894],[139.0494146,36.0085885],[139.04946,36.0085847],[139.0495003,36.0085797],[139.049539,36.0085738],[139.0496287,36.0085576],[139.0497137,36.0085369],[139.0502985,36.0083962],[139.0504249,36.0083652],[139.0504961,36.0083512],[139.0505818,36.0083401],[139.0506705,36.0083306],[139.0507484,36.0083236],[139.0508135,36.008318],[139.0508611,36.0083196],[139.050902,36.0083199],[139.0509084,36.00832],[139.0509079,36.0084194],[139.0508233,36.0084209],[139.0507127,36.0084276],[139.0506043,36.0084382],[139.0504862,36.008459],[139.0503807,36.0084848],[139.0502773,36.0085223],[139.050166,36.0085765],[139.0500842,36.0086306],[139.0500736,36.0086383],[139.0499475,36.0086698],[139.0497502,36.008677],[139.0495697,36.0086838],[139.0495236,36.0086908],[139.0494776,36.0086965],[139.0494238,36.008701],[139.0493787,36.0087021],[139.0493283,36.0087007],[139.0492843,36.0086981],[139.0492353,36.0086923],[139.0491844,36.0086841],[139.0491416,36.0086753],[139.0490828,36.0086584],[139.049018,36.0086357],[139.0489692,36.0086156],[139.0488817,36.0085743],[139.0487928,36.0085282],[139.0487639,36.0085132],[139.0488384,36.0084183]]]},"properties":{"layer":"road","class_code":"1040","class_label":"道路"}}]}