{"type":"FeatureCollection","properties":{"mesh_code":"53387737","source":"PLATEAU秩父市2025","layer":"landslide"},"features":[{"type":"Feature","id":"lsld_10f644cd-d8fe-493d-b495-939302d396df","geometry":{"type":"Polygon","coordinates":[[[138.9682156,35.9455934],[138.9683613,35.9457617],[138.9685007,35.9459369],[138.96867,35.9460596],[138.9687389,35.9461694],[138.9688832,35.9463582],[138.9689966,35.9466015],[138.9690682,35.9468249],[138.9691051,35.9469862],[138.9686824,35.9470409],[138.9685578,35.947057],[138.9685545,35.9470574],[138.96847,35.9470579],[138.9683901,35.9470376],[138.9683318,35.9470116],[138.9682043,35.9469388],[138.9681263,35.9469031],[138.9680085,35.9468646],[138.9680005,35.946862],[138.9679032,35.9468338],[138.9679124,35.9468156],[138.967928,35.9467629],[138.967925,35.946677],[138.9678673,35.9465416],[138.9677435,35.9463564],[138.9677993,35.9461243],[138.9677285,35.9459756],[138.9676576,35.9458204],[138.9675785,35.9456691],[138.9676781,35.9456295],[138.9677196,35.945613],[138.9677635,35.9455955],[138.9677938,35.9455858],[138.9678695,35.9455616],[138.9678736,35.9455602],[138.9680775,35.9454928],[138.9682156,35.9455934]]]},"properties":{"layer":"landslide","class_code":"1","class_label":"急傾斜地の崩落","status_code":"0","status_label":"特別警戒区域指定済み"}},{"type":"Feature","id":"lsld_366b2b96-2d51-466b-a4a8-45d409efe862","geometry":{"type":"Polygon","coordinates":[[[138.9678351,35.9494709],[138.9676412,35.9496494],[138.9674466,35.94978],[138.9671389,35.9499223],[138.9670891,35.9498467],[138.9670472,35.9498039],[138.9669642,35.9497191],[138.9667185,35.9494466],[138.9666414,35.9493612],[138.9664651,35.9491656],[138.9664697,35.9491639],[138.966627,35.9490173],[138.966719,35.9489082],[138.9667689,35.9488601],[138.9668922,35.9487322],[138.9675521,35.9484268],[138.9681978,35.9484673],[138.9681989,35.9484665],[138.9681631,35.9485944],[138.9682172,35.9488032],[138.9682677,35.948998],[138.9683169,35.9491254],[138.9683587,35.9492131],[138.9683973,35.949343],[138.9683982,35.9493463],[138.9684194,35.9494357],[138.9682021,35.9494471],[138.96795,35.9494939],[138.9678475,35.9494613],[138.9678351,35.9494709]]]},"properties":{"layer":"landslide","class_code":"1","class_label":"急傾斜地の崩落","status_code":"0","status_label":"特別警戒区域指定済み"}},{"type":"Feature","id":"lsld_35ffe74d-583e-4834-9f33-93ba65666027","geometry":{"type":"Polygon","coordinates":[[[138.9686824,35.9470409],[138.9685578,35.947057],[138.9685545,35.9470574],[138.96847,35.9470579],[138.9683901,35.9470376],[138.9683318,35.9470116],[138.9682043,35.9469388],[138.9681263,35.9469031],[138.9680751,35.9468857],[138.9680772,35.9468593],[138.9680931,35.9467741],[138.9680824,35.9466497],[138.9680108,35.9464892],[138.9679003,35.9463247],[138.9679508,35.9461062],[138.9678766,35.9459287],[138.9678069,35.9457699],[138.9677196,35.945613],[138.9677635,35.9455955],[138.9677938,35.9455858],[138.9678695,35.9455616],[138.9678736,35.9455602],[138.9679913,35.9456915],[138.9680844,35.9458551],[138.9681703,35.9460421],[138.9682759,35.9462053],[138.9683596,35.9463453],[138.9684967,35.946514],[138.9685887,35.9467057],[138.9686533,35.9469009],[138.9686824,35.9470409]]]},"properties":{"layer":"landslide","class_code":"1","class_label":"急傾斜地の崩落","status_code":"0","status_label":"特別警戒区域指定済み"}},{"type":"Feature","id":"lsld_1e93c9c0-fb7e-4ff5-8859-2710cf693cc7","geometry":{"type":"Polygon","coordinates":[[[138.9683587,35.9492131],[138.9683854,35.9493075],[138.9681714,35.9493184],[138.9679551,35.9493541],[138.9677882,35.9493091],[138.9677423,35.9493403],[138.9676915,35.9493895],[138.9675176,35.9495416],[138.9673347,35.9496694],[138.9670472,35.9498039],[138.9669642,35.9497191],[138.9667185,35.9494466],[138.9666414,35.9493612],[138.9668544,35.9492277],[138.9669973,35.9491105],[138.9670739,35.9490329],[138.967159,35.9489209],[138.9675954,35.9486714],[138.9681042,35.9488009],[138.9681358,35.9488054],[138.9682172,35.9488032],[138.9682677,35.948998],[138.9683169,35.9491254],[138.9683587,35.9492131]]]},"properties":{"layer":"landslide","class_code":"1","class_label":"急傾斜地の崩落","status_code":"0","status_label":"特別警戒区域指定済み"}}]}