{"type":"FeatureCollection","properties":{"mesh_code":"53387747","source":"PLATEAU秩父市2025","layer":"landslide"},"features":[{"type":"Feature","id":"lsld_7c63bdc8-9aca-4588-94dc-c0c57e4569bd","geometry":{"type":"Polygon","coordinates":[[[138.9650953,35.95546],[138.9652492,35.9555858],[138.9653702,35.955655],[138.965575,35.9557611],[138.9656944,35.9558574],[138.9657145,35.9558891],[138.9657738,35.9559822],[138.9659589,35.9560251],[138.9661265,35.9560979],[138.9661489,35.9561076],[138.9660986,35.9561879],[138.9660806,35.9562167],[138.966022,35.9563102],[138.9658691,35.9565003],[138.9654739,35.9563115],[138.965343,35.9562377],[138.9651364,35.9561564],[138.9650463,35.9561552],[138.9649856,35.9561471],[138.9649434,35.956129],[138.9648631,35.9560884],[138.9647875,35.9560378],[138.9647086,35.956002],[138.964568,35.9559473],[138.9644028,35.9558737],[138.9642708,35.9557965],[138.9642341,35.9557618],[138.9641987,35.9557155],[138.9640737,35.9554864],[138.964011,35.9550318],[138.9640329,35.9549987],[138.9640396,35.9549682],[138.9640358,35.9549291],[138.9640237,35.9548865],[138.964016,35.9548638],[138.9640116,35.9548507],[138.9640182,35.95481],[138.9640523,35.9547542],[138.9640694,35.9547237],[138.9640968,35.9546967],[138.9641368,35.9546834],[138.964185,35.9546735],[138.9641899,35.9546734],[138.9642372,35.9546722],[138.9642687,35.954664],[138.9642921,35.9546369],[138.9643173,35.9546235],[138.9643696,35.9546205],[138.9644511,35.9546262],[138.9644908,35.9546265],[138.9645369,35.95462],[138.9648002,35.9545994],[138.9648444,35.9545708],[138.9648909,35.9545045],[138.9649017,35.9544914],[138.9649353,35.9544746],[138.9650171,35.9544599],[138.9650715,35.9544552],[138.9651219,35.9544352],[138.9651656,35.9544002],[138.9651949,35.9543545],[138.9655371,35.9545484],[138.9657674,35.9546812],[138.9658624,35.9547427],[138.9658637,35.9547435],[138.9659278,35.9547849],[138.9659349,35.9547895],[138.9660145,35.954841],[138.9659483,35.9548618],[138.9659274,35.9548684],[138.9657514,35.9549251],[138.9655468,35.9550032],[138.9655247,35.9550116],[138.9653615,35.9550489],[138.9652365,35.9550328],[138.9651239,35.9550379],[138.9650658,35.9550866],[138.9650458,35.9551671],[138.964939,35.9553083],[138.9648089,35.9553894],[138.964837,35.9554054],[138.9649663,35.9553982],[138.9650953,35.95546]]]},"properties":{"layer":"landslide","class_code":"1","class_label":"急傾斜地の崩落","status_code":"0","status_label":"特別警戒区域指定済み"}},{"type":"Feature","id":"lsld_e2d9ddb5-b0e0-4e85-960c-19556e46c5cf","geometry":{"type":"Polygon","coordinates":[[[138.96267106363035,35.958333333333336],[138.9627056,35.9582867],[138.962881,35.9580505],[138.9630892,35.9577802],[138.9633616,35.9575532],[138.9636465,35.9573795],[138.9640167,35.9572243],[138.964249,35.9571307],[138.9643405,35.9570834],[138.9643423,35.9570823],[138.9644451,35.9570235],[138.964647,35.956908],[138.9647103,35.9568718],[138.9647898,35.9568263],[138.9647955,35.956823],[138.9648424,35.9568514],[138.9648445,35.956852],[138.9649088,35.9568989],[138.964909,35.9569038],[138.9649349,35.956972],[138.9649548,35.9570246],[138.9650335,35.9572322],[138.9650525,35.9573471],[138.965069,35.9573602],[138.9651448,35.95742],[138.9650312,35.9574921],[138.9650259,35.9574955],[138.9650287,35.9574977],[138.9650322,35.9574983],[138.9650617,35.9575032],[138.9652759,35.957584],[138.9652753,35.9575866],[138.9654934,35.9579093],[138.9652751,35.9579868],[138.9651182,35.9580424],[138.9651023,35.958048],[138.9649983,35.9580849],[138.9649856,35.9580899],[138.9647862,35.9581692],[138.9645333,35.9582294],[138.96405079834878,35.958333333333336],[138.96267106363035,35.958333333333336]]]},"properties":{"layer":"landslide","class_code":"1","class_label":"急傾斜地の崩落","status_code":"0","status_label":"特別警戒区域指定済み"}},{"type":"Feature","id":"lsld_659a7ac2-cf33-4d0d-b7a3-fcaec416b9da","geometry":{"type":"Polygon","coordinates":[[[138.96568,35.9570038],[138.9654873,35.9574064],[138.9654364,35.9574036],[138.9653866,35.9574009],[138.9653443,35.957396],[138.9652987,35.9573907],[138.9652603,35.9573838],[138.9652021,35.9573733],[138.9651867,35.9573715],[138.9651171,35.9573631],[138.965069,35.9573602],[138.9650292,35.9573577],[138.9650091,35.9573565],[138.9650065,35.9573563],[138.9650084,35.9573522],[138.9650287,35.9573074],[138.9649997,35.957299],[138.9648908,35.9572677],[138.9648088,35.9571037],[138.9647468,35.956995],[138.964647,35.956908],[138.9646458,35.9569069],[138.9645518,35.956937],[138.9644802,35.9568742],[138.9643632,35.9569066],[138.9643657,35.9568876],[138.9643751,35.956817],[138.9643752,35.9568165],[138.9643867,35.9567677],[138.9643937,35.9567379],[138.9644002,35.9566759],[138.9644658,35.956581],[138.9645695,35.9564816],[138.9646019,35.9564484],[138.9646526,35.9563964],[138.9646809,35.9563655],[138.9647328,35.9563087],[138.9647328,35.9563063],[138.9647445,35.9562936],[138.9647879,35.9563132],[138.9654206,35.9566001],[138.9655772,35.956676],[138.9656397,35.9567064],[138.9656801,35.956726],[138.9658063,35.9567873],[138.9657358,35.9568872],[138.96568,35.9570038]]]},"properties":{"layer":"landslide","class_code":"1","class_label":"急傾斜地の崩落","status_code":"0","status_label":"特別警戒区域指定済み"}},{"type":"Feature","id":"lsld_7555f95a-3bc1-472b-94a6-69099bc6176a","geometry":{"type":"Polygon","coordinates":[[[138.9683953688846,35.958333333333336],[138.9684139,35.9581402],[138.9684145,35.9581339],[138.9684178,35.9581],[138.9684259,35.9580162],[138.9684266,35.9580086],[138.9685187,35.9580092],[138.9685515,35.9580095],[138.968556,35.9580096],[138.9685832,35.9580097],[138.9687022,35.9579927],[138.9690493,35.9580381],[138.9693347,35.9580867],[138.969629,35.9581353],[138.9698307,35.9581904],[138.9702366803162,35.958333333333336],[138.9683953688846,35.958333333333336]]]},"properties":{"layer":"landslide","class_code":"1","class_label":"急傾斜地の崩落","status_code":"0","status_label":"特別警戒区域指定済み"}},{"type":"Feature","id":"lsld_abac521f-2f36-4724-a4a5-bd7bbfdd90f5","geometry":{"type":"Polygon","coordinates":[[[138.9665832,35.956002],[138.9662619,35.9560695],[138.9661358,35.956096],[138.9661265,35.9560979],[138.9659119,35.956143],[138.9657252,35.9561822],[138.9657078,35.9560685],[138.9656854,35.9559218],[138.9657145,35.9558891],[138.9658433,35.9557443],[138.9658469,35.9557271],[138.9658331,35.9557064],[138.9657325,35.9555724],[138.965653,35.9554039],[138.9655892,35.9551791],[138.9655468,35.9550032],[138.9655439,35.9549913],[138.9655196,35.9548553],[138.9655022,35.9547579],[138.9658624,35.9547427],[138.9659258,35.95474],[138.9660557,35.9547345],[138.9663009,35.9547242],[138.96658,35.9546833],[138.966871,35.9546258],[138.9670622,35.9545699],[138.9673009,35.9544738],[138.9673958,35.9544425],[138.9675242,35.9544373],[138.9675775,35.954445],[138.9676285,35.9544524],[138.9677376,35.9544681],[138.9677357,35.9544715],[138.9679941,35.9545162],[138.9681253,35.9545545],[138.9681725,35.9545554],[138.9681862,35.9545727],[138.968229,35.9546042],[138.9681751,35.9546829],[138.9681422,35.9547308],[138.9680312,35.9548931],[138.9679558,35.9549607],[138.9678883,35.9549998],[138.9670989,35.9559163],[138.9669695,35.9559575],[138.9669593,35.9559826],[138.9669177,35.9559877],[138.9668489,35.9559872],[138.9668385,35.9559872],[138.9667929,35.9559868],[138.9666978,35.9559862],[138.9665832,35.956002]]]},"properties":{"layer":"landslide","class_code":"1","class_label":"急傾斜地の崩落","status_code":"0","status_label":"特別警戒区域指定済み"}},{"type":"Feature","id":"lsld_3b8b59fc-2763-49ff-a9e2-e091318414c7","geometry":{"type":"Polygon","coordinates":[[[138.9661009,35.9552922],[138.9661363,35.9553616],[138.9661729,35.9554026],[138.9662111,35.9554044],[138.9661549,35.9554777],[138.9661525,35.9554808],[138.9661073,35.9555397],[138.9660796,35.9555758],[138.9660486,35.9556162],[138.9659132,35.9556016],[138.9658285,35.9554688],[138.9657654,35.9553441],[138.9657823,35.9552626],[138.9658402,35.9552589],[138.9658928,35.9552557],[138.9659735,35.9552506],[138.9660404,35.9552464],[138.966084,35.9552437],[138.9661009,35.9552922]]]},"properties":{"layer":"landslide","class_code":"1","class_label":"急傾斜地の崩落","status_code":"0","status_label":"特別警戒区域指定済み"}},{"type":"Feature","id":"lsld_10402b9c-d012-4f32-93e9-c6a0ca071c8d","geometry":{"type":"Polygon","coordinates":[[[138.9625851,35.95386],[138.9625,35.953846824867725],[138.9625,35.952867322396685],[138.9625611,35.9527683],[138.9625806,35.9527295],[138.9626045,35.9526822],[138.9626302,35.9526313],[138.9627911,35.9523126],[138.9631015,35.9524684],[138.963296,35.9526165],[138.9633917,35.9526877],[138.963465,35.9527423],[138.9636154,35.9528579],[138.9637053,35.9529195],[138.96373,35.9529364],[138.9639049,35.9530154],[138.9639248,35.9530244],[138.9642895,35.9533274],[138.9640762,35.953395],[138.9638949,35.9534524],[138.9637731,35.953491],[138.9637685,35.9534925],[138.9636661,35.9535226],[138.9636447,35.9535321],[138.9636232,35.9535435],[138.963587,35.9535588],[138.9635062,35.9535679],[138.9634706,35.9535753],[138.9633993,35.9535979],[138.9633203,35.9536437],[138.9632319,35.953674],[138.9631969,35.9536805],[138.9631819,35.9536833],[138.9631248,35.9536906],[138.963111,35.9536937],[138.9630903,35.9537009],[138.9630872,35.9536975],[138.9630551,35.9536623],[138.9629704,35.9536098],[138.9625851,35.95386]]]},"properties":{"layer":"landslide","class_code":"1","class_label":"急傾斜地の崩落","status_code":"0","status_label":"特別警戒区域指定済み"}},{"type":"Feature","id":"lsld_4afc3f36-3982-4a58-9b7e-51efbcfa99d0","geometry":{"type":"Polygon","coordinates":[[[138.963929,35.9533926],[138.9638588,35.9534079],[138.9638378,35.9534134],[138.9638215,35.9534177],[138.9638126,35.9533962],[138.9637561,35.9532599],[138.9637834,35.9531015],[138.9637053,35.9529195],[138.9636945,35.9528943],[138.9635666,35.9527925],[138.9635147,35.9526645],[138.9634893,35.952602],[138.9634186,35.9524426],[138.9633549,35.9523056],[138.9633152,35.9521874],[138.9633444,35.9521448],[138.963386,35.9520818],[138.9633899,35.952076],[138.9634164,35.9520571],[138.9634305,35.9520472],[138.9634397,35.9520218],[138.9634444,35.9519963],[138.9635157,35.9519519],[138.9635224,35.9519477],[138.9635964,35.9519016],[138.9637042,35.9518343],[138.96371,35.9518455],[138.9638542,35.9520017],[138.9640245,35.9521672],[138.9640788,35.952341],[138.9642227,35.9525216],[138.9643446,35.9526716],[138.9645215,35.9529193],[138.9646202,35.953133],[138.9647163,35.9532371],[138.9647207,35.9532387],[138.9644774,35.9533289],[138.9643661,35.9533701],[138.9643333,35.9533823],[138.9642657,35.9533964],[138.9640762,35.953395],[138.9640688,35.9533949],[138.9639393,35.9533904],[138.963929,35.9533926]]]},"properties":{"layer":"landslide","class_code":"1","class_label":"急傾斜地の崩落","status_code":"0","status_label":"特別警戒区域指定済み"}},{"type":"Feature","id":"lsld_19265625-59e4-4800-9faf-ce3e8556370c","geometry":{"type":"Polygon","coordinates":[[[138.9625,35.95037898009709],[138.9625518,35.9504817],[138.9625965,35.9505704],[138.9626449,35.950626],[138.9626762,35.9506619],[138.9627407,35.9506975],[138.9628012,35.9507309],[138.9628963,35.9507877],[138.9630771,35.9509047],[138.9628845,35.9510123],[138.9628562,35.9510281],[138.9628358,35.9510395],[138.9628535,35.9510488],[138.9627628,35.9511539],[138.9627511,35.9511649],[138.9626227,35.9512581],[138.9625,35.951347186781604],[138.9625,35.95037898009709]]]},"properties":{"layer":"landslide","class_code":"1","class_label":"急傾斜地の崩落","status_code":"0","status_label":"特別警戒区域指定済み"}},{"type":"Feature","id":"lsld_aaf8f100-1951-405e-8188-13000972d064","geometry":{"type":"Polygon","coordinates":[[[138.9632526,35.9515784],[138.9630887,35.9516284],[138.963053,35.9516419],[138.9629353,35.9517006],[138.9628393,35.9517475],[138.9627203,35.9515716],[138.9626582,35.951503],[138.9626091,35.9513042],[138.9626227,35.9512581],[138.962642,35.9511926],[138.9626563,35.951125],[138.9626814,35.9510325],[138.9627042,35.950967],[138.9628031,35.9509988],[138.9628449,35.9510057],[138.9628585,35.951008],[138.9628845,35.9510123],[138.9629606,35.951025],[138.9630497,35.9510368],[138.963132,35.951043],[138.9632212,35.9510436],[138.963252,35.9510417],[138.963378,35.9510338],[138.9638046,35.951007],[138.9635672,35.9513926],[138.9636978,35.9515894],[138.9632893,35.9515742],[138.9632526,35.9515784]]]},"properties":{"layer":"landslide","class_code":"1","class_label":"急傾斜地の崩落","status_code":"0","status_label":"特別警戒区域指定済み"}},{"type":"Feature","id":"lsld_2b803bd9-6abd-4e2f-b925-5c664e100895","geometry":{"type":"Polygon","coordinates":[[[138.9656351,35.9568605],[138.9656041,35.9568897],[138.9655144,35.9571239],[138.9653443,35.957396],[138.9652987,35.9573907],[138.9652603,35.9573838],[138.9652021,35.9573733],[138.9651867,35.9573715],[138.9652111,35.9572491],[138.9650614,35.9571664],[138.9650359,35.9571598],[138.9649605,35.9570099],[138.9649498,35.9569941],[138.9649349,35.956972],[138.9648899,35.9569055],[138.9647898,35.9568263],[138.9647523,35.9567967],[138.9646774,35.956835],[138.9644704,35.9567417],[138.9643867,35.9567677],[138.9643937,35.9567379],[138.9644002,35.9566759],[138.9644658,35.956581],[138.9645695,35.9564816],[138.9646019,35.9564484],[138.9646526,35.9563964],[138.9646809,35.9563655],[138.9646897,35.9563748],[138.9647879,35.9563132],[138.9647923,35.9563105],[138.9656147,35.9566882],[138.965632,35.9566962],[138.9656397,35.9567064],[138.9656419,35.9567093],[138.9657055,35.9567941],[138.9656351,35.9568605]]]},"properties":{"layer":"landslide","class_code":"1","class_label":"急傾斜地の崩落","status_code":"0","status_label":"特別警戒区域指定済み"}},{"type":"Feature","id":"lsld_c2f3da15-1456-410f-8f5f-01985a0c1f14","geometry":{"type":"Polygon","coordinates":[[[138.9683953688846,35.958333333333336],[138.9684139,35.9581402],[138.9684145,35.9581339],[138.9684178,35.9581],[138.9684259,35.9580162],[138.9684266,35.9580086],[138.968427,35.9580044],[138.9685276,35.9580085],[138.9685515,35.9580095],[138.968556,35.9580096],[138.9687357,35.958017],[138.9689467,35.9580329],[138.9692892,35.9580926],[138.9695702,35.9581447],[138.9698641,35.9582291],[138.97015892089595,35.958333333333336],[138.9683953688846,35.958333333333336]]]},"properties":{"layer":"landslide","class_code":"1","class_label":"急傾斜地の崩落","status_code":"0","status_label":"特別警戒区域指定済み"}},{"type":"Feature","id":"lsld_4898d2e0-85cb-4dc2-be73-cbe8ba5d8bd6","geometry":{"type":"Polygon","coordinates":[[[138.9665832,35.956002],[138.9662619,35.9560695],[138.9661358,35.956096],[138.9661086,35.9559075],[138.9662656,35.9557708],[138.9662606,35.9556526],[138.966202,35.9555393],[138.9661549,35.9554777],[138.9661122,35.955422],[138.9660549,35.9552987],[138.9660404,35.9552464],[138.966003,35.9551116],[138.965961,35.9549303],[138.9659483,35.9548618],[138.9659349,35.9547895],[138.9659258,35.95474],[138.9660557,35.9547345],[138.9663009,35.9547242],[138.96658,35.9546833],[138.966871,35.9546258],[138.9670622,35.9545699],[138.9673009,35.9544738],[138.9673958,35.9544425],[138.9675242,35.9544373],[138.9675775,35.954445],[138.9675774,35.9544924],[138.9678563,35.9545852],[138.9679751,35.9546249],[138.9680366,35.9546437],[138.9680568,35.9546665],[138.9681422,35.9547308],[138.9680312,35.9548931],[138.9679558,35.9549607],[138.9678883,35.9549998],[138.9678299,35.9550335],[138.9669333,35.9559024],[138.9668016,35.9559305],[138.9667929,35.9559868],[138.9666978,35.9559862],[138.9665832,35.956002]]]},"properties":{"layer":"landslide","class_code":"1","class_label":"急傾斜地の崩落","status_code":"0","status_label":"特別警戒区域指定済み"}},{"type":"Feature","id":"lsld_352e450f-a4b0-415d-b712-562b1c3be2c4","geometry":{"type":"Polygon","coordinates":[[[138.9661073,35.9555397],[138.9660796,35.9555758],[138.9659735,35.9555554],[138.965898,35.9554446],[138.9658357,35.9553333],[138.9658402,35.9552589],[138.9658928,35.9552557],[138.9659089,35.9553219],[138.9659703,35.9554194],[138.9660393,35.955505],[138.9661073,35.9555397]]]},"properties":{"layer":"landslide","class_code":"1","class_label":"急傾斜地の崩落","status_code":"0","status_label":"特別警戒区域指定済み"}},{"type":"Feature","id":"lsld_2a8f7cc7-b151-4030-9f7d-e7854762d831","geometry":{"type":"Polygon","coordinates":[[[138.9650663,35.9549062],[138.9649908,35.9549634],[138.9648933,35.9550828],[138.9647897,35.9551863],[138.9646458,35.9553024],[138.9646633,35.9554041],[138.9648619,35.9555132],[138.9650066,35.9555821],[138.9651274,35.9556829],[138.9653075,35.9557781],[138.9654902,35.9558721],[138.9656465,35.9559771],[138.9657078,35.9560685],[138.9657251,35.9560943],[138.9658901,35.9561335],[138.9659119,35.956143],[138.9660806,35.9562167],[138.966022,35.9563102],[138.9658691,35.9565003],[138.9654739,35.9563115],[138.965343,35.9562377],[138.9651364,35.9561564],[138.9650463,35.9561552],[138.9649856,35.9561471],[138.9649434,35.956129],[138.9648631,35.9560884],[138.9647875,35.9560378],[138.9647086,35.956002],[138.964568,35.9559473],[138.9644028,35.9558737],[138.9642708,35.9557965],[138.9642341,35.9557618],[138.9641987,35.9557155],[138.9640737,35.9554864],[138.964011,35.9550318],[138.9640329,35.9549987],[138.9640396,35.9549682],[138.9640358,35.9549291],[138.9640237,35.9548865],[138.964016,35.9548638],[138.9641899,35.9546734],[138.9642372,35.9546722],[138.9642687,35.954664],[138.9642921,35.9546369],[138.9643173,35.9546235],[138.9643696,35.9546205],[138.9644511,35.9546262],[138.9644908,35.9546265],[138.9645369,35.95462],[138.9648002,35.9545994],[138.9648444,35.9545708],[138.9648909,35.9545045],[138.9649017,35.9544914],[138.9649353,35.9544746],[138.9650171,35.9544599],[138.9650715,35.9544552],[138.9651219,35.9544352],[138.9651656,35.9544002],[138.9651949,35.9543545],[138.9655371,35.9545484],[138.9657674,35.9546812],[138.9658624,35.9547427],[138.9658637,35.9547435],[138.9657753,35.9547783],[138.9656214,35.954821],[138.9655196,35.9548553],[138.9654306,35.9548853],[138.965274,35.9549195],[138.9651704,35.9548997],[138.9650663,35.9549062]]]},"properties":{"layer":"landslide","class_code":"1","class_label":"急傾斜地の崩落","status_code":"0","status_label":"特別警戒区域指定済み"}},{"type":"Feature","id":"lsld_8771f2dc-173c-4b1f-9d30-33cb038ab8a6","geometry":{"type":"Polygon","coordinates":[[[138.9637411,35.9520607],[138.9638835,35.9522367],[138.9640108,35.952388],[138.9641975,35.9525324],[138.964253,35.9527006],[138.9643866,35.952955],[138.9644562,35.9531583],[138.9644774,35.9533289],[138.9643661,35.9533701],[138.9643333,35.9533823],[138.9642657,35.9533964],[138.9640762,35.953395],[138.9640688,35.9533949],[138.9639734,35.953391],[138.9639119,35.9532409],[138.9639346,35.9530817],[138.9639049,35.9530154],[138.963824,35.9528352],[138.9637029,35.9527284],[138.9636535,35.9526189],[138.9636259,35.9525579],[138.9635503,35.9523965],[138.9634747,35.9522468],[138.963386,35.9520818],[138.9633899,35.952076],[138.9634164,35.9520571],[138.9634305,35.9520472],[138.9634397,35.9520218],[138.9634444,35.9519963],[138.9635157,35.9519519],[138.9635224,35.9519477],[138.9635964,35.9519016],[138.9637411,35.9520607]]]},"properties":{"layer":"landslide","class_code":"1","class_label":"急傾斜地の崩落","status_code":"0","status_label":"特別警戒区域指定済み"}},{"type":"Feature","id":"lsld_37bc5be1-14c0-4244-91d1-a1e463189f13","geometry":{"type":"Polygon","coordinates":[[[138.9626099,35.9537297],[138.9625,35.953714730517284],[138.9625,35.952867322396685],[138.9625611,35.9527683],[138.9625806,35.9527295],[138.9626045,35.9526822],[138.9626302,35.9526313],[138.9627709,35.9527041],[138.9628385,35.9527392],[138.9630066,35.9528684],[138.9631753,35.9529958],[138.9633332,35.9531184],[138.9634867,35.9532253],[138.9636961,35.9533166],[138.9638126,35.9533962],[138.9638378,35.9534134],[138.9638949,35.9534524],[138.9637731,35.953491],[138.9637685,35.9534925],[138.9636661,35.9535226],[138.9636447,35.9535321],[138.9636232,35.9535435],[138.963587,35.9535588],[138.9635062,35.9535679],[138.9634706,35.9535753],[138.9633993,35.9535979],[138.9633203,35.9536437],[138.963251,35.9536666],[138.9632342,35.95364],[138.9631577,35.9535645],[138.9629843,35.9534818],[138.9626099,35.9537297]]]},"properties":{"layer":"landslide","class_code":"1","class_label":"急傾斜地の崩落","status_code":"0","status_label":"特別警戒区域指定済み"}},{"type":"Feature","id":"lsld_34d9179d-1387-406c-b76f-dca2187c554e","geometry":{"type":"Polygon","coordinates":[[[138.9625,35.95037898009709],[138.9625518,35.9504817],[138.9625965,35.9505704],[138.9626449,35.950626],[138.9626762,35.9506619],[138.9627407,35.9506975],[138.9625,35.95083296187731],[138.9625,35.95037898009709]]]},"properties":{"layer":"landslide","class_code":"1","class_label":"急傾斜地の崩落","status_code":"0","status_label":"特別警戒区域指定済み"}},{"type":"Feature","id":"lsld_18a22da6-de07-4ad4-9d33-66270aa69e3a","geometry":{"type":"Polygon","coordinates":[[[138.963053,35.9516419],[138.9629743,35.9516801],[138.9628444,35.9515123],[138.9627965,35.9514498],[138.9628618,35.9514218],[138.9629367,35.9514026],[138.9630776,35.9514152],[138.9630664,35.9514402],[138.9632296,35.9515406],[138.9631508,35.9516051],[138.9630887,35.9516284],[138.963053,35.9516419]]]},"properties":{"layer":"landslide","class_code":"1","class_label":"急傾斜地の崩落","status_code":"0","status_label":"特別警戒区域指定済み"}},{"type":"Feature","id":"lsld_ab985473-e49a-41f6-b4b3-965d53993c42","geometry":{"type":"Polygon","coordinates":[[[138.9632339,35.9512277],[138.9629463,35.9513032],[138.9629188,35.9512283],[138.9627979,35.9511603],[138.9628514,35.9510687],[138.9628562,35.9510281],[138.9628585,35.951008],[138.9628845,35.9510123],[138.9629606,35.951025],[138.9630497,35.9510368],[138.963132,35.951043],[138.9632212,35.9510436],[138.963252,35.9510417],[138.963378,35.9510338],[138.9632339,35.9512277]]]},"properties":{"layer":"landslide","class_code":"1","class_label":"急傾斜地の崩落","status_code":"0","status_label":"特別警戒区域指定済み"}},{"type":"Feature","id":"lsld_cdf58df0-4cba-48b7-a795-965e7a01fcf6","geometry":{"type":"Polygon","coordinates":[[[138.9651023,35.958048],[138.9649983,35.9580849],[138.9649856,35.9580899],[138.9647862,35.9581692],[138.9645333,35.9582294],[138.96405079834878,35.958333333333336],[138.96282322601752,35.958333333333336],[138.9628248,35.9583259],[138.9627724,35.9583176],[138.9627747,35.9583122],[138.9627391,35.9583004],[138.9627287,35.9583071],[138.9627056,35.9582867],[138.962881,35.9580505],[138.9630892,35.9577802],[138.9633616,35.9575532],[138.9636465,35.9573795],[138.9640167,35.9572243],[138.964249,35.9571307],[138.9643405,35.9570834],[138.9643423,35.9570823],[138.9644451,35.9570235],[138.9645001,35.9570607],[138.9645036,35.9570624],[138.9646036,35.9571427],[138.9646011,35.9571454],[138.9646444,35.9573727],[138.9646704,35.9574984],[138.9647731,35.9575857],[138.9646568,35.9576629],[138.9646595,35.9576649],[138.964765,35.9577488],[138.9649873,35.957839],[138.9649875,35.9578423],[138.9651023,35.958048]]]},"properties":{"layer":"landslide","class_code":"1","class_label":"急傾斜地の崩落","status_code":"0","status_label":"特別警戒区域指定済み"}},{"type":"Feature","id":"lsld_742a3598-1b64-47fa-b12b-0a644bbc4f7f","geometry":{"type":"Polygon","coordinates":[[[138.9650922,35.9564605],[138.9653678,35.9565804],[138.9655208,35.9566565],[138.965579,35.9566819],[138.9656419,35.9567093],[138.9656801,35.956726],[138.9656958,35.9567329],[138.9658358,35.9567982],[138.9661328,35.9569683],[138.9663425,35.9570842],[138.9663844,35.9571086],[138.9664605,35.9571529],[138.966609,35.9572362],[138.9666986,35.9572832],[138.9666821,35.9572933],[138.9659173,35.9577601],[138.9655315,35.9579956],[138.9655011,35.9580147],[138.9653117,35.9581328],[138.9651485,35.9582592],[138.96511499791526,35.958333333333336],[138.96494566276522,35.958333333333336],[138.9650058,35.9582046],[138.9651184,35.9580437],[138.9651182,35.9580424],[138.9650946,35.9578791],[138.9650895,35.9578482],[138.9650322,35.9574983],[138.9650312,35.9574921],[138.9650091,35.9573565],[138.9650084,35.9573522],[138.9649997,35.957299],[138.9649548,35.9570246],[138.9649498,35.9569941],[138.964843,35.9563407],[138.9650922,35.9564605]]]},"properties":{"layer":"landslide","class_code":"2","class_label":"土石流","status_code":"0","status_label":"特別警戒区域指定済み"}},{"type":"Feature","id":"lsld_1360f7b2-5d34-410c-873a-b50dc2cb3c0f","geometry":{"type":"Polygon","coordinates":[[[138.9684145,35.9581339],[138.96818748114535,35.958333333333336],[138.9660971930228,35.958333333333336],[138.9659173,35.9577601],[138.96568,35.9570038],[138.9656351,35.9568605],[138.965579,35.9566819],[138.9655772,35.956676],[138.9655762,35.9566728],[138.9656147,35.9566882],[138.9657587,35.9567457],[138.9660867,35.9569209],[138.9663844,35.9571086],[138.9665746,35.9572285],[138.9666821,35.9572933],[138.9669752,35.9574698],[138.9671119,35.9574857],[138.9674905,35.9576141],[138.9679276,35.9578317],[138.9681209,35.9579609],[138.9683185,35.9579921],[138.9684259,35.9580162],[138.9684283,35.9580167],[138.9685187,35.9580092],[138.9685276,35.9580085],[138.9685603,35.9580058],[138.968556,35.9580096],[138.9684145,35.9581339]]]},"properties":{"layer":"landslide","class_code":"2","class_label":"土石流","status_code":"0","status_label":"特別警戒区域指定済み"}},{"type":"Feature","id":"lsld_8f20164e-6345-42b4-b8c5-dcf0731c5b2c","geometry":{"type":"Polygon","coordinates":[[[138.9625,35.95204115824022],[138.9626167,35.9520009],[138.962822,35.9519179],[138.9629228,35.9518904],[138.9631384,35.9518216],[138.9633745,35.9517698],[138.9635224,35.9519477],[138.9635866,35.9520248],[138.9637952,35.9522743],[138.9639662,35.9524783],[138.9637432,35.9525894],[138.9636535,35.9526189],[138.9635147,35.9526645],[138.9634581,35.9526831],[138.9633917,35.9526877],[138.9631633,35.9527035],[138.962945,35.9527076],[138.9627709,35.9527041],[138.9627198,35.9527031],[138.9626045,35.9526822],[138.9625,35.95266322686651],[138.9625,35.95204115824022]]]},"properties":{"layer":"landslide","class_code":"2","class_label":"土石流","status_code":"0","status_label":"特別警戒区域指定済み"}}]}