{"type":"FeatureCollection","properties":{"mesh_code":"53387757","source":"PLATEAU秩父市2025","layer":"landslide"},"features":[{"type":"Feature","id":"lsld_f1bbb4aa-59d5-4fb8-9bac-70ed0860cd9a","geometry":{"type":"Polygon","coordinates":[[[138.975,35.96278270805763],[138.9749254,35.9627678],[138.9746969,35.9627465],[138.9745434,35.9627526],[138.9743403,35.9627712],[138.9742684,35.9627749],[138.9741904,35.962779],[138.9740797,35.9627847],[138.9740764,35.9627606],[138.9740686,35.9627501],[138.9740658,35.9627464],[138.9740652,35.9627456],[138.9740617,35.962742],[138.9741691,35.9627197],[138.9742458,35.9627037],[138.9743067,35.9626911],[138.9744829,35.9626373],[138.9745693,35.9626118],[138.9748917,35.9625259],[138.975,35.962491054660354],[138.975,35.96278270805763]]]},"properties":{"layer":"landslide","class_code":"1","class_label":"急傾斜地の崩落","status_code":"0","status_label":"特別警戒区域指定済み"}},{"type":"Feature","id":"lsld_52094047-e9e0-4e68-bd9e-796009aa3441","geometry":{"type":"Polygon","coordinates":[[[138.964783,35.9605975],[138.9647732,35.9605814],[138.9647692,35.9605785],[138.9647621,35.960568],[138.9647569,35.9605719],[138.9647499,35.9605575],[138.9647467,35.9605434],[138.9647092,35.9605277],[138.964685,35.960499],[138.9646166,35.9604546],[138.9645692,35.9604294],[138.9645459,35.9604157],[138.9645271,35.9604057],[138.9645865,35.9603296],[138.9646129,35.9602957],[138.9646279,35.9602773],[138.964911,35.9599295],[138.9650173,35.9596557],[138.9650852,35.9592619],[138.9650794,35.9590648],[138.9650264,35.9588856],[138.9650258,35.9588835],[138.9649725,35.958793],[138.9649552,35.9587637],[138.9649321,35.9587245],[138.964896,35.9586631],[138.9649024,35.9585744],[138.9649013,35.9585614],[138.9648946,35.9584811],[138.964908,35.9584813],[138.9650679,35.9584844],[138.9654832,35.9584924],[138.9656661,35.9585383],[138.9659868,35.9586659],[138.9661104,35.9587012],[138.9662245,35.958739],[138.9663241,35.9587721],[138.9666566,35.9589126],[138.9668097,35.9589128],[138.9668635,35.9589551],[138.9669054,35.958988],[138.9669094,35.9589905],[138.966964,35.9590228],[138.966964,35.9590237],[138.9670052,35.9591248],[138.9667885,35.9592821],[138.9667226,35.95933],[138.9666979,35.9593479],[138.966683,35.9593587],[138.9666421,35.9593884],[138.9665918,35.9594249],[138.9665657,35.9594439],[138.9664174,35.9595369],[138.9663976,35.9595493],[138.966018,35.9597372],[138.965638,35.9599606],[138.9652575,35.9602293],[138.9649219,35.9604896],[138.9648631,35.9605352],[138.9648406,35.9605526],[138.964783,35.9605975]]]},"properties":{"layer":"landslide","class_code":"1","class_label":"急傾斜地の崩落","status_code":"0","status_label":"特別警戒区域指定済み"}},{"type":"Feature","id":"lsld_e2d9ddb5-b0e0-4e85-960c-19556e46c5cf","geometry":{"type":"Polygon","coordinates":[[[138.9627915,35.9585547],[138.9628015,35.9585311],[138.9627994,35.9585316],[138.9627886,35.9585152],[138.9627762,35.958489],[138.9627727,35.9584908],[138.9627617,35.9584719],[138.9627365,35.9584563],[138.9627009,35.9584383],[138.9626676,35.9584285],[138.9626668,35.9584284],[138.9626444,35.9584168],[138.9626378,35.9584201],[138.9626109,35.9584143],[138.9626682,35.9583372],[138.96267106363035,35.958333333333336],[138.96405079834878,35.958333333333336],[138.9639335,35.9583586],[138.9635102,35.9584461],[138.9634104,35.958455],[138.9631108,35.9584862],[138.9630051,35.9584997],[138.9629676,35.9585094],[138.9628972,35.9585275],[138.9627915,35.9585547]]]},"properties":{"layer":"landslide","class_code":"1","class_label":"急傾斜地の崩落","status_code":"0","status_label":"特別警戒区域指定済み"}},{"type":"Feature","id":"lsld_ccb49b16-163d-4032-97ec-4e878c3fb84b","geometry":{"type":"Polygon","coordinates":[[[138.9675893,35.960703],[138.9675655,35.9607136],[138.9675372,35.9607343],[138.9674901,35.9606527],[138.9674592,35.9605994],[138.9674232,35.9605371],[138.9672963,35.9603419],[138.967189,35.9601081],[138.9669688,35.9597025],[138.9668365,35.9595695],[138.9668347,35.9595678],[138.9668314,35.9595647],[138.9667471,35.9594862],[138.9667404,35.95948],[138.966723,35.9594637],[138.9666714,35.9594157],[138.9666421,35.9593884],[138.9664669,35.9592253],[138.9665241,35.959175],[138.9667145,35.9590078],[138.9668635,35.9589551],[138.9671226,35.9588635],[138.9674036,35.9588015],[138.9675381,35.9587741],[138.967687,35.958773],[138.9677858,35.9587722],[138.9679062,35.9587787],[138.9680889,35.9586006],[138.9680942,35.9586011],[138.9681655,35.9585569],[138.9681678,35.958554],[138.9682802,35.958523],[138.9684195,35.9584846],[138.9684153,35.9584946],[138.9683797,35.9585804],[138.9683239,35.9587145],[138.9683124,35.9587421],[138.9682798,35.9588205],[138.9682762,35.9588291],[138.9682639,35.9588587],[138.9682444,35.9589056],[138.9682427,35.9589117],[138.9681601,35.9592055],[138.9681585,35.9592147],[138.968104,35.9595113],[138.967985,35.9600942],[138.9679832,35.9600992],[138.9678834,35.960371],[138.9678134,35.9605671],[138.967797,35.9606133],[138.967774,35.9606776],[138.9677673,35.9606964],[138.9677666,35.9606982],[138.9677661,35.9606998],[138.9677447,35.9606958],[138.9677427,35.9606956],[138.9677216,35.9606913],[138.9677189,35.9606926],[138.9676898,35.9606901],[138.967672,35.960694],[138.9676604,35.9606926],[138.9676203,35.9606903],[138.9675893,35.960703]]]},"properties":{"layer":"landslide","class_code":"1","class_label":"急傾斜地の崩落","status_code":"0","status_label":"特別警戒区域指定済み"}},{"type":"Feature","id":"lsld_f767426a-fe7f-409b-9da7-5df5d61b6d01","geometry":{"type":"Polygon","coordinates":[[[138.9681919,35.9605858],[138.9680311,35.9607087],[138.9679663,35.9607582],[138.9679652,35.9607589],[138.9678791,35.9608157],[138.9678742,35.9607912],[138.9678391,35.9607518],[138.9678024,35.9607177],[138.9677666,35.9606982],[138.9677651,35.9606974],[138.967774,35.9606776],[138.9677795,35.9606653],[138.9677988,35.9606116],[138.9678226,35.9605457],[138.9679827,35.9601015],[138.9679832,35.9600992],[138.9681333,35.959346],[138.9681566,35.9592215],[138.9681585,35.9592147],[138.9682401,35.9589219],[138.968242,35.958915],[138.9682639,35.9588587],[138.9682755,35.9588289],[138.9682785,35.9588212],[138.9683088,35.9587431],[138.9683265,35.9586976],[138.9683708,35.9585836],[138.9684063,35.958492],[138.9684153,35.9584946],[138.9686186,35.9585534],[138.9686292,35.9585565],[138.9688204,35.9585957],[138.9690182,35.958592],[138.9691457,35.958623],[138.969278,35.9587286],[138.9692805,35.9587299],[138.9693766,35.9587802],[138.9696102,35.9589138],[138.9698386,35.9590315],[138.9699708,35.9591825],[138.9701015,35.9593435],[138.9702346,35.959572],[138.9702351,35.9597922],[138.9703088,35.9601067],[138.9699176,35.9602495],[138.9698105,35.9602886],[138.9698035,35.9602918],[138.9693551,35.9604999],[138.9688955,35.960679],[138.9687761,35.9607321],[138.9687084,35.9607621],[138.9686656,35.9607811],[138.9686115,35.9608059],[138.9685756,35.9607417],[138.9684912,35.9606512],[138.9684705,35.9605545],[138.968477,35.9605017],[138.9684628,35.9604851],[138.9684486,35.9604714],[138.968424,35.9604623],[138.9684085,35.9604266],[138.9681919,35.9605858]]]},"properties":{"layer":"landslide","class_code":"1","class_label":"急傾斜地の崩落","status_code":"0","status_label":"特別警戒区域指定済み"}},{"type":"Feature","id":"lsld_7555f95a-3bc1-472b-94a6-69099bc6176a","geometry":{"type":"Polygon","coordinates":[[[138.9708884,35.9588454],[138.9710234,35.9589716],[138.971145,35.959112],[138.9712376,35.959233],[138.970889,35.9596474],[138.9708998,35.9596639],[138.9708261,35.9596504],[138.9707207,35.959631],[138.9706504,35.9596181],[138.9706381,35.9596162],[138.9705043,35.9595949],[138.9704777,35.9595907],[138.9704047,35.9595629],[138.9703754,35.9595518],[138.9703043,35.9595247],[138.9705056,35.959404],[138.9705581,35.9593961],[138.9704911,35.9593499],[138.9703575,35.9592146],[138.970271,35.9591664],[138.9700386,35.9591067],[138.9699286,35.9589904],[138.9697502,35.9589149],[138.9695266,35.9587436],[138.9694203,35.9587291],[138.9692805,35.9587299],[138.9691998,35.9587303],[138.9689916,35.9586816],[138.9687851,35.9587031],[138.9686105,35.9586976],[138.9684713,35.9586945],[138.9683124,35.9587421],[138.9683088,35.9587431],[138.9682324,35.958766],[138.9682402,35.9587375],[138.9682564,35.958678],[138.9682707,35.9586257],[138.9682713,35.9586194],[138.9682802,35.958523],[138.9682807,35.9585184],[138.9683075,35.9584805],[138.968394,35.9583476],[138.9683953688846,35.958333333333336],[138.9702366803162,35.958333333333336],[138.9702559,35.9583401],[138.9704618,35.9584238],[138.9706666,35.9586042],[138.9707315,35.9587084],[138.9708884,35.9588454]]]},"properties":{"layer":"landslide","class_code":"1","class_label":"急傾斜地の崩落","status_code":"0","status_label":"特別警戒区域指定済み"}},{"type":"Feature","id":"lsld_6a950d1f-167d-4180-ba14-9fb71dac8a48","geometry":{"type":"Polygon","coordinates":[[[138.9722559,35.9598198],[138.9721862,35.9598666],[138.9720721,35.9599108],[138.9720422,35.9599372],[138.9720407,35.9599386],[138.9719938,35.95998],[138.9719518,35.9600203],[138.971918,35.9600786],[138.9718344,35.9601253],[138.971822,35.9601275],[138.97176,35.9601388],[138.971715,35.9601469],[138.9716518,35.9601584],[138.9717545,35.9600463],[138.9717138,35.9598833],[138.9716207,35.9598422],[138.9715428,35.9598079],[138.9713653,35.9598236],[138.9711676,35.9598762],[138.9710471,35.9598388],[138.9710686,35.9597504],[138.9710713,35.9597392],[138.9710805,35.9596916],[138.9710978,35.9596021],[138.9711092,35.9595684],[138.9711565,35.9595507],[138.9712068,35.9595105],[138.9713017,35.9594391],[138.9713446,35.9594049],[138.9713799,35.9593766],[138.9714098,35.9593353],[138.9714217,35.959319],[138.9714907,35.9593336],[138.9715727,35.9593772],[138.971751,35.9595102],[138.9718065,35.9595513],[138.9718457,35.9595701],[138.9719226,35.9596067],[138.9719237,35.9596073],[138.9719278,35.959608],[138.9720039,35.9596222],[138.9720442,35.9596297],[138.9721854,35.9596987],[138.9722459,35.9597282],[138.9722581,35.9597342],[138.9722926,35.9597529],[138.9722904,35.9597568],[138.9722749,35.9597852],[138.9722559,35.9598198]]]},"properties":{"layer":"landslide","class_code":"1","class_label":"急傾斜地の崩落","status_code":"0","status_label":"特別警戒区域指定済み"}},{"type":"Feature","id":"lsld_90d21ad9-aa81-43e9-9db3-6a4ce4463964","geometry":{"type":"Polygon","coordinates":[[[138.9721568,35.9602881],[138.9720966,35.9603076],[138.9720794,35.9602644],[138.9720624,35.9602218],[138.9720551,35.9602034],[138.9720428,35.960182],[138.9720395,35.9601762],[138.9720206,35.9601431],[138.9720007,35.9601084],[138.9720076,35.9599869],[138.9720407,35.9599386],[138.9720414,35.9599376],[138.9720422,35.9599372],[138.9722361,35.9598557],[138.9722971,35.9598037],[138.9723236,35.9597811],[138.9723239,35.9597815],[138.9723282,35.9597917],[138.9723287,35.9597936],[138.9723394,35.9598305],[138.97235,35.9598353],[138.9723537,35.9598352],[138.9723758,35.959835],[138.9724393,35.9598343],[138.9725412,35.9598351],[138.9725535,35.9598383],[138.9726457,35.9598626],[138.9726757,35.9598729],[138.9726752,35.9598738],[138.9726547,35.9599112],[138.9725803,35.9600473],[138.9725114,35.9601681],[138.9724984,35.9601908],[138.9724952,35.9601949],[138.9724793,35.9602153],[138.9724667,35.9602315],[138.9724359,35.960271],[138.972387,35.9602665],[138.9722605,35.9602547],[138.9721568,35.9602881]]]},"properties":{"layer":"landslide","class_code":"1","class_label":"急傾斜地の崩落","status_code":"0","status_label":"特別警戒区域指定済み"}},{"type":"Feature","id":"lsld_19bf4eea-9059-43e1-b71f-afbe955b3e03","geometry":{"type":"Polygon","coordinates":[[[138.9734151,35.9602114],[138.9734816,35.9602212],[138.9734848,35.9602217],[138.9734864,35.9602222],[138.9735283,35.9602349],[138.9735505,35.9602494],[138.9735723,35.9602926],[138.9735903,35.9603148],[138.9736068,35.9603352],[138.9736136,35.9603436],[138.9736164,35.9603458],[138.9736799,35.9603992],[138.9736845,35.960403],[138.9737629,35.9604656],[138.9738056,35.9605016],[138.973808,35.9605037],[138.9738128,35.9605102],[138.9738399,35.9605476],[138.9737892,35.9605766],[138.9735938,35.9606887],[138.9734301,35.96081],[138.9734097,35.9608283],[138.9733785,35.9608565],[138.9733377,35.9608933],[138.9733043,35.9609234],[138.9732165,35.9608046],[138.9731068,35.960739],[138.9728602,35.9606597],[138.9728949,35.9606213],[138.9729258,35.9605871],[138.9729487,35.9605617],[138.9729597,35.960551],[138.9730889,35.9604259],[138.9733237,35.960274],[138.9733954,35.9602024],[138.9734151,35.9602114]]]},"properties":{"layer":"landslide","class_code":"1","class_label":"急傾斜地の崩落","status_code":"0","status_label":"特別警戒区域指定済み"}},{"type":"Feature","id":"lsld_f3c6a783-1e86-4a06-814f-023e99d85eac","geometry":{"type":"Polygon","coordinates":[[[138.9704842,35.9619477],[138.9704826,35.9619341],[138.970476,35.9619346],[138.9704737,35.9619243],[138.9704675,35.9619197],[138.9705141,35.961838],[138.9705462,35.9617817],[138.9706971,35.9615172],[138.9707374,35.9613942],[138.9707091,35.9612109],[138.9706635,35.9610203],[138.9704639,35.9606562],[138.9704558,35.9606447],[138.9703929,35.9605557],[138.9703188,35.9604509],[138.9701797,35.9602539],[138.9706245,35.9601085],[138.9709235,35.9600956],[138.9712454,35.9601382],[138.9713824,35.9601558],[138.9712056,35.960476],[138.9711886,35.9605068],[138.9711554,35.9605669],[138.971101,35.9606654],[138.9709478,35.9609369],[138.9708176,35.9613154],[138.9707754,35.9614983],[138.9705738,35.9618095],[138.9705359,35.961868],[138.9705026,35.9619194],[138.9704842,35.9619477]]]},"properties":{"layer":"landslide","class_code":"1","class_label":"急傾斜地の崩落","status_code":"0","status_label":"特別警戒区域指定済み"}},{"type":"Feature","id":"lsld_70f85248-6b57-45b3-8c07-d9f1d485013f","geometry":{"type":"Polygon","coordinates":[[[138.971744,35.9626944],[138.9717301,35.9626943],[138.971735,35.9626604],[138.9717287,35.9626046],[138.9717213,35.9625384],[138.9716958,35.9623108],[138.9717002,35.9619092],[138.971802,35.9614341],[138.9718438,35.9610502],[138.9718278,35.9606456],[138.9718269,35.9606223],[138.9718273,35.960591],[138.9718275,35.9605724],[138.9718278,35.9605462],[138.9718288,35.9604496],[138.9718296,35.9603735],[138.9718316,35.960195],[138.971983,35.9601857],[138.9720428,35.960182],[138.9720617,35.9601808],[138.9721024,35.9601659],[138.9721678,35.9601419],[138.9722929,35.9601338],[138.9725239,35.9601189],[138.9725018,35.9601667],[138.9724793,35.9602153],[138.9724732,35.9602286],[138.9723822,35.9604254],[138.9723711,35.9604494],[138.9723289,35.9605407],[138.9722997,35.9606038],[138.9721998,35.9609],[138.972046,35.9612132],[138.9718922,35.9615352],[138.9717931,35.9617571],[138.971743,35.9619226],[138.9717388,35.9623068],[138.9717666,35.9625352],[138.9717733,35.9625908],[138.9717732,35.9626039],[138.9717722,35.962694],[138.9717591,35.9626883],[138.971744,35.9626944]]]},"properties":{"layer":"landslide","class_code":"1","class_label":"急傾斜地の崩落","status_code":"0","status_label":"特別警戒区域指定済み"}},{"type":"Feature","id":"lsld_25a805d3-ce13-499d-99d3-0f6931ba2874","geometry":{"type":"Polygon","coordinates":[[[138.9722895,35.9597563],[138.9722904,35.9597568],[138.9722749,35.9597852],[138.9722559,35.9598198],[138.9721862,35.9598666],[138.9720721,35.9599108],[138.9720422,35.9599372],[138.9720407,35.9599386],[138.9719938,35.95998],[138.9719518,35.9600203],[138.971918,35.9600786],[138.9718344,35.9601253],[138.971822,35.9601275],[138.9718953,35.9599835],[138.9717797,35.9597804],[138.9716361,35.9597152],[138.9716025,35.9597],[138.9713709,35.9596973],[138.9711994,35.9597326],[138.9710805,35.9596916],[138.9710798,35.9596913],[138.9710978,35.9596021],[138.9711092,35.9595684],[138.9711565,35.9595507],[138.9712068,35.9595105],[138.9713017,35.9594391],[138.9713446,35.9594049],[138.9713799,35.9593766],[138.9714098,35.9593353],[138.9714327,35.9593328],[138.9714493,35.9593437],[138.9715698,35.9593842],[138.9717128,35.959498],[138.9717217,35.9595049],[138.9717625,35.9595367],[138.9718061,35.9595562],[138.9718097,35.9595578],[138.9719149,35.9596048],[138.9719226,35.9596067],[138.9719278,35.959608],[138.9720236,35.9596319],[138.9722895,35.9597563]]]},"properties":{"layer":"landslide","class_code":"1","class_label":"急傾斜地の崩落","status_code":"0","status_label":"特別警戒区域指定済み"}},{"type":"Feature","id":"lsld_c2f3da15-1456-410f-8f5f-01985a0c1f14","geometry":{"type":"Polygon","coordinates":[[[138.9706344,35.9585994],[138.9707516,35.9587434],[138.9710348,35.9590065],[138.971153,35.9591412],[138.9707664,35.9595925],[138.9707207,35.959631],[138.9706504,35.9596181],[138.9706381,35.9596162],[138.9705043,35.9595949],[138.9706324,35.9595171],[138.9707046,35.9593315],[138.9706027,35.959246],[138.9704791,35.9591142],[138.9703796,35.9590546],[138.9701736,35.959001],[138.9700258,35.95886],[138.969821,35.9587756],[138.9696857,35.9586802],[138.9694771,35.9585971],[138.9692511,35.9585934],[138.9690334,35.958542],[138.9688051,35.9585599],[138.9686186,35.9585534],[138.9686022,35.9585528],[138.9684563,35.9585528],[138.9683797,35.9585804],[138.9683708,35.9585836],[138.9682713,35.9586194],[138.9682802,35.958523],[138.9682807,35.9585184],[138.9683075,35.9584805],[138.968394,35.9583476],[138.9683953688846,35.958333333333336],[138.97015892089595,35.958333333333336],[138.970184,35.9583422],[138.9703374,35.958397],[138.9706344,35.9585994]]]},"properties":{"layer":"landslide","class_code":"1","class_label":"急傾斜地の崩落","status_code":"0","status_label":"特別警戒区域指定済み"}},{"type":"Feature","id":"lsld_a82fb91f-9924-4b23-bb09-fe85aaf45203","geometry":{"type":"Polygon","coordinates":[[[138.9721024,35.9601659],[138.9720395,35.9601762],[138.9720206,35.9601431],[138.9720007,35.9601084],[138.9720076,35.9599869],[138.9720407,35.9599386],[138.9720414,35.9599376],[138.9720422,35.9599372],[138.9722361,35.9598557],[138.9722971,35.9598037],[138.9723236,35.9597811],[138.9723239,35.9597815],[138.9723292,35.959787],[138.9723306,35.9597916],[138.9723423,35.9598313],[138.9723525,35.9598328],[138.972353,35.9598329],[138.9723852,35.9598334],[138.9724393,35.9598343],[138.9725373,35.9598358],[138.9725521,35.9598399],[138.9726752,35.9598738],[138.9726547,35.9599112],[138.9725803,35.9600473],[138.9725114,35.9601681],[138.9725018,35.9601667],[138.9722897,35.9601375],[138.9722816,35.9601364],[138.9721024,35.9601659]]]},"properties":{"layer":"landslide","class_code":"1","class_label":"急傾斜地の崩落","status_code":"0","status_label":"特別警戒区域指定済み"}},{"type":"Feature","id":"lsld_ca70d8c3-bc73-4ee7-a70a-d5251229f0c5","geometry":{"type":"Polygon","coordinates":[[[138.9734133,35.9602076],[138.9734816,35.9602212],[138.9734864,35.9602222],[138.9734996,35.9602248],[138.9735431,35.9602395],[138.9735569,35.9602555],[138.9735751,35.9602919],[138.9735903,35.9603148],[138.9735952,35.9603223],[138.9736068,35.9603352],[138.9736164,35.9603458],[138.9736799,35.9603992],[138.9737169,35.9604237],[138.9737933,35.9604869],[138.9738056,35.9605016],[138.9738128,35.9605102],[138.9738181,35.9605166],[138.9738414,35.9605467],[138.9738399,35.9605476],[138.9737892,35.9605766],[138.9735938,35.9606887],[138.9734301,35.96081],[138.9734097,35.9608283],[138.9733498,35.9607352],[138.9731843,35.9606217],[138.9729597,35.960551],[138.9730889,35.9604259],[138.9733237,35.960274],[138.9733954,35.9602024],[138.9733956,35.9602022],[138.9733983,35.9601994],[138.9734133,35.9602076]]]},"properties":{"layer":"landslide","class_code":"1","class_label":"急傾斜地の崩落","status_code":"0","status_label":"特別警戒区域指定済み"}},{"type":"Feature","id":"lsld_a2d31ab1-904b-452b-a99b-ebdbc7408fca","geometry":{"type":"Polygon","coordinates":[[[138.975,35.96278270805763],[138.9749254,35.9627678],[138.9746969,35.9627465],[138.9745434,35.9627526],[138.9743403,35.9627712],[138.9742684,35.9627749],[138.9742683,35.9627333],[138.9742527,35.962712],[138.9742518,35.9627077],[138.974251,35.962707],[138.9742458,35.9627037],[138.9743067,35.9626911],[138.9744829,35.9626373],[138.9745693,35.9626118],[138.9748917,35.9625259],[138.975,35.962491054660354],[138.975,35.96278270805763]]]},"properties":{"layer":"landslide","class_code":"1","class_label":"急傾斜地の崩落","status_code":"0","status_label":"特別警戒区域指定済み"}},{"type":"Feature","id":"lsld_65c1002c-ccdd-41f8-bb1e-139eec8893fa","geometry":{"type":"Polygon","coordinates":[[[138.9649219,35.9604896],[138.9649136,35.9604758],[138.9649122,35.9604744],[138.9649017,35.9604618],[138.9648963,35.960466],[138.9648879,35.9604511],[138.9648818,35.9604357],[138.9648382,35.9604161],[138.9648075,35.9603852],[138.964729,35.960335],[138.9646729,35.9603042],[138.9646487,35.9602872],[138.9646279,35.9602773],[138.964911,35.9599295],[138.9650173,35.9596557],[138.9650852,35.9592619],[138.9650794,35.9590648],[138.9650264,35.9588856],[138.9650258,35.9588835],[138.9649725,35.958793],[138.9653,35.9588078],[138.9655011,35.9588589],[138.9657376,35.9589476],[138.9659158,35.9590108],[138.966125,35.959081],[138.9663603,35.959172],[138.9663794,35.9591794],[138.9665164,35.9591688],[138.9665241,35.959175],[138.9666052,35.9592394],[138.9666057,35.9592389],[138.9666679,35.9592779],[138.9666674,35.9592784],[138.966683,35.9593587],[138.9666421,35.9593884],[138.9665918,35.9594249],[138.9665657,35.9594439],[138.9664174,35.9595369],[138.9663976,35.9595493],[138.966018,35.9597372],[138.965638,35.9599606],[138.9652575,35.9602293],[138.9649219,35.9604896]]]},"properties":{"layer":"landslide","class_code":"1","class_label":"急傾斜地の崩落","status_code":"0","status_label":"特別警戒区域指定済み"}},{"type":"Feature","id":"lsld_cdf58df0-4cba-48b7-a795-965e7a01fcf6","geometry":{"type":"Polygon","coordinates":[[[138.96405079834878,35.958333333333336],[138.9639335,35.9583586],[138.9635102,35.9584461],[138.9634104,35.958455],[138.9631108,35.9584862],[138.9630051,35.9584997],[138.9629676,35.9585094],[138.9629746,35.9584808],[138.9629729,35.9584814],[138.9629468,35.9584494],[138.9629209,35.9584093],[138.9629174,35.958411],[138.962895,35.9583935],[138.9628111,35.9583906],[138.96282322601752,35.958333333333336],[138.96405079834878,35.958333333333336]]]},"properties":{"layer":"landslide","class_code":"1","class_label":"急傾斜地の崩落","status_code":"0","status_label":"特別警戒区域指定済み"}},{"type":"Feature","id":"lsld_4084a078-1ed5-41bd-8c39-d318e0970531","geometry":{"type":"Polygon","coordinates":[[[138.9676945,35.9606],[138.9676724,35.9605675],[138.9676621,35.9605424],[138.9675762,35.9605439],[138.9675342,35.9605585],[138.9674944,35.9605738],[138.9674592,35.9605994],[138.9674232,35.9605371],[138.9672963,35.9603419],[138.967189,35.9601081],[138.9669688,35.9597025],[138.9668365,35.9595695],[138.9668347,35.9595678],[138.9668314,35.9595647],[138.9667471,35.9594862],[138.9669221,35.9593116],[138.9671422,35.9592107],[138.9672088,35.959193],[138.9673778,35.9591482],[138.9675708,35.9591201],[138.9677829,35.9591197],[138.9678845,35.959127],[138.9680262,35.9589467],[138.9680288,35.9589468],[138.9681121,35.958906],[138.9681144,35.958903],[138.9682785,35.9588212],[138.9682798,35.9588205],[138.9682762,35.9588291],[138.9682639,35.9588587],[138.9682444,35.9589056],[138.9682427,35.9589117],[138.9681601,35.9592055],[138.9681585,35.9592147],[138.968104,35.9595113],[138.967985,35.9600942],[138.9679832,35.9600992],[138.9678834,35.960371],[138.9678134,35.9605671],[138.9677857,35.960546],[138.9677838,35.9605467],[138.9677435,35.9605546],[138.9677418,35.9605537],[138.9676945,35.9606]]]},"properties":{"layer":"landslide","class_code":"1","class_label":"急傾斜地の崩落","status_code":"0","status_label":"特別警戒区域指定済み"}},{"type":"Feature","id":"lsld_68836152-4aac-420a-b279-1ac14223cd25","geometry":{"type":"Polygon","coordinates":[[[138.9698105,35.9602886],[138.9698035,35.9602918],[138.9693551,35.9604999],[138.9688955,35.960679],[138.9687761,35.9607321],[138.9687316,35.9606505],[138.9686514,35.9605632],[138.968591,35.9604314],[138.9685727,35.960365],[138.9685514,35.9603441],[138.9685404,35.960331],[138.9685171,35.9603212],[138.9684958,35.9602822],[138.9683276,35.9604366],[138.9682724,35.9605243],[138.9681919,35.9605858],[138.9680311,35.9607087],[138.9679895,35.9606604],[138.9679263,35.9606091],[138.9678798,35.9605716],[138.9678226,35.9605457],[138.9679827,35.9601015],[138.9679832,35.9600992],[138.9681333,35.959346],[138.9681566,35.9592215],[138.9681585,35.9592147],[138.9682401,35.9589219],[138.968242,35.958915],[138.9682639,35.9588587],[138.9682755,35.9588289],[138.9682762,35.9588291],[138.9685053,35.958895],[138.9686982,35.958935],[138.968882,35.9589297],[138.9689907,35.9589574],[138.9690708,35.9590408],[138.9691946,35.9591021],[138.9693497,35.9591965],[138.9695534,35.9592973],[138.9697011,35.9594579],[138.9697927,35.9595901],[138.9699081,35.9598031],[138.9699079,35.9600215],[138.9699176,35.9602495],[138.9698105,35.9602886]]]},"properties":{"layer":"landslide","class_code":"1","class_label":"急傾斜地の崩落","status_code":"0","status_label":"特別警戒区域指定済み"}},{"type":"Feature","id":"lsld_6690df97-f5ad-4c66-860f-bc933414c845","geometry":{"type":"Polygon","coordinates":[[[138.9712056,35.960476],[138.9711886,35.9605068],[138.9711554,35.9605669],[138.971101,35.9606654],[138.9709478,35.9609369],[138.9708176,35.9613154],[138.9707754,35.9614983],[138.9705738,35.9618095],[138.9705708,35.9617971],[138.970562,35.9617978],[138.9705589,35.9617868],[138.9705462,35.9617817],[138.9706971,35.9615172],[138.9707374,35.9613942],[138.9707091,35.9612109],[138.9706635,35.9610203],[138.9704639,35.9606562],[138.9704558,35.9606447],[138.9703929,35.9605557],[138.9706475,35.9604575],[138.9708712,35.9604421],[138.9711125,35.9604711],[138.9712056,35.960476]]]},"properties":{"layer":"landslide","class_code":"1","class_label":"急傾斜地の崩落","status_code":"0","status_label":"特別警戒区域指定済み"}},{"type":"Feature","id":"lsld_28b2458e-22ef-4f68-ab72-59b985a4911b","geometry":{"type":"Polygon","coordinates":[[[138.9717344,35.9625382],[138.9717213,35.9625384],[138.9716958,35.9623108],[138.9717002,35.9619092],[138.971802,35.9614341],[138.9718438,35.9610502],[138.9718278,35.9606456],[138.9718269,35.9606223],[138.9718273,35.960591],[138.9718275,35.9605724],[138.9718278,35.9605462],[138.9718502,35.9605447],[138.9718687,35.9605434],[138.9720416,35.9605316],[138.9721169,35.9604922],[138.9723711,35.9604494],[138.9723289,35.9605407],[138.9722997,35.9606038],[138.9721998,35.9609],[138.972046,35.9612132],[138.9718922,35.9615352],[138.9717931,35.9617571],[138.971743,35.9619226],[138.9717388,35.9623068],[138.9717666,35.9625352],[138.9717487,35.9625306],[138.9717344,35.9625382]]]},"properties":{"layer":"landslide","class_code":"1","class_label":"急傾斜地の崩落","status_code":"0","status_label":"特別警戒区域指定済み"}},{"type":"Feature","id":"lsld_742a3598-1b64-47fa-b12b-0a644bbc4f7f","geometry":{"type":"Polygon","coordinates":[[[138.96511499791526,35.958333333333336],[138.9650813,35.9584079],[138.9650679,35.9584844],[138.965049,35.958592],[138.9649552,35.9587637],[138.9649545,35.958765],[138.9648289,35.958708],[138.964901,35.9585657],[138.9649013,35.9585614],[138.964908,35.9584813],[138.9649148,35.9583994],[138.96494566276522,35.958333333333336],[138.96511499791526,35.958333333333336]]]},"properties":{"layer":"landslide","class_code":"2","class_label":"土石流","status_code":"0","status_label":"特別警戒区域指定済み"}},{"type":"Feature","id":"lsld_59cdac01-1e0a-4b70-8b68-5ea72c241965","geometry":{"type":"Polygon","coordinates":[[[138.9726485,35.9598551],[138.9728154,35.9599147],[138.9729226,35.959969],[138.9730182,35.9599892],[138.9724732,35.9602286],[138.9724667,35.9602315],[138.972387,35.9602665],[138.9721932,35.9603516],[138.97196,35.9604374],[138.9718687,35.9605434],[138.9718328,35.9605851],[138.9718273,35.960591],[138.9716994,35.9607292],[138.971678,35.9607167],[138.9716574,35.9607047],[138.9716296,35.9606885],[138.9715253,35.9606277],[138.9715505,35.9604205],[138.9715756,35.9602134],[138.9716008,35.9600063],[138.9716207,35.9598422],[138.9716259,35.9597991],[138.9716361,35.9597152],[138.9716511,35.959592],[138.971653,35.9594537],[138.9717183,35.9595029],[138.9717217,35.9595049],[138.9718061,35.9595562],[138.9718076,35.9595571],[138.9718097,35.9595578],[138.9718457,35.9595701],[138.9719388,35.9596018],[138.9720039,35.9596222],[138.9720342,35.9596317],[138.9721236,35.9596761],[138.9721854,35.9596987],[138.972219,35.9597109],[138.9722459,35.9597282],[138.9722895,35.9597563],[138.9722904,35.9597568],[138.972326,35.9597798],[138.9723314,35.9597906],[138.9723525,35.9598328],[138.9723537,35.9598352],[138.9723553,35.9598384],[138.9723758,35.959835],[138.9723852,35.9598334],[138.9724393,35.9598244],[138.9725573,35.959834],[138.9725709,35.9598351],[138.9726485,35.9598551]]]},"properties":{"layer":"landslide","class_code":"2","class_label":"土石流","status_code":"0","status_label":"特別警戒区域指定済み"}},{"type":"Feature","id":"lsld_e2bd7522-e5b6-45ea-a592-37b7a46abaf0","geometry":{"type":"Polygon","coordinates":[[[138.975,35.96396475305539],[138.974824,35.9639006],[138.974581,35.9638281],[138.9745901,35.9637949],[138.974599,35.9637623],[138.9745992,35.9637616],[138.9746325,35.9636391],[138.9748138,35.963533],[138.9749455,35.9634386],[138.9749861,35.9634132],[138.975,35.96340449536489],[138.975,35.96396475305539]]]},"properties":{"layer":"landslide","class_code":"2","class_label":"土石流","status_code":"0","status_label":"特別警戒区域指定済み"}},{"type":"Feature","id":"lsld_896eeb41-9f6a-42de-baad-cf0e242104b4","geometry":{"type":"Polygon","coordinates":[[[138.975,35.965086027659574],[138.9749778,35.9650976],[138.9749138,35.9650321],[138.9748851,35.9650028],[138.9748614,35.9649785],[138.9747806,35.9648961],[138.9748099,35.9648679],[138.974936,35.9647651],[138.975,35.964715308955235],[138.975,35.965086027659574]]]},"properties":{"layer":"landslide","class_code":"2","class_label":"土石流","status_code":"0","status_label":"特別警戒区域指定済み"}},{"type":"Feature","id":"lsld_a04dd668-5616-4e5f-a4b4-db460114daa5","geometry":{"type":"Polygon","coordinates":[[[138.975,35.961144391304344],[138.974968,35.961143],[138.9748977,35.9611389],[138.9748278,35.9611027],[138.974771,35.9610629],[138.9747321,35.9610055],[138.9746888,35.9609444],[138.9746497,35.9609013],[138.9745844,35.96084],[138.9745279,35.9607824],[138.9744624,35.9607462],[138.9744736,35.9607192],[138.9745964,35.9605435],[138.9747259,35.9603622],[138.9748597,35.9601844],[138.9749897,35.9600049],[138.975,35.95999068373629],[138.975,35.961144391304344]]]},"properties":{"layer":"landslide","class_code":"2","class_label":"土石流","status_code":"0","status_label":"特別警戒区域指定済み"}},{"type":"Feature","id":"lsld_1360f7b2-5d34-410c-873a-b50dc2cb3c0f","geometry":{"type":"Polygon","coordinates":[[[138.96818748114535,35.958333333333336],[138.967687,35.958773],[138.9672088,35.959193],[138.9670433,35.9593383],[138.9668962,35.9594927],[138.9668347,35.9595678],[138.9667667,35.9596508],[138.9666958,35.959822],[138.9666555,35.9599998],[138.9665909,35.9601725],[138.9665406,35.9601613],[138.966484,35.9601488],[138.9664707,35.9601459],[138.9664016,35.9601307],[138.9663971,35.9599428],[138.9664021,35.9597572],[138.9664146,35.9595731],[138.9664174,35.9595369],[138.9664286,35.9593895],[138.9663603,35.959172],[138.9662245,35.958739],[138.9660971930228,35.958333333333336],[138.96818748114535,35.958333333333336]]]},"properties":{"layer":"landslide","class_code":"2","class_label":"土石流","status_code":"0","status_label":"特別警戒区域指定済み"}},{"type":"Feature","id":"lsld_0df2885c-9dd7-405e-a3f9-3608cfc74294","geometry":{"type":"Polygon","coordinates":[[[138.9667885,35.9592821],[138.9668524,35.9592962],[138.9667466,35.9594596],[138.9667404,35.95948],[138.9666935,35.9596347],[138.9666307,35.9598076],[138.9665766,35.9599825],[138.9665406,35.9601613],[138.966484,35.9601488],[138.9664707,35.9601459],[138.966448,35.9599541],[138.9665262,35.9597845],[138.9665943,35.9596128],[138.966657,35.9594399],[138.9666714,35.9594157],[138.9667226,35.95933],[138.9667555,35.9592748],[138.9667885,35.9592821]]]},"properties":{"layer":"landslide","class_code":"2","class_label":"土石流","status_code":"0","status_label":"特別警戒区域指定済み"}},{"type":"Feature","id":"lsld_5298a879-6939-45b2-a244-ec3a8f00d1c3","geometry":{"type":"Polygon","coordinates":[[[138.9725521,35.9598399],[138.9725198,35.9598766],[138.9723906,35.9600231],[138.9722929,35.9601338],[138.9722897,35.9601375],[138.9722614,35.9601695],[138.9721568,35.9602881],[138.9721322,35.960316],[138.9719455,35.960429],[138.9718502,35.9605447],[138.9718275,35.9605724],[138.9718221,35.9605789],[138.971678,35.9607167],[138.9716574,35.9607047],[138.9716296,35.9606885],[138.971749,35.9605362],[138.9718288,35.9604496],[138.9718819,35.960392],[138.9719577,35.9602143],[138.971983,35.9601857],[138.9720206,35.9601431],[138.9720869,35.9600678],[138.9722161,35.9599213],[138.9723287,35.9597936],[138.9723306,35.9597916],[138.9723314,35.9597906],[138.9723525,35.9598328],[138.9723537,35.9598352],[138.9723553,35.9598384],[138.9723758,35.959835],[138.9723852,35.9598334],[138.9724393,35.9598244],[138.9725573,35.959834],[138.9725535,35.9598383],[138.9725521,35.9598399]]]},"properties":{"layer":"landslide","class_code":"2","class_label":"土石流","status_code":"0","status_label":"特別警戒区域指定済み"}},{"type":"Feature","id":"lsld_b2bead50-6828-4ded-bdd5-2f79ddc864a5","geometry":{"type":"Polygon","coordinates":[[[138.9745992,35.9637616],[138.9748199,35.9637534],[138.9749871,35.9636918],[138.9749974,35.9637545],[138.9748212,35.9638017],[138.9745901,35.9637949],[138.974599,35.9637623],[138.9745992,35.9637616]]]},"properties":{"layer":"landslide","class_code":"2","class_label":"土石流","status_code":"0","status_label":"特別警戒区域指定済み"}},{"type":"Feature","id":"lsld_307df797-f828-4e72-b32b-39712c0b83bf","geometry":{"type":"Polygon","coordinates":[[[138.9748614,35.9649785],[138.9748881,35.9649479],[138.9749568,35.9650181],[138.9749138,35.9650321],[138.9748851,35.9650028],[138.9748614,35.9649785]]]},"properties":{"layer":"landslide","class_code":"2","class_label":"土石流","status_code":"0","status_label":"特別警戒区域指定済み"}}]}