{"type":"FeatureCollection","properties":{"mesh_code":"53387769","source":"PLATEAU秩父市2025","layer":"landslide"},"features":[{"type":"Feature","id":"lsld_070849ea-6f00-47e7-a5a4-dbf76003aa63","geometry":{"type":"Polygon","coordinates":[[[138.9893717,35.9670723],[138.9893306,35.9670472],[138.9893113,35.9670528],[138.9893029,35.9670493],[138.9892767,35.9670382],[138.9892475,35.9669512],[138.9892275,35.9668918],[138.989172,35.9667266],[138.98914776496514,35.96666666666667],[138.98925544579973,35.96666666666667],[138.9892672,35.9667161],[138.9893261,35.966917],[138.9893459,35.9669847],[138.9893717,35.9670723]]]},"properties":{"layer":"landslide","class_code":"1","class_label":"急傾斜地の崩落","status_code":"0","status_label":"特別警戒区域指定済み"}},{"type":"Feature","id":"lsld_e99ed534-cd66-4230-b44f-8133ef9775f7","geometry":{"type":"Polygon","coordinates":[[[138.98925544579973,35.96666666666667],[138.9892672,35.9667161],[138.9893261,35.966917],[138.989282,35.9668933],[138.9892619,35.9669014],[138.9892541,35.9669009],[138.9892275,35.9668918],[138.989172,35.9667266],[138.98914776496514,35.96666666666667],[138.98925544579973,35.96666666666667]]]},"properties":{"layer":"landslide","class_code":"1","class_label":"急傾斜地の崩落","status_code":"0","status_label":"特別警戒区域指定済み"}}]}