{"type":"FeatureCollection","properties":{"mesh_code":"53387708","source":"PLATEAU秩父市2025","layer":"landslide"},"features":[{"type":"Feature","id":"lsld_e9b08bdb-91f8-454e-9917-b7c4f3da40c4","geometry":{"type":"Polygon","coordinates":[[[138.9759892,35.9196488],[138.9759446,35.9196549],[138.9759349,35.9201345],[138.9759002,35.9203889],[138.9757965,35.9207098],[138.9758111,35.9208398],[138.9757451,35.9208959],[138.9757259,35.9208449],[138.9756223,35.9207836],[138.9755978,35.9207691],[138.9753535,35.9206575],[138.9751825,35.9205764],[138.975,35.92044762828184],[138.975,35.91785675673077],[138.9750165,35.9178508],[138.9753664,35.9177597],[138.9754279,35.9177691],[138.9754286,35.9177692],[138.9759521,35.9178496],[138.9758538,35.9179174],[138.9757432,35.9179741],[138.9756661,35.9180358],[138.9756383,35.91808],[138.9756163,35.9181151],[138.9756059,35.918176],[138.9756371,35.9183755],[138.9756435,35.9185082],[138.9757052,35.9188014],[138.9756936,35.9191463],[138.9759784,35.9195321],[138.9759895,35.9195726],[138.9760117,35.9196614],[138.975984,35.9196391],[138.9759892,35.9196488]]]},"properties":{"layer":"landslide","class_code":"1","class_label":"急傾斜地の崩落","status_code":"0","status_label":"特別警戒区域指定済み"}},{"type":"Feature","id":"lsld_120c0f8b-e159-4857-9396-ac54ac9110e2","geometry":{"type":"Polygon","coordinates":[[[138.9753738,35.9171964],[138.9753743,35.9172742],[138.9753722,35.9173008],[138.9753556,35.9175104],[138.9754071,35.9176715],[138.9754286,35.9177692],[138.9754536,35.9178827],[138.9754664,35.9179711],[138.975325,35.9181118],[138.975262,35.9181523],[138.9750856,35.9182657],[138.975,35.91827386255617],[138.975,35.91690477814844],[138.9753716,35.9168501],[138.9753738,35.9171964]]]},"properties":{"layer":"landslide","class_code":"1","class_label":"急傾斜地の崩落","status_code":"0","status_label":"特別警戒区域指定済み"}},{"type":"Feature","id":"lsld_c75cdb1d-40f8-4cdc-9fde-c9b13662e127","geometry":{"type":"Polygon","coordinates":[[[138.975765,35.9200856],[138.9757642,35.9203089],[138.9756216,35.9206653],[138.9756466,35.9207668],[138.9756223,35.9207836],[138.9755978,35.9207691],[138.9753535,35.9206575],[138.9751825,35.9205764],[138.975,35.92044762828184],[138.975,35.918235159271],[138.9751652,35.9181773],[138.975262,35.9181523],[138.9754839,35.918095],[138.9756383,35.91808],[138.9756163,35.9181151],[138.9756058,35.9181755],[138.9756059,35.918176],[138.9756371,35.9183755],[138.9756435,35.9185082],[138.9757052,35.9188014],[138.9756936,35.9191463],[138.9759626,35.9195141],[138.9759175,35.9194779],[138.9759025,35.9195148],[138.9758825,35.9195137],[138.9758619,35.9195125],[138.9758372,35.9195123],[138.975765,35.9200856]]]},"properties":{"layer":"landslide","class_code":"1","class_label":"急傾斜地の崩落","status_code":"0","status_label":"特別警戒区域指定済み"}},{"type":"Feature","id":"lsld_c820f3c4-5dd1-424e-b41f-b57910c91991","geometry":{"type":"Polygon","coordinates":[[[138.9753556,35.9175104],[138.9754071,35.9176715],[138.9754279,35.9177691],[138.9754403,35.9178271],[138.9753891,35.9178366],[138.9752186,35.9179912],[138.9750097,35.9181225],[138.975,35.918123323768846],[138.975,35.91726673964111],[138.975093,35.9172433],[138.9753738,35.9171964],[138.9753743,35.9172742],[138.9753722,35.9173008],[138.9753556,35.9175104]]]},"properties":{"layer":"landslide","class_code":"1","class_label":"急傾斜地の崩落","status_code":"0","status_label":"特別警戒区域指定済み"}}]}