{"type":"FeatureCollection","properties":{"mesh_code":"53387778","source":"PLATEAU秩父市2025","layer":"landslide"},"features":[{"type":"Feature","id":"lsld_38b8c365-a3b3-46dc-b2e5-04b3567d1bfb","geometry":{"type":"Polygon","coordinates":[[[138.9774447,35.9800004],[138.9774918,35.9800598],[138.9776773,35.9800889],[138.9779349,35.980173],[138.978137,35.9802128],[138.9782987,35.9802619],[138.9783972,35.9804188],[138.9781322,35.9806868],[138.9780499,35.98077],[138.9778606,35.9809614],[138.977756,35.9810449],[138.9776415,35.981123],[138.9775504,35.9811876],[138.9774829,35.9812428],[138.9774407,35.981286],[138.9773611,35.9813779],[138.9773108,35.981447],[138.9772778,35.9814924],[138.9772214,35.9815699],[138.9771916,35.9815525],[138.9771454,35.9815393],[138.9770891,35.981461],[138.9769635,35.9812984],[138.976897,35.9812805],[138.9768667,35.9812491],[138.9768039,35.9811875],[138.9767861,35.9811681],[138.9767418,35.9811177],[138.9766121,35.9808629],[138.9766119,35.9808624],[138.9766102,35.9808592],[138.9765938,35.980827],[138.9765771,35.9807856],[138.9765517,35.9807352],[138.976544,35.9807221],[138.9765293,35.9807003],[138.9765054,35.9806534],[138.9764448,35.9805539],[138.976528,35.9804944],[138.9765598,35.9804717],[138.9766009,35.9804423],[138.9767716,35.9803202],[138.9769329,35.9801987],[138.9770207,35.9801328],[138.9773398,35.9798926],[138.9774447,35.9800004]]]},"properties":{"layer":"landslide","class_code":"1","class_label":"急傾斜地の崩落","status_code":"0","status_label":"特別警戒区域指定済み"}},{"type":"Feature","id":"lsld_20929754-6570-4a4a-8068-d443d27429e3","geometry":{"type":"Polygon","coordinates":[[[138.9796721,35.9766158],[138.9796463,35.9766082],[138.9796196,35.9765966],[138.9795756,35.9765827],[138.9795056,35.9765991],[138.9793322,35.9765888],[138.9792963,35.97659],[138.978968,35.9764742],[138.9788949,35.9764538],[138.9786945,35.9763463],[138.9786542,35.9762732],[138.9784983,35.9760903],[138.9783431,35.9758992],[138.9782628,35.9758132],[138.9782609,35.9758149],[138.9782583,35.9758157],[138.9782283,35.9757766],[138.9781957,35.9757415],[138.9781472,35.9756892],[138.9781036,35.9756422],[138.9779387,35.9754339],[138.977927,35.9754192],[138.9778818,35.9753507],[138.9778116,35.9752443],[138.9776751,35.9750375],[138.97781337433628,35.975],[138.97827048808162,35.975],[138.9783755,35.9750652],[138.9784255,35.975106],[138.9785164,35.9751802],[138.9786743,35.9752196],[138.9788201,35.9752745],[138.9790664,35.9754221],[138.9790857,35.9754693],[138.9790929,35.97549],[138.9791053,35.9754522],[138.9794089,35.9754944],[138.9796372,35.9755122],[138.9798019,35.9755335],[138.9800199,35.9755281],[138.980331,35.9755766],[138.9801964,35.9758145],[138.9801539,35.9758897],[138.9801037,35.9759784],[138.9800999,35.9759862],[138.9800708,35.9760449],[138.9800053,35.9761255],[138.9798811,35.97622],[138.9797745,35.9763075],[138.9797212,35.9764022],[138.979701,35.9764733],[138.9796859,35.9765264],[138.9796846,35.9765308],[138.9796721,35.9766158]]]},"properties":{"layer":"landslide","class_code":"1","class_label":"急傾斜地の崩落","status_code":"0","status_label":"特別警戒区域指定済み"}},{"type":"Feature","id":"lsld_5be05a95-88c1-425e-b9c8-2cc61c06b5fe","geometry":{"type":"Polygon","coordinates":[[[138.97861629142858,35.975],[138.9785851,35.9750243],[138.978442,35.9750975],[138.9784255,35.975106],[138.9783875,35.9751254],[138.9783383,35.975146],[138.9782755,35.9751723],[138.9782398,35.9751873],[138.9782241,35.9751117],[138.9781427950709,35.975],[138.97861629142858,35.975]]]},"properties":{"layer":"landslide","class_code":"1","class_label":"急傾斜地の崩落","status_code":"0","status_label":"特別警戒区域指定済み"}},{"type":"Feature","id":"lsld_d1ede49e-3d5c-4286-83bb-5f6905f62228","geometry":{"type":"Polygon","coordinates":[[[138.9767938,35.9798165],[138.9767219,35.9799022],[138.9765862,35.9800642],[138.9765404,35.980114],[138.9764751,35.9801872],[138.9764111,35.9802681],[138.976406,35.9802769],[138.976385,35.9803135],[138.9763715,35.980337],[138.9763644,35.980328],[138.9763457,35.9803042],[138.9763411,35.9802995],[138.9763247,35.9802828],[138.9763116,35.9802692],[138.9762946,35.9802495],[138.9762824,35.9802354],[138.9762796,35.9802326],[138.9762531,35.9802071],[138.9762347,35.9801888],[138.9762094,35.9801637],[138.9761855,35.9801457],[138.9761648,35.9801301],[138.9761579,35.9801248],[138.9761332,35.980106],[138.9761183,35.9800947],[138.9760962,35.980075],[138.9760774,35.9800582],[138.9760582,35.9800422],[138.9760325,35.9800208],[138.9760187,35.9800109],[138.9759393,35.9798942],[138.9758759,35.9798693],[138.9758638,35.9798644],[138.9758563,35.9798632],[138.9758169,35.979779],[138.9757913,35.9797245],[138.9757268,35.9795868],[138.9756348,35.9794348],[138.9755803,35.9793357],[138.9755652,35.9793055],[138.9755633,35.9792896],[138.9755649,35.9792776],[138.9755787,35.9791747],[138.9756227,35.978845],[138.9756247,35.9788296],[138.9758675,35.9788763],[138.9761216,35.9789479],[138.9763823,35.9791588],[138.9765602,35.9792357],[138.9768083,35.9794451],[138.9769199,35.9795436],[138.9770341,35.9795298],[138.9767938,35.9798165]]]},"properties":{"layer":"landslide","class_code":"1","class_label":"急傾斜地の崩落","status_code":"0","status_label":"特別警戒区域指定済み"}},{"type":"Feature","id":"lsld_8a97b668-6295-4be8-93ec-97288c0a0e70","geometry":{"type":"Polygon","coordinates":[[[138.9781684,35.977692],[138.978032,35.9776561],[138.9779658,35.9776282],[138.9779639,35.9776307],[138.9778663,35.9775878],[138.9778073,35.9775619],[138.9777717,35.9775462],[138.9777348,35.9775266],[138.9776874,35.9774961],[138.9776454,35.9774678],[138.9775804,35.9774286],[138.9775373,35.9774096],[138.9775004,35.9773957],[138.977459,35.9773825],[138.9774001,35.9773634],[138.977329,35.9773445],[138.9772063,35.9773119],[138.976802,35.9772045],[138.9772523,35.9769037],[138.9775805,35.9768253],[138.9777396,35.9767811],[138.9778745,35.9771085],[138.9779157,35.9772084],[138.9779407,35.977269],[138.9779934,35.9774013],[138.9780704,35.9775577],[138.9780803,35.9775757],[138.9781041,35.9776186],[138.9781054,35.9776209],[138.9781684,35.977692]]]},"properties":{"layer":"landslide","class_code":"1","class_label":"急傾斜地の崩落","status_code":"0","status_label":"特別警戒区域指定済み"}},{"type":"Feature","id":"lsld_dd9c010f-9cf8-4d27-8c58-da143ba4dfce","geometry":{"type":"Polygon","coordinates":[[[138.97674607523808,35.975],[138.9767139,35.9750164],[138.9766202,35.9750641],[138.9766066,35.9750604],[138.9765438,35.9750295],[138.9765004611969,35.975],[138.97674607523808,35.975]]]},"properties":{"layer":"landslide","class_code":"1","class_label":"急傾斜地の崩落","status_code":"0","status_label":"特別警戒区域指定済み"}},{"type":"Feature","id":"lsld_75128a9d-5162-4475-b853-1a28f96fd6e9","geometry":{"type":"Polygon","coordinates":[[[138.97861629142858,35.975],[138.9785851,35.9750243],[138.978442,35.9750975],[138.9784211,35.9750532],[138.97838185409836,35.975],[138.97861629142858,35.975]]]},"properties":{"layer":"landslide","class_code":"1","class_label":"急傾斜地の崩落","status_code":"0","status_label":"特別警戒区域指定済み"}},{"type":"Feature","id":"lsld_ef1a0dfb-b1b6-46be-b688-6b1061180a46","geometry":{"type":"Polygon","coordinates":[[[138.9767219,35.9799022],[138.9765862,35.9800642],[138.9765404,35.980114],[138.9764751,35.9801872],[138.9764111,35.9802681],[138.976406,35.9802769],[138.9763601,35.9801986],[138.9761961,35.980025],[138.9761312,35.9799663],[138.9759951,35.9797711],[138.9758667,35.9797292],[138.9758124,35.9797266],[138.9757913,35.9797245],[138.9757268,35.9795868],[138.9756348,35.9794348],[138.9755803,35.9793357],[138.9755652,35.9793055],[138.9755633,35.9792896],[138.9755649,35.9792776],[138.9755787,35.9791747],[138.9758061,35.9792187],[138.976002,35.9792801],[138.9761835,35.9794715],[138.9763718,35.9795458],[138.9765079,35.9796925],[138.9766663,35.9798254],[138.9767938,35.9798165],[138.9767219,35.9799022]]]},"properties":{"layer":"landslide","class_code":"1","class_label":"急傾斜地の崩落","status_code":"0","status_label":"特別警戒区域指定済み"}},{"type":"Feature","id":"lsld_bb05b337-be69-4896-b2d3-d85817c20a94","geometry":{"type":"Polygon","coordinates":[[[138.9780704,35.9775577],[138.9780803,35.9775757],[138.9779197,35.9775535],[138.9778122,35.977556],[138.9778073,35.9775619],[138.9777717,35.9775462],[138.9777348,35.9775266],[138.9776874,35.9774961],[138.9776454,35.9774678],[138.9775804,35.9774286],[138.9775373,35.9774096],[138.9775004,35.9773957],[138.977459,35.9773825],[138.9774001,35.9773634],[138.977329,35.9773445],[138.9772063,35.9773119],[138.9774724,35.9772014],[138.97772,35.9771528],[138.9778745,35.9771085],[138.9779157,35.9772084],[138.9779407,35.977269],[138.9779934,35.9774013],[138.9780704,35.9775577]]]},"properties":{"layer":"landslide","class_code":"1","class_label":"急傾斜地の崩落","status_code":"0","status_label":"特別警戒区域指定済み"}},{"type":"Feature","id":"lsld_e5bbbd47-7afb-40aa-a1ef-5b703b789251","geometry":{"type":"Polygon","coordinates":[[[138.9781322,35.9806868],[138.9780499,35.98077],[138.9778606,35.9809614],[138.977756,35.9810449],[138.9776415,35.981123],[138.9775504,35.9811876],[138.9774829,35.9812428],[138.9774407,35.981286],[138.9773611,35.9813779],[138.9773108,35.981447],[138.9772761,35.9814252],[138.9772229,35.9814105],[138.9771704,35.9813374],[138.9770404,35.9811767],[138.9768716,35.9811332],[138.9766413,35.9805882],[138.9765598,35.9804717],[138.9766009,35.9804423],[138.9767716,35.9803202],[138.9769329,35.9801987],[138.9770207,35.9801328],[138.9771482,35.9802528],[138.9772915,35.9803632],[138.9774983,35.9804],[138.977722,35.9804695],[138.9778993,35.9804972],[138.9780455,35.980538],[138.9781322,35.9806868]]]},"properties":{"layer":"landslide","class_code":"1","class_label":"急傾斜地の崩落","status_code":"0","status_label":"特別警戒区域指定済み"}},{"type":"Feature","id":"lsld_76363792-e2bf-42b1-868b-b767d46519d8","geometry":{"type":"Polygon","coordinates":[[[138.97674607523808,35.975],[138.9767139,35.9750164],[138.97667361073738,35.975],[138.97674607523808,35.975]]]},"properties":{"layer":"landslide","class_code":"1","class_label":"急傾斜地の崩落","status_code":"0","status_label":"特別警戒区域指定済み"}},{"type":"Feature","id":"lsld_90c078fd-e383-4de9-86b9-caea7a9bc979","geometry":{"type":"Polygon","coordinates":[[[138.979701,35.9764733],[138.9796766,35.9764685],[138.9796523,35.9764659],[138.9795951,35.9764511],[138.979477,35.9764648],[138.9792308,35.9764976],[138.9791946,35.9765038],[138.9789189,35.9763825],[138.9788331,35.9763479],[138.9787023,35.9762097],[138.9786641,35.9761375],[138.9784699,35.9759638],[138.9783207,35.9757797],[138.9782293,35.9756762],[138.978172,35.9756779],[138.9781596,35.9756859],[138.9781472,35.9756892],[138.9781036,35.9756422],[138.9779387,35.9754339],[138.977927,35.9754192],[138.9778818,35.9753507],[138.9780079,35.9753174],[138.9781462,35.9752962],[138.9782986,35.9753912],[138.9784031,35.975526],[138.9785914,35.9755605],[138.9787934,35.9756185],[138.9789037,35.975741],[138.9790043,35.9758074],[138.9790631,35.9759682],[138.979125,35.9759339],[138.9791479,35.9757949],[138.9794015,35.9758384],[138.9796262,35.9758576],[138.9797817,35.975878],[138.9800023,35.9758718],[138.9801539,35.9758897],[138.9801037,35.9759784],[138.9800999,35.9759862],[138.9800708,35.9760449],[138.9800053,35.9761255],[138.9798811,35.97622],[138.9797745,35.9763075],[138.9797212,35.9764022],[138.979701,35.9764733]]]},"properties":{"layer":"landslide","class_code":"1","class_label":"急傾斜地の崩落","status_code":"0","status_label":"特別警戒区域指定済み"}}]}