{"type":"FeatureCollection","properties":{"mesh_code":"53387767","source":"PLATEAU秩父市2025","layer":"landslide"},"features":[{"type":"Feature","id":"lsld_2243fc3c-d78a-4dde-ac87-1c5e860edecb","geometry":{"type":"Polygon","coordinates":[[[138.9719321,35.9719851],[138.9719369,35.9719997],[138.9719881,35.9721561],[138.9720457,35.972374],[138.9719696,35.9725371],[138.9716878,35.9726567],[138.9714473,35.9728324],[138.9711767,35.9729846],[138.9712421,35.97321],[138.9711531,35.9732832],[138.9711364,35.9732948],[138.9710296,35.9733692],[138.9708261,35.9731702],[138.9707472,35.9730931],[138.9706751,35.9730227],[138.9705428,35.9728933],[138.9704304,35.9727619],[138.9703413,35.9725991],[138.9703077,35.9724441],[138.9702965,35.972134],[138.9702741,35.9720054],[138.9702716,35.9719908],[138.9702488,35.9719334],[138.9701594,35.97188],[138.9701731,35.9718748],[138.9702003,35.9718785],[138.9702063,35.9718753],[138.970211,35.9718726],[138.970219,35.971867],[138.9702241,35.9718646],[138.9702363,35.971856],[138.970255,35.9718289],[138.9702441,35.971804],[138.9702099,35.9717902],[138.9705781,35.9716662],[138.9706767,35.971618],[138.9707624,35.9715839],[138.9707775,35.9715813],[138.9708153,35.9715748],[138.970833,35.9715753],[138.9711266,35.9714952],[138.9711338,35.9714078],[138.9712447,35.9714086],[138.9713001,35.9714091],[138.9713762,35.9714097],[138.971411,35.9714099],[138.9714537,35.9714951],[138.9715429,35.9715366],[138.9716346,35.9715793],[138.9717235,35.9716206],[138.9718437,35.9716766],[138.9718608,35.9717241],[138.9718753,35.9717581],[138.9718917,35.9717967],[138.9719321,35.9719851]]]},"properties":{"layer":"landslide","class_code":"1","class_label":"急傾斜地の崩落","status_code":"0","status_label":"特別警戒区域指定済み"}},{"type":"Feature","id":"lsld_b4db891c-7773-435b-a943-3fded9595d66","geometry":{"type":"Polygon","coordinates":[[[138.9719836,35.9718008],[138.9719952,35.9718262],[138.9720431,35.9719309],[138.9719369,35.9719997],[138.9719265,35.9720064],[138.9717631,35.9721315],[138.9716644,35.972256],[138.9716475,35.9722508],[138.9715276,35.9722137],[138.9714945,35.9722034],[138.9713909,35.9721713],[138.9715351,35.9719839],[138.971544,35.9719723],[138.9717291,35.9718457],[138.9718753,35.9717581],[138.9719451,35.9717163],[138.9719836,35.9718008]]]},"properties":{"layer":"landslide","class_code":"1","class_label":"急傾斜地の崩落","status_code":"0","status_label":"特別警戒区域指定済み"}},{"type":"Feature","id":"lsld_d3494f25-1537-4ea6-ba9b-dd7ac7ece9c1","geometry":{"type":"Polygon","coordinates":[[[138.9714092,35.9723966],[138.9714399,35.9724043],[138.971561,35.9724346],[138.971567,35.9724361],[138.9715259,35.9725729],[138.9714589,35.9727125],[138.9713503,35.9726943],[138.9713232,35.9726898],[138.9712146,35.9726716],[138.9712562,35.972525],[138.9712595,35.9725143],[138.9713032,35.97237],[138.9714092,35.9723966]]]},"properties":{"layer":"landslide","class_code":"1","class_label":"急傾斜地の崩落","status_code":"0","status_label":"特別警戒区域指定済み"}},{"type":"Feature","id":"lsld_06bc37a1-4cfa-4892-88c3-e2c9a11ae8e3","geometry":{"type":"Polygon","coordinates":[[[138.9708796,35.9737551],[138.9708781,35.9737568],[138.9708663,35.9737657],[138.970598,35.9738811],[138.9703286,35.9738891],[138.9697726,35.9741487],[138.9697648,35.9741391],[138.9697284,35.9741168],[138.9696639,35.9740985],[138.9694537,35.9740779],[138.9693113,35.9740481],[138.9690864,35.9739949],[138.9686208,35.9737517],[138.9686157,35.9737523],[138.9685957,35.9737547],[138.9685665,35.973745],[138.9685326,35.9737056],[138.9685248,35.9736945],[138.9685436,35.9736899],[138.9685847,35.9736805],[138.9685972,35.9736743],[138.9686996,35.973624],[138.9687991,35.973557],[138.9688931,35.9734665],[138.9690804,35.9732956],[138.9692003,35.9731622],[138.9692781,35.9730756],[138.9693649,35.9729791],[138.9694685,35.9730141],[138.9695813,35.9730399],[138.9698339,35.9730982],[138.969929,35.973102],[138.9700344,35.9731028],[138.9702124,35.973089],[138.9702614,35.9730993],[138.9703235,35.9731129],[138.9703841,35.9731134],[138.9705617,35.97312],[138.9706548,35.9730928],[138.9706609,35.9730924],[138.9708261,35.9731702],[138.9709454,35.9732265],[138.9711364,35.9732948],[138.9712092,35.9733209],[138.9712084,35.9733697],[138.9712078,35.973411],[138.9712071,35.9734516],[138.9711925,35.9734846],[138.971186,35.9734991],[138.9711445,35.9735441],[138.9711266,35.9735555],[138.9709622,35.9736891],[138.9708796,35.9737551]]]},"properties":{"layer":"landslide","class_code":"1","class_label":"急傾斜地の崩落","status_code":"0","status_label":"特別警戒区域指定済み"}},{"type":"Feature","id":"lsld_28eb4b2f-b82a-479a-803e-608e6ce5fe63","geometry":{"type":"Polygon","coordinates":[[[138.9679279,35.9745968],[138.9680703,35.9746026],[138.9682241,35.9746095],[138.9682307,35.9746995],[138.968235,35.9747592],[138.9682389,35.9748123],[138.9682316,35.9749862],[138.96823103227848,35.975],[138.96778879224556,35.975],[138.9678164,35.9747576],[138.9678248,35.9746837],[138.9678351,35.9745939],[138.9679279,35.9745968]]]},"properties":{"layer":"landslide","class_code":"1","class_label":"急傾斜地の崩落","status_code":"0","status_label":"特別警戒区域指定済み"}},{"type":"Feature","id":"lsld_c1f6add5-fc11-4f71-b1e0-718dd7583653","geometry":{"type":"Polygon","coordinates":[[[138.9714919,35.9713923],[138.9715739,35.9713951],[138.9716265,35.9713969],[138.9716847,35.9713989],[138.9717159,35.9715269],[138.9717235,35.9716206],[138.9717319,35.9717257],[138.9715174,35.971803],[138.9714853,35.9717627],[138.9714572,35.9717273],[138.9714536,35.9717228],[138.971409,35.9716668],[138.9713488,35.9715911],[138.9713452,35.9715531],[138.9713501,35.971521],[138.9713546,35.9715019],[138.9713762,35.9714097],[138.9713811,35.9713885],[138.9714919,35.9713923]]]},"properties":{"layer":"landslide","class_code":"1","class_label":"急傾斜地の崩落","status_code":"0","status_label":"特別警戒区域指定済み"}},{"type":"Feature","id":"lsld_5d0dc068-e6a1-4672-aeae-d790033731d1","geometry":{"type":"Polygon","coordinates":[[[138.975,35.96850110993485],[138.974991,35.9685055],[138.9748786,35.9685073],[138.9748269,35.9685431],[138.9747608,35.9684707],[138.9747344,35.9684418],[138.9746683,35.9683694],[138.9747528,35.9683106],[138.9748832,35.9682306],[138.975,35.968215006080634],[138.975,35.96850110993485]]]},"properties":{"layer":"landslide","class_code":"1","class_label":"急傾斜地の崩落","status_code":"0","status_label":"特別警戒区域指定済み"}},{"type":"Feature","id":"lsld_82162575-174d-47f3-9dfe-d4c8f34fcf8d","geometry":{"type":"Polygon","coordinates":[[[138.9713546,35.9715019],[138.9714173,35.9716314],[138.9714379,35.9716793],[138.9714536,35.9717228],[138.9714674,35.9717613],[138.9715125,35.9719297],[138.9715351,35.9719839],[138.9715738,35.9720767],[138.9716475,35.9722508],[138.971561,35.9724346],[138.9713282,35.9724693],[138.9712595,35.9725143],[138.9711349,35.9725958],[138.9709289,35.9727022],[138.9709525,35.9729497],[138.9708524,35.9730228],[138.9707472,35.9730931],[138.9706751,35.9730227],[138.9705428,35.9728933],[138.9704304,35.9727619],[138.9703413,35.9725991],[138.9703077,35.9724441],[138.9702965,35.972134],[138.9702741,35.9720054],[138.9702907,35.9719965],[138.9703529,35.9719668],[138.9703552,35.971958],[138.9703618,35.9719542],[138.9703706,35.9719479],[138.9703857,35.9719358],[138.970409,35.971906],[138.9704352,35.9718486],[138.9704238,35.9717845],[138.970384,35.9717418],[138.9707453,35.9716177],[138.9708498,35.9715759],[138.971281,35.9714952],[138.9712984,35.9714951],[138.9713513,35.9714951],[138.9713546,35.9715019]]]},"properties":{"layer":"landslide","class_code":"1","class_label":"急傾斜地の崩落","status_code":"0","status_label":"特別警戒区域指定済み"}},{"type":"Feature","id":"lsld_3e2c30db-d322-4e9a-a289-308efcbe5cdb","geometry":{"type":"Polygon","coordinates":[[[138.9700408,35.9740101],[138.9700111,35.9740309],[138.9699278,35.9740721],[138.9699124,35.9740618],[138.9698211,35.9740068],[138.9697453,35.9739787],[138.969569,35.9739834],[138.9693973,35.973942],[138.9692164,35.9739538],[138.9686694,35.9737292],[138.9685972,35.9736743],[138.9686996,35.973624],[138.9687991,35.973557],[138.9688931,35.9734665],[138.9690804,35.9732956],[138.9692003,35.9731622],[138.9692781,35.9730756],[138.9694723,35.9732158],[138.969539,35.9733063],[138.9696432,35.9733685],[138.9697615,35.9733824],[138.9700309,35.9734003],[138.9700917,35.9734145],[138.9702471,35.9734515],[138.9703457,35.9734579],[138.9705096,35.9734691],[138.9706696,35.9734471],[138.970829,35.9734282],[138.9709781,35.9733809],[138.9712084,35.9733697],[138.9712078,35.973411],[138.9710132,35.973551],[138.9709274,35.9736548],[138.9706747,35.9737777],[138.9704392,35.9737919],[138.9700408,35.9740101]]]},"properties":{"layer":"landslide","class_code":"1","class_label":"急傾斜地の崩落","status_code":"0","status_label":"特別警戒区域指定済み"}},{"type":"Feature","id":"lsld_abf13f8f-027b-4b98-b7b4-eaa95cf397db","geometry":{"type":"Polygon","coordinates":[[[138.96823103227848,35.975],[138.96778879224556,35.975],[138.9678164,35.9747576],[138.9679168,35.9747538],[138.9680668,35.9747532],[138.968235,35.9747592],[138.9682389,35.9748123],[138.9682316,35.9749862],[138.96823103227848,35.975]]]},"properties":{"layer":"landslide","class_code":"1","class_label":"急傾斜地の崩落","status_code":"0","status_label":"特別警戒区域指定済み"}},{"type":"Feature","id":"lsld_ce1d23e8-225e-4c95-b9ac-13c25824ca1f","geometry":{"type":"Polygon","coordinates":[[[138.9716265,35.9713969],[138.9716351,35.9715256],[138.9716346,35.9715793],[138.9716337,35.9716819],[138.9714853,35.9717627],[138.9714572,35.9717273],[138.9715175,35.97163],[138.9715429,35.9715366],[138.9715462,35.9715242],[138.9715739,35.9713951],[138.9716265,35.9713969]]]},"properties":{"layer":"landslide","class_code":"1","class_label":"急傾斜地の崩落","status_code":"0","status_label":"特別警戒区域指定済み"}}]}