{"type":"FeatureCollection","properties":{"mesh_code":"53387739","source":"PLATEAU秩父市2025","layer":"landslide"},"features":[{"type":"Feature","id":"lsld_bc403aeb-9cb4-4a46-b23f-ea1dff549951","geometry":{"type":"Polygon","coordinates":[[[138.9955034,35.9495617],[138.9955089,35.9495979],[138.9955191,35.949665],[138.9955285,35.9497602],[138.9955355,35.9498308],[138.9954471,35.949873],[138.9953367,35.9499257],[138.995167082134,35.95],[138.9944355327869,35.95],[138.994418,35.949969],[138.9944131,35.9499603],[138.9945098,35.9499131],[138.9946972,35.949815],[138.9947484,35.9497991],[138.9949048,35.9497505],[138.9949282,35.9496575],[138.9950863,35.9495611],[138.9952786,35.949545],[138.995445,35.9494877],[138.9954586,35.949483],[138.9954897,35.9494723],[138.9955034,35.9495617]]]},"properties":{"layer":"landslide","class_code":"1","class_label":"急傾斜地の崩落","status_code":"0","status_label":"特別警戒区域指定済み"}},{"type":"Feature","id":"lsld_718ffb3d-92fd-47a9-b175-adb33922bc9a","geometry":{"type":"Polygon","coordinates":[[[138.9956476,35.9488443],[138.9961153,35.9489726],[138.9959943,35.9490744],[138.9958799,35.9491743],[138.995701,35.9493432],[138.9956483,35.9493934],[138.9956227,35.9494055],[138.9955459,35.9494418],[138.9955012,35.9494629],[138.9954586,35.949483],[138.9954501,35.949487],[138.995445,35.9494877],[138.994903,35.9495592],[138.9947934,35.94935],[138.9947495,35.9492536],[138.9949406,35.9492195],[138.9950279,35.949204],[138.9950784,35.949195],[138.9951157,35.9491475],[138.9950403,35.9491241],[138.9950061,35.9491135],[138.9950045,35.9490658],[138.995003,35.9490234],[138.9950027,35.9490142],[138.9950007,35.9489531],[138.9949996,35.948922],[138.9950597,35.948889],[138.9952105,35.9488427],[138.9955125,35.9488438],[138.9955384,35.9488287],[138.9956476,35.9488443]]]},"properties":{"layer":"landslide","class_code":"1","class_label":"急傾斜地の崩落","status_code":"0","status_label":"特別警戒区域指定済み"}},{"type":"Feature","id":"lsld_d46c1189-c26c-4574-bbbc-435351bcbaa5","geometry":{"type":"Polygon","coordinates":[[[138.9951173,35.9490354],[138.9951568,35.9490626],[138.9951653,35.9490684],[138.9952067,35.9490969],[138.9952222,35.9491076],[138.9952912,35.9491551],[138.9952774,35.9491596],[138.9952705,35.9491952],[138.9952764,35.9492373],[138.9953101,35.9492643],[138.9952413,35.9493264],[138.9952359,35.9493312],[138.995178,35.9493835],[138.9951431,35.949415],[138.9951038,35.9494504],[138.9949565,35.9493442],[138.9949406,35.9492195],[138.9949325,35.9491562],[138.9949964,35.9490151],[138.9950027,35.9490142],[138.9950488,35.9490076],[138.9950722,35.9490043],[138.9951173,35.9490354]]]},"properties":{"layer":"landslide","class_code":"1","class_label":"急傾斜地の崩落","status_code":"0","status_label":"特別警戒区域指定済み"}},{"type":"Feature","id":"lsld_e900f577-297f-46c4-a333-5a350fc27b4d","geometry":{"type":"Polygon","coordinates":[[[138.9946319,35.9492053],[138.9945216,35.949214],[138.9944296,35.9492212],[138.9944112,35.9492227],[138.9943532,35.9492272],[138.9942789,35.9492331],[138.9942198,35.9491873],[138.9942172,35.9491853],[138.9941899,35.9491864],[138.9941484,35.9491882],[138.9938879,35.9491991],[138.9939557,35.9489265],[138.9941114,35.9488165],[138.9941785,35.9488431],[138.9941911,35.9488481],[138.994192,35.9488484],[138.9942202,35.9488596],[138.9942888,35.9488868],[138.9943499,35.9489111],[138.9944282,35.9489421],[138.9945279,35.9489816],[138.9944888,35.9489898],[138.9945048,35.9490726],[138.9945519,35.9490897],[138.9946319,35.9492053]]]},"properties":{"layer":"landslide","class_code":"1","class_label":"急傾斜地の崩落","status_code":"0","status_label":"特別警戒区域指定済み"}},{"type":"Feature","id":"lsld_3df37fce-dcc2-47c4-a247-dd00acbeb7db","geometry":{"type":"Polygon","coordinates":[[[138.9944773,35.9494395],[138.994565,35.9494513],[138.9947298,35.9494734],[138.9947434,35.9494753],[138.9948527,35.94949],[138.9948734,35.9496155],[138.9947835,35.9497513],[138.9947484,35.9497991],[138.9946696,35.9499065],[138.9944825,35.9499814],[138.994418,35.949969],[138.9943747,35.9499606],[138.9943079,35.9499478],[138.9943071,35.9499476],[138.9942607,35.9499387],[138.9941863,35.9499243],[138.9941143,35.9499104],[138.9940765,35.9499032],[138.9940296,35.9498226],[138.9940052,35.9497808],[138.9939975,35.9497675],[138.9940092,35.9497519],[138.9940447,35.9497042],[138.9941217,35.9496006],[138.9941249,35.9495985],[138.9941425,35.9495866],[138.9943026,35.9494791],[138.9942653,35.949411],[138.9944773,35.9494395]]]},"properties":{"layer":"landslide","class_code":"1","class_label":"急傾斜地の崩落","status_code":"0","status_label":"特別警戒区域指定済み"}},{"type":"Feature","id":"lsld_3e8f1d48-1d2c-49b2-ae1c-0cf07e38f26a","geometry":{"type":"Polygon","coordinates":[[[138.9939623,35.9497211],[138.9940092,35.9497519],[138.9940183,35.9497579],[138.9940328,35.9497674],[138.9940377,35.9497707],[138.9941737,35.94986],[138.9941972,35.9498754],[138.9942483,35.949909],[138.9943071,35.9499476],[138.9943346,35.9499656],[138.9942806677966,35.95],[138.99376558577845,35.95],[138.9937814,35.9498469],[138.9937838,35.9496038],[138.9939623,35.9497211]]]},"properties":{"layer":"landslide","class_code":"1","class_label":"急傾斜地の崩落","status_code":"0","status_label":"特別警戒区域指定済み"}},{"type":"Feature","id":"lsld_632954ab-1d57-43de-9008-0c9c37818fdd","geometry":{"type":"Polygon","coordinates":[[[138.9940555,35.9496011],[138.9940447,35.9497042],[138.9940425,35.949725],[138.9940377,35.9497707],[138.9940327,35.9498181],[138.9940296,35.9498226],[138.9939661,35.9499123],[138.9939422,35.9499319],[138.9939057,35.9499553],[138.9938958,35.9499617],[138.99386665869565,35.95],[138.99255770265486,35.95],[138.99253,35.9499828],[138.9925264,35.9499796],[138.9924922,35.9499492],[138.9924768,35.9499019],[138.9924735,35.9498838],[138.992492,35.9495687],[138.9926999,35.9494669],[138.9927311,35.9494281],[138.9927337,35.9493472],[138.9927247,35.949317],[138.9927129,35.9490581],[138.9926531,35.9488657],[138.9926273,35.9488096],[138.9926351,35.9487794],[138.9926414,35.9487136],[138.9926445,35.9485545],[138.9929838,35.9477024],[138.9930634,35.9477651],[138.9931142,35.9478051],[138.9932152,35.9478847],[138.9935516,35.9482246],[138.9937191,35.9483664],[138.9937349,35.9483745],[138.9937704,35.9483926],[138.9938228,35.9484194],[138.9939321,35.9484754],[138.9940525,35.9485369],[138.9940531,35.9485375],[138.9941482,35.9486237],[138.9941728,35.9486459],[138.9941829,35.9486551],[138.9941769,35.9487116],[138.9941752,35.9487277],[138.9941889,35.9488273],[138.9941905,35.9488383],[138.994192,35.9488484],[138.994197,35.9488827],[138.9942058,35.9489418],[138.994228,35.9490204],[138.9942437,35.9490846],[138.9942399,35.9491381],[138.9942296,35.9491633],[138.9942198,35.9491873],[138.9942028,35.9492288],[138.9941858,35.949282],[138.9941685,35.9493568],[138.9941615,35.9494048],[138.9941708,35.9494186],[138.9941522,35.9494497],[138.9941436,35.949464],[138.9941193,35.9494561],[138.9939941,35.9494152],[138.9940555,35.9496011]]]},"properties":{"layer":"landslide","class_code":"1","class_label":"急傾斜地の崩落","status_code":"0","status_label":"特別警戒区域指定済み"}},{"type":"Feature","id":"lsld_eb1b765d-d6b0-45e8-a418-4e464ed03fff","geometry":{"type":"Polygon","coordinates":[[[138.9950323,35.9482777],[138.9948269,35.9482085],[138.994702,35.9482336],[138.9946987,35.9482294],[138.994671,35.9481473],[138.9946539,35.9480966],[138.9946535,35.9480952],[138.9946509,35.9480875],[138.9946397,35.9480545],[138.9946253,35.9480118],[138.9946242,35.9480083],[138.9946875,35.9479721],[138.9947263,35.9479499],[138.9948083,35.9479592],[138.9948309,35.9478553],[138.9947819,35.9478298],[138.99465,35.9477613],[138.9945863,35.9477315],[138.9946177,35.9475348],[138.9946302,35.9474781],[138.9946515,35.9473814],[138.9946676,35.9473087],[138.99476,35.9472769],[138.9947642,35.9471586],[138.9947772,35.9471276],[138.9948166,35.9470339],[138.9948339,35.9469927],[138.9948501,35.9469043],[138.9948666,35.9468145],[138.9948704,35.9467937],[138.9948846,35.946766],[138.9949357,35.9466657],[138.9953724,35.9466743],[138.9954898,35.9466766],[138.9961299,35.9466893],[138.9963171,35.9467383],[138.9965623,35.9468449],[138.9967892,35.9470182],[138.9970856,35.9472826],[138.9974001,35.9474898],[138.9977857,35.9476404],[138.9979485,35.947775],[138.9980951,35.9479485],[138.9981443,35.9480067],[138.9981513,35.9480149],[138.9981803,35.948039],[138.9982291,35.9480632],[138.9982104,35.9480693],[138.9981975,35.9480744],[138.9981706,35.9480803],[138.9981343,35.9480897],[138.9980605,35.9481074],[138.9980413,35.9481157],[138.9980276,35.9481204],[138.9979498,35.9481476],[138.9978806,35.9481535],[138.9978622,35.9481483],[138.99531,35.9481691],[138.9950323,35.9482777]]]},"properties":{"layer":"landslide","class_code":"1","class_label":"急傾斜地の崩落","status_code":"0","status_label":"特別警戒区域指定済み"}},{"type":"Feature","id":"lsld_0e81b7bc-b7d1-4ed6-87be-00c26eb4ccb6","geometry":{"type":"Polygon","coordinates":[[[138.9927348,35.9458303],[138.9928113,35.9458479],[138.9930809,35.9459101],[138.9932683,35.9460061],[138.9935473,35.946178],[138.993835,35.9464032],[138.9940449,35.9465143],[138.9942815,35.9466066],[138.9944715,35.9466568],[138.9944889,35.9466614],[138.9946422,35.9467019],[138.9947602,35.9467331],[138.9947933,35.9467418],[138.9948131,35.9467471],[138.9948846,35.946766],[138.9948987,35.9467697],[138.9948994,35.9467708],[138.9950249,35.9469553],[138.9950488,35.9470552],[138.9950545,35.9470705],[138.9950215,35.9470773],[138.9950121,35.9470792],[138.9948481,35.947113],[138.9947772,35.9471276],[138.9947368,35.947136],[138.9946667,35.9472775],[138.9946287,35.9473799],[138.9946284,35.9473807],[138.9946205,35.9474021],[138.9945902,35.9474837],[138.9945893,35.947486],[138.9945571,35.9475728],[138.9945373,35.9475611],[138.9944408,35.9475046],[138.9942005,35.9473638],[138.9941075,35.9473093],[138.9938138,35.9471372],[138.9932014,35.9467013],[138.9929547,35.9464627],[138.9927052,35.9461588],[138.9926313,35.9459996],[138.9925992,35.9459306],[138.99256,35.9458463],[138.992568,35.9458451],[138.9925823,35.9458441],[138.9925909,35.9458407],[138.9926095,35.9458329],[138.9926281,35.9458057],[138.9927348,35.9458303]]]},"properties":{"layer":"landslide","class_code":"1","class_label":"急傾斜地の崩落","status_code":"0","status_label":"特別警戒区域指定済み"}},{"type":"Feature","id":"lsld_d7917669-2221-4c2d-a0dc-6cd02b5c41b3","geometry":{"type":"Polygon","coordinates":[[[138.9943855,35.9470006],[138.9944468,35.9470053],[138.9944821,35.947008],[138.9945016,35.9470095],[138.994551,35.9470134],[138.9946465,35.9470208],[138.9946689,35.9470225],[138.9948166,35.9470339],[138.9948489,35.9470364],[138.9948481,35.947113],[138.9948475,35.9471595],[138.9947915,35.9472465],[138.9946817,35.9473823],[138.9946515,35.9473814],[138.9946288,35.9473807],[138.9946284,35.9473807],[138.9946189,35.9473804],[138.9945993,35.9473798],[138.9945709,35.9473789],[138.9945377,35.9473778],[138.9944269,35.9473744],[138.9943511,35.9472662],[138.9942883,35.9471397],[138.9942845,35.9470964],[138.9942751,35.946992],[138.9943855,35.9470006]]]},"properties":{"layer":"landslide","class_code":"1","class_label":"急傾斜地の崩落","status_code":"0","status_label":"特別警戒区域指定済み"}},{"type":"Feature","id":"lsld_ea16359d-06d0-4e74-9d7f-af598d450795","geometry":{"type":"Polygon","coordinates":[[[138.9948386,35.9477445],[138.9947819,35.9478298],[138.9946875,35.9479721],[138.9946511,35.9480268],[138.9946253,35.9480118],[138.994365,35.9478604],[138.9943512,35.9478524],[138.9943059,35.947826],[138.9942004,35.9477646],[138.9940547,35.9476799],[138.9938558,35.9476261],[138.9937061,35.9476113],[138.9936423,35.947605],[138.9935323,35.9475941],[138.9935339,35.9475682],[138.993534,35.947555],[138.9936448,35.9475563],[138.9937288,35.9475573],[138.9939592,35.94756],[138.9941059,35.9475515],[138.9942983,35.9475245],[138.994415,35.9475082],[138.9944408,35.9475046],[138.9945902,35.9474837],[138.994591,35.9474835],[138.9946287,35.9474783],[138.9946302,35.9474781],[138.9948445,35.947448],[138.9948386,35.9477445]]]},"properties":{"layer":"landslide","class_code":"1","class_label":"急傾斜地の崩落","status_code":"0","status_label":"特別警戒区域指定済み"}},{"type":"Feature","id":"lsld_dd528919-6960-45e5-8c61-cd638da3d984","geometry":{"type":"Polygon","coordinates":[[[138.9954471,35.949873],[138.9953335,35.949903],[138.995152,35.9499969],[138.9951469232941,35.95],[138.99465885736606,35.95],[138.9947608,35.9499441],[138.9949604,35.9498821],[138.9949801,35.9497862],[138.9951071,35.9496984],[138.9952994,35.949669],[138.9955089,35.9495979],[138.9955191,35.949665],[138.9955285,35.9497602],[138.9955355,35.9498308],[138.9954471,35.949873]]]},"properties":{"layer":"landslide","class_code":"1","class_label":"急傾斜地の崩落","status_code":"0","status_label":"特別警戒区域指定済み"}},{"type":"Feature","id":"lsld_3cff014b-3687-48a5-9f89-381d00f908f1","geometry":{"type":"Polygon","coordinates":[[[138.9958608,35.9491463],[138.9957569,35.949251],[138.9955459,35.9494418],[138.9955012,35.9494629],[138.9952982,35.9494165],[138.9952413,35.9493264],[138.9952064,35.9492712],[138.9951624,35.94918],[138.9952222,35.9491076],[138.9952452,35.9490797],[138.9951653,35.9490684],[138.9951526,35.9490666],[138.9951319,35.9490637],[138.9950614,35.9490649],[138.9950045,35.9490658],[138.995003,35.9490234],[138.9950488,35.9490076],[138.9951494,35.948973],[138.9954901,35.9488569],[138.9959673,35.9490366],[138.9958608,35.9491463]]]},"properties":{"layer":"landslide","class_code":"1","class_label":"急傾斜地の崩落","status_code":"0","status_label":"特別警戒区域指定済み"}},{"type":"Feature","id":"lsld_4eb6eac7-591e-43f4-a691-d7d8dd10290c","geometry":{"type":"Polygon","coordinates":[[[138.9951568,35.9490626],[138.9951526,35.9490666],[138.9951333,35.9490855],[138.9951157,35.9491475],[138.9951075,35.9491764],[138.9951166,35.9492908],[138.995178,35.9493835],[138.9951431,35.949415],[138.9950365,35.9493175],[138.9950279,35.949204],[138.9950251,35.9491669],[138.9950403,35.9491241],[138.9950614,35.9490649],[138.9950663,35.949051],[138.9951173,35.9490354],[138.9951568,35.9490626]]]},"properties":{"layer":"landslide","class_code":"1","class_label":"急傾斜地の崩落","status_code":"0","status_label":"特別警戒区域指定済み"}},{"type":"Feature","id":"lsld_534a3474-6adb-41df-830b-9fd7171a4196","geometry":{"type":"Polygon","coordinates":[[[138.9942888,35.9488868],[138.9943499,35.9489111],[138.9943153,35.9489692],[138.9943147,35.9491116],[138.9943601,35.9491445],[138.9944296,35.9492212],[138.9944112,35.9492227],[138.9943532,35.9492272],[138.9942877,35.9491652],[138.9942296,35.9491633],[138.9941967,35.9491622],[138.9941607,35.949161],[138.9940852,35.9491586],[138.9941321,35.9489474],[138.9941876,35.9488922],[138.9941952,35.9488846],[138.994197,35.9488827],[138.9942202,35.9488596],[138.9942888,35.9488868]]]},"properties":{"layer":"landslide","class_code":"1","class_label":"急傾斜地の崩落","status_code":"0","status_label":"特別警戒区域指定済み"}},{"type":"Feature","id":"lsld_cb51f631-4e78-4017-a2ef-0411870eeb25","geometry":{"type":"Polygon","coordinates":[[[138.994565,35.9494513],[138.9947298,35.9494734],[138.9946888,35.9495714],[138.9945854,35.9497062],[138.9944658,35.9498643],[138.9943079,35.9499478],[138.9943071,35.9499476],[138.9942607,35.9499387],[138.9941863,35.9499243],[138.9941972,35.9498754],[138.9942115,35.9498118],[138.9943339,35.9496489],[138.9944815,35.9495218],[138.9944773,35.9494395],[138.994565,35.9494513]]]},"properties":{"layer":"landslide","class_code":"1","class_label":"急傾斜地の崩落","status_code":"0","status_label":"特別警戒区域指定済み"}},{"type":"Feature","id":"lsld_cdd5e5d2-1e57-4607-a74b-7babaf9faf1d","geometry":{"type":"Polygon","coordinates":[[[138.9940092,35.9497519],[138.9940183,35.9497579],[138.9940328,35.9497674],[138.9940377,35.9497707],[138.9941737,35.94986],[138.9941143,35.9499104],[138.9940618,35.949955],[138.99398982193338,35.95],[138.99385087044777,35.95],[138.9939088,35.949896],[138.9939623,35.9497211],[138.9940092,35.9497519]]]},"properties":{"layer":"landslide","class_code":"1","class_label":"急傾斜地の崩落","status_code":"0","status_label":"特別警戒区域指定済み"}},{"type":"Feature","id":"lsld_95ce0689-9df8-40d2-9d08-da6d43ad738f","geometry":{"type":"Polygon","coordinates":[[[138.9936123,35.9492965],[138.9936263,35.9493313],[138.9936737,35.9494489],[138.9936806,35.9496254],[138.9935777,35.9497717],[138.9935257,35.9499011],[138.9935254085462,35.95],[138.99259765689354,35.95],[138.9926294,35.9499594],[138.9926094,35.9496868],[138.9928336,35.9495609],[138.9928907,35.9494807],[138.9929125,35.9493551],[138.9929025,35.9492918],[138.9928884,35.9490927],[138.9928374,35.9489144],[138.9928173,35.9488494],[138.9928265,35.9488057],[138.9928331,35.9487234],[138.9928384,35.9485489],[138.9931142,35.9478051],[138.9932152,35.9478847],[138.9935516,35.9482246],[138.9937191,35.9483664],[138.9937349,35.9483745],[138.9937704,35.9483926],[138.9938228,35.9484194],[138.9939321,35.9484754],[138.9938106,35.9485859],[138.9938475,35.9487371],[138.993868,35.9489265],[138.9938603,35.9491351],[138.993769,35.9492869],[138.993656,35.9492797],[138.9936216,35.9492775],[138.9936042,35.9492764],[138.9936123,35.9492965]]]},"properties":{"layer":"landslide","class_code":"1","class_label":"急傾斜地の崩落","status_code":"0","status_label":"特別警戒区域指定済み"}},{"type":"Feature","id":"lsld_68d4e069-c236-4233-be4d-c3e02322fe9e","geometry":{"type":"Polygon","coordinates":[[[138.9949452,35.9481592],[138.994776,35.9480777],[138.9946587,35.9480945],[138.9946535,35.9480952],[138.9946509,35.9480875],[138.9946397,35.9480545],[138.9947519,35.9480158],[138.9947837,35.9480267],[138.9947916,35.9480294],[138.9948765,35.9480588],[138.9950129,35.9479745],[138.9950597,35.9478464],[138.9950421,35.9477976],[138.9950121,35.9477142],[138.9950428,35.9475626],[138.9950617,35.9474806],[138.9950724,35.9474345],[138.9950816,35.947395],[138.9950836,35.947386],[138.9951875,35.9472805],[138.9951935,35.9471273],[138.9952652,35.9469758],[138.9953041,35.946806],[138.9953724,35.9466743],[138.9954898,35.9466766],[138.9961299,35.9466893],[138.9963171,35.9467383],[138.9965623,35.9468449],[138.9967892,35.9470182],[138.9970856,35.9472826],[138.9974001,35.9474898],[138.9977857,35.9476404],[138.9979485,35.947775],[138.9980951,35.9479485],[138.9980765,35.9479584],[138.9980637,35.9479653],[138.9980361,35.9479765],[138.9980014,35.9479936],[138.9979149,35.9480259],[138.997895,35.9480363],[138.9978774,35.9480449],[138.997781,35.9481228],[138.995179,35.9480833],[138.9949452,35.9481592]]]},"properties":{"layer":"landslide","class_code":"1","class_label":"急傾斜地の崩落","status_code":"0","status_label":"特別警戒区域指定済み"}},{"type":"Feature","id":"lsld_0c3bfa3d-1123-484d-8563-54d7b587556a","geometry":{"type":"Polygon","coordinates":[[[138.9942845,35.9470964],[138.9942456,35.9471786],[138.9942005,35.9473638],[138.9941075,35.9473093],[138.9938138,35.9471372],[138.9932014,35.9467013],[138.9929547,35.9464627],[138.9927052,35.9461588],[138.9926313,35.9459996],[138.9926411,35.945996],[138.9926823,35.9459863],[138.9926913,35.9459786],[138.9927472,35.9459387],[138.9928113,35.9458479],[138.9930809,35.9459101],[138.9932683,35.9460061],[138.9935473,35.946178],[138.993835,35.9464032],[138.9940449,35.9465143],[138.9942815,35.9466066],[138.9944715,35.9466568],[138.9944889,35.9466614],[138.9946422,35.9467019],[138.9947602,35.9467331],[138.9946434,35.9468776],[138.9946689,35.9470225],[138.9946693,35.9470248],[138.9946467,35.9470244],[138.9945075,35.9470216],[138.9944894,35.9470213],[138.9944483,35.9470204],[138.9943215,35.9470179],[138.9942845,35.9470964]]]},"properties":{"layer":"landslide","class_code":"1","class_label":"急傾斜地の崩落","status_code":"0","status_label":"特別警戒区域指定済み"}},{"type":"Feature","id":"lsld_c83d1e75-5586-45a9-919a-476b7735d664","geometry":{"type":"Polygon","coordinates":[[[138.9944821,35.947008],[138.9945016,35.9470095],[138.994551,35.9470134],[138.9946465,35.9470208],[138.9946467,35.9470244],[138.9946539,35.9471526],[138.9946394,35.9472533],[138.9946193,35.9473166],[138.9946152,35.9473298],[138.9945993,35.9473798],[138.9945709,35.9473789],[138.9945112,35.947259],[138.9944608,35.9471458],[138.9944483,35.9470204],[138.9944468,35.9470053],[138.9944821,35.947008]]]},"properties":{"layer":"landslide","class_code":"1","class_label":"急傾斜地の崩落","status_code":"0","status_label":"特別警戒区域指定済み"}},{"type":"Feature","id":"lsld_42a25c0a-d8e7-4047-9b3c-5082cbc2cc5c","geometry":{"type":"Polygon","coordinates":[[[138.9944223,35.9476595],[138.9943059,35.947826],[138.9942004,35.9477646],[138.9940547,35.9476799],[138.9938558,35.9476261],[138.9937061,35.9476113],[138.9937202,35.9475682],[138.9937288,35.9475573],[138.9939592,35.94756],[138.9941059,35.9475515],[138.9942983,35.9475245],[138.994415,35.9475082],[138.9944223,35.9476595]]]},"properties":{"layer":"landslide","class_code":"1","class_label":"急傾斜地の崩落","status_code":"0","status_label":"特別警戒区域指定済み"}},{"type":"Feature","id":"lsld_6b9df3ab-ee4a-4f98-a5cc-2c988404c8d6","geometry":{"type":"Polygon","coordinates":[[[138.9952261,35.9455622],[138.9953681,35.9456231],[138.9955119,35.9456848],[138.9955193,35.9456879],[138.995421,35.9458923],[138.9952969,35.9460247],[138.9951248,35.9461458],[138.9949876,35.9462669],[138.9948741,35.9464194],[138.9948156,35.9465551],[138.9947907,35.9467189],[138.9948131,35.9467471],[138.9948666,35.9468145],[138.9949295,35.9468938],[138.9950127,35.9470303],[138.9950215,35.9470773],[138.9950463,35.9472087],[138.9950816,35.947395],[138.9950908,35.9474438],[138.9950768,35.9476239],[138.9950421,35.9477976],[138.9950403,35.9478066],[138.9947916,35.9480294],[138.9947837,35.9480365],[138.9946587,35.9480945],[138.9946539,35.9480966],[138.9945305,35.9481539],[138.9944168,35.9482816],[138.9942976,35.9484522],[138.9942255,35.9485602],[138.9941728,35.9486459],[138.9941704,35.9486497],[138.9941769,35.9487116],[138.9941889,35.9488273],[138.9941911,35.9488481],[138.9941944,35.9488798],[138.9941952,35.9488846],[138.9942248,35.949061],[138.9941967,35.9491622],[138.9941899,35.9491864],[138.9941642,35.9492789],[138.9941522,35.9494497],[138.9941447,35.9495565],[138.9941425,35.9495866],[138.9941369,35.9496673],[138.9940537,35.9497181],[138.9940425,35.949725],[138.9940341,35.9497301],[138.9940183,35.9497579],[138.9940052,35.9497808],[138.9939057,35.9499553],[138.99388026401672,35.95],[138.99335339105082,35.95],[138.993363,35.9499873],[138.9934329,35.9498096],[138.9934333,35.9498086],[138.9934333,35.9498079],[138.9934312,35.9496874],[138.9935059,35.9495115],[138.9936123,35.9492965],[138.9936216,35.9492775],[138.9936415,35.9492374],[138.9936317,35.9491788],[138.9936927,35.9490467],[138.9937127,35.9488669],[138.993669,35.9487438],[138.9936324,35.9485093],[138.9937349,35.9483745],[138.9938131,35.9482715],[138.9940024,35.9481354],[138.9941631,35.9480094],[138.994351,35.9478531],[138.9943512,35.9478524],[138.9943724,35.9477948],[138.9943788,35.9477767],[138.9945002,35.9476147],[138.9945373,35.9475611],[138.9945893,35.947486],[138.994591,35.9474835],[138.994623,35.9474374],[138.9946205,35.9474021],[138.9946189,35.9473804],[138.9946152,35.9473298],[138.9946117,35.9472831],[138.9945386,35.9471104],[138.9944894,35.9470213],[138.9944821,35.947008],[138.9944302,35.9469138],[138.9944765,35.9467315],[138.9944715,35.9466568],[138.9944624,35.9465229],[138.9946436,35.9463225],[138.9947573,35.9461686],[138.9948107,35.94596],[138.9948887,35.9457833],[138.9950577,35.9456418],[138.9952098,35.9455551],[138.9952261,35.9455622]]]},"properties":{"layer":"landslide","class_code":"2","class_label":"土石流","status_code":"0","status_label":"特別警戒区域指定済み"}},{"type":"Feature","id":"lsld_37b955a1-3490-4527-a56e-5331bb2c2e14","geometry":{"type":"Polygon","coordinates":[[[138.99208063514075,35.95],[138.99177181308016,35.95],[138.9918055,35.9499791],[138.9919021,35.9499192],[138.99208063514075,35.95]]]},"properties":{"layer":"landslide","class_code":"2","class_label":"土石流","status_code":"0","status_label":"特別警戒区域指定済み"}},{"type":"Feature","id":"lsld_469f03a1-3129-448f-b1b5-fc353dc450f6","geometry":{"type":"Polygon","coordinates":[[[138.99177181308016,35.95],[138.9918055,35.9499791],[138.99182207159762,35.95],[138.99177181308016,35.95]]]},"properties":{"layer":"landslide","class_code":"2","class_label":"土石流","status_code":"0","status_label":"特別警戒区域指定済み"}},{"type":"Feature","id":"lsld_66e22205-5c62-4d2e-a18f-7ac2e1c30c22","geometry":{"type":"Polygon","coordinates":[[[138.9953681,35.9456231],[138.9955119,35.9456848],[138.99539,35.945871],[138.9952673,35.9460072],[138.9950982,35.9461301],[138.9949745,35.9462613],[138.9948618,35.9464168],[138.9947965,35.9465534],[138.9947862,35.9467191],[138.9947933,35.9467418],[138.9948418,35.9468973],[138.9948501,35.9469043],[138.9950015,35.9470322],[138.9950121,35.9470792],[138.9950415,35.9472096],[138.9950724,35.9474345],[138.9950736,35.9474436],[138.9950617,35.9474806],[138.9950161,35.9476229],[138.9949761,35.9478026],[138.9947837,35.9480267],[138.9947802,35.9480307],[138.9946509,35.9480875],[138.9945253,35.9481427],[138.9943643,35.9482253],[138.9941793,35.9483252],[138.994177,35.9485262],[138.9941482,35.9486237],[138.9941388,35.9486556],[138.9941785,35.9488431],[138.9941862,35.9488796],[138.9941876,35.9488922],[138.994206,35.9490605],[138.9941607,35.949161],[138.9941484,35.9491882],[138.994112,35.9492691],[138.9941193,35.9494561],[138.9941249,35.9495985],[138.9941272,35.9496584],[138.9940537,35.9497181],[138.9940425,35.949725],[138.9940341,35.9497301],[138.9940183,35.9497579],[138.9940052,35.9497808],[138.9939057,35.9499553],[138.99388026401672,35.95],[138.99336104383008,35.95],[138.9933688,35.9499896],[138.9934329,35.9498096],[138.9934333,35.9498086],[138.9934333,35.9498079],[138.9934366,35.9496875],[138.9935218,35.9495126],[138.9936263,35.9493313],[138.993656,35.9492797],[138.9936674,35.9492599],[138.993662,35.9491845],[138.9937124,35.9490473],[138.9937305,35.9488674],[138.9937191,35.9487344],[138.9936944,35.9485123],[138.9937704,35.9483926],[138.9938368,35.948288],[138.9940063,35.9481396],[138.9941717,35.9480187],[138.9943591,35.9478666],[138.994365,35.9478604],[138.9946012,35.9476163],[138.9946287,35.9474783],[138.9946371,35.9474366],[138.9946288,35.9473807],[138.9946287,35.9473799],[138.9946193,35.9473166],[138.9946143,35.9472827],[138.9945505,35.9471094],[138.9945075,35.9470216],[138.9945016,35.9470095],[138.9944542,35.9469129],[138.9944913,35.9467309],[138.9944889,35.9466614],[138.9944841,35.9465249],[138.994658,35.9463298],[138.9947616,35.9461704],[138.9948263,35.9459692],[138.9949039,35.9457922],[138.995077,35.9456551],[138.9952261,35.9455622],[138.9953681,35.9456231]]]},"properties":{"layer":"landslide","class_code":"2","class_label":"土石流","status_code":"0","status_label":"特別警戒区域指定済み"}}]}