{"type":"FeatureCollection","properties":{"mesh_code":"53397055","source":"PLATEAU秩父市2025","layer":"landslide"},"features":[{"type":"Feature","id":"lsld_87e51500-3c68-4c78-804d-80ed77ae8899","geometry":{"type":"Polygon","coordinates":[[[139.0668829,35.9665825],[139.0670587,35.9666131],[139.067055486,35.96666666666667],[139.06378325062408,35.96666666666667],[139.063779,35.9666574],[139.063771,35.9666399],[139.0637021,35.9663499],[139.0636799,35.9660468],[139.0639545,35.9660598],[139.0641245,35.9660679],[139.0642333,35.9660731],[139.0645622,35.9660886],[139.0650646,35.9661515],[139.0650922,35.9661549],[139.0653606,35.9662636],[139.0654078,35.9662828],[139.0654618,35.9663001],[139.0654501,35.9663337],[139.065448,35.9663575],[139.0654599,35.9663955],[139.0655109,35.9664319],[139.0655499,35.9664399],[139.0655753,35.9664411],[139.0656084,35.9664435],[139.0656625,35.9664361],[139.0657699,35.966441],[139.0659384,35.9664553],[139.0663045,35.9664347],[139.0665032,35.9665045],[139.0666664,35.9665442],[139.0667401,35.966562],[139.0667876,35.966558],[139.0667992,35.9665645],[139.066812,35.9665633],[139.0668829,35.9665825]]]},"properties":{"layer":"landslide","class_code":"1","class_label":"急傾斜地の崩落","status_code":"0","status_label":"特別警戒区域指定済み"}},{"type":"Feature","id":"lsld_0a624bb3-5806-44c6-bc7f-06512e7e70b5","geometry":{"type":"Polygon","coordinates":[[[139.06425786545563,35.96666666666667],[139.0641943,35.9665277],[139.0641443,35.9663073],[139.0641245,35.9660679],[139.0642333,35.9660731],[139.0645622,35.9660886],[139.0650646,35.9661515],[139.0650931,35.9662874],[139.0651238,35.9663507],[139.0651789,35.9664347],[139.0653015,35.9665299],[139.0653855,35.9665329],[139.0654178,35.966544],[139.0654532,35.9665452],[139.0655176,35.9665416],[139.0656494,35.9665616],[139.0658462,35.9665878],[139.0661977,35.9665666],[139.0664442,35.96666],[139.06647067368422,35.96666666666667],[139.06425786545563,35.96666666666667]]]},"properties":{"layer":"landslide","class_code":"1","class_label":"急傾斜地の崩落","status_code":"0","status_label":"特別警戒区域指定済み"}},{"type":"Feature","id":"lsld_52dfd438-517d-40c9-bd79-8e3c0ae87112","geometry":{"type":"Polygon","coordinates":[[[139.0695833,35.965666],[139.0694243,35.9656828],[139.0692997,35.965694],[139.0691675,35.9657229],[139.0690427,35.9657519],[139.0688886,35.9657747],[139.0687878,35.9658062],[139.068712,35.9658451],[139.0686163,35.9658921],[139.0684839,35.9659508],[139.0682927,35.9660211],[139.0684847,35.9658334],[139.0686301,35.9656621],[139.0687755,35.9654908],[139.068921,35.9653195],[139.0690664,35.9651481],[139.0691973,35.9649939],[139.0692053,35.9649763],[139.0692801,35.9649813],[139.0693569,35.9649863],[139.0693573,35.9649863],[139.0695166,35.9649967],[139.0695276,35.9650155],[139.0696265,35.9651848],[139.0697363,35.9653729],[139.0698461,35.9655609],[139.0698788,35.9656619],[139.0697094,35.9656573],[139.0695833,35.965666]]]},"properties":{"layer":"landslide","class_code":"2","class_label":"土石流","status_code":"0","status_label":"特別警戒区域指定済み"}},{"type":"Feature","id":"lsld_13d8717b-1d8b-4b9a-b8cc-5223b33ba789","geometry":{"type":"Polygon","coordinates":[[[139.0642141,35.9655776],[139.0647162,35.9648091],[139.0649328,35.9644777],[139.0654153,35.9644725],[139.0655463,35.9646515],[139.0656772,35.9648304],[139.0658082,35.9650092],[139.0659391,35.9651881],[139.06607,35.965367],[139.0660372,35.9653805],[139.0659903,35.9653874],[139.0659286,35.9654013],[139.0658611,35.9654151],[139.0657673,35.9654169],[139.0656208,35.9654136],[139.0655095,35.9654105],[139.065366,35.9654024],[139.065281,35.9653995],[139.0652264,35.9654034],[139.0652195,35.9654039],[139.0650728,35.9654196],[139.0649934,35.9654477],[139.064914,35.9654829],[139.0647932,35.9655455],[139.0646934,35.9655696],[139.0646121,35.9655691],[139.0646084,35.9655691],[139.0645563,35.9655656],[139.0645293,35.9655638],[139.0642141,35.9655776]]]},"properties":{"layer":"landslide","class_code":"2","class_label":"土石流","status_code":"0","status_label":"特別警戒区域指定済み"}},{"type":"Feature","id":"lsld_db2e27b2-0771-438e-9afa-2ed4edbc57c0","geometry":{"type":"Polygon","coordinates":[[[139.0637878,35.9666228],[139.063779,35.9666574],[139.06377667076552,35.96666666666667],[139.0632280483092,35.96666666666667],[139.0631542,35.9666504],[139.0629983,35.9666244],[139.0629252,35.9666072],[139.0629669,35.9666164],[139.0628697,35.9665854],[139.0628025,35.9665659],[139.0627647,35.9665395],[139.0627678,35.9665204],[139.0628234,35.9665232],[139.0628966,35.9665284],[139.0629963,35.9665291],[139.0631135,35.9665274],[139.0631985,35.9665232],[139.0632749,35.9665046],[139.0633132,35.9664835],[139.0633427,35.9664622],[139.063378,35.9664122],[139.0633911,35.9662323],[139.0633699,35.966062],[139.0633389,35.9658831],[139.0633435,35.9657786],[139.0633646,35.9657144],[139.0634125,35.9656377],[139.0635599,35.9655007],[139.0637747,35.9653371],[139.0638258,35.9652933],[139.0638878,35.9652461],[139.0639546,35.9652175],[139.0640843,35.9652259],[139.0642085,35.9652191],[139.0643043,35.9651987],[139.0643621,35.9651706],[139.0644986,35.9649775],[139.0646416,35.9648048],[139.0647162,35.9648091],[139.0648896,35.9648192],[139.0652264,35.9654034],[139.0652369,35.9654215],[139.0651328,35.9654342],[139.0649343,35.9655045],[139.0647667,35.965559],[139.0646669,35.9655751],[139.0646121,35.9655691],[139.0645733,35.9655649],[139.0645563,35.9655656],[139.0645234,35.965567],[139.0644585,35.965619],[139.0643962,35.9656996],[139.0643215,35.965842],[139.0641035,35.9657969],[139.0639694,35.9660284],[139.0639545,35.9660598],[139.0638663,35.9662464],[139.0638263,35.9664265],[139.0637878,35.9666228]]]},"properties":{"layer":"landslide","class_code":"2","class_label":"土石流","status_code":"0","status_label":"特別警戒区域指定済み"}},{"type":"Feature","id":"lsld_eedbe603-f7ba-46b1-9d61-3c787e279657","geometry":{"type":"Polygon","coordinates":[[[139.0693569,35.9649863],[139.0693573,35.9649863],[139.0693737,35.9650054],[139.0692706,35.9649987],[139.0692801,35.9649813],[139.0693197,35.9649763],[139.0693569,35.9649863]]]},"properties":{"layer":"landslide","class_code":"2","class_label":"土石流","status_code":"0","status_label":"特別警戒区域指定済み"}}]}