{"type":"FeatureCollection","properties":{"mesh_code":"53397074","source":"PLATEAU秩父市2025","layer":"landslide"},"features":[{"type":"Feature","id":"lsld_11efce65-874f-4e48-a8e1-64721fdf12b5","geometry":{"type":"Polygon","coordinates":[[[139.0608739,35.9795506],[139.0609287,35.9795892],[139.0609851,35.9796295],[139.0610434,35.9796703],[139.0610759,35.979691],[139.0611067,35.9797108],[139.0611574,35.9797431],[139.0612302,35.9797896],[139.0613126,35.9798328],[139.0614247,35.9798923],[139.0615055,35.9799466],[139.061536,35.9799672],[139.0615913,35.9799958],[139.0616727,35.9800381],[139.0616988,35.9800519],[139.0617912,35.9800869],[139.0618578,35.9801116],[139.0619741,35.980156],[139.0621271,35.9802005],[139.0622364,35.9802324],[139.062284,35.9803129],[139.0625,35.98036598558353],[139.0625,35.98100092894899],[139.0623478,35.980997],[139.0620589,35.9809738],[139.0618707,35.9808573],[139.0617637,35.9806736],[139.0616259,35.9805919],[139.0614922,35.9804579],[139.0613662,35.9803766],[139.0612778,35.9802243],[139.0610719,35.9801622],[139.0608495,35.9800219],[139.0606556,35.9799423],[139.0604601,35.9798604],[139.0605245,35.979787],[139.0605636,35.9797424],[139.0605866,35.9797161],[139.0607157,35.9795802],[139.0608021,35.9794999],[139.0608739,35.9795506]]]},"properties":{"layer":"landslide","class_code":"1","class_label":"急傾斜地の崩落","status_code":"0","status_label":"特別警戒区域指定済み"}},{"type":"Feature","id":"lsld_4039a7a4-5e10-4f81-81ba-386b216d36dc","geometry":{"type":"Polygon","coordinates":[[[139.0619172,35.9822435],[139.0617657,35.9824763],[139.0617202,35.9825203],[139.0612413,35.9827329],[139.061179,35.982696],[139.0610706,35.9826033],[139.0610488,35.9825847],[139.0609429,35.9824922],[139.0608098,35.9823561],[139.0606751,35.9822374],[139.0605922,35.9821601],[139.0604001,35.9819815],[139.0603168,35.9819114],[139.0602335,35.9818427],[139.0601638,35.9817864],[139.0600669,35.9817125],[139.0600653,35.9817113],[139.0599183,35.9816011],[139.0597898,35.9814367],[139.0597871,35.9814332],[139.0597302,35.9813606],[139.0600551,35.980963],[139.0601143,35.9809657],[139.0601261,35.9809655],[139.0601658,35.9809648],[139.0601971,35.9809642],[139.0602322,35.9809611],[139.0603424,35.9809514],[139.0604049,35.9810383],[139.0604687,35.9812157],[139.0605403,35.9814076],[139.0605912,35.9815951],[139.0606265,35.9816808],[139.0607031,35.9816895],[139.0607726,35.9817771],[139.0607637,35.9818134],[139.0609632,35.9819341],[139.0611195,35.9820018],[139.0612931,35.9820783],[139.061385,35.9821003],[139.0615823,35.9819827],[139.0616809,35.9820116],[139.0618561,35.9819195],[139.0619744,35.9818552],[139.0620287,35.9819337],[139.062047,35.9819602],[139.0620567,35.9819794],[139.0620628,35.9819925],[139.0620671,35.9820049],[139.062068,35.9820077],[139.0620699,35.9820258],[139.0620687,35.982033],[139.0620668,35.9820443],[139.0620562,35.9820646],[139.0620376,35.9820886],[139.0619172,35.9822435]]]},"properties":{"layer":"landslide","class_code":"1","class_label":"急傾斜地の崩落","status_code":"0","status_label":"特別警戒区域指定済み"}},{"type":"Feature","id":"lsld_838273c7-13c3-4213-ac23-0d739d388580","geometry":{"type":"Polygon","coordinates":[[[139.055604,35.9825987],[139.055677,35.9826333],[139.0554495,35.9828426],[139.0552795,35.9829111],[139.0551944,35.9829453],[139.0551681,35.9829559],[139.0550987,35.9829816],[139.0550375,35.9830043],[139.0550119,35.9830138],[139.0549366,35.9830418],[139.0549017,35.9829377],[139.0548695,35.9828587],[139.0548396,35.9827925],[139.0547563,35.9826597],[139.0547246,35.9826206],[139.0546875,35.9825747],[139.0546467,35.9825244],[139.0545826,35.9824456],[139.0544377,35.9825518],[139.0540986,35.9826214],[139.0540055,35.9823299],[139.0539929,35.9822906],[139.0540798,35.9821396],[139.0541788,35.981951],[139.0542401,35.9817658],[139.0542796,35.981603],[139.0542992,35.9815804],[139.0542963,35.9815489],[139.0542958,35.9815334],[139.0542927,35.9814712],[139.0542923,35.981455],[139.0542922,35.9814516],[139.0542921,35.9814467],[139.0543997,35.9814252],[139.0544673,35.9814116],[139.0545566,35.9813937],[139.054869,35.9813254],[139.055167,35.9812476],[139.0551696,35.9812467],[139.0552892,35.9812069],[139.0553211,35.9811963],[139.0553408,35.98122],[139.0553903,35.9812907],[139.0555084,35.9814139],[139.055516,35.9814218],[139.0555324,35.9814389],[139.0555854,35.9814981],[139.0556315,35.9815496],[139.0556772,35.9815952],[139.0557022,35.9816201],[139.0557363,35.9816541],[139.0557628,35.9816964],[139.0557759,35.9817175],[139.0557895,35.9817393],[139.0558017,35.98175],[139.0557562,35.9819774],[139.055733,35.982093],[139.0557358,35.9821176],[139.0557374,35.9821319],[139.0557474,35.9822213],[139.0557703,35.982425],[139.055604,35.9825987]]]},"properties":{"layer":"landslide","class_code":"1","class_label":"急傾斜地の崩落","status_code":"0","status_label":"特別警戒区域指定済み"}},{"type":"Feature","id":"lsld_163bd0e6-4ac0-45e2-8a39-6bd78e6a304d","geometry":{"type":"Polygon","coordinates":[[[139.0556505,35.9819547],[139.0557562,35.9819774],[139.0558584,35.9819993],[139.0557497,35.9821184],[139.0557374,35.9821319],[139.055694,35.9821794],[139.0556357,35.9822432],[139.0556277,35.982252],[139.0555831,35.9823009],[139.055517,35.9823733],[139.0554466,35.9823137],[139.0554122,35.9822847],[139.0553661,35.9822458],[139.0553594,35.9821483],[139.0554234,35.9820748],[139.055455,35.9820385],[139.0554728,35.9820181],[139.0554754,35.9820151],[139.0555116,35.9819736],[139.055573,35.9819031],[139.0556505,35.9819547]]]},"properties":{"layer":"landslide","class_code":"1","class_label":"急傾斜地の崩落","status_code":"0","status_label":"特別警戒区域指定済み"}},{"type":"Feature","id":"lsld_4d190197-d665-4b02-a4ed-0946f46bb31b","geometry":{"type":"Polygon","coordinates":[[[139.0532167,35.9818482],[139.0532138,35.9819059],[139.0532118,35.9819445],[139.0531523,35.9820524],[139.053136,35.982082],[139.0530516,35.9822022],[139.0529697,35.9822107],[139.052919,35.9822159],[139.052858,35.9822222],[139.0527778,35.9822009],[139.0527619,35.9821966],[139.0527501,35.9821935],[139.0527494,35.9821933],[139.052738,35.9821903],[139.0527176,35.9821852],[139.0526114,35.9821591],[139.0525633,35.9819521],[139.0525936,35.9818893],[139.0526667,35.9817494],[139.0528081,35.9815538],[139.0529567,35.9814838],[139.0531075,35.9814246],[139.0531806,35.9813474],[139.0532178,35.9812538],[139.0532627,35.9810601],[139.0533463,35.9809584],[139.0537064,35.9809479],[139.0537993,35.9809971],[139.0538454,35.9810216],[139.0538739,35.9810367],[139.0539317,35.9810673],[139.0540242,35.9811163],[139.0541263,35.9813518],[139.054035,35.9813615],[139.0539758,35.9813979],[139.0539346,35.9814232],[139.0538869,35.9815518],[139.0538716,35.9815933],[139.0538327,35.9816988],[139.0538081,35.9817655],[139.0537904,35.9818137],[139.0536509,35.9817956],[139.0535683,35.9817849],[139.0534463,35.9817691],[139.0533031,35.9817505],[139.0532696,35.9817462],[139.0532167,35.9818482]]]},"properties":{"layer":"landslide","class_code":"1","class_label":"急傾斜地の崩落","status_code":"0","status_label":"特別警戒区域指定済み"}},{"type":"Feature","id":"lsld_af978df2-980a-4d81-9012-844b2cd0f0f3","geometry":{"type":"Polygon","coordinates":[[[139.0534299,35.9817974],[139.0535344,35.9818254],[139.053548,35.981829],[139.0536205,35.9818484],[139.0536492,35.9818561],[139.0536693,35.9818615],[139.0537258,35.9818766],[139.0536815,35.981977],[139.0536566,35.9820336],[139.0534526,35.9821897],[139.0534347,35.9822277],[139.0534821,35.982359],[139.0533711,35.9823729],[139.0532978,35.982382],[139.0532397,35.9823892],[139.0531546,35.9823998],[139.053045,35.9824135],[139.0530889,35.9822055],[139.0531085,35.9821644],[139.0531625,35.9820514],[139.0531774,35.982043],[139.0533412,35.9819507],[139.0533586,35.9819409],[139.0534239,35.9818077],[139.0534291,35.9817971],[139.0534299,35.9817974]]]},"properties":{"layer":"landslide","class_code":"1","class_label":"急傾斜地の崩落","status_code":"0","status_label":"特別警戒区域指定済み"}},{"type":"Feature","id":"lsld_8620554e-0608-4f99-b79e-abd26bd35e9e","geometry":{"type":"Polygon","coordinates":[[[139.0537644,35.9816983],[139.053807,35.9816986],[139.0538179,35.9816987],[139.0538327,35.9816988],[139.0538652,35.9816991],[139.0539569,35.9816999],[139.0540364,35.9818273],[139.0540523,35.9820053],[139.0540925,35.9821112],[139.0540337,35.9821277],[139.0539824,35.982142],[139.0539792,35.9821429],[139.053943,35.982153],[139.0539156,35.9821608],[139.053811,35.9821907],[139.0537429,35.9821085],[139.0536815,35.981977],[139.0536484,35.9819061],[139.0536479,35.981905],[139.0536492,35.9818561],[139.0536509,35.9817956],[139.0536536,35.9816973],[139.0537644,35.9816983]]]},"properties":{"layer":"landslide","class_code":"1","class_label":"急傾斜地の崩落","status_code":"0","status_label":"特別警戒区域指定済み"}},{"type":"Feature","id":"lsld_6365804b-2fe5-477f-92a6-ecea307c6965","geometry":{"type":"Polygon","coordinates":[[[139.0532318,35.9816656],[139.0532653,35.9816735],[139.0533419,35.9816918],[139.053399,35.9817053],[139.053473,35.981723],[139.0535846,35.9817495],[139.0535683,35.9817849],[139.053548,35.981829],[139.0535105,35.9819107],[139.0534352,35.982021],[139.0531912,35.9821071],[139.0531085,35.9821644],[139.0530458,35.9822079],[139.0529702,35.9823394],[139.0528956,35.9823357],[139.0528553,35.9823337],[139.0528536,35.9823336],[139.0528109,35.9823315],[139.0527002,35.982326],[139.0527619,35.9821966],[139.0528064,35.9821034],[139.0529386,35.9820213],[139.0529504,35.9820141],[139.0530262,35.981915],[139.0530577,35.9818229],[139.0531246,35.9817075],[139.0531588,35.9816482],[139.0532318,35.9816656]]]},"properties":{"layer":"landslide","class_code":"1","class_label":"急傾斜地の崩落","status_code":"0","status_label":"特別警戒区域指定済み"}},{"type":"Feature","id":"lsld_cbeb1e04-e489-41e7-b5ad-265da0d63006","geometry":{"type":"Polygon","coordinates":[[[139.0539758,35.9813979],[139.0539952,35.9814013],[139.0540875,35.9814169],[139.0541323,35.9814245],[139.0541974,35.9814356],[139.0542922,35.9814516],[139.0542936,35.9814519],[139.0542923,35.981455],[139.0542719,35.981502],[139.0542911,35.9815583],[139.0542687,35.9816052],[139.0541,35.9815786],[139.0540899,35.981577],[139.0539936,35.9815652],[139.0539909,35.9815649],[139.0538869,35.9815518],[139.0538813,35.9815511],[139.0538784,35.9815089],[139.0538883,35.981462],[139.0538867,35.9813828],[139.0539758,35.9813979]]]},"properties":{"layer":"landslide","class_code":"1","class_label":"急傾斜地の崩落","status_code":"0","status_label":"特別警戒区域指定済み"}},{"type":"Feature","id":"lsld_c1bacf3f-6e5a-4ef3-a744-e8b7f9debf2f","geometry":{"type":"Polygon","coordinates":[[[139.0536918,35.9812374],[139.0537335,35.9812789],[139.0537894,35.9813346],[139.0538715,35.9814162],[139.0538313,35.9814355],[139.0538351,35.9814509],[139.0537269,35.9814765],[139.0536402,35.981497],[139.0535511,35.9815181],[139.0535338,35.9815222],[139.053511,35.981391],[139.0536634,35.9812091],[139.0536918,35.9812374]]]},"properties":{"layer":"landslide","class_code":"1","class_label":"急傾斜地の崩落","status_code":"0","status_label":"特別警戒区域指定済み"}},{"type":"Feature","id":"lsld_750e30a1-f21c-46be-82f9-c9af835f7e7c","geometry":{"type":"Polygon","coordinates":[[[139.0567733,35.9777445],[139.0565426,35.9778458],[139.0563952,35.977919],[139.0563438,35.9779528],[139.0562545,35.9780117],[139.0562418,35.9780201],[139.0562392,35.9780217],[139.0560182,35.9781263],[139.055967,35.9781862],[139.0558658,35.97825],[139.0558656,35.9782499],[139.0554237,35.9780021],[139.0552542,35.977907],[139.0552126,35.9778369],[139.0552093,35.977829],[139.0551688,35.9777312],[139.0550434,35.977774],[139.054928,35.9778134],[139.0547159,35.9778461],[139.0546404,35.9778578],[139.0544411,35.9777931],[139.0542321,35.9777354],[139.0542285,35.9777233],[139.0542225,35.9777032],[139.0542166,35.9776838],[139.0542034,35.9776396],[139.0542015,35.9776332],[139.0541812,35.9775656],[139.0541549,35.977478],[139.0544235,35.9774718],[139.0545982,35.9774765],[139.0548445,35.9774537],[139.0548919,35.977436],[139.0550633,35.977372],[139.0553532,35.9773552],[139.0555352,35.9774758],[139.0555902,35.9775697],[139.0557788,35.9775217],[139.0559278,35.9774003],[139.0561152,35.9773395],[139.0562442,35.9773339],[139.0562481,35.9772226],[139.0563589,35.9772205],[139.0564232,35.9772192],[139.0564694,35.9772184],[139.0565827,35.977226],[139.0567277,35.9772326],[139.0568915,35.9772462],[139.056999,35.9772613],[139.0570437,35.9772675],[139.0571266,35.9772824],[139.0570421,35.9774783],[139.0569944,35.977516],[139.0569855,35.9775531],[139.0569834,35.9776146],[139.0568468,35.9776942],[139.0567733,35.9777445]]]},"properties":{"layer":"landslide","class_code":"1","class_label":"急傾斜地の崩落","status_code":"0","status_label":"特別警戒区域指定済み"}},{"type":"Feature","id":"lsld_986ee1c6-432b-48db-b8cc-a5dce4012516","geometry":{"type":"Polygon","coordinates":[[[139.0551303,35.9783127],[139.0553096,35.9783416],[139.0555093,35.9783706],[139.0555173,35.9783714],[139.0556666,35.9783855],[139.0557004,35.9783893],[139.0557045,35.9783898],[139.0556172,35.9785291],[139.055558,35.9786299],[139.0555303,35.9786449],[139.0554838,35.9786698],[139.0554091,35.9787707],[139.055392,35.9788045],[139.055341,35.9789049],[139.0553218,35.9789605],[139.0548431,35.9788254],[139.0548041,35.9788144],[139.0547749,35.9788062],[139.054782,35.9787511],[139.0547832,35.9787415],[139.0548774,35.9786286],[139.0549663,35.9784136],[139.0549662,35.978323],[139.0550765,35.9783132],[139.0551134,35.97831],[139.0551303,35.9783127]]]},"properties":{"layer":"landslide","class_code":"1","class_label":"急傾斜地の崩落","status_code":"0","status_label":"特別警戒区域指定済み"}},{"type":"Feature","id":"lsld_0a855af4-93ae-4a87-baed-685a0d741adb","geometry":{"type":"Polygon","coordinates":[[[139.0625,35.980863238458014],[139.0623412,35.9808534],[139.06211,35.9808338],[139.062006,35.9807665],[139.0619217,35.9806098],[139.0617609,35.9804914],[139.0616167,35.9803624],[139.0614721,35.9802723],[139.0613554,35.980118],[139.0611484,35.9800472],[139.0609353,35.9799119],[139.060737,35.9798218],[139.0605636,35.9797424],[139.0605866,35.9797161],[139.0607157,35.9795802],[139.0608021,35.9794999],[139.0608739,35.9795506],[139.0609287,35.9795892],[139.0609851,35.9796295],[139.0610434,35.9796703],[139.0610759,35.979691],[139.0611067,35.9797108],[139.0611574,35.9797431],[139.0612302,35.9797896],[139.0613126,35.9798328],[139.0614247,35.9798923],[139.0615055,35.9799466],[139.061536,35.9799672],[139.0615913,35.9799958],[139.0616727,35.9800381],[139.0616988,35.9800519],[139.0617912,35.9800869],[139.0618578,35.9801116],[139.0619741,35.980156],[139.0621271,35.9802005],[139.0621566,35.9805109],[139.0622034,35.9805594],[139.0622433,35.9805917],[139.0624107,35.9805464],[139.0625,35.9805518759434],[139.0625,35.980863238458014]]]},"properties":{"layer":"landslide","class_code":"1","class_label":"急傾斜地の崩落","status_code":"0","status_label":"特別警戒区域指定済み"}},{"type":"Feature","id":"lsld_8a8bf940-fa2a-4f44-bda7-71403c8db1b8","geometry":{"type":"Polygon","coordinates":[[[139.0618618,35.9823027],[139.0618205,35.9823153],[139.0611706,35.9826531],[139.0610706,35.9826033],[139.0610488,35.9825847],[139.0609429,35.9824922],[139.0608098,35.9823561],[139.0606751,35.9822374],[139.0605922,35.9821601],[139.0604001,35.9819815],[139.0603168,35.9819114],[139.0602335,35.9818427],[139.0601638,35.9817864],[139.0600669,35.9817125],[139.0600582,35.9816976],[139.0599093,35.9815582],[139.0597898,35.9814367],[139.0597871,35.9814332],[139.0601261,35.9809655],[139.0601658,35.9809648],[139.0602407,35.9811192],[139.0603115,35.981286],[139.0603945,35.9814706],[139.0604658,35.9816682],[139.060508,35.9817527],[139.0605765,35.9817603],[139.0606415,35.9818384],[139.0606353,35.9818708],[139.0608669,35.9820294],[139.0610439,35.9821169],[139.0612025,35.9821944],[139.0613758,35.982252],[139.0616982,35.9821221],[139.0617854,35.9821419],[139.0619619,35.9820554],[139.0620671,35.9820049],[139.062068,35.9820077],[139.0620699,35.9820258],[139.0620687,35.982033],[139.0619825,35.9821459],[139.0618618,35.9823027]]]},"properties":{"layer":"landslide","class_code":"1","class_label":"急傾斜地の崩落","status_code":"0","status_label":"特別警戒区域指定済み"}},{"type":"Feature","id":"lsld_6bdfbabe-6f3d-4d68-878e-12dff34bee92","geometry":{"type":"Polygon","coordinates":[[[139.0555046,35.9821041],[139.0557358,35.9821176],[139.0557497,35.9821184],[139.0557374,35.9821319],[139.055694,35.9821794],[139.0556357,35.9822432],[139.0556277,35.982252],[139.0556178,35.9822468],[139.0554516,35.9821583],[139.055453,35.9821108],[139.055455,35.9820385],[139.0554728,35.9820181],[139.0554754,35.9820151],[139.0555116,35.9819736],[139.0555046,35.9821041]]]},"properties":{"layer":"landslide","class_code":"1","class_label":"急傾斜地の崩落","status_code":"0","status_label":"特別警戒区域指定済み"}},{"type":"Feature","id":"lsld_62205b41-a395-4022-9fbf-edec9c7c033e","geometry":{"type":"Polygon","coordinates":[[[139.0531246,35.9817075],[139.0530799,35.9817571],[139.0530223,35.9818739],[139.0529424,35.9820147],[139.0529386,35.9820213],[139.0528629,35.9821555],[139.0527778,35.9822009],[139.0527619,35.9821966],[139.0527501,35.9821935],[139.0527494,35.9821933],[139.0526714,35.9821014],[139.0526675,35.9821003],[139.0526589,35.9820867],[139.0527518,35.9819465],[139.0528281,35.9818055],[139.0529394,35.9816529],[139.0530614,35.9815883],[139.053246,35.981519],[139.0533224,35.9814085],[139.0533666,35.9812984],[139.0534208,35.9811103],[139.0535222,35.9810055],[139.0538454,35.9810216],[139.0538739,35.9810367],[139.0539317,35.9810673],[139.0538292,35.9811666],[139.0537026,35.981223],[139.0536918,35.9812374],[139.0536063,35.9813512],[139.0535588,35.981489],[139.0535511,35.9815181],[139.0535113,35.9816677],[139.0532318,35.9816656],[139.0531626,35.9816651],[139.0531246,35.9817075]]]},"properties":{"layer":"landslide","class_code":"1","class_label":"急傾斜地の崩落","status_code":"0","status_label":"特別警戒区域指定済み"}},{"type":"Feature","id":"lsld_5484fa95-c721-4d50-8da0-2bd9a621d0aa","geometry":{"type":"Polygon","coordinates":[[[139.0541974,35.9814356],[139.0541806,35.9814933],[139.054112,35.9814868],[139.0541086,35.9814864],[139.0540765,35.9814832],[139.0540875,35.9814169],[139.0541323,35.9814245],[139.0541974,35.9814356]]]},"properties":{"layer":"landslide","class_code":"1","class_label":"急傾斜地の崩落","status_code":"0","status_label":"特別警戒区域指定済み"}},{"type":"Feature","id":"lsld_c1be9bd7-5bd4-4f03-b917-fb4c82c0eb48","geometry":{"type":"Polygon","coordinates":[[[139.0567733,35.9777445],[139.0565426,35.9778458],[139.0563952,35.977919],[139.0563438,35.9779528],[139.0562545,35.9780117],[139.0562418,35.9780201],[139.0562392,35.9780217],[139.0560705,35.9781001],[139.0560182,35.9781263],[139.055967,35.9781862],[139.055963,35.9781832],[139.0556417,35.9779426],[139.0555978,35.9779098],[139.0553776,35.9777449],[139.0552669,35.9776508],[139.0551583,35.9776166],[139.0549012,35.9776978],[139.0548452,35.9777071],[139.0547837,35.9777173],[139.0546277,35.9777431],[139.0544364,35.9777073],[139.0542882,35.9776914],[139.0542166,35.9776838],[139.0542034,35.9776396],[139.0542015,35.9776332],[139.0544313,35.9776151],[139.054614,35.9776196],[139.0548384,35.9775919],[139.0548755,35.9775873],[139.0551413,35.9774981],[139.0553149,35.9774865],[139.0554861,35.9776024],[139.0556534,35.9776991],[139.0558367,35.9776473],[139.0560217,35.9775132],[139.0562157,35.9774468],[139.0564081,35.9773682],[139.0564232,35.9772192],[139.0564694,35.9772184],[139.0565827,35.977226],[139.0567277,35.9772326],[139.0568915,35.9772462],[139.056999,35.9772613],[139.0570437,35.9772675],[139.0571266,35.9772824],[139.0570421,35.9774783],[139.0569944,35.977516],[139.0569855,35.9775531],[139.0569834,35.9776146],[139.0568468,35.9776942],[139.0567733,35.9777445]]]},"properties":{"layer":"landslide","class_code":"1","class_label":"急傾斜地の崩落","status_code":"0","status_label":"特別警戒区域指定済み"}},{"type":"Feature","id":"lsld_665f4455-9b2b-492c-b6a7-505a495c92ec","geometry":{"type":"Polygon","coordinates":[[[139.0553096,35.9783416],[139.0555093,35.9783706],[139.0555173,35.9783714],[139.0556666,35.9783855],[139.0557004,35.9783893],[139.0557045,35.9783898],[139.0556172,35.9785291],[139.055558,35.9786299],[139.0555303,35.9786449],[139.0554838,35.9786698],[139.0554091,35.9787707],[139.055392,35.9788045],[139.055341,35.9789049],[139.0553218,35.9789605],[139.0548431,35.9788254],[139.0550144,35.9786745],[139.0551045,35.9784692],[139.0551303,35.9783127],[139.0553096,35.9783416]]]},"properties":{"layer":"landslide","class_code":"1","class_label":"急傾斜地の崩落","status_code":"0","status_label":"特別警戒区域指定済み"}},{"type":"Feature","id":"lsld_94766887-17b2-49dd-a638-6d62bd1fd3b6","geometry":{"type":"Polygon","coordinates":[[[139.0554048,35.9823165],[139.0554035,35.9823356],[139.0553858,35.9825866],[139.0553008,35.9827079],[139.0553606,35.9827603],[139.0552795,35.9829111],[139.0551944,35.9829453],[139.0551681,35.9829559],[139.0550987,35.9829816],[139.055066,35.9828816],[139.055058,35.9828651],[139.0550293,35.9828057],[139.0550051,35.9827388],[139.0549178,35.9825926],[139.0549014,35.9825708],[139.0548408,35.98249],[139.0547739,35.9824363],[139.0546099,35.9823046],[139.0543526,35.9824079],[139.0541869,35.9824736],[139.0541852,35.9823377],[139.0542585,35.982197],[139.0543541,35.982002],[139.0544096,35.9818167],[139.0544149,35.9817993],[139.0544633,35.9816142],[139.0544795,35.9815821],[139.0544747,35.9815423],[139.054474,35.9815275],[139.0544701,35.9814364],[139.0544673,35.9814116],[139.0545566,35.9813937],[139.054869,35.9813254],[139.055167,35.9812476],[139.0551696,35.9812467],[139.0552892,35.9812069],[139.0553901,35.981317],[139.0553771,35.9813919],[139.0553635,35.9814694],[139.0553712,35.9815561],[139.0553946,35.9816149],[139.0553982,35.9816903],[139.0553854,35.9817832],[139.0553787,35.9818319],[139.0553701,35.9818945],[139.0553659,35.9818971],[139.0553615,35.9818997],[139.0553569,35.9819021],[139.0553546,35.9819033],[139.0553496,35.9819061],[139.0553555,35.9819039],[139.0553564,35.9819036],[139.0553672,35.9818994],[139.0554972,35.9819218],[139.0554754,35.9820151],[139.055453,35.9821108],[139.0554122,35.9822847],[139.0554048,35.9823165]]]},"properties":{"layer":"landslide","class_code":"1","class_label":"急傾斜地の崩落","status_code":"0","status_label":"特別警戒区域指定済み"}},{"type":"Feature","id":"lsld_496bade0-8c6f-4cc6-a1f5-5d14526cafb1","geometry":{"type":"Polygon","coordinates":[[[139.0536492,35.9818561],[139.0536693,35.9818615],[139.0536484,35.9819061],[139.0535973,35.9820152],[139.0533878,35.9821588],[139.053331,35.982221],[139.0533711,35.9823729],[139.0532978,35.982382],[139.0532397,35.9823892],[139.0532478,35.9822157],[139.0533199,35.9821264],[139.0535396,35.9819973],[139.0536205,35.9818484],[139.0536492,35.9818561]]]},"properties":{"layer":"landslide","class_code":"1","class_label":"急傾斜地の崩落","status_code":"0","status_label":"特別警戒区域指定済み"}},{"type":"Feature","id":"lsld_a5c579e0-5c0f-40e2-9df0-1058ee55c08f","geometry":{"type":"Polygon","coordinates":[[[139.0538179,35.9816987],[139.0538327,35.9816988],[139.0538652,35.9816991],[139.0539204,35.9818505],[139.0539795,35.9820279],[139.0540337,35.9821277],[139.0539824,35.982142],[139.0539792,35.9821429],[139.0539061,35.9820525],[139.0538099,35.9818726],[139.0538081,35.9817655],[139.053807,35.9816986],[139.0538179,35.9816987]]]},"properties":{"layer":"landslide","class_code":"1","class_label":"急傾斜地の崩落","status_code":"0","status_label":"特別警戒区域指定済み"}},{"type":"Feature","id":"lsld_7aa0ebaf-527c-4c8a-9d52-f890f01e8aa3","geometry":{"type":"Polygon","coordinates":[[[139.053399,35.9817053],[139.053473,35.981723],[139.0534463,35.9817691],[139.0534299,35.9817974],[139.0534239,35.9818077],[139.053379,35.9818852],[139.0533412,35.9819507],[139.0533182,35.9819906],[139.0531774,35.982043],[139.0531523,35.9820524],[139.0530999,35.9820719],[139.0529867,35.9821821],[139.0529697,35.9822107],[139.0528956,35.9823357],[139.0528553,35.9823337],[139.0528536,35.9823336],[139.052919,35.9822159],[139.0529473,35.9821649],[139.0530755,35.9820624],[139.0531933,35.9819583],[139.0532138,35.9819059],[139.053233,35.9818569],[139.0533031,35.9817505],[139.0533419,35.9816918],[139.053399,35.9817053]]]},"properties":{"layer":"landslide","class_code":"1","class_label":"急傾斜地の崩落","status_code":"0","status_label":"特別警戒区域指定済み"}},{"type":"Feature","id":"lsld_1bb08190-8724-49c3-b528-b5afa3bde710","geometry":{"type":"Polygon","coordinates":[[[139.06048279399042,35.983333333333334],[139.0605844,35.9831607],[139.0606096,35.9832026],[139.06076551746511,35.983333333333334],[139.06048279399042,35.983333333333334]]]},"properties":{"layer":"landslide","class_code":"2","class_label":"土石流","status_code":"0","status_label":"特別警戒区域指定済み"}},{"type":"Feature","id":"lsld_3881fc9e-8533-4d4d-aa2d-2d6c2506f4f3","geometry":{"type":"Polygon","coordinates":[[[139.0553975,35.9756536],[139.0554701,35.9757316],[139.0556229,35.9758548],[139.0557538,35.9759591],[139.0554994,35.9759354],[139.055245,35.9759118],[139.0549906,35.9758881],[139.0547361,35.9758645],[139.0544817,35.9758409],[139.0542273,35.9758172],[139.0539729,35.9757936],[139.0537185,35.97577],[139.0534641,35.9757463],[139.0532097,35.9757227],[139.0529553,35.975699],[139.0527009,35.9756754],[139.0524465,35.9756517],[139.052192,35.9756281],[139.0519376,35.9756044],[139.0517175,35.975645],[139.0516676,35.9756719],[139.0515619,35.9757287],[139.0513106,35.9757816],[139.0512039,35.9755774],[139.0513667,35.9755092],[139.0515887,35.9754039],[139.0517011,35.9753546],[139.0517846,35.9753181],[139.051937,35.9751508],[139.05207445167466,35.975],[139.055152969697,35.975],[139.0550912,35.9751092],[139.0550758,35.9751806],[139.0550897,35.9752582],[139.0551185,35.975321],[139.055191,35.9753989],[139.0552744,35.9754949],[139.0553507,35.9755669],[139.0553975,35.9756536]]]},"properties":{"layer":"landslide","class_code":"2","class_label":"土石流","status_code":"0","status_label":"特別警戒区域指定済み"}},{"type":"Feature","id":"lsld_5c82325f-b888-4e0d-96c0-4bf2f00a8c99","geometry":{"type":"Polygon","coordinates":[[[139.0557474,35.9822213],[139.0556357,35.9822432],[139.0556178,35.9822468],[139.055554,35.9822593],[139.0554466,35.9823137],[139.0554035,35.9823356],[139.0553624,35.9823564],[139.055263,35.9823975],[139.0551885,35.9824446],[139.0551744,35.9824535],[139.055016,35.98253],[139.0549014,35.9825708],[139.0548761,35.9825797],[139.0547246,35.9826206],[139.0547033,35.9826263],[139.0544681,35.9826814],[139.0543954,35.9826986],[139.054174,35.982751],[139.0541038,35.9828072],[139.0540486,35.9828307],[139.0539524,35.9827465],[139.05388,35.9826831],[139.0538595,35.9826651],[139.0538675,35.9826545],[139.053907,35.9824837],[139.0539909,35.9823534],[139.0540055,35.9823299],[139.0541362,35.9821189],[139.0543,35.9818696],[139.0544096,35.9818167],[139.0544585,35.9817932],[139.0547635,35.9817266],[139.0549765,35.9816982],[139.0552044,35.98164],[139.0553384,35.9814382],[139.0553771,35.9813919],[139.0554274,35.9813315],[139.0555077,35.9814162],[139.0555156,35.9814245],[139.0555854,35.9814981],[139.055598,35.9815115],[139.0556772,35.9815952],[139.0556888,35.9816074],[139.0557022,35.9816201],[139.0557396,35.9816554],[139.0557938,35.9817392],[139.0560228,35.9819434],[139.0560627,35.9819943],[139.0560843,35.9820302],[139.0562011,35.9820846],[139.0562411,35.9821177],[139.0563067,35.9821688],[139.0565328,35.9822924],[139.0557598,35.9822189],[139.0557474,35.9822213]]]},"properties":{"layer":"landslide","class_code":"2","class_label":"土石流","status_code":"0","status_label":"特別警戒区域指定済み"}},{"type":"Feature","id":"lsld_d7f83265-f771-4067-bbd8-e45f629f09a0","geometry":{"type":"Polygon","coordinates":[[[139.0549635,35.9769911],[139.0549619,35.9770286],[139.0549595,35.9770661],[139.0549566,35.9771001],[139.0549453,35.9771932],[139.0549419,35.9772156],[139.0549355,35.9772528],[139.0549283,35.9772898],[139.0549204,35.9773268],[139.0549116,35.9773637],[139.054902,35.9774004],[139.0548919,35.977436],[139.0548917,35.977437],[139.0548805,35.9774734],[139.0548686,35.9775097],[139.0548559,35.9775458],[139.0548424,35.9775817],[139.0548384,35.9775919],[139.0548282,35.9776174],[139.0548132,35.9776529],[139.0547974,35.9776882],[139.0547956,35.977692],[139.0547837,35.9777173],[139.0547809,35.9777233],[139.0547636,35.9777581],[139.0547456,35.9777927],[139.0547268,35.977827],[139.0547159,35.9778461],[139.0547074,35.977861],[139.0546871,35.9778948],[139.0546662,35.9779282],[139.0546446,35.9779614],[139.0546222,35.9779942],[139.0545991,35.9780268],[139.0545754,35.9780589],[139.0545641,35.9780736],[139.054404,35.9779802],[139.0541958,35.977859],[139.0541157,35.9778123],[139.0539877,35.9777377],[139.0537796,35.9776164],[139.0535715,35.9774951],[139.0533634,35.9773738],[139.0531553,35.9772525],[139.0529472,35.9771312],[139.0527599,35.9770221],[139.0527391,35.9770099],[139.0525191,35.9769866],[139.0523737,35.977042],[139.0523372,35.9769728],[139.0523179,35.9769364],[139.0522917,35.976887],[139.052255,35.9768178],[139.0525418,35.9768001],[139.0527601,35.9768374],[139.0527827,35.9768352],[139.0529926,35.976758],[139.0532259,35.9766721],[139.0534592,35.9765863],[139.0536924,35.9765004],[139.0539257,35.9764146],[139.054159,35.9763288],[139.0543923,35.9762429],[139.0546255,35.9761571],[139.0547599,35.9761076],[139.0547621,35.9761117],[139.0547794,35.9761465],[139.054796,35.9761816],[139.0548119,35.9762169],[139.0548269,35.9762523],[139.0548412,35.976288],[139.0548548,35.9763239],[139.0548675,35.97636],[139.0548795,35.9763963],[139.0548907,35.9764327],[139.0549011,35.9764693],[139.0549108,35.976506],[139.0549196,35.9765428],[139.0549277,35.9765798],[139.0549349,35.9766169],[139.0549414,35.976654],[139.0549471,35.9766913],[139.0549519,35.9767286],[139.054956,35.976766],[139.0549593,35.9768035],[139.0549617,35.976841],[139.0549633,35.9768785],[139.0549642,35.976916],[139.0549642,35.9769536],[139.0549635,35.9769911]]]},"properties":{"layer":"landslide","class_code":"2","class_label":"土石流","status_code":"0","status_label":"特別警戒区域指定済み"}},{"type":"Feature","id":"lsld_a4da25bd-69dc-461e-88ec-3f994b248978","geometry":{"type":"Polygon","coordinates":[[[139.0552431,35.9780281],[139.0551457,35.9780528],[139.0550334,35.9781131],[139.0550222,35.9781258],[139.0549,35.9782642],[139.0548075,35.978347],[139.0545482,35.9785146],[139.0543782,35.9785899],[139.0542282,35.9787498],[139.0541652,35.9788223],[139.0540929,35.9789157],[139.054078,35.978932],[139.0539482,35.979092],[139.0536236,35.9793103],[139.0534779,35.9794479],[139.0532267,35.9795214],[139.0530469,35.9796075],[139.0528615,35.9797086],[139.0526301,35.9798485],[139.0525547,35.9798635],[139.0523843,35.979858],[139.0523816,35.9797591],[139.0523814,35.9797494],[139.05238,35.9797004],[139.0523792,35.979674],[139.0525082,35.9796735],[139.0525855,35.9796659],[139.0527296,35.9795831],[139.0528984,35.9794662],[139.0531041,35.9793801],[139.0532775,35.979277],[139.0533722,35.9790965],[139.0533699,35.9790701],[139.0533623,35.9789789],[139.0533388,35.9787891],[139.0534611,35.9785304],[139.0536523,35.9783609],[139.0538349,35.9781262],[139.0539759,35.9779499],[139.0541157,35.9778123],[139.0541202,35.9778078],[139.0541758,35.9777516],[139.0542285,35.9777233],[139.0542882,35.9776914],[139.0543489,35.9776589],[139.0544973,35.9776584],[139.0546456,35.9776698],[139.0547499,35.9776823],[139.0547956,35.977692],[139.0548085,35.9776946],[139.0548452,35.9777071],[139.0550057,35.9777615],[139.0550434,35.977774],[139.0552093,35.977829],[139.0553034,35.9778602],[139.0555028,35.9778942],[139.0555978,35.9779098],[139.0556995,35.9779264],[139.0557497,35.9779346],[139.0560059,35.977972],[139.0562545,35.9780117],[139.0562583,35.9780123],[139.0562418,35.9780201],[139.0560191,35.978124],[139.055963,35.9781832],[139.0559617,35.9781847],[139.0558656,35.9782499],[139.055803,35.9782924],[139.0557125,35.9783692],[139.0557004,35.9783893],[139.0555989,35.9785576],[139.0555361,35.9784157],[139.0555173,35.9783714],[139.055452,35.9782171],[139.0553706,35.9780266],[139.0553678,35.97802],[139.0552982,35.9780106],[139.0552431,35.9780281]]]},"properties":{"layer":"landslide","class_code":"2","class_label":"土石流","status_code":"0","status_label":"特別警戒区域指定済み"}},{"type":"Feature","id":"lsld_a5ac6a70-05ac-4057-beb7-f8e987068de9","geometry":{"type":"Polygon","coordinates":[[[139.0539828,35.9827182],[139.0539752,35.9827249],[139.0539524,35.9827465],[139.053952,35.9827468],[139.0539399,35.9827361],[139.05388,35.9826831],[139.0538931,35.9826712],[139.0539005,35.9826645],[139.0539828,35.9827182]]]},"properties":{"layer":"landslide","class_code":"2","class_label":"土石流","status_code":"0","status_label":"特別警戒区域指定済み"}},{"type":"Feature","id":"lsld_5c77c241-b831-4ff4-a2d7-0a41ea3934ca","geometry":{"type":"Polygon","coordinates":[[[139.0522917,35.976887],[139.0525335,35.9768686],[139.0527547,35.9768819],[139.0527768,35.9768832],[139.0527683,35.9769529],[139.0527466,35.9769483],[139.0525264,35.9769267],[139.0523372,35.9769728],[139.0523179,35.9769364],[139.0522917,35.976887]]]},"properties":{"layer":"landslide","class_code":"2","class_label":"土石流","status_code":"0","status_label":"特別警戒区域指定済み"}},{"type":"Feature","id":"lsld_e4b0fb5d-5a92-4a4b-b3c2-5d377b4e7b40","geometry":{"type":"Polygon","coordinates":[[[139.05238,35.9797004],[139.0525189,35.9797173],[139.0525306,35.9797651],[139.0523816,35.9797591],[139.0523814,35.9797494],[139.05238,35.9797004]]]},"properties":{"layer":"landslide","class_code":"2","class_label":"土石流","status_code":"0","status_label":"特別警戒区域指定済み"}},{"type":"Feature","id":"lsld_37c52597-9052-4cf6-9e9c-17ce6c3e6ddb","geometry":{"type":"Polygon","coordinates":[[[139.05491522223952,35.983333333333334],[139.0549153,35.983325],[139.0550119,35.9830138],[139.055058,35.9828651],[139.0551885,35.9824446],[139.0553564,35.9819036],[139.0553569,35.9819021],[139.0553787,35.9818319],[139.0554622,35.9815628],[139.0555077,35.9814162],[139.0555084,35.9814139],[139.055513,35.9813992],[139.0555933,35.9811403],[139.0556415,35.9810635],[139.055723,35.9809949],[139.0557239,35.9809938],[139.0557717,35.9809736],[139.055899,35.9809343],[139.0560262,35.9808951],[139.0561887,35.980856],[139.0563371,35.9808226],[139.0564642,35.9807948],[139.056563,35.980784],[139.0566966,35.9808192],[139.0568583,35.9808661],[139.0569496,35.9809011],[139.0570341,35.9809016],[139.0571187,35.9809079],[139.0573302,35.9808978],[139.0573584,35.980898],[139.0574779,35.9809389],[139.057562,35.9809795],[139.0576884,35.9810319],[139.0577754,35.9811346],[139.0577748,35.981193],[139.057805,35.981341],[139.0578278,35.9814311],[139.05785,35.9815854],[139.057857,35.9816819],[139.0578403,35.9817717],[139.0578313,35.9818809],[139.0578305,35.9819708],[139.0577353,35.9822873],[139.05741068533044,35.983333333333334],[139.05491522223952,35.983333333333334]]]},"properties":{"layer":"landslide","class_code":"3","class_label":"地すべり","status_code":"0","status_label":"特別警戒区域指定済み"}},{"type":"Feature","id":"lsld_522eb5dd-ffcd-4334-a2cf-b88c15d12a9c","geometry":{"type":"Polygon","coordinates":[[[139.05,35.98037986744186],[139.0500459,35.9803839],[139.0501623,35.9803721],[139.0502791,35.9803099],[139.050567,35.9801858],[139.0506679,35.9801613],[139.0508854,35.9800998],[139.0510013,35.980132],[139.0510078,35.9802643],[139.0509599,35.9804025],[139.0509583,35.9804486],[139.0508497,35.9805241],[139.0507603,35.9805782],[139.0506643,35.9806216],[139.05049,35.9807245],[139.0503918,35.9807873],[139.050149,35.9808954],[139.0500627,35.980949],[139.05,35.98097742148895],[139.05,35.98037986744186]]]},"properties":{"layer":"landslide","class_code":"3","class_label":"地すべり","status_code":"0","status_label":"特別警戒区域指定済み"}},{"type":"Feature","id":"lsld_d8aa680c-dcc8-456c-b23e-848798087c03","geometry":{"type":"Polygon","coordinates":[[[139.05,35.983333333333334],[139.05,35.98002725945366],[139.0503983,35.9797514],[139.0505086,35.9797075],[139.0506715,35.9796397],[139.0507778,35.9795945],[139.0508631,35.979532],[139.0509625,35.9794753],[139.0510899,35.979436],[139.0512739,35.9793798],[139.0513656,35.9793861],[139.0514645,35.9793753],[139.0516404,35.9794224],[139.0518095,35.9794521],[139.0520142,35.979442],[139.052219,35.9794261],[139.0523465,35.9793753],[139.0525376,35.9793135],[139.0527849,35.9792864],[139.0529614,35.9792761],[139.0531101,35.9792197],[139.0532944,35.9791406],[139.0533699,35.9790701],[139.0534226,35.979021],[139.0535084,35.9789069],[139.0536226,35.9787757],[139.053751,35.9786331],[139.0538934,35.9785022],[139.0541064,35.9783659],[139.0542467,35.9782838],[139.0543129,35.9782802],[139.0544132,35.9782652],[139.0547119,35.9782703],[139.0548048,35.9782395],[139.0549172,35.9781745],[139.0549715,35.9781372],[139.0550222,35.9781258],[139.0550592,35.9781175],[139.055137,35.9781203],[139.055187,35.9780838],[139.0552953,35.978042],[139.0553706,35.9780266],[139.0553837,35.978024],[139.0554237,35.9780021],[139.0554461,35.9779898],[139.0555206,35.9779685],[139.0556394,35.9779433],[139.0556417,35.9779426],[139.0556995,35.9779264],[139.055741,35.9779147],[139.0558328,35.977894],[139.0559275,35.9778973],[139.0560289,35.9778927],[139.0561693,35.9779015],[139.0562214,35.9779231],[139.0562931,35.9779422],[139.0563438,35.9779528],[139.0563844,35.9779614],[139.0563532,35.9781134],[139.0563021,35.978362],[139.0562882,35.9784469],[139.0562645,35.9785291],[139.0562468,35.9786671],[139.0562133,35.9787519],[139.0561897,35.9788235],[139.0561495,35.9789268],[139.0561227,35.9789851],[139.0560992,35.9790514],[139.0560817,35.9791681],[139.0560813,35.9792106],[139.0560868,35.9793169],[139.0561005,35.9793634],[139.0560988,35.9794259],[139.0560984,35.9794711],[139.0560816,35.9795108],[139.0560354,35.9795557],[139.0559994,35.9795789],[139.0559762,35.9796005],[139.0559331,35.9796586],[139.0558539,35.9797378],[139.0558306,35.9797775],[139.0558399,35.9798307],[139.0558328,35.9798864],[139.0558135,35.9799349],[139.0558093,35.9799724],[139.0558082,35.9800884],[139.0557653,35.9801319],[139.0556954,35.9801879],[139.0556369,35.9802596],[139.0555271,35.98045],[139.0554052,35.9806873],[139.0553517,35.9808034],[139.0553425,35.980866],[139.0553449,35.9809148],[139.0553815,35.9809708],[139.055421,35.9810221],[139.0554483,35.9811594],[139.0554923,35.9813315],[139.055513,35.9813992],[139.0555172,35.981413],[139.055516,35.9814218],[139.0555156,35.9814245],[139.055508,35.9814803],[139.0554961,35.9815266],[139.0554622,35.9815628],[139.0554441,35.9815821],[139.0553999,35.9817188],[139.0553854,35.9817832],[139.055379,35.9818116],[139.0553554,35.9818834],[139.0553087,35.981983],[139.0552535,35.9820755],[139.0552043,35.9821379],[139.0547739,35.9824363],[139.0546467,35.9825244],[139.0543954,35.9826986],[139.05347958046255,35.983333333333334],[139.05,35.983333333333334]]]},"properties":{"layer":"landslide","class_code":"3","class_label":"地すべり","status_code":"0","status_label":"特別警戒区域指定済み"}},{"type":"Feature","id":"lsld_d1768dbc-e4c1-4483-9338-7a56b4fdd451","geometry":{"type":"Polygon","coordinates":[[[139.0509785,35.9760454],[139.0510243,35.9760886],[139.0510303,35.9761423],[139.0509901,35.9762118],[139.0508772,35.9762701],[139.0506514,35.9764082],[139.0503199,35.9765455],[139.05,35.97664374498295],[139.05,35.975917595909095],[139.0500818,35.9759215],[139.0501808,35.9759221],[139.0502757,35.9759294],[139.0504338,35.9759627],[139.0505721,35.9759998],[139.0506808,35.9760246],[139.0507798,35.9760293],[139.0508888,35.976018],[139.0509333,35.9760263],[139.0509785,35.9760454]]]},"properties":{"layer":"landslide","class_code":"3","class_label":"地すべり","status_code":"0","status_label":"特別警戒区域指定済み"}},{"type":"Feature","id":"lsld_a0dd8dc3-ec0a-431d-909f-1fabd0d20b9d","geometry":{"type":"Polygon","coordinates":[[[139.0515219,35.9763279],[139.0514713,35.9764323],[139.051441,35.9764965],[139.051346,35.9765884],[139.05,35.977665036501655],[139.05,35.97555196970154],[139.0502194,35.9755],[139.0504224,35.9754441],[139.0506967,35.9753028],[139.0508654,35.9751536],[139.0509278,35.9750753],[139.05101414753523,35.975],[139.0515897802582,35.975],[139.0517065,35.975178],[139.0517108,35.9752425],[139.0517051,35.9753269],[139.0517011,35.9753546],[139.0516891,35.9754395],[139.0516723,35.9756366],[139.0516676,35.9756719],[139.0516349,35.9759141],[139.0515841,35.9760466],[139.0515219,35.9763279]]]},"properties":{"layer":"landslide","class_code":"3","class_label":"地すべり","status_code":"0","status_label":"特別警戒区域指定済み"}}]}