{"type":"FeatureCollection","properties":{"mesh_code":"53397005","source":"PLATEAU秩父市2025","layer":"landslide"},"features":[{"type":"Feature","id":"lsld_beb6d983-c4bf-4a47-93fe-f8c1bbd073f7","geometry":{"type":"Polygon","coordinates":[[[139.0655165,35.9240303],[139.0654313,35.9241217],[139.0654267,35.9241319],[139.0654016,35.9241879],[139.0654148,35.9241933],[139.0653751,35.9242467],[139.0653472,35.9242306],[139.065258,35.9241795],[139.0650207,35.9240435],[139.064963,35.9240104],[139.0649436,35.9239993],[139.0649204,35.9239898],[139.0649087,35.923985],[139.0649036,35.9239841],[139.0648531,35.9239751],[139.0648002,35.9239843],[139.0647444,35.9239946],[139.0646915,35.9240122],[139.0646744,35.9240193],[139.0646326,35.9240369],[139.0645577,35.9240471],[139.0645552,35.9240473],[139.0644814,35.9240538],[139.0643602,35.9240113],[139.0642464,35.9239521],[139.0641023,35.9238403],[139.0639393,35.9237248],[139.0638412,35.9237098],[139.0637804,35.923708],[139.0636939,35.9237054],[139.0636903,35.9237053],[139.0635831,35.9237068],[139.0636198,35.9237011],[139.0636025,35.9236976],[139.063596,35.9236953],[139.0635918,35.923694],[139.0635916,35.9236923],[139.0635912,35.9236893],[139.0635908,35.9236867],[139.0635879,35.9236775],[139.0636057,35.9236414],[139.0636432,35.923608],[139.0636747,35.9235711],[139.0637217,35.9235159],[139.0637351,35.9235001],[139.0637698,35.9234026],[139.0638076,35.923286],[139.0638285,35.9232432],[139.0639255,35.9232025],[139.0641838,35.9231531],[139.0641845,35.9231515],[139.0641865,35.9231513],[139.0643774,35.9229902],[139.0645517,35.9219671],[139.0647841,35.9218665],[139.0647953,35.9218592],[139.0648169,35.9218781],[139.0648742,35.9219224],[139.0648801,35.9219269],[139.0649255,35.9219599],[139.0650492,35.9220499],[139.0651287,35.9221121],[139.0652018,35.9221861],[139.0652972,35.9223018],[139.0653373,35.9223989],[139.0653463,35.9225292],[139.0653621,35.9225894],[139.0653938,35.9226718],[139.0653993,35.9226862],[139.0654326,35.9227727],[139.0654964,35.9229386],[139.0655422,35.9229418],[139.0655496,35.9229408],[139.0656709,35.9229243],[139.0656709,35.9229247],[139.065756,35.9229568],[139.0656327,35.9230423],[139.0656424,35.9230911],[139.0655975,35.9232125],[139.065593,35.9232248],[139.0655867,35.9232418],[139.0655704,35.923286],[139.0656304,35.9234443],[139.0657553,35.9237738],[139.0656475,35.9238897],[139.0655165,35.9240303]]]},"properties":{"layer":"landslide","class_code":"1","class_label":"急傾斜地の崩落","status_code":"0","status_label":"特別警戒区域指定済み"}},{"type":"Feature","id":"lsld_697f66e1-3685-4377-a475-01364ade9e9d","geometry":{"type":"Polygon","coordinates":[[[139.0654792,35.922741],[139.0654988,35.9227619],[139.0655417,35.9227841],[139.0655572,35.9227921],[139.0656156,35.9228163],[139.0656909,35.9228687],[139.0656983,35.9228739],[139.0657403,35.9228913],[139.065783,35.9228993],[139.0660304,35.9229455],[139.0660316,35.9229762],[139.0660298,35.9229863],[139.0661154,35.9230811],[139.0657394,35.9232293],[139.0656489,35.923265],[139.0655867,35.9232418],[139.0655761,35.9232378],[139.0655714,35.9232361],[139.0655544,35.9232297],[139.0655178,35.9232235],[139.0655125,35.9232211],[139.0654856,35.9232089],[139.065404,35.9231719],[139.0653072,35.9231281],[139.0654228,35.9230246],[139.065368,35.9229306],[139.0653413,35.9228167],[139.0653318,35.9227762],[139.0653993,35.9226862],[139.0654119,35.9226694],[139.0654792,35.922741]]]},"properties":{"layer":"landslide","class_code":"1","class_label":"急傾斜地の崩落","status_code":"0","status_label":"特別警戒区域指定済み"}},{"type":"Feature","id":"lsld_03a47ece-858b-490e-ac87-b7bdc8adcac7","geometry":{"type":"Polygon","coordinates":[[[139.0660016,35.9241618],[139.0660083,35.9241646],[139.0660588,35.9241852],[139.0660133,35.9242826],[139.0659737,35.9242714],[139.0659502,35.9242301],[139.0659061,35.9241933],[139.0658864,35.9241834],[139.0657982,35.9241387],[139.0656182,35.9240474],[139.0655767,35.9240264],[139.0655416,35.9240286],[139.0655165,35.9240303],[139.0654943,35.9240318],[139.065492,35.9240317],[139.0654916,35.9240317],[139.0654899,35.9240318],[139.0654093,35.9240289],[139.0652364,35.9240182],[139.065106,35.9240138],[139.0650816,35.9240156],[139.0650459,35.9240182],[139.065033,35.9240188],[139.0649996,35.9240202],[139.0649989,35.9240203],[139.064963,35.9240104],[139.0648946,35.9239917],[139.0649036,35.9239841],[139.0650502,35.9238592],[139.0650627,35.9238368],[139.0650914,35.9237855],[139.0652731,35.9236979],[139.0652948,35.9236924],[139.0652297,35.9236895],[139.0650427,35.9235669],[139.0651354,35.9235175],[139.0651867,35.9234902],[139.065206,35.92348],[139.0652952,35.9234325],[139.0653807,35.923387],[139.065541,35.9233016],[139.0655499,35.9232893],[139.0655508,35.923288],[139.0655543,35.923281],[139.0655761,35.9232378],[139.065579,35.9232321],[139.0655888,35.9232126],[139.0655975,35.9232125],[139.0656051,35.9232124],[139.0656045,35.9232144],[139.0656115,35.9232151],[139.0657394,35.9232293],[139.0658642,35.9232431],[139.065982,35.9234394],[139.0661094,35.9235931],[139.0660463,35.9239083],[139.066029,35.9239952],[139.0660441,35.9239941],[139.0660444,35.9239973],[139.0660433,35.9239974],[139.0660016,35.9241618]]]},"properties":{"layer":"landslide","class_code":"1","class_label":"急傾斜地の崩落","status_code":"0","status_label":"特別警戒区域指定済み"}},{"type":"Feature","id":"lsld_b6dd90c3-40a2-47aa-99f5-a276bd03f45e","geometry":{"type":"Polygon","coordinates":[[[139.0700737,35.9210912],[139.0700288,35.9211947],[139.0698696,35.9214245],[139.0698298,35.921482],[139.0695386,35.9217892],[139.069334,35.9214932],[139.0692893,35.9214237],[139.0692026,35.9213285],[139.0691294,35.9212209],[139.0690104,35.9211182],[139.068919,35.9210734],[139.0688524,35.9210506],[139.0686925,35.9210097],[139.0687011,35.9209811],[139.0687001,35.9209554],[139.0688714,35.9209592],[139.0689495,35.9209592],[139.0690266,35.9209459],[139.069441,35.9208224],[139.069512,35.9208012],[139.0696385,35.9207698],[139.0696424,35.9207688],[139.0696802,35.920759],[139.0699247,35.9206953],[139.0700664,35.9206584],[139.0700839,35.9207334],[139.0701344,35.9209511],[139.0700737,35.9210912]]]},"properties":{"layer":"landslide","class_code":"1","class_label":"急傾斜地の崩落","status_code":"0","status_label":"特別警戒区域指定済み"}},{"type":"Feature","id":"lsld_06fdc567-31c6-4197-a114-c8b3420542dd","geometry":{"type":"Polygon","coordinates":[[[139.0696154,35.9192601],[139.0695783,35.919345],[139.0695664,35.9193723],[139.0695596,35.9193899],[139.0695499,35.9194154],[139.0695444,35.9194587],[139.0695491,35.9194971],[139.0695639,35.9195414],[139.0695832,35.919579],[139.0696992,35.9197822],[139.0698191,35.9200316],[139.0699092,35.9201921],[139.0699908,35.9203382],[139.0700812,35.9204738],[139.0701722,35.9205454],[139.0701843,35.9205576],[139.0702661,35.9206406],[139.0702669,35.9206414],[139.0704231,35.9207999],[139.0705308,35.9209093],[139.0703093,35.9210236],[139.0701734,35.9210916],[139.0700737,35.9210912],[139.069635,35.9210895],[139.0696321,35.9210895],[139.069567,35.9210893],[139.0695834,35.921016],[139.0695965,35.9209574],[139.0696385,35.9207698],[139.0696427,35.9207512],[139.0696443,35.9207438],[139.0696438,35.9206443],[139.0696437,35.9206232],[139.0696435,35.9205811],[139.0696449,35.9204319],[139.0696164,35.9202151],[139.0696003,35.9200729],[139.0695664,35.9199661],[139.0695068,35.9198059],[139.0694792,35.9197249],[139.0694644,35.9196813],[139.0694707,35.9195913],[139.069506,35.9194875],[139.0695085,35.9194743],[139.0695198,35.9194469],[139.0696165,35.9192344],[139.0696154,35.9192601]]]},"properties":{"layer":"landslide","class_code":"1","class_label":"急傾斜地の崩落","status_code":"0","status_label":"特別警戒区域指定済み"}},{"type":"Feature","id":"lsld_400f0576-29dc-4d4c-a002-6e95154edb7a","geometry":{"type":"Polygon","coordinates":[[[139.0707346,35.9244837],[139.0707111,35.9244791],[139.0706424,35.9244566],[139.0706326,35.9244503],[139.0705754,35.9244133],[139.0705737,35.9244104],[139.0705731,35.9244094],[139.0705726,35.9244093],[139.0704441,35.9242907],[139.0704436,35.9242902],[139.0702984,35.9241935],[139.0702646,35.924184],[139.0702429,35.9241969],[139.0702408,35.9242],[139.0702393,35.9242022],[139.0702068,35.9241742],[139.0701787,35.924128],[139.0701409,35.9240657],[139.0701287,35.9240457],[139.0700864,35.9239951],[139.0700201,35.9239203],[139.0699605,35.923865],[139.0698434,35.9237588],[139.0697828,35.9237037],[139.069636,35.9236054],[139.0696135,35.9235905],[139.0695344,35.9235166],[139.0694265,35.9234515],[139.0693028,35.9233541],[139.0692562,35.9233113],[139.0692505,35.9233061],[139.0692303,35.9232726],[139.0692226,35.923256],[139.0691919,35.9231899],[139.0691806,35.9231654],[139.0690565,35.9228983],[139.0690269,35.9228344],[139.0693546,35.9228098],[139.0695053,35.9228296],[139.0697135,35.922831],[139.0698623,35.9228163],[139.0698502,35.9228026],[139.0702204,35.9229403],[139.0703398,35.9228864],[139.0703577,35.922878],[139.0704396,35.9228397],[139.0704758,35.9228888],[139.0704764,35.9228896],[139.0705109,35.9229362],[139.0705537,35.9229942],[139.0705575,35.9229993],[139.0705775,35.9230263],[139.0705947,35.9230496],[139.0706357,35.923105],[139.0706928,35.9231823],[139.0706057,35.9232272],[139.0704891,35.923288],[139.0707346,35.9244837]]]},"properties":{"layer":"landslide","class_code":"1","class_label":"急傾斜地の崩落","status_code":"0","status_label":"特別警戒区域指定済み"}},{"type":"Feature","id":"lsld_3786420e-7062-4ec4-b274-42c827a4e3cc","geometry":{"type":"Polygon","coordinates":[[[139.0700325,35.9222464],[139.0700638,35.9222749],[139.0701696,35.9224132],[139.0701838,35.9224318],[139.0702453,35.9225123],[139.0702476,35.9225153],[139.0702929,35.9225745],[139.0703492,35.9226481],[139.0703564,35.9226575],[139.0705121,35.9228611],[139.0705185,35.9228805],[139.070537,35.9229369],[139.0705575,35.9229993],[139.0705656,35.923024],[139.0704185,35.923054],[139.0702855,35.9231038],[139.0700766,35.9231826],[139.0698412,35.9232323],[139.069618,35.9232679],[139.0694038,35.923289],[139.0692562,35.9233113],[139.0692468,35.9233127],[139.0691725,35.9232458],[139.0691312,35.9232087],[139.069075,35.9231582],[139.0689906,35.9230956],[139.0689048,35.9230176],[139.068753,35.9228521],[139.0687308,35.9228269],[139.068661,35.9227656],[139.0685504,35.9226779],[139.0684717,35.9226285],[139.0684659,35.9226249],[139.0683472,35.922594],[139.0679867,35.9225001],[139.0679874,35.9224988],[139.0680876,35.922348],[139.0681276,35.9223023],[139.0681759,35.9222659],[139.0682552,35.9222009],[139.0685287,35.9220511],[139.0685929,35.9220276],[139.0686325,35.9220233],[139.0686581,35.9219982],[139.0687316,35.9219803],[139.068921,35.9219517],[139.0690169,35.92195],[139.0692627,35.9219125],[139.0692968,35.9218875],[139.0693673,35.9218925],[139.0694197,35.9219041],[139.0694201,35.9219046],[139.0694553,35.9219031],[139.0694805,35.9218995],[139.0694865,35.9218987],[139.0695208,35.9218936],[139.0695301,35.9218922],[139.0695546,35.9218894],[139.0695656,35.9218881],[139.0696299,35.9218809],[139.0696308,35.9218808],[139.0700325,35.9222464]]]},"properties":{"layer":"landslide","class_code":"1","class_label":"急傾斜地の崩落","status_code":"0","status_label":"特別警戒区域指定済み"}},{"type":"Feature","id":"lsld_9094bd6f-a155-4012-b384-fac12433a7b2","geometry":{"type":"Polygon","coordinates":[[[139.0718383,35.9230304],[139.0719992,35.923072],[139.0721425,35.923111],[139.072274,35.9231548],[139.0724462,35.9232322],[139.0725038,35.9232703],[139.0725336,35.92329],[139.0725596,35.9233147],[139.0725917,35.9233452],[139.0726337,35.9233817],[139.071136,35.9231366],[139.0705775,35.9230263],[139.0705656,35.923024],[139.0704555,35.9230402],[139.0704192,35.92298],[139.0704067,35.9229592],[139.0703776,35.9229109],[139.0703759,35.9229081],[139.0703577,35.922878],[139.0703399,35.9228483],[139.0702916,35.9227479],[139.0702753,35.922662],[139.0702646,35.9226052],[139.0702569,35.9225645],[139.0702521,35.9225388],[139.0702476,35.9225153],[139.0702453,35.9225123],[139.0701838,35.9224318],[139.070099,35.9224052],[139.070009,35.9223769],[139.0699872,35.9223701],[139.0699589,35.9223612],[139.0699653,35.9223511],[139.0699911,35.922311],[139.0700325,35.9222464],[139.0701175,35.9221141],[139.0701552,35.9221374],[139.0704598,35.922325],[139.0704626,35.9223268],[139.0705272,35.9223665],[139.0705591,35.9223862],[139.0706128,35.9224193],[139.070817,35.9225303],[139.0711142,35.9227229],[139.0712513,35.9227906],[139.0713651,35.9228533],[139.0714439,35.9228896],[139.0717594,35.9230061],[139.0718383,35.9230304]]]},"properties":{"layer":"landslide","class_code":"1","class_label":"急傾斜地の崩落","status_code":"0","status_label":"特別警戒区域指定済み"}},{"type":"Feature","id":"lsld_75218692-320c-4a81-8433-71d9cc7bca28","geometry":{"type":"Polygon","coordinates":[[[139.0701557,35.9216432],[139.0701654,35.9216646],[139.0703021,35.9219666],[139.0703389,35.9221111],[139.0703776,35.9221984],[139.0704312,35.9222715],[139.070475,35.922318],[139.0704877,35.9223315],[139.0705152,35.9223559],[139.0705272,35.9223665],[139.07059,35.9224224],[139.070455,35.9225261],[139.0703492,35.9226481],[139.0703391,35.9226598],[139.0702646,35.9226052],[139.0702568,35.9225995],[139.0702038,35.9225607],[139.0701517,35.9225225],[139.0700877,35.9224684],[139.0700078,35.922388],[139.0699872,35.9223701],[139.0699653,35.9223511],[139.0699206,35.9223124],[139.0697892,35.9222579],[139.0697659,35.9222422],[139.0695516,35.9219849],[139.0694824,35.9219018],[139.0694805,35.9218995],[139.0694863,35.9218989],[139.0694929,35.9218982],[139.0695038,35.9218964],[139.0695056,35.9218961],[139.0695208,35.9218936],[139.0695546,35.9218894],[139.0695656,35.9218881],[139.069578,35.9218865],[139.0696492,35.9218777],[139.0697173,35.921868],[139.0697571,35.9218623],[139.0698379,35.9218432],[139.069883,35.9217993],[139.0699062,35.9217524],[139.0699069,35.9217519],[139.0699416,35.9217317],[139.0700055,35.9217184],[139.0700367,35.9217064],[139.0700783,35.9216903],[139.0701233,35.9216566],[139.0701256,35.9216548],[139.0701552,35.9216421],[139.0701557,35.9216432]]]},"properties":{"layer":"landslide","class_code":"1","class_label":"急傾斜地の崩落","status_code":"0","status_label":"特別警戒区域指定済み"}},{"type":"Feature","id":"lsld_9ec5765b-587b-4f28-8485-6722cea882de","geometry":{"type":"Polygon","coordinates":[[[139.074734,35.9192167],[139.0747582,35.9193123],[139.0747997,35.9193923],[139.0748767,35.9196007],[139.0749767,35.9198263],[139.075,35.919869611487925],[139.075,35.92043916535533],[139.0747611,35.9202418],[139.0746141,35.920109],[139.0745255,35.9199876],[139.0744599,35.9198725],[139.0743742,35.9196559],[139.0743219,35.9194703],[139.0743266,35.9193085],[139.0743299,35.9192224],[139.0743542,35.9189954],[139.0744884,35.9190254],[139.0746826,35.918984],[139.074734,35.9192167]]]},"properties":{"layer":"landslide","class_code":"1","class_label":"急傾斜地の崩落","status_code":"0","status_label":"特別警戒区域指定済み"}},{"type":"Feature","id":"lsld_46d2cee3-c7c7-41b2-99a4-ff48c7d3f1f8","geometry":{"type":"Polygon","coordinates":[[[139.0648002,35.9239843],[139.0647444,35.9239946],[139.0646915,35.9240122],[139.0646744,35.9240193],[139.0646326,35.9240369],[139.0645577,35.9240471],[139.0645552,35.9240473],[139.0644814,35.9240538],[139.0643602,35.9240113],[139.0642464,35.9239521],[139.0641023,35.9238403],[139.0639393,35.9237248],[139.0638412,35.9237098],[139.0637804,35.923708],[139.0638129,35.9236831],[139.0637945,35.9236709],[139.063794,35.923666],[139.0637854,35.923666],[139.0637795,35.923665],[139.0637748,35.9236628],[139.0637749,35.9236598],[139.0637604,35.9236094],[139.0637217,35.9235159],[139.0637351,35.9235001],[139.0637698,35.9234026],[139.0638076,35.923286],[139.0638285,35.9232432],[139.0639255,35.9232025],[139.0641838,35.9231531],[139.0641845,35.9231515],[139.0641865,35.9231513],[139.0642736,35.9231407],[139.0642804,35.9231398],[139.0645657,35.9229476],[139.0646278,35.9220987],[139.0648993,35.9219763],[139.0649255,35.9219599],[139.0650492,35.9220499],[139.0651287,35.9221121],[139.0652018,35.9221861],[139.0652972,35.9223018],[139.0653373,35.9223989],[139.0653463,35.9225292],[139.0653621,35.9225894],[139.0653938,35.9226718],[139.0653993,35.9226862],[139.0654326,35.9227727],[139.0653739,35.9228008],[139.0653413,35.9228167],[139.0652576,35.9228576],[139.0653219,35.9229263],[139.0652442,35.9229819],[139.065248,35.9229814],[139.0652538,35.9231447],[139.0653041,35.9233083],[139.065206,35.92348],[139.0652189,35.9235098],[139.065318,35.9237377],[139.065159,35.9238534],[139.06509,35.9239037],[139.065033,35.9240188],[139.0650207,35.9240435],[139.064963,35.9240104],[139.0649436,35.9239993],[139.0649204,35.9239898],[139.0649087,35.923985],[139.0649036,35.9239841],[139.0648531,35.9239751],[139.0648002,35.9239843]]]},"properties":{"layer":"landslide","class_code":"1","class_label":"急傾斜地の崩落","status_code":"0","status_label":"特別警戒区域指定済み"}},{"type":"Feature","id":"lsld_45c0746b-8861-4ff2-8744-825250269428","geometry":{"type":"Polygon","coordinates":[[[139.0655572,35.9227921],[139.0656156,35.9228163],[139.0656909,35.9228687],[139.0656983,35.9228739],[139.0657403,35.9228913],[139.065783,35.9228993],[139.0657806,35.9229046],[139.0657811,35.9229067],[139.0658498,35.9230909],[139.0656115,35.9232151],[139.065593,35.9232248],[139.065579,35.9232321],[139.0655714,35.9232361],[139.0655544,35.9232297],[139.0655178,35.9232235],[139.0655125,35.9232211],[139.0654856,35.9232089],[139.0655887,35.9230773],[139.0655496,35.9229408],[139.0655327,35.9228817],[139.0655246,35.9227895],[139.0655417,35.9227841],[139.0655572,35.9227921]]]},"properties":{"layer":"landslide","class_code":"1","class_label":"急傾斜地の崩落","status_code":"0","status_label":"特別警戒区域指定済み"}},{"type":"Feature","id":"lsld_b40a230d-94bf-41dd-bdf1-22116ddbe346","geometry":{"type":"Polygon","coordinates":[[[139.0656182,35.9240474],[139.0655767,35.9240264],[139.0655416,35.9240286],[139.0655165,35.9240303],[139.0654943,35.9240318],[139.065492,35.9240317],[139.0654916,35.9240317],[139.0654899,35.9240318],[139.0654093,35.9240289],[139.0652364,35.9240182],[139.065106,35.9240138],[139.0650816,35.9240156],[139.0651844,35.9239544],[139.065237,35.9238669],[139.0652572,35.9238333],[139.0653738,35.9238122],[139.0654818,35.9237824],[139.0656299,35.9237405],[139.065668,35.9237219],[139.0656305,35.9236655],[139.0655198,35.9236607],[139.0654121,35.9235731],[139.0653308,35.9235778],[139.0652189,35.9235098],[139.0651867,35.9234902],[139.065206,35.92348],[139.0652952,35.9234325],[139.0653807,35.923387],[139.0654661,35.923406],[139.0654856,35.9234174],[139.0656304,35.9234443],[139.0657034,35.9234579],[139.0658134,35.9235475],[139.0659116,35.923667],[139.0658283,35.9238866],[139.0657989,35.9239642],[139.0657102,35.9240304],[139.0656727,35.9240274],[139.0656182,35.9240474]]]},"properties":{"layer":"landslide","class_code":"1","class_label":"急傾斜地の崩落","status_code":"0","status_label":"特別警戒区域指定済み"}},{"type":"Feature","id":"lsld_623a0630-0da7-4685-b23d-9697c46a3f6f","geometry":{"type":"Polygon","coordinates":[[[139.0696837,35.9209926],[139.0696333,35.9210872],[139.0696321,35.9210895],[139.0696126,35.921126],[139.0694695,35.9212982],[139.069334,35.9214932],[139.0692893,35.9214237],[139.0692026,35.9213285],[139.0691294,35.9212209],[139.0690104,35.9211182],[139.068919,35.9210734],[139.0688524,35.9210506],[139.0688495,35.9210315],[139.0688591,35.9210106],[139.0688667,35.9209859],[139.0688714,35.9209592],[139.0689495,35.9209592],[139.0690266,35.9209459],[139.069441,35.9208224],[139.069512,35.9208012],[139.0696385,35.9207698],[139.0696424,35.9207688],[139.0697118,35.9209399],[139.0696837,35.9209926]]]},"properties":{"layer":"landslide","class_code":"1","class_label":"急傾斜地の崩落","status_code":"0","status_label":"特別警戒区域指定済み"}},{"type":"Feature","id":"lsld_25623f94-0215-44f1-9acd-2cd4f57e89fd","geometry":{"type":"Polygon","coordinates":[[[139.0695596,35.9193899],[139.0695499,35.9194154],[139.0695444,35.9194587],[139.0695491,35.9194971],[139.0695639,35.9195414],[139.0695832,35.919579],[139.0696992,35.9197822],[139.0698191,35.9200316],[139.0699092,35.9201921],[139.0699908,35.9203382],[139.0700812,35.9204738],[139.0701722,35.9205454],[139.0701843,35.9205576],[139.0702661,35.9206406],[139.0702669,35.9206414],[139.0700861,35.9207323],[139.0700839,35.9207334],[139.0699301,35.9208112],[139.069855,35.9207955],[139.0696802,35.920759],[139.0696427,35.9207512],[139.0696443,35.9207438],[139.0696438,35.9206443],[139.0696437,35.9206232],[139.0696435,35.9205811],[139.0696449,35.9204319],[139.0696164,35.9202151],[139.0696003,35.9200729],[139.0695664,35.9199661],[139.0695068,35.9198059],[139.0694792,35.9197249],[139.0695043,35.9195841],[139.0695262,35.9195001],[139.0695262,35.9194988],[139.0695306,35.9194612],[139.0695412,35.9194131],[139.0695611,35.9193659],[139.0695596,35.9193899]]]},"properties":{"layer":"landslide","class_code":"1","class_label":"急傾斜地の崩落","status_code":"0","status_label":"特別警戒区域指定済み"}},{"type":"Feature","id":"lsld_e0e18da0-fd68-4c76-b17f-07c97efc35be","geometry":{"type":"Polygon","coordinates":[[[139.0705737,35.9244104],[139.0705726,35.9244093],[139.0704441,35.9242907],[139.0704436,35.9242902],[139.0702066,35.9240713],[139.0701734,35.9240593],[139.0701463,35.9240676],[139.0701432,35.9240666],[139.0701409,35.9240657],[139.0701287,35.9240457],[139.0700864,35.9239951],[139.0700201,35.9239203],[139.0699605,35.923865],[139.0698434,35.9237588],[139.0697828,35.9237037],[139.069636,35.9236054],[139.0696135,35.9235905],[139.0695344,35.9235166],[139.0694265,35.9234515],[139.0693028,35.9233541],[139.0692562,35.9233113],[139.0692505,35.9233061],[139.0692303,35.9232726],[139.0692226,35.923256],[139.0691919,35.9231899],[139.0691806,35.9231654],[139.0692783,35.9231631],[139.0693615,35.9231612],[139.0695003,35.9231781],[139.069739,35.9231753],[139.0698875,35.9231595],[139.0701003,35.9230856],[139.0702953,35.9230373],[139.0704147,35.9229822],[139.0704192,35.92298],[139.0705109,35.9229362],[139.0705537,35.9229942],[139.0705575,35.9229993],[139.0705775,35.9230263],[139.0705947,35.9230496],[139.0705031,35.9230954],[139.0703848,35.923153],[139.0705737,35.9244104]]]},"properties":{"layer":"landslide","class_code":"1","class_label":"急傾斜地の崩落","status_code":"0","status_label":"特別警戒区域指定済み"}},{"type":"Feature","id":"lsld_3da8e5b4-d715-487e-ade3-271596358106","geometry":{"type":"Polygon","coordinates":[[[139.0699911,35.922311],[139.070099,35.9224052],[139.0702352,35.9225241],[139.0702521,35.9225388],[139.0702929,35.9225745],[139.0703492,35.9226481],[139.0703564,35.9226575],[139.0705121,35.9228611],[139.0705185,35.9228805],[139.0704764,35.9228896],[139.0703776,35.9229109],[139.0703364,35.9229198],[139.0701985,35.9229734],[139.0700003,35.9230481],[139.0698009,35.9230857],[139.0695875,35.9231204],[139.0693517,35.9231404],[139.0692783,35.9231631],[139.0691919,35.9231899],[139.0691312,35.9232087],[139.069075,35.9231582],[139.0689906,35.9230956],[139.0689048,35.9230176],[139.068753,35.9228521],[139.0687308,35.9228269],[139.068661,35.9227656],[139.0685504,35.9226779],[139.0684717,35.9226285],[139.0684659,35.9226249],[139.0683472,35.922594],[139.0685261,35.9224165],[139.0692604,35.9220213],[139.0693505,35.9220067],[139.0694151,35.9219515],[139.0694824,35.9219018],[139.0694863,35.9218989],[139.0694865,35.9218987],[139.0695038,35.9218964],[139.0695056,35.9218961],[139.0695146,35.921895],[139.0699911,35.922311]]]},"properties":{"layer":"landslide","class_code":"1","class_label":"急傾斜地の崩落","status_code":"0","status_label":"特別警戒区域指定済み"}},{"type":"Feature","id":"lsld_ba34391f-e910-4617-a631-bf09d66b3c2b","geometry":{"type":"Polygon","coordinates":[[[139.0714439,35.9228896],[139.0717594,35.9230061],[139.0718383,35.9230304],[139.0719992,35.923072],[139.0721425,35.923111],[139.072274,35.9231548],[139.0724462,35.9232322],[139.0725038,35.9232703],[139.0710093,35.9230054],[139.0705185,35.9228805],[139.0704758,35.9228888],[139.0703759,35.9229081],[139.0703577,35.922878],[139.0703399,35.9228483],[139.0702916,35.9227479],[139.0702753,35.922662],[139.0702646,35.9226052],[139.0702569,35.9225645],[139.0702929,35.9225745],[139.0703728,35.9224911],[139.0704567,35.922331],[139.0704598,35.922325],[139.0704626,35.9223268],[139.0705272,35.9223665],[139.0705591,35.9223862],[139.0706128,35.9224193],[139.070817,35.9225303],[139.0711142,35.9227229],[139.0712513,35.9227906],[139.0713651,35.9228533],[139.0714439,35.9228896]]]},"properties":{"layer":"landslide","class_code":"1","class_label":"急傾斜地の崩落","status_code":"0","status_label":"特別警戒区域指定済み"}},{"type":"Feature","id":"lsld_153c4975-7957-4ea4-b50e-291b98c2195a","geometry":{"type":"Polygon","coordinates":[[[139.0701654,35.9216646],[139.0703021,35.9219666],[139.0703389,35.9221111],[139.0703776,35.9221984],[139.0704312,35.9222715],[139.070475,35.922318],[139.0704626,35.9223268],[139.0704567,35.922331],[139.070314,35.9224323],[139.0702453,35.9225123],[139.0702352,35.9225241],[139.0702038,35.9225607],[139.0701517,35.9225225],[139.0700877,35.9224684],[139.0700078,35.922388],[139.0699872,35.9223701],[139.0699653,35.9223511],[139.0699206,35.9223124],[139.0697892,35.9222579],[139.0697659,35.9222422],[139.0695516,35.9219849],[139.0694824,35.9219018],[139.0694805,35.9218995],[139.0694865,35.9218987],[139.0695038,35.9218964],[139.0695056,35.9218961],[139.0695146,35.921895],[139.0695656,35.9218881],[139.069578,35.9218865],[139.0697173,35.921868],[139.0697556,35.9218629],[139.0698379,35.9218432],[139.0698845,35.9217999],[139.0699069,35.9217519],[139.0699423,35.9217312],[139.0700033,35.9217184],[139.0700367,35.9217064],[139.0700812,35.9216903],[139.0701233,35.9216566],[139.0701557,35.9216432],[139.0701654,35.9216646]]]},"properties":{"layer":"landslide","class_code":"1","class_label":"急傾斜地の崩落","status_code":"0","status_label":"特別警戒区域指定済み"}},{"type":"Feature","id":"lsld_7a1f7953-65c4-404e-8a76-fd59f2146ba1","geometry":{"type":"Polygon","coordinates":[[[139.075,35.92043916535533],[139.0747611,35.9202418],[139.0746141,35.920109],[139.0745255,35.9199876],[139.0744599,35.9198725],[139.0743742,35.9196559],[139.0743219,35.9194703],[139.0743266,35.9193085],[139.0744956,35.9192495],[139.074734,35.9192167],[139.0747582,35.9193123],[139.0747997,35.9193923],[139.0748767,35.9196007],[139.0749767,35.9198263],[139.075,35.919869611487925],[139.075,35.92043916535533]]]},"properties":{"layer":"landslide","class_code":"1","class_label":"急傾斜地の崩落","status_code":"0","status_label":"特別警戒区域指定済み"}},{"type":"Feature","id":"lsld_11665247-a08f-454a-8fd5-151d18c2c7fb","geometry":{"type":"Polygon","coordinates":[[[139.0705139,35.9206751],[139.0705209,35.9207079],[139.0705351,35.9207513],[139.0705603,35.9207976],[139.0705784,35.9208275],[139.0706091,35.9208649],[139.0705997,35.9208902],[139.0705848,35.9209274],[139.0705881,35.9209572],[139.0706025,35.9209887],[139.0706005,35.921005],[139.0705727,35.9210362],[139.0705724,35.9210645],[139.0705702,35.9211017],[139.0705643,35.9211493],[139.0705476,35.9211716],[139.070518,35.9211953],[139.0704884,35.9212219],[139.0704609,35.9212337],[139.0704313,35.9212588],[139.0703963,35.9212824],[139.0703723,35.9212971],[139.0703483,35.9213193],[139.0703279,35.9213401],[139.0703076,35.9213578],[139.0702835,35.9213875],[139.0702502,35.9214156],[139.0702262,35.9214437],[139.0702022,35.921454],[139.0701691,35.9214657],[139.0701379,35.9214864],[139.0700955,35.92151],[139.0699559,35.9215449],[139.0699011,35.9214694],[139.0698696,35.9214245],[139.0697744,35.9212885],[139.0696477,35.9211077],[139.0696414,35.9210987],[139.069635,35.9210895],[139.0696333,35.9210872],[139.0695834,35.921016],[139.069521,35.9209269],[139.069441,35.9208224],[139.06939,35.9207559],[139.069217,35.9206386],[139.0690238,35.9205464],[139.0688304,35.9204573],[139.068637,35.9203726],[139.0686605,35.9203394],[139.0687201,35.9202553],[139.0689173,35.9203383],[139.0691181,35.9204159],[139.069298,35.9205227],[139.0695008,35.9205979],[139.0696437,35.9206232],[139.0697285,35.9206381],[139.0699716,35.9206392],[139.0699844,35.9206393],[139.0702403,35.9206405],[139.0702661,35.9206406],[139.0704962,35.9206417],[139.070516,35.9206408],[139.0705139,35.9206751]]]},"properties":{"layer":"landslide","class_code":"2","class_label":"土石流","status_code":"0","status_label":"特別警戒区域指定済み"}},{"type":"Feature","id":"lsld_75aa44c4-d093-4ec8-a136-2706488b728b","geometry":{"type":"Polygon","coordinates":[[[139.0654267,35.9241319],[139.065258,35.9241795],[139.0650242,35.9242455],[139.0647976,35.9242122],[139.0646928,35.9241735],[139.0645646,35.924126],[139.06456,35.9240875],[139.0645567,35.92406],[139.0645552,35.9240473],[139.0645539,35.9240361],[139.0645457,35.9239685],[139.0646614,35.9239111],[139.0647551,35.9238566],[139.0649736,35.9238214],[139.0650627,35.9238368],[139.065159,35.9238534],[139.065237,35.9238669],[139.0655168,35.9239152],[139.0656475,35.9238897],[139.0656575,35.9238877],[139.0658283,35.9238866],[139.065896,35.9238861],[139.0660463,35.9239083],[139.0662372,35.9239365],[139.0663586,35.9239358],[139.0665661,35.9240053],[139.0667686,35.9240935],[139.0669543,35.9241118],[139.0671318,35.9240091],[139.0672737,35.9239836],[139.0677377,35.9235554],[139.0677192,35.9236505],[139.0677245,35.9237149],[139.0677235,35.923815],[139.067717,35.9238793],[139.0677048,35.9239316],[139.0677074,35.9239697],[139.067713,35.923996],[139.0677124,35.9240532],[139.0677178,35.9241056],[139.0677115,35.9241532],[139.0676932,35.9242222],[139.0674487,35.9241885],[139.0671965,35.9241528],[139.0669782,35.9242027],[139.0667389,35.9241984],[139.0665145,35.9241881],[139.0662967,35.9241531],[139.0662207,35.9241318],[139.0660083,35.9241646],[139.0658864,35.9241834],[139.0658667,35.9241864],[139.0656642,35.9241257],[139.0655355,35.9241012],[139.0654267,35.9241319]]]},"properties":{"layer":"landslide","class_code":"2","class_label":"土石流","status_code":"0","status_label":"特別警戒区域指定済み"}},{"type":"Feature","id":"lsld_950380cc-58fd-4485-b6c6-4c2a957025b2","geometry":{"type":"Polygon","coordinates":[[[139.0646744,35.9240193],[139.0646801,35.9240676],[139.06456,35.9240875],[139.0645567,35.92406],[139.0645552,35.9240473],[139.0645539,35.9240361],[139.06467,35.9239828],[139.0646744,35.9240193]]]},"properties":{"layer":"landslide","class_code":"2","class_label":"土石流","status_code":"0","status_label":"特別警戒区域指定済み"}},{"type":"Feature","id":"lsld_4db61801-337a-49af-b621-ac26cf016fae","geometry":{"type":"Polygon","coordinates":[[[139.069855,35.9207955],[139.0697106,35.9210035],[139.0696837,35.9209926],[139.0695965,35.9209574],[139.069521,35.9209269],[139.069441,35.9208224],[139.06939,35.9207559],[139.0692442,35.9205866],[139.0690634,35.9204952],[139.0688654,35.9204172],[139.0686605,35.9203394],[139.0687201,35.9202553],[139.0689173,35.9203383],[139.0691181,35.9204159],[139.069298,35.9205227],[139.0694593,35.9206513],[139.0696443,35.9207438],[139.0699314,35.9206856],[139.0699247,35.9206953],[139.069855,35.9207955]]]},"properties":{"layer":"landslide","class_code":"2","class_label":"土石流","status_code":"0","status_label":"特別警戒区域指定済み"}}]}