{"type":"FeatureCollection","properties":{"mesh_code":"53397041","source":"PLATEAU秩父市2025","layer":"landslide"},"features":[{"type":"Feature","id":"lsld_f8b79b65-6e1d-45f5-ace9-4f16c9a0de41","geometry":{"type":"Polygon","coordinates":[[[139.013862,35.9528667],[139.0138444,35.9529199],[139.0138328,35.9529549],[139.0138297,35.9529642],[139.0137822,35.9531079],[139.0135193,35.9535861],[139.0135177,35.9535863],[139.013303,35.9536392],[139.0130662,35.9536976],[139.0127604,35.9536533],[139.0126303,35.9536027],[139.0125,35.95358834166175],[139.0125,35.95325052727274],[139.0125126,35.9532315],[139.0125283,35.953208],[139.0126882,35.9529673],[139.0127338,35.9528986],[139.0127572,35.9528634],[139.0127865,35.9528193],[139.0127965,35.9528195],[139.0128721,35.9528356],[139.0129525,35.9528419],[139.0128634,35.9527802],[139.0128437,35.952732],[139.0128507,35.9524016],[139.0128172,35.9523145],[139.0127268,35.9522147],[139.0125828,35.9521238],[139.0125,35.95208018273381],[139.0125,35.95109192203944],[139.0125197,35.9511205],[139.0125215,35.951131],[139.012609,35.9511324],[139.0127339,35.9511925],[139.0128773,35.9512493],[139.0130874,35.9513789],[139.0133538,35.9515354],[139.0135942,35.9517513],[139.0137168,35.9520007],[139.0137223,35.952012],[139.0137885,35.9521052],[139.0137832,35.9521847],[139.0137922,35.9522277],[139.0137553,35.9523395],[139.0137769,35.9525919],[139.0137873,35.9526143],[139.0137592,35.9526651],[139.0137508,35.9527363],[139.0137518,35.9527623],[139.0137539,35.9528138],[139.0137592,35.952814],[139.0138606,35.9528166],[139.013862,35.9528667]]]},"properties":{"layer":"landslide","class_code":"1","class_label":"急傾斜地の崩落","status_code":"0","status_label":"特別警戒区域指定済み"}},{"type":"Feature","id":"lsld_e1312846-f2bf-430f-8cc2-1678f1842b63","geometry":{"type":"Polygon","coordinates":[[[139.022195,35.9542853],[139.0219764,35.9542874],[139.0217573,35.9542944],[139.0217569,35.9542966],[139.0215341,35.9541415],[139.0210114,35.9540068],[139.0210105,35.9540063],[139.0207212,35.9537326],[139.0207233,35.9537312],[139.0208482,35.9535724],[139.0206348,35.9533522],[139.020649,35.9531935],[139.020632,35.9530109],[139.0205981,35.9529292],[139.0205959,35.9529293],[139.0203263,35.952815],[139.0200414,35.9527041],[139.0197923,35.952574],[139.0197247,35.9525734],[139.0195794,35.9524722],[139.0193204,35.9522465],[139.0189497,35.9520966],[139.0187578,35.9518155],[139.019204,35.9517298],[139.0192972,35.9517118],[139.019453,35.9516819],[139.0195319,35.9516577],[139.0195766,35.9516441],[139.0196207,35.9516306],[139.0196803,35.9516123],[139.0196921,35.9516196],[139.01979,35.9516716],[139.0199259,35.9516695],[139.0200168,35.9517461],[139.0201734,35.9517961],[139.0203706,35.9518029],[139.0204086,35.9518002],[139.0205597,35.9518359],[139.020716,35.9518251],[139.0208509,35.9519067],[139.0209475,35.95194],[139.021091,35.9519627],[139.0212027,35.9519253],[139.0219235,35.9525887],[139.0219116,35.9526342],[139.0219112,35.9526716],[139.0219111,35.9526795],[139.0229618,35.9524666],[139.023061,35.9524935],[139.0230558,35.9525349],[139.0230492,35.9525878],[139.0230347,35.9527048],[139.0229652,35.9532636],[139.0229554,35.9533431],[139.0229548,35.9533478],[139.0229546,35.9533491],[139.0229108,35.9537016],[139.0229143,35.9537061],[139.0229873,35.9537997],[139.0229339,35.9539052],[139.0226374,35.954092],[139.0223907,35.9541519],[139.0222128,35.9542842],[139.0222112,35.9542837],[139.022195,35.9542853]]]},"properties":{"layer":"landslide","class_code":"1","class_label":"急傾斜地の崩落","status_code":"0","status_label":"特別警戒区域指定済み"}},{"type":"Feature","id":"lsld_2eafc421-0053-4415-b86e-bd5293c385e2","geometry":{"type":"Polygon","coordinates":[[[139.0242917,35.9564589],[139.0241931,35.9566669],[139.0241735,35.9567377],[139.0241479,35.9569055],[139.0241458,35.9569195],[139.0241347,35.9569923],[139.0240796,35.9573527],[139.0240373,35.9573402],[139.0238685,35.9573303],[139.0233425,35.9571568],[139.0231597,35.9571557],[139.0227437,35.9571455],[139.0226269,35.9570315],[139.0225216,35.9570051],[139.0225519,35.9567766],[139.022562,35.9567001],[139.0225634,35.9566897],[139.0225992,35.9564192],[139.0226345,35.9563228],[139.022664,35.9562715],[139.0226904,35.9562368],[139.0227407,35.9561705],[139.0227682,35.9561343],[139.0227989,35.9560938],[139.0229892,35.956179],[139.0231714,35.9562272],[139.0233534,35.956189],[139.0235534,35.9561724],[139.0237692,35.9561734],[139.0238769,35.9563136],[139.023943,35.9564002],[139.0240556,35.9563369],[139.0243661,35.9563019],[139.024328,35.9563824],[139.0243262,35.956386],[139.0242917,35.9564589]]]},"properties":{"layer":"landslide","class_code":"1","class_label":"急傾斜地の崩落","status_code":"0","status_label":"特別警戒区域指定済み"}},{"type":"Feature","id":"lsld_7841733d-6c92-4f9f-8d84-d8d753d3b81a","geometry":{"type":"Polygon","coordinates":[[[139.025,35.95291968682785],[139.0249736,35.9529057],[139.0248314,35.9526918],[139.0248253,35.9526838],[139.0247036,35.9525215],[139.0247688,35.9525205],[139.0247995,35.95252],[139.0248144,35.9525197],[139.0248776,35.9525187],[139.025,35.9525166939409],[139.025,35.95291968682785]]]},"properties":{"layer":"landslide","class_code":"1","class_label":"急傾斜地の崩落","status_code":"0","status_label":"特別警戒区域指定済み"}},{"type":"Feature","id":"lsld_84c589ef-e653-4588-abc9-2d568ab64e50","geometry":{"type":"Polygon","coordinates":[[[139.0230671,35.9506806],[139.023145,35.9508019],[139.0232364,35.9509023],[139.0234199,35.9510335],[139.0235386,35.9512564],[139.0235732,35.9515728],[139.0235082,35.9515765],[139.023585,35.9516571],[139.0237571,35.9517713],[139.0239085,35.9519304],[139.0241638,35.9520458],[139.0242795,35.9521939],[139.0245308,35.9522998],[139.0247265,35.9523437],[139.0247711,35.9523537],[139.0247984,35.9525126],[139.0247994,35.9525188],[139.0247995,35.95252],[139.0248253,35.9526838],[139.0248281,35.9527018],[139.0244963,35.9529895],[139.024421,35.9529942],[139.0243637,35.9529977],[139.0243447,35.9529989],[139.0243111,35.953001],[139.0242917,35.9530009],[139.02425,35.9529963],[139.0242482,35.9529961],[139.0241407,35.9529813],[139.0239481,35.9528709],[139.0239466,35.9528705],[139.023934,35.9528645],[139.0239208,35.9528583],[139.0238998,35.9528458],[139.0238778,35.9528327],[139.0238186,35.9527974],[139.0238084,35.9527913],[139.0238075,35.9527912],[139.0237902,35.9527802],[139.0236736,35.9527107],[139.0235308,35.9526333],[139.0233636,35.9525755],[139.0231872,35.9525312],[139.0230623,35.9524934],[139.0229387,35.9524559],[139.0226379,35.9523768],[139.0224817,35.9523311],[139.0224037,35.9523025],[139.0222327,35.9522034],[139.0221646,35.9520826],[139.0221288,35.9519651],[139.0220071,35.9516771],[139.0220264,35.9515872],[139.0220395,35.951215],[139.0219492,35.9511464],[139.0218972,35.9510763],[139.0218245,35.9510202],[139.0218764,35.9509948],[139.0219282,35.9509695],[139.0220063,35.9509313],[139.0220659,35.9508996],[139.0221498,35.9508502],[139.0222448,35.9507955],[139.0223176,35.9507531],[139.0224439,35.9506864],[139.0225539,35.9506283],[139.0229086,35.9504408],[139.0230671,35.9506806]]]},"properties":{"layer":"landslide","class_code":"1","class_label":"急傾斜地の崩落","status_code":"0","status_label":"特別警戒区域指定済み"}},{"type":"Feature","id":"lsld_4a8da70b-5e19-41bd-9dcf-80d64fc3d6f9","geometry":{"type":"Polygon","coordinates":[[[139.0207652,35.954572],[139.0208491,35.9547218],[139.0210289,35.9547934],[139.0211527,35.9549254],[139.021108,35.9551377],[139.0210909,35.9551616],[139.0212118,35.9553058],[139.0213111,35.9553304],[139.0213098,35.9553354],[139.0212893,35.9554187],[139.0212839,35.9554408],[139.0212621,35.9555292],[139.0210883,35.9554954],[139.0208547,35.955354],[139.0207551,35.9552937],[139.0207257,35.955276],[139.020781,35.9551315],[139.0207294,35.9550586],[139.0207445,35.9550435],[139.0207544,35.9550326],[139.0207577,35.9550072],[139.0207524,35.9549852],[139.020736,35.9549656],[139.0207225,35.954954],[139.0207002,35.9549349],[139.0205942,35.9548524],[139.020587,35.9548389],[139.0205539,35.9547135],[139.0204957,35.954533],[139.0204806,35.9545014],[139.0204232,35.9544432],[139.020387,35.954421],[139.0203718,35.9544142],[139.020363,35.9544127],[139.0203487,35.954414],[139.020328,35.9544175],[139.0202898,35.9544292],[139.0202785,35.9544333],[139.0202753,35.9544248],[139.020257,35.9543762],[139.0202441,35.9543419],[139.0202123,35.9542574],[139.0202117,35.9542556],[139.0203834,35.9542304],[139.0206932,35.9543516],[139.0207652,35.954572]]]},"properties":{"layer":"landslide","class_code":"1","class_label":"急傾斜地の崩落","status_code":"0","status_label":"特別警戒区域指定済み"}},{"type":"Feature","id":"lsld_58ea0fde-56e6-4f3b-ab85-54d3a8e1be92","geometry":{"type":"Polygon","coordinates":[[[139.0125,35.958333333333336],[139.0125,35.95759413582385],[139.0125057,35.9575925],[139.0127311,35.9575411],[139.0129124,35.9574692],[139.0131484,35.9573434],[139.0134057,35.9572014],[139.0135902,35.9570754],[139.0137305,35.9569575],[139.0139777,35.9569797],[139.0139786,35.9569798],[139.0140195,35.9570635],[139.0140499,35.9571259],[139.0143374,35.9577148],[139.014341,35.9577222],[139.0143445,35.9577295],[139.0143435,35.95773],[139.0141695,35.95781],[139.0138289,35.9579865],[139.0135284,35.9581097],[139.0132679,35.9582009],[139.0132325,35.9582068],[139.0132133,35.95821],[139.0131445,35.9582215],[139.0129856,35.9582741],[139.0129146,35.9583308],[139.0129110142857,35.958333333333336],[139.0125,35.958333333333336]]]},"properties":{"layer":"landslide","class_code":"1","class_label":"急傾斜地の崩落","status_code":"0","status_label":"特別警戒区域指定済み"}},{"type":"Feature","id":"lsld_26da8743-3b0d-4871-a113-5d2e23590e1e","geometry":{"type":"Polygon","coordinates":[[[139.0166049,35.9571175],[139.0165216,35.9571501],[139.0164331,35.9571847],[139.0164321,35.9571876],[139.0164319,35.9571881],[139.0163199,35.9572332],[139.0162187,35.9572739],[139.0161753,35.9572914],[139.01587,35.9573718],[139.0155239,35.9574661],[139.0154055,35.9574919],[139.0151375,35.9575502],[139.014588,35.9576696],[139.0145526,35.9576774],[139.0143903,35.9577131],[139.0143857,35.9577151],[139.014345,35.9577331],[139.0143442,35.9577314],[139.0143435,35.95773],[139.0143399,35.9577227],[139.0143361,35.9577149],[139.014049,35.9571258],[139.0140186,35.9570634],[139.0140051,35.9570358],[139.0139777,35.9569797],[139.0139786,35.9569798],[139.0141965,35.9570257],[139.0143006,35.9570786],[139.0144446,35.956918],[139.0145933,35.9567886],[139.0147122,35.9568468],[139.0148975,35.956736],[139.0151393,35.956713],[139.0153129,35.9565624],[139.0155027,35.9566392],[139.0155265,35.9567509],[139.0155949,35.9566628],[139.0157559,35.956659],[139.015814,35.9567911],[139.0159094,35.9566796],[139.0161234,35.95652],[139.0163225,35.9564205],[139.0164661,35.956413],[139.0165092,35.9563168],[139.0164064,35.9562162],[139.0163221,35.9560058],[139.0163824,35.9559926],[139.0164755,35.9557717],[139.0165275,35.9558043],[139.0165633,35.9558267],[139.0166125,35.9558576],[139.0166608,35.9558879],[139.0166965,35.9559103],[139.0167257,35.9559287],[139.0167424,35.9559391],[139.0167888,35.9559683],[139.0168348,35.9559971],[139.0167716,35.9560179],[139.0167508,35.9560248],[139.0167654,35.9560358],[139.0168848,35.9561255],[139.0168982,35.9562381],[139.0172725,35.9567543],[139.0172759,35.9567589],[139.0170694,35.9568912],[139.0170683,35.9568919],[139.0170382,35.9569066],[139.0166049,35.9571175]]]},"properties":{"layer":"landslide","class_code":"1","class_label":"急傾斜地の崩落","status_code":"0","status_label":"特別警戒区域指定済み"}},{"type":"Feature","id":"lsld_33635674-0814-4ecb-9204-7817f5960b8e","geometry":{"type":"Polygon","coordinates":[[[139.0237002,35.9536035],[139.0234755,35.9536916],[139.0231761,35.9537168],[139.0229143,35.9537061],[139.0229042,35.9537057],[139.0229157,35.9536169],[139.0229504,35.9533515],[139.0229515,35.9533429],[139.0229626,35.9532575],[139.0230347,35.9527048],[139.0230507,35.952582],[139.0230576,35.9525293],[139.0230623,35.9524934],[139.0230624,35.9524922],[139.0230638,35.952482],[139.0232597,35.9525371],[139.0233995,35.9525767],[139.0235642,35.9526328],[139.0236711,35.9527027],[139.023803,35.9527871],[139.0238112,35.9527895],[139.0238998,35.9528458],[139.0241239,35.9529881],[139.0241235,35.9530205],[139.024123,35.9530782],[139.0241222,35.9531503],[139.0241221,35.9531577],[139.0241219,35.9531805],[139.0241213,35.9532405],[139.0240198,35.9535191],[139.0238794,35.9534969],[139.0237002,35.9536035]]]},"properties":{"layer":"landslide","class_code":"1","class_label":"急傾斜地の崩落","status_code":"0","status_label":"特別警戒区域指定済み"}},{"type":"Feature","id":"lsld_d59223d5-cea8-4d5f-9223-7c3858fd02f2","geometry":{"type":"Polygon","coordinates":[[[139.025,35.9525157565185],[139.0248783,35.9525176],[139.0248151,35.9525186],[139.0247994,35.9525188],[139.0247941,35.9525189],[139.0247042,35.9525203],[139.0247265,35.9523437],[139.0247323,35.9522979],[139.0247779,35.952112],[139.0248067,35.9520142],[139.0248314,35.9518381],[139.0247878,35.9516524],[139.0249055,35.9515025],[139.025,35.95150398887859],[139.025,35.95148877844828],[139.0249438,35.9514241],[139.0248841,35.9512533],[139.0248294,35.9510584],[139.0248449,35.9509163],[139.0248509,35.9507213],[139.0248343,35.9507128],[139.0248257,35.9507084],[139.0249814,35.9506168],[139.025,35.950605860231654],[139.025,35.95023920013556],[139.0248369,35.9502619],[139.024816,35.9501913],[139.0248109,35.9501742],[139.024807,35.9501611],[139.0247992,35.9501347],[139.0247951,35.950121],[139.0247947,35.9501193],[139.025,35.95006916434937],[139.025,35.9525157565185]]]},"properties":{"layer":"landslide","class_code":"1","class_label":"急傾斜地の崩落","status_code":"0","status_label":"特別警戒区域指定済み"}},{"type":"Feature","id":"lsld_2dc0f59b-cf7c-4db5-86b5-26cc59d3f195","geometry":{"type":"Polygon","coordinates":[[[139.025,35.95043539005487],[139.025,35.95062184795539],[139.024989,35.9506279],[139.0249216,35.9506649],[139.0249012,35.9506761],[139.0248343,35.9507128],[139.0248297,35.9507154],[139.024742,35.9505892],[139.024755,35.9505778],[139.0248173,35.9505231],[139.0248798,35.9504683],[139.0248911,35.9504583],[139.0249145,35.9504378],[139.0249551,35.9504021],[139.025,35.95043539005487]]]},"properties":{"layer":"landslide","class_code":"1","class_label":"急傾斜地の崩落","status_code":"0","status_label":"特別警戒区域指定済み"}},{"type":"Feature","id":"lsld_f8ed6306-35e6-4fea-8e8c-03518fc92f7d","geometry":{"type":"Polygon","coordinates":[[[139.01861234947367,35.95],[139.0185947,35.9500081],[139.0185189,35.9500429],[139.01850191333332,35.95],[139.01848819,35.95],[139.0184791,35.9500054],[139.01847951513935,35.95],[139.01861234947367,35.95]]]},"properties":{"layer":"landslide","class_code":"1","class_label":"急傾斜地の崩落","status_code":"0","status_label":"特別警戒区域指定済み"}},{"type":"Feature","id":"lsld_c7f0d5ba-67ab-4cba-b3e4-dafad50c8cd2","geometry":{"type":"Polygon","coordinates":[[[139.017758,35.956168],[139.017863,35.9564242],[139.01788,35.9564658],[139.0178077,35.9564923],[139.0177188,35.9565279],[139.0176202,35.9565685],[139.0175548,35.9565978],[139.0174981,35.9566229],[139.0174469,35.9566528],[139.0173039,35.9567427],[139.0172717,35.956763],[139.0170769,35.9568874],[139.0170694,35.9568912],[139.0170683,35.9568919],[139.0170384,35.956907],[139.0170382,35.9569066],[139.0169752,35.956787],[139.0166125,35.9560991],[139.0166453,35.956032],[139.0166728,35.9559756],[139.0167424,35.9559391],[139.0168015,35.9559081],[139.0168015,35.9559077],[139.0168037,35.9558891],[139.0168092,35.9558444],[139.0168185,35.9557679],[139.0168199,35.955756],[139.0168282,35.9556913],[139.0168395,35.9556017],[139.0170274,35.9558201],[139.017057,35.9560338],[139.0171075,35.9561145],[139.0171835,35.9560709],[139.0172455,35.9559289],[139.0174182,35.95578],[139.0176658,35.9557086],[139.0176662,35.9557987],[139.0176664,35.9558596],[139.0176665,35.9558835],[139.0176672,35.9559198],[139.0176739,35.9559554],[139.0176965,35.956024],[139.0177054,35.956048],[139.017758,35.956168]]]},"properties":{"layer":"landslide","class_code":"1","class_label":"急傾斜地の崩落","status_code":"0","status_label":"特別警戒区域指定済み"}},{"type":"Feature","id":"lsld_fe4ccdf6-e7b6-4711-a0e2-c407816b9439","geometry":{"type":"Polygon","coordinates":[[[139.01974664674023,35.958333333333336],[139.0181498336158,35.958333333333336],[139.0181064,35.9583015],[139.0181027,35.9582952],[139.0180937,35.9582831],[139.0180873,35.9582745],[139.0181151,35.9581984],[139.0181343,35.9581458],[139.0181473,35.9581104],[139.0182068,35.9579893],[139.0183206,35.9577476],[139.0183665,35.95765],[139.0185186,35.9573267],[139.0187906,35.9573497],[139.0188214,35.9574029],[139.0188221,35.9574031],[139.018916,35.9574428],[139.0189164,35.9574429],[139.019167,35.9574213],[139.0193461,35.9574819],[139.0196175,35.9576849],[139.0196181,35.9576854],[139.0198011,35.9578496],[139.0198018,35.9578506],[139.0197331,35.9581299],[139.01974664674023,35.958333333333336]]]},"properties":{"layer":"landslide","class_code":"1","class_label":"急傾斜地の崩落","status_code":"0","status_label":"特別警戒区域指定済み"}},{"type":"Feature","id":"lsld_588c42c0-6498-41f3-bf28-5cb59ef7d35b","geometry":{"type":"Polygon","coordinates":[[[139.0208769,35.9552984],[139.0208547,35.955354],[139.0208052,35.9554778],[139.0207987,35.955494],[139.0207981,35.955494],[139.0204574,35.9554801],[139.0203646,35.9554763],[139.0203671,35.9554433],[139.0203682,35.9554293],[139.0203715,35.9553863],[139.0203763,35.9553233],[139.0203809,35.9552638],[139.0203833,35.9552334],[139.0204601,35.955289],[139.0204605,35.955289],[139.0204499,35.9552574],[139.020461,35.9550946],[139.0205449,35.9550508],[139.0206206,35.9550064],[139.0204778,35.9548802],[139.020421,35.9547258],[139.0203559,35.9545341],[139.0203548,35.9545061],[139.0202807,35.95453],[139.0201382,35.9545787],[139.0200235,35.9545728],[139.0198506,35.954347],[139.0199579,35.9543243],[139.0199708,35.9543216],[139.0200781,35.954299],[139.0201321,35.9543558],[139.0201797,35.9543514],[139.0202055,35.9543042],[139.0202441,35.9543419],[139.020377,35.9543208],[139.0206008,35.9544157],[139.0206376,35.9545723],[139.0207135,35.9547551],[139.0207293,35.9547886],[139.0207334,35.9547973],[139.0207361,35.9547986],[139.0207959,35.954832],[139.0209496,35.9549457],[139.020977,35.9549659],[139.0209753,35.9549732],[139.020964,35.9550215],[139.0209294,35.9551697],[139.0209198,35.9552109],[139.0208862,35.9552795],[139.0208769,35.9552984]]]},"properties":{"layer":"landslide","class_code":"1","class_label":"急傾斜地の崩落","status_code":"0","status_label":"特別警戒区域指定済み"}},{"type":"Feature","id":"lsld_303cbe69-f668-4163-b9ac-2bb5c8b00d57","geometry":{"type":"Polygon","coordinates":[[[139.01571216751483,35.958333333333336],[139.01376128799998,35.958333333333336],[139.0138338,35.9582864],[139.0138659,35.9582657],[139.0139791,35.9582156],[139.0141919,35.9581204],[139.0142162,35.9581096],[139.0142422,35.9580981],[139.0142764,35.9580827],[139.0144307,35.9580132],[139.0145916,35.9579875],[139.014912,35.9579361],[139.0151182,35.9578755],[139.0154048,35.9577913],[139.0154286,35.9577854],[139.0157317,35.9577169],[139.0159797,35.9576614],[139.0159896,35.9576838],[139.0160324,35.9577813],[139.016088,35.9579077],[139.0161572,35.9580833],[139.0161743,35.9581266],[139.0162081,35.9582124],[139.0160755,35.9582365],[139.0158616,35.9582989],[139.01572,35.9583309],[139.01571216751483,35.958333333333336]]]},"properties":{"layer":"landslide","class_code":"1","class_label":"急傾斜地の崩落","status_code":"0","status_label":"特別警戒区域指定済み"}},{"type":"Feature","id":"lsld_926a6a4b-3106-406f-bcc0-a2e1785adc1c","geometry":{"type":"Polygon","coordinates":[[[139.02094536666667,35.958333333333336],[139.0209518,35.9582883],[139.0209572,35.958251],[139.0209666,35.9581851],[139.0209737,35.9581544],[139.0209802,35.9581261],[139.0209951,35.9580776],[139.0210685,35.9578393],[139.0213866,35.9578081],[139.0215134,35.9578015],[139.0220548,35.9578356],[139.0221269,35.957823],[139.0222502,35.9578888],[139.022536,35.9580399],[139.0227019,35.9581261],[139.0228678,35.9582129],[139.02305110603467,35.958333333333336],[139.02094536666667,35.958333333333336]]]},"properties":{"layer":"landslide","class_code":"1","class_label":"急傾斜地の崩落","status_code":"0","status_label":"特別警戒区域指定済み"}},{"type":"Feature","id":"lsld_89b12f11-7935-4c2b-8abd-a7ea5f7cf27b","geometry":{"type":"Polygon","coordinates":[[[139.022568,35.9502221],[139.0229086,35.9504408],[139.0225539,35.9506283],[139.0224439,35.9506864],[139.0223176,35.9507531],[139.0222448,35.9507955],[139.0221498,35.9508502],[139.0220659,35.9508996],[139.0220063,35.9509313],[139.0219282,35.9509695],[139.0218764,35.9509948],[139.0218245,35.9510202],[139.021781,35.9509867],[139.0217643,35.9509788],[139.0217003,35.9509575],[139.0216103,35.9509259],[139.0216711,35.9508717],[139.0217,35.950846],[139.0217124,35.9508336],[139.021798,35.950748],[139.021926,35.9506131],[139.0220307,35.9505059],[139.0221115,35.9504233],[139.0223755,35.9501531],[139.022568,35.9502221]]]},"properties":{"layer":"landslide","class_code":"1","class_label":"急傾斜地の崩落","status_code":"0","status_label":"特別警戒区域指定済み"}},{"type":"Feature","id":"lsld_f3346e77-f9ac-4206-b0ab-fc76463fdf6f","geometry":{"type":"Polygon","coordinates":[[[139.025,35.95771926820748],[139.0247798,35.957668],[139.0247009,35.9576091],[139.0245579,35.9575116],[139.0244415,35.957429],[139.0243308,35.9573812],[139.0241793,35.9573501],[139.0240826,35.957343],[139.0240796,35.9573527],[139.0241347,35.9569923],[139.0241458,35.9569195],[139.0241479,35.9569055],[139.0241735,35.9567377],[139.0241931,35.9566669],[139.0242917,35.9564589],[139.0243262,35.956386],[139.024328,35.9563824],[139.0243661,35.9563019],[139.0244089,35.9563698],[139.0246313,35.9564547],[139.0247198,35.9565678],[139.0248864,35.9565582],[139.025,35.956601227164995],[139.025,35.95771926820748]]]},"properties":{"layer":"landslide","class_code":"1","class_label":"急傾斜地の崩落","status_code":"0","status_label":"特別警戒区域指定済み"}},{"type":"Feature","id":"lsld_11537183-4b89-4881-ad3d-939beb544e90","geometry":{"type":"Polygon","coordinates":[[[139.0205212,35.9564686],[139.0205094,35.9565046],[139.0204996,35.9565031],[139.0204588,35.9564976],[139.0204129,35.9564899],[139.0203853,35.9564855],[139.0203384,35.9564763],[139.0202284,35.9564552],[139.0201557,35.9564414],[139.0200416,35.956427],[139.0200172,35.9564243],[139.0198486,35.9564236],[139.0197839,35.9564229],[139.0196838,35.9564248],[139.0195615,35.9564269],[139.0195113,35.9564278],[139.0194241,35.9564384],[139.0193546,35.9564482],[139.0192406,35.9564826],[139.0192155,35.9564901],[139.0191326,35.9564961],[139.0190615,35.9564838],[139.0190172,35.9564601],[139.0189664,35.9564267],[139.0189274,35.9564044],[139.0188934,35.9563902],[139.0188591,35.956381],[139.018825,35.9563749],[139.0187899,35.9563698],[139.0186823,35.9563735],[139.0185726,35.9563749],[139.0184855,35.9563776],[139.01836,35.9563826],[139.0183153,35.9563848],[139.0182497,35.9563905],[139.0181603,35.9563998],[139.0181379,35.9564042],[139.0181279,35.9563711],[139.0180996,35.9562782],[139.0179503,35.9557868],[139.0179392,35.9557495],[139.0179288,35.9557281],[139.0179138,35.9557055],[139.0179093,35.9556988],[139.0178957,35.955685],[139.0178588,35.9556517],[139.0177846,35.9555848],[139.017969,35.9555905],[139.0181737,35.9556199],[139.0182994,35.955766],[139.01829,35.9557304],[139.0183508,35.9555567],[139.0186271,35.9554963],[139.0188893,35.9555951],[139.0190839,35.9557292],[139.0192494,35.9558187],[139.0194602,35.9558226],[139.019706,35.9558519],[139.0199022,35.9557792],[139.0201362,35.9558463],[139.0203274,35.9559266],[139.0204793,35.9558965],[139.0207003,35.9559448],[139.0206756,35.9560327],[139.0206634,35.9560764],[139.0206469,35.9561352],[139.0206239,35.9562034],[139.0205738,35.9563077],[139.0205537,35.9563691],[139.0205212,35.9564686]]]},"properties":{"layer":"landslide","class_code":"1","class_label":"急傾斜地の崩落","status_code":"0","status_label":"特別警戒区域指定済み"}},{"type":"Feature","id":"lsld_d39947a0-ef05-4f74-8331-faef13291b69","geometry":{"type":"Polygon","coordinates":[[[139.0207298,35.9554476],[139.0208052,35.9554778],[139.0208776,35.9555068],[139.0210368,35.9557966],[139.0209223,35.9558172],[139.0208552,35.9558292],[139.0208528,35.9558295],[139.0208066,35.9558354],[139.0207862,35.9558371],[139.0206907,35.9558449],[139.0205804,35.955854],[139.0205871,35.9557715],[139.0204895,35.9557269],[139.0203001,35.9556694],[139.0202587,35.9556273],[139.0203042,35.9555451],[139.0203405,35.9554794],[139.0203617,35.955441],[139.0203682,35.9554293],[139.0203859,35.9553972],[139.0204544,35.9553897],[139.0207298,35.9554476]]]},"properties":{"layer":"landslide","class_code":"1","class_label":"急傾斜地の崩落","status_code":"0","status_label":"特別警戒区域指定済み"}},{"type":"Feature","id":"lsld_21264970-80ee-4c04-beba-db832308d85f","geometry":{"type":"Polygon","coordinates":[[[139.0242917,35.9564589],[139.0241931,35.9566669],[139.0241735,35.9567377],[139.0241479,35.9569055],[139.0241458,35.9569195],[139.0241347,35.9569923],[139.0240973,35.956989],[139.023914,35.9569841],[139.0234267,35.9568033],[139.0234183,35.9567978],[139.0234072,35.9567983],[139.0233838,35.9568024],[139.0231641,35.9568055],[139.0227662,35.9567979],[139.0225519,35.9567766],[139.022562,35.9567001],[139.0225634,35.9566897],[139.0225992,35.9564192],[139.0226345,35.9563228],[139.022664,35.9562715],[139.0226904,35.9562368],[139.0229201,35.9563244],[139.0231695,35.9563761],[139.0233723,35.956345],[139.0235596,35.9563288],[139.0236739,35.9563176],[139.0237162,35.9563984],[139.0239267,35.9565449],[139.0241257,35.9564841],[139.0242917,35.9564589]]]},"properties":{"layer":"landslide","class_code":"1","class_label":"急傾斜地の崩落","status_code":"0","status_label":"特別警戒区域指定済み"}},{"type":"Feature","id":"lsld_adee2412-6829-4277-9dd0-7c27b6f5a7ab","geometry":{"type":"Polygon","coordinates":[[[139.025,35.95269536379164],[139.0249862,35.9526752],[139.0248776,35.9525187],[139.025,35.9525166939409],[139.025,35.95269536379164]]]},"properties":{"layer":"landslide","class_code":"1","class_label":"急傾斜地の崩落","status_code":"0","status_label":"特別警戒区域指定済み"}},{"type":"Feature","id":"lsld_b14badb4-a568-42d5-858a-7988c9ce042d","geometry":{"type":"Polygon","coordinates":[[[139.024421,35.9529942],[139.0243637,35.9529977],[139.0243447,35.9529989],[139.0239705,35.9528765],[139.0239481,35.9528709],[139.0239466,35.9528705],[139.023934,35.9528645],[139.0239498,35.9527944],[139.0238031,35.9527323],[139.0237612,35.9526991],[139.0236003,35.9526206],[139.0234697,35.9525428],[139.0233035,35.9524756],[139.0231368,35.9523994],[139.0229564,35.9523854],[139.0227041,35.9523546],[139.0224139,35.9522174],[139.0221642,35.9517431],[139.0221531,35.9516774],[139.022119,35.9516479],[139.0221144,35.9515055],[139.0221728,35.9511969],[139.0220104,35.9510594],[139.0219282,35.9509695],[139.0220063,35.9509313],[139.0220659,35.9508996],[139.0221498,35.9508502],[139.0222448,35.9507955],[139.0223176,35.9507531],[139.0224439,35.9506864],[139.0225539,35.9506283],[139.0226788,35.9508173],[139.0227659,35.950956],[139.022885,35.9510932],[139.0230527,35.9512041],[139.0231417,35.9513747],[139.0231517,35.9515967],[139.0231207,35.9516899],[139.0232061,35.9517887],[139.02334,35.951943],[139.0234884,35.9520482],[139.0236082,35.9522026],[139.0238295,35.9522754],[139.0239422,35.9524315],[139.024172,35.9524935],[139.0243954,35.9525151],[139.0244104,35.9526587],[139.0244242,35.9528202],[139.024421,35.9529942]]]},"properties":{"layer":"landslide","class_code":"1","class_label":"急傾斜地の崩落","status_code":"0","status_label":"特別警戒区域指定済み"}},{"type":"Feature","id":"lsld_ecb508f6-5f8a-4c38-8652-fe0de70d2023","geometry":{"type":"Polygon","coordinates":[[[139.0207293,35.9547886],[139.0208881,35.9548799],[139.0209496,35.9549457],[139.0209753,35.9549732],[139.0209784,35.9549766],[139.020964,35.9550215],[139.0209279,35.9551343],[139.0209294,35.9551697],[139.0209313,35.9552116],[139.0211454,35.9554075],[139.0211443,35.9554093],[139.0211315,35.9554289],[139.0208862,35.9552795],[139.0208279,35.955244],[139.0208537,35.9551329],[139.0208456,35.9550502],[139.0208424,35.9550166],[139.0207794,35.9549467],[139.0207273,35.9549004],[139.0206181,35.9548036],[139.0206256,35.954801],[139.0206764,35.954783],[139.020703,35.9547735],[139.0207293,35.9547886]]]},"properties":{"layer":"landslide","class_code":"1","class_label":"急傾斜地の崩落","status_code":"0","status_label":"特別警戒区域指定済み"}},{"type":"Feature","id":"lsld_ed52e527-8bb6-47ce-8053-543e02c48e91","geometry":{"type":"Polygon","coordinates":[[[139.0125,35.958333333333336],[139.0125,35.95774971136131],[139.0125819,35.9577299],[139.0128293,35.95766],[139.0129921,35.9575957],[139.0132115,35.9574769],[139.0134749,35.9573316],[139.0136612,35.9572116],[139.0138026,35.9571033],[139.014049,35.9571258],[139.0140499,35.9571259],[139.0143374,35.9577148],[139.014341,35.9577222],[139.0143399,35.9577227],[139.0141474,35.957817],[139.0140318,35.9578811],[139.0140101,35.9578812],[139.0138024,35.9579478],[139.0134907,35.9580678],[139.0133468,35.9581586],[139.0132516,35.9581953],[139.0132325,35.9582068],[139.0132277,35.9582097],[139.0132133,35.95821],[139.013171,35.958211],[139.0129725,35.9582633],[139.0128903111013,35.958333333333336],[139.0125,35.958333333333336]]]},"properties":{"layer":"landslide","class_code":"1","class_label":"急傾斜地の崩落","status_code":"0","status_label":"特別警戒区域指定済み"}},{"type":"Feature","id":"lsld_98542d73-313f-49d1-9aae-804df7ff1f04","geometry":{"type":"Polygon","coordinates":[[[139.0163199,35.9572332],[139.0162328,35.9572686],[139.0162187,35.9572739],[139.0161724,35.9572914],[139.0154055,35.9574919],[139.0153902,35.9574959],[139.0151375,35.9575502],[139.0146984,35.9576444],[139.0145526,35.9576774],[139.0143857,35.9577151],[139.0143845,35.9577154],[139.0143442,35.9577314],[139.0143435,35.95773],[139.0143399,35.9577227],[139.0143361,35.9577149],[139.014049,35.9571258],[139.0140499,35.9571259],[139.0142644,35.9571648],[139.0143643,35.9572097],[139.0145143,35.9570536],[139.0146717,35.9569314],[139.0147925,35.9569803],[139.0149733,35.9568787],[139.0151878,35.9568631],[139.015319,35.9567284],[139.0153977,35.9567774],[139.0154211,35.956949],[139.0155199,35.9570443],[139.0155708,35.9569527],[139.0155985,35.9568173],[139.0157063,35.9568083],[139.0158964,35.9569035],[139.0160393,35.9567703],[139.0161945,35.9566521],[139.016332,35.9565652],[139.0165964,35.9564891],[139.0166519,35.9563059],[139.0165726,35.9561939],[139.0165109,35.9560545],[139.0165351,35.9560059],[139.0166125,35.9558576],[139.0166608,35.9558879],[139.0166965,35.9559103],[139.0167257,35.9559287],[139.016624,35.9560137],[139.0166453,35.956032],[139.0167401,35.9561135],[139.0168008,35.9561793],[139.0168917,35.9562779],[139.0168833,35.9563236],[139.0169074,35.9563931],[139.0170283,35.9567417],[139.0169752,35.956787],[139.0166477,35.9570666],[139.0165965,35.9570935],[139.0165216,35.9571501],[139.0165209,35.9571506],[139.0164506,35.9571801],[139.0164321,35.9571876],[139.0163199,35.9572332]]]},"properties":{"layer":"landslide","class_code":"1","class_label":"急傾斜地の崩落","status_code":"0","status_label":"特別警戒区域指定済み"}},{"type":"Feature","id":"lsld_11f4e5a8-2168-4369-bd6b-c329a0ee5552","geometry":{"type":"Polygon","coordinates":[[[139.0235916,35.9532501],[139.0233775,35.9533355],[139.0231421,35.953352],[139.0229554,35.9533431],[139.0229515,35.9533429],[139.0229626,35.9532575],[139.0230347,35.9527048],[139.0230507,35.952582],[139.0231352,35.9526188],[139.0231801,35.9526184],[139.0234052,35.9526433],[139.0236675,35.9527849],[139.0238848,35.952882],[139.0241222,35.9531503],[139.0241221,35.9531577],[139.0241219,35.9531805],[139.0239568,35.9531503],[139.0237731,35.9531396],[139.0235916,35.9532501]]]},"properties":{"layer":"landslide","class_code":"1","class_label":"急傾斜地の崩落","status_code":"0","status_label":"特別警戒区域指定済み"}},{"type":"Feature","id":"lsld_4b6c2af8-d7ed-4010-b0fc-ee571f5889ed","geometry":{"type":"Polygon","coordinates":[[[139.025,35.9525157565185],[139.0248783,35.9525176],[139.0249195,35.9522971],[139.0249665,35.9521136],[139.0249912,35.9520163],[139.025,35.95194645246627],[139.025,35.95178365278518],[139.0249758,35.9516839],[139.025,35.951634044360894],[139.025,35.95110173138403],[139.0249876,35.9510618],[139.025,35.95094813333334],[139.025,35.9501287130137],[139.024807,35.9501611],[139.0247992,35.9501347],[139.0247951,35.950121],[139.025,35.9500731711326],[139.025,35.9525157565185]]]},"properties":{"layer":"landslide","class_code":"1","class_label":"急傾斜地の崩落","status_code":"0","status_label":"特別警戒区域指定済み"}},{"type":"Feature","id":"lsld_1b61d8bd-6596-48d5-b681-39348d0fc2ce","geometry":{"type":"Polygon","coordinates":[[[139.025,35.95051661846474],[139.025,35.95062184795539],[139.024989,35.9506279],[139.0249814,35.9506168],[139.0248798,35.9504683],[139.0248911,35.9504583],[139.0249145,35.9504378],[139.025,35.95051661846474]]]},"properties":{"layer":"landslide","class_code":"1","class_label":"急傾斜地の崩落","status_code":"0","status_label":"特別警戒区域指定済み"}},{"type":"Feature","id":"lsld_f35242c2-be1b-43be-bb2a-4a0639e8564f","geometry":{"type":"Polygon","coordinates":[[[139.017863,35.9564242],[139.01788,35.9564658],[139.0178077,35.9564923],[139.0177188,35.9565279],[139.0176202,35.9565685],[139.0175548,35.9565978],[139.0174981,35.9566229],[139.0174469,35.9566528],[139.0173039,35.9567427],[139.0172725,35.9567543],[139.0171163,35.9568119],[139.0169074,35.9563931],[139.0168008,35.9561793],[139.0167506,35.9560787],[139.0167654,35.9560358],[139.0167716,35.9560179],[139.0167888,35.9559683],[139.0168115,35.9559029],[139.0168015,35.9559077],[139.0168037,35.9558891],[139.0168092,35.9558444],[139.0168185,35.9557679],[139.0168915,35.955865],[139.0168893,35.9560581],[139.0170916,35.956252],[139.0172602,35.9561877],[139.0173797,35.9560241],[139.0175105,35.9559103],[139.0176664,35.9558596],[139.0176665,35.9558835],[139.0176672,35.9559198],[139.0176739,35.9559554],[139.0176965,35.956024],[139.0177054,35.956048],[139.017758,35.956168],[139.017863,35.9564242]]]},"properties":{"layer":"landslide","class_code":"1","class_label":"急傾斜地の崩落","status_code":"0","status_label":"特別警戒区域指定済み"}},{"type":"Feature","id":"lsld_64a37493-69c3-47d6-98fc-858e6bdb87ef","geometry":{"type":"Polygon","coordinates":[[[139.01932248126568,35.958333333333336],[139.01885858437157,35.958333333333336],[139.0188591,35.9583221],[139.0188587,35.9583212],[139.0188361,35.9582952],[139.0188359,35.9582949],[139.01881,35.9582686],[139.0187764,35.9582516],[139.018637,35.9583066],[139.0186363,35.9583066],[139.0183146,35.9582498],[139.0183138,35.9582494],[139.0182643,35.9582202],[139.0181343,35.9581458],[139.0181473,35.9581104],[139.0182068,35.9579893],[139.0183206,35.9577476],[139.0183665,35.95765],[139.0185973,35.9576626],[139.0186424,35.9577192],[139.0186433,35.9577195],[139.0187971,35.9577778],[139.0187974,35.9577779],[139.0190132,35.9577488],[139.0191453,35.9577933],[139.0193134,35.9579325],[139.0193139,35.9579329],[139.0194369,35.9580391],[139.0194374,35.9580398],[139.0193245,35.9582357],[139.01932248126568,35.958333333333336]]]},"properties":{"layer":"landslide","class_code":"1","class_label":"急傾斜地の崩落","status_code":"0","status_label":"特別警戒区域指定済み"}},{"type":"Feature","id":"lsld_7b1b3e7a-3d32-48cc-b4f9-22c40fc87ba1","geometry":{"type":"Polygon","coordinates":[[[139.0208703,35.9549869],[139.0208456,35.9550502],[139.0208065,35.9551507],[139.0207568,35.9552869],[139.0207551,35.9552937],[139.0207175,35.9554448],[139.0206629,35.9554117],[139.0206236,35.9553879],[139.0206259,35.9552743],[139.0206648,35.9550884],[139.0207458,35.9550113],[139.0207225,35.954954],[139.0207083,35.9549192],[139.0207118,35.9549157],[139.0207273,35.9549004],[139.0207279,35.9548998],[139.0208703,35.9549869]]]},"properties":{"layer":"landslide","class_code":"1","class_label":"急傾斜地の崩落","status_code":"0","status_label":"特別警戒区域指定済み"}},{"type":"Feature","id":"lsld_dfdd2543-c61f-411c-a11d-1318e214b071","geometry":{"type":"Polygon","coordinates":[[[139.01376128799998,35.958333333333336],[139.0138338,35.9582864],[139.013924,35.9582954],[139.0140506,35.9582911],[139.0141193,35.9582232],[139.0142162,35.9581096],[139.0142422,35.9580981],[139.0142764,35.9580827],[139.014742,35.9579718],[139.0149369,35.9579638],[139.0151111,35.9579358],[139.0153028,35.957895],[139.0153844,35.9578747],[139.0157121,35.9577803],[139.0159153,35.9577111],[139.0159896,35.9576838],[139.0160324,35.9577813],[139.016088,35.9579077],[139.0161572,35.9580833],[139.0160559,35.9581074],[139.0158393,35.9581724],[139.0156252,35.9582288],[139.0154354,35.9582847],[139.0152056,35.9583116],[139.0149887,35.9583297],[139.014976512378,35.958333333333336],[139.01376128799998,35.958333333333336]]]},"properties":{"layer":"landslide","class_code":"1","class_label":"急傾斜地の崩落","status_code":"0","status_label":"特別警戒区域指定済み"}},{"type":"Feature","id":"lsld_3eade28f-b56f-4ba2-8d2d-2f24905d5648","geometry":{"type":"Polygon","coordinates":[[[139.02248477300097,35.958333333333336],[139.0211989088561,35.958333333333336],[139.0211009,35.9582371],[139.0209572,35.958251],[139.0209666,35.9581851],[139.0209737,35.9581544],[139.0209802,35.9581261],[139.0209951,35.9580776],[139.0211887,35.9580267],[139.021313,35.9580572],[139.0217623,35.958111],[139.0219536,35.9580992],[139.0220386,35.958143],[139.0221311,35.9581869],[139.02248477300097,35.958333333333336]]]},"properties":{"layer":"landslide","class_code":"1","class_label":"急傾斜地の崩落","status_code":"0","status_label":"特別警戒区域指定済み"}},{"type":"Feature","id":"lsld_f6f72930-3fc3-4b5d-908c-698e4803222a","geometry":{"type":"Polygon","coordinates":[[[139.0225539,35.9506283],[139.0224439,35.9506864],[139.0223176,35.9507531],[139.0222448,35.9507955],[139.0221498,35.9508502],[139.0220659,35.9508996],[139.0220063,35.9509313],[139.0219282,35.9509695],[139.0218551,35.9509174],[139.0217124,35.9508336],[139.021798,35.950748],[139.021926,35.9506131],[139.0220307,35.9505059],[139.0221115,35.9504233],[139.0223074,35.9504975],[139.0225539,35.9506283]]]},"properties":{"layer":"landslide","class_code":"1","class_label":"急傾斜地の崩落","status_code":"0","status_label":"特別警戒区域指定済み"}},{"type":"Feature","id":"lsld_38b2c92d-cdfa-430c-b0f4-d2b4cd0bc612","geometry":{"type":"Polygon","coordinates":[[[139.025,35.95735814287891],[139.0249242,35.9573048],[139.0247669,35.9572046],[139.0246119,35.9571089],[139.0244781,35.9570542],[139.0242934,35.957012],[139.0241569,35.9569933],[139.0241347,35.9569923],[139.0241458,35.9569195],[139.0241479,35.9569055],[139.0241735,35.9567377],[139.0241931,35.9566669],[139.0242917,35.9564589],[139.0243289,35.9565139],[139.0245277,35.9565807],[139.0246525,35.9566945],[139.0248204,35.9566953],[139.025,35.956768161421806],[139.025,35.95735814287891]]]},"properties":{"layer":"landslide","class_code":"1","class_label":"急傾斜地の崩落","status_code":"0","status_label":"特別警戒区域指定済み"}},{"type":"Feature","id":"lsld_b9c719f5-1172-4973-80bf-7b512fdf2c9e","geometry":{"type":"Polygon","coordinates":[[[139.0206634,35.9560764],[139.0206469,35.9561352],[139.0206239,35.9562034],[139.0205738,35.9563077],[139.0205537,35.9563691],[139.0205212,35.9564686],[139.020367,35.9564368],[139.0202484,35.9564165],[139.020053,35.9563974],[139.0198652,35.9563932],[139.0196631,35.956396],[139.0194744,35.9564152],[139.0191411,35.9564234],[139.0188841,35.9563438],[139.0188094,35.9563429],[139.0187882,35.9563361],[139.018771,35.9563357],[139.0184712,35.956362],[139.0182813,35.956364],[139.0181456,35.9563736],[139.0181376,35.9563737],[139.0181279,35.9563711],[139.0180996,35.9562782],[139.0179503,35.9557868],[139.0179392,35.9557495],[139.0179288,35.9557281],[139.0179138,35.9557055],[139.0179888,35.955744],[139.0181252,35.9557669],[139.0182953,35.9558996],[139.0183577,35.955859],[139.0184668,35.9556904],[139.0186353,35.9556585],[139.0188414,35.9557418],[139.019021,35.9558579],[139.0192311,35.9559529],[139.019457,35.9559561],[139.01969,35.9559801],[139.0198883,35.9559145],[139.020115,35.9559748],[139.0203087,35.9560545],[139.0204543,35.9560278],[139.0206634,35.9560764]]]},"properties":{"layer":"landslide","class_code":"1","class_label":"急傾斜地の崩落","status_code":"0","status_label":"特別警戒区域指定済み"}},{"type":"Feature","id":"lsld_79f25eea-7880-4681-8e59-478f10fe8c7b","geometry":{"type":"Polygon","coordinates":[[[139.0203671,35.9554433],[139.0204138,35.9554633],[139.0204574,35.9554801],[139.0206502,35.955554],[139.0207854,35.9555975],[139.0209223,35.9558172],[139.0208552,35.9558292],[139.0208528,35.9558295],[139.0208066,35.9558354],[139.0207862,35.9558371],[139.0207031,35.9556784],[139.0205895,35.9556309],[139.0203714,35.9555402],[139.0203405,35.9554794],[139.0203617,35.955441],[139.0203671,35.9554433]]]},"properties":{"layer":"landslide","class_code":"1","class_label":"急傾斜地の崩落","status_code":"0","status_label":"特別警戒区域指定済み"}},{"type":"Feature","id":"lsld_696d16b6-f8f0-43c4-8602-fde82c242fc3","geometry":{"type":"Polygon","coordinates":[[[139.0125,35.95151007020201],[139.0126449,35.9515726],[139.0128292,35.9516904],[139.0130187,35.9517945],[139.0132077,35.951947],[139.0132982,35.9521416],[139.0133812,35.9522453],[139.0133099,35.9524186],[139.0133198,35.9526077],[139.0134042,35.9527746],[139.0133977,35.9528557],[139.0133243,35.9530354],[139.0133011,35.9532602],[139.0132984,35.9532577],[139.0130501,35.9533227],[139.0128084,35.9533057],[139.0126976,35.9532864],[139.0125,35.95326227890625],[139.0125,35.95325052727274],[139.0125126,35.9532315],[139.0125283,35.953208],[139.0126882,35.9529673],[139.012762,35.952983],[139.0128512,35.9529922],[139.0130361,35.952998],[139.0130871,35.952951],[139.0130851,35.9529475],[139.0130888,35.9529309],[139.0131127,35.952849],[139.0130296,35.9527785],[139.0129574,35.9526202],[139.012939,35.9524844],[139.0129075,35.9523509],[139.0128645,35.9522742],[139.012785,35.9521611],[139.0126785,35.9520576],[139.0125834,35.9519869],[139.0125,35.95195068745141],[139.0125,35.95151007020201]]]},"properties":{"layer":"landslide","class_code":"1","class_label":"急傾斜地の崩落","status_code":"0","status_label":"特別警戒区域指定済み"}},{"type":"Feature","id":"lsld_5121d429-ecd2-474d-9c96-605d1e59eac5","geometry":{"type":"Polygon","coordinates":[[[139.0221392,35.9539135],[139.0219687,35.953914],[139.0217589,35.9539199],[139.0217581,35.953922],[139.0216644,35.9537811],[139.021308,35.9537177],[139.0213073,35.9537174],[139.0211044,35.9535297],[139.0211063,35.953528],[139.0212041,35.9533437],[139.0210291,35.9531723],[139.0210587,35.9530423],[139.0210438,35.9528621],[139.0209828,35.952707],[139.0209538,35.9525962],[139.0207434,35.9525849],[139.0205327,35.9524918],[139.0202935,35.9524021],[139.0200919,35.9523021],[139.0198961,35.9522348],[139.0197408,35.9521283],[139.0195376,35.9519806],[139.0193188,35.9518754],[139.019204,35.9517298],[139.0192972,35.9517118],[139.019453,35.9516819],[139.0195319,35.9516577],[139.0195722,35.951712],[139.0196966,35.9517859],[139.0198956,35.9517984],[139.0200844,35.9518628],[139.0204601,35.9519479],[139.0207035,35.9519316],[139.0208486,35.9519971],[139.020978,35.9520372],[139.0211765,35.9520589],[139.0217775,35.9526159],[139.0217567,35.9526694],[139.021772,35.9527783],[139.0218011,35.9528039],[139.0218487,35.9528235],[139.0218264,35.9529847],[139.0218278,35.9529851],[139.0218768,35.9529954],[139.0218773,35.9529956],[139.021901,35.9529954],[139.0219053,35.9529945],[139.0219061,35.9529948],[139.0219498,35.9529907],[139.0219942,35.9529838],[139.0220034,35.9529819],[139.0220048,35.9529815],[139.0220521,35.9529697],[139.0220757,35.9529625],[139.0220923,35.9529566],[139.0220237,35.9528032],[139.0230492,35.9525878],[139.0230347,35.9527048],[139.0229652,35.9532636],[139.0229554,35.9533431],[139.0229548,35.9533478],[139.0229546,35.9533491],[139.0229504,35.9533515],[139.0227344,35.9534751],[139.0226602,35.9535967],[139.022508,35.9537303],[139.0223058,35.953784],[139.0221553,35.9539126],[139.0221537,35.9539121],[139.0221392,35.9539135]]]},"properties":{"layer":"landslide","class_code":"1","class_label":"急傾斜地の崩落","status_code":"0","status_label":"特別警戒区域指定済み"}},{"type":"Feature","id":"lsld_3df01c46-040b-403c-9dcc-0e5b6c24add1","geometry":{"type":"Polygon","coordinates":[[[139.015991,35.9514068],[139.0159961,35.9515921],[139.0160545,35.951766],[139.016146,35.9519328],[139.0163264,35.9520805],[139.0165067,35.9522282],[139.0166871,35.9523759],[139.0168674,35.9525236],[139.0170478,35.9526713],[139.0172281,35.9528191],[139.0174085,35.9529668],[139.0175888,35.9531145],[139.0177692,35.9532622],[139.0179495,35.9534099],[139.0181299,35.9535576],[139.0183102,35.9537053],[139.0184906,35.953853],[139.018671,35.9540008],[139.0184701,35.954142],[139.0183227,35.9542268],[139.0181872,35.9542973],[139.0180016,35.9543914],[139.0178308,35.9544641],[139.0176631,35.9545296],[139.0175249,35.9545787],[139.0174161,35.9546137],[139.0173014,35.9546511],[139.0172197,35.9546696],[139.0171556,35.9546866],[139.0170816,35.954705],[139.0170072,35.9547224],[139.0169325,35.9547387],[139.0168574,35.9547539],[139.016782,35.9547681],[139.0167063,35.9547812],[139.0166304,35.9547932],[139.0165542,35.9548042],[139.0164777,35.954814],[139.0164011,35.9548228],[139.0163243,35.9548305],[139.0162473,35.9548371],[139.0161702,35.9548426],[139.0160931,35.954847],[139.0160158,35.9548503],[139.0159384,35.9548526],[139.0158611,35.9548537],[139.0157837,35.9548537],[139.0157063,35.9548526],[139.015629,35.9548505],[139.0155517,35.9548472],[139.0154745,35.9548428],[139.0153974,35.9548374],[139.0153204,35.9548308],[139.0152436,35.9548232],[139.015167,35.9548144],[139.0150905,35.9548046],[139.0150143,35.9547937],[139.0149383,35.9547817],[139.0149041,35.9547758],[139.0148269,35.9547605],[139.0147391,35.9547432],[139.0146572,35.954726],[139.0148047,35.9542714],[139.0148719,35.9540706],[139.014939,35.9538697],[139.0150062,35.9536689],[139.0150734,35.9534681],[139.0151405,35.9532672],[139.0152077,35.9530664],[139.0152749,35.9528655],[139.015342,35.9526647],[139.0154092,35.9524638],[139.0154763,35.952263],[139.015528,35.9520654],[139.0155827,35.9518673],[139.0156498,35.9516664],[139.015717,35.9514656],[139.0157061,35.9512814],[139.0157873,35.951264],[139.0158839,35.9512433],[139.0159795,35.9512227],[139.015991,35.9514068]]]},"properties":{"layer":"landslide","class_code":"2","class_label":"土石流","status_code":"0","status_label":"特別警戒区域指定済み"}},{"type":"Feature","id":"lsld_5feacaef-1dcd-468f-bf4e-b845952b3a8e","geometry":{"type":"Polygon","coordinates":[[[139.0137985,35.9521778],[139.0138415,35.9523376],[139.0138328,35.9525397],[139.0137641,35.952696],[139.0137592,35.952814],[139.0137566,35.9528763],[139.0138444,35.9529199],[139.0139213,35.9529582],[139.0141313,35.9530597],[139.0142718,35.9531145],[139.0146799,35.9531527],[139.0146411,35.9532168],[139.0145638,35.9533282],[139.014451,35.9534657],[139.0143378,35.9535779],[139.0143286,35.9535804],[139.0142468,35.9536597],[139.0141197,35.9537613],[139.0140018,35.9538343],[139.0138839,35.9539002],[139.0137512,35.9539756],[139.013657,35.954013],[139.013557,35.9540481],[139.013457,35.9540832],[139.0133601,35.9541087],[139.0132572,35.954139],[139.0131544,35.9541597],[139.013303,35.9536392],[139.0135722,35.9526967],[139.0136199,35.9524809],[139.0136442,35.9523962],[139.0136079,35.9521849],[139.0135699,35.9520239],[139.0137016,35.9520031],[139.0137154,35.9520009],[139.0137168,35.9520007],[139.0138151,35.9519852],[139.0138483,35.9519799],[139.0137985,35.9521778]]]},"properties":{"layer":"landslide","class_code":"2","class_label":"土石流","status_code":"0","status_label":"特別警戒区域指定済み"}},{"type":"Feature","id":"lsld_0e7a2b35-c510-4df3-b65b-420a232ab985","geometry":{"type":"Polygon","coordinates":[[[139.013789,35.9521781],[139.0138202,35.9523439],[139.0138249,35.9525375],[139.0137562,35.9526961],[139.0137518,35.9527623],[139.0137444,35.9528764],[139.0138328,35.9529549],[139.0138418,35.952963],[139.0138297,35.9529642],[139.0136125,35.9529865],[139.0136085,35.9528768],[139.0136524,35.9526964],[139.0136406,35.9524866],[139.0137237,35.9523726],[139.0136518,35.9521833],[139.0137016,35.9520031],[139.0137154,35.9520009],[139.0137168,35.9520007],[139.0138151,35.9519852],[139.013789,35.9521781]]]},"properties":{"layer":"landslide","class_code":"2","class_label":"土石流","status_code":"0","status_label":"特別警戒区域指定済み"}},{"type":"Feature","id":"lsld_49a2918d-5071-4b71-ae5c-8ef0a7dc72a3","geometry":{"type":"Polygon","coordinates":[[[139.0159211,35.9514218],[139.0159214,35.9514229],[139.015784,35.9514524],[139.0157846,35.9514511],[139.0157873,35.951264],[139.0158208,35.9512488],[139.0158839,35.9512433],[139.0159211,35.9514218]]]},"properties":{"layer":"landslide","class_code":"2","class_label":"土石流","status_code":"0","status_label":"特別警戒区域指定済み"}}]}