{"type":"FeatureCollection","properties":{"mesh_code":"53397021","source":"PLATEAU秩父市2025","layer":"landslide"},"features":[{"type":"Feature","id":"lsld_0630a62a-43d9-4e01-95a3-26e30b70121e","geometry":{"type":"Polygon","coordinates":[[[139.0203879,35.9415493],[139.0204587539925,35.94166666666667],[139.0200582079365,35.94166666666667],[139.0200545,35.9416034],[139.020047,35.9414207],[139.0200843,35.9414147],[139.020131,35.9414071],[139.0202119,35.941394],[139.0202886,35.9413815],[139.0203879,35.9415493]]]},"properties":{"layer":"landslide","class_code":"2","class_label":"土石流","status_code":"0","status_label":"特別警戒区域指定済み"}},{"type":"Feature","id":"lsld_4e9d42d9-5041-4b35-a17e-f4f5279df890","geometry":{"type":"Polygon","coordinates":[[[139.0202119,35.941394],[139.0202758,35.9415675],[139.02032978622495,35.94166666666667],[139.02013975771857,35.94166666666667],[139.0201267,35.9415917],[139.0200843,35.9414147],[139.020131,35.9414071],[139.0202119,35.941394]]]},"properties":{"layer":"landslide","class_code":"2","class_label":"土石流","status_code":"0","status_label":"特別警戒区域指定済み"}}]}