{"type":"FeatureCollection","properties":{"mesh_code":"53397042","source":"PLATEAU秩父市2025","layer":"landslide"},"features":[{"type":"Feature","id":"lsld_11c80d55-c90a-4127-96b9-0a143373ae39","geometry":{"type":"Polygon","coordinates":[[[139.0365491,35.9530063],[139.0364527,35.9529096],[139.0364522,35.9529096],[139.0364277,35.9528967],[139.0362395,35.9528759],[139.0362392,35.9528758],[139.0362205,35.9528728],[139.0361045,35.9527773],[139.0361529,35.9526962],[139.0361712,35.9526656],[139.0362196,35.9525845],[139.0363705,35.9526071],[139.0363953,35.9526124],[139.0365258,35.9526332],[139.0365426,35.9526448],[139.0365431,35.9526448],[139.0365541,35.9526458],[139.0365541,35.9526466],[139.0365509,35.9527289],[139.0365509,35.9527359],[139.0365505,35.952796],[139.0365502,35.9528441],[139.0365498,35.9529084],[139.0365491,35.9530063]]]},"properties":{"layer":"landslide","class_code":"1","class_label":"急傾斜地の崩落","status_code":"0","status_label":"特別警戒区域指定済み"}},{"type":"Feature","id":"lsld_3d15ba0a-e562-4241-8e42-3c319a8f57b0","geometry":{"type":"Polygon","coordinates":[[[139.0294889,35.9561282],[139.0294794,35.9561307],[139.029414,35.9561478],[139.0294027,35.9561508],[139.0292753,35.9561841],[139.0292134,35.9562003],[139.0285174,35.9564254],[139.0283188,35.9564972],[139.0281681,35.956552],[139.0281581,35.9565554],[139.028094,35.9565769],[139.0279027,35.956625],[139.0277828,35.9566552],[139.0277548,35.9566164],[139.0277515,35.9566118],[139.0275049,35.9565066],[139.0271839,35.9563756],[139.0271098,35.9563144],[139.0270716,35.9562559],[139.0270683,35.9562329],[139.0270538,35.9561294],[139.0270713,35.9560558],[139.0271028,35.9559993],[139.0271341,35.9559495],[139.0271773,35.9559183],[139.0272122,35.9558974],[139.0274017,35.9557842],[139.027461,35.9557288],[139.0275303,35.9556531],[139.0275968,35.9555556],[139.0276348,35.9554896],[139.0276699,35.9554155],[139.0276724,35.9553226],[139.0276385,35.9551963],[139.0279817,35.9551743],[139.0279914,35.9551737],[139.0280422,35.9551704],[139.0280512,35.9551698],[139.0281156,35.9551657],[139.0281527,35.9551633],[139.0281617,35.9551627],[139.0281395,35.9553401],[139.0280838,35.9555277],[139.027981,35.9557005],[139.0278715,35.9558777],[139.0276884,35.9559515],[139.0277875,35.9559445],[139.0279134,35.9560033],[139.028034,35.9561038],[139.0281722,35.9561097],[139.0283868,35.9560101],[139.0286203,35.9559864],[139.0287705,35.9560764],[139.0289178,35.9559509],[139.0289569,35.9559218],[139.0291621,35.9558658],[139.0294797,35.9558452],[139.0294838,35.9559353],[139.0294839,35.9559374],[139.0294847,35.9559921],[139.0294852,35.9560245],[139.0294856,35.9560526],[139.0294861,35.9560822],[139.0294889,35.9561282]]]},"properties":{"layer":"landslide","class_code":"1","class_label":"急傾斜地の崩落","status_code":"0","status_label":"特別警戒区域指定済み"}},{"type":"Feature","id":"lsld_ed504134-c0e5-4ec3-b3f9-8a8022501308","geometry":{"type":"Polygon","coordinates":[[[139.0262798,35.9522279],[139.0263585,35.9522444],[139.0264545,35.9522671],[139.0264831,35.9522755],[139.026533,35.9522902],[139.0265557,35.9522969],[139.0266372,35.952321],[139.0265508,35.9524603],[139.0264982,35.9526402],[139.0263799,35.9527545],[139.0264446,35.9529037],[139.026222,35.9530531],[139.0262264,35.9531376],[139.0262674,35.9531964],[139.0263309,35.9532627],[139.0264822,35.9533335],[139.0265601,35.9533724],[139.0267827,35.9534727],[139.0268701,35.9535113],[139.0270383,35.9536264],[139.0271697,35.9537756],[139.0273345,35.9539226],[139.027581,35.9541814],[139.0277321,35.9543329],[139.0278735,35.9544985],[139.0280509,35.9546381],[139.0280384,35.9548356],[139.0280902,35.9549891],[139.0281527,35.9551633],[139.0281156,35.9551657],[139.0280512,35.9551698],[139.0280422,35.9551704],[139.0279914,35.9551737],[139.0279817,35.9551743],[139.0276385,35.9551963],[139.0276364,35.9551965],[139.0275947,35.955057],[139.0275469,35.9549165],[139.0274953,35.9547708],[139.0274557,35.9547052],[139.0273882,35.9545951],[139.0273242,35.9545135],[139.0272306,35.9544149],[139.0270572,35.9542536],[139.0269776,35.9541877],[139.0268825,35.9541028],[139.0268054,35.954038],[139.026678,35.9539454],[139.0265635,35.9538624],[139.0264477,35.9537805],[139.0263434,35.9537166],[139.0261347,35.9535877],[139.025974,35.9534559],[139.0258972,35.953369],[139.0258114,35.9532652],[139.0257821,35.9532175],[139.025717,35.9531117],[139.025676,35.9530651],[139.0257747,35.9529739],[139.0257768,35.952972],[139.0258292,35.9529112],[139.0259512,35.9527687],[139.0260118,35.9526764],[139.0261,35.95254],[139.026195,35.9523731],[139.0262493,35.9522617],[139.0262651,35.9522249],[139.0262798,35.9522279]]]},"properties":{"layer":"landslide","class_code":"1","class_label":"急傾斜地の崩落","status_code":"0","status_label":"特別警戒区域指定済み"}},{"type":"Feature","id":"lsld_7841733d-6c92-4f9f-8d84-d8d753d3b81a","geometry":{"type":"Polygon","coordinates":[[[139.026534,35.9539119],[139.0267815,35.9540766],[139.0269311,35.9542215],[139.0270761,35.9544049],[139.0270759,35.9544113],[139.0272035,35.9545982],[139.0272889,35.9547251],[139.0273047,35.9547486],[139.0272888,35.9547564],[139.0272617,35.9547699],[139.0270507,35.9548749],[139.0270096,35.9548953],[139.0269896,35.9549053],[139.026915,35.9549424],[139.0268166,35.9547886],[139.0266827,35.954619],[139.0265708,35.9544426],[139.0264065,35.9543245],[139.0262152,35.9542086],[139.0259485,35.9538988],[139.0257364,35.953911],[139.0256719,35.9538439],[139.0254862,35.9536488],[139.0254327,35.9535249],[139.0253965,35.9533713],[139.0253401,35.9531847],[139.0252135,35.9530328],[139.025,35.95291968682785],[139.025,35.9525166939409],[139.0252803,35.9525121],[139.0253397,35.9525112],[139.0253444,35.9525111],[139.0253456,35.9526339],[139.0253457,35.9526456],[139.0253623,35.9527124],[139.0253736,35.9527408],[139.0253895,35.9527807],[139.0254044,35.952818],[139.0254213,35.9528408],[139.0255875,35.9530649],[139.0257061,35.9532832],[139.0258084,35.9534138],[139.0259001,35.9535048],[139.025922,35.9535265],[139.025958,35.9535622],[139.0260954,35.9536468],[139.0261596,35.9536864],[139.0262158,35.9537189],[139.0262372,35.9537313],[139.0263574,35.9538007],[139.0264299,35.9538426],[139.0265112,35.9538967],[139.026534,35.9539119]]]},"properties":{"layer":"landslide","class_code":"1","class_label":"急傾斜地の崩落","status_code":"0","status_label":"特別警戒区域指定済み"}},{"type":"Feature","id":"lsld_aa336cea-1191-49b4-a516-e62acdb9e682","geometry":{"type":"Polygon","coordinates":[[[139.030575721327,35.95],[139.0305928,35.9500252],[139.0306799,35.9501532],[139.0309491,35.9505504],[139.0310126,35.9506442],[139.0311567,35.9508568],[139.0312166,35.9509451],[139.0309084,35.9510798],[139.0307765,35.9510808],[139.030595,35.9511499],[139.0303589,35.9511961],[139.0301175,35.9512376],[139.0298089,35.9511728],[139.0295631,35.9510201],[139.0292525,35.9508038],[139.0293713,35.9506929],[139.0294325,35.9506152],[139.0295318,35.9505622],[139.0296406,35.9505042],[139.029642,35.9505034],[139.0298165,35.9504239],[139.0299383,35.9503686],[139.0300443,35.9502941],[139.0301351,35.9501883],[139.0302183,35.9500826],[139.0303011,35.9500064],[139.0303066,35.9500014],[139.0303088324324,35.95],[139.030575721327,35.95]]]},"properties":{"layer":"landslide","class_code":"1","class_label":"急傾斜地の崩落","status_code":"0","status_label":"特別警戒区域指定済み"}},{"type":"Feature","id":"lsld_b8ac7a44-f543-4d67-b4d8-0dbb68c4fca6","geometry":{"type":"Polygon","coordinates":[[[139.0375,35.95397609928966],[139.0373764,35.953998],[139.0373762,35.9539983],[139.0371945,35.9538992],[139.0371201,35.9538674],[139.0368013,35.95349],[139.036713,35.9532941],[139.03673,35.9531525],[139.0367822,35.95313],[139.0368279,35.9531103],[139.0369063,35.9530765],[139.0369731,35.9530476],[139.0370056,35.9530367],[139.0371601,35.9531073],[139.0372103,35.9531998],[139.0372518,35.9532178],[139.0372524,35.9532179],[139.0374349,35.953243],[139.0375,35.95324472202415],[139.0375,35.95397609928966]]]},"properties":{"layer":"landslide","class_code":"1","class_label":"急傾斜地の崩落","status_code":"0","status_label":"特別警戒区域指定済み"}},{"type":"Feature","id":"lsld_d59223d5-cea8-4d5f-9223-7c3858fd02f2","geometry":{"type":"Polygon","coordinates":[[[139.0253783,35.95153],[139.0253808,35.9515947],[139.0253751,35.9518379],[139.0253451,35.9522904],[139.0253478,35.9525104],[139.025344,35.9525105],[139.025281,35.9525115],[139.025,35.9525157565185],[139.025,35.95150398887859],[139.0250134,35.9515042],[139.025,35.95148877844828],[139.025,35.950605860231654],[139.0250591,35.9505711],[139.0250758,35.9505613],[139.0251009,35.9505102],[139.025159,35.9503918],[139.0250935,35.9502757],[139.0250582,35.9502311],[139.025,35.95023920013556],[139.025,35.95006916434937],[139.0250752,35.9500508],[139.0250931,35.950052],[139.0251992,35.9500594],[139.0252599,35.9501046],[139.0252623,35.9501064],[139.0253845,35.9502909],[139.0253876,35.9503015],[139.0253973,35.9503357],[139.025403,35.9503557],[139.0254334,35.950493],[139.0254445,35.9506534],[139.0254313,35.9506999],[139.0254256,35.9507084],[139.0254193,35.950718],[139.0254022,35.9507437],[139.0253155,35.9508182],[139.0252669,35.9509032],[139.0252502,35.9509859],[139.0252494,35.9510661],[139.02528,35.9511853],[139.0253146,35.9513322],[139.0253196,35.9513537],[139.0253215,35.9513546],[139.0253223,35.951355],[139.0253631,35.9514549],[139.0253783,35.95153]]]},"properties":{"layer":"landslide","class_code":"1","class_label":"急傾斜地の崩落","status_code":"0","status_label":"特別警戒区域指定済み"}},{"type":"Feature","id":"lsld_2dc0f59b-cf7c-4db5-86b5-26cc59d3f195","geometry":{"type":"Polygon","coordinates":[[[139.025,35.95043539005487],[139.0251009,35.9505102],[139.0251445,35.9505425],[139.0250715,35.9505826],[139.0250286,35.9506062],[139.0250159,35.9506131],[139.025,35.95062184795539],[139.025,35.95043539005487]]]},"properties":{"layer":"landslide","class_code":"1","class_label":"急傾斜地の崩落","status_code":"0","status_label":"特別警戒区域指定済み"}},{"type":"Feature","id":"lsld_a6fe668b-922f-4e5d-a9e2-4553e69d3df5","geometry":{"type":"Polygon","coordinates":[[[139.0270731,35.9559605],[139.0270542,35.955997],[139.0270284,35.9560514],[139.0270105,35.9561061],[139.0270118,35.9561421],[139.0270124,35.9561578],[139.0270127,35.9561713],[139.0269267,35.9562094],[139.0268765,35.9562316],[139.0268467,35.9562495],[139.0268103,35.9562801],[139.0267869,35.9563018],[139.0267747,35.9563175],[139.026769,35.9563288],[139.0267633,35.9563408],[139.0267524,35.9563733],[139.0267392,35.9564129],[139.026739,35.9564135],[139.0267101,35.9564999],[139.0265143,35.9564085],[139.0264964,35.9563872],[139.026369,35.9562357],[139.026298,35.9561254],[139.0261515,35.9559552],[139.0261393,35.9557392],[139.0263427,35.9556495],[139.0263755,35.955641],[139.0263662,35.9556329],[139.026323,35.9556002],[139.0262761,35.9553302],[139.0264151,35.9550951],[139.0266396,35.9550072],[139.0267019,35.9550008],[139.0267545,35.9550802],[139.0267815,35.955121],[139.0267926,35.9551381],[139.0268139,35.9551707],[139.0268844,35.9552473],[139.026897,35.955261],[139.0269413,35.9553139],[139.0270738,35.9554718],[139.0270847,35.9555218],[139.0270331,35.9555378],[139.0270956,35.9556251],[139.0269563,35.9559349],[139.0270038,35.9559342],[139.0270731,35.9559605]]]},"properties":{"layer":"landslide","class_code":"1","class_label":"急傾斜地の崩落","status_code":"0","status_label":"特別警戒区域指定済み"}},{"type":"Feature","id":"lsld_6e57e543-235d-4c64-a6d2-7b7be1e86db4","geometry":{"type":"Polygon","coordinates":[[[139.0287982,35.9568374],[139.0286943,35.9568058],[139.0286097,35.9567801],[139.0284306,35.9567257],[139.0283225,35.9566838],[139.0282617,35.956645],[139.0281904,35.9565833],[139.0281581,35.9565554],[139.0281138,35.9565171],[139.0281086,35.9565126],[139.0281226,35.9565105],[139.0281905,35.956496],[139.0282207,35.9564895],[139.0282711,35.9564764],[139.0283069,35.956464],[139.0283316,35.9564554],[139.0283756,35.9564377],[139.0284272,35.9564231],[139.0284665,35.9564115],[139.0284999,35.9563983],[139.0285483,35.9563812],[139.0285999,35.9563646],[139.0286142,35.9563599],[139.028648,35.9563489],[139.0287151,35.9563243],[139.0287454,35.9563126],[139.0287758,35.9562959],[139.0287838,35.9562919],[139.0288039,35.9562819],[139.0288449,35.9562642],[139.0288746,35.9562545],[139.0289404,35.9562355],[139.0290082,35.9562152],[139.0290921,35.9561925],[139.0293116,35.9561162],[139.0294123,35.9561249],[139.0294192,35.9561255],[139.0294794,35.9561307],[139.0295074,35.9561331],[139.0295131,35.9561334],[139.0295915,35.9561373],[139.0296689,35.9561439],[139.0298302,35.9561738],[139.0299238,35.9561911],[139.0300271,35.9562102],[139.0300318,35.9562111],[139.0299762,35.9562454],[139.0298813,35.9563266],[139.0297019,35.9564459],[139.0294935,35.9564549],[139.0292542,35.9565663],[139.0290584,35.9566779],[139.0288159,35.9567001],[139.0286608,35.9566762],[139.0287982,35.9568374]]]},"properties":{"layer":"landslide","class_code":"1","class_label":"急傾斜地の崩落","status_code":"0","status_label":"特別警戒区域指定済み"}},{"type":"Feature","id":"lsld_9be5ce0d-b1a0-4243-97f4-70ba85edd7f2","geometry":{"type":"Polygon","coordinates":[[[139.0266519,35.9582465],[139.0265656,35.9582576],[139.0265423,35.958257],[139.0264792,35.9581828],[139.0264772,35.9581805],[139.0264331,35.9581425],[139.0264067,35.9581198],[139.0263659,35.9580891],[139.0263099,35.9580482],[139.0262713,35.9580247],[139.0262398,35.9580046],[139.0261471,35.9579454],[139.026033,35.9578725],[139.0260396,35.9578176],[139.0260398,35.9577716],[139.0260398,35.9576849],[139.0260384,35.9576506],[139.0262722,35.957557],[139.0266389,35.9574862],[139.0269377,35.957611],[139.0270682,35.9577818],[139.0269761,35.9579766],[139.0269478,35.9580365],[139.0269251,35.9580844],[139.0269192,35.9580963],[139.0269158,35.9581031],[139.0269028,35.958125],[139.026881,35.9581615],[139.0268521,35.9582052],[139.0267799,35.958202],[139.0266519,35.9582465]]]},"properties":{"layer":"landslide","class_code":"1","class_label":"急傾斜地の崩落","status_code":"0","status_label":"特別警戒区域指定済み"}},{"type":"Feature","id":"lsld_4b6d38a6-f7f6-4a8d-9d71-15d5d2697ca7","geometry":{"type":"Polygon","coordinates":[[[139.027399,35.9574974],[139.0273256,35.9574655],[139.0272573,35.9574547],[139.0271723,35.9574533],[139.0270921,35.9574544],[139.0270803,35.9574551],[139.0270745,35.9574365],[139.027062,35.9573962],[139.02706,35.9573897],[139.0270542,35.957371],[139.0270385,35.95732],[139.0270164,35.9572486],[139.0273363,35.957097],[139.027473,35.9572661],[139.0275052,35.9573059],[139.027481,35.9573495],[139.0274596,35.957388],[139.0274323,35.9574373],[139.027399,35.9574974]]]},"properties":{"layer":"landslide","class_code":"1","class_label":"急傾斜地の崩落","status_code":"0","status_label":"特別警戒区域指定済み"}},{"type":"Feature","id":"lsld_002d8424-d356-45eb-ae17-6f9eddc0ee79","geometry":{"type":"Polygon","coordinates":[[[139.0278088,35.9572054],[139.0279105,35.9572141],[139.028039,35.9572251],[139.0280949,35.9572298],[139.0282051,35.9572393],[139.0282133,35.9573653],[139.0281062,35.9575241],[139.0283333,35.9576002],[139.0284023,35.9577691],[139.0284559,35.9579548],[139.0284842,35.9581448],[139.0285536,35.9583228],[139.02855802962105,35.958333333333336],[139.02741839212828,35.958333333333336],[139.0274143,35.9583293],[139.0271894,35.957974],[139.0271626,35.9576837],[139.0270347,35.9574028],[139.027062,35.9573962],[139.0271828,35.957367],[139.0274254,35.9573084],[139.0274382,35.9573053],[139.027473,35.9572661],[139.0275467,35.9571829],[139.0278088,35.9572054]]]},"properties":{"layer":"landslide","class_code":"1","class_label":"急傾斜地の崩落","status_code":"0","status_label":"特別警戒区域指定済み"}},{"type":"Feature","id":"lsld_f3346e77-f9ac-4206-b0ab-fc76463fdf6f","geometry":{"type":"Polygon","coordinates":[[[139.0259694,35.9573745],[139.0259192,35.9574513],[139.0259067,35.9574977],[139.0259103,35.9575282],[139.0259131,35.9575474],[139.0259252,35.9575852],[139.0259297,35.9575996],[139.0259383,35.9576492],[139.0259255,35.9577658],[139.0257187,35.9578866],[139.025,35.95771926820748],[139.025,35.956601227164995],[139.0251058,35.9566413],[139.0252847,35.9567303],[139.0254435,35.9569052],[139.0256381,35.9569985],[139.0256695,35.9568538],[139.0257888,35.9567089],[139.0259219,35.9565747],[139.0260796,35.9564332],[139.0261988,35.9563161],[139.02643,35.9563866],[139.0264964,35.9563872],[139.0266707,35.9563889],[139.026739,35.9564135],[139.0267393,35.9564137],[139.0267104,35.9565007],[139.0266933,35.9565522],[139.026652,35.9566763],[139.0266319,35.9567482],[139.0266132,35.9568442],[139.0265937,35.9569449],[139.0265697,35.9570684],[139.026468,35.9570725],[139.0262745,35.9571033],[139.0262429,35.9571083],[139.026123,35.9571841],[139.0260753,35.9572319],[139.0260249,35.9572997],[139.0259694,35.9573745]]]},"properties":{"layer":"landslide","class_code":"1","class_label":"急傾斜地の崩落","status_code":"0","status_label":"特別警戒区域指定済み"}},{"type":"Feature","id":"lsld_54b58de7-0c7d-43b3-87de-6f9a1bece9be","geometry":{"type":"Polygon","coordinates":[[[139.0285174,35.9564254],[139.0283188,35.9564972],[139.0281681,35.956552],[139.0281581,35.9565554],[139.028094,35.9565769],[139.0279027,35.956625],[139.0277548,35.9566164],[139.0277515,35.9566118],[139.0275049,35.9565066],[139.0271839,35.9563756],[139.0271098,35.9563144],[139.0270716,35.9562559],[139.0270683,35.9562329],[139.0272122,35.9558974],[139.0274017,35.9557842],[139.027461,35.9557288],[139.0275303,35.9556531],[139.0275968,35.9555556],[139.0276348,35.9554896],[139.0276699,35.9554155],[139.0276724,35.9553226],[139.0276385,35.9551963],[139.0279817,35.9551743],[139.0279914,35.9551737],[139.0279772,35.9553161],[139.0279351,35.9554846],[139.0278348,35.9556516],[139.0277358,35.9558084],[139.0275302,35.9559588],[139.0276446,35.956066],[139.0278389,35.9561492],[139.0279751,35.9562391],[139.0282181,35.9562405],[139.0284053,35.9561525],[139.0286054,35.9561263],[139.0288272,35.956181],[139.0290063,35.9560586],[139.0290627,35.9560256],[139.029236,35.9559973],[139.0294847,35.9559921],[139.0294852,35.9560245],[139.0294192,35.9561255],[139.0294144,35.9561329],[139.0294027,35.9561508],[139.0292753,35.9561841],[139.0292134,35.9562003],[139.0285174,35.9564254]]]},"properties":{"layer":"landslide","class_code":"1","class_label":"急傾斜地の崩落","status_code":"0","status_label":"特別警戒区域指定済み"}},{"type":"Feature","id":"lsld_b332cfc9-38fc-4d65-bd0a-0cc135c48224","geometry":{"type":"Polygon","coordinates":[[[139.0276385,35.9551963],[139.0276364,35.9551965],[139.0275947,35.955057],[139.0275469,35.9549165],[139.0274953,35.9547708],[139.0274557,35.9547052],[139.0273882,35.9545951],[139.0273242,35.9545135],[139.0272306,35.9544149],[139.0270572,35.9542536],[139.0269776,35.9541877],[139.0268825,35.9541028],[139.0268054,35.954038],[139.026678,35.9539454],[139.0265635,35.9538624],[139.0264477,35.9537805],[139.0263434,35.9537166],[139.0261347,35.9535877],[139.025974,35.9534559],[139.0258972,35.953369],[139.0258114,35.9532652],[139.0257821,35.9532175],[139.0257747,35.9529739],[139.0257768,35.952972],[139.0258292,35.9529112],[139.0259512,35.9527687],[139.0260118,35.9526764],[139.0261,35.95254],[139.026195,35.9523731],[139.0262493,35.9522617],[139.0262651,35.9522249],[139.0262798,35.9522279],[139.0263585,35.9522444],[139.0264545,35.9522671],[139.0264831,35.9522755],[139.0264007,35.952424],[139.026347,35.9526007],[139.0262269,35.9527325],[139.0262713,35.9528559],[139.0260757,35.9529933],[139.0260712,35.9531595],[139.0261442,35.9532704],[139.0262434,35.9533645],[139.0263986,35.9534433],[139.0264837,35.9534883],[139.0266789,35.953578],[139.0267626,35.9536173],[139.026919,35.9537264],[139.0270534,35.9538675],[139.0272169,35.9540099],[139.0274615,35.9542642],[139.0276002,35.9544027],[139.0277308,35.9545631],[139.0278902,35.9546984],[139.0278742,35.9548678],[139.0279248,35.9550127],[139.0279817,35.9551743],[139.0276385,35.9551963]]]},"properties":{"layer":"landslide","class_code":"1","class_label":"急傾斜地の崩落","status_code":"0","status_label":"特別警戒区域指定済み"}},{"type":"Feature","id":"lsld_adee2412-6829-4277-9dd0-7c27b6f5a7ab","geometry":{"type":"Polygon","coordinates":[[[139.0263574,35.9538007],[139.0265112,35.9538967],[139.02652,35.9539022],[139.026534,35.9539119],[139.0267814,35.9540829],[139.0269268,35.9542243],[139.0270717,35.9544078],[139.0271907,35.9545841],[139.0272889,35.9547251],[139.0273051,35.9547483],[139.0273047,35.9547486],[139.0272888,35.9547564],[139.0272617,35.9547699],[139.0270507,35.9548749],[139.0269462,35.9547197],[139.0268152,35.9545485],[139.0266908,35.9543658],[139.026527,35.9542429],[139.0263247,35.9541105],[139.0260192,35.9537988],[139.0258229,35.9538036],[139.0257632,35.9537456],[139.0256227,35.9536027],[139.02556,35.9534767],[139.025521,35.9533337],[139.0254592,35.9531495],[139.0253245,35.9529783],[139.0251033,35.9528463],[139.025,35.95269536379164],[139.025,35.9525166939409],[139.0252803,35.9525121],[139.0253397,35.9525112],[139.0253456,35.9526339],[139.0253458,35.9526379],[139.0253736,35.9527408],[139.0253791,35.9527609],[139.0253895,35.9527807],[139.0254213,35.9528408],[139.0254257,35.952849],[139.0254538,35.9528866],[139.0254616,35.952911],[139.0255942,35.9531096],[139.0256882,35.9532727],[139.0257622,35.953357],[139.0258254,35.9534413],[139.0258895,35.9534979],[139.0259001,35.9535048],[139.0259132,35.9535134],[139.025922,35.9535265],[139.0259406,35.9535542],[139.0260954,35.9536468],[139.0262158,35.9537189],[139.0262322,35.9537287],[139.0262372,35.9537313],[139.0262874,35.9537569],[139.0262926,35.9537603],[139.0263574,35.9538007]]]},"properties":{"layer":"landslide","class_code":"1","class_label":"急傾斜地の崩落","status_code":"0","status_label":"特別警戒区域指定済み"}},{"type":"Feature","id":"lsld_443304a3-1494-47a3-9e5c-a0c9ed1fdd4b","geometry":{"type":"Polygon","coordinates":[[[139.0303764,35.9508531],[139.0301888,35.9508984],[139.0299624,35.9508522],[139.0298008,35.9507361],[139.0295318,35.9505622],[139.0296406,35.9505042],[139.029642,35.9505034],[139.0298165,35.9504239],[139.0299383,35.9503686],[139.0300443,35.9502941],[139.0301351,35.9501883],[139.0302183,35.9500826],[139.0303011,35.9500064],[139.0303135,35.9500209],[139.0303253,35.9500359],[139.0304113,35.950065],[139.0304478,35.9500682],[139.0305233,35.9500551],[139.0305525,35.9500473],[139.0305764,35.9500421],[139.0305769,35.9500418],[139.0305928,35.9500252],[139.0306799,35.9501532],[139.0309491,35.9505504],[139.0310126,35.9506442],[139.0308968,35.9507364],[139.0308966,35.9507365],[139.030774,35.9507373],[139.0305984,35.9508064],[139.0303764,35.9508531]]]},"properties":{"layer":"landslide","class_code":"1","class_label":"急傾斜地の崩落","status_code":"0","status_label":"特別警戒区域指定済み"}},{"type":"Feature","id":"lsld_624eac1c-ecba-43e3-83ee-8eb3cce4600b","geometry":{"type":"Polygon","coordinates":[[[139.0375,35.95370790122386],[139.0373109,35.9536431],[139.0371737,35.9535977],[139.0371733,35.9535977],[139.0369753,35.9533709],[139.0368501,35.9532296],[139.0367822,35.95313],[139.0368279,35.9531103],[139.0369965,35.953161],[139.0370986,35.9532864],[139.0372208,35.953356],[139.0372213,35.9533561],[139.0374061,35.9533888],[139.0375,35.95339626287726],[139.0375,35.95370790122386]]]},"properties":{"layer":"landslide","class_code":"1","class_label":"急傾斜地の崩落","status_code":"0","status_label":"特別警戒区域指定済み"}},{"type":"Feature","id":"lsld_4b6c2af8-d7ed-4010-b0fc-ee571f5889ed","geometry":{"type":"Polygon","coordinates":[[[139.0253876,35.9503015],[139.0253907,35.9503064],[139.0253973,35.9503357],[139.0254273,35.9504697],[139.0254382,35.9506431],[139.0254256,35.9507084],[139.0254248,35.9507128],[139.0254193,35.950718],[139.0253156,35.9508156],[139.0252543,35.9508979],[139.0252442,35.9509496],[139.025243,35.951066],[139.0252704,35.9511904],[139.0253146,35.9513322],[139.0253215,35.9513546],[139.0253526,35.9514542],[139.0253504,35.9514574],[139.025378,35.9515559],[139.0253729,35.9517473],[139.0253531,35.9521249],[139.0253387,35.9522955],[139.025344,35.9525105],[139.025281,35.9525115],[139.025,35.9525157565185],[139.025,35.95194645246627],[139.0250135,35.9518393],[139.025,35.95178365278518],[139.025,35.951634044360894],[139.0250024,35.9516291],[139.0251532,35.9514733],[139.0250943,35.9513973],[139.0250389,35.951227],[139.025,35.95110173138403],[139.025,35.95094813333334],[139.0250038,35.9509133],[139.0250288,35.950717],[139.0250049,35.9506377],[139.0250311,35.9506274],[139.0251038,35.9506211],[139.0252406,35.950598],[139.0252952,35.9503385],[139.0251805,35.9501731],[139.0250698,35.950117],[139.025,35.9501287130137],[139.025,35.9500731711326],[139.0250847,35.9500534],[139.0250931,35.950052],[139.0250972,35.9500513],[139.0252032,35.9500592],[139.025256,35.9500985],[139.0252599,35.9501046],[139.0253876,35.9503015]]]},"properties":{"layer":"landslide","class_code":"1","class_label":"急傾斜地の崩落","status_code":"0","status_label":"特別警戒区域指定済み"}},{"type":"Feature","id":"lsld_1b61d8bd-6596-48d5-b681-39348d0fc2ce","geometry":{"type":"Polygon","coordinates":[[[139.025,35.95051661846474],[139.0250591,35.9505711],[139.0250715,35.9505826],[139.0250286,35.9506062],[139.0250159,35.9506131],[139.025,35.95062184795539],[139.025,35.95051661846474]]]},"properties":{"layer":"landslide","class_code":"1","class_label":"急傾斜地の崩落","status_code":"0","status_label":"特別警戒区域指定済み"}},{"type":"Feature","id":"lsld_406d42a1-33d2-4e08-bc96-a3ebc1826774","geometry":{"type":"Polygon","coordinates":[[[139.0269267,35.9562094],[139.0268765,35.9562316],[139.0268467,35.9562495],[139.0268103,35.9562801],[139.0267869,35.9563018],[139.0267747,35.9563175],[139.026769,35.9563288],[139.0267633,35.9563408],[139.0267524,35.9563733],[139.0266125,35.9562955],[139.0265178,35.9561585],[139.0264805,35.9560923],[139.0263548,35.9559464],[139.0263227,35.9558001],[139.0264681,35.9557362],[139.0265545,35.9556326],[139.0265002,35.9555604],[139.0264528,35.9555039],[139.0264508,35.9553695],[139.0265479,35.955214],[139.0267268,35.9551396],[139.0267926,35.9551381],[139.0268139,35.9551707],[139.0268844,35.9552473],[139.026897,35.955261],[139.0269413,35.9553139],[139.026905,35.9553357],[139.0267558,35.9554002],[139.0267051,35.9554543],[139.0267072,35.9554889],[139.0267036,35.9555005],[139.0268252,35.955625],[139.0266685,35.9558655],[139.0266153,35.9558834],[139.0266992,35.955939],[139.0269235,35.9560639],[139.0269461,35.9560806],[139.0269908,35.956121],[139.0270118,35.9561421],[139.0270124,35.9561578],[139.0270127,35.9561713],[139.0269267,35.9562094]]]},"properties":{"layer":"landslide","class_code":"1","class_label":"急傾斜地の崩落","status_code":"0","status_label":"特別警戒区域指定済み"}},{"type":"Feature","id":"lsld_17e08101-5682-4873-bfe1-e662646cf4c3","geometry":{"type":"Polygon","coordinates":[[[139.0297767,35.9562011],[139.0296934,35.9562564],[139.0295737,35.9563286],[139.0293905,35.9563504],[139.0292208,35.9564372],[139.0290479,35.9565336],[139.0288391,35.9565664],[139.0285784,35.9565827],[139.0286097,35.9567801],[139.0284306,35.9567257],[139.0283225,35.9566838],[139.0282617,35.956645],[139.0281904,35.9565833],[139.0281581,35.9565554],[139.0281138,35.9565171],[139.0281905,35.956496],[139.0282207,35.9564895],[139.0282711,35.9564764],[139.0283069,35.956464],[139.0284625,35.9564211],[139.0286142,35.9563599],[139.028648,35.9563489],[139.0287151,35.9563243],[139.0287454,35.9563126],[139.0287758,35.9562959],[139.0287838,35.9562919],[139.02895,35.9562401],[139.029098,35.9562085],[139.0291611,35.9561716],[139.0292753,35.9561841],[139.0293698,35.9561944],[139.0294108,35.9561686],[139.029414,35.9561478],[139.0294156,35.9561376],[139.0294144,35.9561329],[139.0294123,35.9561249],[139.0294192,35.9561255],[139.0294794,35.9561307],[139.0295074,35.9561331],[139.0295131,35.9561334],[139.0295915,35.9561373],[139.0296689,35.9561439],[139.0298302,35.9561738],[139.0297767,35.9562011]]]},"properties":{"layer":"landslide","class_code":"1","class_label":"急傾斜地の崩落","status_code":"0","status_label":"特別警戒区域指定済み"}},{"type":"Feature","id":"lsld_10a2ce08-1669-470e-8288-786f5090a230","geometry":{"type":"Polygon","coordinates":[[[139.0266516,35.958101],[139.0265123,35.9581313],[139.0264331,35.9581425],[139.0264067,35.9581198],[139.0263659,35.9580891],[139.0263099,35.9580482],[139.0262713,35.9580247],[139.0262398,35.9580046],[139.0261471,35.9579454],[139.0264086,35.9578841],[139.026645,35.9578062],[139.0268788,35.9578575],[139.0269761,35.9579766],[139.0269478,35.9580365],[139.0269251,35.9580844],[139.0269192,35.9580963],[139.0268258,35.9580703],[139.0266516,35.958101]]]},"properties":{"layer":"landslide","class_code":"1","class_label":"急傾斜地の崩落","status_code":"0","status_label":"特別警戒区域指定済み"}},{"type":"Feature","id":"lsld_43bdc0e2-0fca-4fd7-9f9b-72881b5095ef","geometry":{"type":"Polygon","coordinates":[[[139.0271828,35.957367],[139.02706,35.9573897],[139.0270542,35.957371],[139.0270385,35.95732],[139.0273135,35.9572259],[139.0274254,35.9573084],[139.027481,35.9573495],[139.0274596,35.957388],[139.0272922,35.9573468],[139.0271828,35.957367]]]},"properties":{"layer":"landslide","class_code":"1","class_label":"急傾斜地の崩落","status_code":"0","status_label":"特別警戒区域指定済み"}},{"type":"Feature","id":"lsld_f05fa532-8989-4a70-9fa5-716a8fc50a15","geometry":{"type":"Polygon","coordinates":[[[139.0278069363547,35.958333333333336],[139.0278059,35.9583281],[139.0278218,35.9581793],[139.0276277,35.9578999],[139.0276112,35.9576606],[139.0274575,35.9574506],[139.0277523,35.9573296],[139.0278088,35.9572054],[139.0279105,35.9572141],[139.028039,35.9572251],[139.0280403,35.9573519],[139.0279067,35.9575015],[139.0281284,35.9576228],[139.0282001,35.9578032],[139.028265,35.9580196],[139.0282856,35.9581916],[139.02834227581377,35.958333333333336],[139.0278069363547,35.958333333333336]]]},"properties":{"layer":"landslide","class_code":"1","class_label":"急傾斜地の崩落","status_code":"0","status_label":"特別警戒区域指定済み"}},{"type":"Feature","id":"lsld_38b2c92d-cdfa-430c-b0f4-d2b4cd0bc612","geometry":{"type":"Polygon","coordinates":[[[139.0260249,35.9572997],[139.0256858,35.9575392],[139.0250555,35.9573972],[139.025,35.95735814287891],[139.025,35.956768161421806],[139.0250314,35.9567809],[139.0252074,35.9568742],[139.0253564,35.957039],[139.0256506,35.9571403],[139.0257849,35.956955],[139.0259069,35.9568123],[139.0260336,35.9566912],[139.0261689,35.9565713],[139.0262428,35.9564786],[139.026415,35.9565375],[139.0266284,35.9565328],[139.0266933,35.9565522],[139.026652,35.9566763],[139.0266319,35.9567482],[139.0266132,35.9568442],[139.0265937,35.9569449],[139.0265382,35.9569472],[139.0264356,35.9569839],[139.0263923,35.9570004],[139.0263763,35.9570175],[139.0263305,35.9570604],[139.0262745,35.9571033],[139.0262429,35.9571083],[139.026123,35.9571841],[139.0260753,35.9572319],[139.0260249,35.9572997]]]},"properties":{"layer":"landslide","class_code":"1","class_label":"急傾斜地の崩落","status_code":"0","status_label":"特別警戒区域指定済み"}},{"type":"Feature","id":"lsld_9d47ce04-99df-4305-b0f9-2ab2183c29d2","geometry":{"type":"Polygon","coordinates":[[[139.0365505,35.952796],[139.0365502,35.9528441],[139.0365498,35.9529084],[139.0364772,35.9528485],[139.0364967,35.9527999],[139.0365025,35.9527854],[139.0365505,35.952796]]]},"properties":{"layer":"landslide","class_code":"1","class_label":"急傾斜地の崩落","status_code":"0","status_label":"特別警戒区域指定済み"}},{"type":"Feature","id":"lsld_f7b2cc8e-f1ea-4df4-8d65-54bc43f7d755","geometry":{"type":"Polygon","coordinates":[[[139.0375,35.95692598914956],[139.0374705,35.9569163],[139.0374028,35.956893],[139.0373356,35.9568687],[139.037269,35.9568435],[139.0372029,35.9568173],[139.0371373,35.9567902],[139.0370724,35.9567622],[139.0370081,35.9567332],[139.0369444,35.9567033],[139.0368813,35.9566726],[139.036819,35.9566409],[139.0367573,35.9566084],[139.0366963,35.956575],[139.0366361,35.9565408],[139.0365766,35.9565057],[139.0365178,35.9564697],[139.0364599,35.9564329],[139.0364027,35.9563953],[139.0363464,35.9563569],[139.0362908,35.9563178],[139.0362362,35.9562778],[139.0361824,35.956237],[139.0361295,35.9561955],[139.0360775,35.9561533],[139.0360264,35.9561103],[139.0359762,35.9560666],[139.035927,35.9560222],[139.0358787,35.9559771],[139.0358314,35.9559314],[139.0357566,35.9558587],[139.0375,35.95481491115402],[139.0375,35.95692598914956]]]},"properties":{"layer":"landslide","class_code":"2","class_label":"土石流","status_code":"0","status_label":"特別警戒区域指定済み"}},{"type":"Feature","id":"lsld_4a8efcfb-948c-4f0d-bab2-540472309781","geometry":{"type":"Polygon","coordinates":[[[139.0352388,35.9520075],[139.0350449,35.9521205],[139.034902,35.9522602],[139.034786,35.9524146],[139.0346997,35.9526037],[139.033324,35.9573624],[139.0329469,35.957225],[139.0326229,35.9570902],[139.0322015,35.9568937],[139.0318623,35.9567163],[139.0315124,35.9565165],[139.0311491,35.9562816],[139.0308388,35.9560642],[139.0304806,35.9557865],[139.0302053,35.9555488],[139.0299638,35.9553199],[139.0297461,35.9551009],[139.0295041,35.9548318],[139.0292823,35.9545576],[139.0291115,35.9543254],[139.028985,35.954145],[139.0288299,35.9538988],[139.0289148,35.9538781],[139.0324825,35.9530053],[139.0345633,35.9524963],[139.0347292,35.9523834],[139.0348522,35.9522342],[139.0349586,35.9520756],[139.0350512,35.9519097],[139.0352489,35.951762],[139.0355078,35.9516938],[139.0356154,35.9516736],[139.0357699,35.951533],[139.0358463,35.9513137],[139.0361184,35.9512662],[139.0363712,35.9512259],[139.0365905,35.951173],[139.0368128,35.9511495],[139.0369793,35.9511007],[139.0370332,35.9509414],[139.0370756,35.9509583],[139.0371463,35.9509865],[139.037229,35.9510195],[139.0373547,35.9510696],[139.037139,35.9512161],[139.036875,35.951328],[139.0366966,35.9514773],[139.0365463,35.9516289],[139.036476,35.9517509],[139.0363447,35.9518017],[139.0358891,35.9518822],[139.0355037,35.9519809],[139.0353766,35.9519651],[139.0352388,35.9520075]]]},"properties":{"layer":"landslide","class_code":"2","class_label":"土石流","status_code":"0","status_label":"特別警戒区域指定済み"}},{"type":"Feature","id":"lsld_721ae049-1ca4-43c2-9126-d348a2e320ed","geometry":{"type":"Polygon","coordinates":[[[139.0325761,35.9510043],[139.0326147,35.9510254],[139.0326211,35.9510288],[139.0327918,35.951122],[139.0326281,35.9512498],[139.0326109,35.9514575],[139.0325937,35.9516651],[139.0325765,35.9518728],[139.0325592,35.9520805],[139.032542,35.9522881],[139.0325248,35.9524958],[139.0325076,35.9527035],[139.0324904,35.9529111],[139.0324825,35.9530053],[139.0324731,35.9531188],[139.0324559,35.9533265],[139.0324387,35.9535341],[139.0324215,35.9537418],[139.0324042,35.9539495],[139.032387,35.9541571],[139.0323698,35.9543648],[139.0323526,35.9545725],[139.0323353,35.9547801],[139.0323181,35.9549878],[139.0323036,35.9551635],[139.0322173,35.9551586],[139.0321286,35.9551523],[139.0320401,35.9551448],[139.0319518,35.955136],[139.0318636,35.955126],[139.0317757,35.9551147],[139.0316881,35.9551022],[139.0316007,35.9550884],[139.0315136,35.9550734],[139.0314269,35.9550572],[139.0313405,35.9550397],[139.0312546,35.955021],[139.031169,35.9550011],[139.0310839,35.95498],[139.0309992,35.9549576],[139.0309151,35.9549341],[139.0308314,35.9549094],[139.0307483,35.9548835],[139.0306658,35.9548564],[139.0305839,35.9548282],[139.0305025,35.9547988],[139.0304219,35.9547683],[139.0303419,35.9547366],[139.0302625,35.9547037],[139.0301839,35.9546698],[139.0301061,35.9546348],[139.030029,35.9545986],[139.0299527,35.9545614],[139.0298772,35.9545231],[139.0298025,35.9544837],[139.0297287,35.9544433],[139.0296558,35.9544018],[139.0295838,35.9543593],[139.0295127,35.9543158],[139.0294425,35.9542712],[139.0293733,35.9542257],[139.0293051,35.9541792],[139.0292379,35.9541318],[139.0291718,35.9540834],[139.0291067,35.9540341],[139.0290426,35.9539839],[139.0289796,35.9539327],[139.0289178,35.9538807],[139.0289148,35.9538781],[139.0288571,35.9538278],[139.0287975,35.953774],[139.0287391,35.9537195],[139.0286818,35.953664],[139.0286258,35.9536078],[139.0285693,35.9535463],[139.0282843,35.9532732],[139.0278018,35.9527782],[139.029226,35.9522157],[139.0294559,35.952124],[139.0296857,35.9520323],[139.0299155,35.9519406],[139.0301453,35.9518489],[139.0303751,35.9517572],[139.0306049,35.9516655],[139.0308347,35.9515738],[139.0310645,35.9514821],[139.0312943,35.9513904],[139.0315241,35.9512987],[139.0317539,35.951207],[139.0319837,35.9511153],[139.0322135,35.9510236],[139.0323973,35.9509502],[139.0324434,35.9509318],[139.0325761,35.9510043]]]},"properties":{"layer":"landslide","class_code":"2","class_label":"土石流","status_code":"0","status_label":"特別警戒区域指定済み"}},{"type":"Feature","id":"lsld_e48c442c-11e4-40bd-a824-9d39d00f9585","geometry":{"type":"Polygon","coordinates":[[[139.037229,35.9510195],[139.0371022,35.9511896],[139.0368558,35.951273],[139.0366775,35.9514223],[139.0364803,35.9514768],[139.0363123,35.951529],[139.0361492,35.9516102],[139.0359452,35.9516806],[139.0357835,35.9517947],[139.0355049,35.9518972],[139.0353399,35.9519067],[139.0351663,35.9519697],[139.0350291,35.9521123],[139.034901,35.9522597],[139.0347811,35.9524118],[139.034658,35.9525685],[139.0344756,35.9526806],[139.0343011,35.9527919],[139.0341727,35.9529297],[139.0340532,35.9530778],[139.0339586,35.9532385],[139.0338442,35.953356],[139.0336874,35.9532511],[139.0338119,35.9531629],[139.0339607,35.953027],[139.0340844,35.9528723],[139.0342614,35.9527488],[139.0344358,35.9526375],[139.0345991,35.9525235],[139.0347349,35.9523866],[139.0348562,35.9522363],[139.034976,35.9520846],[139.0350788,35.9519241],[139.0352637,35.9517855],[139.0355074,35.9517223],[139.0356424,35.951693],[139.0358042,35.9515619],[139.035901,35.9513673],[139.0361502,35.9513093],[139.0363885,35.9512656],[139.0366022,35.9512066],[139.0368183,35.9511655],[139.0370013,35.9511166],[139.0370756,35.9509583],[139.0371463,35.9509865],[139.037229,35.9510195]]]},"properties":{"layer":"landslide","class_code":"2","class_label":"土石流","status_code":"0","status_label":"特別警戒区域指定済み"}},{"type":"Feature","id":"lsld_608e034c-ac47-49f1-8c28-4cdda7fa1694","geometry":{"type":"Polygon","coordinates":[[[139.0326211,35.9510288],[139.0325987,35.9510601],[139.0325415,35.9510289],[139.0325761,35.9510043],[139.0326147,35.9510254],[139.0326211,35.9510288]]]},"properties":{"layer":"landslide","class_code":"2","class_label":"土石流","status_code":"0","status_label":"特別警戒区域指定済み"}}]}