{"type":"FeatureCollection","properties":{"mesh_code":"53397031","source":"PLATEAU秩父市2025","layer":"landslide"},"features":[{"type":"Feature","id":"lsld_92ecb3d2-6605-439e-9ff9-de899b602bdd","geometry":{"type":"Polygon","coordinates":[[[139.025,35.94605305345858],[139.0247606,35.9459002],[139.0249995,35.9457254],[139.025,35.94572518359909],[139.025,35.94605305345858]]]},"properties":{"layer":"landslide","class_code":"1","class_label":"急傾斜地の崩落","status_code":"0","status_label":"特別警戒区域指定済み"}},{"type":"Feature","id":"lsld_2a4d3486-8d3e-4c10-b395-eef912ba4dac","geometry":{"type":"Polygon","coordinates":[[[139.0225752,35.9466],[139.0226694,35.9469147],[139.0224697,35.9469188],[139.0224564,35.9469294],[139.0224581,35.9469917],[139.0222606,35.9469417],[139.0222472,35.9469384],[139.0221824,35.946922],[139.0221091,35.9469034],[139.0221044,35.9469022],[139.0218114,35.9468281],[139.0217221,35.9468175],[139.0216457,35.9467977],[139.0213438,35.9466446],[139.0212636,35.946604],[139.0212419,35.9465929],[139.0211836,35.9465634],[139.0211765,35.9465665],[139.0211743,35.9465639],[139.0211663,35.9465546],[139.0210013,35.9464996],[139.0209718,35.9464624],[139.0209315,35.9463504],[139.0208277,35.946178],[139.020706,35.9460305],[139.0205005,35.9459075],[139.020453,35.9458249],[139.0204319,35.9457389],[139.0203799,35.9456563],[139.0202776,35.9454025],[139.0203198,35.94538],[139.0203799,35.9453478],[139.0204052,35.9453342],[139.0204931,35.9452961],[139.020498,35.945294],[139.020503,35.9452919],[139.0205569,35.9452685],[139.0205612,35.9452666],[139.0207678,35.9451771],[139.0209781,35.9452437],[139.0210188,35.945226],[139.0210605,35.9452079],[139.0211364,35.9452357],[139.0212683,35.9452474],[139.0213354,35.9452418],[139.021346,35.9452455],[139.0215187,35.9453864],[139.0215604,35.9453584],[139.0218467,35.9455784],[139.021873,35.9456319],[139.0218991,35.9456976],[139.021932,35.9457804],[139.0220201,35.9458335],[139.0223472,35.9460306],[139.0224322,35.9462685],[139.0224427,35.9463132],[139.022466,35.9464117],[139.0225752,35.9466]]]},"properties":{"layer":"landslide","class_code":"1","class_label":"急傾斜地の崩落","status_code":"0","status_label":"特別警戒区域指定済み"}},{"type":"Feature","id":"lsld_5b369f0d-7ae6-4d20-b2ed-712a2d810c5d","geometry":{"type":"Polygon","coordinates":[[[139.0180537,35.9492958],[139.0179809,35.9493466],[139.0179589,35.9493619],[139.0178967,35.9494052],[139.0177852,35.9492554],[139.0177242,35.9491224],[139.017711,35.9491229],[139.0176916,35.9491272],[139.0176247,35.9493165],[139.0175321,35.9493433],[139.0175288,35.9493421],[139.0174314,35.9493057],[139.0173787,35.949286],[139.0172384,35.9492336],[139.0171408,35.9491972],[139.0170581,35.9491663],[139.0168697,35.9490959],[139.01707,35.948781],[139.0172684,35.9487304],[139.0174681,35.9485031],[139.0182681,35.9484873],[139.0185083,35.9485921],[139.0186177,35.9486719],[139.0186764,35.9487833],[139.0186798,35.9487898],[139.0187067,35.9488408],[139.0186908,35.9488519],[139.0185295,35.9489643],[139.0183954,35.9490577],[139.0183523,35.9490877],[139.0183177,35.9491119],[139.0180537,35.9492958]]]},"properties":{"layer":"landslide","class_code":"1","class_label":"急傾斜地の崩落","status_code":"0","status_label":"特別警戒区域指定済み"}},{"type":"Feature","id":"lsld_f8ed6306-35e6-4fea-8e8c-03518fc92f7d","geometry":{"type":"Polygon","coordinates":[[[139.0186154,35.9499986],[139.01861234947367,35.95],[139.01850191333332,35.95],[139.0184993,35.9499934],[139.01848819,35.95],[139.01847951513935,35.95],[139.0185442,35.9491586],[139.0185333,35.9490249],[139.0185295,35.9489643],[139.0185272,35.9489279],[139.018524,35.9489287],[139.0185012,35.9488564],[139.0185999,35.9488152],[139.0186764,35.9487833],[139.0186787,35.9487823],[139.0188331,35.9487179],[139.0188769,35.9486997],[139.0188948,35.9486922],[139.0189181,35.9486825],[139.0190533,35.9486261],[139.0191275,35.948704],[139.0191528,35.9487203],[139.0191591,35.9487981],[139.0191832,35.9487281],[139.0192474,35.9487675],[139.0192462,35.9487701],[139.019267,35.9487876],[139.0193609,35.9490504],[139.0195773,35.9490484],[139.0195728,35.9490919],[139.0195724,35.949096],[139.0195679,35.9491382],[139.0195622,35.9491926],[139.0195611,35.9492034],[139.0195528,35.9492824],[139.0194534,35.9492667],[139.0191361,35.9495302],[139.0191192,35.9495631],[139.0190013,35.9497361],[139.0188707,35.9498597],[139.0187512,35.9499362],[139.0186916,35.9499635],[139.0186154,35.9499986]]]},"properties":{"layer":"landslide","class_code":"1","class_label":"急傾斜地の崩落","status_code":"0","status_label":"特別警戒区域指定済み"}},{"type":"Feature","id":"lsld_d23477ec-bd8f-4206-a851-f68d3bb1b497","geometry":{"type":"Polygon","coordinates":[[[139.0156955,35.9447246],[139.0156445,35.9448462],[139.0156403,35.9448883],[139.0156254,35.945039],[139.0156535,35.9451385],[139.0154657,35.9452524],[139.0153782,35.9453054],[139.015074,35.9451687],[139.0150105,35.9451401],[139.0149795,35.9451262],[139.01486,35.9450725],[139.0147442,35.9450353],[139.0147436,35.9450351],[139.0146646,35.9450136],[139.0145754,35.9449894],[139.0145596,35.9449847],[139.0145649,35.94497],[139.0145756,35.9449373],[139.0142561,35.9446499],[139.0142161,35.9446151],[139.0141872,35.94459],[139.0141678,35.9445721],[139.0140945,35.9445045],[139.0141538,35.9445045],[139.0142183,35.9444804],[139.0142298,35.9444567],[139.0142285,35.944453],[139.014227,35.9444497],[139.014225,35.9444459],[139.0142223,35.9444428],[139.0143248,35.9444085],[139.0143964,35.9443845],[139.0146232,35.9443086],[139.014693,35.9442741],[139.0148137,35.9442017],[139.0149019,35.9441364],[139.0149413,35.9440981],[139.0149671,35.944052],[139.0149907,35.943973],[139.0150202,35.9438742],[139.0151214,35.9435351],[139.0154966,35.9439416],[139.0155501,35.9439996],[139.0156144,35.9442447],[139.0156433,35.9443551],[139.0157646,35.9446838],[139.0157609,35.9447328],[139.015704,35.944708],[139.0156955,35.9447246]]]},"properties":{"layer":"landslide","class_code":"1","class_label":"急傾斜地の崩落","status_code":"0","status_label":"特別警戒区域指定済み"}},{"type":"Feature","id":"lsld_8ebb71ef-c00c-4e73-a087-4bed950347e2","geometry":{"type":"Polygon","coordinates":[[[139.017325,35.9444361],[139.0173241,35.9445254],[139.0172106,35.9447025],[139.0172309,35.9447392],[139.017258,35.9447839],[139.0171744,35.9448431],[139.0171585,35.9448544],[139.0171163,35.9448783],[139.0170296,35.9449276],[139.016938,35.9449736],[139.0166806,35.945135],[139.0166432,35.9451609],[139.0165466,35.9452277],[139.0162249,35.9454501],[139.016221,35.9454528],[139.0160918,35.9453004],[139.015926,35.9450278],[139.0158643,35.9447963],[139.015833,35.9445696],[139.0158033,35.9444109],[139.0158026,35.9444071],[139.0159656,35.9440478],[139.0159814,35.944013],[139.0163508,35.9441796],[139.016356,35.9441819],[139.016368,35.9441874],[139.016466,35.9442316],[139.0165173,35.9442547],[139.0165641,35.9442706],[139.0166993,35.9443012],[139.0169266,35.9443366],[139.0170897,35.9443505],[139.0171367,35.944348],[139.0172028,35.9443388],[139.0172777,35.9443284],[139.017387,35.9443132],[139.0173814,35.9443277],[139.017325,35.9444361]]]},"properties":{"layer":"landslide","class_code":"1","class_label":"急傾斜地の崩落","status_code":"0","status_label":"特別警戒区域指定済み"}},{"type":"Feature","id":"lsld_a1d81337-f8ba-4941-a639-db3f00b2cf2b","geometry":{"type":"Polygon","coordinates":[[[139.0167773,35.9434767],[139.016798,35.9435],[139.0168284,35.9435263],[139.0168888,35.9435309],[139.0168299,35.9435815],[139.0168134,35.943597],[139.0167669,35.9436409],[139.0167552,35.9436519],[139.0166669,35.9437501],[139.0166052,35.9438514],[139.0165453,35.9439544],[139.0164606,35.944071],[139.0164439,35.944092],[139.0163744,35.9441793],[139.016368,35.9441874],[139.0163103,35.9442597],[139.0161426,35.9444702],[139.0160179,35.9444845],[139.0158033,35.9444109],[139.0157778,35.9444021],[139.0156144,35.9442447],[139.0155853,35.9442167],[139.0154848,35.9440112],[139.0154879,35.9440006],[139.0154922,35.9439824],[139.0154955,35.9439626],[139.0154966,35.9439416],[139.0154972,35.9439282],[139.0154949,35.943892],[139.0154919,35.9438587],[139.015839,35.9437973],[139.0159581,35.9437763],[139.016018,35.9437657],[139.0160808,35.9437507],[139.0161417,35.9437295],[139.0162769,35.943678],[139.0164789,35.9435899],[139.0166,35.9435397],[139.0166724,35.9435098],[139.0167711,35.9434689],[139.0167773,35.9434767]]]},"properties":{"layer":"landslide","class_code":"1","class_label":"急傾斜地の崩落","status_code":"0","status_label":"特別警戒区域指定済み"}},{"type":"Feature","id":"lsld_d882b951-511a-4b01-b36d-7791077198a8","geometry":{"type":"Polygon","coordinates":[[[139.0205257,35.9477608],[139.0205603,35.9477707],[139.0205525,35.9477903],[139.0205275,35.9478568],[139.0204994,35.9479314],[139.0204983,35.9479343],[139.0203838,35.9481841],[139.0203483,35.9482617],[139.0202647,35.9484442],[139.0202114,35.9485605],[139.0200488,35.9482414],[139.019746,35.9481834],[139.0196144,35.9480729],[139.0195474,35.9478715],[139.0194162,35.947749],[139.0191747,35.9477752],[139.0190082,35.9475198],[139.018979,35.9472422],[139.018928,35.9471693],[139.0188895,35.9468822],[139.0188942,35.9467755],[139.0190395,35.9464707],[139.0195087,35.9461501],[139.0195859,35.9461562],[139.0198026,35.9460565],[139.0201091,35.9459656],[139.0203153,35.9459623],[139.0203239,35.9459845],[139.0203464,35.9460175],[139.0203985,35.946075],[139.0204917,35.9461581],[139.020483,35.9462477],[139.020475,35.9463294],[139.0204639,35.9464435],[139.0204604,35.94648],[139.0204516,35.9465699],[139.0203338,35.9465849],[139.020238,35.9466364],[139.0201869,35.9468296],[139.0201237,35.946844],[139.020115,35.9468493],[139.0201117,35.9468529],[139.0201034,35.9468649],[139.0201368,35.9469371],[139.0201786,35.9471101],[139.0201954,35.9471898],[139.0202278,35.947202],[139.0204202,35.9472599],[139.0204588,35.9474655],[139.0205042,35.9475368],[139.0205128,35.9475492],[139.0205257,35.9477608]]]},"properties":{"layer":"landslide","class_code":"1","class_label":"急傾斜地の崩落","status_code":"0","status_label":"特別警戒区域指定済み"}},{"type":"Feature","id":"lsld_633068d5-93df-42e3-b23e-294a6c6da210","geometry":{"type":"Polygon","coordinates":[[[139.0152641,35.9447494],[139.0155152,35.9447805],[139.0155156,35.9447807],[139.0156403,35.9448883],[139.015678,35.9449209],[139.0156782,35.9449211],[139.015685,35.9449327],[139.0156852,35.944933],[139.0158694,35.94511],[139.0159305,35.9451884],[139.0159308,35.9451886],[139.0160622,35.9454986],[139.0161211,35.9457012],[139.0160534,35.9459993],[139.0159794,35.9462579],[139.0157415,35.946413],[139.0158098,35.9464885],[139.0158348,35.9466722],[139.0156175,35.9468346],[139.015213,35.9470288],[139.0151899,35.9469944],[139.0150064,35.9467214],[139.0149473,35.9466333],[139.0148633,35.9465083],[139.014826,35.9464717],[139.0147421,35.9464004],[139.0145997,35.9463019],[139.0144759,35.9462112],[139.0143585,35.9461292],[139.014298,35.946087],[139.0142139,35.9460283],[139.014237,35.9460022],[139.0142644,35.9459659],[139.0142902,35.9459405],[139.0145282,35.9458196],[139.0145871,35.9457893],[139.0146339,35.9457663],[139.0146797,35.9457325],[139.0146841,35.9457249],[139.0146831,35.9457228],[139.0146829,35.9457224],[139.0146817,35.9457199],[139.014679,35.9457175],[139.0146786,35.9457173],[139.0146769,35.9457156],[139.0146767,35.9457154],[139.0146725,35.9457134],[139.0146719,35.9457131],[139.0146667,35.945711],[139.0146698,35.9457089],[139.0147159,35.9456665],[139.0147349,35.9456456],[139.0147373,35.9456418],[139.014747,35.9456261],[139.0147634,35.9455948],[139.0147673,35.9455875],[139.0148522,35.9454364],[139.0149234,35.9453304],[139.0149638,35.9452597],[139.0149814,35.9452221],[139.0150003,35.9451687],[139.0150105,35.9451401],[139.0150364,35.9450669],[139.0151539,35.9447357],[139.0152641,35.9447494]]]},"properties":{"layer":"landslide","class_code":"1","class_label":"急傾斜地の崩落","status_code":"0","status_label":"特別警戒区域指定済み"}},{"type":"Feature","id":"lsld_2bda612d-d6cb-411a-9248-e58f14b7cbc8","geometry":{"type":"Polygon","coordinates":[[[139.0151512,35.9441196],[139.0152281,35.9442879],[139.0154021,35.9444996],[139.015387,35.9445697],[139.0152885,35.9446546],[139.0152716,35.9447338],[139.0152641,35.9447494],[139.015219,35.9448443],[139.0151975,35.9450181],[139.0152095,35.9450515],[139.0152248,35.9450942],[139.015074,35.9451687],[139.0150105,35.9451401],[139.0149795,35.9451262],[139.01486,35.9450725],[139.0147442,35.9450353],[139.0147404,35.9450139],[139.0147377,35.9449729],[139.0143611,35.9447146],[139.0142694,35.9446615],[139.0142561,35.9446499],[139.0142161,35.9446151],[139.0143037,35.9445847],[139.0143889,35.9445037],[139.0143998,35.9444095],[139.0144035,35.9444022],[139.0143918,35.9443986],[139.0143934,35.9443921],[139.0143964,35.9443845],[139.0146232,35.9443086],[139.014693,35.9442741],[139.0148137,35.9442017],[139.0149019,35.9441364],[139.0149413,35.9440981],[139.0149671,35.944052],[139.0149907,35.943973],[139.0150202,35.9438742],[139.0151512,35.9441196]]]},"properties":{"layer":"landslide","class_code":"1","class_label":"急傾斜地の崩落","status_code":"0","status_label":"特別警戒区域指定済み"}},{"type":"Feature","id":"lsld_abbbf357-991b-4fa4-a140-5bea557ea116","geometry":{"type":"Polygon","coordinates":[[[139.0171988,35.9443649],[139.0171442,35.9444785],[139.0171485,35.9445877],[139.017034,35.9447558],[139.0170616,35.9448105],[139.0171163,35.9448783],[139.0170296,35.9449276],[139.016938,35.9449736],[139.0166806,35.945135],[139.0166432,35.9451609],[139.0165466,35.9452277],[139.0164581,35.945114],[139.0163387,35.9449281],[139.0162903,35.9447391],[139.0162618,35.94455],[139.0162314,35.9443941],[139.0163103,35.9442597],[139.016356,35.9441819],[139.016368,35.9441874],[139.016466,35.9442316],[139.0165173,35.9442547],[139.0165641,35.9442706],[139.0166993,35.9443012],[139.0169266,35.9443366],[139.0170897,35.9443505],[139.0171367,35.944348],[139.0172028,35.9443388],[139.0171988,35.9443649]]]},"properties":{"layer":"landslide","class_code":"1","class_label":"急傾斜地の崩落","status_code":"0","status_label":"特別警戒区域指定済み"}},{"type":"Feature","id":"lsld_82d35169-9861-4f16-b79e-8985cbeccbab","geometry":{"type":"Polygon","coordinates":[[[139.0166057,35.9435501],[139.0166379,35.9435868],[139.0166909,35.9436293],[139.0167669,35.9436409],[139.0167552,35.9436519],[139.0166669,35.9437501],[139.0166052,35.9438514],[139.0165453,35.9439544],[139.0164606,35.944071],[139.0164439,35.944092],[139.0163744,35.9441793],[139.0163508,35.9441796],[139.0162294,35.9441811],[139.0160238,35.944113],[139.0159656,35.9440478],[139.0158986,35.9439728],[139.015839,35.9437973],[139.0159581,35.9437763],[139.016018,35.9437657],[139.0160808,35.9437507],[139.0161417,35.9437295],[139.0162769,35.943678],[139.0164789,35.9435899],[139.0166,35.9435397],[139.0166057,35.9435501]]]},"properties":{"layer":"landslide","class_code":"1","class_label":"急傾斜地の崩落","status_code":"0","status_label":"特別警戒区域指定済み"}},{"type":"Feature","id":"lsld_22f9bfe1-7acd-4116-9986-3abc961c59f9","geometry":{"type":"Polygon","coordinates":[[[139.0204994,35.9479314],[139.0204983,35.9479343],[139.0203838,35.9481841],[139.0203483,35.9482617],[139.0202335,35.9480727],[139.0200719,35.9479474],[139.0199745,35.9478726],[139.0199282,35.9477025],[139.0198022,35.9475731],[139.0195506,35.9475881],[139.0194393,35.9474297],[139.0194134,35.9472008],[139.0193538,35.9470674],[139.0193341,35.9468717],[139.0193401,35.9467836],[139.0194411,35.9466318],[139.0196737,35.9464841],[139.0197927,35.946453],[139.0199895,35.9463215],[139.0202252,35.9462644],[139.020483,35.9462477],[139.020475,35.9463294],[139.0204639,35.9464435],[139.020301,35.9464614],[139.0201422,35.9465272],[139.020029,35.9467392],[139.0199334,35.9467868],[139.0199201,35.9467972],[139.0199159,35.9468053],[139.0199024,35.9468481],[139.0199343,35.9469426],[139.0199885,35.9471439],[139.0200195,35.9472739],[139.0200756,35.9473071],[139.0202579,35.947354],[139.0203008,35.9475371],[139.0203617,35.9476382],[139.0203919,35.9476674],[139.0204229,35.9478886],[139.0204994,35.9479314]]]},"properties":{"layer":"landslide","class_code":"1","class_label":"急傾斜地の崩落","status_code":"0","status_label":"特別警戒区域指定済み"}},{"type":"Feature","id":"lsld_b6f0c77f-7b1e-410b-9e22-8fb587c7ca4b","geometry":{"type":"Polygon","coordinates":[[[139.01525,35.945048],[139.0153488,35.9451364],[139.0153491,35.9451368],[139.0153626,35.9451552],[139.0153629,35.9451555],[139.0154657,35.9452524],[139.0155197,35.9453032],[139.0155665,35.9453636],[139.0155669,35.9453639],[139.0156468,35.9455619],[139.0156982,35.9457061],[139.0156423,35.9459183],[139.015594,35.9461149],[139.0153925,35.9462187],[139.0154101,35.9463659],[139.0154471,35.9465173],[139.0152665,35.9466308],[139.0150064,35.9467214],[139.0149473,35.9466333],[139.0148633,35.9465083],[139.014826,35.9464717],[139.0147421,35.9464004],[139.0145997,35.9463019],[139.0144759,35.9462112],[139.0143585,35.9461292],[139.0143852,35.946101],[139.0144219,35.9460556],[139.0144497,35.9460174],[139.0146945,35.9458048],[139.0147571,35.9457889],[139.0148056,35.9457604],[139.0148467,35.9457022],[139.0148339,35.945663],[139.0148244,35.945641],[139.0148243,35.9456407],[139.0148108,35.945632],[139.0147947,35.9456182],[139.0147941,35.9456177],[139.0147883,35.9456122],[139.0147876,35.9456117],[139.0147753,35.9456027],[139.0147744,35.9456021],[139.0147634,35.9455948],[139.0147673,35.9455875],[139.0148522,35.9454364],[139.0149234,35.9453304],[139.0149638,35.9452597],[139.0149814,35.9452221],[139.0150003,35.9451687],[139.0150105,35.9451401],[139.0150364,35.9450669],[139.0152095,35.9450515],[139.0152497,35.9450479],[139.01525,35.945048]]]},"properties":{"layer":"landslide","class_code":"1","class_label":"急傾斜地の崩落","status_code":"0","status_label":"特別警戒区域指定済み"}},{"type":"Feature","id":"lsld_3fcef182-4327-4120-97fc-3a2103b28d1a","geometry":{"type":"Polygon","coordinates":[[[139.0214533,35.9457669],[139.0214715,35.9458085],[139.0215362,35.9459682],[139.0215814,35.9460599],[139.0217214,35.9461048],[139.021951,35.9462117],[139.0219825,35.9463148],[139.0220187,35.9464342],[139.0220491,35.9465573],[139.0221417,35.9467306],[139.0222606,35.9469417],[139.0222472,35.9469384],[139.0221824,35.946922],[139.0221091,35.9469034],[139.0221044,35.9469022],[139.0218114,35.9468281],[139.0217221,35.9468175],[139.0216457,35.9467977],[139.0213438,35.9466446],[139.0213391,35.9466367],[139.0213406,35.9466211],[139.0213347,35.9465036],[139.0213371,35.9464956],[139.021336,35.9464915],[139.021323,35.9464792],[139.0211059,35.9463796],[139.0209715,35.946193],[139.0209061,35.9460572],[139.0208879,35.9460377],[139.0208214,35.9459906],[139.0208192,35.9459902],[139.0207215,35.9459084],[139.0205794,35.945815],[139.0204721,35.9455465],[139.0203799,35.9453478],[139.0204052,35.9453342],[139.0204931,35.9452961],[139.020498,35.945294],[139.020503,35.9452919],[139.0205569,35.9452685],[139.0205612,35.9452666],[139.0207071,35.9454059],[139.0208701,35.9454829],[139.0210675,35.9455411],[139.0212234,35.9456662],[139.0212607,35.945635],[139.0214533,35.9457669]]]},"properties":{"layer":"landslide","class_code":"1","class_label":"急傾斜地の崩落","status_code":"0","status_label":"特別警戒区域指定済み"}},{"type":"Feature","id":"lsld_8633884a-b641-4573-b2d1-64de56bb6490","geometry":{"type":"Polygon","coordinates":[[[139.0183954,35.9490577],[139.0183523,35.9490877],[139.0183177,35.9491119],[139.0180537,35.9492958],[139.0179414,35.949146],[139.0178718,35.9490076],[139.0177359,35.9489587],[139.0176999,35.9489638],[139.017577,35.9490197],[139.017518,35.9492135],[139.0173787,35.949286],[139.0172384,35.9492336],[139.0171408,35.9491972],[139.0173205,35.9490228],[139.0174238,35.9488761],[139.017604,35.9487161],[139.0179877,35.9487016],[139.0181983,35.9487944],[139.0182937,35.948899],[139.0183954,35.9490577]]]},"properties":{"layer":"landslide","class_code":"1","class_label":"急傾斜地の崩落","status_code":"0","status_label":"特別警戒区域指定済み"}},{"type":"Feature","id":"lsld_f981292e-0401-41de-94b5-e0eaf11708e9","geometry":{"type":"Polygon","coordinates":[[[139.0194044,35.9491521],[139.019195,35.9493904],[139.0191785,35.9494476],[139.0191361,35.9495302],[139.0191192,35.9495631],[139.0190013,35.9497361],[139.0188707,35.9498597],[139.0187512,35.9499362],[139.0186916,35.9499635],[139.0186381,35.9498877],[139.0185335,35.9498555],[139.0187124,35.9490919],[139.0187006,35.9489873],[139.0186908,35.9488519],[139.0186905,35.9488487],[139.0186886,35.948849],[139.0186798,35.9487898],[139.0186787,35.9487823],[139.0188331,35.9487179],[139.0188769,35.9486997],[139.0188948,35.9486922],[139.0189181,35.9486825],[139.0189291,35.9487324],[139.0189283,35.9487332],[139.0189294,35.9489358],[139.0189575,35.9489947],[139.0190043,35.9490153],[139.01907,35.9490566],[139.0192309,35.9491418],[139.0193897,35.9491178],[139.0195724,35.949096],[139.0195679,35.9491382],[139.0194044,35.9491521]]]},"properties":{"layer":"landslide","class_code":"1","class_label":"急傾斜地の崩落","status_code":"0","status_label":"特別警戒区域指定済み"}},{"type":"Feature","id":"lsld_0630a62a-43d9-4e01-95a3-26e30b70121e","geometry":{"type":"Polygon","coordinates":[[[139.0204587539925,35.94166666666667],[139.020463,35.9416737],[139.0205819,35.9418056],[139.0221358,35.9425786],[139.0221272,35.9428383],[139.0222301,35.9433823],[139.0222937,35.9437544],[139.0223309,35.9438452],[139.0224555,35.9439747],[139.0225833,35.9440923],[139.0227082,35.944198],[139.0227662,35.944258],[139.0227949,35.9443153],[139.0228049,35.944487],[139.0227755,35.9447822],[139.022778,35.9451063],[139.0227511,35.9454492],[139.0227982,35.9457116],[139.024251,35.9472154],[139.0242413,35.9472233],[139.0241955,35.9472605],[139.0240766,35.9473572],[139.0239412,35.947423],[139.0236678,35.9475022],[139.0235853,35.9475469],[139.0235742,35.9475557],[139.0234169,35.9476792],[139.023232,35.9479996],[139.0231869,35.9481137],[139.023175,35.9481745],[139.0231683,35.9482089],[139.0231644,35.9483241],[139.0231641,35.9483327],[139.0231643,35.9483331],[139.0231986,35.9484021],[139.0225986,35.9480664],[139.0224132,35.9479288],[139.0222819,35.9477812],[139.0222601,35.9477567],[139.0221755,35.9476679],[139.0221144,35.9476038],[139.0221095,35.9475972],[139.0220926,35.9475741],[139.0219828,35.9474248],[139.0219855,35.9474127],[139.0220091,35.9473054],[139.0220315,35.9472036],[139.0220415,35.9471907],[139.0221647,35.947034],[139.0221786,35.9470162],[139.0221406,35.9469546],[139.0221091,35.9469034],[139.0219887,35.946708],[139.0219014,35.9466164],[139.0218885,35.9464503],[139.0218884,35.9464496],[139.0219,35.9464213],[139.0219185,35.9463759],[139.0218872,35.9462828],[139.0217882,35.9462201],[139.0217811,35.9462177],[139.0215838,35.9461497],[139.0215741,35.9461483],[139.0215107,35.9461396],[139.0214471,35.9459808],[139.0213267,35.9457972],[139.0213262,35.9457968],[139.0213149,35.9457887],[139.0211581,35.9456763],[139.0209624,35.9455926],[139.0209614,35.9455921],[139.0209557,35.9455882],[139.0208257,35.9454988],[139.0206885,35.945422],[139.0206275,35.9453879],[139.0206242,35.9453853],[139.020503,35.9452919],[139.0204996,35.9452893],[139.0205015,35.9452831],[139.0205509,35.9451246],[139.020535,35.9450062],[139.0205337,35.9449964],[139.020531,35.9449929],[139.0204577,35.9448996],[139.020451,35.9448911],[139.0201858,35.9447463],[139.0202316,35.9442946],[139.0202443,35.9441692],[139.0202445,35.9441677],[139.02016,35.9441077],[139.020153,35.9441028],[139.0200899,35.943898],[139.020089,35.943895],[139.0200056,35.9437102],[139.0199455,35.9435244],[139.0199179,35.9434387],[139.0197885,35.9431751],[139.0201555,35.9425319],[139.0202229,35.9423749],[139.0202001,35.9421973],[139.0201306,35.9420212],[139.0200673,35.9418218],[139.0200582079365,35.94166666666667],[139.0204587539925,35.94166666666667]]]},"properties":{"layer":"landslide","class_code":"2","class_label":"土石流","status_code":"0","status_label":"特別警戒区域指定済み"}},{"type":"Feature","id":"lsld_b158a196-c82e-46b2-8946-dc535b711e96","geometry":{"type":"Polygon","coordinates":[[[139.0242413,35.9472233],[139.0242423,35.9472237],[139.0241955,35.9472605],[139.024071,35.9473584],[139.0239502,35.9474148],[139.023671,35.9474987],[139.0235944,35.9475387],[139.0235742,35.9475557],[139.0234171,35.9476876],[139.0232322,35.9480009],[139.023175,35.9481745],[139.0231657,35.9482029],[139.0231644,35.9483241],[139.0231643,35.9483331],[139.0231643,35.948334],[139.0231901,35.9483937],[139.0225869,35.9480561],[139.0224095,35.9479238],[139.0223534,35.947856],[139.0222819,35.9477812],[139.0222516,35.9477496],[139.0221755,35.9476679],[139.0221095,35.9475972],[139.0221038,35.9475911],[139.0220926,35.9475741],[139.0219855,35.9474127],[139.0219807,35.9474055],[139.0220091,35.9473054],[139.0220415,35.9471907],[139.0220435,35.9471838],[139.0221647,35.947034],[139.0221837,35.9470104],[139.0221406,35.9469546],[139.0221248,35.9469342],[139.0221346,35.9469516],[139.0221044,35.9469022],[139.0219836,35.9467048],[139.0218985,35.9466153],[139.021883,35.9465442],[139.0218854,35.946458],[139.0218885,35.9464503],[139.0219,35.9464213],[139.0219155,35.946382],[139.0218872,35.9462841],[139.0217811,35.9462177],[139.0217795,35.9462167],[139.0215839,35.9461487],[139.0215741,35.9461483],[139.0215019,35.9461457],[139.0214236,35.9459574],[139.0213262,35.9457968],[139.0213254,35.9457955],[139.0213149,35.9457887],[139.0211702,35.9456954],[139.0209794,35.9456036],[139.0209624,35.9455926],[139.0209557,35.9455882],[139.0207794,35.9454739],[139.0206885,35.945422],[139.0206242,35.9453853],[139.0206105,35.9453775],[139.020498,35.945294],[139.0204971,35.9452933],[139.0205015,35.9452831],[139.0205481,35.9451769],[139.0205555,35.9450735],[139.020535,35.9450062],[139.020531,35.9449929],[139.020526,35.9449764],[139.020463,35.9449024],[139.0204577,35.9448996],[139.0202794,35.9448059],[139.0201834,35.9447457],[139.0202316,35.9442946],[139.0202449,35.9441697],[139.0202443,35.9441692],[139.0201606,35.9441097],[139.02016,35.9441077],[139.020095,35.9439083],[139.0200899,35.943898],[139.0200125,35.9437403],[139.0199601,35.9435749],[139.0199455,35.9435244],[139.0199091,35.943398],[139.0198252,35.943231],[139.0200524,35.9431597],[139.0202517,35.9432903],[139.020451,35.9434216],[139.0202716,35.9435696],[139.0202298,35.9436431],[139.0202784,35.9437649],[139.0203382,35.9438485],[139.0204105,35.9440017],[139.0204955,35.9441797],[139.0205421,35.9443765],[139.020566,35.944524],[139.020684,35.9446106],[139.020871,35.944735],[139.0209383,35.9449494],[139.0209635,35.9451283],[139.0209982,35.9452168],[139.0210188,35.945226],[139.0211881,35.945301],[139.0213739,35.9454001],[139.021567,35.9454949],[139.0217511,35.9456],[139.0218991,35.9456976],[139.0219346,35.945721],[139.0220201,35.9458335],[139.0220514,35.9458747],[139.0222119,35.9460971],[139.022255,35.9461808],[139.0223041,35.946243],[139.0224427,35.9463132],[139.0242413,35.9472233]]]},"properties":{"layer":"landslide","class_code":"2","class_label":"土石流","status_code":"0","status_label":"特別警戒区域指定済み"}},{"type":"Feature","id":"lsld_4e9d42d9-5041-4b35-a17e-f4f5279df890","geometry":{"type":"Polygon","coordinates":[[[139.02032978622495,35.94166666666667],[139.0203555,35.9417139],[139.020385,35.9418981],[139.0205223,35.9420414],[139.0206251,35.9422039],[139.0207001,35.9423826],[139.0206991,35.9425665],[139.0207367,35.9427449],[139.0207788,35.9428234],[139.0206471,35.9428322],[139.0206118,35.9427531],[139.0205966,35.9425733],[139.020607,35.9423994],[139.020525,35.9422465],[139.0204178,35.942092],[139.0202339,35.9419712],[139.0201607,35.9417869],[139.02013975771857,35.94166666666667],[139.02032978622495,35.94166666666667]]]},"properties":{"layer":"landslide","class_code":"2","class_label":"土石流","status_code":"0","status_label":"特別警戒区域指定済み"}}]}