{"type":"FeatureCollection","properties":{"mesh_code":"53396086","source":"PLATEAU秩父市2025","layer":"landslide"},"features":[{"type":"Feature","id":"lsld_071c7854-2425-40b7-a008-88877d8d21c2","geometry":{"type":"Polygon","coordinates":[[[139.0787805,35.9067381],[139.0787854,35.9067783],[139.0786883,35.9067611],[139.0786274,35.9067602],[139.0785655,35.9067345],[139.0784836,35.9067202],[139.0783713,35.9067231],[139.0783542,35.906606],[139.07818,35.906606],[139.078062,35.9066003],[139.0777909,35.9065618],[139.0776219,35.9065452],[139.0775303,35.9065154],[139.0776314,35.9065131],[139.0777718,35.9064952],[139.0779253,35.9064488],[139.0782263,35.9063346],[139.0782798,35.9063191],[139.0784654,35.9061895],[139.078582,35.9061407],[139.078574,35.9062068],[139.0785722,35.9062215],[139.0785217,35.9063985],[139.0786731,35.9064784],[139.0786864,35.9065056],[139.0787739,35.906684],[139.0787805,35.9067381]]]},"properties":{"layer":"landslide","class_code":"1","class_label":"急傾斜地の崩落","status_code":"0","status_label":"特別警戒区域指定済み"}},{"type":"Feature","id":"lsld_24630704-e701-420d-8ec8-85f635814906","geometry":{"type":"Polygon","coordinates":[[[139.079031,35.9058853],[139.0789568,35.9067027],[139.0788972,35.9067157],[139.0788963,35.9067159],[139.0788497,35.9067257],[139.0788188,35.9067322],[139.0787958,35.9067357],[139.0787805,35.9067381],[139.0787796,35.9067383],[139.078691,35.9067377],[139.0786853,35.9067377],[139.0786792,35.9067119],[139.0786705,35.9066747],[139.0786664,35.9066573],[139.0786608,35.9066548],[139.0786154,35.9066348],[139.0785332,35.9066185],[139.0784139,35.9065948],[139.0783867,35.9065612],[139.0783174,35.9064756],[139.078191,35.9064357],[139.0781982,35.9064317],[139.0782637,35.9063943],[139.0782817,35.906384],[139.0783473,35.9063466],[139.0784044,35.9063141],[139.078487,35.9062614],[139.0785657,35.906211],[139.078574,35.9062068],[139.0786495,35.9061691],[139.0787203,35.9061271],[139.0787649,35.9060977],[139.0787949,35.9060723],[139.0788109,35.9060587],[139.0788662,35.9059928],[139.0789713,35.9058675],[139.07911,35.905702],[139.0791266,35.9057151],[139.0790406,35.905851],[139.0790459,35.9058499],[139.079031,35.9058853]]]},"properties":{"layer":"landslide","class_code":"1","class_label":"急傾斜地の崩落","status_code":"0","status_label":"特別警戒区域指定済み"}},{"type":"Feature","id":"lsld_9c2bde9a-3a49-4fc8-89f1-a4b9addfb46e","geometry":{"type":"Polygon","coordinates":[[[139.082398,35.9081458],[139.0824295,35.908154],[139.0825017,35.9081729],[139.0825029,35.908175],[139.0825674,35.9083103],[139.08257834740178,35.90833333333333],[139.08229131984126,35.90833333333333],[139.0823259,35.9082479],[139.0823609,35.9081612],[139.0823645,35.9081577],[139.0823707,35.9081515],[139.0823809,35.9081413],[139.082398,35.9081458]]]},"properties":{"layer":"landslide","class_code":"1","class_label":"急傾斜地の崩落","status_code":"0","status_label":"特別警戒区域指定済み"}},{"type":"Feature","id":"lsld_b0ead647-0200-43a0-a7c1-98f2f3aa1f62","geometry":{"type":"Polygon","coordinates":[[[139.08257719803922,35.90833333333333],[139.0817418088986,35.90833333333333],[139.081723,35.9083262],[139.0816631,35.9083099],[139.0815815,35.9082931],[139.0813351,35.9082441],[139.0812859,35.9082364],[139.0812834,35.9082361],[139.0812094,35.9082275],[139.0812005,35.9082265],[139.0811042,35.9081996],[139.0811035,35.9081991],[139.0811041,35.9081979],[139.0811272,35.9082041],[139.0811833,35.9082202],[139.0812096,35.9082244],[139.0812456,35.90823],[139.0812792,35.9082338],[139.0815607,35.9082657],[139.081667,35.9082604],[139.0818175,35.9082286],[139.0819018,35.9082142],[139.0821107,35.9082036],[139.0822223,35.9081825],[139.0822415,35.9081785],[139.0823665,35.9081524],[139.0823707,35.9081515],[139.082398,35.9081458],[139.082451,35.9081347],[139.0824806,35.9081285],[139.0824817,35.9081305],[139.0825017,35.9081729],[139.08257719803922,35.90833333333333]]]},"properties":{"layer":"landslide","class_code":"1","class_label":"急傾斜地の崩落","status_code":"0","status_label":"特別警戒区域指定済み"}},{"type":"Feature","id":"lsld_84c7b862-6fef-48c0-b82c-29c16e6535c3","geometry":{"type":"Polygon","coordinates":[[[139.0824089,35.9040383],[139.0825788,35.9041411],[139.082733,35.904281],[139.0829457,35.9044937],[139.083247,35.9046993],[139.0833134,35.9047843],[139.0833401,35.9048453],[139.0833699,35.9049321],[139.0835969,35.9052124],[139.083452,35.9051808],[139.0832994,35.90515],[139.0831597,35.9051206],[139.0830081,35.9050769],[139.0827516,35.9049757],[139.0825361,35.9049004],[139.0822876,35.9048011],[139.0822767,35.9047967],[139.0821627,35.9047673],[139.0820838,35.9047469],[139.0820559,35.9047397],[139.082002,35.9047258],[139.081966,35.9046097],[139.0819629,35.9045986],[139.0819418,35.9045237],[139.08194,35.9044197],[139.081959,35.9043456],[139.0819631,35.9043294],[139.0819757,35.9043041],[139.0819759,35.9043035],[139.0820169,35.9042213],[139.0820483,35.9041378],[139.0820638,35.9040681],[139.0821123,35.9040565],[139.0823839,35.9040229],[139.0824089,35.9040383]]]},"properties":{"layer":"landslide","class_code":"1","class_label":"急傾斜地の崩落","status_code":"0","status_label":"特別警戒区域指定済み"}},{"type":"Feature","id":"lsld_bfe1b0a1-c936-4eba-89d8-b8bab974a6e2","geometry":{"type":"Polygon","coordinates":[[[139.0822021,35.9047767],[139.0821633,35.9047659],[139.0820973,35.9047476],[139.0820838,35.9047469],[139.0820559,35.9047456],[139.0820327,35.9047444],[139.0820177,35.9047437],[139.0820046,35.9047453],[139.0819686,35.9046276],[139.0819639,35.9046127],[139.0819418,35.9045425],[139.0819347,35.9044608],[139.0819373,35.9043935],[139.081959,35.9043456],[139.0819746,35.9043108],[139.0819778,35.9043038],[139.0820299,35.9043099],[139.0820353,35.9043105],[139.082098,35.9043179],[139.0822077,35.9043308],[139.0821886,35.904446],[139.0822222,35.9046093],[139.0822159,35.9046624],[139.0822021,35.9047767]]]},"properties":{"layer":"landslide","class_code":"1","class_label":"急傾斜地の崩落","status_code":"0","status_label":"特別警戒区域指定済み"}},{"type":"Feature","id":"lsld_91136f57-1af3-4043-996c-1acbf7c6a79d","geometry":{"type":"Polygon","coordinates":[[[139.08513964009737,35.90833333333333],[139.0853507,35.9072376],[139.085355,35.9072369],[139.085362,35.9072354],[139.0853664,35.9072342],[139.0853695,35.9072319],[139.0853705,35.907231],[139.0854195,35.9073119],[139.0854345,35.9073365],[139.0854548,35.9073682],[139.0854592,35.907375],[139.0856161,35.9075179],[139.085638,35.9075299],[139.0857997,35.9076287],[139.0858303,35.9076539],[139.0860932,35.9079072],[139.0862245,35.9081274],[139.0862669,35.9082006],[139.08636101221504,35.90833333333333],[139.08513964009737,35.90833333333333]]]},"properties":{"layer":"landslide","class_code":"1","class_label":"急傾斜地の崩落","status_code":"0","status_label":"特別警戒区域指定済み"}},{"type":"Feature","id":"lsld_7da6af1e-cd09-4d76-8176-45a394a5d6e4","geometry":{"type":"Polygon","coordinates":[[[139.0782624,35.9063935],[139.0782637,35.9063943],[139.0784061,35.9064782],[139.0785898,35.9065096],[139.0786608,35.9066548],[139.0786705,35.9066747],[139.0786735,35.9066809],[139.0786792,35.9067119],[139.0786883,35.9067611],[139.0786274,35.9067602],[139.0785655,35.9067345],[139.0785631,35.9066895],[139.0785332,35.9066185],[139.0785098,35.9065629],[139.0783867,35.9065612],[139.0780929,35.9065572],[139.0777865,35.9065439],[139.0777718,35.9064952],[139.0779253,35.9064488],[139.0782263,35.9063346],[139.0782624,35.9063935]]]},"properties":{"layer":"landslide","class_code":"1","class_label":"急傾斜地の崩落","status_code":"0","status_label":"特別警戒区域指定済み"}},{"type":"Feature","id":"lsld_2ce34b5a-0fcb-488e-ac4b-e82000533bbe","geometry":{"type":"Polygon","coordinates":[[[139.0788963,35.9067159],[139.0788497,35.9067257],[139.0788016,35.9065593],[139.0787001,35.9065069],[139.0786864,35.9065056],[139.0785317,35.9064905],[139.0784235,35.9063537],[139.0783473,35.9063466],[139.0784044,35.9063141],[139.078487,35.9062614],[139.0785657,35.906211],[139.078574,35.9062068],[139.0786495,35.9061691],[139.0787203,35.9061271],[139.0787649,35.9060977],[139.0787949,35.9060723],[139.0788109,35.9060587],[139.0788662,35.9059928],[139.0788822,35.9060015],[139.0787901,35.9062397],[139.0789069,35.9061824],[139.0789718,35.9062004],[139.0788963,35.9067159]]]},"properties":{"layer":"landslide","class_code":"1","class_label":"急傾斜地の崩落","status_code":"0","status_label":"特別警戒区域指定済み"}},{"type":"Feature","id":"lsld_e50fce05-5c0b-41e5-87bd-48a71fd3a666","geometry":{"type":"Polygon","coordinates":[[[139.08229571160928,35.90833333333333],[139.0817418088986,35.90833333333333],[139.081723,35.9083262],[139.0816631,35.9083099],[139.0815815,35.9082931],[139.0813351,35.9082441],[139.0812859,35.9082364],[139.0812834,35.9082361],[139.0812753,35.9082347],[139.0812792,35.9082338],[139.0815607,35.9082657],[139.081667,35.9082604],[139.0818175,35.9082286],[139.0819018,35.9082142],[139.0821107,35.9082036],[139.0822223,35.9081825],[139.0822415,35.9081785],[139.0823665,35.9081524],[139.0823645,35.9081577],[139.082331,35.9082432],[139.08229571160928,35.90833333333333]]]},"properties":{"layer":"landslide","class_code":"1","class_label":"急傾斜地の崩落","status_code":"0","status_label":"特別警戒区域指定済み"}},{"type":"Feature","id":"lsld_fd88c7f6-2e26-4185-947d-436ce90610ea","geometry":{"type":"Polygon","coordinates":[[[139.0825788,35.9041411],[139.082733,35.904281],[139.0829457,35.9044937],[139.083247,35.9046993],[139.0833134,35.9047843],[139.0833033,35.904881],[139.083452,35.9051808],[139.0832994,35.90515],[139.0831597,35.9051206],[139.0830081,35.9050769],[139.0827516,35.9049757],[139.0825361,35.9049004],[139.0822876,35.9048011],[139.0822767,35.9047967],[139.0821627,35.9047673],[139.0821633,35.9047659],[139.0822159,35.9046624],[139.0822522,35.9045907],[139.0823023,35.9044301],[139.0823635,35.9042891],[139.0824039,35.904088],[139.0824089,35.9040383],[139.0825788,35.9041411]]]},"properties":{"layer":"landslide","class_code":"1","class_label":"急傾斜地の崩落","status_code":"0","status_label":"特別警戒区域指定済み"}},{"type":"Feature","id":"lsld_6ed6014c-050f-44cf-ad9c-130e52468d44","geometry":{"type":"Polygon","coordinates":[[[139.0820559,35.9047456],[139.0820327,35.9047444],[139.0820177,35.9047437],[139.0820046,35.9047453],[139.0819686,35.9046276],[139.0819639,35.9046127],[139.0819629,35.9045986],[139.0819524,35.9044526],[139.0819746,35.9043108],[139.0819757,35.9043041],[139.0819759,35.9043035],[139.0819778,35.9043038],[139.0820299,35.9043099],[139.0820353,35.9043105],[139.0820214,35.9044521],[139.0820553,35.9046198],[139.0820559,35.9047397],[139.0820559,35.9047456]]]},"properties":{"layer":"landslide","class_code":"1","class_label":"急傾斜地の崩落","status_code":"0","status_label":"特別警戒区域指定済み"}},{"type":"Feature","id":"lsld_f585e165-ab77-4185-a5be-3663fcf7a898","geometry":{"type":"Polygon","coordinates":[[[139.08524844214242,35.90833333333333],[139.08542,35.9073747],[139.0854255,35.9073735],[139.0854304,35.9073739],[139.0854447,35.9073723],[139.0854518,35.9073688],[139.0854548,35.9073682],[139.0854592,35.907375],[139.0856161,35.9075179],[139.085638,35.9075299],[139.0857997,35.9076287],[139.0858303,35.9076539],[139.0860932,35.9079072],[139.0862245,35.9081274],[139.0862669,35.9082006],[139.08636101221504,35.90833333333333],[139.08524844214242,35.90833333333333]]]},"properties":{"layer":"landslide","class_code":"1","class_label":"急傾斜地の崩落","status_code":"0","status_label":"特別警戒区域指定済み"}},{"type":"Feature","id":"lsld_b1033c9e-c1f0-43fd-ba0e-f8449f28d016","geometry":{"type":"Polygon","coordinates":[[[139.0827797,35.9040857],[139.0827534,35.9040783],[139.0827096,35.9040638],[139.0826732,35.9040509],[139.0826513,35.9040432],[139.0826016,35.9040265],[139.0825739,35.9040188],[139.0825315,35.9040114],[139.0825022,35.9040095],[139.0824451,35.9040121],[139.0823879,35.9040177],[139.0823286,35.9040233],[139.0823113,35.9040255],[139.082278,35.9040301],[139.0822413,35.9040358],[139.0821959,35.9040427],[139.0821225,35.9040548],[139.0821123,35.9040565],[139.0820638,35.9040681],[139.0820212,35.9040833],[139.0819889,35.9039755],[139.0819287,35.9037731],[139.0817915,35.9036304],[139.081811,35.9036154],[139.0818675,35.9035716],[139.0818891,35.9035548],[139.081898,35.9035479],[139.0821634,35.9035912],[139.0822614,35.9036119],[139.0823338,35.9037082],[139.0823757,35.9037651],[139.0825079,35.9038222],[139.0826647,35.9039496],[139.0827797,35.9040857]]]},"properties":{"layer":"landslide","class_code":"2","class_label":"土石流","status_code":"0","status_label":"特別警戒区域指定済み"}},{"type":"Feature","id":"lsld_52ad57fe-8f93-47dc-9790-5bc83c79d777","geometry":{"type":"Polygon","coordinates":[[[139.0822325848435,35.90833333333333],[139.0823259,35.9082479],[139.082331,35.9082432],[139.0823632,35.9082137],[139.0824295,35.908154],[139.082451,35.9081347],[139.0824767,35.9081116],[139.0825054,35.9081749],[139.0825284,35.9082203],[139.0825614,35.9082968],[139.0825674,35.9083103],[139.08257754003887,35.90833333333333],[139.0822325848435,35.90833333333333]]]},"properties":{"layer":"landslide","class_code":"2","class_label":"土石流","status_code":"0","status_label":"特別警戒区域指定済み"}},{"type":"Feature","id":"lsld_b4813f4e-ea94-48fa-ad34-3c151b5e512a","geometry":{"type":"Polygon","coordinates":[[[139.0824451,35.9040121],[139.0823879,35.9040177],[139.0823286,35.9040233],[139.0823113,35.9040255],[139.082278,35.9040301],[139.0822413,35.9040358],[139.0821959,35.9040427],[139.0821225,35.9040548],[139.082024,35.9039482],[139.0819805,35.9037331],[139.081811,35.9036154],[139.0818675,35.9035716],[139.0818891,35.9035548],[139.0821634,35.9035912],[139.082604,35.9039967],[139.0826732,35.9040509],[139.0826513,35.9040432],[139.0826016,35.9040265],[139.0825739,35.9040188],[139.0825315,35.9040114],[139.0825022,35.9040095],[139.0824451,35.9040121]]]},"properties":{"layer":"landslide","class_code":"2","class_label":"土石流","status_code":"0","status_label":"特別警戒区域指定済み"}}]}