{"type":"FeatureCollection","properties":{"mesh_code":"53397073","source":"PLATEAU秩父市2025","layer":"landslide"},"features":[{"type":"Feature","id":"lsld_522eb5dd-ffcd-4334-a2cf-b88c15d12a9c","geometry":{"type":"Polygon","coordinates":[[[139.0470313,35.9821494],[139.046988,35.9821515],[139.0469331,35.9821417],[139.0468957,35.9821227],[139.046867,35.982099],[139.0468586,35.9820754],[139.0468473,35.9820495],[139.0468361,35.9820142],[139.0468194,35.9819506],[139.0467968,35.9818894],[139.04678,35.9818376],[139.0467516,35.9817834],[139.0466859,35.9817077],[139.0466259,35.9816345],[139.0465743,35.9815918],[139.0465403,35.9815235],[139.0465407,35.9814812],[139.0465411,35.9814365],[139.0465415,35.9813942],[139.0465594,35.981345],[139.0465802,35.9812911],[139.046598,35.9812372],[139.0466099,35.981209],[139.0466632,35.9810802],[139.04671,35.9810217],[139.0467917,35.9809494],[139.0468673,35.98091],[139.0483898,35.9802201],[139.0485083,35.9802499],[139.0485981,35.9803018],[139.0486971,35.9803392],[139.0487872,35.9803618],[139.0488954,35.9803845],[139.0489947,35.9803852],[139.0490399,35.9803781],[139.0491305,35.9803494],[139.049212,35.9803279],[139.0493295,35.9803213],[139.0494198,35.9803219],[139.0495462,35.9803301],[139.04956,35.980332],[139.0496003,35.9803378],[139.0497175,35.9803449],[139.0497357,35.980346],[139.0498377,35.9803467],[139.0499685,35.9803771],[139.05,35.98037986744186],[139.05,35.98097742148895],[139.0477322,35.9820054],[139.0476159,35.9820581],[139.0475722,35.9820717],[139.047555,35.9820771],[139.0475225,35.9820804],[139.0474714,35.9820865],[139.0474637,35.9820861],[139.0474252,35.9820839],[139.0473702,35.9820952],[139.0473151,35.9821043],[139.0472774,35.9821205],[139.0472704,35.9821225],[139.0472368,35.982132],[139.047202,35.9821388],[139.0471573,35.9821454],[139.0471412,35.9821478],[139.0470863,35.9821474],[139.0470313,35.9821494]]]},"properties":{"layer":"landslide","class_code":"3","class_label":"地すべり","status_code":"0","status_label":"特別警戒区域指定済み"}},{"type":"Feature","id":"lsld_d8aa680c-dcc8-456c-b23e-848798087c03","geometry":{"type":"Polygon","coordinates":[[[139.05,35.983333333333334],[139.0476948551111,35.983333333333334],[139.0476491,35.9833015],[139.0475555,35.9832312],[139.0474675,35.9831679],[139.0473851,35.9831186],[139.0473461,35.983068],[139.0472708,35.9829777],[139.0471674,35.9828872],[139.0470703,35.9828277],[139.046987,35.9827745],[139.0469384,35.9826875],[139.0469162,35.9826161],[139.0469208,35.9825387],[139.0469057,35.9824767],[139.0469321,35.9824049],[139.046957,35.9823408],[139.0469803,35.9822976],[139.0470227,35.9822545],[139.0470536,35.9822113],[139.0471034,35.9821776],[139.0471573,35.9821454],[139.0471609,35.9821433],[139.0472704,35.9821225],[139.0473309,35.982111],[139.0474236,35.9820907],[139.0474637,35.9820861],[139.0475265,35.9820788],[139.0475722,35.9820717],[139.0476037,35.9820668],[139.0476863,35.9820339],[139.0477322,35.9820054],[139.0477794,35.981976],[139.0478363,35.9819346],[139.0478828,35.9819099],[139.0480169,35.9818648],[139.0481101,35.9818028],[139.0482652,35.9817119],[139.0483219,35.9816872],[139.0483684,35.9816666],[139.0485733,35.9815384],[139.0486162,35.9814886],[139.0486589,35.9814575],[139.0487288,35.9814141],[139.0487913,35.9813268],[139.0488228,35.9812612],[139.0489241,35.9811553],[139.0490254,35.9810432],[139.0490457,35.9809368],[139.049058,35.9808617],[139.0490472,35.9807896],[139.049044,35.9807269],[139.0490443,35.9806893],[139.04956,35.980332],[139.05,35.98002725945366],[139.05,35.983333333333334]]]},"properties":{"layer":"landslide","class_code":"3","class_label":"地すべり","status_code":"0","status_label":"特別警戒区域指定済み"}},{"type":"Feature","id":"lsld_d1768dbc-e4c1-4483-9338-7a56b4fdd451","geometry":{"type":"Polygon","coordinates":[[[139.05,35.97664374498295],[139.0499093,35.9766716],[139.0497634,35.9767404],[139.0496176,35.9767985],[139.0494917,35.9768406],[139.0493924,35.9768668],[139.0492045,35.9768913],[139.0491279,35.976908],[139.0466667,35.9772334],[139.0465477,35.9772487],[139.0464694,35.9772588],[139.0464287,35.977264],[139.046297,35.977231],[139.0462318,35.97715],[139.0461794,35.9771068],[139.0461603,35.9770315],[139.0461742,35.9769672],[139.0461951,35.9768546],[139.046209,35.976785],[139.046243,35.9766886],[139.0462832,35.9766245],[139.0463366,35.9765658],[139.0463767,35.9765178],[139.0464301,35.9764591],[139.0464769,35.9764003],[139.0466229,35.9763262],[139.0467685,35.9762896],[139.0468545,35.976274],[139.0469802,35.976248],[139.0478823,35.9761288],[139.048483,35.9760493],[139.0491471,35.9759615],[139.0494414,35.9759226],[139.04958,35.9759235],[139.0499498,35.9759152],[139.05,35.975917595909095],[139.05,35.97664374498295]]]},"properties":{"layer":"landslide","class_code":"3","class_label":"地すべり","status_code":"0","status_label":"特別警戒区域指定済み"}},{"type":"Feature","id":"lsld_a0dd8dc3-ec0a-431d-909f-1fabd0d20b9d","geometry":{"type":"Polygon","coordinates":[[[139.05,35.977665036501655],[139.0493702,35.9781688],[139.0492806,35.9782125],[139.049221,35.9782362],[139.0491514,35.9782639],[139.0490866,35.9783078],[139.0489466,35.9784437],[139.0488667,35.9785076],[139.0487671,35.9785713],[139.0486971,35.9786353],[139.0486323,35.9786791],[139.048528,35.9787147],[139.0483741,35.9787499],[139.0482453,35.9787571],[139.0481561,35.9787565],[139.048092,35.978736],[139.0480032,35.9787032],[139.0479143,35.9786744],[139.0478255,35.9786457],[139.0477515,35.978617],[139.0476576,35.9785922],[139.0475936,35.9785596],[139.0475197,35.9785189],[139.0474607,35.9784742],[139.0473919,35.9784295],[139.0473328,35.9783929],[139.0472491,35.9783481],[139.047185,35.9783155],[139.047121,35.9782748],[139.0470373,35.978234],[139.0469486,35.9781851],[139.0468651,35.9781202],[139.0468308,35.9780797],[139.0468065,35.9780393],[139.0467136,35.9779139],[139.0466401,35.9778329],[139.0466158,35.9777885],[139.0465621,35.9777157],[139.0465577,35.9776593],[139.0465384,35.9776028],[139.0465191,35.9775544],[139.0464755,35.9774616],[139.0464367,35.9773728],[139.0464424,35.9773044],[139.0464576,35.9772682],[139.0464694,35.9772588],[139.0478823,35.9761288],[139.0480414,35.9760015],[139.0483039,35.9760313],[139.0484622,35.9760467],[139.048483,35.9760493],[139.048638,35.9760693],[139.048823,35.9760633],[139.0489817,35.9760286],[139.049132,35.9759723],[139.0491471,35.9759615],[139.0492915,35.9758589],[139.0493893,35.9757665],[139.0495398,35.9756745],[139.0497429,35.9756186],[139.0499547,35.9755627],[139.05,35.97555196970154],[139.05,35.977665036501655]]]},"properties":{"layer":"landslide","class_code":"3","class_label":"地すべり","status_code":"0","status_label":"特別警戒区域指定済み"}}]}