{"type":"FeatureCollection","properties":{"mesh_code":"53397075","source":"PLATEAU秩父市2025","layer":"landslide"},"features":[{"type":"Feature","id":"lsld_53788999-9184-4114-bcfa-985a53eb615c","geometry":{"type":"Polygon","coordinates":[[[139.0669425,35.9768979],[139.0669534,35.9769026],[139.0669554,35.9769034],[139.0669644,35.9769073],[139.0670625,35.9769493],[139.0669732,35.9771196],[139.0669095,35.9772652],[139.0669703,35.9774484],[139.0669431,35.9776288],[139.0668143,35.9778004],[139.0667347,35.9779602],[139.0666897,35.9781418],[139.0666549,35.9783226],[139.0666196,35.9784989],[139.0665587,35.9786883],[139.0665564,35.9789251],[139.0663821,35.9790873],[139.0662824,35.9791789],[139.066175,35.9792954],[139.0660255,35.9794349],[139.0658872,35.9795446],[139.0657225,35.9796842],[139.0655613,35.9798208],[139.0654029,35.9799547],[139.0653259,35.9798899],[139.0652875,35.9798573],[139.0650707,35.9796743],[139.0649847,35.9796016],[139.0648697,35.9795046],[139.0648711,35.9795038],[139.0648716,35.9795034],[139.0650077,35.9793898],[139.065132,35.9792809],[139.0653033,35.9791627],[139.0653684,35.9791059],[139.0654456,35.979011],[139.0655526,35.9788639],[139.0656362,35.9787213],[139.0656842,35.9786072],[139.0657328,35.9784358],[139.0657578,35.9782786],[139.0657705,35.9781832],[139.0657317,35.9779493],[139.0657292,35.9779449],[139.0657432,35.9779059],[139.0658044,35.9777303],[139.0658352,35.9776046],[139.0659141,35.9774773],[139.0660725,35.9774228],[139.0664808,35.9772645],[139.0666908,35.9770175],[139.0668332,35.976851],[139.0669425,35.9768979]]]},"properties":{"layer":"landslide","class_code":"1","class_label":"急傾斜地の崩落","status_code":"0","status_label":"特別警戒区域指定済み"}},{"type":"Feature","id":"lsld_183d1feb-ce1e-4220-ac43-96d737962377","geometry":{"type":"Polygon","coordinates":[[[139.0647701,35.9805217],[139.064583,35.9806625],[139.0643995,35.9807902],[139.0642089,35.9808445],[139.0640215,35.9808977],[139.0638352,35.9809477],[139.0636704,35.9809915],[139.0634626,35.9810549],[139.063261,35.9811335],[139.063015,35.9811425],[139.0627716,35.9811083],[139.0625717,35.9810345],[139.0625702,35.9810338],[139.0626233,35.9809549],[139.0626304,35.9809441],[139.0626423,35.9809264],[139.0627325,35.9807921],[139.0627818,35.9807187],[139.0629034,35.9805377],[139.0629066,35.9805191],[139.0629204,35.9804384],[139.062921,35.9804351],[139.0630906,35.9804362],[139.0632288,35.9804047],[139.063407,35.980361],[139.0635606,35.9803197],[139.063739,35.9802486],[139.0638806,35.9801848],[139.0639698,35.980148],[139.0640562,35.9800863],[139.0641764,35.9800123],[139.0642998,35.979921],[139.0644943,35.9797778],[139.0646763,35.9796469],[139.0648646,35.9795022],[139.0648669,35.9795002],[139.0648711,35.9795038],[139.0649856,35.979601],[139.0650713,35.9796738],[139.0652875,35.9798573],[139.0653259,35.9798899],[139.0654025,35.9799551],[139.0653619,35.9799919],[139.0652165,35.9801241],[139.0650593,35.9802414],[139.0649122,35.9803794],[139.0647701,35.9805217]]]},"properties":{"layer":"landslide","class_code":"1","class_label":"急傾斜地の崩落","status_code":"0","status_label":"特別警戒区域指定済み"}},{"type":"Feature","id":"lsld_11efce65-874f-4e48-a8e1-64721fdf12b5","geometry":{"type":"Polygon","coordinates":[[[139.0625,35.98036598558353],[139.0625025,35.9803666],[139.0627877,35.9804377],[139.0629204,35.9804384],[139.0629589,35.9804386],[139.0629066,35.9805191],[139.0627696,35.9807299],[139.0627299,35.9807911],[139.062642,35.9809264],[139.0626304,35.9809441],[139.0626233,35.9809549],[139.0625717,35.9810345],[139.0625702,35.9810338],[139.0625105,35.9810012],[139.0625,35.98100092894899],[139.0625,35.98036598558353]]]},"properties":{"layer":"landslide","class_code":"1","class_label":"急傾斜地の崩落","status_code":"0","status_label":"特別警戒区域指定済み"}},{"type":"Feature","id":"lsld_ceb42e5b-cae7-4d52-92d2-ccb1be94115d","geometry":{"type":"Polygon","coordinates":[[[139.0669534,35.9769026],[139.0669554,35.9769034],[139.0668433,35.9770726],[139.0667573,35.9772649],[139.0668029,35.9774641],[139.0667823,35.9775843],[139.0666702,35.9777374],[139.0665847,35.9779231],[139.0665382,35.978104],[139.0664969,35.9782902],[139.0664555,35.9784702],[139.0663932,35.9786477],[139.0663684,35.9788975],[139.0662558,35.978981],[139.0661353,35.9790996],[139.0660437,35.9792021],[139.0659055,35.9793351],[139.0657552,35.9794601],[139.0655958,35.9795973],[139.0654421,35.9797291],[139.0652875,35.9798573],[139.0650707,35.9796743],[139.0649847,35.9796016],[139.0649856,35.979601],[139.0651348,35.9794927],[139.0652635,35.9793694],[139.0653929,35.9792281],[139.0655255,35.9790843],[139.0656299,35.9789622],[139.065679,35.9788914],[139.0657469,35.9787894],[139.0657996,35.9787145],[139.0659048,35.9785215],[139.0660154,35.9783723],[139.066085,35.9782057],[139.0661597,35.9780097],[139.0662237,35.9778339],[139.0662607,35.9776642],[139.0663403,35.9775205],[139.0664762,35.9774468],[139.0666454,35.9772648],[139.0667994,35.9770567],[139.0669425,35.9768979],[139.0669534,35.9769026]]]},"properties":{"layer":"landslide","class_code":"1","class_label":"急傾斜地の崩落","status_code":"0","status_label":"特別警戒区域指定済み"}},{"type":"Feature","id":"lsld_ec70ae4f-cd56-4ed3-95e4-52e761b97c09","geometry":{"type":"Polygon","coordinates":[[[139.0641498,35.9807062],[139.0639647,35.9807599],[139.063781,35.9808117],[139.0636077,35.9808591],[139.0634058,35.9809258],[139.0632173,35.9810013],[139.0630199,35.9810083],[139.0628089,35.9809809],[139.0626423,35.9809264],[139.0627325,35.9807921],[139.0627818,35.9807187],[139.0628781,35.9806859],[139.0630092,35.9806983],[139.0631119,35.9806824],[139.0632616,35.980643],[139.0634244,35.9805161],[139.0635962,35.980462],[139.063773,35.9803997],[139.0639625,35.9803642],[139.0641067,35.9803398],[139.0642296,35.9802696],[139.064354,35.9801848],[139.0644775,35.980058],[139.0645886,35.9798745],[139.0647855,35.9797383],[139.0649361,35.9796341],[139.0649847,35.9796016],[139.0649856,35.979601],[139.0650713,35.9796738],[139.0652875,35.9798573],[139.0652454,35.979894],[139.0650975,35.9800239],[139.0649306,35.9801476],[139.0647853,35.9802855],[139.0646388,35.9804257],[139.0644833,35.9805423],[139.0643108,35.9806603],[139.0641498,35.9807062]]]},"properties":{"layer":"landslide","class_code":"1","class_label":"急傾斜地の崩落","status_code":"0","status_label":"特別警戒区域指定済み"}},{"type":"Feature","id":"lsld_0a855af4-93ae-4a87-baed-685a0d741adb","geometry":{"type":"Polygon","coordinates":[[[139.0627696,35.9807299],[139.0627299,35.9807911],[139.062642,35.9809264],[139.0625591,35.9808669],[139.0625,35.980863238458014],[139.0625,35.9805518759434],[139.0626651,35.980562],[139.0627696,35.9807299]]]},"properties":{"layer":"landslide","class_code":"1","class_label":"急傾斜地の崩落","status_code":"0","status_label":"特別警戒区域指定済み"}},{"type":"Feature","id":"lsld_da8f2f46-f475-45ba-bc66-5598ff44aca0","geometry":{"type":"Polygon","coordinates":[[[139.075,35.975],[139.075,35.97629916242544],[139.0749857,35.9762945],[139.0749358,35.9762773],[139.0748863,35.9762594],[139.0748371,35.9762409],[139.0747884,35.9762216],[139.0747401,35.9762016],[139.0746922,35.976181],[139.0746448,35.9761597],[139.0745979,35.9761377],[139.0745514,35.976115],[139.0745054,35.9760917],[139.07446,35.9760678],[139.074415,35.9760432],[139.0743706,35.976018],[139.0743267,35.9759921],[139.0742834,35.9759656],[139.0742407,35.9759385],[139.0741985,35.9759109],[139.074157,35.9758826],[139.0741161,35.9758537],[139.0740758,35.9758243],[139.0740361,35.9757943],[139.0739971,35.9757637],[139.0739587,35.9757326],[139.0739211,35.9757009],[139.0738841,35.9756687],[139.0738478,35.975636],[139.0738122,35.9756028],[139.0737773,35.9755691],[139.0737432,35.9755349],[139.0737098,35.9755002],[139.0736771,35.9754651],[139.0736452,35.9754295],[139.0736141,35.9753934],[139.0735838,35.9753569],[139.0735542,35.97532],[139.0735255,35.9752827],[139.0734975,35.9752449],[139.0734964,35.9752434],[139.0736971,35.9751411],[139.073914,35.9750305],[139.0739737601626,35.975],[139.075,35.975]]]},"properties":{"layer":"landslide","class_code":"2","class_label":"土石流","status_code":"0","status_label":"特別警戒区域指定済み"}}]}