{"type":"FeatureCollection","properties":{"mesh_code":"54380778","source":"PLATEAU秩父市2025","layer":"landslide"},"features":[{"type":"Feature","id":"lsld_bca68d70-d7da-4224-b307-9d8ecadfbcb2","geometry":{"type":"Polygon","coordinates":[[[138.979743,36.0611083],[138.9797042,36.0611819],[138.9797039,36.0612148],[138.9793825,36.0611029],[138.9789983,36.0609713],[138.9788998,36.0610066],[138.9788434,36.0609517],[138.9788287,36.0609374],[138.9787811,36.060891],[138.9786969,36.060809],[138.9784471,36.0604631],[138.9784248,36.0604314],[138.9783619,36.0603422],[138.9783572,36.0603356],[138.978149,36.0600403],[138.9782738,36.0598245],[138.9785597,36.0597789],[138.9786129,36.0597017],[138.9787312,36.0596562],[138.9789134,36.0595862],[138.9790863,36.0595197],[138.9792688,36.0595061],[138.9793325,36.0595013],[138.9794126,36.0594953],[138.9794217,36.059575],[138.9794352,36.0596924],[138.979452,36.0598385],[138.9794527,36.0598443],[138.979461,36.059917],[138.9794641,36.059944],[138.9794963,36.0602235],[138.9796165,36.0605439],[138.979656,36.0607658],[138.9796643,36.0608126],[138.9796667,36.0608206],[138.9796927,36.0609082],[138.979743,36.0611083]]]},"properties":{"layer":"landslide","class_code":"1","class_label":"急傾斜地の崩落","status_code":"0","status_label":"特別警戒区域指定済み"}},{"type":"Feature","id":"lsld_9879584a-90f4-4bfc-b76e-3519a50b82b2","geometry":{"type":"Polygon","coordinates":[[[138.9809132,36.0595432],[138.980607,36.0595448],[138.9803713,36.0595525],[138.9801124,36.059553],[138.9799,36.0595563],[138.9796468,36.0595639],[138.979582,36.0595671],[138.9794912,36.0595716],[138.9794684,36.0595727],[138.9794372,36.0595742],[138.9794217,36.059575],[138.979342,36.0595789],[138.979333,36.0595794],[138.9789144,36.0596],[138.9789134,36.0595862],[138.9789037,36.0594543],[138.9788084,36.0592526],[138.9788057,36.0590616],[138.9787885,36.0590113],[138.9787823,36.0589929],[138.9789555,36.0589233],[138.9790826,36.0588781],[138.9791056,36.0588667],[138.9791608,36.0588599],[138.9791766,36.058858],[138.979226,36.0588519],[138.9793027,36.0588425],[138.9793085,36.0588418],[138.9793163,36.0588409],[138.9794526,36.0589062],[138.9795891,36.0589541],[138.9798084,36.0590171],[138.9799738,36.0590593],[138.9801607,36.0591104],[138.9803872,36.0591676],[138.9805598,36.0592098],[138.9807185,36.0592109],[138.9808195,36.0592087],[138.9809347,36.0592183],[138.9810232,36.0592334],[138.9810427,36.0592367],[138.9810949,36.0592492],[138.9811434,36.0592608],[138.9811906,36.0592915],[138.9811989,36.0593166],[138.9812063,36.0593481],[138.9812239,36.0594026],[138.9816626,36.0595956],[138.9815907,36.0595743],[138.9815569,36.0595687],[138.9814823,36.0595565],[138.9814792,36.059556],[138.9813602,36.0595522],[138.9812269,36.0595454],[138.9810827,36.0595414],[138.9809132,36.0595432]]]},"properties":{"layer":"landslide","class_code":"1","class_label":"急傾斜地の崩落","status_code":"0","status_label":"特別警戒区域指定済み"}},{"type":"Feature","id":"lsld_00559585-55c5-4eb4-a7e4-8d64bc89eb75","geometry":{"type":"Polygon","coordinates":[[[138.9759474,36.0614599],[138.9758692,36.0614622],[138.9758388,36.0614079],[138.9758232,36.0613802],[138.9757897,36.0613203],[138.9757313,36.0612159],[138.9756656,36.061062],[138.9756377,36.0608917],[138.9756381,36.0607629],[138.9756382,36.0607318],[138.9756383,36.0606638],[138.9756393,36.0603123],[138.9758652,36.0603451],[138.9759534,36.0603297],[138.9762198,36.0603236],[138.9765384,36.0603776],[138.9768576,36.0604741],[138.9766376,36.0607776],[138.9765891,36.0608445],[138.9765761,36.0608624],[138.9764978,36.0609705],[138.9764712,36.0610072],[138.9763558,36.0611224],[138.9763002,36.0611846],[138.9762755,36.0612121],[138.9761696,36.0613305],[138.9761668,36.0613337],[138.9761183,36.0613827],[138.9760957,36.0614056],[138.9760488,36.061453],[138.9760429,36.0614501],[138.97602,36.061439],[138.9760186,36.0614434],[138.9759403,36.0614404],[138.9759474,36.0614599]]]},"properties":{"layer":"landslide","class_code":"1","class_label":"急傾斜地の崩落","status_code":"0","status_label":"特別警戒区域指定済み"}},{"type":"Feature","id":"lsld_398468c4-104f-4a4c-a038-34e9a20dadf0","geometry":{"type":"Polygon","coordinates":[[[138.9772658,36.0610142],[138.97724,36.0610613],[138.9772679,36.0611134],[138.977309,36.0612488],[138.9773909,36.0612932],[138.9773206,36.0613535],[138.9772911,36.0613789],[138.9772902,36.0613807],[138.9773323,36.0616075],[138.9773402,36.0616495],[138.97735,36.0617024],[138.9773574,36.0617422],[138.9773166,36.0618556],[138.9772849,36.0618929],[138.9772488,36.0619354],[138.9772475,36.0619371],[138.9772327,36.0619549],[138.9772073,36.0619856],[138.9771958,36.062013],[138.976993,36.0620485],[138.9769676,36.0620586],[138.9769664,36.0620591],[138.9769303,36.0620635],[138.976858,36.0620722],[138.9762349,36.0620455],[138.9762208,36.0620291],[138.9761046,36.0619465],[138.9759935,36.0618831],[138.9759481,36.0615997],[138.9760429,36.0614501],[138.9761272,36.0613171],[138.9761536,36.0612755],[138.9764978,36.0609705],[138.976578,36.0608994],[138.9767192,36.0608198],[138.9767446,36.0608298],[138.9767886,36.060844],[138.9768207,36.0608563],[138.9768226,36.060857],[138.9768466,36.0608756],[138.9768642,36.0608964],[138.9768647,36.0608969],[138.9768733,36.060907],[138.9768945,36.060932],[138.9769285,36.060972],[138.9769481,36.0610022],[138.9771191,36.0609901],[138.9772596,36.0609801],[138.9772856,36.0609783],[138.9772658,36.0610142]]]},"properties":{"layer":"landslide","class_code":"1","class_label":"急傾斜地の崩落","status_code":"0","status_label":"特別警戒区域指定済み"}},{"type":"Feature","id":"lsld_f5e406b2-a039-4a1d-a71e-ec691b6cda06","geometry":{"type":"Polygon","coordinates":[[[138.9762898,36.0589369],[138.9759921,36.0589285],[138.9757272,36.0589119],[138.9755412,36.0588876],[138.9752688,36.0589038],[138.9750129,36.0588414],[138.975,36.05883349012346],[138.975,36.058728149874014],[138.9750283,36.058484],[138.9750297,36.0584724],[138.9750406,36.0583778],[138.9750413,36.0583724],[138.97504654904552,36.05833333333333],[138.97672687847066,36.05833333333333],[138.9768547,36.0583652],[138.9769917,36.0583619],[138.97711011535273,36.05833333333333],[138.97725522085807,36.05833333333333],[138.9773554,36.0583642],[138.9774438372071,36.05833333333333],[138.97789544173912,36.05833333333333],[138.9779146,36.0583424],[138.9777313,36.0585381],[138.9775443,36.0585935],[138.9773672,36.0585976],[138.9771441,36.0586454],[138.9768388,36.0587079],[138.976535,36.0586616],[138.9763123,36.0585823],[138.9762898,36.0589369]]]},"properties":{"layer":"landslide","class_code":"1","class_label":"急傾斜地の崩落","status_code":"0","status_label":"特別警戒区域指定済み"}},{"type":"Feature","id":"lsld_b8a3e6dd-676a-4a01-b163-fe607bf7a9f7","geometry":{"type":"Polygon","coordinates":[[[138.9796541,36.0609753],[138.9796646,36.0610126],[138.9796662,36.0610152],[138.9796701,36.0610323],[138.9796639,36.0610683],[138.9792278,36.061018],[138.9789075,36.0608403],[138.9787811,36.060891],[138.9786969,36.060809],[138.9784471,36.0604631],[138.9784248,36.0604314],[138.9783619,36.0603422],[138.9785005,36.0601211],[138.9787344,36.0601055],[138.978832,36.0600674],[138.9789038,36.0599575],[138.9791838,36.0598582],[138.9794017,36.0598422],[138.979452,36.0598385],[138.9794527,36.0598443],[138.979461,36.059917],[138.9794641,36.059944],[138.9794963,36.0602235],[138.9796165,36.0605439],[138.979656,36.0607658],[138.9796541,36.0609753]]]},"properties":{"layer":"landslide","class_code":"1","class_label":"急傾斜地の崩落","status_code":"0","status_label":"特別警戒区域指定済み"}},{"type":"Feature","id":"lsld_4027ecac-665c-41d8-95d1-0b3532c56552","geometry":{"type":"Polygon","coordinates":[[[138.9809132,36.0595432],[138.980607,36.0595448],[138.9803713,36.0595525],[138.9801124,36.059553],[138.9799,36.0595563],[138.9796468,36.0595639],[138.979582,36.0595671],[138.9794912,36.0595716],[138.9794684,36.0595727],[138.9794372,36.0595742],[138.9794217,36.059575],[138.979342,36.0595789],[138.9793325,36.0595013],[138.9793169,36.0593728],[138.9792608,36.059258],[138.979227,36.0591886],[138.9792282,36.0590188],[138.9791766,36.058858],[138.979226,36.0588519],[138.9793027,36.0588425],[138.9793085,36.0588418],[138.9793163,36.0588409],[138.9794526,36.0589062],[138.9795891,36.0589541],[138.9798084,36.0590171],[138.9799738,36.0590593],[138.9801607,36.0591104],[138.9803872,36.0591676],[138.9805598,36.0592098],[138.9807185,36.0592109],[138.9808195,36.0592087],[138.9809347,36.0592183],[138.9810232,36.0592334],[138.981041,36.0592453],[138.9810349,36.0593005],[138.9810468,36.059377],[138.9814823,36.0595565],[138.9814792,36.059556],[138.9813602,36.0595522],[138.9812269,36.0595454],[138.9810827,36.0595414],[138.9809132,36.0595432]]]},"properties":{"layer":"landslide","class_code":"1","class_label":"急傾斜地の崩落","status_code":"0","status_label":"特別警戒区域指定済み"}},{"type":"Feature","id":"lsld_05673df1-b2ce-4f3b-bcf5-b26e5cff197e","geometry":{"type":"Polygon","coordinates":[[[138.9761696,36.0613305],[138.976133,36.0613189],[138.9761272,36.0613171],[138.9760648,36.0612987],[138.9759876,36.0612987],[138.9758861,36.0613192],[138.9757897,36.0613203],[138.9757313,36.0612159],[138.9756656,36.061062],[138.9756377,36.0608917],[138.9756381,36.0607629],[138.9756382,36.0607318],[138.9756383,36.0606638],[138.975855,36.0606922],[138.9759922,36.0606756],[138.9761825,36.0606696],[138.9764237,36.0607133],[138.9766376,36.0607776],[138.9765891,36.0608445],[138.9765761,36.0608624],[138.9764978,36.0609705],[138.9764712,36.0610072],[138.9763558,36.0611224],[138.9763002,36.0611846],[138.9762755,36.0612121],[138.9761696,36.0613305]]]},"properties":{"layer":"landslide","class_code":"1","class_label":"急傾斜地の崩落","status_code":"0","status_label":"特別警戒区域指定済み"}},{"type":"Feature","id":"lsld_3ff0298c-224d-460a-bfdd-8b0154ef86eb","geometry":{"type":"Polygon","coordinates":[[[138.9770025,36.0620316],[138.9763904,36.0619987],[138.9763499,36.0619498],[138.9762102,36.0618448],[138.9760914,36.0617704],[138.976081,36.0615155],[138.9762755,36.0612121],[138.976288,36.0611928],[138.9763002,36.0611846],[138.9767292,36.0608978],[138.9768642,36.0608964],[138.9768647,36.0608969],[138.9768733,36.060907],[138.9768945,36.060932],[138.9768541,36.0609796],[138.9768623,36.0610083],[138.9768393,36.0611721],[138.976907,36.0612923],[138.9769297,36.0614206],[138.9770208,36.0615049],[138.9770998,36.0615432],[138.977159,36.0616489],[138.9772241,36.0616287],[138.9773323,36.0616075],[138.9773402,36.0616495],[138.97735,36.0617024],[138.9773574,36.0617422],[138.9773166,36.0618556],[138.9772849,36.0618929],[138.977247,36.0618891],[138.9770025,36.0620316]]]},"properties":{"layer":"landslide","class_code":"1","class_label":"急傾斜地の崩落","status_code":"0","status_label":"特別警戒区域指定済み"}},{"type":"Feature","id":"lsld_845c7522-1577-43de-b476-9677b33301e9","geometry":{"type":"Polygon","coordinates":[[[138.9778068320291,36.05833333333333],[138.9776595,36.0584408],[138.9774782,36.0585125],[138.9773126,36.0584955],[138.9770908,36.0585347],[138.9768404,36.0585788],[138.9765777,36.0585479],[138.9763535,36.0584745],[138.976259,36.058585],[138.9760192,36.0585734],[138.9757753,36.0585489],[138.9755475,36.0585362],[138.9753185,36.0585615],[138.9751451,36.0585149],[138.9750283,36.058484],[138.9750297,36.0584724],[138.9750406,36.0583778],[138.9750413,36.0583724],[138.97504654904552,36.05833333333333],[138.9763130167334,36.05833333333333],[138.9764007,36.0583619],[138.9766167,36.0584449],[138.9768418,36.058489],[138.977058,36.0584699],[138.9772726,36.0584207],[138.9774392,36.0584647],[138.9776246,36.0583964],[138.9777472507363,36.05833333333333],[138.9778068320291,36.05833333333333]]]},"properties":{"layer":"landslide","class_code":"1","class_label":"急傾斜地の崩落","status_code":"0","status_label":"特別警戒区域指定済み"}},{"type":"Feature","id":"lsld_657a1294-7d11-4254-bc5c-a9706a2507c7","geometry":{"type":"Polygon","coordinates":[[[138.9777971,36.0598426],[138.977759,36.059969],[138.9777074,36.0601526],[138.9777261,36.0603743],[138.9776116,36.0605811],[138.9774992,36.060743],[138.9773481,36.0608623],[138.9772596,36.0609801],[138.9772505,36.0609922],[138.9772658,36.0610142],[138.9773296,36.0611058],[138.9774326,36.0612594],[138.9775485,36.061412],[138.9776972,36.0615238],[138.9778366,36.0617167],[138.977807,36.0619146],[138.9776451,36.0620986],[138.9775768,36.0622149],[138.9775568,36.0623261],[138.9776533,36.0624968],[138.9776983,36.0627477],[138.9777316,36.0629654],[138.9777017,36.0631451],[138.9777006,36.0633329],[138.9777657,36.0633778],[138.9778553,36.063649],[138.9779456,36.0638263],[138.9779034,36.0639671],[138.9778099,36.0641723],[138.9778032,36.0643517],[138.9777736,36.0643552],[138.9777311,36.0643602],[138.9776837,36.0643658],[138.9776536,36.0643694],[138.9775963,36.0641904],[138.9775261,36.0640256],[138.9773797,36.0638223],[138.9773445,36.0636361],[138.9773702,36.0635842],[138.977437,36.0632984],[138.97748,36.063125],[138.9774497,36.062942],[138.9773878,36.0628214],[138.9773311,36.0627236],[138.9772849,36.0625189],[138.9773085,36.0622948],[138.9773779,36.0621108],[138.9775352,36.0618811],[138.9775359,36.0617646],[138.9775027,36.0616854],[138.9773589,36.061503],[138.9773206,36.0613535],[138.9773107,36.0613148],[138.9771862,36.0611659],[138.9771191,36.0609901],[138.9771069,36.0609582],[138.9771051,36.0607187],[138.9772718,36.0605754],[138.9774406,36.0604599],[138.9774624,36.060408],[138.977443,36.0603393],[138.9774156,36.0603001],[138.9773542,36.0601188],[138.9771943,36.0598738],[138.9771078,36.0595978],[138.9770479,36.0593648],[138.9772276,36.0593781],[138.9774753,36.0593903],[138.9775898,36.059327],[138.9776688,36.0593171],[138.9777369,36.0592967],[138.9778381,36.0592736],[138.9778664,36.0592695],[138.9779263,36.0592608],[138.9780441,36.0592304],[138.9780021,36.0593346],[138.9777971,36.0598426]]]},"properties":{"layer":"landslide","class_code":"2","class_label":"土石流","status_code":"0","status_label":"特別警戒区域指定済み"}},{"type":"Feature","id":"lsld_558b88d3-6ae6-48a9-ac71-59b5ec594833","geometry":{"type":"Polygon","coordinates":[[[138.9794723,36.05924],[138.9794901,36.0594476],[138.979582,36.0595671],[138.9795969,36.0595865],[138.9797397,36.0596909],[138.9796943,36.0597428],[138.97967,36.0597705],[138.9796313,36.0598148],[138.9796002,36.0598502],[138.9794527,36.0598443],[138.9794017,36.0598422],[138.9792406,36.0598357],[138.9789442,36.0597502],[138.9787312,36.0596562],[138.9780021,36.0593346],[138.9778592,36.0592715],[138.9778664,36.0592695],[138.9783158,36.0591437],[138.9783302,36.0591676],[138.9783816,36.059162],[138.9786949,36.059045],[138.9787885,36.0590113],[138.9789787,36.0589427],[138.9791608,36.0588599],[138.9792885,36.0588019],[138.9793085,36.0588418],[138.9794148,36.0590541],[138.9794723,36.05924]]]},"properties":{"layer":"landslide","class_code":"2","class_label":"土石流","status_code":"0","status_label":"特別警戒区域指定済み"}},{"type":"Feature","id":"lsld_1faa8fad-3dd2-461a-8cae-dedaf76c8f18","geometry":{"type":"Polygon","coordinates":[[[138.9777311,36.0643602],[138.9776837,36.0643658],[138.977646,36.0641862],[138.9775829,36.0640168],[138.9774873,36.063823],[138.9774891,36.0637389],[138.9777392,36.0637452],[138.9777437,36.0638249],[138.9778355,36.0639777],[138.9777538,36.0641771],[138.9777736,36.0643552],[138.9777311,36.0643602]]]},"properties":{"layer":"landslide","class_code":"2","class_label":"土石流","status_code":"0","status_label":"特別警戒区域指定済み"}},{"type":"Feature","id":"lsld_cc6d3c0f-ec3e-4ac5-bf5c-33c0a7f2ba8e","geometry":{"type":"Polygon","coordinates":[[[138.9792845,36.0592559],[138.9793341,36.0593157],[138.9794237,36.059484],[138.9794912,36.0595716],[138.9795366,36.0596305],[138.9796943,36.0597428],[138.97967,36.0597705],[138.9796313,36.0598148],[138.9794417,36.0596996],[138.9794352,36.0596924],[138.979333,36.0595794],[138.9793053,36.0595488],[138.9792688,36.0595061],[138.9791786,36.0594008],[138.9790924,36.059361],[138.979077,36.0593586],[138.9792608,36.059258],[138.9792783,36.0592484],[138.9792845,36.0592559]]]},"properties":{"layer":"landslide","class_code":"2","class_label":"土石流","status_code":"0","status_label":"特別警戒区域指定済み"}}]}