{"type":"FeatureCollection","properties":{"mesh_code":"54380788","source":"PLATEAU秩父市2025","layer":"landslide"},"features":[{"type":"Feature","id":"lsld_0a2cfae3-03d6-46ac-aa8c-86321ceefb1b","geometry":{"type":"Polygon","coordinates":[[[138.9875,36.07230956533576],[138.9873679,36.0723146],[138.9872678,36.0723223],[138.9872117,36.0723266],[138.9872044,36.0723271],[138.9871826,36.0723288],[138.987178,36.0723292],[138.9870306,36.0723404],[138.9868584,36.0723536],[138.9868474,36.0723544],[138.9866518,36.0723694],[138.9866339,36.0723326],[138.9866045,36.0722724],[138.9865892,36.0722409],[138.986586,36.0722344],[138.9867327,36.0721574],[138.9867376,36.0721524],[138.986766,36.0721227],[138.9867898,36.0720787],[138.9868005,36.072059],[138.9868358,36.0719936],[138.9869098,36.0717024],[138.9869125,36.0716918],[138.9868929,36.0716845],[138.9868847,36.0716814],[138.9868826,36.0716735],[138.9868726,36.071636],[138.9868729,36.0716036],[138.9868731,36.0715867],[138.9869234,36.0714319],[138.9869352,36.0713956],[138.9869464,36.0713609],[138.9869928,36.0712872],[138.9870223,36.0711352],[138.9870562,36.071045],[138.9870603,36.0710392],[138.9872144,36.0710819],[138.9871792,36.0709132],[138.9871946,36.0708979],[138.9874274,36.0706856],[138.9874329,36.0706466],[138.9873479,36.070531],[138.9873696,36.0705088],[138.9874787,36.0704175],[138.9874987,36.0704205],[138.9875,36.07042068929336],[138.9875,36.07230956533576]]]},"properties":{"layer":"landslide","class_code":"1","class_label":"急傾斜地の崩落","status_code":"0","status_label":"特別警戒区域指定済み"}},{"type":"Feature","id":"lsld_3371568b-c48b-44c3-aba7-a89e3d6c044f","geometry":{"type":"Polygon","coordinates":[[[138.986154,36.0738864],[138.9862036,36.0739133],[138.9862523,36.0739397],[138.98629,36.0739602],[138.9863354,36.0739849],[138.9863426,36.0740365],[138.9863449,36.0740529],[138.9863578,36.0741462],[138.9863714,36.0742446],[138.9863859,36.0743495],[138.9863985,36.0745532],[138.9864177,36.0746273],[138.9864338,36.0746892],[138.9864374,36.0747032],[138.9864772,36.0747719],[138.9864406,36.0747727],[138.9864139,36.0747873],[138.9863667,36.0748311],[138.9863664,36.0748314],[138.98646895818263,36.075],[138.9849456449564,36.075],[138.9849539,36.0748619],[138.9849547,36.0748601],[138.9850492,36.0746801],[138.9851275,36.0745155],[138.9852399,36.0742727],[138.9852397,36.0742724],[138.9852415,36.0742274],[138.9852411,36.0742271],[138.9854121,36.0740394],[138.9854123,36.0740389],[138.9857008,36.0739785],[138.9859461,36.0738767],[138.9860232,36.0738597],[138.9861278,36.0738367],[138.986154,36.0738864]]]},"properties":{"layer":"landslide","class_code":"1","class_label":"急傾斜地の崩落","status_code":"0","status_label":"特別警戒区域指定済み"}},{"type":"Feature","id":"lsld_b4af0377-f5eb-4377-82d1-866a1dc37281","geometry":{"type":"Polygon","coordinates":[[[138.9868738,36.0731285],[138.9870107,36.0732302],[138.9870215,36.0732382],[138.987048,36.0732579],[138.987118,36.0733099],[138.9871864,36.0733607],[138.9872588,36.0734191],[138.9873247,36.0734722],[138.9874035,36.0735357],[138.9872359,36.0736372],[138.9871789,36.0737825],[138.987178,36.073783],[138.9871444,36.0737882],[138.9870829,36.0737878],[138.9870685,36.0737877],[138.9870342,36.0737814],[138.986971,36.0737698],[138.9868686,36.0737511],[138.9867909,36.0737226],[138.9866888,36.0736851],[138.9866402,36.0736673],[138.9866201,36.0736599],[138.9864033,36.0735804],[138.9863923,36.0735763],[138.9865527,36.073386],[138.9865532,36.0733854],[138.9867358,36.0732902],[138.9868643,36.0731215],[138.9868738,36.0731285]]]},"properties":{"layer":"landslide","class_code":"1","class_label":"急傾斜地の崩落","status_code":"0","status_label":"特別警戒区域指定済み"}},{"type":"Feature","id":"lsld_4468868e-5bfa-41e4-94b1-fe6635af2549","geometry":{"type":"Polygon","coordinates":[[[138.9862153,36.0737091],[138.9861716,36.073724],[138.9861559,36.0737286],[138.9860809,36.0737505],[138.9860503,36.0737589],[138.9859737,36.0737799],[138.9859579,36.0737843],[138.9859238,36.0737936],[138.985877,36.0737762],[138.9858667,36.0737483],[138.9858666,36.0737478],[138.9858652,36.0737474],[138.9858344,36.0737384],[138.9858384,36.0737329],[138.985839,36.0737321],[138.9858675,36.0736932],[138.9858712,36.0736881],[138.9859502,36.0735739],[138.9859982,36.0735046],[138.9860254,36.0734653],[138.9860076,36.0734146],[138.9860796,36.0733845],[138.9860802,36.0733843],[138.9861302,36.0732686],[138.9860534,36.0732662],[138.9859647,36.0732635],[138.9859197,36.0730486],[138.9858954,36.0729322],[138.9858952,36.0729319],[138.9858952,36.0729313],[138.9858956,36.0729314],[138.9861396,36.0726749],[138.9862084,36.0725728],[138.9862521,36.0725079],[138.986464,36.0723994],[138.9864895,36.0723863],[138.9865333,36.07237],[138.9866339,36.0723326],[138.9866766,36.0723167],[138.9867862,36.0723305],[138.9868385,36.0723371],[138.9868447,36.0723492],[138.9868474,36.0723544],[138.9869671,36.0725883],[138.9869801,36.0726135],[138.9869809,36.0726152],[138.9870086,36.0726693],[138.9870275,36.0727061],[138.9870369,36.0727243],[138.9870385,36.0727275],[138.9871042,36.0728548],[138.9871362,36.0729168],[138.9871791,36.0729999],[138.9871149,36.0731155],[138.9870722,36.0731373],[138.9870093,36.0731775],[138.9870232,36.0732142],[138.9870107,36.0732302],[138.9869797,36.0732704],[138.9869792,36.0732716],[138.9870117,36.0733014],[138.9870484,36.0733351],[138.9868863,36.0734505],[138.9866719,36.0736031],[138.9866719,36.0736034],[138.9866201,36.0736599],[138.9866098,36.0736711],[138.9864195,36.0736779],[138.9864188,36.0736784],[138.9863956,36.0736983],[138.9863376,36.0737042],[138.9863165,36.0737024],[138.9863239,36.0737074],[138.9863234,36.0737074],[138.9862394,36.0737009],[138.9862153,36.0737091]]]},"properties":{"layer":"landslide","class_code":"1","class_label":"急傾斜地の崩落","status_code":"0","status_label":"特別警戒区域指定済み"}},{"type":"Feature","id":"lsld_38624be9-2211-41bb-b9ca-7a2748815213","geometry":{"type":"Polygon","coordinates":[[[138.9860235,36.0737303],[138.9859983,36.0737426],[138.9859757,36.0737537],[138.985974,36.0737545],[138.9859583,36.0737622],[138.9859507,36.073766],[138.9859295,36.0737764],[138.9859143,36.0737838],[138.9858883,36.0737656],[138.9858824,36.0737615],[138.9858795,36.0737595],[138.9858771,36.0737539],[138.9858757,36.0737507],[138.985839,36.0737321],[138.9858125,36.0737188],[138.9858054,36.0737152],[138.9857848,36.0737153],[138.985784,36.0737149],[138.9857043,36.0736809],[138.9857028,36.0736803],[138.9857006,36.0736793],[138.9856019,36.0736372],[138.9855509,36.0736272],[138.985533,36.073628],[138.9854604,36.0735445],[138.9853932,36.0734673],[138.985444,36.073386],[138.9854892,36.0733717],[138.9855276,36.0733707],[138.9855682,36.0733697],[138.9856754,36.0733269],[138.9857839,36.0732342],[138.9858321,36.0731685],[138.9858449,36.073125],[138.985874,36.0729819],[138.9858834,36.0729359],[138.9858859,36.0729237],[138.9858952,36.0729319],[138.9858954,36.0729322],[138.9859498,36.072981],[138.985951,36.0729821],[138.985997,36.0730234],[138.9860315,36.0730543],[138.9860635,36.073083],[138.9860937,36.073111],[138.9861669,36.0731788],[138.9862034,36.0733314],[138.9862028,36.0733319],[138.9861129,36.0734337],[138.9859982,36.0735046],[138.9859511,36.0735338],[138.9859322,36.0735585],[138.9859502,36.0735739],[138.9860457,36.0736554],[138.9860934,36.0736961],[138.9860235,36.0737303]]]},"properties":{"layer":"landslide","class_code":"1","class_label":"急傾斜地の崩落","status_code":"0","status_label":"特別警戒区域指定済み"}},{"type":"Feature","id":"lsld_ab72494c-d027-4eb2-8904-2541162d7304","geometry":{"type":"Polygon","coordinates":[[[138.9875,36.06995114579208],[138.9874925,36.0699476],[138.9874256,36.069916],[138.9874059,36.0699101],[138.9873437,36.0698916],[138.9872395,36.0698606],[138.9872546,36.0698216],[138.9871956,36.0698161],[138.9872256,36.0698073],[138.9872938,36.0697749],[138.9873607,36.0697431],[138.9874096,36.0697198],[138.9874762,36.0696881],[138.9875,36.06967678721047],[138.9875,36.06995114579208]]]},"properties":{"layer":"landslide","class_code":"1","class_label":"急傾斜地の崩落","status_code":"0","status_label":"特別警戒区域指定済み"}},{"type":"Feature","id":"lsld_fcbc2fc0-8443-4f46-856e-e78e1b7389f2","geometry":{"type":"Polygon","coordinates":[[[138.9875,36.07055457010583],[138.9875,36.07095094164223],[138.9874404,36.0710933],[138.9875,36.071137395945954],[138.9875,36.07224575620154],[138.9874925,36.0722572],[138.9871549,36.0722118],[138.9871513,36.0722116],[138.9871119,36.0722093],[138.9870019,36.0722031],[138.9869856,36.0722022],[138.9869859,36.0721916],[138.9869892,36.072026],[138.986991,36.0718435],[138.986995,36.0716948],[138.9870039,36.0716868],[138.9870398,36.0716547],[138.9870402,36.0716545],[138.9870901,36.0716046],[138.9870903,36.0716042],[138.9871377,36.0714967],[138.9872103,36.0713349],[138.9873094,36.0711368],[138.9873096,36.0711366],[138.9873365,36.0710881],[138.9873161,36.07086],[138.9874203,36.0707],[138.9874998,36.0705545],[138.9875,36.07055457010583]]]},"properties":{"layer":"landslide","class_code":"1","class_label":"急傾斜地の崩落","status_code":"0","status_label":"特別警戒区域指定済み"}},{"type":"Feature","id":"lsld_2299569b-e8b2-46fc-ade9-d36f65e57693","geometry":{"type":"Polygon","coordinates":[[[138.9863859,36.0743495],[138.9863985,36.0745532],[138.9864177,36.0746273],[138.9863383,36.0746414],[138.9862818,36.0746699],[138.9862542,36.0747013],[138.9862539,36.0747016],[138.9863798,36.0749317],[138.9863792,36.0749317],[138.9863659,36.074939],[138.9863656,36.0749393],[138.98631818971486,36.075],[138.98535894583333,36.075],[138.985359,36.0749922],[138.9853594,36.0749911],[138.9854463,36.0748256],[138.9855157,36.0746735],[138.9856275,36.0744422],[138.9856275,36.0744418],[138.9856169,36.0744127],[138.9856165,36.074412],[138.9857393,36.0742736],[138.9857394,36.0742731],[138.9859291,36.0742825],[138.9861182,36.0742014],[138.9863578,36.0741462],[138.9863714,36.0742446],[138.9863859,36.0743495]]]},"properties":{"layer":"landslide","class_code":"1","class_label":"急傾斜地の崩落","status_code":"0","status_label":"特別警戒区域指定済み"}},{"type":"Feature","id":"lsld_3fbfb4f9-17a8-4186-ab81-b316b6a7e0da","geometry":{"type":"Polygon","coordinates":[[[138.987118,36.0733099],[138.9871864,36.0733607],[138.9872588,36.0734191],[138.987104,36.0735389],[138.9870403,36.0736946],[138.9870396,36.0736951],[138.986971,36.0737698],[138.9868686,36.0737511],[138.9867909,36.0737226],[138.9866888,36.0736851],[138.9868047,36.073546],[138.9868052,36.0735453],[138.9868863,36.0734505],[138.9869207,36.0734103],[138.9870117,36.0733014],[138.987048,36.0732579],[138.987118,36.0733099]]]},"properties":{"layer":"landslide","class_code":"1","class_label":"急傾斜地の崩落","status_code":"0","status_label":"特別警戒区域指定済み"}},{"type":"Feature","id":"lsld_8d386a86-c12a-40ec-b0c5-3c8cd1623f54","geometry":{"type":"Polygon","coordinates":[[[138.9861484,36.073687],[138.9861559,36.0737286],[138.9860809,36.0737505],[138.9860503,36.0737589],[138.9859737,36.0737799],[138.9859579,36.0737843],[138.985974,36.0737545],[138.9859748,36.0737532],[138.9860105,36.0736873],[138.9860457,36.0736554],[138.986143,36.0735675],[138.9861331,36.0735337],[138.9862162,36.0735122],[138.9862168,36.073512],[138.9863274,36.0734053],[138.9863616,36.0733486],[138.986362,36.0733483],[138.9864015,36.073277],[138.9862905,36.0730681],[138.986291,36.0730678],[138.9864636,36.0729023],[138.9865401,36.0727659],[138.9867069,36.0726872],[138.9868481,36.0726382],[138.9868724,36.072628],[138.9868859,36.0726224],[138.9869152,36.0726101],[138.9869671,36.0725883],[138.9869801,36.0726135],[138.9869809,36.0726152],[138.9870086,36.0726693],[138.9870275,36.0727061],[138.9870369,36.0727243],[138.9870385,36.0727275],[138.9871042,36.0728548],[138.9870337,36.0729861],[138.9869613,36.0730259],[138.9868852,36.0730751],[138.9868738,36.0731285],[138.9868699,36.0731471],[138.9868697,36.0731475],[138.9868079,36.0732227],[138.9868075,36.0732231],[138.9868662,36.0732961],[138.9865393,36.0734934],[138.9865392,36.0734938],[138.9864948,36.0735665],[138.9864033,36.0735804],[138.9863081,36.0735948],[138.9863076,36.0735951],[138.9862519,36.0736358],[138.9862197,36.0736293],[138.9861484,36.073687]]]},"properties":{"layer":"landslide","class_code":"1","class_label":"急傾斜地の崩落","status_code":"0","status_label":"特別警戒区域指定済み"}},{"type":"Feature","id":"lsld_aa5a8597-e2cb-4d2c-8ad6-282c279a828b","geometry":{"type":"Polygon","coordinates":[[[138.9859748,36.0737532],[138.9859757,36.0737537],[138.985974,36.0737545],[138.9859583,36.0737622],[138.9859507,36.073766],[138.9859295,36.0737764],[138.9858883,36.0737656],[138.9858841,36.0737645],[138.9858824,36.0737615],[138.9858786,36.0737548],[138.9858771,36.0737539],[138.9858667,36.0737483],[138.9858652,36.0737474],[138.9858384,36.0737329],[138.9858125,36.0737188],[138.9858044,36.0737144],[138.985784,36.0737149],[138.9857818,36.073715],[138.9857046,36.0736812],[138.9857043,36.0736809],[138.9855688,36.0735103],[138.9856656,36.0733775],[138.9858278,36.0732359],[138.9858896,36.0731129],[138.9858898,36.0731124],[138.9859197,36.0730486],[138.985951,36.0729821],[138.985997,36.0730234],[138.9860315,36.0730543],[138.9860725,36.0732418],[138.9860722,36.073242],[138.9860534,36.0732662],[138.9859896,36.0733482],[138.9858131,36.0734582],[138.9857472,36.0735539],[138.9858133,36.0736628],[138.9858675,36.0736932],[138.9859748,36.0737532]]]},"properties":{"layer":"landslide","class_code":"1","class_label":"急傾斜地の崩落","status_code":"0","status_label":"特別警戒区域指定済み"}},{"type":"Feature","id":"lsld_f21bdebb-a89b-4249-b3e9-0f0bdf98fdff","geometry":{"type":"Polygon","coordinates":[[[138.9874762,36.0696881],[138.9875,36.06971815816734],[138.9875,36.06995114579208],[138.9874925,36.0699476],[138.9874256,36.069916],[138.9874059,36.0699101],[138.9874361,36.0698178],[138.9873607,36.0697431],[138.9874096,36.0697198],[138.9874762,36.0696881]]]},"properties":{"layer":"landslide","class_code":"1","class_label":"急傾斜地の崩落","status_code":"0","status_label":"特別警戒区域指定済み"}},{"type":"Feature","id":"lsld_d30ca2ab-6b3c-4bc3-8141-c846d05603c1","geometry":{"type":"Polygon","coordinates":[[[138.9869352,36.0713956],[138.9869405,36.0714502],[138.9869781,36.0715905],[138.9870039,36.0716868],[138.9870326,36.0717939],[138.9870872,36.0719973],[138.9871417,36.0722006],[138.9871513,36.0722116],[138.9872196,36.0722893],[138.9872678,36.0723223],[138.9872881,36.0723362],[138.9874282,36.0724764],[138.9875,36.07250016359338],[138.9875,36.0726421944428],[138.9872249,36.0726265],[138.9869801,36.0726135],[138.9869152,36.0726101],[138.986865,36.0726075],[138.9868326,36.0726057],[138.9862084,36.0725728],[138.986029,36.0725633],[138.9860563,36.0725387],[138.9860976,36.0724867],[138.9861523,36.0724376],[138.9862551,36.072384],[138.9863579,36.0723399],[138.9864413,36.0723042],[138.9865537,36.0722561],[138.9865892,36.0722409],[138.9866192,36.0722281],[138.9867315,36.072161],[138.9867376,36.0721524],[138.9867898,36.0720787],[138.9868027,36.0720605],[138.9868353,36.0720145],[138.986884,36.0718074],[138.986913,36.0717057],[138.9869098,36.0717024],[138.9868929,36.0716845],[138.9868826,36.0716735],[138.9868808,36.0716715],[138.9868674,36.0716224],[138.9868729,36.0716036],[138.9869234,36.0714319],[138.9869349,36.0713927],[138.9869352,36.0713956]]]},"properties":{"layer":"landslide","class_code":"2","class_label":"土石流","status_code":"0","status_label":"特別警戒区域指定済み"}},{"type":"Feature","id":"lsld_ae561df2-47ff-4bc2-bf98-475d2ad56383","geometry":{"type":"Polygon","coordinates":[[[138.9872117,36.0723266],[138.9872569,36.0723592],[138.9873993,36.0724977],[138.9875,36.07252960861798],[138.9875,36.07257916666667],[138.9873462,36.0725369],[138.9873124,36.0724988],[138.9872158,36.0723895],[138.987152,36.0723514],[138.9871801,36.0723306],[138.9871826,36.0723288],[138.9871985,36.0723171],[138.9872117,36.0723266]]]},"properties":{"layer":"landslide","class_code":"2","class_label":"土石流","status_code":"0","status_label":"特別警戒区域指定済み"}},{"type":"Feature","id":"lsld_bca0a457-54a8-434f-8f30-95cc66e4dd9b","geometry":{"type":"Polygon","coordinates":[[[138.9875,36.07255877405405],[138.9873124,36.0724988],[138.9868584,36.0723536],[138.9868447,36.0723492],[138.9867862,36.0723305],[138.9866045,36.0722724],[138.9865537,36.0722561],[138.9863577,36.0721935],[138.9862761,36.0721674],[138.9862943,36.0721384],[138.9863137,36.0720806],[138.9863217,36.0720411],[138.9863487,36.0719681],[138.9863756,36.0719104],[138.9863838,36.0718464],[138.9863883,36.0717794],[138.9864003,36.0717094],[138.9864158,36.0716668],[138.9864695,36.0715575],[138.9864738,36.0715118],[138.9864977,36.0713839],[138.9865178,36.071253],[138.9865298,36.0711861],[138.9865308,36.0711843],[138.9865643,36.0711253],[138.986595,36.0710615],[138.9866296,36.0709856],[138.9866605,36.0708914],[138.9866643,36.0708939],[138.9866949,36.0708423],[138.9867331,36.0707847],[138.9867561,36.0707391],[138.9867791,36.0706936],[138.9867909,36.0706418],[138.986799,36.0705901],[138.9868144,36.0705506],[138.9868563,36.0704991],[138.986887,36.0704383],[138.9869064,36.0703775],[138.9869145,36.0703257],[138.9869413,36.070271],[138.9869529,36.0702437],[138.9870023,36.0701861],[138.9870516,36.0701408],[138.9871308,36.0701108],[138.987186,36.0700836],[138.9875,36.07018399053891],[138.9875,36.07255877405405]]]},"properties":{"layer":"landslide","class_code":"3","class_label":"地すべり","status_code":"0","status_label":"特別警戒区域指定済み"}},{"type":"Feature","id":"lsld_223bb846-dd30-43df-b29c-313d62a4c81d","geometry":{"type":"Polygon","coordinates":[[[138.9863579,36.0723399],[138.986464,36.0723994],[138.9868326,36.0726057],[138.9868724,36.072628],[138.9869675,36.0726813],[138.9870385,36.0727275],[138.9870991,36.0727669],[138.9871138,36.0727765],[138.9871307,36.0727893],[138.9872317,36.0728661],[138.9872995,36.0729517],[138.9873675,36.0730197],[138.987443,36.0730584],[138.9874868,36.0730615],[138.9875,36.07306240810811],[138.9875,36.07430367186061],[138.9873789,36.0743145],[138.9871619,36.0743188],[138.9869521,36.0743291],[138.9868475,36.0743019],[138.9867501,36.074257],[138.9865818,36.0741693],[138.9864447,36.0740946],[138.9863426,36.0740365],[138.9862952,36.0740096],[138.9861114,36.0739091],[138.9860232,36.0738597],[138.9857046,36.0736812],[138.9857028,36.0736803],[138.9854604,36.0735445],[138.9850545,36.0733172],[138.9850794,36.0732567],[138.9850979,36.0732187],[138.9851418,36.073175],[138.9852002,36.0731196],[138.9852406,36.073067],[138.9853247,36.0729737],[138.9853941,36.0728677],[138.9854437,36.0727998],[138.9854903,36.0727517],[138.9855369,36.0727058],[138.9855753,36.0726665],[138.985663,36.0725834],[138.9857259,36.0725354],[138.9857644,36.0724828],[138.9857948,36.0724302],[138.985817,36.0723885],[138.9858746,36.0723273],[138.9859238,36.0722946],[138.9859811,36.0722576],[138.9860737,36.0722208],[138.9861203,36.0722068],[138.9863579,36.0723399]]]},"properties":{"layer":"landslide","class_code":"3","class_label":"地すべり","status_code":"0","status_label":"特別警戒区域指定済み"}},{"type":"Feature","id":"lsld_d6dc8973-aa44-42da-9fbb-88c78ebe6ca0","geometry":{"type":"Polygon","coordinates":[[[138.9868005,36.072059],[138.9868027,36.0720605],[138.9869859,36.0721916],[138.9870019,36.0722031],[138.987178,36.0723292],[138.9871801,36.0723306],[138.9871872,36.0723357],[138.9872091,36.0723566],[138.9872817,36.0724208],[138.98739,36.0724963],[138.9874611,36.072541],[138.9875,36.07255482609777],[138.9875,36.07306379746836],[138.9874868,36.0730615],[138.9874454,36.0730542],[138.987377,36.0730214],[138.9873377,36.07298],[138.9873,36.0729427],[138.9872421,36.0728719],[138.9872023,36.0728353],[138.9871307,36.0727893],[138.9871261,36.0727864],[138.9870991,36.0727669],[138.9870601,36.0727388],[138.9870369,36.0727243],[138.9869704,36.0726829],[138.9868859,36.0726224],[138.986865,36.0726075],[138.9865333,36.07237],[138.9864413,36.0723042],[138.9863166,36.0722149],[138.9863577,36.0721935],[138.9863858,36.0721789],[138.9864604,36.0721166],[138.986491,36.0720841],[138.9865285,36.072038],[138.986563,36.0719482],[138.9865665,36.0718915],[138.9868005,36.072059]]]},"properties":{"layer":"landslide","class_code":"3","class_label":"地すべり","status_code":"0","status_label":"特別警戒区域指定済み"}},{"type":"Feature","id":"lsld_8488d6bd-ba7b-49e9-9523-9a98dde912a0","geometry":{"type":"Polygon","coordinates":[[[138.9842824,36.0748029],[138.9844581,36.0748566],[138.9845986,36.0749005],[138.98488054385246,36.075],[138.9841582379511,36.075],[138.9841576,36.0749726],[138.9841379,36.074889],[138.9840979,36.0747838],[138.9841144,36.0747575],[138.9842824,36.0748029]]]},"properties":{"layer":"landslide","class_code":"3","class_label":"地すべり","status_code":"0","status_label":"特別警戒区域指定済み"}}]}