{"type":"FeatureCollection","properties":{"mesh_code":"54380759","source":"PLATEAU秩父市2025","layer":"landslide"},"features":[{"type":"Feature","id":"lsld_69edda1b-3f70-4217-be78-fd0165a8741b","geometry":{"type":"Polygon","coordinates":[[[138.9979648,36.046716],[138.9977697,36.0467129],[138.9977682,36.0467128],[138.9977069,36.0467104],[138.997707,36.0466951],[138.9977072,36.0466203],[138.9977074,36.0465625],[138.9977079,36.046419],[138.997728,36.046132],[138.9977072,36.0459981],[138.9976987,36.0459563],[138.9976916,36.0459218],[138.9976913,36.04592],[138.997676,36.0458454],[138.9976728,36.0458296],[138.9976706,36.0458186],[138.9976699,36.0458155],[138.9977423,36.0457792],[138.9978027,36.045737],[138.9978177,36.045725],[138.9978402,36.045707],[138.9978471,36.0457015],[138.9978452,36.0456],[138.9978426,36.0454632],[138.9980938,36.0454809],[138.9984025,36.0455038],[138.9984038,36.0455038],[138.9984524,36.0454959],[138.9986598,36.045462],[138.9988295,36.0455619],[138.9989357,36.0454637],[138.9991535,36.0454337],[138.9993783,36.0453666],[138.9994823,36.0457023],[138.9995136,36.0458036],[138.999643,36.0462213],[138.9996723,36.0462931],[138.9996942,36.0463472],[138.9997016,36.0463654],[138.9997211,36.046413],[138.9997292,36.0464328],[138.9996483,36.0464573],[138.9992846,36.0465545],[138.9992274,36.0465654],[138.9983811,36.0466649],[138.9983617,36.0466527],[138.9982152,36.046603],[138.9982133,36.0466027],[138.9979648,36.046716]]]},"properties":{"layer":"landslide","class_code":"1","class_label":"急傾斜地の崩落","status_code":"0","status_label":"特別警戒区域指定済み"}},{"type":"Feature","id":"lsld_9d05a0c4-f240-4b99-8bce-b7b7b40fe370","geometry":{"type":"Polygon","coordinates":[[[138.993601,36.0463938],[138.9935816,36.0464693],[138.9935606,36.0465508],[138.99355,36.0465922],[138.9935309,36.0466662],[138.9935273,36.0466804],[138.993264,36.0465438],[138.9932501,36.0465195],[138.9932485,36.0464562],[138.9932469,36.046393],[138.9932467,36.0463842],[138.9932455,36.0463367],[138.9932442,36.0462815],[138.993649,36.0462073],[138.993601,36.0463938]]]},"properties":{"layer":"landslide","class_code":"1","class_label":"急傾斜地の崩落","status_code":"0","status_label":"特別警戒区域指定済み"}},{"type":"Feature","id":"lsld_b0e23dc5-cbc8-42ed-8ca3-16881c72ffd5","geometry":{"type":"Polygon","coordinates":[[[138.9944129,36.0455346],[138.9945054,36.0456026],[138.9948598,36.0458628],[138.9950798,36.046033],[138.9953084,36.0462915],[138.9954438,36.0464784],[138.9954835,36.0465332],[138.9955038,36.0465612],[138.9955398,36.0466109],[138.9954775,36.0466288],[138.9954752,36.0466322],[138.9954367,36.0466022],[138.9953952,36.0465698],[138.9953405,36.0465272],[138.9953262,36.0465161],[138.9951769,36.0464243],[138.9949257,36.0463161],[138.994568,36.0462015],[138.9941616,36.0460449],[138.994047,36.0460007],[138.9938647,36.0459305],[138.9936603,36.0458517],[138.9939689,36.0456274],[138.9940939,36.0453003],[138.9944129,36.0455346]]]},"properties":{"layer":"landslide","class_code":"1","class_label":"急傾斜地の崩落","status_code":"0","status_label":"特別警戒区域指定済み"}},{"type":"Feature","id":"lsld_c167e7e3-fd1f-4eae-8f55-e583f11a610a","geometry":{"type":"Polygon","coordinates":[[[138.9909487,36.0487681],[138.9910299,36.0488366],[138.991257,36.0489546],[138.9912598,36.0489561],[138.9912957,36.0489748],[138.9913775,36.0490173],[138.9912675,36.0491002],[138.9912079,36.0491451],[138.9911785,36.0491673],[138.991066,36.049252],[138.9909797,36.0493171],[138.9909708,36.0493238],[138.9906024,36.0496014],[138.9905571,36.0496355],[138.9904873,36.0496881],[138.9904758,36.0496968],[138.9903894,36.0496297],[138.9903755,36.0496142],[138.9902711,36.0493968],[138.9902795,36.0493836],[138.9902974,36.0493555],[138.9903224,36.0493161],[138.9904113,36.0491762],[138.9904385,36.0490874],[138.9904579,36.049024],[138.9904683,36.04899],[138.9905723,36.0486501],[138.9909487,36.0487681]]]},"properties":{"layer":"landslide","class_code":"1","class_label":"急傾斜地の崩落","status_code":"0","status_label":"特別警戒区域指定済み"}},{"type":"Feature","id":"lsld_3a93edbb-40b4-477f-846f-ed3006887cf2","geometry":{"type":"Polygon","coordinates":[[[138.9963126,36.0462181],[138.9963172,36.0462108],[138.9963635,36.046138],[138.9963978,36.0460843],[138.996599,36.0457683],[138.9967867,36.0453538],[138.9968306,36.0452567],[138.9969076,36.0450868],[138.9969782,36.0449308],[138.9971609,36.0450503],[138.9973031,36.0451113],[138.9973701,36.0451195],[138.9973729,36.0451205],[138.9974726,36.0451584],[138.9975014,36.0452916],[138.9975026,36.0452909],[138.9975561,36.0455797],[138.9977014,36.0456135],[138.9976783,36.0456407],[138.9976685,36.0456523],[138.9976384,36.0456877],[138.9976305,36.045697],[138.9975854,36.045726],[138.9975819,36.0457277],[138.9975195,36.0457573],[138.9974861,36.0457731],[138.9974475,36.045801],[138.9973101,36.0458353],[138.9973092,36.0458344],[138.9970889,36.0458726],[138.9969947,36.0458862],[138.9969921,36.0458855],[138.9967925,36.0460481],[138.9966883,36.0460317],[138.9963126,36.0462181]]]},"properties":{"layer":"landslide","class_code":"1","class_label":"急傾斜地の崩落","status_code":"0","status_label":"特別警戒区域指定済み"}},{"type":"Feature","id":"lsld_321c6c22-4512-447e-9814-a76db28695ce","geometry":{"type":"Polygon","coordinates":[[[138.9915685,36.0475416],[138.9915455,36.0476311],[138.9915771,36.0477078],[138.9915463,36.0478438],[138.9915244,36.0478476],[138.9914378,36.0478627],[138.9913706,36.0478744],[138.9913193,36.0478833],[138.991313,36.0478844],[138.9912621,36.0478932],[138.9911519,36.0477583],[138.9910926,36.0475398],[138.9912191,36.0473114],[138.9912997,36.0471898],[138.9914415,36.0469761],[138.9917917,36.0471342],[138.9918709,36.0473176],[138.9918492,36.0473545],[138.9918439,36.0473635],[138.9918418,36.0473671],[138.9918222,36.0474006],[138.9918217,36.0474014],[138.9918062,36.0474277],[138.9917901,36.0474409],[138.9917323,36.047488],[138.9917118,36.0475048],[138.991666,36.047487],[138.9915685,36.0475416]]]},"properties":{"layer":"landslide","class_code":"1","class_label":"急傾斜地の崩落","status_code":"0","status_label":"特別警戒区域指定済み"}},{"type":"Feature","id":"lsld_e18d3290-b103-4ede-b6d8-927cbb32b990","geometry":{"type":"Polygon","coordinates":[[[138.9979839,36.046563],[138.9977784,36.0465602],[138.9977768,36.0465602],[138.9977074,36.0465625],[138.9977079,36.046419],[138.997728,36.046132],[138.9977072,36.0459981],[138.9976987,36.0459563],[138.9976916,36.0459218],[138.9976913,36.04592],[138.997676,36.0458454],[138.9976728,36.0458296],[138.9976706,36.0458186],[138.9976911,36.0458166],[138.9977323,36.0458126],[138.9978056,36.0458056],[138.9978113,36.0458498],[138.9978125,36.0458588],[138.9978726,36.0458634],[138.9980575,36.0458776],[138.998341,36.0459139],[138.9983524,36.0458505],[138.9986455,36.0458193],[138.9988199,36.0459388],[138.9988763,36.0459522],[138.9990724,36.0457926],[138.9992786,36.0457653],[138.9994823,36.0457023],[138.9995136,36.0458036],[138.999643,36.0462213],[138.9996723,36.0462931],[138.9996719,36.0462932],[138.9995388,36.0463389],[138.9992823,36.0464054],[138.9991429,36.0464343],[138.9985105,36.0465379],[138.998489,36.0465262],[138.9982549,36.046454],[138.9982531,36.046454],[138.9979839,36.046563]]]},"properties":{"layer":"landslide","class_code":"1","class_label":"急傾斜地の崩落","status_code":"0","status_label":"特別警戒区域指定済み"}},{"type":"Feature","id":"lsld_079e47a7-b555-4e58-86b7-cce40abedd63","geometry":{"type":"Polygon","coordinates":[[[138.993601,36.0463938],[138.9935816,36.0464693],[138.9935606,36.0465508],[138.9932469,36.046393],[138.9932467,36.0463842],[138.9932455,36.0463367],[138.993601,36.0463938]]]},"properties":{"layer":"landslide","class_code":"1","class_label":"急傾斜地の崩落","status_code":"0","status_label":"特別警戒区域指定済み"}},{"type":"Feature","id":"lsld_3aa54d7c-eafa-457b-ac63-e7afb6c0c9da","geometry":{"type":"Polygon","coordinates":[[[138.9954438,36.0464784],[138.9953472,36.046523],[138.9953405,36.0465272],[138.9953262,36.0465161],[138.9951769,36.0464243],[138.9949257,36.0463161],[138.994568,36.0462015],[138.9941616,36.0460449],[138.994047,36.0460007],[138.994322,36.0458221],[138.9944129,36.0455346],[138.9945054,36.0456026],[138.9948598,36.0458628],[138.9950798,36.046033],[138.9953084,36.0462915],[138.9954438,36.0464784]]]},"properties":{"layer":"landslide","class_code":"1","class_label":"急傾斜地の崩落","status_code":"0","status_label":"特別警戒区域指定済み"}},{"type":"Feature","id":"lsld_15073b38-92f1-4279-adec-9ff43686280b","geometry":{"type":"Polygon","coordinates":[[[138.991066,36.049252],[138.9909797,36.0493171],[138.9909708,36.0493238],[138.9906024,36.0496014],[138.9904929,36.0495217],[138.9903886,36.0494052],[138.9903224,36.0493161],[138.9904113,36.0491762],[138.9904385,36.0490874],[138.9904579,36.049024],[138.9904683,36.04899],[138.9906954,36.0490469],[138.9908105,36.049133],[138.991066,36.049252]]]},"properties":{"layer":"landslide","class_code":"1","class_label":"急傾斜地の崩落","status_code":"0","status_label":"特別警戒区域指定済み"}},{"type":"Feature","id":"lsld_3f2b9ef4-068a-4595-afbb-958f02fe6035","geometry":{"type":"Polygon","coordinates":[[[138.9976384,36.0456877],[138.9975398,36.0456856],[138.9974058,36.0457328],[138.9974038,36.0457333],[138.997159,36.0457545],[138.9970642,36.0457642],[138.9970628,36.0457636],[138.9968538,36.0459189],[138.9967419,36.0458975],[138.9963978,36.0460843],[138.996599,36.0457683],[138.9967867,36.0453538],[138.9968306,36.0452567],[138.9970007,36.0453693],[138.9971271,36.0454249],[138.9972148,36.0454468],[138.9972169,36.0454476],[138.9973,36.0454846],[138.9974508,36.0455539],[138.9974524,36.0455532],[138.997548,36.0456358],[138.9976685,36.0456523],[138.9976384,36.0456877]]]},"properties":{"layer":"landslide","class_code":"1","class_label":"急傾斜地の崩落","status_code":"0","status_label":"特別警戒区域指定済み"}},{"type":"Feature","id":"lsld_5d1793f9-e947-4c53-bf5d-114e5f8f8415","geometry":{"type":"Polygon","coordinates":[[[138.991456,36.047439],[138.991381,36.0475952],[138.9913931,36.0477297],[138.9913706,36.0478744],[138.9913193,36.0478833],[138.991264,36.047745],[138.9912369,36.0475675],[138.9913415,36.0473729],[138.9914439,36.047237],[138.9915039,36.0471574],[138.9917249,36.0472733],[138.9918439,36.0473635],[138.9918418,36.0473671],[138.9918222,36.0474006],[138.9918217,36.0474014],[138.9916835,36.0473596],[138.9915784,36.0473523],[138.991456,36.047439]]]},"properties":{"layer":"landslide","class_code":"1","class_label":"急傾斜地の崩落","status_code":"0","status_label":"特別警戒区域指定済み"}},{"type":"Feature","id":"lsld_8bc60488-7731-43d4-a095-447f8d3ca66d","geometry":{"type":"Polygon","coordinates":[[[138.9875,36.046816639344264],[138.9875197,36.0468189],[138.98755,36.0468228],[138.9875803,36.0468271],[138.9876104,36.0468319],[138.9876405,36.0468371],[138.9876704,36.0468427],[138.9877002,36.0468487],[138.9877299,36.0468552],[138.9877594,36.046862],[138.9877888,36.0468693],[138.987818,36.0468771],[138.9878471,36.0468852],[138.9878759,36.0468937],[138.9879046,36.0469026],[138.9879331,36.046912],[138.9879614,36.0469217],[138.9879894,36.0469319],[138.9880173,36.0469424],[138.9880449,36.0469534],[138.9880723,36.0469647],[138.9880994,36.0469764],[138.9881189,36.0469852],[138.9880944,36.0470162],[138.9879556,36.0471912],[138.9878169,36.0473662],[138.9876782,36.0475412],[138.9875395,36.0477162],[138.9875,36.04776603777936],[138.9875,36.046816639344264]]]},"properties":{"layer":"landslide","class_code":"2","class_label":"土石流","status_code":"0","status_label":"特別警戒区域指定済み"}},{"type":"Feature","id":"lsld_e88465dd-060f-4c85-aa49-20eacc6c7aa7","geometry":{"type":"Polygon","coordinates":[[[138.9915693,36.0456221],[138.9910968,36.0471234],[138.9908541,36.0478945],[138.9908535,36.0478964],[138.9908578,36.047902],[138.9909232,36.0479885],[138.9909584,36.0480351],[138.9910568,36.0480965],[138.9911388,36.0481476],[138.9911761,36.0482288],[138.9911783,36.0482336],[138.9912181,36.0483202],[138.9912598,36.0484289],[138.991262,36.0484346],[138.9912841,36.0484923],[138.9912908,36.0484991],[138.9913647,36.0485739],[138.9913655,36.0485747],[138.9915719,36.0486283],[138.9917131,36.0486651],[138.9917086,36.0487679],[138.9917034,36.048887],[138.9916859,36.0489128],[138.9915638,36.0490927],[138.9914792,36.0492173],[138.9914775,36.0492198],[138.9914724,36.0492358],[138.9914453,36.0493219],[138.9914225,36.0493944],[138.9914236,36.049486],[138.9914247,36.0495827],[138.99137,36.0497015],[138.9913621,36.0497185],[138.9913924,36.0497956],[138.9914117,36.0498448],[138.9914204,36.0499057],[138.9914299,36.049972],[138.99143391206638,36.05],[138.99113056795366,36.05],[138.9911321,36.0499808],[138.9911422,36.0499709],[138.9911586,36.0499549],[138.9911101,36.0497733],[138.9910985,36.0497301],[138.9910724,36.0495052],[138.9911183,36.0493814],[138.9911358,36.0493344],[138.9912047,36.0491627],[138.9912079,36.0491451],[138.9912142,36.0491101],[138.9912226,36.0490629],[138.9912548,36.0489704],[138.9912598,36.0489561],[138.991291,36.0488666],[138.9912679,36.0488094],[138.9912217,36.0486952],[138.9911913,36.0485552],[138.9911829,36.0485166],[138.9911626,36.0484716],[138.9911063,36.048347],[138.9910225,36.0482211],[138.9910035,36.0481925],[138.9909749,36.0481732],[138.9908623,36.0480972],[138.9908278,36.0480598],[138.9907634,36.0479899],[138.9907162,36.0479388],[138.9906869,36.0478599],[138.9906717,36.0478189],[138.9906501,36.0477607],[138.9905978,36.047578],[138.9906009,36.0474996],[138.9906054,36.0473884],[138.9906391,36.047201],[138.9906325,36.0470061],[138.9905741,36.0469091],[138.9904209,36.0466547],[138.9904113,36.0466387],[138.990317,36.0465664],[138.9902938,36.0465486],[138.9894148,36.0458236],[138.9895895,36.0457895],[138.9897213,36.0457641],[138.9898802,36.0457372],[138.9900511,36.0457097],[138.9902166,36.0456883],[138.9903724,36.0456705],[138.9904147,36.0456675],[138.9905318,36.0456594],[138.9906469,36.0456516],[138.990795,36.0456417],[138.9910026,36.0456303],[138.9911763,36.0456224],[138.9913792,36.0456214],[138.9915693,36.0456221]]]},"properties":{"layer":"landslide","class_code":"2","class_label":"土石流","status_code":"0","status_label":"特別警戒区域指定済み"}},{"type":"Feature","id":"lsld_41a4c7d5-6311-4345-8de4-aa1b3c7b1f59","geometry":{"type":"Polygon","coordinates":[[[138.9911472421818,36.05],[138.9911474,36.0499986],[138.9911422,36.0499709],[138.9911208,36.0498563],[138.9911101,36.0497733],[138.9910875,36.0495988],[138.9911143,36.049418],[138.9911183,36.0493814],[138.9911343,36.049238],[138.9911785,36.0491673],[138.9912142,36.0491101],[138.9912371,36.0490733],[138.9912548,36.0489704],[138.9912566,36.0489603],[138.991257,36.0489546],[138.9912679,36.0488094],[138.9912705,36.0487744],[138.9912073,36.0486016],[138.9911913,36.0485552],[138.9911626,36.0484716],[138.9911476,36.048428],[138.9910668,36.0482656],[138.9910225,36.0482211],[138.9909749,36.0481732],[138.9909678,36.048166],[138.9908278,36.0480598],[138.9907856,36.0480278],[138.9907634,36.0479899],[138.9906869,36.0478599],[138.9906781,36.0478448],[138.9906717,36.0478189],[138.9906345,36.0476674],[138.9906009,36.0474996],[138.9905962,36.0474757],[138.9906156,36.0472853],[138.9906239,36.0471026],[138.9905741,36.0469091],[138.9905695,36.0468914],[138.9905371,36.0467567],[138.9904209,36.0466547],[138.9903701,36.0466101],[138.990317,36.0465664],[138.9895114,36.0459029],[138.9897197,36.0458583],[138.9898984,36.0458252],[138.9900285,36.0458043],[138.9902107,36.0457767],[138.9903737,36.0457543],[138.9904154,36.0457491],[138.9904565,36.0457439],[138.9905453,36.0457336],[138.990715,36.0457175],[138.9909329,36.0457003],[138.9911941,36.0456863],[138.9913687,36.0456803],[138.9915506,36.0456787],[138.9910956,36.0471231],[138.9908532,36.0478926],[138.9908541,36.0478945],[138.9908578,36.047902],[138.990887,36.0479622],[138.9909232,36.0479885],[138.9910288,36.0480654],[138.9910568,36.0480965],[138.9911761,36.0482288],[138.9911765,36.0482293],[138.9911783,36.0482336],[138.9912487,36.0484038],[138.9912598,36.0484289],[138.9912624,36.0484347],[138.9912908,36.0484991],[138.9913185,36.0485618],[138.9913647,36.0485739],[138.9915719,36.0486283],[138.9917104,36.0486647],[138.9917086,36.0487679],[138.9917066,36.0488871],[138.9916859,36.0489128],[138.9915297,36.0491071],[138.9915108,36.0491306],[138.9914792,36.0492173],[138.9914724,36.0492358],[138.9914477,36.0493036],[138.9914453,36.0493219],[138.9914236,36.049486],[138.9913602,36.0496588],[138.99137,36.0497015],[138.9913835,36.0497607],[138.9913924,36.0497956],[138.9914204,36.0499057],[138.9914338,36.0499584],[138.9914299,36.049972],[138.99142184706662,36.05],[138.9911472421818,36.05]]]},"properties":{"layer":"landslide","class_code":"2","class_label":"土石流","status_code":"0","status_label":"特別警戒区域指定済み"}},{"type":"Feature","id":"lsld_9aaed71c-bb67-454b-91f2-65679110eb4d","geometry":{"type":"Polygon","coordinates":[[[138.9925417,36.0489792],[138.9927157,36.0491033],[138.9928576,36.0492681],[138.9929383,36.0494362],[138.9930103,36.0496128],[138.9931025,36.049778],[138.9930498,36.0497922],[138.9930154,36.0498015],[138.9929871,36.0498092],[138.992936,36.0498231],[138.9928305,36.0496616],[138.9927516,36.0495029],[138.9926481,36.049343],[138.9925654,36.0492166],[138.9924472,36.0490742],[138.9921956,36.0490484],[138.9919534,36.0490142],[138.9918657,36.0489713],[138.9916785,36.0490441],[138.9915638,36.0490927],[138.9915297,36.0491071],[138.9914356,36.049147],[138.991206,36.0492555],[138.99125,36.0491438],[138.9912675,36.0491002],[138.9912818,36.0490648],[138.9912945,36.0489895],[138.9912957,36.0489748],[138.9913026,36.0488949],[138.9912916,36.0488117],[138.9912943,36.0487827],[138.9912459,36.0486374],[138.9912153,36.0486063],[138.9912134,36.0485618],[138.9911508,36.0484068],[138.991262,36.0484346],[138.9912624,36.0484347],[138.9912817,36.0484396],[138.9917507,36.0485844],[138.9919724,36.04866],[138.9921979,36.0487474],[138.992371,36.0488603],[138.9925417,36.0489792]]]},"properties":{"layer":"landslide","class_code":"2","class_label":"土石流","status_code":"0","status_label":"特別警戒区域指定済み"}},{"type":"Feature","id":"lsld_37442301-98ca-4e8b-8ff3-86b5ecbb8f12","geometry":{"type":"Polygon","coordinates":[[[138.9979798,36.0436423],[138.9981098,36.0436517],[138.9982502,36.0436687],[138.9983743,36.0436866],[138.9984973,36.043711],[138.9986247,36.0437421],[138.9987313,36.0437759],[138.9988644,36.0438221],[138.9989859,36.0438701],[138.9991328,36.0439363],[138.9992562,36.0440002],[138.9992657,36.0440051],[138.9994031,36.0440872],[138.9995162,36.0441635],[138.9996199,36.0442407],[138.9997259,36.0443301],[138.9998099,36.0444071],[138.9998743,36.0444727],[138.9992018,36.0449566],[138.9984524,36.0454959],[138.9981909,36.045684],[138.9979137,36.0458413],[138.9978726,36.0458634],[138.9977287,36.0459409],[138.9976987,36.0459563],[138.9975433,36.0460361],[138.9975192,36.0460083],[138.9974612,36.0459416],[138.9974399,36.0459173],[138.9976496,36.045846],[138.9976728,36.0458296],[138.9976911,36.0458166],[138.997818,36.0457265],[138.9978177,36.045725],[138.9977841,36.0455883],[138.9973078,36.0436773],[138.9974451,36.0436575],[138.9975672,36.043647],[138.9977137,36.0436395],[138.9978357,36.0436394],[138.9979798,36.0436423]]]},"properties":{"layer":"landslide","class_code":"2","class_label":"土石流","status_code":"0","status_label":"特別警戒区域指定済み"}},{"type":"Feature","id":"lsld_8a2b0908-d62b-47c8-b500-074ae06dc80d","geometry":{"type":"Polygon","coordinates":[[[138.9932389,36.0481074],[138.9932173,36.0481369],[138.993008,36.0480927],[138.9927486,36.048113],[138.9925368,36.0480176],[138.9922852,36.0478438],[138.9921907,36.0476897],[138.9920546,36.0475473],[138.9919317,36.0473965],[138.9918418,36.0473671],[138.991694,36.0473187],[138.9914563,36.047241],[138.9914439,36.047237],[138.9912997,36.0471898],[138.9912185,36.0471632],[138.9910968,36.0471234],[138.9910956,36.0471231],[138.9909808,36.0470855],[138.990779,36.0470193],[138.9908318,36.0468928],[138.9908379,36.0468376],[138.990833,36.0467749],[138.9907839,36.0467268],[138.990665,36.0466677],[138.9905918,36.0466358],[138.9904805,36.0465589],[138.9903492,36.0464639],[138.9903385,36.046434],[138.9903074,36.0464174],[138.9902802,36.0463783],[138.990257,36.0463185],[138.9902524,36.0462259],[138.9902483,36.0460989],[138.9902586,36.045996],[138.9902774,36.0459573],[138.9903704,36.0458475],[138.9904023,36.045791],[138.9904155,36.0457612],[138.9904154,36.0457491],[138.9904147,36.0456675],[138.9904138,36.0455731],[138.9904036,36.0454939],[138.9903972,36.0454043],[138.990377,36.0452324],[138.9903756,36.0451936],[138.9903654,36.0451099],[138.9903606,36.0450442],[138.99037,36.0450234],[138.9903764,36.0449398],[138.9903914,36.0449175],[138.9904319,36.0449088],[138.9905109,36.0449198],[138.9905603,36.0449336],[138.9906502,36.0449567],[138.9907088,36.044972],[138.9907639,36.0449813],[138.9908208,36.0449862],[138.9908852,36.0449882],[138.9909384,36.0449945],[138.9909933,36.0450143],[138.9910922,36.0450493],[138.9913231,36.0450804],[138.9914548,36.045088],[138.9916392,36.0451137],[138.9917319,36.0451197],[138.9917504,36.0452224],[138.9917863,36.0454284],[138.9918223,36.0456345],[138.9918582,36.0458406],[138.9918942,36.0460467],[138.9919302,36.0462527],[138.9919661,36.0464588],[138.9920021,36.0466649],[138.992038,36.046871],[138.992074,36.047077],[138.9922026,36.0472242],[138.992333,36.0473703],[138.9924493,36.0475252],[138.9925696,36.0476818],[138.9927089,36.0477747],[138.9928979,36.0478538],[138.9930945,36.0479342],[138.9932863,36.0480427],[138.9932678,36.048068],[138.9932516,36.04809],[138.9932389,36.0481074]]]},"properties":{"layer":"landslide","class_code":"2","class_label":"土石流","status_code":"0","status_label":"特別警戒区域指定済み"}},{"type":"Feature","id":"lsld_c903c45f-a9df-4aa7-a904-ca2e8a23df52","geometry":{"type":"Polygon","coordinates":[[[138.9930154,36.0498015],[138.9929871,36.0498092],[138.9929144,36.0496388],[138.9928384,36.0494719],[138.9927499,36.0493066],[138.9926485,36.0491539],[138.9924782,36.049043],[138.9923141,36.0489512],[138.99234,36.0489234],[138.9925007,36.0490204],[138.992676,36.0491333],[138.9927865,36.0492935],[138.9928821,36.0494563],[138.9929659,36.0496249],[138.9930498,36.0497922],[138.9930154,36.0498015]]]},"properties":{"layer":"landslide","class_code":"2","class_label":"土石流","status_code":"0","status_label":"特別警戒区域指定済み"}},{"type":"Feature","id":"lsld_77dc3d08-c32f-44b2-9a2d-a65fa0821810","geometry":{"type":"Polygon","coordinates":[[[138.9981614,36.045586],[138.9981314,36.04567],[138.9978845,36.0458062],[138.9978113,36.0458498],[138.9977053,36.0459128],[138.9976913,36.04592],[138.9975192,36.0460083],[138.9974872,36.045976],[138.9974612,36.0459416],[138.9976579,36.0458559],[138.997676,36.0458454],[138.9977323,36.0458126],[138.9978384,36.045751],[138.9978402,36.045707],[138.9978443,36.0456025],[138.9978452,36.0456],[138.9978743,36.0455185],[138.9981614,36.045586]]]},"properties":{"layer":"landslide","class_code":"2","class_label":"土石流","status_code":"0","status_label":"特別警戒区域指定済み"}},{"type":"Feature","id":"lsld_67a24c21-9f49-4002-9631-b43d0c8e031f","geometry":{"type":"Polygon","coordinates":[[[138.9932516,36.04809],[138.9932389,36.0481074],[138.9930397,36.0480345],[138.9930172,36.0480314],[138.9930511,36.0479693],[138.9930715,36.0479763],[138.9932678,36.048068],[138.9932516,36.04809]]]},"properties":{"layer":"landslide","class_code":"2","class_label":"土石流","status_code":"0","status_label":"特別警戒区域指定済み"}}]}