{"type":"FeatureCollection","properties":{"mesh_code":"54380769","source":"PLATEAU秩父市2025","layer":"landslide"},"features":[{"type":"Feature","id":"lsld_e88465dd-060f-4c85-aa49-20eacc6c7aa7","geometry":{"type":"Polygon","coordinates":[[[138.99143391206638,36.05],[138.9914489,36.0501046],[138.9913578,36.0503105],[138.9913539,36.0503194],[138.9913678,36.0503609],[138.9913824,36.0503869],[138.991399,36.0504162],[138.9915229,36.0505675],[138.9915381,36.0506205],[138.991594,36.0508159],[138.9915642,36.0509898],[138.9916343,36.0511468],[138.9916913,36.0513412],[138.9916834,36.0514218],[138.9916724,36.0515332],[138.9914134,36.051526],[138.9914474,36.051354],[138.9914277,36.0511852],[138.9913869,36.0510118],[138.9913831,36.0509956],[138.991373,36.0509715],[138.9913034,36.050806],[138.9913084,36.0507987],[138.991327,36.0507716],[138.9912921,36.0507045],[138.9912261,36.0505776],[138.9912189,36.0505675],[138.9911298,36.0504418],[138.9910896,36.0503852],[138.9911007,36.0502939],[138.9911099,36.0502174],[138.9911197,36.0501362],[138.99113056795366,36.05],[138.99143391206638,36.05]]]},"properties":{"layer":"landslide","class_code":"2","class_label":"土石流","status_code":"0","status_label":"特別警戒区域指定済み"}},{"type":"Feature","id":"lsld_41a4c7d5-6311-4345-8de4-aa1b3c7b1f59","geometry":{"type":"Polygon","coordinates":[[[138.9922392,36.0513462],[138.9920107,36.0513705],[138.9917193,36.0514043],[138.9916834,36.0514218],[138.9915365,36.0514936],[138.9914112,36.051082],[138.9913869,36.0510118],[138.991373,36.0509715],[138.9913464,36.0508947],[138.9913084,36.0507987],[138.9912889,36.0507495],[138.9912921,36.0507045],[138.9912959,36.0506526],[138.9912189,36.0505675],[138.9911366,36.0504765],[138.9911298,36.0504418],[138.9911007,36.0502939],[138.9910983,36.050282],[138.9911099,36.0502174],[138.9911443,36.0500261],[138.9911472421818,36.05],[138.99142184706662,36.05],[138.9913647,36.0501987],[138.991352,36.0502923],[138.9913578,36.0503105],[138.9913824,36.0503869],[138.9913928,36.050419],[138.9914477,36.0504945],[138.9915381,36.0506205],[138.9915977,36.0507035],[138.9915921,36.0509031],[138.991631,36.051037],[138.9918517,36.051173],[138.9920326,36.051244],[138.992257,36.0512436],[138.9922392,36.0513462]]]},"properties":{"layer":"landslide","class_code":"2","class_label":"土石流","status_code":"0","status_label":"特別警戒区域指定済み"}}]}