{"type":"FeatureCollection","properties":{"mesh_code":"54380787","source":"PLATEAU秩父市2025","layer":"landslide"},"features":[{"type":"Feature","id":"lsld_9d0d7d22-bee1-4f21-a179-177926969688","geometry":{"type":"Polygon","coordinates":[[[138.9659334,36.0746054],[138.965861,36.0749807],[138.96585903506787,36.075],[138.96342137969697,36.075],[138.9634056,36.0749827],[138.9633659,36.0749499],[138.9633475,36.0749378],[138.963326,36.0749222],[138.963309,36.0749133],[138.9632899,36.0749069],[138.9632505,36.0748999],[138.9632213,36.0748966],[138.9631951,36.0748937],[138.9631964,36.0748903],[138.9631962,36.0748825],[138.9631958,36.0748684],[138.9631957,36.0748643],[138.9631954,36.0748636],[138.9631885,36.0748412],[138.9631833,36.0748244],[138.9631798,36.0748182],[138.9631519,36.0747688],[138.9631347,36.0747403],[138.9631184,36.0747131],[138.9630953,36.0746801],[138.9630954,36.0746716],[138.9630956,36.0746515],[138.9630965,36.0746471],[138.9631028,36.0746138],[138.9631035,36.07461],[138.9631038,36.0746093],[138.9631134,36.0745843],[138.9631178,36.0745728],[138.9631214,36.0745681],[138.9631391,36.0745442],[138.9631427,36.0745393],[138.9631711,36.0745204],[138.9631744,36.0745182],[138.963175,36.0745178],[138.9632339,36.0744932],[138.9633068,36.0744617],[138.9633545,36.0744458],[138.963386,36.0744354],[138.9634245,36.0744209],[138.9634865,36.0744075],[138.9635378,36.0744045],[138.9636017,36.0744118],[138.9636286,36.0744156],[138.9636805,36.0744228],[138.9637453,36.0744233],[138.9637594,36.0744234],[138.9638145,36.0744218],[138.963832,36.0744213],[138.9638544,36.0744206],[138.9638747,36.0744164],[138.9638759,36.0744153],[138.9638777,36.0744136],[138.9639228,36.0744346],[138.9640038,36.0744286],[138.9641794,36.0743431],[138.9643021,36.0742616],[138.964505,36.0740709],[138.9645565,36.0739903],[138.9646025,36.0737359],[138.9646308,36.0735177],[138.9648428,36.0735111],[138.9649046,36.0733445],[138.9649631,36.0731869],[138.9650125,36.0730536],[138.9651919,36.0729817],[138.9652045,36.0729767],[138.9652221,36.0729699],[138.9652384,36.0730448],[138.9652667,36.0731756],[138.9652678,36.0731806],[138.9652851,36.0732602],[138.9652852,36.0732608],[138.9652901,36.0732836],[138.9652947,36.0733006],[138.9652956,36.073304],[138.9652998,36.0733289],[138.9653127,36.0733625],[138.9653231,36.0733912],[138.9653312,36.0734147],[138.965332,36.073417],[138.9653431,36.0734417],[138.9653576,36.0734814],[138.9653608,36.073486],[138.9653627,36.0734906],[138.965411,36.0735627],[138.9655927,36.0737057],[138.9657132,36.0738547],[138.9657333,36.0741429],[138.9659334,36.0746054]]]},"properties":{"layer":"landslide","class_code":"1","class_label":"急傾斜地の崩落","status_code":"0","status_label":"特別警戒区域指定済み"}},{"type":"Feature","id":"lsld_39a11e84-3e50-495a-9310-38e039e9ec96","geometry":{"type":"Polygon","coordinates":[[[138.96570785585968,36.075],[138.96342137969697,36.075],[138.9634056,36.0749827],[138.9633659,36.0749499],[138.9633475,36.0749378],[138.963326,36.0749222],[138.963309,36.0749133],[138.9632899,36.0749069],[138.9632505,36.0748999],[138.9632213,36.0748966],[138.9631951,36.0748937],[138.9631964,36.0748903],[138.9631962,36.0748825],[138.9631966,36.0748796],[138.9631958,36.0748684],[138.9631957,36.0748643],[138.9631954,36.0748636],[138.9631951,36.0748587],[138.9631885,36.0748412],[138.9631833,36.0748244],[138.9631798,36.0748182],[138.963177,36.0748108],[138.9631601,36.0747819],[138.963189,36.07474],[138.9633777,36.0746266],[138.9636449,36.0746829],[138.963828,36.0747349],[138.9639892,36.0747773],[138.9641825,36.0747416],[138.9644066,36.0746352],[138.9646024,36.0745055],[138.9648144,36.0743063],[138.9649382,36.074144],[138.9649913,36.0738777],[138.9650229,36.073668],[138.9651271,36.073555],[138.9651393,36.0733181],[138.965144,36.0732264],[138.9652678,36.0731806],[138.9652851,36.0732602],[138.9652852,36.0732608],[138.9652901,36.0732836],[138.9652947,36.0733006],[138.9652956,36.073304],[138.9652998,36.0733289],[138.9653127,36.0733625],[138.9653231,36.0733912],[138.9653312,36.0734147],[138.9653058,36.0734203],[138.9654277,36.0736245],[138.9655352,36.0738064],[138.9655641,36.0740997],[138.9657856,36.0745189],[138.9657143,36.0748991],[138.96570785585968,36.075]]]},"properties":{"layer":"landslide","class_code":"1","class_label":"急傾斜地の崩落","status_code":"0","status_label":"特別警戒区域指定済み"}},{"type":"Feature","id":"lsld_911f5756-d47e-4377-a6c1-00841b9220d5","geometry":{"type":"Polygon","coordinates":[[[138.9636857,36.074117],[138.963772,36.0741344],[138.96392,36.0741642],[138.9639147,36.0741868],[138.9639101,36.0742026],[138.9638925,36.0742647],[138.9638837,36.0742966],[138.9638818,36.074302],[138.963876,36.0743063],[138.9638707,36.0743109],[138.9638653,36.0743155],[138.9638598,36.0743199],[138.9638542,36.0743243],[138.9638486,36.0743286],[138.9638428,36.0743328],[138.963837,36.0743369],[138.963831,36.0743409],[138.963825,36.0743449],[138.9638189,36.0743488],[138.9638127,36.0743526],[138.9638064,36.0743563],[138.9638001,36.0743599],[138.9637936,36.0743634],[138.9637871,36.0743668],[138.9637806,36.0743701],[138.9637739,36.0743734],[138.9637672,36.0743765],[138.9637604,36.0743796],[138.9637536,36.0743825],[138.963747,36.0743844],[138.963708,36.0743841],[138.963686,36.074384],[138.9636805,36.0743836],[138.9636337,36.0742506],[138.9636092,36.0741812],[138.9635312,36.0740772],[138.9635361,36.0740731],[138.9635486,36.0740627],[138.9635642,36.0740496],[138.9635834,36.0740334],[138.9636857,36.074117]]]},"properties":{"layer":"landslide","class_code":"2","class_label":"土石流","status_code":"0","status_label":"特別警戒区域指定済み"}},{"type":"Feature","id":"lsld_620cd105-8607-411a-ae78-448f92282562","geometry":{"type":"Polygon","coordinates":[[[138.9630374,36.0746569],[138.9630303,36.0746974],[138.9630346,36.0747219],[138.9630451,36.0747438],[138.9631379,36.0748215],[138.963146,36.0748359],[138.96312,36.0748676],[138.963123,36.0748853],[138.9630915,36.074927],[138.9630387,36.0749969],[138.9630363467153,36.075],[138.9625,36.075],[138.9625,36.07457271490035],[138.9631224,36.0745038],[138.9631053,36.0745149],[138.9630927,36.0745329],[138.9630794,36.0745506],[138.9630693,36.074569],[138.963059,36.0745926],[138.9630374,36.0746569]]]},"properties":{"layer":"landslide","class_code":"2","class_label":"土石流","status_code":"0","status_label":"特別警戒区域指定済み"}},{"type":"Feature","id":"lsld_cb2a320e-deff-4f63-ab69-f0b24e9e06e7","geometry":{"type":"Polygon","coordinates":[[[138.966141,36.0733737],[138.9664543,36.0733959],[138.9665221,36.0735849],[138.966671,36.0737188],[138.9667165,36.0739228],[138.9668187,36.0740884],[138.9670318,36.0741787],[138.9671604,36.0743264],[138.967339,36.0744767],[138.967509,36.0746114],[138.9675994,36.0747761],[138.9676159,36.0749686],[138.9675496,36.0749934],[138.96753203606556,36.075],[138.96739270271462,36.075],[138.9672704,36.0748997],[138.9672683,36.0747019],[138.9671,36.0745665],[138.9669744,36.0744527],[138.9667336,36.0743812],[138.9665731,36.0742552],[138.9665333,36.0740472],[138.9664687,36.0738561],[138.9662734,36.0737537],[138.9660518,36.0736692],[138.9659214,36.0735228],[138.9658331,36.0734566],[138.9656215,36.0734006],[138.9654382,36.0732844],[138.9652947,36.0733006],[138.965186,36.0733129],[138.9651393,36.0733181],[138.9649321,36.0733414],[138.9649046,36.0733445],[138.9646781,36.07337],[138.9641894,36.0734259],[138.964222,36.0733785],[138.9642769,36.0733171],[138.9643001,36.0732934],[138.9643024,36.0732509],[138.9643071,36.0732338],[138.9643165,36.0732138],[138.9643472,36.0731782],[138.9643954,36.0731346],[138.9644362,36.0730999],[138.9644834,36.0730645],[138.9645106,36.0730372],[138.9645159,36.0730319],[138.9645462,36.0729903],[138.9645597,36.0729719],[138.9645624,36.0729689],[138.9645779,36.0729515],[138.9645783,36.0729512],[138.9646337,36.0729173],[138.9646537,36.0729062],[138.9646577,36.072904],[138.9646697,36.0728967],[138.9646956,36.0728812],[138.9646968,36.0728804],[138.9647164,36.0728665],[138.9647289,36.0728576],[138.9647428,36.0728443],[138.9647539,36.0728339],[138.9647771,36.0728118],[138.9647779,36.072811],[138.9648172,36.0727732],[138.9648179,36.0727726],[138.9648496,36.0727348],[138.9648802,36.0726993],[138.9649051,36.0726246],[138.9648875,36.0725575],[138.9648717,36.0724918],[138.9648524,36.0724098],[138.9648365,36.0723546],[138.9648243,36.0722994],[138.9648305,36.0722324],[138.9655789,36.0730047],[138.9657369,36.0731699],[138.9659309,36.0732612],[138.966141,36.0733737]]]},"properties":{"layer":"landslide","class_code":"2","class_label":"土石流","status_code":"0","status_label":"特別警戒区域指定済み"}},{"type":"Feature","id":"lsld_296a5cc1-29cc-449f-be90-59ce0976a0aa","geometry":{"type":"Polygon","coordinates":[[[138.9635642,36.0740496],[138.9636643,36.0741349],[138.9636283,36.0741652],[138.9635361,36.0740731],[138.9635486,36.0740627],[138.9635642,36.0740496]]]},"properties":{"layer":"landslide","class_code":"2","class_label":"土石流","status_code":"0","status_label":"特別警戒区域指定済み"}},{"type":"Feature","id":"lsld_8843191e-0936-4245-9a38-817a275081c5","geometry":{"type":"Polygon","coordinates":[[[138.965728,36.0731877],[138.9659279,36.073267],[138.9661246,36.0733848],[138.9663842,36.0734435],[138.9665089,36.0735938],[138.9666308,36.073746],[138.9666885,36.0739419],[138.9667935,36.0741055],[138.9669763,36.0742164],[138.9671023,36.0743658],[138.9672519,36.0745094],[138.9673851,36.0746579],[138.9675608,36.0747906],[138.9675496,36.0749934],[138.96753241449275,36.075],[138.9674326200627,36.075],[138.9673481,36.0748705],[138.9672734,36.0747],[138.9671507,36.0745474],[138.9670103,36.0744283],[138.9668185,36.0743236],[138.9666446,36.0742067],[138.9665795,36.0740159],[138.9665001,36.0738348],[138.9663149,36.0737255],[138.9662237,36.0735525],[138.9660326,36.0734472],[138.9658806,36.0733616],[138.9656805,36.0732826],[138.9654519,36.0732572],[138.9652667,36.0731756],[138.9652569,36.0731713],[138.9650029,36.0732],[138.9649631,36.0731869],[138.9647972,36.0731321],[138.9645106,36.0730372],[138.9645103,36.0730371],[138.9645327,36.0730082],[138.9645462,36.0729903],[138.9645624,36.0729689],[138.9645773,36.0729519],[138.9645779,36.0729515],[138.964618,36.0729276],[138.9646537,36.0729062],[138.9646697,36.0728967],[138.9646956,36.0728812],[138.9646968,36.0728804],[138.9647076,36.0728739],[138.9647164,36.0728665],[138.9647428,36.0728443],[138.9647539,36.0728339],[138.9647771,36.0728118],[138.9647779,36.072811],[138.9648152,36.0727726],[138.9648172,36.0727732],[138.9649542,36.0728184],[138.9651444,36.0729172],[138.9651919,36.0729817],[138.9652384,36.0730448],[138.9652871,36.073111],[138.9655358,36.0730904],[138.965728,36.0731877]]]},"properties":{"layer":"landslide","class_code":"2","class_label":"土石流","status_code":"0","status_label":"特別警戒区域指定済み"}}]}