{"type":"FeatureCollection","properties":{"mesh_code":"54380747","source":"PLATEAU秩父市2025","layer":"landslide"},"features":[{"type":"Feature","id":"lsld_da3adb0f-e293-4371-bcc2-e4432a5e23d3","geometry":{"type":"Polygon","coordinates":[[[138.9729524916275,36.041666666666664],[138.9734604,36.0411993],[138.9738061,36.0410853],[138.9738316,36.0410717],[138.9738557,36.0410575],[138.9739584,36.0410916],[138.9739592,36.0410919],[138.9740163,36.0411137],[138.9740179,36.0411146],[138.9740833,36.0411498],[138.9741287,36.0411741],[138.9741943,36.0412104],[138.9742499,36.0412334],[138.9744034,36.0412894],[138.9745857,36.0413849],[138.9745982,36.0413914],[138.9746953,36.0414423],[138.975,36.04160195357443],[138.975,36.041666666666664],[138.9729524916275,36.041666666666664]]]},"properties":{"layer":"landslide","class_code":"1","class_label":"急傾斜地の崩落","status_code":"0","status_label":"特別警戒区域指定済み"}},{"type":"Feature","id":"lsld_5e750b93-03a8-4a65-b8db-6a466c4a068f","geometry":{"type":"Polygon","coordinates":[[[138.97318539448688,36.041666666666664],[138.9736204,36.0412592],[138.973924,36.041198],[138.9739583,36.0411708],[138.9740179,36.0411146],[138.9740833,36.0411498],[138.9741287,36.0411741],[138.9741943,36.0412104],[138.9742499,36.0412334],[138.9744034,36.0412894],[138.9745857,36.0413849],[138.9745982,36.0413914],[138.9746953,36.0414423],[138.9745721,36.041584],[138.97452568872743,36.041666666666664],[138.97318539448688,36.041666666666664]]]},"properties":{"layer":"landslide","class_code":"1","class_label":"急傾斜地の崩落","status_code":"0","status_label":"特別警戒区域指定済み"}},{"type":"Feature","id":"lsld_4342a40b-31b3-4b30-8017-6c23d8dce218","geometry":{"type":"Polygon","coordinates":[[[138.9746036,36.0409701],[138.9747589,36.04099],[138.9749513,36.0410586],[138.9749727,36.0410664],[138.975,36.0410763113253],[138.975,36.041666666666664],[138.9741317936266,36.041666666666664],[138.9741029,36.0416187],[138.9740648,36.0414928],[138.9740525,36.0414072],[138.9740539,36.0412789],[138.9740747,36.0411882],[138.9740833,36.0411498],[138.9740885,36.0411268],[138.9741319,36.041071],[138.9741816,36.0410393],[138.9742774,36.0410052],[138.9743995,36.040974],[138.974495,36.0409694],[138.9746036,36.0409701]]]},"properties":{"layer":"landslide","class_code":"3","class_label":"地すべり","status_code":"0","status_label":"特別警戒区域指定済み"}},{"type":"Feature","id":"lsld_aff208b8-7a87-401b-bd3d-4cd41099f7ae","geometry":{"type":"Polygon","coordinates":[[[138.975,36.041666666666664],[138.97428095455533,36.041666666666664],[138.9745982,36.0413914],[138.9749727,36.0410664],[138.975,36.04104270940481],[138.975,36.041666666666664]]]},"properties":{"layer":"landslide","class_code":"3","class_label":"地すべり","status_code":"0","status_label":"特別警戒区域指定済み"}}]}