{"type":"FeatureCollection","properties":{"mesh_code":"54380797","source":"PLATEAU秩父市2025","layer":"landslide"},"features":[{"type":"Feature","id":"lsld_9d0d7d22-bee1-4f21-a179-177926969688","geometry":{"type":"Polygon","coordinates":[[[138.96585903506787,36.075],[138.9657935,36.0756437],[138.9656762,36.0758316],[138.964829,36.0757178],[138.9640536,36.0756483],[138.9638444,36.0756136],[138.963711,36.0755895],[138.9635687,36.0755388],[138.9635485,36.0754756],[138.9635458,36.0754445],[138.9635457,36.0754435],[138.9635455,36.0754415],[138.9635411,36.0753928],[138.9635394,36.0753738],[138.9635361,36.0753345],[138.9635356,36.0753277],[138.9635354,36.0753256],[138.9635347,36.0753179],[138.9635292,36.0752547],[138.9635291,36.0752531],[138.9635286,36.0752479],[138.9635278,36.0752357],[138.9635273,36.07523],[138.9635253,36.075207],[138.9635174,36.075169],[138.9634983,36.0751141],[138.9634795,36.0750817],[138.9634501,36.0750344],[138.9634357,36.0750157],[138.96342137969697,36.075],[138.96585903506787,36.075]]]},"properties":{"layer":"landslide","class_code":"1","class_label":"急傾斜地の崩落","status_code":"0","status_label":"特別警戒区域指定済み"}},{"type":"Feature","id":"lsld_5193eb07-d690-4e72-b064-b659dab81f85","geometry":{"type":"Polygon","coordinates":[[[138.9627875,36.0759308],[138.9628488,36.0760182],[138.9628491,36.0760185],[138.9628577,36.0760309],[138.9628876,36.0760733],[138.9629067,36.0761095],[138.9629485,36.0761818],[138.9630184,36.0762953],[138.9630495,36.0763458],[138.9630503,36.0763471],[138.9630992,36.0764264],[138.9631287,36.076513],[138.9631567,36.0765666],[138.9631612,36.0765753],[138.9632484,36.0767087],[138.9631384,36.0767181],[138.963138,36.0767181],[138.9630795,36.0767231],[138.9630147,36.0767286],[138.9629107,36.0767296],[138.9628338,36.0767308],[138.9627493,36.0767249],[138.9626605,36.0767164],[138.9625643,36.0767034],[138.9625,36.076693208779936],[138.9625,36.07572594059404],[138.9625388,36.0756857],[138.9625621,36.0756375],[138.9625745,36.0756269],[138.9627875,36.0759308]]]},"properties":{"layer":"landslide","class_code":"1","class_label":"急傾斜地の崩落","status_code":"0","status_label":"特別警戒区域指定済み"}},{"type":"Feature","id":"lsld_39a11e84-3e50-495a-9310-38e039e9ec96","geometry":{"type":"Polygon","coordinates":[[[138.96570785585968,36.075],[138.9656737,36.0755348],[138.9655435,36.0757313],[138.9648036,36.0755729],[138.9640288,36.0755035],[138.9638308,36.0754668],[138.9636872,36.0754425],[138.9635407,36.0753866],[138.9635411,36.0753928],[138.9635394,36.0753738],[138.9635361,36.0753345],[138.9635356,36.0753277],[138.9635354,36.0753256],[138.9635347,36.0753179],[138.9635292,36.0752547],[138.9635291,36.0752531],[138.9635286,36.0752479],[138.9635278,36.0752357],[138.9635273,36.07523],[138.9635253,36.075207],[138.9635174,36.075169],[138.9634983,36.0751141],[138.9634795,36.0750817],[138.9634501,36.0750344],[138.9634357,36.0750157],[138.96342137969697,36.075],[138.96570785585968,36.075]]]},"properties":{"layer":"landslide","class_code":"1","class_label":"急傾斜地の崩落","status_code":"0","status_label":"特別警戒区域指定済み"}},{"type":"Feature","id":"lsld_b2b63ce0-cf80-4bb1-b7d9-97dbdf1f3d16","geometry":{"type":"Polygon","coordinates":[[[138.9630795,36.0767231],[138.9630147,36.0767286],[138.9629107,36.0767296],[138.9628338,36.0767308],[138.9627493,36.0767249],[138.9626605,36.0767164],[138.9625643,36.0767034],[138.9625,36.076693208779936],[138.9625,36.07622604117646],[138.9626043,36.0760972],[138.9627875,36.0759308],[138.9628488,36.0760182],[138.9628491,36.0760185],[138.9628577,36.0760309],[138.9628876,36.0760733],[138.9629067,36.0761095],[138.9629485,36.0761818],[138.9630184,36.0762953],[138.9630208,36.076409],[138.9630107,36.0764985],[138.9629948,36.0765603],[138.9630795,36.0767231]]]},"properties":{"layer":"landslide","class_code":"1","class_label":"急傾斜地の崩落","status_code":"0","status_label":"特別警戒区域指定済み"}},{"type":"Feature","id":"lsld_620cd105-8607-411a-ae78-448f92282562","geometry":{"type":"Polygon","coordinates":[[[138.9630363467153,36.075],[138.9630075,36.075038],[138.9630021,36.0750448],[138.9629951,36.0750541],[138.9629875,36.0750632],[138.9629672,36.0750878],[138.9629161,36.0751495],[138.9628826,36.07519],[138.9628315,36.0752425],[138.9627848,36.0752802],[138.9627579,36.0753025],[138.9627218,36.0753295],[138.9626468,36.0753852],[138.9626431,36.0753876],[138.9626012,36.0754868],[138.9625782,36.0755168],[138.9625487,36.0755439],[138.962514,36.0755748],[138.9625,36.07558966065573],[138.9625,36.075],[138.9630363467153,36.075]]]},"properties":{"layer":"landslide","class_code":"2","class_label":"土石流","status_code":"0","status_label":"特別警戒区域指定済み"}},{"type":"Feature","id":"lsld_cb2a320e-deff-4f63-ab69-f0b24e9e06e7","geometry":{"type":"Polygon","coordinates":[[[138.96753203606556,36.075],[138.9674522,36.07503],[138.9674366,36.075036],[138.96739270271462,36.075],[138.96753203606556,36.075]]]},"properties":{"layer":"landslide","class_code":"2","class_label":"土石流","status_code":"0","status_label":"特別警戒区域指定済み"}},{"type":"Feature","id":"lsld_8843191e-0936-4245-9a38-817a275081c5","geometry":{"type":"Polygon","coordinates":[[[138.96753241449275,36.075],[138.9674957,36.0750141],[138.9674522,36.07503],[138.9674326200627,36.075],[138.96753241449275,36.075]]]},"properties":{"layer":"landslide","class_code":"2","class_label":"土石流","status_code":"0","status_label":"特別警戒区域指定済み"}}]}