{"type":"FeatureCollection","properties":{"mesh_code":"54380768","source":"PLATEAU秩父市2025","layer":"landslide"},"features":[{"type":"Feature","id":"lsld_daa6285f-a7c1-45c8-80cb-da3a473161fa","geometry":{"type":"Polygon","coordinates":[[[138.98142278700215,36.05],[138.9814724,36.0500447],[138.9815467,36.0501311],[138.9816259,36.0502232],[138.9815872,36.050455],[138.9816161,36.0505645],[138.9817189,36.0506561],[138.9817229,36.0506641],[138.9817468,36.0507021],[138.981776,36.0507383],[138.981818,36.0507807],[138.9818928,36.0508501],[138.9819277,36.0508814],[138.9819896,36.0509309],[138.9820334,36.0509578],[138.9821406,36.0509825],[138.9821663,36.0509997],[138.9822088,36.0510048],[138.9822426,36.0510141],[138.9822777,36.0510308],[138.9822911,36.0510371],[138.9823157,36.0510576],[138.9823963,36.0511208],[138.9824286,36.0512913],[138.9824312,36.0512966],[138.9824766,36.0513263],[138.9824143,36.0515389],[138.9823653,36.0516232],[138.982339,36.0516708],[138.9821035,36.0516901],[138.9820308,36.0516961],[138.9819218,36.051705],[138.9817265,36.0517209],[138.9816817,36.0517246],[138.9816193,36.0517297],[138.9815713,36.0517336],[138.9815228,36.0517129],[138.9812307,36.0515274],[138.9811485,36.0514732],[138.9810143,36.0514364],[138.9806317,36.0512235],[138.9804741,36.0511525],[138.9804701,36.0508864],[138.9805574,36.0506142],[138.9806401,36.0504129],[138.9806447,36.0504045],[138.9806764,36.0503473],[138.9807844,36.050152],[138.98081,36.0500714],[138.9808213,36.0500354],[138.9808254,36.0500227],[138.98083259756098,36.05],[138.98142278700215,36.05]]]},"properties":{"layer":"landslide","class_code":"1","class_label":"急傾斜地の崩落","status_code":"0","status_label":"特別警戒区域指定済み"}},{"type":"Feature","id":"lsld_cbe6c7c4-d5ac-47be-a987-21d18497f79e","geometry":{"type":"Polygon","coordinates":[[[138.980753,36.0521804],[138.9807648,36.0521821],[138.9807906,36.052186],[138.9807965,36.0521869],[138.9808332,36.0521924],[138.9808466,36.0521945],[138.9808586,36.0521963],[138.9809423,36.0522089],[138.9809892,36.0523644],[138.9808587,36.0526184],[138.9807272,36.0528103],[138.9805316,36.0528993],[138.980411,36.0529843],[138.9804013,36.0529932],[138.9802591,36.053123],[138.9802316,36.0530946],[138.9801905,36.0530521],[138.9801629,36.0530236],[138.9801624,36.053023],[138.9801588,36.0530193],[138.9801415,36.052994],[138.9801066,36.0529431],[138.9801622,36.0527144],[138.9803253,36.0526007],[138.9804489,36.0525269],[138.9805459,36.0524308],[138.9805788,36.052369],[138.980664,36.052167],[138.980753,36.0521804]]]},"properties":{"layer":"landslide","class_code":"1","class_label":"急傾斜地の崩落","status_code":"0","status_label":"特別警戒区域指定済み"}},{"type":"Feature","id":"lsld_118322c3-4367-42fd-aeb8-cd42bb1f45fe","geometry":{"type":"Polygon","coordinates":[[[138.9816766,36.0521107],[138.9816756,36.0521229],[138.9816722,36.0521629],[138.9816697,36.0521923],[138.981667,36.0522245],[138.9816667,36.0522277],[138.98166,36.0523073],[138.9816592,36.0523176],[138.9814329,36.0523299],[138.9811581,36.0523233],[138.9811529,36.0522661],[138.98115,36.0522334],[138.9811489,36.0522212],[138.9811531,36.0522053],[138.981162,36.052171],[138.9811622,36.0521701],[138.9811733,36.0521275],[138.9811736,36.0521261],[138.9811854,36.0520807],[138.9814149,36.0520434],[138.9814632,36.0520593],[138.9815261,36.052075],[138.9815681,36.052078],[138.9816189,36.0520802],[138.9816577,36.0520769],[138.9816795,36.0520768],[138.9816766,36.0521107]]]},"properties":{"layer":"landslide","class_code":"1","class_label":"急傾斜地の崩落","status_code":"0","status_label":"特別警戒区域指定済み"}},{"type":"Feature","id":"lsld_44f843b5-001e-4c52-a06d-352a77c5ff16","geometry":{"type":"Polygon","coordinates":[[[138.9792471,36.0561638],[138.9792484,36.0561664],[138.9792658,36.0561994],[138.979268,36.0562036],[138.9792867,36.0562392],[138.979288,36.0562417],[138.9793302,36.0563221],[138.9792828,36.0563664],[138.9792043,36.0564991],[138.9791019,36.0564644],[138.9790246,36.0564382],[138.9790138,36.0564345],[138.9789602,36.0564164],[138.978897,36.0563949],[138.9789583,36.0563042],[138.9790428,36.056179],[138.979217,36.0561065],[138.9792471,36.0561638]]]},"properties":{"layer":"landslide","class_code":"1","class_label":"急傾斜地の崩落","status_code":"0","status_label":"特別警戒区域指定済み"}},{"type":"Feature","id":"lsld_f5e406b2-a039-4a1d-a71e-ec691b6cda06","geometry":{"type":"Polygon","coordinates":[[[138.97504654904552,36.05833333333333],[138.9750474,36.058327],[138.975053,36.0582559],[138.9750578,36.0582065],[138.9750692,36.0581213],[138.9750748,36.0580435],[138.9750918,36.0579723],[138.9751173,36.0578708],[138.9751287,36.0578405],[138.9751425,36.0578036],[138.9751456,36.0577965],[138.9751591,36.0577654],[138.9751827,36.0577116],[138.975182,36.0577322],[138.9754118,36.0578715],[138.9756538,36.0580607],[138.975776,36.0581632],[138.9758419,36.0581693],[138.9760476,36.0581916],[138.9764718,36.0582328],[138.9766746,36.0583203],[138.97672687847066,36.05833333333333],[138.97711011535273,36.05833333333333],[138.9771915,36.0583137],[138.97725522085807,36.05833333333333],[138.9774438372071,36.05833333333333],[138.9775551,36.0582945],[138.9776815,36.0582671],[138.9777348,36.0582751],[138.97779,36.0582834],[138.9777905,36.0582837],[138.9778183,36.0582968],[138.9778353,36.0583049],[138.9778417,36.0583079],[138.97789544173912,36.05833333333333],[138.97504654904552,36.05833333333333]]]},"properties":{"layer":"landslide","class_code":"1","class_label":"急傾斜地の崩落","status_code":"0","status_label":"特別警戒区域指定済み"}},{"type":"Feature","id":"lsld_5cbf63c8-df92-4d16-97e4-fe647c4f4ea2","geometry":{"type":"Polygon","coordinates":[[[138.9834732,36.0523913],[138.9833183,36.0524148],[138.9831957,36.0524333],[138.9831008,36.0524477],[138.9827728,36.0524974],[138.9826984,36.0523694],[138.982764,36.0518238],[138.9828087,36.0518557],[138.9829045,36.0517085],[138.9830548,36.0516458],[138.9831241,36.051589],[138.9831267,36.0515319],[138.9832566,36.0515894],[138.983501,36.0516975],[138.9836139,36.0517475],[138.983701,36.051786],[138.98388,36.0518914],[138.9842097,36.0521425],[138.9842618,36.0521822],[138.9842871,36.0522015],[138.9843427,36.0522439],[138.9843049,36.0522899],[138.9842911,36.052322],[138.9842843,36.05234],[138.9842796,36.0523516],[138.9842693,36.0523785],[138.9842437,36.0524398],[138.9842299,36.0524711],[138.9841676,36.0524566],[138.9841232,36.0524462],[138.9840484,36.0524287],[138.9837967,36.05237],[138.9837078,36.0523693],[138.9834732,36.0523913]]]},"properties":{"layer":"landslide","class_code":"1","class_label":"急傾斜地の崩落","status_code":"0","status_label":"特別警戒区域指定済み"}},{"type":"Feature","id":"lsld_5edc5f74-0a6e-48f4-880d-ebed65075e20","geometry":{"type":"Polygon","coordinates":[[[138.981896,36.0544943],[138.9818607,36.0545107],[138.9818429,36.0545189],[138.9817854,36.0545454],[138.9809107,36.0549492],[138.9807966,36.0550019],[138.9807647,36.0550167],[138.9806185,36.0550841],[138.9804283,36.0551719],[138.9801903,36.0549777],[138.9800525,36.0547766],[138.9800895,36.0546256],[138.9801284,36.0544672],[138.9800308,36.0542025],[138.9800916,36.0538815],[138.9804027,36.0535657],[138.9806906,36.0533514],[138.9809598,36.0532208],[138.981055,36.0531745],[138.9813575,36.0531528],[138.9814515,36.053348],[138.9814954,36.053439],[138.9815117,36.0534728],[138.9815597,36.0535725],[138.9817122,36.0538891],[138.9817763,36.0540856],[138.9818028,36.0542536],[138.9818108,36.0543042],[138.9818198,36.0543614],[138.9818248,36.0543936],[138.9817849,36.0544161],[138.9817641,36.0544286],[138.9817619,36.0544267],[138.9817445,36.0544323],[138.9817361,36.0544418],[138.9817392,36.0544729],[138.981822,36.0544858],[138.9819245,36.0544812],[138.9819393,36.0544743],[138.9819459,36.0544802],[138.981896,36.0544943]]]},"properties":{"layer":"landslide","class_code":"1","class_label":"急傾斜地の崩落","status_code":"0","status_label":"特別警戒区域指定済み"}},{"type":"Feature","id":"lsld_36314931-af0d-4406-b356-3033dd4fd568","geometry":{"type":"Polygon","coordinates":[[[138.9809158340909,36.05],[138.9809817,36.0500794],[138.9810924,36.0502128],[138.9812332,36.0503669],[138.9811929,36.0505889],[138.9812556,36.050745],[138.9813946,36.050872],[138.98147,36.0509487],[138.9816462,36.0510375],[138.9818793,36.0511222],[138.9820607,36.0512837],[138.982061,36.0512856],[138.9820967,36.0514793],[138.9820968,36.0514812],[138.9820734,36.0515679],[138.9820308,36.0516961],[138.9819218,36.051705],[138.9817265,36.0517209],[138.9816707,36.0516448],[138.9815799,36.0516009],[138.9815799,36.0515995],[138.9814823,36.051535],[138.981482,36.051533],[138.9813801,36.0514211],[138.9812847,36.0513772],[138.9811533,36.0513515],[138.9807815,36.0511631],[138.9806124,36.0510715],[138.9806165,36.0508023],[138.9807251,36.0505529],[138.9807261,36.0503749],[138.9806764,36.0503473],[138.9807844,36.050152],[138.98081,36.0500714],[138.9808213,36.0500354],[138.9808254,36.0500227],[138.98083259756098,36.05],[138.9809158340909,36.05]]]},"properties":{"layer":"landslide","class_code":"1","class_label":"急傾斜地の崩落","status_code":"0","status_label":"特別警戒区域指定済み"}},{"type":"Feature","id":"lsld_fd277e12-22f7-444c-b63e-999f4a95cfa4","geometry":{"type":"Polygon","coordinates":[[[138.9807648,36.0521821],[138.9807906,36.052186],[138.9807965,36.0521869],[138.9808423,36.052366],[138.980743,36.052549],[138.9806182,36.0526993],[138.980454,36.0527871],[138.9804018,36.0528242],[138.9803032,36.0528942],[138.9802589,36.0529351],[138.9801629,36.0530236],[138.9801624,36.053023],[138.9801588,36.0530193],[138.9801415,36.052994],[138.9802437,36.0528184],[138.9803965,36.0527038],[138.9805311,36.0526106],[138.9806785,36.0525103],[138.9807475,36.0523671],[138.980753,36.0521804],[138.9807648,36.0521821]]]},"properties":{"layer":"landslide","class_code":"1","class_label":"急傾斜地の崩落","status_code":"0","status_label":"特別警戒区域指定済み"}},{"type":"Feature","id":"lsld_fd2c1583-d7c0-4933-b481-6639ac81a7ee","geometry":{"type":"Polygon","coordinates":[[[138.9816766,36.0521107],[138.9816756,36.0521229],[138.9816722,36.0521629],[138.9816697,36.0521923],[138.9814436,36.052182],[138.981162,36.052171],[138.9811622,36.0521701],[138.9811733,36.0521275],[138.9814491,36.0521064],[138.9816766,36.0521107]]]},"properties":{"layer":"landslide","class_code":"1","class_label":"急傾斜地の崩落","status_code":"0","status_label":"特別警戒区域指定済み"}},{"type":"Feature","id":"lsld_b8448444-dee6-448f-9c69-e978d0007621","geometry":{"type":"Polygon","coordinates":[[[138.9792484,36.0561664],[138.9792658,36.0561994],[138.979268,36.0562036],[138.97914,36.0562549],[138.9791293,36.0562718],[138.9790246,36.0564382],[138.9790138,36.0564345],[138.9789602,36.0564164],[138.9790449,36.0562878],[138.9790915,36.056217],[138.9792471,36.0561638],[138.9792484,36.0561664]]]},"properties":{"layer":"landslide","class_code":"1","class_label":"急傾斜地の崩落","status_code":"0","status_label":"特別警戒区域指定済み"}},{"type":"Feature","id":"lsld_845c7522-1577-43de-b476-9677b33301e9","geometry":{"type":"Polygon","coordinates":[[[138.9778417,36.0583079],[138.9778068320291,36.05833333333333],[138.97504654904552,36.05833333333333],[138.9750474,36.058327],[138.975053,36.0582559],[138.9750578,36.0582065],[138.9750692,36.0581213],[138.9750748,36.0580435],[138.9750918,36.0579723],[138.9751173,36.0578708],[138.9751287,36.0578405],[138.9752547,36.0578568],[138.9754428,36.0580077],[138.9756582,36.0581877],[138.9757895,36.0582773],[138.9759486,36.058261],[138.9761708,36.058287],[138.9763130167334,36.05833333333333],[138.9777472507363,36.05833333333333],[138.9778183,36.0582968],[138.9778353,36.0583049],[138.9778417,36.0583079]]]},"properties":{"layer":"landslide","class_code":"1","class_label":"急傾斜地の崩落","status_code":"0","status_label":"特別警戒区域指定済み"}},{"type":"Feature","id":"lsld_438d5234-c36d-4a47-ac68-74f43fab6892","geometry":{"type":"Polygon","coordinates":[[[138.9840484,36.0524287],[138.9837967,36.05237],[138.9837078,36.0523693],[138.9834732,36.0523913],[138.9833183,36.0524148],[138.9831957,36.0524333],[138.9831286,36.0523496],[138.9830875,36.0520542],[138.9831814,36.0520149],[138.983231,36.0519325],[138.9833175,36.0519179],[138.9833977,36.051854],[138.983501,36.0516975],[138.9836139,36.0517475],[138.983701,36.051786],[138.98388,36.0518914],[138.9842097,36.0521425],[138.9841364,36.0522349],[138.9841134,36.0522909],[138.9841039,36.0523056],[138.9841007,36.0523198],[138.9840855,36.0523415],[138.9840614,36.0523958],[138.9840484,36.0524287]]]},"properties":{"layer":"landslide","class_code":"1","class_label":"急傾斜地の崩落","status_code":"0","status_label":"特別警戒区域指定済み"}},{"type":"Feature","id":"lsld_3b31f1f7-575b-4547-946c-e6828d62450d","geometry":{"type":"Polygon","coordinates":[[[138.9817854,36.0545454],[138.9809107,36.0549492],[138.9807966,36.0550019],[138.9805907,36.0548642],[138.9804696,36.0547115],[138.9805512,36.0544661],[138.9804512,36.0542426],[138.9804911,36.0539972],[138.9807332,36.0537805],[138.9809436,36.0536271],[138.981221,36.0534911],[138.9815117,36.0534728],[138.9815597,36.0535725],[138.9817122,36.0538891],[138.9817763,36.0540856],[138.9818028,36.0542536],[138.9816966,36.0542915],[138.9816444,36.054324],[138.9816217,36.054341],[138.9815848,36.0543674],[138.9815689,36.054398],[138.9815676,36.0544723],[138.9816442,36.0545084],[138.9817773,36.054528],[138.9817854,36.0545454]]]},"properties":{"layer":"landslide","class_code":"1","class_label":"急傾斜地の崩落","status_code":"0","status_label":"特別警戒区域指定済み"}},{"type":"Feature","id":"lsld_0104a9e2-e558-4540-99c0-a115de491ebd","geometry":{"type":"Polygon","coordinates":[[[138.9828509,36.0566348],[138.9830387,36.0567421],[138.983149,36.0569081],[138.9832816,36.0570527],[138.983462,36.0572197],[138.98324,36.0572931],[138.9830213,36.0572188],[138.9827833,36.0571413],[138.9825527,36.0570746],[138.9823238,36.0570074],[138.982189,36.0568833],[138.982052,36.0566745],[138.9818654,36.0565675],[138.9816349,36.0566103],[138.9813853,36.0566576],[138.9811356,36.0567048],[138.980886,36.0567521],[138.9806364,36.0567994],[138.9803898,36.0568326],[138.9801833,36.0567656],[138.9799864,36.0566599],[138.9798269,36.0564801],[138.9796677,36.0562877],[138.9794654,36.0562081],[138.979288,36.0562417],[138.9792158,36.0562554],[138.9791293,36.0562718],[138.9790449,36.0562878],[138.9789662,36.0563027],[138.9789583,36.0563042],[138.9787165,36.05635],[138.9783856,36.0564185],[138.978262,36.0563468],[138.9781702,36.0563127],[138.9780906,36.0562108],[138.9780104,36.0561536],[138.978,36.0560999],[138.9780561,36.0560049],[138.9781864,36.0558756],[138.9783091,36.0557276],[138.9783615,36.0555958],[138.9784368,36.0554205],[138.9784746,36.0553164],[138.9785092,36.0551988],[138.9784222,36.0551029],[138.978276,36.0550542],[138.9781773,36.0550267],[138.9781148,36.054992],[138.9780679,36.0549141],[138.9780437,36.0547739],[138.9780554,36.0547114],[138.9781072,36.05467],[138.9783899,36.0546661],[138.9786213,36.0546498],[138.9788858,36.0546309],[138.9790478,36.0545772],[138.9791848,36.054472],[138.9792482,36.0543771],[138.9793086,36.0542226],[138.9792917,36.0540913],[138.9792049,36.0539715],[138.9791406,36.0538041],[138.9795389,36.0541482],[138.9797141,36.0543001],[138.9798894,36.054452],[138.9800646,36.0546039],[138.9800895,36.0546256],[138.9802398,36.0547558],[138.980415,36.0549077],[138.9805903,36.0550596],[138.9806185,36.0550841],[138.9807655,36.0552115],[138.9809407,36.0553634],[138.981116,36.0555153],[138.9812912,36.0556672],[138.9814664,36.0558191],[138.9816417,36.055971],[138.9818169,36.0561229],[138.9820475,36.0561942],[138.9822243,36.0563212],[138.9824169,36.0564159],[138.9826182,36.0564927],[138.9828509,36.0566348]]]},"properties":{"layer":"landslide","class_code":"2","class_label":"土石流","status_code":"0","status_label":"特別警戒区域指定済み"}},{"type":"Feature","id":"lsld_363d25ad-5b18-48ef-802c-c7c1870bc3cb","geometry":{"type":"Polygon","coordinates":[[[138.98168680498244,36.05],[138.9817067,36.0500754],[138.9816948,36.0500896],[138.9816378,36.050113],[138.9816455,36.050129],[138.9815467,36.0501311],[138.9812078,36.0501385],[138.9809817,36.0500794],[138.9809466,36.0500703],[138.98081,36.0500714],[138.9807058,36.0500722],[138.9807087,36.0500102],[138.9807091837945,36.05],[138.98168680498244,36.05]]]},"properties":{"layer":"landslide","class_code":"2","class_label":"土石流","status_code":"0","status_label":"特別警戒区域指定済み"}},{"type":"Feature","id":"lsld_06489a71-7898-4c5d-b11e-c6dc226c6e02","geometry":{"type":"Polygon","coordinates":[[[138.9820786,36.0522717],[138.9820936,36.0524795],[138.9821086,36.0526872],[138.9821236,36.052895],[138.9821387,36.0531028],[138.9821537,36.0533106],[138.9821687,36.0535184],[138.9821145,36.0535474],[138.9820966,36.053557],[138.9820644,36.0535742],[138.9819619,36.053629],[138.9817327,36.0535356],[138.9815036,36.0534423],[138.9814954,36.053439],[138.9812745,36.053349],[138.9810454,36.0532557],[138.9809598,36.0532208],[138.9808163,36.0531623],[138.9805872,36.053069],[138.9804013,36.0529932],[138.9802589,36.0529351],[138.9802178,36.0529183],[138.9804018,36.0528242],[138.9804054,36.0528224],[138.9804725,36.0527909],[138.9806239,36.0527155],[138.9806582,36.0527046],[138.9806875,36.052684],[138.9807637,36.0526039],[138.9808332,36.0525086],[138.9808389,36.0524502],[138.980836,36.0524043],[138.9808503,36.0523447],[138.980851,36.0522849],[138.9808275,36.0522403],[138.9808209,36.0522152],[138.9808416,36.0521987],[138.9808586,36.0521963],[138.9809239,36.0521868],[138.9809822,36.0521803],[138.9810164,36.0521819],[138.9810829,36.0521977],[138.9811531,36.0522053],[138.981165,36.0522066],[138.9812214,36.0522167],[138.9813289,36.0522397],[138.9813939,36.0522416],[138.9814847,36.052238],[138.9815258,36.05223],[138.9815584,36.0522219],[138.9816012,36.0522222],[138.981667,36.0522245],[138.9816987,36.0522257],[138.9818271,36.0522252],[138.9819383,36.0522232],[138.9819863,36.0522221],[138.9820737,36.0522061],[138.9820786,36.0522717]]]},"properties":{"layer":"landslide","class_code":"2","class_label":"土石流","status_code":"0","status_label":"特別警戒区域指定済み"}},{"type":"Feature","id":"lsld_76d60f6a-2596-4932-a0a8-fcbdf6b4f4da","geometry":{"type":"Polygon","coordinates":[[[138.98090981603053,36.05],[138.9809172,36.0500569],[138.9808213,36.0500354],[138.9807087,36.0500102],[138.9807082310345,36.05],[138.98090981603053,36.05]]]},"properties":{"layer":"landslide","class_code":"2","class_label":"土石流","status_code":"0","status_label":"特別警戒区域指定済み"}},{"type":"Feature","id":"lsld_f28ffbe0-0bb5-4a5c-a691-d9e19ac5d628","geometry":{"type":"Polygon","coordinates":[[[138.9820966,36.053557],[138.9820644,36.0535742],[138.9819987,36.0535337],[138.9820539,36.0535042],[138.9821145,36.0535474],[138.9820966,36.053557]]]},"properties":{"layer":"landslide","class_code":"2","class_label":"土石流","status_code":"0","status_label":"特別警戒区域指定済み"}},{"type":"Feature","id":"lsld_c95de47d-4966-46b7-a8ad-d1e5e682a604","geometry":{"type":"Polygon","coordinates":[[[138.98327816038338,36.05],[138.9832692,36.0500379],[138.9832316,36.05013],[138.9831965,36.0501874],[138.9831533,36.0502301],[138.9830241,36.0502449],[138.9828053,36.0502433],[138.9817599,36.0502234],[138.9816512,36.0502015],[138.9816624,36.0501814],[138.9816705,36.0501502],[138.9817092,36.0500844],[138.9817099,36.0500023],[138.98170957023086,36.05],[138.98327816038338,36.05]]]},"properties":{"layer":"landslide","class_code":"3","class_label":"地すべり","status_code":"0","status_label":"特別警戒区域指定済み"}}]}