{"type":"FeatureCollection","properties":{"mesh_code":"54390039","source":"PLATEAU秩父市2025","layer":"landslide"},"features":[{"type":"Feature","id":"lsld_f595ea86-5904-4a35-8217-4f63eef9e18b","geometry":{"type":"Polygon","coordinates":[[[139.1213859,36.0273578],[139.1212974,36.0273646],[139.1211212,36.0273782],[139.121087,36.0271842],[139.120946,36.0268626],[139.121113,36.0266925],[139.1211132,36.0266921],[139.1212447,36.0265877],[139.121245,36.0265873],[139.121408,36.0264176],[139.1216069,36.0262844],[139.1218328,36.0261293],[139.1221076,36.0260361],[139.1223116,36.0259301],[139.1226884,36.0259744],[139.1229448,36.0259893],[139.1231428,36.0259848],[139.1234688,36.0259138],[139.1237946,36.0260423],[139.1240381,36.0260966],[139.1239997,36.0265184],[139.1237873,36.0266384],[139.1237105,36.0266817],[139.1235592,36.0267672],[139.1235376,36.0267767],[139.123453,36.0268138],[139.1233943,36.0268394],[139.1233565,36.0268582],[139.1232954,36.0268179],[139.1232334,36.0267952],[139.1231963,36.0267695],[139.1231196,36.0267605],[139.1229657,36.0267549],[139.1228115,36.026753],[139.1226477,36.0267594],[139.1225589,36.0267655],[139.1224158,36.0268142],[139.1223426,36.0268558],[139.1222217,36.0269234],[139.1220217,36.0270176],[139.1220213,36.0270181],[139.1219959,36.0270502],[139.1219956,36.0270509],[139.121969,36.0271043],[139.1217789,36.0272487],[139.1217016,36.0273456],[139.1216606,36.0273552],[139.121596,36.0273572],[139.1215924,36.0273571],[139.1215061,36.0273553],[139.1214375,36.0273538],[139.1213859,36.0273578]]]},"properties":{"layer":"landslide","class_code":"1","class_label":"急傾斜地の崩落","status_code":"0","status_label":"特別警戒区域指定済み"}},{"type":"Feature","id":"lsld_176bca9a-2692-4e20-9a05-745f499ddb99","geometry":{"type":"Polygon","coordinates":[[[139.11332417917305,36.03333333333333],[139.1134306,36.0333108],[139.11351414968115,36.03333333333333],[139.11332417917305,36.03333333333333]]]},"properties":{"layer":"landslide","class_code":"1","class_label":"急傾斜地の崩落","status_code":"0","status_label":"特別警戒区域指定済み"}},{"type":"Feature","id":"lsld_e39c75bf-d5fa-4bd2-9806-c9d076cd6e40","geometry":{"type":"Polygon","coordinates":[[[139.1156958,36.0322035],[139.1156936,36.0322175],[139.1154013,36.0323726],[139.1152818,36.0324428],[139.1152805,36.0324694],[139.1152468,36.0325514],[139.1149246,36.0327148],[139.1147097,36.0328005],[139.1146836,36.0327969],[139.1146023,36.0327798],[139.1146019,36.0327796],[139.1145612,36.0327666],[139.1144579,36.0327337],[139.1143539,36.0325489],[139.1142412,36.0323436],[139.1143211,36.0321278],[139.1143984,36.0319954],[139.1144911,36.0318659],[139.1146591,36.0318793],[139.1148151,36.0316491],[139.1149703,36.0314903],[139.1149721,36.0314893],[139.115238,36.0313309],[139.1155375,36.0312819],[139.1156004,36.0313196],[139.1157723,36.0314223],[139.1158229,36.0314526],[139.1158551,36.0314719],[139.1159824,36.0314889],[139.1161326,36.031509],[139.1161263,36.0315243],[139.1161226,36.0315333],[139.116088,36.0316178],[139.1160783,36.0316414],[139.1160578,36.0316914],[139.1160575,36.0316921],[139.116019,36.0317859],[139.1159861,36.031866],[139.1159733,36.0318973],[139.1159566,36.0319544],[139.1159467,36.0320352],[139.1159448,36.0321225],[139.1159512,36.0321669],[139.1159517,36.0321702],[139.1159778,36.0322061],[139.1160231,36.0322322],[139.1159925,36.0322278],[139.115899,36.0322031],[139.1158208,36.0321865],[139.1157455,36.0321765],[139.1156958,36.0322035]]]},"properties":{"layer":"landslide","class_code":"1","class_label":"急傾斜地の崩落","status_code":"0","status_label":"特別警戒区域指定済み"}},{"type":"Feature","id":"lsld_d0f97aa4-e3ad-4f28-afee-7580a5f566ca","geometry":{"type":"Polygon","coordinates":[[[139.1183857,36.0288916],[139.1184313,36.0290719],[139.1184498,36.0291453],[139.1184701,36.0292259],[139.1184764,36.0292676],[139.1184747,36.0293008],[139.1184728,36.0293368],[139.1184669,36.0293785],[139.1184543,36.029468],[139.1183321,36.0294693],[139.118299,36.0294791],[139.1183018,36.029501],[139.1182748,36.0294858],[139.1182074,36.0294711],[139.118199,36.0294708],[139.1181114,36.029468],[139.1180269,36.0294653],[139.1179156,36.0294529],[139.1178173,36.0294419],[139.1178073,36.0294408],[139.1175901,36.0294166],[139.1175588,36.0294131],[139.117566,36.0293999],[139.117663,36.0292225],[139.1176812,36.0291891],[139.1181404,36.0289727],[139.1183717,36.0288826],[139.1183824,36.0288785],[139.1183857,36.0288916]]]},"properties":{"layer":"landslide","class_code":"1","class_label":"急傾斜地の崩落","status_code":"0","status_label":"特別警戒区域指定済み"}},{"type":"Feature","id":"lsld_7d7d6e88-f88e-4bad-b61b-4c1f025dab3b","geometry":{"type":"Polygon","coordinates":[[[139.1198247,36.0289924],[139.1197639,36.0290152],[139.119557,36.0290701],[139.1194344,36.0291535],[139.119345,36.0292361],[139.1192793,36.0293585],[139.1192692,36.029378],[139.1192249,36.0292863],[139.1191126,36.029256],[139.1190088,36.0292241],[139.1190016,36.0292219],[139.1189182,36.0291987],[139.1189137,36.0291975],[139.1188142,36.0291588],[139.1187412,36.0291202],[139.1186647,36.029071],[139.118586,36.0290204],[139.1183857,36.0288916],[139.1183717,36.0288826],[139.1183058,36.0288402],[139.1184942,36.0286662],[139.118724,36.0285238],[139.1189837,36.0284189],[139.1193624,36.0283292],[139.1196391,36.0283304],[139.1198016,36.0285598],[139.119902,36.0286194],[139.1200224,36.0286063],[139.1202047,36.0286739],[139.1204225,36.0287546],[139.1204359,36.028859],[139.1204365,36.0288637],[139.1202981,36.0289019],[139.1202308,36.0289204],[139.1202234,36.0289224],[139.1201314,36.0289478],[139.1201071,36.0289545],[139.1200412,36.0289709],[139.1200277,36.0289743],[139.1199747,36.0289835],[139.1199324,36.028988],[139.1198695,36.0289844],[139.1198247,36.0289924]]]},"properties":{"layer":"landslide","class_code":"1","class_label":"急傾斜地の崩落","status_code":"0","status_label":"特別警戒区域指定済み"}},{"type":"Feature","id":"lsld_16a3a8cc-3546-47b4-956f-1e8e38f0d322","geometry":{"type":"Polygon","coordinates":[[[139.120526,36.0293047],[139.1205248,36.0293011],[139.1205214,36.0292988],[139.1205179,36.0292986],[139.1205122,36.0293008],[139.1205166,36.0292555],[139.1203885,36.0291848],[139.120378,36.0291769],[139.1203091,36.0291219],[139.1202847,36.0291024],[139.1202687,36.0290788],[139.1202586,36.0290641],[139.1202414,36.0290211],[139.1202329,36.0289412],[139.1202308,36.0289204],[139.1202236,36.0288531],[139.1202199,36.0288181],[139.1202047,36.0286739],[139.1201988,36.0286179],[139.120332,36.0285356],[139.1204722,36.0284771],[139.1208335,36.0284653],[139.1212607,36.0287335],[139.1214003,36.0289182],[139.1214374,36.0291838],[139.1210593,36.0292126],[139.1209474,36.0292211],[139.1208547,36.0292281],[139.1208061,36.0292305],[139.1207738,36.0292284],[139.1207228,36.0292247],[139.120675,36.0292252],[139.12066,36.0292253],[139.1206235,36.0292299],[139.1205972,36.0292364],[139.1205934,36.0292373],[139.120561,36.0292657],[139.120526,36.0293047]]]},"properties":{"layer":"landslide","class_code":"1","class_label":"急傾斜地の崩落","status_code":"0","status_label":"特別警戒区域指定済み"}},{"type":"Feature","id":"lsld_7eab23e6-c9e3-4b53-a0bd-dd88542f01f6","geometry":{"type":"Polygon","coordinates":[[[139.1161345,36.030933],[139.1161647,36.0310159],[139.1162158,36.0311562],[139.1162224,36.0311745],[139.1162435,36.0312324],[139.1162439,36.031233],[139.1162739,36.0312862],[139.1162935,36.0313136],[139.1162851,36.0313154],[139.1163202,36.0313621],[139.1163933,36.0314873],[139.1163652,36.0314895],[139.1162755,36.0315056],[139.1162715,36.0315066],[139.1162137,36.0315208],[139.1161843,36.0315289],[139.1161637,36.0315383],[139.116137,36.031568],[139.1161025,36.0316218],[139.1160881,36.0316443],[139.116082,36.0316539],[139.1160578,36.0316914],[139.1160575,36.0316921],[139.1160256,36.0317419],[139.1159958,36.0317884],[139.1159315,36.0318887],[139.1158442,36.032025],[139.1157201,36.0317844],[139.1157021,36.0317564],[139.1154928,36.0314332],[139.1156004,36.0313196],[139.1156888,36.0312261],[139.1156818,36.0312163],[139.1155675,36.0310546],[139.1155001,36.030985],[139.1157477,36.0307931],[139.1157614,36.0307824],[139.1160515,36.0307048],[139.1161345,36.030933]]]},"properties":{"layer":"landslide","class_code":"1","class_label":"急傾斜地の崩落","status_code":"0","status_label":"特別警戒区域指定済み"}},{"type":"Feature","id":"lsld_cbef68d4-4a84-43d8-992c-194d87e8342f","geometry":{"type":"Polygon","coordinates":[[[139.1173638,36.0307598],[139.1173041,36.0307487],[139.1172961,36.0307461],[139.1169321,36.0306721],[139.1169093,36.0307284],[139.1168056,36.0306961],[139.1167163,36.0306683],[139.1165211,36.0306075],[139.1164333,36.0305802],[139.1162084,36.0305102],[139.116191,36.0305048],[139.1161945,36.030495],[139.1162756,36.0302706],[139.1163578,36.0301785],[139.1163638,36.030164],[139.1163803,36.0301247],[139.1165337,36.0299886],[139.1166104,36.0298491],[139.1167996,36.0297396],[139.1168481,36.0297115],[139.1171068,36.0295818],[139.11732,36.029626],[139.1176071,36.0297099],[139.1177031,36.0297508],[139.1178643,36.0298143],[139.1180599,36.0298858],[139.1181348,36.0299658],[139.1180711,36.0300235],[139.1179657,36.0301191],[139.1179002,36.0301786],[139.1178734,36.0302029],[139.117849,36.030221],[139.1177892,36.0302656],[139.1177597,36.0302833],[139.1177301,36.030301],[139.1176852,36.0303213],[139.1176623,36.0303316],[139.1176033,36.030367],[139.1175958,36.0303739],[139.1175906,36.0303652],[139.1175774,36.0303433],[139.1174716,36.0303298],[139.1174041,36.0302296],[139.1173692,36.0301801],[139.1173436,36.0301652],[139.1173129,36.0301803],[139.1172408,36.0302346],[139.117317,36.0303218],[139.1173753,36.0304004],[139.1173638,36.0307598]]]},"properties":{"layer":"landslide","class_code":"1","class_label":"急傾斜地の崩落","status_code":"0","status_label":"特別警戒区域指定済み"}},{"type":"Feature","id":"lsld_cdebff9a-cddc-4e43-9828-37fc4c8d87c4","geometry":{"type":"Polygon","coordinates":[[[139.11380425620916,36.03333333333333],[139.11372233285908,36.03333333333333],[139.1137543,36.0333191],[139.11380425620916,36.03333333333333]]]},"properties":{"layer":"landslide","class_code":"1","class_label":"急傾斜地の崩落","status_code":"0","status_label":"特別警戒区域指定済み"}},{"type":"Feature","id":"lsld_a44f78eb-b4be-47ed-81b9-231ed117104b","geometry":{"type":"Polygon","coordinates":[[[139.1161647,36.0310159],[139.1162158,36.0311562],[139.1162115,36.0311751],[139.1162043,36.0312067],[139.1162452,36.0314213],[139.115982,36.0314723],[139.1159824,36.0314889],[139.1159829,36.031513],[139.1161263,36.0315243],[139.1161843,36.0315289],[139.1161637,36.0315383],[139.116137,36.031568],[139.1161025,36.0316218],[139.1160881,36.0316443],[139.116082,36.0316539],[139.1160578,36.0316914],[139.1160575,36.0316921],[139.1160256,36.0317419],[139.1158205,36.0316351],[139.1157121,36.0314677],[139.1157723,36.0314223],[139.1158098,36.031394],[139.1158388,36.0313722],[139.1159145,36.0312427],[139.1158936,36.0311968],[139.1158546,36.0311113],[139.1159755,36.0309751],[139.1161345,36.030933],[139.1161647,36.0310159]]]},"properties":{"layer":"landslide","class_code":"1","class_label":"急傾斜地の崩落","status_code":"0","status_label":"特別警戒区域指定済み"}},{"type":"Feature","id":"lsld_c84979a5-70aa-4164-9bf9-fa21c7954a31","geometry":{"type":"Polygon","coordinates":[[[139.1215061,36.0273553],[139.1214375,36.0273538],[139.1213859,36.0273578],[139.1212974,36.0273646],[139.1213186,36.0271778],[139.1213394,36.0269924],[139.1214512,36.026854],[139.1214514,36.0268535],[139.1215524,36.0267783],[139.1215527,36.0267779],[139.1217311,36.0266527],[139.1218947,36.0265445],[139.1220702,36.0264214],[139.1222895,36.0263546],[139.1224399,36.0262639],[139.1227266,36.02631],[139.1229428,36.026326],[139.1231313,36.0263285],[139.1233933,36.0262609],[139.12362,36.0263727],[139.1238008,36.0264011],[139.1237873,36.0266384],[139.1237105,36.0266817],[139.1235592,36.0267672],[139.1235376,36.0267767],[139.1234565,36.0267211],[139.123388,36.0266971],[139.1232974,36.0266445],[139.1231216,36.0266201],[139.1229411,36.0266169],[139.1227614,36.0266156],[139.1225798,36.0266278],[139.1224612,36.0266553],[139.122307,36.0267128],[139.1221873,36.0268089],[139.1220535,36.0268804],[139.1218524,36.0269634],[139.121852,36.0269639],[139.1218055,36.0270226],[139.1218052,36.0270232],[139.1217703,36.0271311],[139.1215856,36.0272047],[139.1215061,36.0273553]]]},"properties":{"layer":"landslide","class_code":"1","class_label":"急傾斜地の崩落","status_code":"0","status_label":"特別警戒区域指定済み"}},{"type":"Feature","id":"lsld_41be60a8-9cb7-483b-b674-ea01ee246388","geometry":{"type":"Polygon","coordinates":[[[139.1184747,36.0293008],[139.1182731,36.0293318],[139.1181728,36.0293754],[139.1181114,36.029468],[139.1180269,36.0294653],[139.1179156,36.0294529],[139.1178173,36.0294419],[139.1179394,36.029266],[139.1182055,36.0291489],[139.1184313,36.0290719],[139.1184498,36.0291453],[139.1184701,36.0292259],[139.1184764,36.0292676],[139.1184747,36.0293008]]]},"properties":{"layer":"landslide","class_code":"1","class_label":"急傾斜地の崩落","status_code":"0","status_label":"特別警戒区域指定済み"}},{"type":"Feature","id":"lsld_88e5b477-9728-45a4-a830-e987801707aa","geometry":{"type":"Polygon","coordinates":[[[139.1198895,36.0289132],[139.1196843,36.0289836],[139.1195135,36.0290169],[139.1194291,36.0290987],[139.1193122,36.0291971],[139.1191896,36.029237],[139.1190408,36.0292119],[139.1189182,36.0291987],[139.1189137,36.0291975],[139.1188142,36.0291588],[139.1187412,36.0291202],[139.1186647,36.029071],[139.118586,36.0290204],[139.1187317,36.0289473],[139.1189236,36.0288441],[139.1191334,36.0287593],[139.1193932,36.0286853],[139.1195761,36.0286751],[139.119743,36.0287883],[139.1198976,36.0287564],[139.1199994,36.0287304],[139.1202199,36.0288181],[139.1202548,36.0288319],[139.1202712,36.0288584],[139.1202981,36.0289019],[139.1202308,36.0289204],[139.1202234,36.0289224],[139.1201314,36.0289478],[139.1200495,36.0289121],[139.1199697,36.0288797],[139.1198895,36.0289132]]]},"properties":{"layer":"landslide","class_code":"1","class_label":"急傾斜地の崩落","status_code":"0","status_label":"特別警戒区域指定済み"}},{"type":"Feature","id":"lsld_76617e8a-7925-421b-b3c9-4fb83c712392","geometry":{"type":"Polygon","coordinates":[[[139.1208547,36.0292281],[139.1208061,36.0292305],[139.1207738,36.0292284],[139.1207228,36.0292247],[139.120675,36.0292252],[139.1206631,36.0292072],[139.1206486,36.0291847],[139.1205936,36.0291631],[139.1205698,36.0291666],[139.1204551,36.0291311],[139.1202687,36.0290788],[139.1202586,36.0290641],[139.1202414,36.0290211],[139.1202329,36.0289412],[139.1202308,36.0289204],[139.1202236,36.0288531],[139.1202712,36.0288584],[139.1203979,36.0288723],[139.1204359,36.028859],[139.120533,36.028825],[139.1207208,36.0288061],[139.1209532,36.0289588],[139.1210319,36.0290809],[139.1210593,36.0292126],[139.1209474,36.0292211],[139.1208547,36.0292281]]]},"properties":{"layer":"landslide","class_code":"1","class_label":"急傾斜地の崩落","status_code":"0","status_label":"特別警戒区域指定済み"}},{"type":"Feature","id":"lsld_78f16940-4e98-4248-8714-acd3019d19a0","geometry":{"type":"Polygon","coordinates":[[[139.1171869,36.0306816],[139.1167834,36.0305646],[139.1167163,36.0306683],[139.1165211,36.0306075],[139.1164333,36.0305802],[139.1165313,36.0303929],[139.1167542,36.030348],[139.116788,36.0302487],[139.1168497,36.0301066],[139.1168697,36.0300177],[139.1168738,36.0299992],[139.1170225,36.0298688],[139.1171309,36.0298121],[139.1171863,36.0297831],[139.1173188,36.0298162],[139.1174792,36.0298859],[139.117484,36.0298893],[139.1175127,36.0299101],[139.1175664,36.0299489],[139.1176267,36.0299679],[139.1177638,36.0300111],[139.1179174,36.0300673],[139.1179657,36.0301191],[139.1179002,36.0301786],[139.1178734,36.0302029],[139.117849,36.030221],[139.1177892,36.0302656],[139.1177597,36.0302833],[139.1177421,36.0302629],[139.1176606,36.0302133],[139.1174334,36.0301737],[139.1173669,36.030082],[139.1173223,36.030029],[139.1172769,36.0300125],[139.1172038,36.0300506],[139.1171124,36.0301393],[139.1171631,36.0302355],[139.1171988,36.0303601],[139.1171869,36.0306816]]]},"properties":{"layer":"landslide","class_code":"1","class_label":"急傾斜地の崩落","status_code":"0","status_label":"特別警戒区域指定済み"}},{"type":"Feature","id":"lsld_db6b10d6-353b-4c1d-b8f6-ad884a0c6158","geometry":{"type":"Polygon","coordinates":[[[139.1156008,36.0292925],[139.1156037,36.0293218],[139.1156211,36.0295],[139.1156414,36.0297074],[139.1156611,36.0299084],[139.1156617,36.0299149],[139.115682,36.0301224],[139.1156837,36.0301397],[139.1157024,36.0303299],[139.1157048,36.0303546],[139.1157227,36.0305374],[139.115743,36.0307449],[139.1157477,36.0307931],[139.1157633,36.0309524],[139.1157836,36.0311598],[139.1157882,36.0312065],[139.1158019,36.0313466],[139.1158039,36.0313673],[139.1158098,36.031394],[139.1158229,36.0314526],[139.1158384,36.0315222],[139.1160371,36.0316036],[139.116088,36.0316178],[139.1161025,36.0316218],[139.1162476,36.0316621],[139.1162342,36.0316882],[139.1162249,36.0317063],[139.1162148,36.0317262],[139.1161939,36.0317673],[139.116019,36.0317859],[139.1159958,36.0317884],[139.1159397,36.0317944],[139.1157163,36.0317614],[139.1157021,36.0317564],[139.1153349,36.0316296],[139.1153118,36.0316206],[139.1151035,36.0315401],[139.1149721,36.0314893],[139.1148721,36.0314507],[139.1146408,36.0313612],[139.1145378,36.0313214],[139.1144094,36.0312718],[139.114178,36.0311823],[139.1139467,36.0310928],[139.1137153,36.0310034],[139.1134839,36.0309139],[139.1132525,36.0308245],[139.1131821,36.0307972],[139.1131669,36.0307913],[139.1129908,36.030722],[139.1130205,36.0306841],[139.1130501,36.0306509],[139.113074,36.0306058],[139.1131066,36.0305655],[139.1131363,36.0305228],[139.113172,36.0304753],[139.1132075,36.0304398],[139.1132431,36.0303948],[139.1132846,36.030345],[139.1133173,36.0303101],[139.1133201,36.0303071],[139.1133527,36.0302739],[139.1133942,36.0302289],[139.1134326,36.0301934],[139.1134888,36.0301413],[139.1135391,36.0300987],[139.1135982,36.0300467],[139.1136426,36.0300064],[139.1137105,36.0299592],[139.1137844,36.0298977],[139.11387,36.0298363],[139.1139614,36.0297796],[139.1140411,36.0297301],[139.114105,36.0296957],[139.1141409,36.0296712],[139.1141973,36.0296429],[139.1142739,36.0296028],[139.1143712,36.0295558],[139.1144566,36.0295181],[139.1145626,36.0294711],[139.1146303,36.0294429],[139.1147156,36.0294149],[139.1148098,36.0293797],[139.1148863,36.0293563],[139.1149628,36.0293306],[139.1150304,36.0293143],[139.1150951,36.029298],[139.1151094,36.0292944],[139.1151774,36.0292771],[139.1152655,36.0292585],[139.1153595,36.0292424],[139.1154594,36.0292263],[139.1155887,36.0292108],[139.1155916,36.0292105],[139.1156008,36.0292925]]]},"properties":{"layer":"landslide","class_code":"2","class_label":"土石流","status_code":"0","status_label":"特別警戒区域指定済み"}},{"type":"Feature","id":"lsld_67c69dbc-1a26-4d0c-982f-1680a08b6f2e","geometry":{"type":"Polygon","coordinates":[[[139.1151094,36.0292944],[139.1153753,36.0295941],[139.1155273,36.0297613],[139.1155275,36.0297615],[139.1155931,36.0298336],[139.1156611,36.0299084],[139.1156798,36.0299289],[139.1158223,36.0300857],[139.115832,36.0300964],[139.1159843,36.0302638],[139.1159915,36.0302717],[139.1161365,36.0304312],[139.1161945,36.030495],[139.1162084,36.0305102],[139.1162888,36.0305986],[139.1163932,36.0307492],[139.1164959,36.0308512],[139.1165799,36.0308768],[139.1167359,36.0309244],[139.1167431,36.0309601],[139.116748,36.0309838],[139.116752,36.0310037],[139.1167589,36.0310367],[139.1166301,36.0311227],[139.116554,36.0311356],[139.1162589,36.0311722],[139.1162224,36.0311745],[139.1162115,36.0311751],[139.1159717,36.0311897],[139.1158936,36.0311968],[139.1157882,36.0312065],[139.1157171,36.031213],[139.1156818,36.0312163],[139.1154625,36.0312364],[139.1152078,36.0312598],[139.1149532,36.0312832],[139.1146986,36.0313066],[139.1145378,36.0313214],[139.1144439,36.03133],[139.1141893,36.0313534],[139.1139347,36.0313768],[139.1136801,36.0314002],[139.1131602,36.0314411],[139.1131494,36.031341],[139.1131445,36.0312361],[139.1131487,36.0310932],[139.1131588,36.0309503],[139.1131821,36.0307972],[139.1131838,36.030786],[139.1132115,36.0306456],[139.1132358,36.0305553],[139.113284,36.030415],[139.1133142,36.0303175],[139.1133173,36.0303101],[139.1133682,36.0301891],[139.1134131,36.0300893],[139.1134626,36.0300008],[139.1135502,36.0298424],[139.1136247,36.0297213],[139.1137285,36.0295909],[139.1138027,36.0294913],[139.113942,36.0293373],[139.1140278,36.0292568],[139.1141373,36.0291478],[139.1142585,36.0290485],[139.1143678,36.0289586],[139.1145036,36.0288665],[139.1145862,36.0288146],[139.1146481,36.0287745],[139.1151094,36.0292944]]]},"properties":{"layer":"landslide","class_code":"2","class_label":"土石流","status_code":"0","status_label":"特別警戒区域指定済み"}},{"type":"Feature","id":"lsld_c3177d4b-4bdf-4ff3-854c-7279f7ea8fe0","geometry":{"type":"Polygon","coordinates":[[[139.1181916,36.0297953],[139.1182059,36.0298234],[139.1182294,36.0298696],[139.118293,36.0299948],[139.1183049,36.0300181],[139.1184045,36.0301843],[139.118386,36.0302341],[139.1183304,36.0303836],[139.1182382,36.0304012],[139.1182186,36.0304049],[139.1181808,36.0304121],[139.1179214,36.0304615],[139.1179153,36.0303238],[139.1179075,36.030279],[139.117849,36.030221],[139.1177509,36.0301237],[139.1177249,36.0300753],[139.1176267,36.0299679],[139.1175831,36.0299203],[139.1175725,36.0299086],[139.117484,36.0298893],[139.1171309,36.0298121],[139.1167996,36.0297396],[139.116683,36.0297141],[139.1164481,36.0298136],[139.1162221,36.0299119],[139.1159962,36.0300101],[139.1158223,36.0300857],[139.1157703,36.0301083],[139.1156837,36.0301397],[139.1156574,36.0301493],[139.1156319,36.0300443],[139.1155931,36.0298336],[139.1155928,36.029832],[139.1155766,36.0296747],[139.115569,36.0295412],[139.1155746,36.0294321],[139.1155766,36.0293936],[139.1155807,36.0293864],[139.1155801,36.0292887],[139.1155887,36.0292108],[139.1155929,36.0291721],[139.1156056,36.0290649],[139.1156302,36.0289388],[139.1156817,36.0287628],[139.1157357,36.0286249],[139.1158047,36.0284633],[139.1158585,36.0283469],[139.1158914,36.0282828],[139.1176314,36.0291747],[139.117663,36.0292225],[139.1178073,36.0294408],[139.1179607,36.0296728],[139.1179816,36.0297043],[139.1181916,36.0297953]]]},"properties":{"layer":"landslide","class_code":"2","class_label":"土石流","status_code":"0","status_label":"特別警戒区域指定済み"}},{"type":"Feature","id":"lsld_9b05ed4f-ec97-438d-a3f4-6cc76b465432","geometry":{"type":"Polygon","coordinates":[[[139.1170322,36.0299706],[139.1168697,36.0300177],[139.1167908,36.0300405],[139.1165494,36.0301103],[139.1163638,36.030164],[139.116308,36.0301801],[139.1160666,36.03025],[139.1159915,36.0302717],[139.1158252,36.0303198],[139.1157048,36.0303546],[139.1155959,36.0303861],[139.1155935,36.0303779],[139.115583,36.0303379],[139.1155733,36.0302978],[139.1155645,36.0302575],[139.1155566,36.0302171],[139.1155495,36.0301766],[139.1155433,36.030136],[139.115538,36.0300954],[139.1155335,36.0300546],[139.1155299,36.0300138],[139.1155272,36.029973],[139.1155254,36.0299321],[139.1155244,36.0298912],[139.1155244,36.0298503],[139.1155252,36.0298094],[139.1155269,36.0297686],[139.1155273,36.0297613],[139.1155294,36.0297277],[139.1155329,36.0296869],[139.1155372,36.0296462],[139.1155424,36.0296055],[139.1155485,36.0295649],[139.1155554,36.0295244],[139.1155632,36.029484],[139.1155718,36.029444],[139.1155719,36.0294434],[139.1155746,36.0294321],[139.1155814,36.0294035],[139.1155918,36.0293635],[139.1156031,36.0293237],[139.1156037,36.0293218],[139.1156152,36.029284],[139.1156282,36.0292444],[139.115642,36.0292051],[139.1156566,36.029166],[139.1156721,36.0291271],[139.1156885,36.0290884],[139.1157056,36.0290499],[139.1157236,36.0290117],[139.1157424,36.0289738],[139.115762,36.0289361],[139.1157824,36.0288987],[139.1158036,36.0288617],[139.1158256,36.0288249],[139.1158484,36.0287884],[139.115872,36.0287523],[139.1158964,36.0287165],[139.1159215,36.028681],[139.1159474,36.0286459],[139.115974,36.0286112],[139.1160013,36.0285769],[139.1160294,36.028543],[139.1160583,36.0285094],[139.1160878,36.0284763],[139.116118,36.0284436],[139.1161437,36.0284168],[139.11624,36.0284834],[139.1164352,36.0286183],[139.1166303,36.0287532],[139.1168255,36.0288881],[139.1170206,36.029023],[139.1172158,36.0291579],[139.1174109,36.0292928],[139.117566,36.0293999],[139.1175901,36.0294166],[139.1176061,36.0294276],[139.1178012,36.0295625],[139.1179607,36.0296728],[139.1179964,36.0296974],[139.118181,36.0297788],[139.1182025,36.0297838],[139.1184235,36.0298045],[139.1184134,36.0298491],[139.1184092,36.0298676],[139.1184029,36.0298955],[139.1183867,36.0299677],[139.118293,36.0299948],[139.1181452,36.0300376],[139.118121,36.0300446],[139.1180711,36.0300235],[139.1179356,36.0299664],[139.1177161,36.0299395],[139.1175831,36.0299203],[139.1175127,36.0299101],[139.1174976,36.0299079],[139.1172736,36.0299008],[139.1170322,36.0299706]]]},"properties":{"layer":"landslide","class_code":"2","class_label":"土石流","status_code":"0","status_label":"特別警戒区域指定済み"}},{"type":"Feature","id":"lsld_6712450c-6a93-47d6-a180-012bf687baa4","geometry":{"type":"Polygon","coordinates":[[[139.1160783,36.0316414],[139.1160881,36.0316443],[139.1162342,36.0316882],[139.1162249,36.0317063],[139.1162148,36.0317262],[139.1160578,36.0316914],[139.1160528,36.0316903],[139.1160779,36.0316413],[139.1160783,36.0316414]]]},"properties":{"layer":"landslide","class_code":"2","class_label":"土石流","status_code":"0","status_label":"特別警戒区域指定済み"}},{"type":"Feature","id":"lsld_e6477867-ccf3-46f3-a406-08abf1a8f8cc","geometry":{"type":"Polygon","coordinates":[[[139.116752,36.0310037],[139.1166042,36.031051],[139.1165945,36.0310034],[139.1167431,36.0309601],[139.116748,36.0309838],[139.116752,36.0310037]]]},"properties":{"layer":"landslide","class_code":"2","class_label":"土石流","status_code":"0","status_label":"特別警戒区域指定済み"}},{"type":"Feature","id":"lsld_4a6e0c24-f6c0-4856-bd90-d901ea88ccf7","geometry":{"type":"Polygon","coordinates":[[[139.1182186,36.0304049],[139.1181808,36.0304121],[139.1181464,36.0302797],[139.1181959,36.0302703],[139.1182382,36.0304012],[139.1182186,36.0304049]]]},"properties":{"layer":"landslide","class_code":"2","class_label":"土石流","status_code":"0","status_label":"特別警戒区域指定済み"}},{"type":"Feature","id":"lsld_91930d0f-9949-45bc-ae01-c297a0782e8d","geometry":{"type":"Polygon","coordinates":[[[139.1181939,36.0298219],[139.1182059,36.0298234],[139.1184134,36.0298491],[139.1184092,36.0298676],[139.1184029,36.0298955],[139.1182294,36.0298696],[139.1181846,36.029863],[139.118174,36.0298598],[139.1181828,36.0298208],[139.1181939,36.0298219]]]},"properties":{"layer":"landslide","class_code":"2","class_label":"土石流","status_code":"0","status_label":"特別警戒区域指定済み"}},{"type":"Feature","id":"lsld_8f74105c-448d-4f8e-9166-107f7bacaf6c","geometry":{"type":"Polygon","coordinates":[[[139.12295673494347,36.025],[139.1229163,36.0250776],[139.1228774,36.0251608],[139.1228679,36.0252322],[139.1228289,36.0253344],[139.1227994,36.0253533],[139.1227674,36.0253269],[139.1227177,36.0253028],[139.122671,36.0252787],[139.1226244,36.0252451],[139.1225836,36.0252138],[139.1225515,36.0251922],[139.1225049,36.0251586],[139.1224524,36.0251249],[139.1224088,36.0250865],[139.1223797,36.0250625],[139.1223446,36.0250433],[139.1223214,36.0250193],[139.12229325416666,36.025],[139.12295673494347,36.025]]]},"properties":{"layer":"landslide","class_code":"2","class_label":"土石流","status_code":"0","status_label":"特別警戒区域指定済み"}}]}