{"type":"FeatureCollection","properties":{"mesh_code":"54390050","source":"PLATEAU秩父市2025","layer":"landslide"},"features":[{"type":"Feature","id":"lsld_fd07b08f-f459-4001-bc79-9229a957296c","geometry":{"type":"Polygon","coordinates":[[[139.0102722,36.0441975],[139.0101587,36.044197],[139.0101417,36.0441969],[139.0100927,36.0441967],[139.0098483,36.0441956],[139.0098369,36.0441956],[139.0097386,36.0441951],[139.0097173,36.044195],[139.0095552,36.0441943],[139.0094143,36.0441892],[139.0092489,36.0441913],[139.0090633,36.0441917],[139.0089646,36.044191],[139.0088879,36.0441905],[139.0088802,36.04419],[139.008777,36.0441832],[139.0087696,36.0441827],[139.008768,36.0441753],[139.0087609,36.0441519],[139.0086939,36.0441258],[139.0085667,36.0440626],[139.0085596,36.0440652],[139.0085308,36.0440447],[139.0080991,36.0436764],[139.00799,36.0434755],[139.0079612,36.043412],[139.0079389,36.0433745],[139.007895,36.0433153],[139.0080549,36.0428236],[139.0080547,36.042823],[139.0081735,36.0425749],[139.00845,36.042211],[139.0084541,36.0422093],[139.0085581,36.0420975],[139.0085582,36.0420966],[139.0085601,36.0420937],[139.0085632,36.0420944],[139.0085974,36.0418988],[139.008597,36.0418984],[139.0086112,36.0418124],[139.008611,36.0418119],[139.0086320470939,36.041666666666664],[139.00976156925725,36.041666666666664],[139.0097565,36.0417304],[139.0097235,36.04194],[139.0097316,36.0419749],[139.0097332,36.0419753],[139.0097319,36.0420906],[139.0097338,36.0422476],[139.0096802,36.0424679],[139.0097285,36.0425736],[139.0097326,36.0425741],[139.0097574,36.0426825],[139.0098012,36.0428773],[139.0098089,36.0429465],[139.0098509,36.0430727],[139.0099045,36.0432232],[139.0099839,36.0433376],[139.0100707,36.043534],[139.0101149,36.0436631],[139.0101529,36.043774],[139.0101806,36.0438086],[139.0102926,36.0439484],[139.0102829,36.0440672],[139.010276,36.0441511],[139.0102755,36.0441563],[139.0102722,36.0441975]]]},"properties":{"layer":"landslide","class_code":"1","class_label":"急傾斜地の崩落","status_code":"0","status_label":"特別警戒区域指定済み"}},{"type":"Feature","id":"lsld_efe4d28c-be8b-4a48-a7c1-548e2ae55dd7","geometry":{"type":"Polygon","coordinates":[[[139.000283,36.0487338],[139.0002809,36.0487325],[139.000349,36.0485733],[139.0003477,36.0485724],[139.0004521,36.0484288],[139.0005869,36.0482766],[139.0005178,36.0481545],[139.0005662,36.0481305],[139.0006125,36.0481075],[139.0006701,36.048079],[139.0008229,36.0480031],[139.00187,36.0476641],[139.0019916,36.0476248],[139.0023855,36.0474972],[139.0026418,36.0477854],[139.0027074,36.0479917],[139.0026998,36.0480213],[139.0027003,36.0480218],[139.0028182,36.0481745],[139.0028206,36.0481768],[139.0027836,36.0482322],[139.0027342,36.0484844],[139.0026891,36.048525],[139.0026794,36.0485337],[139.0026524,36.048558],[139.0026462,36.0485636],[139.002584,36.0486195],[139.0025378,36.048661],[139.0025076,36.0486848],[139.002005,36.0485991],[139.000283,36.0487338]]]},"properties":{"layer":"landslide","class_code":"1","class_label":"急傾斜地の崩落","status_code":"0","status_label":"特別警戒区域指定済み"}},{"type":"Feature","id":"lsld_0512c2fa-2e1b-4f33-bbf1-10a9ae6f0ffc","geometry":{"type":"Polygon","coordinates":[[[139.0125,36.049587311898826],[139.0125,36.05],[139.01169656502205,36.05],[139.011816,36.0498771],[139.0120185,36.0497221],[139.0122402,36.0495713],[139.0125,36.049587311898826]]]},"properties":{"layer":"landslide","class_code":"1","class_label":"急傾斜地の崩落","status_code":"0","status_label":"特別警戒区域指定済み"}},{"type":"Feature","id":"lsld_a5c002b9-9704-42c6-a094-d84b3977e561","geometry":{"type":"Polygon","coordinates":[[[139.012358,36.0477824],[139.0122634,36.0479963],[139.0121724,36.0481545],[139.0120204,36.048349],[139.012016,36.0483537],[139.0118042,36.0485767],[139.0117511,36.0486326],[139.0114713,36.0483727],[139.0114336,36.0483376],[139.0113859,36.0482933],[139.011201,36.0481214],[139.0110814,36.0480067],[139.0109813,36.047908],[139.0108911,36.047796],[139.0108458,36.0477535],[139.0108201,36.0477293],[139.010781,36.0477238],[139.0107492,36.047727],[139.0110196,36.0476695],[139.0111033,36.047644],[139.0111181,36.0475838],[139.0111703,36.0474901],[139.0111745,36.0474843],[139.0112439,36.0474053],[139.0112825,36.0473361],[139.0114136,36.0471496],[139.0114137,36.047149],[139.0114312,36.0470884],[139.0114311,36.0470878],[139.0114333,36.0470849],[139.011435,36.0470844],[139.0115105,36.0470178],[139.0115788,36.0469475],[139.0116343,36.0468743],[139.011657,36.0468197],[139.0116418,36.0468123],[139.0116408,36.0468123],[139.0116649,36.0467771],[139.0116886,36.0467311],[139.0116919,36.0467246],[139.0117156,36.0466771],[139.0117446,36.0466187],[139.0117727,36.046577],[139.0118043,36.0465473],[139.0118527,36.0465072],[139.0119953,36.0464037],[139.0120345,36.0463752],[139.0120455,36.0463672],[139.0120567,36.0463591],[139.0120886,36.0463359],[139.0121193,36.0463136],[139.0121387,36.0462996],[139.0123505,36.0461458],[139.012409,36.0461034],[139.012463,36.0462057],[139.0125,36.04627572886749],[139.0125,36.0474916754258],[139.0124504,36.0475846],[139.012358,36.0477824]]]},"properties":{"layer":"landslide","class_code":"1","class_label":"急傾斜地の崩落","status_code":"0","status_label":"特別警戒区域指定済み"}},{"type":"Feature","id":"lsld_60d299cf-f136-41f5-860c-e17bd4301576","geometry":{"type":"Polygon","coordinates":[[[139.0125,36.04842314567405],[139.012424,36.0484522],[139.0122979,36.0484946],[139.0121757,36.0485263],[139.0120762,36.0485674],[139.0120284,36.0485902],[139.011969,36.0486223],[139.0119338,36.0486581],[139.0119139,36.0486456],[139.0118361,36.0485967],[139.0118074,36.0485786],[139.0118042,36.0485767],[139.0117391,36.0485357],[139.0117196,36.0485235],[139.0119366,36.0483774],[139.012016,36.0483537],[139.0121624,36.0483098],[139.0123545,36.0482625],[139.0125,36.04822167677515],[139.0125,36.04842314567405]]]},"properties":{"layer":"landslide","class_code":"1","class_label":"急傾斜地の崩落","status_code":"0","status_label":"特別警戒区域指定済み"}},{"type":"Feature","id":"lsld_bbbdbff6-5701-487b-8613-7c8e47b943b0","geometry":{"type":"Polygon","coordinates":[[[139.0123884,36.0452562],[139.0124396,36.0454144],[139.0125,36.045516330150065],[139.0125,36.04656717510361],[139.0122529,36.0466424],[139.0122363,36.0466475],[139.0120849,36.0466936],[139.0120705,36.0465748],[139.0120637,36.0465187],[139.012057,36.0464625],[139.0120539,36.0464369],[139.0120465,36.0463759],[139.0120455,36.0463672],[139.0120454,36.0463668],[139.0120427,36.0463577],[139.0120398,36.0463477],[139.0120332,36.0463258],[139.012021,36.0462968],[139.0119982,36.046271],[139.0119892,36.0462622],[139.0119774,36.0462505],[139.0119499,36.0462247],[139.0119462,36.0462213],[139.0119024,36.0461954],[139.011861,36.046171],[139.0118673,36.0461653],[139.011882,36.0461485],[139.0118813,36.0461189],[139.0118636,36.0460855],[139.0116402,36.0459738],[139.0116111,36.0459263],[139.0115475,36.0458127],[139.0112974,36.0456807],[139.0112972,36.0456802],[139.0110409,36.0455311],[139.0110409,36.0455306],[139.0110403,36.0455043],[139.011022,36.0454739],[139.0110024,36.045464],[139.0109554,36.0454431],[139.010904,36.0452225],[139.0107321,36.0451406],[139.0106479,36.0448295],[139.0105858,36.0447555],[139.0105958,36.0447264],[139.0106084,36.0446786],[139.0106106,36.0446677],[139.0106179,36.0446308],[139.0106225,36.0446014],[139.0106286,36.0445615],[139.0106326,36.0445356],[139.0106341,36.0445254],[139.0106376,36.0445027],[139.0106506,36.0444184],[139.0106948,36.0444327],[139.0109886,36.0445275],[139.0110932,36.0445613],[139.0113501,36.0444304],[139.0114255,36.0444339],[139.0117579,36.0445668],[139.0120429,36.0448499],[139.0120489,36.0448723],[139.0120546,36.0448667],[139.0122724,36.0450756],[139.012274,36.0450749],[139.0123884,36.0452562]]]},"properties":{"layer":"landslide","class_code":"1","class_label":"急傾斜地の崩落","status_code":"0","status_label":"特別警戒区域指定済み"}},{"type":"Feature","id":"lsld_deb7b7d0-b4df-47b7-ac5c-16dd707cef1e","geometry":{"type":"Polygon","coordinates":[[[139.0069767743094,36.05],[139.0069899,36.049987],[139.0072316,36.0499697],[139.0073841,36.0499998],[139.00738452455514,36.05],[139.00782341882356,36.05],[139.0078648,36.0499914],[139.00795385161288,36.05],[139.0069767743094,36.05]]]},"properties":{"layer":"landslide","class_code":"1","class_label":"急傾斜地の崩落","status_code":"0","status_label":"特別警戒区域指定済み"}},{"type":"Feature","id":"lsld_7b34ee47-51a0-4c3a-bed4-81b311741d40","geometry":{"type":"Polygon","coordinates":[[[139.0101031,36.0445537],[139.0099369,36.0446952],[139.0099395,36.0446698],[139.0099331,36.0446292],[139.0099232,36.0446069],[139.0099175,36.0445941],[139.0098953,36.0445497],[139.0098925,36.0445443],[139.0098664,36.0444942],[139.0098285,36.0444257],[139.0097982,36.0443599],[139.0097885,36.0443388],[139.0097805,36.0443158],[139.0097752,36.0443004],[139.00977,36.0442855],[139.0097445,36.0442122],[139.0097422,36.0442057],[139.0097386,36.0441951],[139.0097337,36.044181],[139.0096276,36.0438761],[139.0097653,36.0439158],[139.0098769,36.043948],[139.0099581,36.0438937],[139.0100172,36.0438542],[139.0101806,36.0438086],[139.0103979,36.043748],[139.0103981,36.0437474],[139.0107289,36.0440073],[139.010948,36.0441479],[139.0109583,36.0442195],[139.0110026,36.0445272],[139.0109886,36.0445275],[139.0107107,36.0445339],[139.01071,36.0445339],[139.0106569,36.0445351],[139.0106326,36.0445356],[139.0106032,36.0445363],[139.0105172,36.0445383],[139.0104521,36.0445378],[139.0104134,36.0445376],[139.010394,36.0445388],[139.0103742,36.0445401],[139.0103469,36.0445454],[139.0103178,36.0445563],[139.0102896,36.0445668],[139.0102834,36.044544],[139.010223,36.0445576],[139.0101905,36.0445501],[139.0101674,36.0445484],[139.0101031,36.0445537]]]},"properties":{"layer":"landslide","class_code":"1","class_label":"急傾斜地の崩落","status_code":"0","status_label":"特別警戒区域指定済み"}},{"type":"Feature","id":"lsld_e03c3b8c-526f-4ac4-8339-eedd74240ee9","geometry":{"type":"Polygon","coordinates":[[[139.0098369,36.0441956],[139.0097386,36.0441951],[139.0097173,36.044195],[139.0095552,36.0441943],[139.0094143,36.0441892],[139.0092489,36.0441913],[139.0090633,36.0441917],[139.0089646,36.044191],[139.0089623,36.0441739],[139.008944,36.0441453],[139.0088755,36.0440863],[139.0086911,36.0440064],[139.0082777,36.0437137],[139.0081682,36.0434453],[139.0081277,36.0433526],[139.0080959,36.0432987],[139.0080267,36.0432087],[139.0082255,36.0427731],[139.0082253,36.0427727],[139.0083369,36.0425122],[139.0086225,36.0421956],[139.0086383,36.0421102],[139.0087416,36.0419115],[139.0087415,36.0419112],[139.0087647,36.0418048],[139.0087647,36.0418045],[139.00879053372137,36.041666666666664],[139.00933289455745,36.041666666666664],[139.0093313,36.0416873],[139.0093016,36.0418829],[139.0093055,36.0419649],[139.0093071,36.0419652],[139.0093083,36.0421187],[139.0093089,36.042239],[139.0092546,36.0424714],[139.0093116,36.0426427],[139.0093155,36.0426427],[139.0093486,36.0427891],[139.0093828,36.0429447],[139.0093997,36.0430408],[139.0094592,36.0432078],[139.0095152,36.0433717],[139.0096149,36.0435164],[139.0096893,36.043697],[139.0097557,36.0439031],[139.0097653,36.0439158],[139.0098623,36.044044],[139.0098897,36.0440802],[139.0098369,36.0441956]]]},"properties":{"layer":"landslide","class_code":"1","class_label":"急傾斜地の崩落","status_code":"0","status_label":"特別警戒区域指定済み"}},{"type":"Feature","id":"lsld_3877fd0c-3493-41d7-b60a-0844e026ac29","geometry":{"type":"Polygon","coordinates":[[[139.0026462,36.0485636],[139.0021595,36.0485252],[139.000429,36.0486453],[139.0004264,36.0486442],[139.0004976,36.0484904],[139.0004958,36.0484891],[139.0006185,36.0483726],[139.0007597,36.0482387],[139.0006701,36.048079],[139.0008229,36.0480031],[139.00187,36.0476641],[139.0019916,36.0476248],[139.0022255,36.0478517],[139.002288,36.0480461],[139.0022951,36.0481262],[139.0022958,36.0481272],[139.0024165,36.0482885],[139.0024188,36.0482905],[139.0024608,36.0483836],[139.0026891,36.048525],[139.0026794,36.0485337],[139.0026524,36.048558],[139.0026462,36.0485636]]]},"properties":{"layer":"landslide","class_code":"1","class_label":"急傾斜地の崩落","status_code":"0","status_label":"特別警戒区域指定済み"}},{"type":"Feature","id":"lsld_bc473b38-4b1d-4f3a-ac16-1dbc622ee09c","geometry":{"type":"Polygon","coordinates":[[[139.0125,36.04984759747151],[139.0125,36.05],[139.01227370127796,36.05],[139.0123,36.0499798],[139.0124939,36.0498471],[139.0125,36.04984759747151]]]},"properties":{"layer":"landslide","class_code":"1","class_label":"急傾斜地の崩落","status_code":"0","status_label":"特別警戒区域指定済み"}},{"type":"Feature","id":"lsld_f7ac0c6f-07d5-4908-a2f4-e2a04acf936c","geometry":{"type":"Polygon","coordinates":[[[139.0121442,36.0464371],[139.0122025,36.0465432],[139.0122297,36.0466273],[139.0122363,36.0466475],[139.0122508,36.0466923],[139.0122655,36.0469088],[139.0122237,36.0470782],[139.0122334,36.0472132],[139.0121746,36.0472523],[139.012129,36.0473175],[139.0121286,36.0473178],[139.0120354,36.0475035],[139.0119554,36.0476732],[139.0118809,36.0478465],[139.0117963,36.0479941],[139.0116648,36.0481617],[139.0114713,36.0483727],[139.0114336,36.0483376],[139.0113859,36.0482933],[139.011201,36.0481214],[139.0110814,36.0480067],[139.0109813,36.047908],[139.0108911,36.047796],[139.0111264,36.0477674],[139.0112437,36.0477155],[139.011277,36.0476262],[139.0113271,36.0475067],[139.011437,36.0473503],[139.0115643,36.047145],[139.0115645,36.0471447],[139.011587,36.0470791],[139.0115871,36.0470785],[139.0116704,36.04704],[139.0117363,36.046945],[139.0117903,36.0468557],[139.0117771,36.0467346],[139.0117229,36.0466878],[139.0117156,36.0466771],[139.0117446,36.0466187],[139.0117727,36.046577],[139.0118043,36.0465473],[139.0118527,36.0465072],[139.0119953,36.0464037],[139.0120345,36.0463752],[139.0120455,36.0463672],[139.0120567,36.0463591],[139.0120886,36.0463359],[139.0121442,36.0464371]]]},"properties":{"layer":"landslide","class_code":"1","class_label":"急傾斜地の崩落","status_code":"0","status_label":"特別警戒区域指定済み"}},{"type":"Feature","id":"lsld_33742a6f-a47d-449f-8d7c-ead7ae3d2d6e","geometry":{"type":"Polygon","coordinates":[[[139.0125,36.04842314567405],[139.012424,36.0484522],[139.0122979,36.0484946],[139.0121757,36.0485263],[139.0120762,36.0485674],[139.0120284,36.0485902],[139.011969,36.0486223],[139.0119338,36.0486581],[139.0119139,36.0486456],[139.0118361,36.0485967],[139.0120008,36.0484885],[139.0122105,36.0484214],[139.0124047,36.0483717],[139.0125,36.04833982961753],[139.0125,36.04842314567405]]]},"properties":{"layer":"landslide","class_code":"1","class_label":"急傾斜地の崩落","status_code":"0","status_label":"特別警戒区域指定済み"}},{"type":"Feature","id":"lsld_f6887f3f-b564-45bd-963a-682d574487b7","geometry":{"type":"Polygon","coordinates":[[[139.0120031,36.0454094],[139.0120032,36.0454096],[139.0120671,36.0455918],[139.0121411,36.0457162],[139.0121847,36.0457779],[139.0123327,36.0459863],[139.0123609,36.0460857],[139.0123505,36.0461458],[139.0123345,36.0462386],[139.0123321,36.0462468],[139.0122881,36.0463951],[139.0121442,36.0464371],[139.012057,36.0464625],[139.0120539,36.0464369],[139.0120465,36.0463759],[139.0120455,36.0463672],[139.0120454,36.0463668],[139.0120427,36.0463577],[139.0120398,36.0463477],[139.0120332,36.0463258],[139.012021,36.0462968],[139.0119982,36.046271],[139.0119892,36.0462622],[139.0120176,36.0462476],[139.0120386,36.0462059],[139.0120551,36.0461114],[139.0120303,36.0460474],[139.0118104,36.0459636],[139.0117733,36.0458844],[139.0117048,36.0457603],[139.0114662,36.0456254],[139.0114659,36.045625],[139.0112236,36.0455157],[139.0112235,36.0455152],[139.0112111,36.0454604],[139.0111326,36.0453674],[139.0111037,36.0453428],[139.0110461,36.0453092],[139.0110049,36.0450975],[139.0108096,36.0450069],[139.0107691,36.0447152],[139.0106225,36.0446014],[139.0106286,36.0445615],[139.0106326,36.0445356],[139.0106341,36.0445254],[139.0106376,36.0445027],[139.0107099,36.0445335],[139.0107107,36.0445339],[139.0109417,36.0446322],[139.011082,36.0447066],[139.0112404,36.044752],[139.0114607,36.0448199],[139.0116427,36.0449691],[139.0116736,36.0450927],[139.0117843,36.0451339],[139.0118976,36.045243],[139.0118994,36.0452426],[139.0120031,36.0454094]]]},"properties":{"layer":"landslide","class_code":"1","class_label":"急傾斜地の崩落","status_code":"0","status_label":"特別警戒区域指定済み"}},{"type":"Feature","id":"lsld_87a1a381-ad6e-4dee-88c2-fddeed8a0d90","geometry":{"type":"Polygon","coordinates":[[[139.0102303,36.0443906],[139.0101765,36.0443939],[139.0100512,36.044411],[139.0098925,36.0445443],[139.0098664,36.0444942],[139.0098285,36.0444257],[139.0097982,36.0443599],[139.0097885,36.0443388],[139.0097805,36.0443158],[139.0097752,36.0443004],[139.00977,36.0442855],[139.0097445,36.0442122],[139.0098483,36.0441956],[139.0099619,36.0441775],[139.0101005,36.0441168],[139.0102829,36.0440672],[139.0103189,36.0440574],[139.0103196,36.0440573],[139.0104909,36.0441973],[139.0105331,36.0442209],[139.0106749,36.0443004],[139.0106948,36.0444327],[139.0107099,36.0445335],[139.01071,36.0445339],[139.0106569,36.0445351],[139.0106326,36.0445356],[139.0106032,36.0445363],[139.0105172,36.0445383],[139.0104521,36.0445378],[139.0104121,36.0444438],[139.0102907,36.0444158],[139.010231,36.0443905],[139.0102303,36.0443906]]]},"properties":{"layer":"landslide","class_code":"1","class_label":"急傾斜地の崩落","status_code":"0","status_label":"特別警戒区域指定済み"}},{"type":"Feature","id":"lsld_984a4b84-d06a-443c-9b19-610af4322da7","geometry":{"type":"Polygon","coordinates":[[[139.0125,36.04680415200399],[139.0124125,36.0467469],[139.0122529,36.0466424],[139.0122297,36.0466273],[139.0122129,36.0466163],[139.0120637,36.0465187],[139.0120133,36.0464857],[139.012026,36.0464197],[139.0120333,36.0463814],[139.0120345,36.0463752],[139.0120379,36.0463573],[139.0120398,36.0463477],[139.0120416,36.046338],[139.0121193,36.0463136],[139.0122808,36.0462629],[139.0123321,36.0462468],[139.012463,36.0462057],[139.0125,36.04619403978874],[139.0125,36.04680415200399]]]},"properties":{"layer":"landslide","class_code":"2","class_label":"土石流","status_code":"0","status_label":"特別警戒区域指定済み"}},{"type":"Feature","id":"lsld_054f5c1d-d280-457b-bfbc-8187510d0cdc","geometry":{"type":"Polygon","coordinates":[[[139.0042514,36.0492625],[139.0040053,36.0493207],[139.0037592,36.0493788],[139.0035131,36.0494369],[139.0030029,36.0495218],[139.002733,36.0494479],[139.0025328,36.0493516],[139.00233,36.0492212],[139.0019927,36.0492309],[139.001964,36.04919],[139.0019404,36.0491563],[139.0019177,36.0491241],[139.0018797,36.0490701],[139.0021632,36.0490571],[139.0023948,36.0490873],[139.002592,36.0491259],[139.0028097,36.0491581],[139.0030088,36.0491939],[139.0031601,36.049162],[139.0033051,36.0490253],[139.0033662,36.0488231],[139.0034273,36.048621],[139.0034884,36.0484189],[139.0035495,36.0482167],[139.0036106,36.0480146],[139.0037727,36.0474981],[139.0039122,36.0476926],[139.0040244,36.0478562],[139.0041316,36.0479962],[139.0042376,36.0481278],[139.0043671,36.0482765],[139.0045016,36.0484349],[139.0046089,36.0485664],[139.004703,36.0487128],[139.0047853,36.0488548],[139.0048692,36.0489809],[139.0049347,36.0491037],[139.0047437,36.0491463],[139.0044976,36.0492044],[139.0042514,36.0492625]]]},"properties":{"layer":"landslide","class_code":"2","class_label":"土石流","status_code":"0","status_label":"特別警戒区域指定済み"}},{"type":"Feature","id":"lsld_6a4e8e87-8632-409c-918e-26e384dea6ce","geometry":{"type":"Polygon","coordinates":[[[139.0117457,36.0494957],[139.0112125,36.0499328],[139.0112091,36.0499357],[139.01113041243096,36.05],[139.00924261680106,36.05],[139.0092177,36.0499254],[139.0092003,36.0498733],[139.0091332,36.0496725],[139.0090661,36.0494716],[139.0090075,36.0492959],[139.0090615,36.0493098],[139.0090623,36.04931],[139.0092329,36.0493656],[139.0092443,36.0493689],[139.0093479,36.0493985],[139.009457,36.0494168],[139.0094749,36.0494197],[139.0094754,36.0494198],[139.0096976,36.0494231],[139.0097617,36.0494313],[139.0099708,36.049458],[139.0100077,36.0494628],[139.0100136,36.0494635],[139.0101434,36.0494766],[139.0101466,36.0494769],[139.0101552,36.0494777],[139.0101758,36.0494795],[139.0102559,36.0494866],[139.0102766,36.0494874],[139.0102857,36.0494879],[139.0102996,36.0494883],[139.0103219,36.0494892],[139.0103804,36.04949],[139.0104849,36.04947],[139.0105213,36.0494683],[139.0105681,36.0494661],[139.0105696,36.0494661],[139.0105713,36.049466],[139.0105728,36.049466],[139.0106085,36.0494678],[139.0106562,36.04947],[139.0107377,36.0494599],[139.010769,36.0494508],[139.0107947,36.0494432],[139.0107958,36.0494429],[139.0107964,36.0494428],[139.0108048,36.0494412],[139.0108458,36.0494328],[139.0108601,36.0494316],[139.0108657,36.0494311],[139.0108822,36.0494299],[139.0109154,36.0494275],[139.0109812,36.0494268],[139.0110166,36.0494264],[139.011075,36.0494297],[139.0110831,36.0494301],[139.0110849,36.0494301],[139.0111949,36.0494284],[139.0111954,36.0494283],[139.0112102,36.0494261],[139.0113099,36.0494109],[139.0114832,36.0493739],[139.0114887,36.0493728],[139.011493,36.0493718],[139.0116106,36.0493422],[139.0118135,36.0492913],[139.0118143,36.0492911],[139.0118293,36.0492812],[139.0118294,36.0492807],[139.0118359,36.0492397],[139.0118426,36.0492228],[139.0118478,36.0492098],[139.0118606,36.0491989],[139.0118926,36.0491719],[139.0118939,36.0491709],[139.0119421,36.0491422],[139.0119567,36.0491334],[139.0119588,36.0491321],[139.0119674,36.049127],[139.0119732,36.0491169],[139.011976,36.0491121],[139.011985,36.0490874],[139.0119998,36.0490326],[139.012005,36.0490128],[139.0120268,36.0489825],[139.0120274,36.0489816],[139.0120656,36.0489586],[139.012081,36.049027],[139.012124,36.0491856],[139.0120745,36.0492261],[139.0119652,36.0493157],[139.0117457,36.0494957]]]},"properties":{"layer":"landslide","class_code":"2","class_label":"土石流","status_code":"0","status_label":"特別警戒区域指定済み"}},{"type":"Feature","id":"lsld_6369d50c-8378-4fc3-b3d1-424405e5aa5c","geometry":{"type":"Polygon","coordinates":[[[139.0117457,36.0494957],[139.0117348,36.0495402],[139.0117094,36.049643],[139.0116589,36.0498471],[139.01162114321411,36.05],[139.0093218789203,36.05],[139.0093216,36.0499998],[139.0092177,36.0499254],[139.0083738,36.0493209],[139.0083308,36.0492908],[139.0084854,36.0492861],[139.008582,36.049281],[139.0087887,36.0492571],[139.0088898,36.0492656],[139.0090075,36.0492959],[139.0090615,36.0493098],[139.0090623,36.04931],[139.0092443,36.0493689],[139.0093471,36.0493989],[139.009457,36.0494168],[139.0094749,36.0494197],[139.0094754,36.0494198],[139.0096976,36.0494231],[139.0096994,36.0494231],[139.009762,36.0494311],[139.0100088,36.0494624],[139.0101434,36.0494766],[139.0101466,36.0494769],[139.0101552,36.0494777],[139.0101758,36.0494795],[139.0102017,36.0494816],[139.0102551,36.0494863],[139.0102631,36.0494866],[139.0102766,36.0494874],[139.0102857,36.0494879],[139.0103224,36.0494899],[139.0103238,36.0494899],[139.010358,36.0494901],[139.0103795,36.0494903],[139.0103801,36.0494904],[139.0104847,36.0494703],[139.010485,36.0494703],[139.0104973,36.0494697],[139.0105213,36.0494683],[139.0105634,36.0494659],[139.0105681,36.0494661],[139.0105696,36.0494661],[139.0106085,36.0494678],[139.0106541,36.0494697],[139.0107356,36.0494595],[139.0107947,36.0494432],[139.0107958,36.0494429],[139.0107964,36.0494428],[139.0108048,36.0494412],[139.0108459,36.0494335],[139.0108601,36.0494316],[139.0108661,36.0494308],[139.0108822,36.0494299],[139.0109203,36.049428],[139.010921,36.0494279],[139.0110127,36.0494268],[139.0110599,36.049429],[139.011075,36.0494297],[139.0110831,36.0494301],[139.0110849,36.0494301],[139.0111949,36.0494284],[139.0111954,36.0494283],[139.0112102,36.0494261],[139.0113065,36.049411],[139.0114832,36.0493739],[139.0114887,36.0493728],[139.011493,36.0493718],[139.0116533,36.0493319],[139.0116539,36.0493317],[139.0116684,36.0493281],[139.0116821,36.0493246],[139.01172,36.0493151],[139.0117946,36.0492963],[139.0117876,36.0493249],[139.0117457,36.0494957]]]},"properties":{"layer":"landslide","class_code":"2","class_label":"土石流","status_code":"0","status_label":"特別警戒区域指定済み"}},{"type":"Feature","id":"lsld_4a4a6387-54b8-4af7-97ee-1361d4a559ce","geometry":{"type":"Polygon","coordinates":[[[139.0124365,36.0495201],[139.0125,36.049571637322266],[139.0125,36.05],[139.01010549336098,36.05],[139.0101054,36.0499985],[139.0101054,36.0499485],[139.0101047,36.0499032],[139.0101052,36.0498541],[139.010108,36.0498031],[139.0101127,36.0497555],[139.0101198,36.0496912],[139.010128,36.0496322],[139.0101368,36.0495774],[139.0101479,36.0495284],[139.0101591,36.0494782],[139.0101758,36.0494795],[139.0102017,36.0494816],[139.0102538,36.0494858],[139.0102631,36.0494866],[139.0102766,36.0494874],[139.0102857,36.0494879],[139.0103224,36.0494899],[139.0103238,36.0494899],[139.010358,36.0494901],[139.0103795,36.0494903],[139.0103804,36.04949],[139.0104847,36.0494703],[139.010485,36.0494703],[139.0104973,36.0494697],[139.0105681,36.0494661],[139.0105696,36.0494661],[139.0105713,36.049466],[139.0105728,36.049466],[139.0106085,36.0494678],[139.0106562,36.04947],[139.0107371,36.0494596],[139.0107413,36.0494584],[139.0107947,36.0494432],[139.0107958,36.0494429],[139.0107964,36.0494428],[139.0108048,36.0494412],[139.0108473,36.0494329],[139.0108601,36.0494316],[139.0108657,36.0494311],[139.0109203,36.049428],[139.010921,36.0494279],[139.0109812,36.0494268],[139.011014,36.0494262],[139.0110166,36.0494264],[139.0110599,36.049429],[139.0110812,36.0494302],[139.0110831,36.0494301],[139.0110849,36.0494301],[139.0111945,36.0494279],[139.0113065,36.049411],[139.0113108,36.0494104],[139.0114832,36.0493739],[139.0116106,36.0493422],[139.0116533,36.0493319],[139.0116539,36.0493317],[139.0116684,36.0493281],[139.0116821,36.0493246],[139.01172,36.0493151],[139.0117946,36.0492963],[139.0118127,36.0492918],[139.0118135,36.0492913],[139.0118294,36.0492807],[139.0118298,36.0492805],[139.0118333,36.0492575],[139.0118359,36.0492397],[139.011836,36.0492389],[139.0118426,36.0492228],[139.0118478,36.0492098],[139.0118481,36.0492091],[139.0118766,36.0491852],[139.0118919,36.0491722],[139.0118926,36.0491719],[139.0119321,36.0491489],[139.0119362,36.0491464],[139.0119567,36.0491334],[139.0119588,36.0491321],[139.012074,36.0492258],[139.0120745,36.0492261],[139.0121717,36.0493051],[139.0122553,36.0493729],[139.0124365,36.0495201]]]},"properties":{"layer":"landslide","class_code":"2","class_label":"土石流","status_code":"0","status_label":"特別警戒区域指定済み"}},{"type":"Feature","id":"lsld_f8c0508a-04bf-428c-81a4-6426613e417d","geometry":{"type":"Polygon","coordinates":[[[139.0093214931408,36.05],[139.0093216,36.0499998],[139.0093321,36.0499802],[139.009374,36.0499088],[139.009422,36.0498338],[139.0094715,36.0497626],[139.0095241,36.0496928],[139.0095797,36.0496246],[139.0096382,36.049558],[139.0096995,36.0494931],[139.0097617,36.0494313],[139.009762,36.0494311],[139.0099708,36.049458],[139.0100077,36.0494628],[139.0100136,36.0494635],[139.0101434,36.0494766],[139.0101466,36.0494769],[139.0101552,36.0494777],[139.0101758,36.0494795],[139.0102017,36.0494816],[139.0102486,36.0494855],[139.0102538,36.0494858],[139.0102996,36.0494883],[139.010323,36.0494896],[139.010358,36.0494901],[139.0103795,36.0494903],[139.0103801,36.0494904],[139.0104847,36.0494703],[139.010485,36.0494703],[139.0104973,36.0494697],[139.0105681,36.0494661],[139.0105696,36.0494661],[139.0105713,36.049466],[139.0105728,36.049466],[139.0106541,36.0494697],[139.0106559,36.0494698],[139.0107371,36.0494596],[139.0107413,36.0494584],[139.010769,36.0494508],[139.010794,36.0494439],[139.010805,36.0494418],[139.0108588,36.0495073],[139.0110006,36.0496807],[139.0111424,36.0498541],[139.0112091,36.0499357],[139.01126163267975,36.05],[139.0093214931408,36.05]]]},"properties":{"layer":"landslide","class_code":"2","class_label":"土石流","status_code":"0","status_label":"特別警戒区域指定済み"}},{"type":"Feature","id":"lsld_9c015234-75c1-4148-bf60-712bfa0a9370","geometry":{"type":"Polygon","coordinates":[[[139.0125,36.049288161102425],[139.0123235,36.0492972],[139.0121717,36.0493051],[139.0119652,36.0493157],[139.0117876,36.0493249],[139.0116539,36.0493317],[139.0116684,36.0493281],[139.0116821,36.0493246],[139.01172,36.0493151],[139.0117946,36.0492963],[139.0118127,36.0492918],[139.0118134,36.0492917],[139.0118143,36.0492911],[139.0118299,36.0492811],[139.0118333,36.0492575],[139.0118359,36.0492397],[139.011836,36.0492389],[139.0118426,36.0492228],[139.0118478,36.0492098],[139.0118606,36.0491989],[139.0118766,36.0491852],[139.0118919,36.0491722],[139.0118939,36.0491709],[139.0119362,36.0491464],[139.0119417,36.0491432],[139.0119567,36.0491334],[139.0119588,36.0491321],[139.0119671,36.0491267],[139.0119732,36.0491169],[139.011976,36.0491121],[139.0119857,36.0490865],[139.0119998,36.0490326],[139.012005,36.0490128],[139.0120261,36.0489829],[139.0120268,36.0489825],[139.0120656,36.0489586],[139.0120713,36.0489551],[139.0120832,36.0489409],[139.0120882,36.0489316],[139.0120931,36.0489136],[139.01209,36.0489028],[139.0120654,36.0488114],[139.0120545,36.048762],[139.0120603,36.0487361],[139.0120743,36.0486947],[139.0120876,36.0486867],[139.0121271,36.0486622],[139.0122419,36.0485967],[139.0123948,36.0485403],[139.0125,36.04850738983957],[139.0125,36.049288161102425]]]},"properties":{"layer":"landslide","class_code":"2","class_label":"土石流","status_code":"0","status_label":"特別警戒区域指定済み"}},{"type":"Feature","id":"lsld_906681ae-c927-4ad5-ab2a-37457d31a7a5","geometry":{"type":"Polygon","coordinates":[[[139.0125,36.041666666666664],[139.0125,36.04421419980491],[139.0123006,36.0442149],[139.0120443,36.0442157],[139.011788,36.0442166],[139.0115317,36.0442175],[139.0112755,36.0442184],[139.0110192,36.0442193],[139.0109583,36.0442195],[139.0107629,36.0442201],[139.0105331,36.0442209],[139.0105066,36.044221],[139.0103144,36.0442217],[139.0102503,36.0442219],[139.0100311,36.0442855],[139.0098057,36.0443548],[139.0097982,36.0443599],[139.0096743,36.0444431],[139.0094883,36.0445352],[139.0093925,36.0444462],[139.0093949,36.0444443],[139.0095633,36.0443251],[139.0097173,36.044195],[139.0097337,36.044181],[139.0097786,36.0441431],[139.0098623,36.044044],[139.0098905,36.0440107],[139.0099581,36.0438937],[139.0099834,36.04385],[139.0100152,36.0438048],[139.0101106,36.0436693],[139.0101149,36.0436631],[139.0102378,36.0434886],[139.010365,36.043308],[139.0104922,36.0431273],[139.0106194,36.0429466],[139.0107466,36.0427659],[139.0108738,36.0425852],[139.011001,36.0424045],[139.01153231704234,36.041666666666664],[139.0125,36.041666666666664]]]},"properties":{"layer":"landslide","class_code":"2","class_label":"土石流","status_code":"0","status_label":"特別警戒区域指定済み"}},{"type":"Feature","id":"lsld_dbf51bb7-d1fe-4224-9593-d621c12a0ce3","geometry":{"type":"Polygon","coordinates":[[[139.010276,36.0441511],[139.0102791,36.0441554],[139.0102755,36.0441563],[139.0102139,36.044172],[139.0101587,36.044197],[139.0100178,36.0442606],[139.0097994,36.0443091],[139.0097805,36.0443158],[139.0096109,36.0443765],[139.0094399,36.0444897],[139.0094275,36.0444782],[139.0094167,36.0444682],[139.0095859,36.0443499],[139.00977,36.0442855],[139.0097952,36.0442767],[139.010004,36.0442336],[139.0100927,36.0441967],[139.0101996,36.0441521],[139.0102618,36.0441314],[139.010276,36.0441511]]]},"properties":{"layer":"landslide","class_code":"2","class_label":"土石流","status_code":"0","status_label":"特別警戒区域指定済み"}},{"type":"Feature","id":"lsld_2805228d-c806-48b0-8f18-4eba637c53ab","geometry":{"type":"Polygon","coordinates":[[[139.0120427,36.0463577],[139.0120567,36.0463591],[139.0120932,36.0463626],[139.0120762,36.0464508],[139.0120539,36.0464369],[139.012026,36.0464197],[139.0120333,36.0463814],[139.0120345,36.0463752],[139.0120379,36.0463573],[139.0120427,36.0463577]]]},"properties":{"layer":"landslide","class_code":"2","class_label":"土石流","status_code":"0","status_label":"特別警戒区域指定済み"}},{"type":"Feature","id":"lsld_5ad1aa49-a713-4815-b209-1c9ccf494b38","geometry":{"type":"Polygon","coordinates":[[[139.0019177,36.0491241],[139.0021526,36.0490901],[139.0023615,36.0491562],[139.0025769,36.0491837],[139.0026651,36.0492016],[139.0026533,36.0492289],[139.0025704,36.0492083],[139.0023461,36.049188],[139.0021449,36.0491144],[139.001964,36.04919],[139.0019404,36.0491563],[139.0019177,36.0491241]]]},"properties":{"layer":"landslide","class_code":"2","class_label":"土石流","status_code":"0","status_label":"特別警戒区域指定済み"}},{"type":"Feature","id":"lsld_7895dbb8-fd61-4d3b-b851-597beed755cf","geometry":{"type":"Polygon","coordinates":[[[139.0001428,36.0460399],[139.000116,36.0460407],[139.0000649,36.0458618],[139.0000505,36.0458081],[139.0001327,36.0458057],[139.0001515,36.0458593],[139.0001852,36.0460387],[139.0001428,36.0460399]]]},"properties":{"layer":"landslide","class_code":"2","class_label":"土石流","status_code":"0","status_label":"特別警戒区域指定済み"}},{"type":"Feature","id":"lsld_c9696173-7f8f-40d9-b834-adc7adb8aa80","geometry":{"type":"Polygon","coordinates":[[[139.0,36.046377685547654],[139.0,36.045220990120484],[139.0000238,36.0452158],[139.0000683,36.0452136],[139.0000793,36.0453752],[139.0004049,36.0452253],[139.0007385,36.0451573],[139.0007447,36.0451582],[139.0011241,36.045213],[139.0015236,36.0452674],[139.0019409,36.0454691],[139.0021385,36.045906],[139.0020919,36.0459141],[139.0017281,36.0459774],[139.0016133,36.0459973],[139.0014426,36.046027],[139.0013424,36.0460466],[139.0012722,36.0460603],[139.0012144,36.0460716],[139.0011643,36.0460814],[139.0009575,36.0460891],[139.0009378,36.0460686],[139.0008598,36.0460316],[139.0007113,36.0460026],[139.0006061,36.046009],[139.0005258,36.0462002],[139.0,36.046377685547654]]]},"properties":{"layer":"landslide","class_code":"1","class_label":"急傾斜地の崩落","status_code":"0","status_label":"特別警戒区域指定済み"}},{"type":"Feature","id":"lsld_238d1382-0905-43cf-a91b-49490ef588cb","geometry":{"type":"Polygon","coordinates":[[[139.0,36.04557581875],[139.0000449,36.0455674],[139.0000924,36.0455667],[139.0002169,36.0457088],[139.0004647,36.0455865],[139.0004908,36.0455737],[139.0007511,36.0455066],[139.0010519,36.0455571],[139.0013498,36.0455888],[139.0016369,36.0457187],[139.0017281,36.0459774],[139.0016133,36.0459973],[139.0014426,36.046027],[139.0013424,36.0460466],[139.001125,36.0460183],[139.0010648,36.0459586],[139.0009406,36.0459117],[139.0007364,36.0458691],[139.0005679,36.0458852],[139.0004397,36.046079],[139.0,36.04624679080146],[139.0,36.04557581875]]]},"properties":{"layer":"landslide","class_code":"1","class_label":"急傾斜地の崩落","status_code":"0","status_label":"特別警戒区域指定済み"}},{"type":"Feature","id":"lsld_5cabbe8b-c0a2-40f4-af38-c4b8ed781651","geometry":{"type":"Polygon","coordinates":[[[139.000212,36.0438776],[139.0002585,36.0438789],[139.0003049,36.0438809],[139.0003513,36.0438835],[139.0003976,36.0438868],[139.0004438,36.0438907],[139.0004899,36.0438953],[139.000536,36.0439006],[139.0005819,36.0439065],[139.0006277,36.043913],[139.0006733,36.0439202],[139.0007188,36.043928],[139.0007641,36.0439365],[139.0008092,36.0439457],[139.0008541,36.0439554],[139.0008988,36.0439658],[139.0009432,36.0439769],[139.0009874,36.0439885],[139.0010314,36.0440008],[139.0010751,36.0440137],[139.0011185,36.0440272],[139.0011616,36.0440414],[139.0012044,36.0440561],[139.0012468,36.0440715],[139.001289,36.0440874],[139.0013307,36.0441039],[139.0013722,36.0441211],[139.0014116,36.0441381],[139.0013706,36.0442008],[139.0012504,36.0443846],[139.0011303,36.0445684],[139.0010101,36.0447523],[139.0008899,36.0449361],[139.0007697,36.0451199],[139.0007447,36.0451582],[139.0006496,36.0453038],[139.0005294,36.0454876],[139.0004647,36.0455865],[139.0004092,36.0456714],[139.000289,36.0458553],[139.000262,36.0460365],[139.0001852,36.0460387],[139.0001428,36.0460399],[139.000116,36.0460407],[139.0000388,36.0460429],[139.0,36.04599254558824],[139.0,36.043880025],[139.0000261,36.0438789],[139.0000726,36.0438776],[139.0001191,36.0438769],[139.0001655,36.0438769],[139.000212,36.0438776]]]},"properties":{"layer":"landslide","class_code":"2","class_label":"土石流","status_code":"0","status_label":"特別警戒区域指定済み"}},{"type":"Feature","id":"lsld_6d64ae93-c814-4c1c-a1fa-20c468221db8","geometry":{"type":"Polygon","coordinates":[[[139.0004694959893,36.05],[139.0004942,36.0499803],[139.0005932,36.0499144],[139.0006867,36.0498662],[139.0007307,36.0498355],[139.0008245,36.0497518],[139.0008909,36.0496812],[139.0009902,36.0495931],[139.001073,36.0495138],[139.0011342,36.0494121],[139.0011898,36.0493237],[139.0012179,36.0492529],[139.0012566,36.0492044],[139.0013285,36.049125],[139.0013668,36.0491208],[139.0014311,36.0491612],[139.0014744,36.049197],[139.0015031,36.0492445],[139.0015603,36.0493515],[139.0015815,36.0494108],[139.0015953,36.0494819],[139.0015869,36.0495884],[139.0015861,36.0496712],[139.001578,36.0497422],[139.001577,36.0498369],[139.001583,36.0499612],[139.0015857963964,36.05],[139.0004694959893,36.05]]]},"properties":{"layer":"landslide","class_code":"3","class_label":"地すべり","status_code":"0","status_label":"特別警戒区域指定済み"}}]}