{"type":"FeatureCollection","properties":{"mesh_code":"54390063","source":"PLATEAU秩父市2025","layer":"landslide"},"features":[{"type":"Feature","id":"lsld_f5d50a30-ab0e-43c5-abc5-510b5955832e","geometry":{"type":"Polygon","coordinates":[[[139.0434234,36.0529485],[139.0434134,36.05295],[139.0434216,36.052947],[139.043361,36.0528913],[139.0432628,36.0528176],[139.0432708,36.0525571],[139.0433243,36.0525184],[139.0433537,36.0524972],[139.0434239,36.0524464],[139.0435292,36.0523703],[139.0435295,36.0523701],[139.0435943,36.0523233],[139.0437365,36.0522205],[139.0440447,36.052193],[139.0441113,36.0522525],[139.0442568,36.0523657],[139.0442002,36.0524134],[139.0440475,36.0525995],[139.0439575,36.0528457],[139.0438901,36.0528628],[139.043837,36.0528763],[139.0438245,36.0528795],[139.0437344,36.0529024],[139.043676,36.0529173],[139.0436285,36.0529293],[139.0436189,36.0529175],[139.0434234,36.0529485]]]},"properties":{"layer":"landslide","class_code":"1","class_label":"急傾斜地の崩落","status_code":"0","status_label":"特別警戒区域指定済み"}},{"type":"Feature","id":"lsld_58638fdc-5fae-45e6-a63c-72beb0db7994","geometry":{"type":"Polygon","coordinates":[[[139.0447408,36.0538218],[139.0446831,36.0538467],[139.0446483,36.0538618],[139.0446428,36.0538641],[139.0445978,36.0538836],[139.0444998,36.0539259],[139.0444298,36.0538224],[139.044485,36.0537974],[139.0445268,36.0537785],[139.0446075,36.053742],[139.0446114,36.0537403],[139.0446522,36.0537218],[139.0447045,36.0536981],[139.0447408,36.0538218]]]},"properties":{"layer":"landslide","class_code":"1","class_label":"急傾斜地の崩落","status_code":"0","status_label":"特別警戒区域指定済み"}},{"type":"Feature","id":"lsld_122c0c82-a763-4355-a357-3ec217ff95ef","geometry":{"type":"Polygon","coordinates":[[[139.0456597,36.0541241],[139.0457856,36.0541521],[139.0456955,36.0545067],[139.0456739,36.0545918],[139.0456735,36.0545934],[139.0455729,36.0549891],[139.0454905,36.0552092],[139.0454529,36.0553099],[139.0454381,36.0553494],[139.0454206,36.0553961],[139.0453641,36.0553873],[139.0452686,36.0553755],[139.0452851,36.0553247],[139.0452969,36.0552883],[139.0453415,36.0551513],[139.0453974,36.0549793],[139.0454779,36.0545305],[139.0454782,36.0545288],[139.0454936,36.0544429],[139.0455578,36.0540845],[139.0456597,36.0541241]]]},"properties":{"layer":"landslide","class_code":"1","class_label":"急傾斜地の崩落","status_code":"0","status_label":"特別警戒区域指定済み"}},{"type":"Feature","id":"lsld_0d1d4309-f0b5-4ef3-b9ce-1580b55772bf","geometry":{"type":"Polygon","coordinates":[[[139.0488741,36.0574438],[139.0489193,36.0574925],[139.0489898,36.0575687],[139.0491523,36.0577442],[139.0491779,36.0577893],[139.0492105,36.0578466],[139.0492117,36.0578487],[139.049257,36.0579284],[139.0491538,36.0579475],[139.0489983,36.0580279],[139.048995,36.0580302],[139.0489138,36.0581909],[139.0489117,36.0581967],[139.0487877,36.0582791],[139.0487660463073,36.05833333333333],[139.04857654060638,36.05833333333333],[139.0483142,36.0579842],[139.0482466,36.0578942],[139.048167,36.0577883],[139.0480252,36.0575995],[139.0481695,36.0574891],[139.0482987,36.0572978],[139.0483046,36.0572967],[139.0484483,36.0572357],[139.0484517,36.0572338],[139.04861,36.0572532],[139.0486563,36.0572085],[139.0488741,36.0574438]]]},"properties":{"layer":"landslide","class_code":"1","class_label":"急傾斜地の崩落","status_code":"0","status_label":"特別警戒区域指定済み"}},{"type":"Feature","id":"lsld_dcb3ae84-08e7-4a1a-8ab2-b26a0dbe1007","geometry":{"type":"Polygon","coordinates":[[[139.0469337,36.0548599],[139.0469218,36.054883],[139.0469077,36.0549103],[139.046894,36.0549369],[139.0468614,36.0550004],[139.0468484,36.0550256],[139.0468186,36.0550835],[139.0466068,36.0550165],[139.0464917,36.0549129],[139.0465409,36.0548519],[139.0465525,36.0548375],[139.0466038,36.054774],[139.0466098,36.0547665],[139.0466401,36.0547289],[139.0466422,36.0547264],[139.0466778,36.0546822],[139.0468167,36.0548173],[139.0469685,36.0547922],[139.0469337,36.0548599]]]},"properties":{"layer":"landslide","class_code":"1","class_label":"急傾斜地の崩落","status_code":"0","status_label":"特別警戒区域指定済み"}},{"type":"Feature","id":"lsld_dac8f214-b4aa-4331-82ce-2472227f3804","geometry":{"type":"Polygon","coordinates":[[[139.0456955,36.0545067],[139.0456739,36.0545918],[139.0456735,36.0545934],[139.0455729,36.0549891],[139.0454905,36.0552092],[139.0454308,36.0551904],[139.0453415,36.0551513],[139.0453974,36.0549793],[139.0454779,36.0545305],[139.0454782,36.0545288],[139.0454936,36.0544429],[139.0455941,36.0544823],[139.0456955,36.0545067]]]},"properties":{"layer":"landslide","class_code":"1","class_label":"急傾斜地の崩落","status_code":"0","status_label":"特別警戒区域指定済み"}},{"type":"Feature","id":"lsld_e016d6b6-5f81-4efb-a8a6-dac69a297e5f","geometry":{"type":"Polygon","coordinates":[[[139.0491779,36.0577893],[139.0490588,36.0578263],[139.0489089,36.0578981],[139.0489056,36.0579004],[139.048826,36.0580621],[139.0488238,36.0580678],[139.0486939,36.0581591],[139.04862501143958,36.05833333333333],[139.04857654060638,36.05833333333333],[139.0483142,36.0579842],[139.0482466,36.0578942],[139.0483986,36.0577818],[139.0485059,36.0576016],[139.0485116,36.0576005],[139.0486589,36.0575419],[139.0486624,36.05754],[139.048843,36.0575507],[139.0489193,36.0574925],[139.0489898,36.0575687],[139.0491523,36.0577442],[139.0491779,36.0577893]]]},"properties":{"layer":"landslide","class_code":"1","class_label":"急傾斜地の崩落","status_code":"0","status_label":"特別警戒区域指定済み"}},{"type":"Feature","id":"lsld_50247e8b-542c-45f9-bbf2-c9c63467a9d8","geometry":{"type":"Polygon","coordinates":[[[139.0469218,36.054883],[139.0469077,36.0549103],[139.046894,36.0549369],[139.0467224,36.0549069],[139.0466038,36.054774],[139.0466098,36.0547665],[139.0466401,36.0547289],[139.0467695,36.0548621],[139.0469337,36.0548599],[139.0469218,36.054883]]]},"properties":{"layer":"landslide","class_code":"1","class_label":"急傾斜地の崩落","status_code":"0","status_label":"特別警戒区域指定済み"}},{"type":"Feature","id":"lsld_dcfd3c09-49ec-4bd3-a081-a287c79db678","geometry":{"type":"Polygon","coordinates":[[[139.0438245,36.0528795],[139.0437749,36.0528264],[139.0435911,36.0528838],[139.0435695,36.0528464],[139.0434934,36.0527785],[139.0434199,36.0526921],[139.0434239,36.0524464],[139.0435292,36.0523703],[139.0435295,36.0523701],[139.0435943,36.0523233],[139.0437465,36.0524312],[139.0438079,36.0525108],[139.0439235,36.0525988],[139.0439025,36.0526477],[139.0439229,36.0527061],[139.0438901,36.0528628],[139.043837,36.0528763],[139.0438245,36.0528795]]]},"properties":{"layer":"landslide","class_code":"1","class_label":"急傾斜地の崩落","status_code":"0","status_label":"特別警戒区域指定済み"}},{"type":"Feature","id":"lsld_485a429d-74a8-431d-99d2-ca48115d3025","geometry":{"type":"Polygon","coordinates":[[[139.0446831,36.0538467],[139.0446483,36.0538618],[139.0446428,36.0538641],[139.0446075,36.053742],[139.0446114,36.0537403],[139.0446522,36.0537218],[139.0446831,36.0538467]]]},"properties":{"layer":"landslide","class_code":"1","class_label":"急傾斜地の崩落","status_code":"0","status_label":"特別警戒区域指定済み"}}]}