{"type":"FeatureCollection","properties":{"mesh_code":"54390111","source":"PLATEAU秩父市2025","layer":"landslide"},"features":[{"type":"Feature","id":"lsld_b477cd74-350a-48bd-9c3a-0c42b1474d27","geometry":{"type":"Polygon","coordinates":[[[139.1475532,36.0157345],[139.1475739,36.015748],[139.147631,36.0157984],[139.1476555,36.01582],[139.147677,36.0158445],[139.1477253,36.0158991],[139.1477316,36.015909],[139.1477734,36.0159744],[139.1478503,36.0160945],[139.1479531,36.0162991],[139.1479069,36.0163839],[139.1478708,36.0164585],[139.1477404,36.0165929],[139.1474334,36.0166079],[139.147414,36.0165949],[139.1472881,36.0165108],[139.1472191,36.0164648],[139.1472068,36.0164566],[139.1471172,36.0163939],[139.1470494,36.0163465],[139.147004,36.0163147],[139.1469654,36.0162877],[139.1469116,36.0159493],[139.14713,36.0156954],[139.1475532,36.0157345]]]},"properties":{"layer":"landslide","class_code":"1","class_label":"急傾斜地の崩落","status_code":"0","status_label":"特別警戒区域指定済み"}},{"type":"Feature","id":"lsld_02e787e4-11ee-460f-92c7-dcf46a5141d8","geometry":{"type":"Polygon","coordinates":[[[139.1498735,36.0161014],[139.1498273,36.0161128],[139.1498263,36.0161098],[139.1497977,36.0160274],[139.1497972,36.016026],[139.1497764,36.0159694],[139.149746,36.0158864],[139.1495721,36.0156362],[139.1494759,36.0155534],[139.1493361,36.0154321],[139.1492644,36.0154055],[139.149252,36.0154007],[139.1491927,36.0153777],[139.1491547,36.0153655],[139.1491344,36.0153596],[139.14908,36.0153436],[139.1489727,36.0153122],[139.1489712,36.015299],[139.1489765,36.0152708],[139.1489856,36.0152483],[139.1489868,36.0152217],[139.1489753,36.0151765],[139.1489656,36.015149],[139.1489606,36.0151321],[139.1490047,36.0151108],[139.1490696,36.0150795],[139.1495171,36.0148842],[139.1497303,36.0148877],[139.1499726,36.0149675],[139.15,36.014976538809826],[139.15,36.01583738091282],[139.1499895,36.0159033],[139.1499773,36.0159516],[139.1499614,36.0160142],[139.1499424,36.016089],[139.149939,36.0161024],[139.1499274,36.0160987],[139.1499081,36.0160971],[139.1498735,36.0161014]]]},"properties":{"layer":"landslide","class_code":"1","class_label":"急傾斜地の崩落","status_code":"0","status_label":"特別警戒区域指定済み"}},{"type":"Feature","id":"lsld_d860be2c-1b21-4f44-a4a2-666659ee16f5","geometry":{"type":"Polygon","coordinates":[[[139.1483854,36.0158995],[139.1484419,36.0159303],[139.1484894,36.015962],[139.1485116,36.0159767],[139.1485971,36.0160093],[139.1487719,36.016052],[139.1490182,36.0161367],[139.1492653,36.0162478],[139.1494845,36.0163587],[139.1496012,36.0164035],[139.1496652,36.0164281],[139.1497273,36.0164519],[139.1497655,36.0164666],[139.1497623,36.0164698],[139.1497591,36.0164744],[139.1497491,36.0164899],[139.1491132181067,36.016666666666666],[139.1481559860149,36.016666666666666],[139.148141,36.0166523],[139.1481251,36.0166377],[139.1480464,36.016566],[139.1479992,36.016523],[139.147966,36.0164926],[139.1479851,36.0164321],[139.1480394,36.0163226],[139.1480945,36.0162564],[139.1481185,36.0162142],[139.1481577,36.0161278],[139.1481742,36.0160806],[139.1482207,36.0160113],[139.1482345,36.0159913],[139.1482595,36.0159682],[139.1483131,36.0159302],[139.1483704,36.0158913],[139.1483854,36.0158995]]]},"properties":{"layer":"landslide","class_code":"1","class_label":"急傾斜地の崩落","status_code":"0","status_label":"特別警戒区域指定済み"}},{"type":"Feature","id":"lsld_0ded80d1-78cd-4163-90d8-c9994e907ec0","geometry":{"type":"Polygon","coordinates":[[[139.1477734,36.0159744],[139.1476129,36.0161608],[139.1474452,36.0163271],[139.1472881,36.0165108],[139.1472191,36.0164648],[139.1472068,36.0164566],[139.1471172,36.0163939],[139.1470384,36.0160711],[139.1472264,36.015825],[139.147677,36.0158445],[139.1477253,36.0158991],[139.1477316,36.015909],[139.1477734,36.0159744]]]},"properties":{"layer":"landslide","class_code":"1","class_label":"急傾斜地の崩落","status_code":"0","status_label":"特別警戒区域指定済み"}},{"type":"Feature","id":"lsld_d2338705-2080-4fab-9618-89d740158d64","geometry":{"type":"Polygon","coordinates":[[[139.1498793,36.0159452],[139.14982,36.0159533],[139.1497764,36.0159694],[139.149746,36.0158864],[139.1495721,36.0156362],[139.1494759,36.0155534],[139.1493361,36.0154321],[139.1492644,36.0154055],[139.149252,36.0154007],[139.1491927,36.0153777],[139.1491547,36.0153655],[139.1491344,36.0153596],[139.1494108,36.0152923],[139.1495618,36.0152439],[139.1496361,36.0152201],[139.1497304,36.0152289],[139.1497901,36.0152345],[139.15,36.015322517366194],[139.15,36.01583738091282],[139.1499895,36.0159033],[139.1499773,36.0159516],[139.1499319,36.0159443],[139.1498793,36.0159452]]]},"properties":{"layer":"landslide","class_code":"1","class_label":"急傾斜地の崩落","status_code":"0","status_label":"特別警戒区域指定済み"}},{"type":"Feature","id":"lsld_938b45e7-cabb-4988-92fa-7546b1d59da5","geometry":{"type":"Polygon","coordinates":[[[139.1496012,36.0164035],[139.1495959,36.0164138],[139.1495943,36.0164223],[139.149578,36.0164482],[139.148681445658,36.016666666666666],[139.1481559860149,36.016666666666666],[139.148141,36.0166523],[139.1481251,36.0166377],[139.1480464,36.016566],[139.1482176,36.0165162],[139.1482996,36.0164387],[139.148273,36.0162979],[139.1483581,36.0161205],[139.1483536,36.0160219],[139.1483854,36.0158995],[139.1484419,36.0159303],[139.1484894,36.015962],[139.1485116,36.0159767],[139.1485971,36.0160093],[139.1487719,36.016052],[139.1490182,36.0161367],[139.1492653,36.0162478],[139.1494845,36.0163587],[139.1496012,36.0164035]]]},"properties":{"layer":"landslide","class_code":"1","class_label":"急傾斜地の崩落","status_code":"0","status_label":"特別警戒区域指定済み"}},{"type":"Feature","id":"lsld_812fc4d5-a906-4deb-b3ab-4999daac0e26","geometry":{"type":"Polygon","coordinates":[[[139.15,36.015210567430024],[139.1498103,36.0151985],[139.1497304,36.0152289],[139.1497151,36.0152347],[139.1496211,36.0152575],[139.1495618,36.0152439],[139.1491282,36.0151442],[139.1490047,36.0151108],[139.1489626,36.0150994],[139.1489453,36.015066],[139.1489133,36.0150372],[139.1489107,36.0149991],[139.1489051,36.0149681],[139.1489023,36.0149466],[139.1488998,36.0149061],[139.1489088,36.0148799],[139.1489211,36.0148085],[139.1489479,36.014761],[139.1489776,36.0147231],[139.1490337,36.0146805],[139.1490838,36.0146498],[139.1491279,36.014631],[139.1491692,36.014605],[139.1492164,36.0145791],[139.1492782,36.0145485],[139.1493194,36.0145344],[139.1493635,36.0145156],[139.1493695,36.014512],[139.1494019,36.014492],[139.1494225,36.0144802],[139.1494636,36.0144733],[139.149493,36.0144663],[139.1495224,36.0144617],[139.1495489,36.01445],[139.149587,36.0144478],[139.149634,36.0144385],[139.1497276,36.0144439],[139.1497718,36.0144465],[139.1499067,36.0144425],[139.1499268,36.0145111],[139.15,36.014589941897235],[139.15,36.015210567430024]]]},"properties":{"layer":"landslide","class_code":"2","class_label":"土石流","status_code":"0","status_label":"特別警戒区域指定済み"}},{"type":"Feature","id":"lsld_54354c2b-a15e-4ce7-80a5-4dbb6778e527","geometry":{"type":"Polygon","coordinates":[[[139.1497276,36.0144439],[139.1497779,36.0144782],[139.1498611,36.0146715],[139.15,36.014726775209695],[139.15,36.01500131942858],[139.1499726,36.0149675],[139.149883,36.0148571],[139.1498071,36.0148034],[139.1495585,36.0147031],[139.1493897,36.01453],[139.1493695,36.014512],[139.1494019,36.014492],[139.1494225,36.0144802],[139.1494636,36.0144733],[139.149493,36.0144663],[139.1495224,36.0144617],[139.1495489,36.01445],[139.149587,36.0144478],[139.149634,36.0144385],[139.1497276,36.0144439]]]},"properties":{"layer":"landslide","class_code":"2","class_label":"土石流","status_code":"0","status_label":"特別警戒区域指定済み"}}]}