{"type":"FeatureCollection","properties":{"mesh_code":"54390016","source":"PLATEAU秩父市2025","layer":"landslide"},"features":[{"type":"Feature","id":"lsld_30243755-e5a3-4d33-b430-eafdb94997a6","geometry":{"type":"Polygon","coordinates":[[[139.0859415,36.0164705],[139.0859614,36.0165853],[139.0859270306546,36.016666666666666],[139.0855676711204,36.016666666666666],[139.0855692,36.0166385],[139.0854979,36.0166252],[139.0856258,36.0165283],[139.0856728,36.0164927],[139.0856894,36.0164801],[139.0857784,36.0164126],[139.0858438,36.0163631],[139.0858496,36.0163586],[139.0859249,36.0163016],[139.0859415,36.0164705]]]},"properties":{"layer":"landslide","class_code":"1","class_label":"急傾斜地の崩落","status_code":"0","status_label":"特別警戒区域指定済み"}},{"type":"Feature","id":"lsld_d5b6850b-d103-4579-ad17-501e4475a9d1","geometry":{"type":"Polygon","coordinates":[[[139.0755656,36.0159875],[139.0757802,36.0162146],[139.0760401,36.0164351],[139.0760133,36.0165601],[139.07609166758914,36.016666666666666],[139.075,36.016666666666666],[139.075,36.0160287318408],[139.0750007,36.0160285],[139.0750211,36.0160218],[139.0755143,36.0158584],[139.0755656,36.0159875]]]},"properties":{"layer":"landslide","class_code":"1","class_label":"急傾斜地の崩落","status_code":"0","status_label":"特別警戒区域指定済み"}},{"type":"Feature","id":"lsld_32ca22b8-c2c2-4ba0-af98-33c64cd1c2d3","geometry":{"type":"Polygon","coordinates":[[[139.08572156523832,36.016666666666666],[139.0857522,36.0166389],[139.0856743,36.01656],[139.0856258,36.0165283],[139.0856728,36.0164927],[139.0856894,36.0164801],[139.0857784,36.0164126],[139.0857774,36.0164913],[139.085828,36.0166195],[139.08579976779603,36.016666666666666],[139.08572156523832,36.016666666666666]]]},"properties":{"layer":"landslide","class_code":"1","class_label":"急傾斜地の崩落","status_code":"0","status_label":"特別警戒区域指定済み"}}]}