{"type":"FeatureCollection","properties":{"mesh_code":"54390061","source":"PLATEAU秩父市2025","layer":"landslide"},"features":[{"type":"Feature","id":"lsld_0512c2fa-2e1b-4f33-bbf1-10a9ae6f0ffc","geometry":{"type":"Polygon","coordinates":[[[139.0125,36.05],[139.01288400274598,36.05],[139.0130125,36.0501654],[139.0131507,36.0503554],[139.0132227,36.0504456],[139.0133317,36.0505857],[139.01338,36.0506489],[139.0133921,36.0506647],[139.0134115,36.0506929],[139.0134407,36.0507355],[139.0134655,36.0507716],[139.0133848,36.0507906],[139.0133221,36.0508357],[139.0133121,36.050845],[139.0133005,36.0508607],[139.0132961,36.0508777],[139.0132951,36.0508979],[139.0132973,36.0509129],[139.0132912,36.0509129],[139.0131863,36.0509122],[139.0131069,36.0509116],[139.0130984,36.0509116],[139.0129513,36.0509085],[139.0127114,36.0509012],[139.012509,36.0508916],[139.0125,36.05089116258065],[139.0125,36.05]]]},"properties":{"layer":"landslide","class_code":"1","class_label":"急傾斜地の崩落","status_code":"0","status_label":"特別警戒区域指定済み"}},{"type":"Feature","id":"lsld_3c3a1b03-de51-4483-917a-209025a02f67","geometry":{"type":"Polygon","coordinates":[[[139.025,36.05660083706851],[139.0246806,36.056658],[139.0242224,36.0566849],[139.0241577,36.0566759],[139.0239816,36.0566545],[139.0235156,36.0565025],[139.0236956,36.056203],[139.0237645,36.0560723],[139.0237696,36.0560599],[139.0237987,36.0560162],[139.024253,36.055597],[139.0243957,36.0555186],[139.024508,36.0554478],[139.0247736,36.0553232],[139.025,36.05519554273094],[139.025,36.05660083706851]]]},"properties":{"layer":"landslide","class_code":"1","class_label":"急傾斜地の崩落","status_code":"0","status_label":"特別警戒区域指定済み"}},{"type":"Feature","id":"lsld_bc473b38-4b1d-4f3a-ac16-1dbc622ee09c","geometry":{"type":"Polygon","coordinates":[[[139.0125,36.05],[139.01288400274598,36.05],[139.0130125,36.0501654],[139.0131507,36.0503554],[139.0132227,36.0504456],[139.0133317,36.0505857],[139.01338,36.0506489],[139.0132713,36.0506792],[139.0131841,36.0507436],[139.0131427,36.0507944],[139.0131184,36.0508432],[139.013111,36.0508715],[139.0131033,36.0508927],[139.0131069,36.0509116],[139.0130984,36.0509116],[139.0129513,36.0509085],[139.0127114,36.0509012],[139.012509,36.0508916],[139.0125,36.05089116258065],[139.0125,36.05]]]},"properties":{"layer":"landslide","class_code":"1","class_label":"急傾斜地の崩落","status_code":"0","status_label":"特別警戒区域指定済み"}},{"type":"Feature","id":"lsld_b99884e9-aaf5-476a-84d6-e8eb7c4e555c","geometry":{"type":"Polygon","coordinates":[[[139.025,36.056575411671474],[139.0248593,36.0566017],[139.0243066,36.0566381],[139.0236767,36.0564885],[139.0236734,36.0563631],[139.0238292,36.0560928],[139.0245694,36.0554789],[139.025,36.05529205854723],[139.025,36.056575411671474]]]},"properties":{"layer":"landslide","class_code":"1","class_label":"急傾斜地の崩落","status_code":"0","status_label":"特別警戒区域指定済み"}},{"type":"Feature","id":"lsld_4a4a6387-54b8-4af7-97ee-1361d4a559ce","geometry":{"type":"Polygon","coordinates":[[[139.0125,36.05],[139.01270638232936,36.05],[139.0125,36.050041745897644],[139.0125,36.05]]]},"properties":{"layer":"landslide","class_code":"2","class_label":"土石流","status_code":"0","status_label":"特別警戒区域指定済み"}}]}