{"type":"FeatureCollection","properties":{"mesh_code":"54390091","source":"PLATEAU秩父市2025","layer":"landslide"},"features":[{"type":"Feature","id":"lsld_e5364fe3-2211-4e30-abda-50d4569a748a","geometry":{"type":"Polygon","coordinates":[[[139.0225463,36.0773784],[139.0225638,36.0773882],[139.0225677,36.0773917],[139.0225642,36.0774112],[139.022465,36.0773907],[139.0224566,36.0773889],[139.0223801,36.0773731],[139.0221545,36.0773265],[139.0220285,36.0773283],[139.0220265,36.0773283],[139.0219088,36.077329],[139.0217528,36.0773299],[139.0214714,36.0773316],[139.021532,36.0770236],[139.0216988,36.0768438],[139.0217264,36.0768143],[139.0219778,36.0767651],[139.0220608,36.0767141],[139.0221754,36.0768581],[139.0221849,36.07687],[139.0222491,36.0769507],[139.0222512,36.0769537],[139.0224548,36.0772538],[139.022474,36.077282],[139.0224924,36.0773065],[139.0224995,36.077316],[139.0225463,36.0773784]]]},"properties":{"layer":"landslide","class_code":"1","class_label":"急傾斜地の崩落","status_code":"0","status_label":"特別警戒区域指定済み"}},{"type":"Feature","id":"lsld_aebf3a4a-b6f8-4393-8156-f2b8345778fc","geometry":{"type":"Polygon","coordinates":[[[139.0224548,36.0772538],[139.0224181,36.0773024],[139.0223857,36.0773379],[139.0223801,36.0773731],[139.0221545,36.0773265],[139.0220285,36.0773283],[139.0220265,36.0773283],[139.0219088,36.077329],[139.0219263,36.0771809],[139.0220446,36.0770531],[139.0221849,36.07687],[139.0222491,36.0769507],[139.0222512,36.0769537],[139.0224548,36.0772538]]]},"properties":{"layer":"landslide","class_code":"1","class_label":"急傾斜地の崩落","status_code":"0","status_label":"特別警戒区域指定済み"}},{"type":"Feature","id":"lsld_34dd2ff1-21b2-4f65-a49e-6860b83c493c","geometry":{"type":"Polygon","coordinates":[[[139.0216792,36.078288],[139.022071,36.0786061],[139.0223905,36.078941],[139.0226482,36.0792255],[139.022875,36.0796609],[139.0230193,36.0798952],[139.0230811,36.080096],[139.0231326,36.0804561],[139.0231635,36.0806235],[139.0232872,36.0810168],[139.0233491,36.0813936],[139.023277,36.0816865],[139.0231325,36.0818707],[139.0229366,36.0821552],[139.02271,36.0824316],[139.0224214,36.0826408],[139.0219265,36.0827998],[139.0215863,36.0828249],[139.0212152,36.0827161],[139.0207615,36.0825236],[139.0202977,36.082306],[139.020071,36.0821553],[139.0185503,36.0802704],[139.0185284,36.0801935],[139.0185282,36.0801919],[139.018522,36.0801708],[139.0184884,36.0800527],[139.018482,36.0800361],[139.0184793,36.080027],[139.0184898,36.079913],[139.0186018,36.0797613],[139.0186355,36.0797077],[139.0187698,36.0795382],[139.0189826,36.0792617],[139.0191506,36.0790386],[139.0192419,36.0787523],[139.0189634,36.0779074],[139.0193056,36.0779366],[139.0195267,36.0779202],[139.0195832,36.077795],[139.0195539,36.0774182],[139.0199951,36.0774929],[139.020107,36.0773502],[139.0202075,36.0772433],[139.0202752,36.0771092],[139.0204537,36.0769401],[139.020546,36.0768966],[139.0212565,36.0777774],[139.0213493,36.0778779],[139.0216792,36.078288]]]},"properties":{"layer":"landslide","class_code":"3","class_label":"地すべり","status_code":"0","status_label":"特別警戒区域指定済み"}}]}