{"type":"FeatureCollection","properties":{"mesh_code":"54390047","source":"PLATEAU秩父市2025","layer":"landslide"},"features":[{"type":"Feature","id":"lsld_cf303b19-6713-47b8-847c-fa933b0fcaec","geometry":{"type":"Polygon","coordinates":[[[139.0896723,36.0411832],[139.0898928,36.0414661],[139.090051,36.0415225],[139.0902397,36.0416561],[139.09025366826486,36.041666666666664],[139.08949893818794,36.041666666666664],[139.0892785,36.0414587],[139.0888468,36.0412225],[139.088845,36.0409194],[139.0888507,36.0407498],[139.0889592,36.0407306],[139.0890426,36.0407159],[139.0890459,36.0407154],[139.0890981,36.0407062],[139.0891047,36.040705],[139.0891587,36.0406955],[139.089378,36.0407934],[139.0896275,36.04071],[139.0896723,36.0411832]]]},"properties":{"layer":"landslide","class_code":"1","class_label":"急傾斜地の崩落","status_code":"0","status_label":"特別警戒区域指定済み"}},{"type":"Feature","id":"lsld_c92a37a4-b514-44be-b874-179f3f8718c4","geometry":{"type":"Polygon","coordinates":[[[139.0939551,36.0383649],[139.0940065,36.0384676],[139.0941305,36.0386279],[139.0942712,36.0387718],[139.0944074,36.0388612],[139.0944843,36.0389696],[139.0946106,36.0391251],[139.0945283,36.0391645],[139.094515,36.0391708],[139.0944417,36.0392059],[139.0941905,36.0393263],[139.0941583,36.0393417],[139.0940962,36.0393714],[139.0940285,36.0394038],[139.0939607,36.0393036],[139.0938884,36.0392753],[139.0937526,36.0391008],[139.0935414,36.0388204],[139.0934249,36.0386212],[139.0933385,36.0384781],[139.0933244,36.0384567],[139.0934268,36.0383989],[139.0934448,36.0383888],[139.0935205,36.0383461],[139.0937174,36.038235],[139.0937772,36.0382013],[139.0938683,36.0381499],[139.0939551,36.0383649]]]},"properties":{"layer":"landslide","class_code":"1","class_label":"急傾斜地の崩落","status_code":"0","status_label":"特別警戒区域指定済み"}},{"type":"Feature","id":"lsld_76040e29-1c91-459e-b120-7bbfcb9efb67","geometry":{"type":"Polygon","coordinates":[[[139.0897769012138,36.041666666666664],[139.0896972,36.041608],[139.0894343,36.0413514],[139.0890656,36.0410981],[139.0890714,36.040877],[139.0890426,36.0407159],[139.0890459,36.0407154],[139.0890981,36.0407062],[139.0892385,36.0408314],[139.0893627,36.0408929],[139.0895639,36.0412598],[139.0898031,36.0415312],[139.0899561,36.0416102],[139.09003718824752,36.041666666666664],[139.0897769012138,36.041666666666664]]]},"properties":{"layer":"landslide","class_code":"1","class_label":"急傾斜地の崩落","status_code":"0","status_label":"特別警戒区域指定済み"}},{"type":"Feature","id":"lsld_09be8ae9-5b9a-47aa-9630-63689e0e4cb4","geometry":{"type":"Polygon","coordinates":[[[139.0944417,36.0392059],[139.0941905,36.0393263],[139.0941583,36.0393417],[139.0940962,36.0393714],[139.0939784,36.039268],[139.0938742,36.0391562],[139.0937437,36.0388517],[139.0937392,36.0387062],[139.0936633,36.038647],[139.0934718,36.0385479],[139.0934268,36.0383989],[139.0934448,36.0383888],[139.0935205,36.0383461],[139.0937174,36.038235],[139.0937922,36.0384166],[139.0938784,36.0385346],[139.0939745,36.0386591],[139.0940946,36.0387985],[139.0942443,36.0389515],[139.0943219,36.0390654],[139.0944417,36.0392059]]]},"properties":{"layer":"landslide","class_code":"1","class_label":"急傾斜地の崩落","status_code":"0","status_label":"特別警戒区域指定済み"}}]}