{"type":"FeatureCollection","properties":{"mesh_code":"54390056","source":"PLATEAU秩父市2025","layer":"landslide"},"features":[{"type":"Feature","id":"lsld_a8962ef9-a4a9-4acb-a92b-9a0343c1c0df","geometry":{"type":"Polygon","coordinates":[[[139.0760667,36.0484305],[139.0760548,36.0484374],[139.076016,36.04852],[139.0760056,36.048557],[139.0759929,36.0485731],[139.0758653,36.0488668],[139.075555,36.0492898],[139.0755394,36.0494017],[139.0754333,36.0495059],[139.0754236,36.0495111],[139.0753307,36.0495398],[139.0752519,36.0495641],[139.0752028,36.0495793],[139.0751482,36.0495962],[139.0751665,36.0493664],[139.0751953,36.04927],[139.075,36.0492042278761],[139.075,36.04867137141378],[139.0750538,36.0486568],[139.0751785,36.0486231],[139.0758693,36.0484363],[139.0759299,36.04842],[139.0760351,36.0483915],[139.0760667,36.0484305]]]},"properties":{"layer":"landslide","class_code":"1","class_label":"急傾斜地の崩落","status_code":"0","status_label":"特別警戒区域指定済み"}},{"type":"Feature","id":"lsld_3aadbde8-e13d-4611-b07b-85a83940c29b","geometry":{"type":"Polygon","coordinates":[[[139.0752519,36.0495641],[139.0752028,36.0495793],[139.0752486,36.0493741],[139.0752714,36.0492742],[139.0752086,36.0490671],[139.0751857,36.048922],[139.0751765,36.0488399],[139.0751287,36.0487859],[139.0750538,36.0486568],[139.0751785,36.0486231],[139.0758693,36.0484363],[139.0759252,36.0485116],[139.0759596,36.048549],[139.0759225,36.048633],[139.0757202,36.0489489],[139.0753486,36.0492785],[139.0753373,36.0493825],[139.0752519,36.0495641]]]},"properties":{"layer":"landslide","class_code":"1","class_label":"急傾斜地の崩落","status_code":"0","status_label":"特別警戒区域指定済み"}}]}