{"type":"FeatureCollection","properties":{"mesh_code":"54390008","source":"PLATEAU秩父市2025","layer":"landslide"},"features":[{"type":"Feature","id":"lsld_709893af-2f5e-4c9d-aa8a-94dbc4644970","geometry":{"type":"Polygon","coordinates":[[[139.10736956028583,36.00833333333333],[139.1078066,36.0082475],[139.1079258,36.0082241],[139.1083457,36.0081416],[139.1084388,36.0083082],[139.1084402,36.0083106],[139.10843281241742,36.00833333333333],[139.10736956028583,36.00833333333333]]]},"properties":{"layer":"landslide","class_code":"1","class_label":"急傾斜地の崩落","status_code":"0","status_label":"特別警戒区域指定済み"}},{"type":"Feature","id":"lsld_19d3ab29-3f74-44d3-9106-25bf55cb2348","geometry":{"type":"Polygon","coordinates":[[[139.1083702413856,36.00833333333333],[139.1083743,36.0083144],[139.1084388,36.0083082],[139.1084805,36.0083042],[139.10849974046346,36.00833333333333],[139.1091586800203,36.00833333333333],[139.1091036,36.0082518],[139.1092022,36.0081913],[139.1092493,36.0081624],[139.1093031,36.0081294],[139.109418,36.0080109],[139.1094503,36.0079793],[139.1095874,36.0078681],[139.1098007,36.007701],[139.1099374,36.0076066],[139.1099386,36.0076058],[139.1100138,36.0075539],[139.1101277,36.007561],[139.1101627,36.007522],[139.1101649,36.0075066],[139.1101435,36.0074654],[139.1100311,36.0073627],[139.1100972,36.007299],[139.1101026,36.0072937],[139.1101156,36.0072812],[139.1101871,36.0072123],[139.1103365,36.007296],[139.1104459,36.0074903],[139.1104064,36.0076592],[139.1102438,36.0077854],[139.1099831,36.0077817],[139.1098832,36.0078675],[139.1097612,36.0079565],[139.1095998,36.0080741],[139.1094899,36.0081895],[139.109337,36.0083046],[139.10935515089355,36.00833333333333],[139.1083702413856,36.00833333333333]]]},"properties":{"layer":"landslide","class_code":"1","class_label":"急傾斜地の崩落","status_code":"0","status_label":"特別警戒区域指定済み"}},{"type":"Feature","id":"lsld_dc5fcc8d-a880-4ed5-acf5-a92a6f028936","geometry":{"type":"Polygon","coordinates":[[[139.1120531,36.004623],[139.1120141,36.0046509],[139.1118329,36.0049844],[139.1114922,36.005168],[139.1111293,36.0052728],[139.1107963,36.0053549],[139.110409,36.0052639],[139.1099969,36.0051207],[139.1098218,36.0049787],[139.109896,36.0049452],[139.1097682,36.0048418],[139.1096766,36.0047677],[139.1096729,36.0047571],[139.1096193,36.0046575],[139.1096131,36.0046448],[139.109484,36.0045991],[139.1094785,36.0046011],[139.1094747,36.0045958],[139.1094761,36.0045954],[139.1094359,36.0044977],[139.109439,36.0044965],[139.1094504,36.0043043],[139.1093774,36.0041565],[139.1093772,36.0041566],[139.109374,36.0041495],[139.1093322,36.0040537],[139.1093764,36.0037864],[139.1094204,36.0036705],[139.1094573,36.0035946],[139.1093787,36.0035233],[139.1092665,36.0032895],[139.1091917,36.003123],[139.1091914,36.0031222],[139.109595,36.0030482],[139.1096198,36.0030437],[139.1097324,36.0030231],[139.1098012,36.0030105],[139.109802,36.0030103],[139.1098066,36.0030094],[139.1101461,36.0029065],[139.1101645,36.002901],[139.1103048,36.0028842],[139.1103091,36.0028836],[139.1103963,36.0028733],[139.1104188,36.0028706],[139.110423,36.0028701],[139.1105004,36.002875],[139.1105067,36.0028753],[139.1105545,36.0032768],[139.1105506,36.0033428],[139.1105576,36.0034023],[139.1106078,36.0035199],[139.1106594,36.0036679],[139.1106858,36.0037928],[139.1106421,36.0038859],[139.1106416,36.0038925],[139.1105581,36.0040144],[139.1105655,36.0040113],[139.1105785,36.0040436],[139.1104961,36.0041158],[139.1104937,36.0041176],[139.110486,36.0041786],[139.1104878,36.0041797],[139.110502,36.004192],[139.1106098,36.0042409],[139.1108189,36.004392],[139.1108198,36.0043887],[139.1108995,36.0044122],[139.1109435,36.004426],[139.1110109,36.0044235],[139.1111049,36.0044209],[139.1111499,36.0044074],[139.1111697,36.004388],[139.1110376,36.0042077],[139.1110348,36.0042059],[139.1110297,36.0041968],[139.111109,36.0040876],[139.1113489,36.0040564],[139.1114759,36.0039882],[139.1114764,36.0039882],[139.1115863,36.0039967],[139.1116814,36.0040041],[139.1116858,36.0040045],[139.1117845,36.0040381],[139.1118592,36.0040636],[139.11195,36.0040945],[139.1120036,36.0041128],[139.1120063,36.0041137],[139.1120763,36.0043161],[139.1120984,36.0045629],[139.1120531,36.004623]]]},"properties":{"layer":"landslide","class_code":"1","class_label":"急傾斜地の崩落","status_code":"0","status_label":"特別警戒区域指定済み"}},{"type":"Feature","id":"lsld_232cd6c5-354c-44b0-b93c-bbe6345bbab3","geometry":{"type":"Polygon","coordinates":[[[139.1115444,36.0047758],[139.1113214,36.0048783],[139.111079,36.0049427],[139.110837,36.0049907],[139.110604,36.0049354],[139.1103459,36.0048923],[139.1102123,36.0048023],[139.1102083,36.0046901],[139.1100545,36.0045792],[139.1100565,36.0045762],[139.1100478,36.0045612],[139.1100239,36.0045195],[139.1100227,36.0045169],[139.1098861,36.0044535],[139.1098847,36.004454],[139.109883,36.004452],[139.1098837,36.0044518],[139.1098287,36.0043399],[139.1098308,36.004339],[139.1098586,36.004183],[139.1097856,36.0040326],[139.1097846,36.0040303],[139.1097444,36.0039357],[139.1098163,36.0037768],[139.1098557,36.0036469],[139.1098853,36.003535],[139.109794,36.0034217],[139.1097022,36.0032639],[139.1096199,36.003044],[139.1096198,36.0030437],[139.1097324,36.0030231],[139.1098012,36.0030105],[139.109802,36.0030103],[139.1098066,36.0030094],[139.1101461,36.0029065],[139.1101645,36.002901],[139.1103048,36.0028842],[139.1103091,36.0028836],[139.1103597,36.0032704],[139.1103611,36.0033448],[139.1103747,36.0034351],[139.1104232,36.0035655],[139.1104671,36.0037096],[139.1104949,36.0038105],[139.1104489,36.0038906],[139.1104492,36.0038916],[139.1103729,36.0040302],[139.1103949,36.0040906],[139.1103958,36.0040914],[139.1103444,36.0042243],[139.1103456,36.0042277],[139.1103701,36.0043012],[139.1103715,36.0043024],[139.1104094,36.0043334],[139.1104103,36.0043324],[139.1105096,36.0043867],[139.1107177,36.0045355],[139.1107504,36.0045453],[139.1108222,36.0045666],[139.1108963,36.0045888],[139.1110248,36.0045876],[139.1111506,36.0045752],[139.1112667,36.0045362],[139.1113204,36.0044745],[139.1111779,36.0042971],[139.111296,36.0041358],[139.1115322,36.0040931],[139.1116814,36.0040041],[139.1116858,36.0040045],[139.1117845,36.0040381],[139.1118592,36.0040636],[139.1118138,36.0042085],[139.1117443,36.0043504],[139.1117296,36.0043702],[139.1116678,36.0044534],[139.111659,36.00458],[139.1115444,36.0047758]]]},"properties":{"layer":"landslide","class_code":"1","class_label":"急傾斜地の崩落","status_code":"0","status_label":"特別警戒区域指定済み"}},{"type":"Feature","id":"lsld_c6dfd585-2224-4762-9af5-8d5440b9aa62","geometry":{"type":"Polygon","coordinates":[[[139.1079258,36.0082241],[139.10799366588088,36.00833333333333],[139.10736956028583,36.00833333333333],[139.1078066,36.0082475],[139.1079258,36.0082241]]]},"properties":{"layer":"landslide","class_code":"1","class_label":"急傾斜地の崩落","status_code":"0","status_label":"特別警戒区域指定済み"}},{"type":"Feature","id":"lsld_fc61fc86-66cc-4c8c-a277-b7dfb53200ec","geometry":{"type":"Polygon","coordinates":[[[139.10919350055292,36.00833333333333],[139.1091497,36.0082585],[139.1092022,36.0081913],[139.1092087,36.008183],[139.1092493,36.0081624],[139.1093625,36.0081052],[139.1094982,36.0079843],[139.109656,36.0078575],[139.1097982,36.0077856],[139.1099374,36.0076066],[139.1099381,36.0076057],[139.1099386,36.0076058],[139.1101593,36.0076221],[139.1102321,36.007561],[139.1102827,36.0074998],[139.1102396,36.0073811],[139.1100972,36.007299],[139.1101026,36.0072937],[139.11025,36.007372],[139.1103087,36.0074983],[139.1102714,36.0075832],[139.1101783,36.0076587],[139.1099465,36.0076387],[139.1098072,36.0077943],[139.1096749,36.0078753],[139.1095145,36.0079987],[139.1093927,36.0081252],[139.1092472,36.0082263],[139.1091978,36.0082653],[139.10923795817533,36.00833333333333],[139.10919350055292,36.00833333333333]]]},"properties":{"layer":"landslide","class_code":"1","class_label":"急傾斜地の崩落","status_code":"0","status_label":"特別警戒区域指定済み"}},{"type":"Feature","id":"lsld_010bab92-4bd0-4a18-ac94-101e22d12ebd","geometry":{"type":"Polygon","coordinates":[[[139.1125,36.00833333333333],[139.11208328727736,36.00833333333333],[139.1120578,36.0083134],[139.1120249,36.0082868],[139.1119926,36.0082597],[139.1119609,36.0082321],[139.1119297,36.0082041],[139.1118992,36.0081756],[139.1118693,36.0081467],[139.1118455,36.0081229],[139.11184,36.0081174],[139.1118113,36.0080877],[139.1117833,36.0080576],[139.111756,36.0080271],[139.1117293,36.0079962],[139.1117032,36.0079649],[139.1116779,36.0079333],[139.1116532,36.0079013],[139.1116292,36.0078689],[139.1116059,36.0078363],[139.1115833,36.0078033],[139.1115615,36.00777],[139.1115403,36.0077364],[139.1115199,36.0077024],[139.1115002,36.0076682],[139.1114813,36.0076338],[139.111463,36.007599],[139.1114456,36.0075641],[139.1114289,36.0075288],[139.1114129,36.0074934],[139.1113977,36.0074577],[139.1113833,36.0074218],[139.1113697,36.0073857],[139.1113568,36.0073494],[139.1113447,36.007313],[139.1113334,36.0072764],[139.1113229,36.0072396],[139.1113132,36.0072027],[139.1113043,36.0071656],[139.1112961,36.0071285],[139.1112888,36.0070912],[139.1112823,36.0070538],[139.1112766,36.0070163],[139.1112716,36.0069788],[139.1112675,36.0069412],[139.1112642,36.0069036],[139.111263,36.0068842],[139.11131,36.0068809],[139.1115653,36.0068628],[139.1118204,36.0068447],[139.1120756,36.0068266],[139.1123308,36.0068085],[139.1125,36.00679649952978],[139.1125,36.00833333333333]]]},"properties":{"layer":"landslide","class_code":"2","class_label":"土石流","status_code":"0","status_label":"特別警戒区域指定済み"}},{"type":"Feature","id":"lsld_2d1a6427-5aa7-4e39-bff0-d226129d9ba3","geometry":{"type":"Polygon","coordinates":[[[139.1125,36.00833333333333],[139.11155746624473,36.00833333333333],[139.1115552,36.0083265],[139.111543,36.0082869],[139.1115316,36.008247],[139.1115211,36.008207],[139.1115159,36.0081858],[139.111517,36.0081856],[139.1117664,36.008138],[139.1118455,36.0081229],[139.1120158,36.0080904],[139.1122652,36.0080429],[139.1125,36.007998086527664],[139.1125,36.00833333333333]]]},"properties":{"layer":"landslide","class_code":"2","class_label":"土石流","status_code":"0","status_label":"特別警戒区域指定済み"}},{"type":"Feature","id":"lsld_68d9eca4-f586-4b58-b376-0bf7c28a5b94","geometry":{"type":"Polygon","coordinates":[[[139.1125,36.00551955501175],[139.1124937,36.005523],[139.1122812,36.0056392],[139.1120686,36.0057554],[139.1118561,36.0058716],[139.1116436,36.0059878],[139.111431,36.006104],[139.1112185,36.0062202],[139.111006,36.0063364],[139.1107934,36.0064526],[139.1105809,36.0065688],[139.1104533,36.0066386],[139.1104174,36.0065921],[139.1103777,36.0065386],[139.1103392,36.0064845],[139.1103018,36.00643],[139.1102657,36.0063748],[139.1102307,36.0063192],[139.1101969,36.0062631],[139.1101643,36.0062066],[139.110133,36.0061496],[139.1101028,36.0060921],[139.110074,36.0060342],[139.1100463,36.005976],[139.1100199,36.0059173],[139.1099948,36.0058583],[139.109971,36.0057989],[139.1099484,36.0057392],[139.1099271,36.0056792],[139.1099071,36.0056189],[139.1098884,36.0055583],[139.1098711,36.0054975],[139.109855,36.0054364],[139.1098402,36.0053751],[139.1098268,36.0053137],[139.1098146,36.005252],[139.1098039,36.0051901],[139.1097944,36.0051282],[139.1097871,36.0050726],[139.1097689,36.0048577],[139.1097682,36.0048418],[139.1097671,36.0048168],[139.1097656,36.0047544],[139.1097655,36.0046919],[139.1097668,36.0046295],[139.1097694,36.004567],[139.1097733,36.0045047],[139.1097776,36.0044538],[139.1099633,36.0045276],[139.1100478,36.0045612],[139.1101934,36.004619],[139.1104235,36.0047105],[139.1106537,36.0048019],[139.1108792,36.0048398],[139.1110989,36.0048078],[139.1113148,36.0047317],[139.1114232,36.004683],[139.1115001,36.0046096],[139.111589,36.0045076],[139.1116838,36.0043986],[139.1117296,36.0043702],[139.1118018,36.0043254],[139.1118786,36.0042687],[139.1119291,36.0041999],[139.1120036,36.0041128],[139.1120061,36.0041098],[139.1120507,36.004041],[139.1121483,36.004071],[139.1123784,36.0041625],[139.1125,36.00421080178184],[139.1125,36.00551955501175]]]},"properties":{"layer":"landslide","class_code":"2","class_label":"土石流","status_code":"0","status_label":"特別警戒区域指定済み"}},{"type":"Feature","id":"lsld_8f31ee6e-a8cd-4d96-91c5-6e8349f1f190","geometry":{"type":"Polygon","coordinates":[[[139.1070185,36.0057328],[139.1069873,36.0057791],[139.1069295,36.0058431],[139.1069249,36.0058662],[139.1069269,36.0058877],[139.1069441,36.0059271],[139.1069767,36.0059702],[139.1070028,36.0059989],[139.1070158,36.0060187],[139.1070398,36.0060474],[139.107044,36.0060653],[139.107046,36.0060867],[139.1070546,36.0061064],[139.1070721,36.0061208],[139.1070984,36.0061317],[139.1071093,36.0061407],[139.1071246,36.0061533],[139.1071376,36.006173],[139.1071506,36.0061928],[139.1071679,36.0062179],[139.1071942,36.0062341],[139.1072225,36.0062629],[139.107268,36.00634],[139.1074716,36.0066717],[139.1075693,36.0068063],[139.1076408,36.0069193],[139.1076996,36.0069893],[139.1077475,36.0070325],[139.1078021,36.0070793],[139.1075719,36.0071969],[139.1073558,36.0073087],[139.1071397,36.0074205],[139.1069386,36.0075278],[139.1069253,36.0076759],[139.1069189,36.0077118],[139.1067558,36.0078895],[139.1066896,36.0078348],[139.1066662,36.0078156],[139.1066418,36.0077954],[139.106574,36.0077396],[139.1067263,36.0076566],[139.1067314,36.0076203],[139.1067672,36.0074787],[139.1067638,36.0074302],[139.1067631,36.0074201],[139.1067529,36.0072726],[139.1067518,36.0072564],[139.1067406,36.0070485],[139.1067295,36.0068405],[139.106729,36.0068297],[139.1066872,36.0058952],[139.1067163,36.0058364],[139.1068113,36.0057834],[139.1070431,36.0056883],[139.1070185,36.0057328]]]},"properties":{"layer":"landslide","class_code":"2","class_label":"土石流","status_code":"0","status_label":"特別警戒区域指定済み"}},{"type":"Feature","id":"lsld_1d55fded-0f40-4393-bf2f-547d369b1863","geometry":{"type":"Polygon","coordinates":[[[139.1066418,36.0077954],[139.1067885,36.0076745],[139.1068032,36.0076409],[139.1068517,36.0076548],[139.1068422,36.0076899],[139.1066896,36.0078348],[139.1066662,36.0078156],[139.1066418,36.0077954]]]},"properties":{"layer":"landslide","class_code":"2","class_label":"土石流","status_code":"0","status_label":"特別警戒区域指定済み"}}]}