{"type":"FeatureCollection","properties":{"mesh_code":"54390041","source":"PLATEAU秩父市2025","layer":"landslide"},"features":[{"type":"Feature","id":"lsld_e88e550e-e844-414c-ba48-2d0394a55688","geometry":{"type":"Polygon","coordinates":[[[139.0208904,36.0363935],[139.0208905,36.0363942],[139.0208947,36.0364255],[139.0208951,36.0364289],[139.0209024,36.0364839],[139.0208845,36.0365115],[139.020863,36.0365447],[139.0208318,36.0365518],[139.0208152,36.0365555],[139.0207773,36.0365641],[139.0206938,36.0365829],[139.020682,36.0365856],[139.020633,36.0365324],[139.0205764,36.0364922],[139.0205055,36.0364418],[139.0204972,36.0364359],[139.0204697,36.0364164],[139.0204396,36.0363979],[139.0204126,36.0363813],[139.0203891,36.0363698],[139.0203652,36.036358],[139.0203403,36.0363458],[139.0203305,36.0363418],[139.0202206,36.0362969],[139.0200997,36.0362796],[139.0200593,36.0362546],[139.0200541,36.0362513],[139.0200508,36.0362493],[139.0200402,36.0362428],[139.0200105,36.0362244],[139.0199334,36.0361768],[139.0199046,36.036159],[139.0198465,36.0361231],[139.0198502,36.0361224],[139.0200277,36.0360995],[139.0200398,36.0359261],[139.0200414,36.0359026],[139.0202993,36.0358931],[139.0204113,36.0360442],[139.0205033,36.0360617],[139.0206269,36.0361123],[139.0206413,36.0361179],[139.0208302,36.0361914],[139.0208307,36.0361922],[139.0208077,36.0362986],[139.0208373,36.0362981],[139.0208727,36.0362719],[139.0208742,36.0362708],[139.0208904,36.0363935]]]},"properties":{"layer":"landslide","class_code":"1","class_label":"急傾斜地の崩落","status_code":"0","status_label":"特別警戒区域指定済み"}},{"type":"Feature","id":"lsld_5a204985-b0bc-4f48-bcb1-3ce72c43182a","geometry":{"type":"Polygon","coordinates":[[[139.025,36.03979259466667],[139.0248321,36.0397267],[139.0246576,36.0395913],[139.0243869,36.0395506],[139.0243772,36.0395583],[139.0241852,36.0394433],[139.0240021,36.0392309],[139.0239942,36.0391611],[139.0239859,36.0390206],[139.0239884,36.038967],[139.0240067,36.0388897],[139.0240444,36.0388111],[139.024121,36.0387311],[139.0241681,36.0386888],[139.0242291,36.038667],[139.0243027,36.0386408],[139.0246061,36.0386191],[139.0247209,36.038601],[139.0247425,36.0385853],[139.0247465,36.0385664],[139.0247961,36.0384721],[139.0248201,36.0384012],[139.0248411,36.0382482],[139.0248437,36.0381851],[139.0248544,36.0380921],[139.0248417,36.038002],[139.0248376,36.0380028],[139.0248378,36.038002],[139.0248326,36.0379712],[139.024825,36.0379261],[139.0248211,36.0379269],[139.0248211,36.0379264],[139.0247714,36.037844],[139.0247215,36.0377821],[139.0246521,36.0377296],[139.0245943,36.0376802],[139.0245287,36.037634],[139.0244573,36.0375878],[139.0243433,36.0375175],[139.0243134,36.0375043],[139.0242853,36.0374919],[139.0241809,36.0374391],[139.0240647,36.0373957],[139.0239872,36.0373731],[139.0239523,36.0373634],[139.0239031,36.0373567],[139.0238786,36.0373534],[139.02383,36.0373515],[139.0237562,36.037351],[139.023686,36.0373695],[139.0236796,36.0373715],[139.0236022,36.0373957],[139.0235169,36.0374244],[139.0235008,36.0374298],[139.0234131,36.037456],[139.0234135,36.0374569],[139.0233829,36.0374672],[139.0233009,36.0374947],[139.0232526,36.0375106],[139.0232112,36.0375241],[139.0231566,36.0375506],[139.023094,36.0375849],[139.0230275,36.0376286],[139.0229627,36.0376913],[139.0229577,36.0376963],[139.0229212,36.0377325],[139.0229095,36.0377441],[139.0228989,36.0377546],[139.0228979,36.0377556],[139.0228938,36.0377589],[139.0228013,36.0378343],[139.0227999,36.0378354],[139.0227119,36.037898],[139.022488,36.0380632],[139.022351,36.0379373],[139.0223492,36.0379357],[139.02216,36.0377619],[139.0221356,36.0376798],[139.0220693,36.0374577],[139.0220355,36.0373441],[139.0220134,36.0372699],[139.0221186,36.0371512],[139.0221264,36.0371425],[139.0221956,36.0371511],[139.0222,36.0371516],[139.0222119,36.0371531],[139.0222363,36.0371562],[139.0222655,36.0371598],[139.022346,36.0371699],[139.0223331,36.0372793],[139.0224813,36.0373599],[139.0226205,36.0373613],[139.0227628,36.0374151],[139.0227847,36.0374034],[139.0228966,36.0373432],[139.0231046,36.037261],[139.0233164,36.0371568],[139.0235428,36.0370861],[139.0237807,36.0370751],[139.0238024,36.0370798],[139.0239913,36.0371211],[139.0242161,36.0371941],[139.0244736,36.0372479],[139.0244747,36.0372485],[139.0247733,36.0373382],[139.0248887,36.0374366],[139.0249869,36.0375644],[139.025,36.037582125778236],[139.025,36.03892290961538],[139.0249325,36.0389645],[139.025,36.0390589117647],[139.025,36.03979259466667]]]},"properties":{"layer":"landslide","class_code":"1","class_label":"急傾斜地の崩落","status_code":"0","status_label":"特別警戒区域指定済み"}},{"type":"Feature","id":"lsld_1f3a15a3-c787-4a16-89b9-da2a3c98edf5","geometry":{"type":"Polygon","coordinates":[[[139.0222815,36.0373692],[139.0222512,36.0375678],[139.0222397,36.0376431],[139.0221356,36.0376798],[139.0218748,36.0377716],[139.0218697,36.0377734],[139.0218661,36.0377747],[139.0218193,36.0377231],[139.0218024,36.0377056],[139.021801,36.037704],[139.0217662,36.0376678],[139.0216921,36.037618],[139.0216842,36.0376136],[139.0215947,36.0375624],[139.0215158,36.037524],[139.0213997,36.0374721],[139.0213602,36.037451],[139.0212907,36.0374107],[139.0212329,36.0373649],[139.0211844,36.0373134],[139.021129,36.0372581],[139.0211288,36.0372578],[139.021099,36.0372238],[139.0210417,36.0371306],[139.020989,36.0370317],[139.0209341,36.0369347],[139.0209066,36.0368796],[139.0208594,36.0368043],[139.020847,36.0367845],[139.0208465,36.0367849],[139.0207941,36.0367053],[139.0207387,36.03662],[139.0207773,36.0365641],[139.0207989,36.0365328],[139.0208087,36.0365184],[139.020833,36.0364833],[139.0208438,36.0364676],[139.0208567,36.0364579],[139.0208876,36.0364346],[139.0208891,36.0364334],[139.0208951,36.0364289],[139.0209252,36.0364063],[139.0209715,36.0363714],[139.0209836,36.0363622],[139.0210528,36.0363101],[139.0210563,36.0365285],[139.0212903,36.0366692],[139.0213742,36.0368962],[139.0214027,36.0369723],[139.0214363,36.0369972],[139.0215131,36.0370543],[139.0215681,36.0372183],[139.0216965,36.0372763],[139.0218381,36.0373093],[139.0219212,36.037306],[139.0219327,36.0372272],[139.0220174,36.0371358],[139.022069,36.0371436],[139.0221186,36.0371512],[139.0221264,36.0371524],[139.0221527,36.0371564],[139.0221718,36.0371593],[139.0221922,36.0371624],[139.0222106,36.0371652],[139.022228,36.0371679],[139.0222358,36.037169],[139.0222253,36.0372504],[139.0222229,36.0372931],[139.0222224,36.0373015],[139.0222815,36.0373692]]]},"properties":{"layer":"landslide","class_code":"1","class_label":"急傾斜地の崩落","status_code":"0","status_label":"特別警戒区域指定済み"}},{"type":"Feature","id":"lsld_61563b82-c9e1-4395-8b56-2cadc455ef83","geometry":{"type":"Polygon","coordinates":[[[139.02441,36.0348432],[139.024027,36.0345453],[139.0239208,36.0344565],[139.0238823,36.0343962],[139.0238272,36.0343461],[139.0237765,36.0343495],[139.0236851,36.0343231],[139.0235122,36.0343411],[139.0234771,36.034331],[139.023438,36.0343278],[139.0233756,36.0343287],[139.0227975,36.0341637],[139.0228362,36.0340972],[139.0228449,36.0340822],[139.0228765,36.0340277],[139.0228798,36.034022],[139.0229143,36.0339671],[139.0229397,36.033931],[139.0229849,36.033882],[139.0230553,36.0338084],[139.0231221,36.0337363],[139.0231637,36.0336887],[139.0231672,36.0336839],[139.0232144,36.0336194],[139.0232311,36.0335966],[139.0233519,36.0334316],[139.02336368711417,36.03333333333333],[139.0236946299435,36.03333333333333],[139.0239574,36.0333919],[139.0241856,36.0334929],[139.0242893,36.0335667],[139.0243762,36.0336119],[139.0244528,36.0336518],[139.024571,36.0335984],[139.0246767,36.0336685],[139.0247651,36.0337595],[139.0249767,36.0337105],[139.025,36.0337143174282],[139.025,36.03436431428568],[139.0249765,36.0344236],[139.0249605,36.0344729],[139.0249526,36.0344974],[139.0249293,36.0345588],[139.0249117,36.0346052],[139.0248993,36.0346378],[139.024879,36.0346913],[139.0248786,36.0346912],[139.0248477,36.0346863],[139.0247953,36.0346802],[139.024708,36.0346699],[139.02441,36.0348432]]]},"properties":{"layer":"landslide","class_code":"1","class_label":"急傾斜地の崩落","status_code":"0","status_label":"特別警戒区域指定済み"}},{"type":"Feature","id":"lsld_5e75d5e1-509a-4403-89d3-66bb7b69893d","geometry":{"type":"Polygon","coordinates":[[[139.025,36.03477080204081],[139.0249492,36.0347143],[139.024879,36.0346913],[139.0248786,36.0346912],[139.0248834,36.0346783],[139.0249111,36.034605],[139.0249286,36.0345586],[139.0249532,36.0344936],[139.0249605,36.0344729],[139.0249825,36.0344111],[139.025,36.03436523568769],[139.025,36.03477080204081]]]},"properties":{"layer":"landslide","class_code":"1","class_label":"急傾斜地の崩落","status_code":"0","status_label":"特別警戒区域指定済み"}},{"type":"Feature","id":"lsld_3220249b-cf0d-4ec9-8266-961bd9f57ae2","geometry":{"type":"Polygon","coordinates":[[[139.0194185,36.0374307],[139.0193566,36.0374686],[139.0193299,36.037485],[139.0192847,36.0375127],[139.0192393,36.0375405],[139.0191249,36.0376067],[139.0191243,36.0376071],[139.019123,36.0376055],[139.0191056,36.0375864],[139.019026,36.0375304],[139.0189334,36.0374799],[139.018865,36.0374607],[139.0188295,36.0374507],[139.0187409,36.0374349],[139.0186402,36.0374263],[139.0186018,36.0374233],[139.0185566,36.0374255],[139.0185538,36.0374023],[139.0184567,36.0371067],[139.0184327,36.0370931],[139.0183771,36.0369906],[139.0184393,36.0367084],[139.018439,36.0367078],[139.0185477,36.0366139],[139.0185471,36.0366138],[139.0185736,36.0364977],[139.0186328,36.036347],[139.0186056,36.0362406],[139.0185346,36.0359721],[139.0185676,36.0359318],[139.0186642,36.0358392],[139.018704,36.0358065],[139.018747,36.0357846],[139.0187855,36.0357697],[139.0188349,36.0357576],[139.0188522,36.0357544],[139.0188667,36.0357932],[139.0188721,36.0358078],[139.0188814,36.0358327],[139.0188945,36.0358677],[139.0189063,36.0358992],[139.0189266,36.0359536],[139.018939,36.0359583],[139.0189412,36.0359591],[139.0190122,36.0360629],[139.0190938,36.0362598],[139.0191443,36.0364255],[139.0191551,36.0366443],[139.0191543,36.0366446],[139.0191554,36.0367445],[139.0191549,36.0367446],[139.0191545,36.0368164],[139.0191911,36.0369108],[139.019284,36.0370357],[139.0193301,36.0372082],[139.0193353,36.0372796],[139.0194185,36.0374307]]]},"properties":{"layer":"landslide","class_code":"1","class_label":"急傾斜地の崩落","status_code":"0","status_label":"特別警戒区域指定済み"}},{"type":"Feature","id":"lsld_69d333bc-253b-4ad5-b6e2-1d984665f833","geometry":{"type":"Polygon","coordinates":[[[139.0128299,36.0396191],[139.0128868,36.0396812],[139.0129036,36.0396995],[139.0129314,36.0397237],[139.01298,36.0397659],[139.0130083,36.0397883],[139.0130068,36.0397908],[139.0129657,36.0398586],[139.0129401,36.0398919],[139.0129283,36.0399126],[139.012903,36.0399567],[139.0128846,36.0399887],[139.0128561,36.0400384],[139.0127389,36.0399911],[139.0126993,36.0399751],[139.0126985,36.0399748],[139.0125245,36.0399028],[139.0125,36.039881614212305],[139.0125,36.0396549903226],[139.012508,36.0396409],[139.0125297,36.039603],[139.0125378,36.0395887],[139.012578,36.0395182],[139.0127393,36.0395113],[139.0128299,36.0396191]]]},"properties":{"layer":"landslide","class_code":"1","class_label":"急傾斜地の崩落","status_code":"0","status_label":"特別警戒区域指定済み"}},{"type":"Feature","id":"lsld_aaadfa17-0798-44b0-9784-c694ebffa6f9","geometry":{"type":"Polygon","coordinates":[[[139.0227711,36.0388954],[139.0228394,36.0388977],[139.0229243,36.0389007],[139.0229295,36.0389009],[139.0229766,36.0389035],[139.023035,36.0389067],[139.0231444,36.0390857],[139.0231687,36.0392322],[139.0230769,36.0392643],[139.0230361,36.0392785],[139.0229648,36.0393035],[139.0228765,36.0393343],[139.0228627,36.0393391],[139.0227878,36.0393575],[139.0227319,36.0393712],[139.0226816,36.0393835],[139.0226281,36.0391399],[139.0227285,36.0388939],[139.0227711,36.0388954]]]},"properties":{"layer":"landslide","class_code":"1","class_label":"急傾斜地の崩落","status_code":"0","status_label":"特別警戒区域指定済み"}},{"type":"Feature","id":"lsld_0b9aee68-7463-42f9-8dce-13ead4d7db13","geometry":{"type":"Polygon","coordinates":[[[139.0208087,36.0365184],[139.0208318,36.0365518],[139.02088,36.0366218],[139.0209071,36.036661],[139.0209971,36.0367568],[139.0209514,36.0367726],[139.0209109,36.0367865],[139.0209004,36.0367902],[139.0208641,36.0368027],[139.0208594,36.0368043],[139.0208449,36.0368094],[139.0207574,36.0368396],[139.0207493,36.0368413],[139.0206743,36.0368576],[139.020633,36.0368665],[139.0205671,36.0368808],[139.0205271,36.0367744],[139.0204823,36.0366463],[139.0204179,36.0365707],[139.0204177,36.0365705],[139.0202942,36.0365138],[139.0202937,36.0365141],[139.0202607,36.0364783],[139.0202034,36.0364793],[139.0200596,36.036424],[139.0199864,36.0364036],[139.0199993,36.0363652],[139.0200155,36.0363166],[139.0200356,36.0362567],[139.0200402,36.0362428],[139.0200475,36.0362209],[139.0200494,36.0362152],[139.0200505,36.0362121],[139.0200513,36.0362095],[139.0200604,36.036209],[139.0200878,36.0362073],[139.0201233,36.0362027],[139.0201353,36.0361971],[139.0201511,36.0362032],[139.0201575,36.0362039],[139.0202618,36.036215],[139.0203424,36.0362236],[139.0203578,36.0362264],[139.0204034,36.0362348],[139.0204594,36.0362635],[139.0204969,36.0362831],[139.0205154,36.0362928],[139.0205533,36.0363126],[139.0205654,36.0363265],[139.0206014,36.0363654],[139.0206385,36.0363977],[139.0206778,36.0364202],[139.0206791,36.0364209],[139.0207823,36.0364903],[139.0207954,36.0364991],[139.0208087,36.0365184]]]},"properties":{"layer":"landslide","class_code":"1","class_label":"急傾斜地の崩落","status_code":"0","status_label":"特別警戒区域指定済み"}},{"type":"Feature","id":"lsld_4660f831-e48e-4763-a32f-deee7d725ef0","geometry":{"type":"Polygon","coordinates":[[[139.0208891,36.0364334],[139.0208876,36.0364356],[139.0208566,36.03648],[139.020833,36.0364833],[139.0207823,36.0364903],[139.0207564,36.0364939],[139.0206505,36.0365085],[139.020563,36.0364282],[139.0205166,36.0363856],[139.0205022,36.036311],[139.0204969,36.0362831],[139.0204861,36.036227],[139.0204614,36.0362251],[139.0203578,36.0362264],[139.0202685,36.0362276],[139.0202618,36.036215],[139.0201884,36.0360782],[139.0201785,36.0360784],[139.0201575,36.0362039],[139.020156,36.0362131],[139.0200979,36.0362349],[139.0200605,36.0362489],[139.0200541,36.0362513],[139.0200508,36.0362493],[139.0200402,36.0362428],[139.0200105,36.0362244],[139.0200125,36.0362239],[139.0200505,36.0362121],[139.0200604,36.036209],[139.0201271,36.0361883],[139.0201432,36.0361237],[139.0201718,36.0360089],[139.020173,36.0360042],[139.0201937,36.0360039],[139.020309,36.0361405],[139.0203228,36.0361568],[139.020484,36.0361775],[139.020517,36.0361904],[139.0205662,36.0362222],[139.0206699,36.0362892],[139.0207192,36.0364138],[139.0207218,36.0364141],[139.0207561,36.0364181],[139.020849,36.0364289],[139.0208495,36.0364284],[139.0208904,36.0363935],[139.0208905,36.0363942],[139.0208947,36.0364255],[139.0208891,36.0364334]]]},"properties":{"layer":"landslide","class_code":"1","class_label":"急傾斜地の崩落","status_code":"0","status_label":"特別警戒区域指定済み"}},{"type":"Feature","id":"lsld_0f90ebcf-d320-4e3d-af0a-a20400390986","geometry":{"type":"Polygon","coordinates":[[[139.0220693,36.0374577],[139.0220675,36.0374608],[139.0217082,36.0376002],[139.0215601,36.0375299],[139.0213316,36.0373976],[139.0211728,36.0372289],[139.0211694,36.0372234],[139.0211021,36.0371128],[139.0210248,36.0370294],[139.0209147,36.0368864],[139.0209004,36.0367902],[139.0208791,36.036646],[139.0208791,36.0366444],[139.02088,36.0366218],[139.0208845,36.0365115],[139.0208876,36.0364356],[139.0208876,36.0364346],[139.0208891,36.0364334],[139.0208951,36.0364289],[139.0209252,36.0364063],[139.0209541,36.0365962],[139.0211487,36.0367492],[139.0212277,36.0369391],[139.021272,36.0370296],[139.0213339,36.037084],[139.0213733,36.0371186],[139.0214574,36.0372923],[139.0216441,36.0373869],[139.021792,36.0374273],[139.0220048,36.0373945],[139.0220355,36.0373441],[139.0220906,36.0372533],[139.0221527,36.0371564],[139.0221718,36.0371593],[139.0221775,36.0372115],[139.0221838,36.0372688],[139.0221692,36.0372929],[139.0220693,36.0374577]]]},"properties":{"layer":"landslide","class_code":"1","class_label":"急傾斜地の崩落","status_code":"0","status_label":"特別警戒区域指定済み"}},{"type":"Feature","id":"lsld_ee266324-c2ee-4321-a459-7f09c96efcff","geometry":{"type":"Polygon","coordinates":[[[139.0244543,36.0347045],[139.0241715,36.0344488],[139.0240836,36.034385],[139.0240238,36.0343089],[139.0239373,36.0342492],[139.0238779,36.0342454],[139.0237837,36.034216],[139.0235943,36.0342195],[139.0235099,36.0341912],[139.0234514,36.0341852],[139.0233679,36.0341852],[139.0228765,36.0340277],[139.0228798,36.034022],[139.0229143,36.0339671],[139.0229397,36.033931],[139.0229849,36.033882],[139.0230553,36.0338084],[139.0231221,36.0337363],[139.0231637,36.0336887],[139.0231672,36.0336839],[139.0232144,36.0336194],[139.0232311,36.0335966],[139.02333,36.0336142],[139.0235213,36.0336506],[139.0237435,36.0336902],[139.0239298,36.0337681],[139.0240662,36.0338632],[139.0241504,36.0339081],[139.0242088,36.0339399],[139.0243616,36.0339003],[139.0244721,36.0339754],[139.0245405,36.0340714],[139.0245466,36.03414],[139.0247232,36.0341077],[139.0248726,36.0340464],[139.0249937,36.0340634],[139.025,36.03406363940887],[139.025,36.03436431428568],[139.0249765,36.0344236],[139.0249605,36.0344729],[139.0249526,36.0344974],[139.0249293,36.0345588],[139.0249286,36.0345586],[139.0248777,36.0345455],[139.0248158,36.0345373],[139.024725,36.0345287],[139.0244543,36.0347045]]]},"properties":{"layer":"landslide","class_code":"1","class_label":"急傾斜地の崩落","status_code":"0","status_label":"特別警戒区域指定済み"}},{"type":"Feature","id":"lsld_23abf064-563f-467e-bbf5-11226ed8c38f","geometry":{"type":"Polygon","coordinates":[[[139.025,36.034582107692316],[139.0249293,36.0345588],[139.0249286,36.0345586],[139.0249532,36.0344936],[139.0249605,36.0344729],[139.0249825,36.0344111],[139.025,36.03436523568769],[139.025,36.034582107692316]]]},"properties":{"layer":"landslide","class_code":"1","class_label":"急傾斜地の崩落","status_code":"0","status_label":"特別警戒区域指定済み"}},{"type":"Feature","id":"lsld_942e6761-44f6-4972-ae70-5e036118cf64","geometry":{"type":"Polygon","coordinates":[[[139.0192847,36.0375127],[139.0192393,36.0375405],[139.0191249,36.0376067],[139.0191243,36.0376071],[139.019123,36.0376055],[139.0191056,36.0375864],[139.019026,36.0375304],[139.0189334,36.0374799],[139.018865,36.0374607],[139.018822,36.0373117],[139.0188248,36.0370914],[139.0187982,36.0370045],[139.0187377,36.0369014],[139.0187154,36.0367306],[139.0187155,36.0367304],[139.01881,36.0366356],[139.0188536,36.0364785],[139.0188464,36.0363066],[139.0187738,36.036167],[139.0186876,36.0359669],[139.0187925,36.0358278],[139.0188721,36.0358078],[139.0188814,36.0358327],[139.0188282,36.0358682],[139.0187891,36.0359634],[139.0188801,36.0361206],[139.0189535,36.0362863],[139.0190066,36.0364659],[139.018999,36.0366467],[139.0189984,36.0366469],[139.0189802,36.0367419],[139.0189798,36.0367421],[139.0189983,36.0368428],[139.0190413,36.0369459],[139.0191212,36.0370651],[139.0191348,36.0372416],[139.0191657,36.0373373],[139.0192847,36.0375127]]]},"properties":{"layer":"landslide","class_code":"1","class_label":"急傾斜地の崩落","status_code":"0","status_label":"特別警戒区域指定済み"}},{"type":"Feature","id":"lsld_41b1f28e-9724-428f-a8b2-b5aa3af52510","geometry":{"type":"Polygon","coordinates":[[[139.0127071,36.0396307],[139.012886,36.0396811],[139.0128868,36.0396812],[139.0129036,36.0396995],[139.0129314,36.0397237],[139.01298,36.0397659],[139.0130083,36.0397883],[139.0130068,36.0397908],[139.0129657,36.0398586],[139.0129401,36.0398919],[139.0129283,36.0399126],[139.0128323,36.0398613],[139.0127846,36.0398359],[139.0127842,36.0398356],[139.0126101,36.0397686],[139.0125,36.03967460306121],[139.0125,36.0396549903226],[139.012508,36.0396409],[139.0125297,36.039603],[139.0125378,36.0395887],[139.0127071,36.0396307]]]},"properties":{"layer":"landslide","class_code":"1","class_label":"急傾斜地の崩落","status_code":"0","status_label":"特別警戒区域指定済み"}},{"type":"Feature","id":"lsld_9a48d753-b541-47cc-aa88-bf10081b5e0d","geometry":{"type":"Polygon","coordinates":[[[139.0230361,36.0392785],[139.0229648,36.0393035],[139.0228765,36.0393343],[139.0228312,36.0391186],[139.0229243,36.0389007],[139.0229295,36.0389009],[139.0229766,36.0389035],[139.0230023,36.0391006],[139.0230361,36.0392785]]]},"properties":{"layer":"landslide","class_code":"1","class_label":"急傾斜地の崩落","status_code":"0","status_label":"特別警戒区域指定済み"}},{"type":"Feature","id":"lsld_5ed15cee-5f78-4e5a-add2-2b90c7258657","geometry":{"type":"Polygon","coordinates":[[[139.0246479,36.0389336],[139.0247075,36.0390038],[139.0248673,36.0391674],[139.0249771,36.0392603],[139.025,36.0393366539084],[139.025,36.03964118514008],[139.0249618,36.0396182],[139.0248277,36.039492],[139.0246679,36.0394094],[139.0246232,36.0393618],[139.0244276,36.0392315],[139.0242136,36.0389621],[139.0242291,36.038667],[139.0243027,36.0386408],[139.0246061,36.0386191],[139.0247209,36.038601],[139.0247425,36.0385853],[139.0247465,36.0385664],[139.0247961,36.0384721],[139.0248201,36.0384012],[139.0248411,36.0382482],[139.0248437,36.0381851],[139.0248544,36.0380921],[139.0248417,36.038002],[139.0248376,36.0380028],[139.0248378,36.038002],[139.0248326,36.0379712],[139.0248356,36.0379707],[139.025,36.037944434911246],[139.025,36.0387149993133],[139.0249523,36.0387688],[139.0247673,36.0388751],[139.0246253,36.0388647],[139.0246479,36.0389336]]]},"properties":{"layer":"landslide","class_code":"1","class_label":"急傾斜地の崩落","status_code":"0","status_label":"特別警戒区域指定済み"}},{"type":"Feature","id":"lsld_1cfd6adb-00ee-4c18-b50f-b277dde000e6","geometry":{"type":"Polygon","coordinates":[[[139.0231566,36.0375506],[139.023094,36.0375849],[139.0230275,36.0376286],[139.0229627,36.0376913],[139.0229577,36.0376963],[139.0229212,36.0377325],[139.0229095,36.0377441],[139.0228989,36.0377546],[139.0228979,36.0377556],[139.0228938,36.0377589],[139.0228013,36.0378343],[139.0227971,36.0378354],[139.0227895,36.0378374],[139.0226238,36.0378814],[139.0222672,36.0376213],[139.0222512,36.0375678],[139.0221692,36.0372929],[139.0221612,36.0372662],[139.0221775,36.0372115],[139.0221922,36.0371624],[139.0221956,36.0371511],[139.0222,36.0371516],[139.0222119,36.0371531],[139.0222106,36.0371652],[139.0221995,36.0372691],[139.0222229,36.0372931],[139.0224222,36.0374967],[139.0225965,36.0375222],[139.0228134,36.037542],[139.0228625,36.0375139],[139.0229623,36.0374569],[139.0231723,36.0373689],[139.0233799,36.0372714],[139.0235873,36.0372066],[139.0237705,36.0371973],[139.0238511,36.0372138],[139.0239516,36.0372343],[139.0241625,36.0373005],[139.0244073,36.0373616],[139.0243794,36.0374094],[139.0243134,36.0375043],[139.0242853,36.0374919],[139.0241809,36.0374391],[139.0240647,36.0373957],[139.0239872,36.0373731],[139.0239523,36.0373634],[139.0239031,36.0373567],[139.0238786,36.0373534],[139.02383,36.0373515],[139.0237562,36.037351],[139.023686,36.0373695],[139.0236796,36.0373715],[139.0236022,36.0373957],[139.0235169,36.0374244],[139.0235008,36.0374298],[139.0234131,36.037456],[139.0234135,36.0374569],[139.0233829,36.0374672],[139.0233009,36.0374947],[139.0232526,36.0375106],[139.0232112,36.0375241],[139.0231566,36.0375506]]]},"properties":{"layer":"landslide","class_code":"1","class_label":"急傾斜地の崩落","status_code":"0","status_label":"特別警戒区域指定済み"}},{"type":"Feature","id":"lsld_7d3f218f-3217-49c7-9ccd-8b1f18a2cd0d","geometry":{"type":"Polygon","coordinates":[[[139.0200979,36.0362349],[139.0201322,36.0362488],[139.020313,36.0362778],[139.0203723,36.0362878],[139.0204244,36.0363163],[139.0203963,36.0363588],[139.0203891,36.0363698],[139.020388,36.0363714],[139.0203652,36.036358],[139.0203399,36.0363432],[139.0203305,36.0363418],[139.0202819,36.036335],[139.0201157,36.0362886],[139.0200356,36.0362567],[139.0200402,36.0362428],[139.0200475,36.0362209],[139.0200494,36.0362152],[139.0200979,36.0362349]]]},"properties":{"layer":"landslide","class_code":"1","class_label":"急傾斜地の崩落","status_code":"0","status_label":"特別警戒区域指定済み"}},{"type":"Feature","id":"lsld_df0e7214-d692-4b63-8e04-149c892fa835","geometry":{"type":"Polygon","coordinates":[[[139.0207564,36.0364939],[139.0207805,36.0365073],[139.0207989,36.0365328],[139.0208152,36.0365555],[139.0208791,36.0366444],[139.0208934,36.0366642],[139.0209514,36.0367726],[139.0209109,36.0367865],[139.0209004,36.0367902],[139.0208641,36.0368027],[139.0208594,36.0368043],[139.0208449,36.0368094],[139.0207574,36.0368396],[139.0207493,36.0368413],[139.0207016,36.0367322],[139.0206472,36.0365771],[139.0205764,36.0364922],[139.0205676,36.0364817],[139.020541,36.0364498],[139.0205515,36.0364395],[139.020563,36.0364282],[139.0205766,36.0364148],[139.02059,36.0364017],[139.0207564,36.0364939]]]},"properties":{"layer":"landslide","class_code":"1","class_label":"急傾斜地の崩落","status_code":"0","status_label":"特別警戒区域指定済み"}},{"type":"Feature","id":"lsld_6b565a89-452b-426c-bffe-6dd7e1a41a52","geometry":{"type":"Polygon","coordinates":[[[139.0236877,36.0373695],[139.0236796,36.0373715],[139.0236172,36.0373869],[139.0235789,36.0374009],[139.0235169,36.0374244],[139.0234861,36.037436],[139.0233829,36.0374672],[139.0233625,36.0374733],[139.0232526,36.0375106],[139.0232315,36.0375177],[139.0231343,36.0375635],[139.0230575,36.0376094],[139.0230161,36.0376437],[139.0229577,36.0376963],[139.0229347,36.037717],[139.0229095,36.0377441],[139.0229017,36.0377525],[139.0229006,36.0377537],[139.0228938,36.0377589],[139.0228533,36.0377903],[139.0228133,36.0378234],[139.0227971,36.0378354],[139.0227498,36.0378706],[139.0227299,36.0378823],[139.0227217,36.0378871],[139.0227139,36.0378937],[139.0226951,36.0379096],[139.0226478,36.0379426],[139.0226213,36.0379603],[139.0225989,36.0379586],[139.0225509,36.0379568],[139.0224703,36.0379533],[139.0224362,36.0379513],[139.0224322,36.0379507],[139.0223875,36.0379444],[139.0223619,36.0379389],[139.0223492,36.0379357],[139.0223085,36.0379254],[139.0222609,36.037912],[139.0222255,36.0379012],[139.022193,36.0378913],[139.0221864,36.0378893],[139.0221571,36.0378803],[139.0221308,36.0378736],[139.0221124,36.0378699],[139.0221001,36.0378674],[139.0220431,36.0378438],[139.0220296,36.0378403],[139.0220241,36.0378389],[139.0220117,36.0378323],[139.0219744,36.0378237],[139.0219356,36.0378145],[139.021905,36.0377988],[139.0218748,36.0377716],[139.0218737,36.0377706],[139.021841,36.0377412],[139.0218189,36.0377205],[139.0218044,36.0377071],[139.021801,36.037704],[139.0217676,36.0376769],[139.0217376,36.0376555],[139.0217247,36.0376463],[139.0216962,36.0376294],[139.021662,36.0376089],[139.0216087,36.0375812],[139.0215591,36.037557],[139.0215044,36.0375322],[139.0214611,36.0375101],[139.0214453,36.037502],[139.0214462,36.0374987],[139.0213982,36.03748],[139.0213326,36.0374438],[139.0212713,36.03741],[139.0212234,36.0373644],[139.0211961,36.0373396],[139.0211812,36.037326],[139.0211435,36.0372829],[139.0211247,36.0372613],[139.0211249,36.0372611],[139.0211288,36.0372578],[139.0211694,36.0372234],[139.0213339,36.037084],[139.0214363,36.0369972],[139.0216683,36.0368006],[139.0218439,36.036649],[139.0220196,36.0364975],[139.0220993,36.0364287],[139.0221953,36.036346],[139.0223709,36.0361944],[139.0225466,36.0360429],[139.0227223,36.0358913],[139.0228979,36.0357398],[139.0230121,36.0356413],[139.0230669,36.0355869],[139.0231117,36.0355955],[139.0231376,36.0356005],[139.0231647,36.0356056],[139.0232644,36.0356247],[139.0232902,36.0356946],[139.0233382,36.0358241],[139.0234119,36.0360235],[139.0234857,36.0362228],[139.0235594,36.0364221],[139.0236332,36.0366215],[139.0237069,36.0368208],[139.0237807,36.0370201],[139.0238024,36.0370798],[139.0238511,36.0372138],[139.0239031,36.0373567],[139.0239035,36.0373578],[139.0238478,36.0373527],[139.0237818,36.0373523],[139.0236877,36.0373695]]]},"properties":{"layer":"landslide","class_code":"2","class_label":"土石流","status_code":"0","status_label":"特別警戒区域指定済み"}},{"type":"Feature","id":"lsld_102dcfb7-f083-4ccb-a955-b7a7e2c02825","geometry":{"type":"Polygon","coordinates":[[[139.0213597,36.0353752],[139.0213978,36.0354294],[139.0214867,36.0355559],[139.0216136,36.0357368],[139.0217405,36.0359176],[139.0218674,36.0360984],[139.0219944,36.0362792],[139.0220993,36.0364287],[139.0221213,36.03646],[139.0222482,36.0366408],[139.0223751,36.0368217],[139.0227847,36.0374034],[139.0228625,36.0375139],[139.0229736,36.0376717],[139.0229347,36.037717],[139.0229212,36.0377325],[139.0229083,36.0377475],[139.0229017,36.0377525],[139.0228989,36.0377546],[139.0227895,36.0378374],[139.0227368,36.0378774],[139.0227299,36.0378823],[139.0227139,36.0378937],[139.0226474,36.0379411],[139.0226208,36.03796],[139.0225878,36.0379574],[139.0224999,36.0379544],[139.0224322,36.0379507],[139.0224251,36.0379503],[139.0223665,36.0379416],[139.022351,36.0379373],[139.0222576,36.0379117],[139.0222255,36.0379012],[139.0221925,36.0378904],[139.0221864,36.0378893],[139.0221523,36.037883],[139.0221303,36.0378751],[139.0221124,36.0378699],[139.0220945,36.0378647],[139.0220397,36.0378417],[139.0220296,36.0378403],[139.0220214,36.0378392],[139.0219783,36.0378388],[139.0219476,36.0378353],[139.0219157,36.0378195],[139.0218877,36.0377936],[139.0218697,36.0377734],[139.0218573,36.0377595],[139.0218189,36.0377205],[139.0218093,36.0377109],[139.0218044,36.0377071],[139.0218024,36.0377056],[139.0217376,36.0376555],[139.0217315,36.0376508],[139.0216842,36.0376136],[139.021639,36.0375888],[139.0215704,36.0375568],[139.021493,36.0375253],[139.0214611,36.0375101],[139.0214207,36.0374909],[139.0213514,36.0374588],[139.0212785,36.037416],[139.0212516,36.0373956],[139.0212138,36.0373596],[139.0211961,36.0373396],[139.0211471,36.0372841],[139.0211249,36.0372611],[139.021113,36.0372487],[139.0210812,36.037208],[139.0210552,36.0371673],[139.0210213,36.0371123],[139.0209924,36.0370657],[139.0209499,36.0369963],[139.0208613,36.0368337],[139.0208449,36.0368094],[139.0208144,36.0367643],[139.0207761,36.0367068],[139.020743,36.0366494],[139.020696,36.0365848],[139.0206938,36.0365829],[139.0206254,36.0365235],[139.0205676,36.0364817],[139.0205607,36.0364766],[139.0205097,36.0364429],[139.0204972,36.0364359],[139.0204368,36.0364019],[139.0204396,36.0363979],[139.0205022,36.036311],[139.0205154,36.0362928],[139.0205298,36.0362727],[139.0205662,36.0362222],[139.0206413,36.0361179],[139.0206592,36.036093],[139.0207885,36.0359133],[139.0209178,36.0357337],[139.0210472,36.035554],[139.0211377,36.0354282],[139.0211457,36.0353738],[139.0213597,36.0353752]]]},"properties":{"layer":"landslide","class_code":"2","class_label":"土石流","status_code":"0","status_label":"特別警戒区域指定済み"}},{"type":"Feature","id":"lsld_906681ae-c927-4ad5-ab2a-37457d31a7a5","geometry":{"type":"Polygon","coordinates":[[[139.0145283,36.0399749],[139.0143937,36.0401791],[139.0142587,36.0404169],[139.0141529,36.0406381],[139.0140127,36.0409869],[139.0138349,36.0413656],[139.0137021885073,36.041666666666664],[139.0125,36.041666666666664],[139.0125,36.040322857442895],[139.0127389,36.0399911],[139.0128323,36.0398613],[139.0129314,36.0397237],[139.0129496,36.0396985],[139.0130111,36.0397527],[139.0130543,36.0397816],[139.013109,36.039792],[139.0132136,36.0397911],[139.0132831,36.0397747],[139.0133714,36.0397451],[139.0135091,36.0396418],[139.013626,36.0395451],[139.0137347,36.0394416],[139.013955,36.0393624],[139.0142289,36.0392936],[139.0146101,36.0392693],[139.0151195,36.0392526],[139.0152478,36.0392535],[139.0150472,36.0394371],[139.014834,36.0396374],[139.0146709,36.0397909],[139.0145283,36.0399749]]]},"properties":{"layer":"landslide","class_code":"2","class_label":"土石流","status_code":"0","status_label":"特別警戒区域指定済み"}},{"type":"Feature","id":"lsld_9cec0f75-a7bc-43fd-9723-9fbee072a7ba","geometry":{"type":"Polygon","coordinates":[[[139.0231647,36.0356056],[139.0231806,36.0356736],[139.0231112,36.0356603],[139.0231117,36.0355955],[139.0231376,36.0356005],[139.0231647,36.0356056]]]},"properties":{"layer":"landslide","class_code":"2","class_label":"土石流","status_code":"0","status_label":"特別警戒区域指定済み"}},{"type":"Feature","id":"lsld_119a8d41-def3-4ec8-b40e-294bb9e67c05","geometry":{"type":"Polygon","coordinates":[[[139.0212747,36.0353751],[139.021305,36.0353752],[139.0213357,36.0354294],[139.0212517,36.035429],[139.0212481,36.0353749],[139.0212747,36.0353751]]]},"properties":{"layer":"landslide","class_code":"2","class_label":"土石流","status_code":"0","status_label":"特別警戒区域指定済み"}}]}