{"type":"FeatureCollection","properties":{"mesh_code":"54390076","source":"PLATEAU秩父市2025","layer":"landslide"},"features":[{"type":"Feature","id":"lsld_461468ab-59a1-4d5d-9f8f-245e29794d76","geometry":{"type":"Polygon","coordinates":[[[139.0875,36.064508362231756],[139.0874794,36.0645096],[139.0874165,36.064548],[139.0873516,36.0646164],[139.0872314,36.064761],[139.087092,36.0649336],[139.0869883,36.0648919],[139.0869336,36.0648699],[139.0868378,36.0648314],[139.0868341,36.0648299],[139.0868346,36.064829],[139.0869076,36.0646986],[139.0869946,36.0645164],[139.0870878,36.064344],[139.087189,36.0642281],[139.0873339,36.0640943],[139.087499,36.0639792],[139.0875,36.063978546177005],[139.0875,36.064508362231756]]]},"properties":{"layer":"landslide","class_code":"1","class_label":"急傾斜地の崩落","status_code":"0","status_label":"特別警戒区域指定済み"}},{"type":"Feature","id":"lsld_657b8a91-7029-4ff8-9162-dcd73594ed34","geometry":{"type":"Polygon","coordinates":[[[139.0857649,36.0662352],[139.0856307,36.0663846],[139.0855431,36.0665072],[139.08545897571076,36.06666666666667],[139.08524981442412,36.06666666666667],[139.0852278,36.0666434],[139.0851037,36.0665132],[139.0851,36.0665093],[139.0850534,36.0664726],[139.0850125,36.0664443],[139.0849678,36.0664125],[139.0849245,36.066382],[139.0848932,36.066355],[139.0848567,36.0663093],[139.0848287,36.0662637],[139.0848128,36.0662334],[139.0847981,36.0662125],[139.0847522,36.0661725],[139.0846805,36.0661003],[139.0846634,36.0660837],[139.0846305,36.0660693],[139.0846087,36.0660556],[139.0845527,36.0660186],[139.0844746,36.0659587],[139.0844508,36.0659316],[139.0844127,36.0659105],[139.0843735,36.0658965],[139.0843386,36.0658911],[139.084314,36.0658867],[139.0842878,36.0658778],[139.0842544,36.065854],[139.084211,36.0658218],[139.0842019,36.0658131],[139.0841827,36.0657999],[139.0841648,36.0657919],[139.0841354,36.0657712],[139.0841056,36.0657524],[139.0840757,36.0657176],[139.0840486,36.0657009],[139.0840127,36.065686],[139.0839609,36.0656683],[139.0839193,36.0656635],[139.0838922,36.0656596],[139.083881,36.065658],[139.0838466,36.0656624],[139.0837892,36.0656589],[139.0837129,36.0656493],[139.083656,36.0656454],[139.0835988,36.0656465],[139.0835645,36.0656479],[139.0835224,36.0656492],[139.0834729,36.0656495],[139.0834215,36.0656447],[139.0833735,36.0656345],[139.0833543,36.0656352],[139.0833308,36.0656367],[139.0833006,36.0656387],[139.0832628,36.0656401],[139.0832057,36.0656425],[139.0831564,36.065641],[139.0831152,36.0656393],[139.0830966,36.0656368],[139.0830557,36.0656387],[139.082977,36.0656426],[139.0829557,36.065641],[139.0828802,36.0654922],[139.0826927,36.0654008],[139.0824613,36.0652262],[139.0821944,36.0651409],[139.0823124,36.0649476],[139.0823581,36.0648728],[139.0824421,36.0647351],[139.0824784,36.0646757],[139.0825277,36.064595],[139.0827109,36.064666],[139.0829227,36.0647978],[139.0831062,36.06487],[139.083287,36.0649395],[139.0834565,36.0650139],[139.0836552,36.065108],[139.083765,36.0652411],[139.0838432,36.0652787],[139.0840159,36.0653573],[139.0842455,36.0654629],[139.0844035,36.0655491],[139.0845404,36.065644],[139.0846677,36.0657402],[139.0847938,36.0658536],[139.0848984,36.0659399],[139.0849985,36.0660069],[139.085091,36.0660413],[139.0850967,36.0660921],[139.0851045,36.0661933],[139.0851139,36.0661932],[139.0851496,36.0661191],[139.0851806,36.0659738],[139.0852309,36.0658744],[139.0853343,36.065765],[139.0854995,36.0656093],[139.0855893,36.0655082],[139.0857162,36.0653765],[139.0859156,36.0653203],[139.0860149,36.0652969],[139.0860804,36.0652562],[139.0861124,36.0651815],[139.0861413,36.0651277],[139.0861835,36.0650433],[139.0862238,36.0650454],[139.0861035,36.0649747],[139.0860084,36.0649235],[139.0860827,36.0648565],[139.0861384,36.0648063],[139.0861736,36.0647745],[139.0862127,36.0647393],[139.0863871,36.0647684],[139.086523,36.0648817],[139.086611,36.0650621],[139.0866375,36.0651165],[139.0866489,36.06514],[139.0866694,36.065182],[139.0865941,36.0652738],[139.0865164,36.0654027],[139.0865411,36.0655325],[139.0864025,36.0655836],[139.0863043,36.0656198],[139.0860282,36.0656504],[139.0861551,36.0658243],[139.0860823,36.0658903],[139.0860449,36.0659458],[139.0858795,36.0660112],[139.0858618,36.0661435],[139.0857649,36.0662352]]]},"properties":{"layer":"landslide","class_code":"1","class_label":"急傾斜地の崩落","status_code":"0","status_label":"特別警戒区域指定済み"}},{"type":"Feature","id":"lsld_1d0bece9-ae88-45ab-b060-10943edf6cec","geometry":{"type":"Polygon","coordinates":[[[139.0868421,36.0652954],[139.0868301,36.065311],[139.0868165,36.0653292],[139.0868063,36.0653477],[139.0867997,36.0653599],[139.0867866,36.06539],[139.0867794,36.0654107],[139.0867785,36.0654243],[139.086779,36.0654394],[139.0867914,36.0654567],[139.0867927,36.0654584],[139.0867983,36.0654656],[139.0868087,36.0654859],[139.0868068,36.0655082],[139.0867963,36.0655362],[139.0867861,36.0655562],[139.0867735,36.0655645],[139.0867687,36.0655677],[139.0867549,36.0655763],[139.0867416,36.0655859],[139.0867253,36.0655979],[139.0867228,36.065612],[139.0867199,36.0656288],[139.0867111,36.065654],[139.0866979,36.0656894],[139.0866822,36.0657232],[139.0866791,36.0657338],[139.0866726,36.0657555],[139.0866681,36.0657741],[139.0866647,36.0657907],[139.0866641,36.0657931],[139.0866613,36.0658059],[139.0866571,36.0658229],[139.0866441,36.065858],[139.0866322,36.0658833],[139.0866187,36.0659095],[139.0866074,36.0659281],[139.086593,36.0659546],[139.0865682,36.0659967],[139.086561,36.0660135],[139.0865584,36.0660307],[139.0865578,36.0660509],[139.0865522,36.0660715],[139.086548,36.0660869],[139.0865407,36.0661026],[139.0864476,36.0660849],[139.0864259,36.0660808],[139.0863179,36.0660602],[139.0863328,36.0660265],[139.0863667,36.0658541],[139.0862837,36.0656978],[139.0863873,36.065602],[139.0864025,36.0655836],[139.0864549,36.0655205],[139.0864991,36.0653964],[139.0864989,36.0653962],[139.0865656,36.0653059],[139.0865783,36.0652866],[139.0865788,36.0652866],[139.0866147,36.0651837],[139.0866292,36.0651458],[139.086629,36.0651456],[139.0866489,36.06514],[139.0866821,36.0651307],[139.0866375,36.0651165],[139.0866249,36.0651124],[139.0866001,36.0650991],[139.086611,36.0650621],[139.0866257,36.0650114],[139.0866337,36.0649842],[139.0866405,36.0649606],[139.0866592,36.0648965],[139.0867905,36.0647955],[139.0868346,36.064829],[139.0868378,36.0648314],[139.0869738,36.0649344],[139.0870231,36.0650125],[139.0870072,36.0650306],[139.0869765,36.065067],[139.0869412,36.065113],[139.0869204,36.0651401],[139.0869044,36.0651628],[139.0868996,36.0651697],[139.0868911,36.0651896],[139.0868823,36.06521],[139.0868747,36.0652278],[139.0868697,36.065243],[139.0868664,36.0652565],[139.0868585,36.065272],[139.0868421,36.0652954]]]},"properties":{"layer":"landslide","class_code":"1","class_label":"急傾斜地の崩落","status_code":"0","status_label":"特別警戒区域指定済み"}},{"type":"Feature","id":"lsld_10b9d7b5-465f-4a4b-9661-7b2014f8b874","geometry":{"type":"Polygon","coordinates":[[[139.076072,36.0628698],[139.0760804,36.0628988],[139.0760806,36.0628993],[139.0760876,36.0629123],[139.0760976,36.0629317],[139.0761229,36.0629595],[139.0761481,36.0629903],[139.0761623,36.0630117],[139.0761757,36.0630376],[139.0761845,36.0630848],[139.0761793,36.0631249],[139.076168,36.0631531],[139.0761359,36.0632189],[139.0760976,36.0632832],[139.076074,36.0633206],[139.0760549,36.0633442],[139.0760439,36.0633747],[139.0760421,36.0634071],[139.0760794,36.0634902],[139.0761238,36.0635863],[139.0760375,36.0635488],[139.0760052,36.0635349],[139.0758973,36.0634996],[139.0758693,36.0634904],[139.0758489,36.0634836],[139.0758104,36.0634696],[139.0757814,36.0634608],[139.0757681,36.0634568],[139.0757608,36.0634546],[139.075701,36.0634392],[139.0756604,36.0634286],[139.0756217,36.0634185],[139.0755833,36.0634085],[139.0755401,36.0633973],[139.0754855,36.0633831],[139.0754206,36.0633553],[139.0753417,36.0633211],[139.075304,36.0633047],[139.0752218,36.0632669],[139.0751549,36.0632359],[139.075076,36.0632092],[139.075,36.06318356052366],[139.075,36.062721000256936],[139.0750211,36.0627255],[139.0752244,36.0627836],[139.0754411,36.0628439],[139.0755444,36.0628642],[139.0755253,36.0627943],[139.0756098,36.0626979],[139.0756092,36.0626977],[139.0753964,36.0625992],[139.0754951,36.0625581],[139.0755701,36.0625269],[139.0756049,36.0625124],[139.0756661,36.062487],[139.0757495,36.0624522],[139.0762069,36.0623897],[139.0762167,36.0623986],[139.0762137,36.0624008],[139.0762108,36.0624029],[139.0762007,36.0624146],[139.0761931,36.062423],[139.076183,36.0624395],[139.0761736,36.062459],[139.0761667,36.0624727],[139.0761556,36.0625104],[139.076145,36.0625437],[139.076136,36.0625712],[139.0761262,36.0625898],[139.076114,36.0626128],[139.076112,36.0626166],[139.0761018,36.0626373],[139.0760958,36.0626492],[139.0760828,36.062685],[139.0760769,36.0627015],[139.0760689,36.0627392],[139.0760666,36.0627494],[139.0760618,36.0627951],[139.0760675,36.0628332],[139.076072,36.0628698]]]},"properties":{"layer":"landslide","class_code":"1","class_label":"急傾斜地の崩落","status_code":"0","status_label":"特別警戒区域指定済み"}},{"type":"Feature","id":"lsld_008f4666-0346-4806-93ba-53cece021eef","geometry":{"type":"Polygon","coordinates":[[[139.0875,36.06435891466992],[139.0874524,36.0644057],[139.0873898,36.0644898],[139.0873076,36.0646353],[139.0871132,36.0647838],[139.087078,36.0647692],[139.087025,36.0647472],[139.0871386,36.0645711],[139.0872252,36.0644103],[139.0873211,36.0643172],[139.087459,36.0641932],[139.0875,36.06416656002445],[139.0875,36.06435891466992]]]},"properties":{"layer":"landslide","class_code":"1","class_label":"急傾斜地の崩落","status_code":"0","status_label":"特別警戒区域指定済み"}},{"type":"Feature","id":"lsld_5d4dd957-86b9-436a-bb53-2f10a7248344","geometry":{"type":"Polygon","coordinates":[[[139.076132,36.0632121],[139.0758854,36.0634281],[139.0757681,36.0634568],[139.0757608,36.0634546],[139.075701,36.0634392],[139.0756604,36.0634286],[139.0756217,36.0634185],[139.0755833,36.0634085],[139.0755401,36.0633973],[139.0754855,36.0633831],[139.0754206,36.0633553],[139.0753417,36.0633211],[139.075304,36.0633047],[139.0752218,36.0632669],[139.0751549,36.0632359],[139.075076,36.0632092],[139.075,36.06318356052366],[139.075,36.06287355378341],[139.0752078,36.0629308],[139.075377,36.0629836],[139.0756044,36.0630372],[139.0756662,36.0630344],[139.0756664,36.0630342],[139.0756668,36.063034],[139.0756973,36.0627965],[139.0757384,36.0625983],[139.0757254,36.0625787],[139.0755701,36.0625269],[139.0756049,36.0625124],[139.0756661,36.062487],[139.0759567,36.0624567],[139.076114,36.0626128],[139.076112,36.0626166],[139.0761018,36.0626373],[139.0760958,36.0626492],[139.0760828,36.062685],[139.0760769,36.0627015],[139.0760689,36.0627392],[139.0760666,36.0627494],[139.0760618,36.0627951],[139.0760675,36.0628332],[139.076072,36.0628698],[139.0760804,36.0628988],[139.0760806,36.0628993],[139.076132,36.0632121]]]},"properties":{"layer":"landslide","class_code":"1","class_label":"急傾斜地の崩落","status_code":"0","status_label":"特別警戒区域指定済み"}},{"type":"Feature","id":"lsld_70d05cf1-f76c-43a6-9363-84babf6f74b6","geometry":{"type":"Polygon","coordinates":[[[139.0863194,36.0648176],[139.0864419,36.0649261],[139.0863868,36.0649563],[139.0863638,36.0649688],[139.0862431,36.0648732],[139.0861384,36.0648063],[139.0861736,36.0647745],[139.0863194,36.0648176]]]},"properties":{"layer":"landslide","class_code":"1","class_label":"急傾斜地の崩落","status_code":"0","status_label":"特別警戒区域指定済み"}},{"type":"Feature","id":"lsld_0b848085-0bfc-4fa5-895d-c074e72334cb","geometry":{"type":"Polygon","coordinates":[[[139.085365,36.0664365],[139.0852591,36.0665623],[139.0851037,36.0665132],[139.0851,36.0665093],[139.0850534,36.0664726],[139.0850125,36.0664443],[139.0849678,36.0664125],[139.0849245,36.066382],[139.0848932,36.066355],[139.0848567,36.0663093],[139.0848287,36.0662637],[139.0848128,36.0662334],[139.0847981,36.0662125],[139.0847522,36.0661725],[139.0846805,36.0661003],[139.0846634,36.0660837],[139.0846305,36.0660693],[139.0846087,36.0660556],[139.0845527,36.0660186],[139.0844746,36.0659587],[139.0844508,36.0659316],[139.0844127,36.0659105],[139.0843735,36.0658965],[139.0843386,36.0658911],[139.084314,36.0658867],[139.0842878,36.0658778],[139.0842544,36.065854],[139.084211,36.0658218],[139.0842019,36.0658131],[139.0841827,36.0657999],[139.0841648,36.0657919],[139.0841354,36.0657712],[139.0841056,36.0657524],[139.0840757,36.0657176],[139.0840486,36.0657009],[139.0840127,36.065686],[139.0839609,36.0656683],[139.0839193,36.0656635],[139.0838922,36.0656596],[139.0838637,36.0655866],[139.0836744,36.0655581],[139.0834837,36.0654921],[139.0832965,36.0653939],[139.0832257,36.0653572],[139.0830953,36.0653485],[139.0829315,36.0652403],[139.0827396,36.0651871],[139.0825273,36.0650185],[139.0823124,36.0649476],[139.0823581,36.0648728],[139.0824421,36.0647351],[139.0826298,36.0648042],[139.0828287,36.0649475],[139.0830402,36.0650065],[139.0832159,36.0650672],[139.0833787,36.0651297],[139.0835454,36.0652107],[139.0836432,36.0653226],[139.0837766,36.0653889],[139.0839481,36.0654594],[139.084139,36.0655589],[139.0842961,36.0656488],[139.0844378,36.0657452],[139.0845745,36.0658373],[139.0846982,36.0659455],[139.0847983,36.0660253],[139.0848955,36.0660939],[139.0849912,36.0661428],[139.0850345,36.066207],[139.0851599,36.0663256],[139.0851769,36.0663421],[139.0852971,36.0662005],[139.0853509,36.06605],[139.0854133,36.0659522],[139.0855093,36.0658441],[139.0856593,36.0657079],[139.0857367,36.0656224],[139.085837,36.0654998],[139.0859602,36.0654511],[139.0861149,36.0654085],[139.086217,36.0653381],[139.0862504,36.0652571],[139.086292,36.0651763],[139.0863548,36.0651966],[139.086432,36.0652215],[139.086379,36.0653275],[139.086375,36.0654328],[139.0862089,36.0655134],[139.0859934,36.0655485],[139.0860055,36.0656717],[139.0859238,36.0657674],[139.085867,36.065836],[139.08571,36.0659347],[139.085656,36.0660557],[139.0855717,36.0661488],[139.0854679,36.0662948],[139.085365,36.0664365]]]},"properties":{"layer":"landslide","class_code":"1","class_label":"急傾斜地の崩落","status_code":"0","status_label":"特別警戒区域指定済み"}},{"type":"Feature","id":"lsld_48856016-8a51-4689-a5b7-b47e11eb31cf","geometry":{"type":"Polygon","coordinates":[[[139.0867735,36.0655645],[139.0867687,36.0655677],[139.0867549,36.0655763],[139.0867416,36.0655859],[139.0867253,36.0655979],[139.0867228,36.065612],[139.0867199,36.0656288],[139.0867111,36.065654],[139.0866979,36.0656894],[139.0866822,36.0657232],[139.0866791,36.0657338],[139.0866726,36.0657555],[139.0866681,36.0657741],[139.0866647,36.0657907],[139.0866641,36.0657931],[139.0865966,36.0657762],[139.0864675,36.0657438],[139.086553,36.065649],[139.0866067,36.0655652],[139.0866525,36.0654444],[139.0866522,36.0654443],[139.0867011,36.0653416],[139.0867129,36.0653227],[139.0867786,36.0653403],[139.0868063,36.0653477],[139.0867997,36.0653599],[139.0867866,36.06539],[139.0867794,36.0654107],[139.0867785,36.0654243],[139.086779,36.0654394],[139.0867914,36.0654567],[139.0867927,36.0654584],[139.0867833,36.0654853],[139.0867836,36.0654855],[139.0867735,36.0655645]]]},"properties":{"layer":"landslide","class_code":"1","class_label":"急傾斜地の崩落","status_code":"0","status_label":"特別警戒区域指定済み"}},{"type":"Feature","id":"lsld_c4a9a6f3-9c4e-4064-940c-9d9d5b4215df","geometry":{"type":"Polygon","coordinates":[[[139.0869044,36.0651628],[139.0868996,36.0651697],[139.0868369,36.0651611],[139.0867736,36.0651524],[139.0868071,36.0650511],[139.0866913,36.0649853],[139.0866337,36.0649842],[139.0866405,36.0649606],[139.0867409,36.0648904],[139.0868831,36.0649979],[139.0869044,36.0651628]]]},"properties":{"layer":"landslide","class_code":"1","class_label":"急傾斜地の崩落","status_code":"0","status_label":"特別警戒区域指定済み"}}]}