{"type":"FeatureCollection","properties":{"mesh_code":"54390045","source":"PLATEAU秩父市2025","layer":"landslide"},"features":[{"type":"Feature","id":"lsld_51d634a2-25c7-4114-ab46-6a5c5159fa45","geometry":{"type":"Polygon","coordinates":[[[139.06413102879625,36.03333333333333],[139.0641291,36.0333668],[139.064167,36.0335709],[139.0642088,36.033645],[139.0642272,36.0336727],[139.0640036,36.0337306],[139.0638622,36.0339154],[139.06391,36.0340566],[139.0638806,36.0341899],[139.0634545,36.0341565],[139.0633461,36.034148],[139.0633284,36.0341461],[139.0629395,36.0341026],[139.0628788,36.0340946],[139.0628107,36.0340855],[139.0627012,36.034071],[139.0626508,36.0339823],[139.0626561,36.0338621],[139.0627963,36.0337405],[139.0628776,36.0336503],[139.0629953,36.0335884],[139.0630883,36.0334932],[139.0630908,36.0334638],[139.0630714,36.0333726],[139.0631777,36.0333467],[139.06323276746508,36.03333333333333],[139.06413102879625,36.03333333333333]]]},"properties":{"layer":"landslide","class_code":"1","class_label":"急傾斜地の崩落","status_code":"0","status_label":"特別警戒区域指定済み"}},{"type":"Feature","id":"lsld_c4acd341-bfbe-4e37-bab8-7e89d5b03d9f","geometry":{"type":"Polygon","coordinates":[[[139.07057278654756,36.041666666666664],[139.0706157,36.0416356],[139.07071919578323,36.041666666666664],[139.07057278654756,36.041666666666664]]]},"properties":{"layer":"landslide","class_code":"1","class_label":"急傾斜地の崩落","status_code":"0","status_label":"特別警戒区域指定済み"}},{"type":"Feature","id":"lsld_be3c99df-93b4-4155-8669-d167799bc7c2","geometry":{"type":"Polygon","coordinates":[[[139.0693502,36.0411261],[139.0694795,36.0411654],[139.0694451,36.0412626],[139.0693448,36.0413011],[139.0692645,36.041332],[139.0692177,36.04135],[139.0691642,36.0413705],[139.0690725,36.0413202],[139.0690501,36.0412409],[139.0690517,36.0411504],[139.0691114,36.0411275],[139.069152,36.0411119],[139.0691972,36.0410946],[139.0692975,36.0410561],[139.0693502,36.0411261]]]},"properties":{"layer":"landslide","class_code":"1","class_label":"急傾斜地の崩落","status_code":"0","status_label":"特別警戒区域指定済み"}},{"type":"Feature","id":"lsld_050aeb87-e8e6-47d9-aec5-244ba3962b71","geometry":{"type":"Polygon","coordinates":[[[139.0694986,36.0397536],[139.0694912,36.0397901],[139.0695261,36.0398764],[139.0695902,36.0399529],[139.069585,36.0400918],[139.0696458,36.0401501],[139.0696359,36.040198],[139.0696264,36.0402205],[139.0694306,36.0405734],[139.0694597,36.0406615],[139.0693064,36.0407569],[139.0692656,36.0408407],[139.0692433,36.0408865],[139.0692366,36.0409003],[139.0692139,36.040947],[139.0691836,36.0410092],[139.0685952,36.0411312],[139.0686608,36.0409468],[139.068471,36.0409033],[139.068373,36.0408137],[139.0683859,36.040712],[139.0683613,36.0405603],[139.0683328,36.0404873],[139.0682675,36.0404197],[139.0682013,36.0403214],[139.0681883,36.0402321],[139.0681538,36.0400073],[139.0684662,36.0398941],[139.0685572,36.0398611],[139.0688183,36.0397665],[139.0688988,36.0397373],[139.0689064,36.0397361],[139.0690153,36.0397186],[139.0694986,36.0397536]]]},"properties":{"layer":"landslide","class_code":"1","class_label":"急傾斜地の崩落","status_code":"0","status_label":"特別警戒区域指定済み"}},{"type":"Feature","id":"lsld_c05c11a4-4dc4-454d-a191-d41a6295c45e","geometry":{"type":"Polygon","coordinates":[[[139.0664549,36.0345119],[139.0664356,36.0345518],[139.0663948,36.0346086],[139.0663774,36.0346285],[139.0663392,36.0346722],[139.0662553,36.0347683],[139.0661949,36.0348373],[139.0661514,36.0348872],[139.0660498,36.0350035],[139.0657137,36.0348215],[139.065563,36.0346915],[139.0654981,36.0345965],[139.065419,36.0345484],[139.0655831,36.0344195],[139.0656374,36.034259],[139.0655219,36.034228],[139.065552,36.0341827],[139.0655746,36.0341487],[139.0656004,36.0341098],[139.0656532,36.0340305],[139.0658408,36.0340853],[139.0660806,36.0341051],[139.0666199,36.0340802],[139.0666146,36.034086],[139.0666245,36.0340928],[139.0664549,36.0345119]]]},"properties":{"layer":"landslide","class_code":"1","class_label":"急傾斜地の崩落","status_code":"0","status_label":"特別警戒区域指定済み"}},{"type":"Feature","id":"lsld_cc401795-9dfa-46eb-bf2f-4614ec22da45","geometry":{"type":"Polygon","coordinates":[[[139.06370902985816,36.03333333333333],[139.0637075,36.0333987],[139.0637371,36.0335298],[139.0637785,36.0336137],[139.0637935,36.0336714],[139.0635719,36.0337286],[139.063439,36.0338795],[139.0634863,36.0340218],[139.0634545,36.0341565],[139.0633461,36.034148],[139.0633284,36.0341461],[139.0629395,36.0341026],[139.0628788,36.0340946],[139.0628287,36.0339844],[139.0628301,36.0338632],[139.0629819,36.033726],[139.0630696,36.0336589],[139.0631814,36.0335704],[139.063269,36.0334851],[139.0632795,36.0334308],[139.06324759126983,36.03333333333333],[139.06370902985816,36.03333333333333]]]},"properties":{"layer":"landslide","class_code":"1","class_label":"急傾斜地の崩落","status_code":"0","status_label":"特別警戒区域指定済み"}},{"type":"Feature","id":"lsld_e60b83db-5648-455d-9253-1de9973933ad","geometry":{"type":"Polygon","coordinates":[[[139.0692645,36.041332],[139.0692177,36.04135],[139.0691738,36.0412817],[139.0691306,36.0412101],[139.0691114,36.0411275],[139.069152,36.0411119],[139.0692012,36.0411831],[139.0692926,36.0412365],[139.0692645,36.041332]]]},"properties":{"layer":"landslide","class_code":"1","class_label":"急傾斜地の崩落","status_code":"0","status_label":"特別警戒区域指定済み"}},{"type":"Feature","id":"lsld_e9f54755-168b-4478-8d92-b0553c56f68b","geometry":{"type":"Polygon","coordinates":[[[139.0692139,36.040947],[139.0689251,36.040952],[139.0689381,36.0408122],[139.0688518,36.0407226],[139.0687636,36.0406386],[139.0687784,36.0405601],[139.0687484,36.0404121],[139.0687113,36.0403264],[139.0686483,36.0402553],[139.0685795,36.0401517],[139.0685553,36.0400419],[139.0684662,36.0398941],[139.0685572,36.0398611],[139.0688183,36.0397665],[139.0692008,36.0397575],[139.0692079,36.0397558],[139.0693033,36.0397551],[139.0693088,36.0398363],[139.0693584,36.0399488],[139.0694277,36.040022],[139.0694187,36.0401554],[139.0695257,36.0402708],[139.0694932,36.0403117],[139.0695022,36.040348],[139.069253,36.0406595],[139.0692881,36.0407548],[139.0692433,36.0408865],[139.0692366,36.0409003],[139.0692139,36.040947]]]},"properties":{"layer":"landslide","class_code":"1","class_label":"急傾斜地の崩落","status_code":"0","status_label":"特別警戒区域指定済み"}},{"type":"Feature","id":"lsld_5f5646ab-6305-4b77-9ecf-4d27a6a5ae9d","geometry":{"type":"Polygon","coordinates":[[[139.0663392,36.0346722],[139.0662553,36.0347683],[139.0661949,36.0348373],[139.0660319,36.0346886],[139.0659487,36.0345475],[139.0658839,36.0344538],[139.0657948,36.0343878],[139.0657417,36.0342968],[139.0656774,36.0342248],[139.065552,36.0341827],[139.0655746,36.0341487],[139.0657139,36.0341937],[139.0659178,36.0341605],[139.0664649,36.034125],[139.066505,36.0341906],[139.0665553,36.0342244],[139.0665254,36.034281],[139.0665029,36.0342973],[139.0663035,36.0345751],[139.0663392,36.0346722]]]},"properties":{"layer":"landslide","class_code":"1","class_label":"急傾斜地の崩落","status_code":"0","status_label":"特別警戒区域指定済み"}}]}