{"type":"FeatureCollection","properties":{"mesh_code":"54390018","source":"PLATEAU秩父市2025","layer":"landslide"},"features":[{"type":"Feature","id":"lsld_709893af-2f5e-4c9d-aa8a-94dbc4644970","geometry":{"type":"Polygon","coordinates":[[[139.107196,36.0115896],[139.1066456,36.0116286],[139.1064714,36.011609],[139.1064396,36.0115835],[139.1064104,36.0115678],[139.1063621,36.0115544],[139.106321,36.0115541],[139.1062846,36.0115241],[139.1062876,36.011511],[139.106273,36.0115014],[139.1062422,36.0115],[139.1061864,36.0115092],[139.1061676,36.0114805],[139.1061384,36.0114636],[139.1060988,36.0114574],[139.1060314,36.0114439],[139.1060153,36.0114366],[139.1059994,36.0114186],[139.1059748,36.0113744],[139.1059444,36.0113325],[139.1058861,36.0112856],[139.1057885,36.0112099],[139.1057201,36.0111475],[139.1056881,36.0111139],[139.1056786,36.0110981],[139.1056751,36.0110923],[139.1055984,36.0108974],[139.105369,36.0104945],[139.1056736,36.0105452],[139.1057728,36.0105617],[139.1058853,36.0105804],[139.1059386,36.0105846],[139.1059849,36.0105848],[139.1060172,36.0105841],[139.1060858,36.0105826],[139.106108,36.010581],[139.1061368,36.010579],[139.1061879,36.0105706],[139.106216,36.0105622],[139.1060063,36.0106671],[139.1060421,36.0106744],[139.1065296,36.0107722],[139.1065304,36.0107742],[139.1065311,36.0107743],[139.1066847,36.0107994],[139.1067412,36.0108401],[139.1067413,36.0108098],[139.1067438,36.0107651],[139.1067397,36.0107124],[139.1067177,36.0106065],[139.1066329,36.0103824],[139.1066311,36.0103722],[139.1066296,36.0103704],[139.1066282,36.0103628],[139.1066274,36.0103521],[139.1066275,36.0103512],[139.1066308,36.010333],[139.1066553,36.0100639],[139.1066809,36.0099731],[139.1066806,36.0099706],[139.1066934,36.0098151],[139.1066908,36.0097888],[139.106581,36.009381],[139.1065599,36.009334],[139.1065214,36.0089917],[139.1071033,36.0087453],[139.1071065,36.0087344],[139.1070945,36.0086905],[139.1070939,36.0086899],[139.1070925,36.0086835],[139.1070954,36.0086378],[139.1071076,36.0085812],[139.1071504,36.008459],[139.1071569,36.0084338],[139.107181,36.0083897],[139.1071988,36.0083732],[139.1072206,36.008364],[139.1072267,36.0083614],[139.1072959,36.0083478],[139.10736956028583,36.00833333333333],[139.10843281241742,36.00833333333333],[139.108391,36.008462],[139.1083669,36.0085361],[139.1082746,36.0087684],[139.1081625,36.0090777],[139.1080511,36.0092652],[139.1077757,36.0094834],[139.10778,36.0096226],[139.1078211,36.0097083],[139.1078045,36.0099764],[139.1078041,36.0099772],[139.1077384,36.0101],[139.1077376,36.0101751],[139.1078021,36.0103977],[139.1077379,36.0106265],[139.1076661,36.0107844],[139.1076222,36.0109791],[139.107452,36.0113252],[139.107196,36.0115896]]]},"properties":{"layer":"landslide","class_code":"1","class_label":"急傾斜地の崩落","status_code":"0","status_label":"特別警戒区域指定済み"}},{"type":"Feature","id":"lsld_97e53e72-60df-4e0d-9bf3-524cd91d2e77","geometry":{"type":"Polygon","coordinates":[[[139.1078898,36.0164725],[139.1079147,36.0164908],[139.1079492,36.0165162],[139.1080314,36.0165767],[139.10795142962962,36.016666666666666],[139.1075131167712,36.016666666666666],[139.1075401,36.0166332],[139.1077299,36.0165089],[139.1078324,36.0164302],[139.1078898,36.0164725]]]},"properties":{"layer":"landslide","class_code":"1","class_label":"急傾斜地の崩落","status_code":"0","status_label":"特別警戒区域指定済み"}},{"type":"Feature","id":"lsld_0c186b0c-d82e-4639-a4b5-c143f524adce","geometry":{"type":"Polygon","coordinates":[[[139.1103646,36.0142457],[139.1103988,36.0144039],[139.1103984,36.0145811],[139.1104305,36.0147518],[139.1102772,36.015068],[139.1101297,36.0151918],[139.1099793,36.0153016],[139.1099394,36.0153814],[139.1096525,36.0154562],[139.109565,36.0155113],[139.1094366,36.0156475],[139.1092766,36.0158035],[139.1090828,36.0159256],[139.1089345,36.0160345],[139.1087799,36.0161607],[139.1085169,36.0162089],[139.1083597,36.0163375],[139.108301,36.0163503],[139.1082303,36.0162808],[139.1081799,36.0162312],[139.108155,36.0162067],[139.1081092,36.0161618],[139.1081514,36.0161207],[139.1083253,36.0160084],[139.1084482,36.0158667],[139.1086204,36.0157473],[139.1088147,36.015633],[139.1089588,36.0155177],[139.10915,36.01542],[139.1092976,36.0153499],[139.1094462,36.0152571],[139.109482,36.0150436],[139.1095281,36.0149594],[139.1095457,36.0149527],[139.109575,36.0149376],[139.1095983,36.0149221],[139.1096354,36.014892],[139.1096515,36.0148764],[139.1096792,36.0148569],[139.1097739,36.0147806],[139.1097625,36.0147671],[139.1098018,36.014741],[139.1097795,36.0147154],[139.1098564,36.0146636],[139.1098455,36.014651],[139.109886,36.0146231],[139.1098751,36.0146096],[139.1099791,36.0145427],[139.1099771,36.0145248],[139.1099855,36.014507],[139.1099624,36.014447],[139.1099598,36.0144336],[139.1096843,36.0141731],[139.1096555,36.014193],[139.1096403,36.0141791],[139.1096311,36.0141531],[139.1096312,36.0141419],[139.1096457,36.014121],[139.1096486,36.0141067],[139.1096443,36.0140929],[139.1096135,36.0140386],[139.1096039,36.0140081],[139.1096035,36.0139894],[139.1096097,36.0139693],[139.1096087,36.0139563],[139.1096034,36.0139326],[139.1095969,36.013861],[139.1095976,36.013849],[139.1096156,36.0138031],[139.1096179,36.0137901],[139.1096148,36.0137713],[139.1096039,36.0137605],[139.1095422,36.0137397],[139.109588,36.0135891],[139.1095435,36.0134966],[139.1095609,36.013413],[139.109602,36.0133699],[139.1096081,36.0133024],[139.1095877,36.0132791],[139.1096844,36.0132401],[139.1097511,36.0132131],[139.1098456,36.013096],[139.1098656,36.0130713],[139.1098947,36.0130652],[139.1103004,36.0130917],[139.1103265,36.0130934],[139.1103258,36.0130945],[139.1103154,36.0131103],[139.1103102,36.0131181],[139.1103001,36.0131335],[139.1102965,36.013139],[139.110285,36.0131564],[139.1102821,36.0131608],[139.1102326,36.0132358],[139.110225,36.0132384],[139.1101372,36.0132683],[139.1100615,36.0132802],[139.1100219,36.0133177],[139.1101157,36.0134376],[139.1101133,36.0135852],[139.11014,36.0137028],[139.1101909,36.0137998],[139.1102943,36.0139472],[139.1103525,36.0141207],[139.1103646,36.0142457]]]},"properties":{"layer":"landslide","class_code":"1","class_label":"急傾斜地の崩落","status_code":"0","status_label":"特別警戒区域指定済み"}},{"type":"Feature","id":"lsld_0b9f9887-c50d-438c-9bb2-e4fa125f6ecf","geometry":{"type":"Polygon","coordinates":[[[139.1106268,36.0134682],[139.1104508,36.0134571],[139.1103515,36.0134125],[139.1102154,36.0134142],[139.1102203,36.0133242],[139.1102217,36.0132981],[139.1102227,36.0132807],[139.110225,36.0132384],[139.1102266,36.0132081],[139.1102743,36.0131556],[139.1102894,36.013139],[139.1102944,36.0131335],[139.1103086,36.0131179],[139.1103154,36.0131103],[139.1103294,36.0130949],[139.1103303,36.0130939],[139.1105171,36.0131062],[139.1105253,36.0131302],[139.1105496,36.0132017],[139.1105532,36.0132124],[139.1106284,36.0131761],[139.1107429,36.0130411],[139.1107919,36.0130898],[139.1108131,36.0131109],[139.1108371,36.0131348],[139.1108425,36.0131401],[139.1109127,36.0132099],[139.1108223,36.0133418],[139.1106268,36.0134682]]]},"properties":{"layer":"landslide","class_code":"1","class_label":"急傾斜地の崩落","status_code":"0","status_label":"特別警戒区域指定済み"}},{"type":"Feature","id":"lsld_b23b3954-83b0-46dd-b85f-0929deea6db9","geometry":{"type":"Polygon","coordinates":[[[139.1111402,36.0127888],[139.1111864,36.0127906],[139.1112211,36.0128469],[139.1112361,36.0128712],[139.111257,36.012905],[139.1112629,36.0129145],[139.1113067,36.0129856],[139.1111344,36.013076],[139.1109954,36.0130924],[139.1109227,36.013029],[139.1109198,36.0130265],[139.1108934,36.0130034],[139.1108743,36.0129868],[139.1108602,36.0129745],[139.1108193,36.0129387],[139.1108178,36.0129374],[139.1108236,36.0129302],[139.1109272,36.0129003],[139.111038,36.0128067],[139.1110629,36.0127857],[139.1111402,36.0127888]]]},"properties":{"layer":"landslide","class_code":"1","class_label":"急傾斜地の崩落","status_code":"0","status_label":"特別警戒区域指定済み"}},{"type":"Feature","id":"lsld_a3c62bcb-8ec0-421b-adb5-66245a5bb42a","geometry":{"type":"Polygon","coordinates":[[[139.1117019,36.0127455],[139.1117076,36.0127504],[139.1117211,36.012766],[139.1117613,36.0128038],[139.1117922,36.0128314],[139.1118143,36.0128493],[139.1118283,36.0128608],[139.111835,36.0128756],[139.1118203,36.0128905],[139.1118149,36.0128959],[139.1117904,36.0129207],[139.1117655,36.0129459],[139.1117505,36.0129611],[139.1117242,36.0129877],[139.1116547,36.013058],[139.1115531,36.0129227],[139.1115101,36.0128568],[139.1115975,36.0128013],[139.111599,36.0128003],[139.1116066,36.0127956],[139.1116128,36.0127916],[139.111621,36.0127864],[139.111678,36.0127502],[139.1116882,36.0127437],[139.1116943,36.0127398],[139.1117019,36.0127455]]]},"properties":{"layer":"landslide","class_code":"1","class_label":"急傾斜地の崩落","status_code":"0","status_label":"特別警戒区域指定済み"}},{"type":"Feature","id":"lsld_19d3ab29-3f74-44d3-9106-25bf55cb2348","geometry":{"type":"Polygon","coordinates":[[[139.1107778,36.0131776],[139.1107422,36.0132034],[139.110732,36.0132107],[139.1106743,36.0132536],[139.1106523,36.0132667],[139.1106388,36.0132747],[139.110609,36.0132897],[139.1105813,36.0132979],[139.1105446,36.0133016],[139.1105094,36.0133003],[139.1104804,36.0132973],[139.1103666,36.0132781],[139.110345,36.0132201],[139.1103362,36.0131965],[139.1102821,36.0131608],[139.1102743,36.0131556],[139.110271,36.0131535],[139.1101216,36.0131694],[139.109979,36.0132028],[139.1098929,36.0132882],[139.1098922,36.0132881],[139.1098183,36.013271],[139.1096844,36.0132401],[139.1096729,36.0132374],[139.1095487,36.0130598],[139.1095771,36.0130458],[139.1096013,36.0129984],[139.1096665,36.0126134],[139.1096774,36.0124567],[139.1096353,36.0122175],[139.1096168,36.0121634],[139.1096117,36.0120336],[139.1095716,36.011752],[139.1095624,36.0117173],[139.109552,36.011644],[139.1095464,36.0115681],[139.1095583,36.011477],[139.109583,36.0113667],[139.1095889,36.0112446],[139.1095916,36.0109453],[139.109585,36.0108065],[139.1095729,36.0107396],[139.1095059,36.0106287],[139.1094952,36.0105978],[139.109497,36.0105657],[139.1095055,36.0105067],[139.1095074,36.0104669],[139.1095015,36.010427],[139.1094323,36.0102043],[139.1093997,36.010136],[139.1092906,36.0099632],[139.1092522,36.0098383],[139.1091686,36.0096477],[139.1091423,36.0095833],[139.1090628,36.0094633],[139.108994,36.0093768],[139.1089406,36.0093341],[139.1088887,36.0092978],[139.1088308,36.0092409],[139.1087996,36.0091855],[139.108754,36.0091583],[139.1087055,36.0091091],[139.1086869,36.0090666],[139.1086568,36.0090491],[139.1086228,36.0090046],[139.1086054,36.008964],[139.1085833,36.0089099],[139.1085731,36.0088655],[139.1085597,36.0087681],[139.1085661,36.008719],[139.1085639,36.0086988],[139.1085501,36.0086601],[139.1085243,36.0086282],[139.1084409,36.0085342],[139.1084023,36.0084819],[139.108391,36.008462],[139.1083766,36.0084365],[139.1083546,36.0084063],[139.1083702413856,36.00833333333333],[139.10849974046346,36.00833333333333],[139.1085052,36.0083416],[139.1085215,36.0083632],[139.1085395,36.0083794],[139.1087164,36.0084779],[139.1087716,36.008495],[139.1088368,36.0085082],[139.1088745,36.0085136],[139.1089166,36.0085207],[139.1089498,36.0085199],[139.1091254,36.0084919],[139.1091533,36.008466],[139.1091923,36.0083831],[139.1091586800203,36.00833333333333],[139.10935515089355,36.00833333333333],[139.1093912,36.0083904],[139.1092166,36.0086457],[139.1091426,36.0086667],[139.1091815,36.0087295],[139.109313,36.0089183],[139.1093807,36.0090613],[139.1094717,36.0092249],[139.1095849,36.0093962],[139.1096703,36.0095802],[139.1097168,36.0097176],[139.1097825,36.009899],[139.1098709,36.0100532],[139.1099327,36.0102566],[139.1099808,36.0104174],[139.1100102,36.0105998],[139.1100252,36.0107592],[139.110045,36.0109742],[139.1100421,36.011123],[139.110097,36.0112396],[139.1101432,36.011441],[139.1101376,36.0116518],[139.1101209,36.0117512],[139.1101633,36.0119207],[139.1101897,36.0121075],[139.1100693,36.0123036],[139.1100574,36.0124642],[139.1100611,36.0126329],[139.1100513,36.0128576],[139.1100294,36.0129633],[139.1100146,36.0129827],[139.1101724,36.0129645],[139.1104048,36.0129969],[139.1105306,36.0129841],[139.1105718,36.0129972],[139.1106797,36.0128663],[139.1109113,36.0127909],[139.111038,36.0126664],[139.1111713,36.0125806],[139.1113694,36.0124929],[139.1116663,36.0125488],[139.1118016,36.0126942],[139.1119045,36.0128106],[139.1118366,36.0128819],[139.1118242,36.0128948],[139.111819,36.0129002],[139.1117563,36.0129661],[139.1117505,36.0129611],[139.111645,36.0128712],[139.1116024,36.0128085],[139.111599,36.0128003],[139.1115705,36.01277],[139.1115463,36.0127868],[139.1114663,36.0127182],[139.1113786,36.0128441],[139.1113035,36.012911],[139.1112629,36.0129145],[139.1112403,36.0129165],[139.110929,36.0130152],[139.1109227,36.013029],[139.1109025,36.0130732],[139.1108799,36.0131039],[139.1108371,36.0131348],[139.1107778,36.0131776]]]},"properties":{"layer":"landslide","class_code":"1","class_label":"急傾斜地の崩落","status_code":"0","status_label":"特別警戒区域指定済み"}},{"type":"Feature","id":"lsld_8a5dbaae-bd70-4177-a4e8-d05468a7f956","geometry":{"type":"Polygon","coordinates":[[[139.1078984,36.0132324],[139.1082903,36.0134101],[139.1083719,36.0135741],[139.1084465,36.0137812],[139.1083419,36.0140533],[139.1083949,36.014111],[139.1083283,36.01435],[139.1083369,36.0145816],[139.1079499,36.0147085],[139.1079031,36.0148582],[139.1078446,36.0148522],[139.107793,36.0148469],[139.1077274,36.0148402],[139.1076173,36.014829],[139.1075231,36.0145917],[139.1072254,36.0143684],[139.1072371,36.0142932],[139.1072237,36.0141459],[139.107273,36.0138906],[139.1072938,36.013814],[139.1072905,36.0137786],[139.1072507,36.0136587],[139.1072225,36.0136287],[139.107147,36.0135878],[139.1069977,36.0134716],[139.1069304,36.0133994],[139.1066301,36.0131087],[139.1067602,36.0128227],[139.106832,36.0126683],[139.1069429,36.0126657],[139.107009,36.0126642],[139.1070609,36.012663],[139.1071199,36.0126616],[139.1071569,36.0127371],[139.1073066,36.0128429],[139.1071838,36.0128866],[139.1073874,36.0130811],[139.1077641,36.012947],[139.1078984,36.0132324]]]},"properties":{"layer":"landslide","class_code":"1","class_label":"急傾斜地の崩落","status_code":"0","status_label":"特別警戒区域指定済み"}},{"type":"Feature","id":"lsld_7c4f8029-c8e6-4472-be0f-b7d16dc1c7d9","geometry":{"type":"Polygon","coordinates":[[[139.1075444,36.0150962],[139.1076104,36.0151304],[139.1076661,36.0151593],[139.1077098,36.015182],[139.1077596,36.0152078],[139.1076956,36.0153858],[139.1075476,36.0155],[139.1076056,36.0157414],[139.1074981,36.0159451],[139.107301,36.0160416],[139.1068767,36.0160631],[139.1068688,36.0160148],[139.1068621,36.0159737],[139.1068573,36.0159441],[139.106857,36.0158989],[139.1068566,36.0158088],[139.1068983,36.0156849],[139.1068536,36.0154483],[139.1070108,36.0153887],[139.107263,36.0153502],[139.1074056,36.015243],[139.1075156,36.0150837],[139.1075444,36.0150962]]]},"properties":{"layer":"landslide","class_code":"1","class_label":"急傾斜地の崩落","status_code":"0","status_label":"特別警戒区域指定済み"}},{"type":"Feature","id":"lsld_c15a4f87-d3c7-44bb-b4a6-e4e2a994e39f","geometry":{"type":"Polygon","coordinates":[[[139.1079147,36.0164908],[139.1078334,36.0165826],[139.107742903305,36.016666666666666],[139.1076453582412,36.016666666666666],[139.1077988,36.0165579],[139.1078898,36.0164725],[139.1079147,36.0164908]]]},"properties":{"layer":"landslide","class_code":"1","class_label":"急傾斜地の崩落","status_code":"0","status_label":"特別警戒区域指定済み"}},{"type":"Feature","id":"lsld_1b3f81a9-70b3-4942-838b-bc0897dc648f","geometry":{"type":"Polygon","coordinates":[[[139.1101145,36.0131366],[139.1099543,36.0131658],[139.1098797,36.0132628],[139.1098922,36.0132881],[139.1099529,36.0134107],[139.1099709,36.0135862],[139.109988,36.013739],[139.1100378,36.013867],[139.1101078,36.0140085],[139.1101796,36.0141738],[139.1102158,36.0142498],[139.110258,36.0144153],[139.1102495,36.0145878],[139.1102722,36.0147639],[139.1101748,36.0149778],[139.1100268,36.015099],[139.1098555,36.0152069],[139.1097763,36.0153132],[139.1095642,36.015371],[139.1094436,36.0154384],[139.1093056,36.0155609],[139.1091603,36.0156989],[139.1089766,36.0158096],[139.108806,36.015917],[139.1086452,36.0160413],[139.1084136,36.0161008],[139.1082331,36.0162057],[139.1081799,36.0162312],[139.108155,36.0162067],[139.1082034,36.0161748],[139.1083794,36.0160651],[139.1085518,36.0159585],[139.1087185,36.015837],[139.1089027,36.015729],[139.1090697,36.0156174],[139.1092385,36.0155001],[139.1093958,36.0154094],[139.1095402,36.0153478],[139.109635,36.0151878],[139.1097209,36.0150818],[139.1099024,36.014987],[139.1100575,36.0148745],[139.1100631,36.01478],[139.1100812,36.0145954],[139.1101227,36.0144264],[139.1100407,36.0142736],[139.1099003,36.0142595],[139.1098426,36.0140957],[139.1098126,36.0139318],[139.1098003,36.0137837],[139.10986,36.0135871],[139.1097455,36.0133763],[139.1098183,36.013271],[139.1098358,36.0132458],[139.1099183,36.0131275],[139.1099696,36.0131182],[139.1101322,36.0130885],[139.1103086,36.0131179],[139.1103102,36.0131181],[139.1103001,36.0131335],[139.1102944,36.0131335],[139.1101335,36.0131331],[139.1101145,36.0131366]]]},"properties":{"layer":"landslide","class_code":"1","class_label":"急傾斜地の崩落","status_code":"0","status_label":"特別警戒区域指定済み"}},{"type":"Feature","id":"lsld_1fcb7f19-5196-4024-9405-11320af342a5","geometry":{"type":"Polygon","coordinates":[[[139.1112361,36.0128712],[139.1110648,36.0129683],[139.1108934,36.0130034],[139.1108743,36.0129868],[139.1109073,36.0129686],[139.1110191,36.0129068],[139.1110235,36.0129044],[139.1112211,36.0128469],[139.1112361,36.0128712]]]},"properties":{"layer":"landslide","class_code":"1","class_label":"急傾斜地の崩落","status_code":"0","status_label":"特別警戒区域指定済み"}},{"type":"Feature","id":"lsld_a547c224-2d89-4350-9a82-fbeebe9e875e","geometry":{"type":"Polygon","coordinates":[[[139.1117904,36.0129207],[139.1117655,36.0129459],[139.1116743,36.0128706],[139.1116066,36.0127956],[139.1116128,36.0127916],[139.111621,36.0127864],[139.1116985,36.0128602],[139.1117904,36.0129207]]]},"properties":{"layer":"landslide","class_code":"1","class_label":"急傾斜地の崩落","status_code":"0","status_label":"特別警戒区域指定済み"}},{"type":"Feature","id":"lsld_c6dfd585-2224-4762-9af5-8d5440b9aa62","geometry":{"type":"Polygon","coordinates":[[[139.10799366588088,36.00833333333333],[139.1080075,36.0083556],[139.1079343,36.0085458],[139.1078451,36.0087276],[139.1077722,36.0089321],[139.107687,36.0090826],[139.1074935,36.0092562],[139.1073368,36.0093065],[139.1073423,36.0093942],[139.1073577,36.0095546],[139.1072833,36.0096892],[139.1073869,36.0097407],[139.1073674,36.0099701],[139.1073259,36.0099716],[139.1073076,36.0100666],[139.1073117,36.0101949],[139.1073759,36.0103859],[139.1073175,36.0105696],[139.107237,36.0107363],[139.1071971,36.0109015],[139.1071224,36.0111158],[139.1069824,36.0112965],[139.1066941,36.0113228],[139.1064841,36.0112747],[139.1062641,36.0112284],[139.106074,36.0111269],[139.105938,36.0110089],[139.1058871,36.0110156],[139.1057168,36.0108363],[139.1056736,36.0105452],[139.1057728,36.0105617],[139.1058853,36.0105804],[139.1059386,36.0105846],[139.1059849,36.0105848],[139.1060172,36.0105841],[139.1058236,36.0107695],[139.1059654,36.0108154],[139.1063628,36.0108628],[139.106381,36.0108747],[139.1064168,36.0108972],[139.1066346,36.0109509],[139.1067434,36.0109996],[139.1067929,36.0109685],[139.1068262,36.0108991],[139.1068517,36.0108153],[139.1068477,36.0106853],[139.1067512,36.0104798],[139.106775,36.0103937],[139.1067508,36.0102517],[139.1068029,36.0100113],[139.1068519,36.0099529],[139.1068598,36.0099517],[139.1068741,36.0097791],[139.1068562,36.0097486],[139.1067272,36.0094616],[139.1067369,36.0093727],[139.1067076,36.0090122],[139.1071969,36.008867],[139.1072315,36.008836],[139.1072457,36.0087548],[139.1072668,36.0086726],[139.1072738,36.0085345],[139.1073161,36.0083957],[139.1072959,36.0083478],[139.10736956028583,36.00833333333333],[139.10799366588088,36.00833333333333]]]},"properties":{"layer":"landslide","class_code":"1","class_label":"急傾斜地の崩落","status_code":"0","status_label":"特別警戒区域指定済み"}},{"type":"Feature","id":"lsld_31e5d273-2273-4d1b-bc85-272c2894363b","geometry":{"type":"Polygon","coordinates":[[[139.1105865,36.0133281],[139.110464,36.0133324],[139.1103641,36.0132934],[139.1102217,36.0132981],[139.1102227,36.0132807],[139.110345,36.0132201],[139.1103733,36.0132061],[139.1104413,36.0132176],[139.1104755,36.0132233],[139.1105051,36.0132409],[139.110573,36.0132812],[139.1106523,36.0132667],[139.1107199,36.0132543],[139.1107422,36.0132034],[139.1107919,36.0130898],[139.1108131,36.0131109],[139.1107778,36.0131776],[139.1107319,36.0132646],[139.1105865,36.0133281]]]},"properties":{"layer":"landslide","class_code":"1","class_label":"急傾斜地の崩落","status_code":"0","status_label":"特別警戒区域指定済み"}},{"type":"Feature","id":"lsld_fc61fc86-66cc-4c8c-a277-b7dfb53200ec","geometry":{"type":"Polygon","coordinates":[[[139.1105496,36.0132017],[139.1105051,36.0132409],[139.1104862,36.0132576],[139.1104413,36.0132176],[139.1103534,36.0131391],[139.1102965,36.013139],[139.1102894,36.013139],[139.1101321,36.0131388],[139.1101145,36.0131366],[139.1099696,36.0131182],[139.1098528,36.0131033],[139.1098456,36.013096],[139.1097437,36.0129925],[139.1099059,36.0128291],[139.1099208,36.0126461],[139.1098836,36.0124648],[139.1098598,36.0123035],[139.1098275,36.0121281],[139.1099253,36.0119522],[139.1098246,36.0117829],[139.1098133,36.0116474],[139.1097783,36.0114772],[139.1096901,36.0113319],[139.1096512,36.0111459],[139.1096505,36.0109749],[139.109647,36.0108019],[139.109704,36.010637],[139.1096585,36.010479],[139.1096393,36.0103256],[139.1095813,36.0101532],[139.1095544,36.0099759],[139.1095046,36.0097742],[139.1092651,36.0096947],[139.1092454,36.0095203],[139.1091981,36.0093402],[139.108971,36.0092088],[139.1088468,36.0090822],[139.1087506,36.0089115],[139.1086751,36.0086667],[139.1086731,36.008484],[139.1089598,36.0085331],[139.1091368,36.0085152],[139.1092238,36.0083851],[139.10919350055292,36.00833333333333],[139.10923795817533,36.00833333333333],[139.1092694,36.0083866],[139.1091612,36.0085552],[139.1090126,36.0085941],[139.1089447,36.0086353],[139.1089664,36.0086753],[139.1090237,36.0087961],[139.1091456,36.0089771],[139.1092285,36.0091161],[139.1093467,36.0092776],[139.1094477,36.0094463],[139.1095189,36.009623],[139.1095947,36.0097502],[139.10966,36.0099403],[139.1097409,36.0100981],[139.1097971,36.0102885],[139.1098396,36.0104444],[139.1098699,36.0106168],[139.1098745,36.0107848],[139.1098863,36.0109745],[139.1098826,36.0111324],[139.1099365,36.011276],[139.1099865,36.0114566],[139.1099887,36.0116498],[139.1099799,36.0117663],[139.1100314,36.0119381],[139.1100358,36.0121163],[139.1099355,36.0123035],[139.1099315,36.0124646],[139.1099481,36.0126435],[139.1099371,36.0128352],[139.109877,36.0129789],[139.1099126,36.0130587],[139.1101469,36.0130748],[139.1103004,36.0130917],[139.1103258,36.0130945],[139.1103294,36.0130949],[139.1103678,36.0130992],[139.1105056,36.0131381],[139.1105253,36.0131302],[139.110631,36.0130877],[139.110772,36.012952],[139.1108193,36.0129387],[139.1109297,36.0129077],[139.111038,36.0128067],[139.111077,36.0127704],[139.1112378,36.0126651],[139.1114197,36.012587],[139.1115743,36.0126155],[139.1116882,36.0127437],[139.1117012,36.0127582],[139.1118203,36.0128905],[139.1118242,36.0128948],[139.111819,36.0129002],[139.1118149,36.0128959],[139.1116912,36.0127646],[139.111678,36.0127502],[139.1115625,36.012624],[139.1114255,36.0125977],[139.1112566,36.012689],[139.1111402,36.0127888],[139.1111091,36.0128155],[139.1110191,36.0129068],[139.1109655,36.0129613],[139.1109073,36.0129686],[139.1108602,36.0129745],[139.1108037,36.0129815],[139.1106485,36.0131145],[139.1105496,36.0132017]]]},"properties":{"layer":"landslide","class_code":"1","class_label":"急傾斜地の崩落","status_code":"0","status_label":"特別警戒区域指定済み"}},{"type":"Feature","id":"lsld_ecc106ab-05b3-4464-9951-eb8977db5171","geometry":{"type":"Polygon","coordinates":[[[139.1070609,36.012663],[139.1070358,36.0127632],[139.1070761,36.0129249],[139.1070911,36.0130626],[139.1072564,36.0132162],[139.1075328,36.0131907],[139.1076353,36.0133711],[139.1078636,36.0134976],[139.1079416,36.0136587],[139.1079989,36.0137998],[139.1079269,36.0139901],[139.1079453,36.0141244],[139.1078993,36.0143191],[139.1079012,36.014498],[139.1078412,36.0146788],[139.1078446,36.0148522],[139.107793,36.0148469],[139.1077123,36.0146435],[139.1074236,36.0144064],[139.1074401,36.0142935],[139.1074305,36.0141398],[139.1074754,36.0139214],[139.1074982,36.0138182],[139.1074837,36.0137486],[139.1074241,36.0135916],[139.1073677,36.0135285],[139.1072778,36.0134593],[139.1071167,36.0133603],[139.1070002,36.0132598],[139.1068071,36.0130226],[139.1069211,36.012788],[139.107009,36.0126642],[139.1070609,36.012663]]]},"properties":{"layer":"landslide","class_code":"1","class_label":"急傾斜地の崩落","status_code":"0","status_label":"特別警戒区域指定済み"}},{"type":"Feature","id":"lsld_e7921a49-a77a-4a4a-9c42-6bea85deda36","geometry":{"type":"Polygon","coordinates":[[[139.1077098,36.015182],[139.1076336,36.0153553],[139.1074868,36.015468],[139.1073883,36.0156216],[139.1072374,36.0157714],[139.1071542,36.0159387],[139.1068688,36.0160148],[139.1068621,36.0159737],[139.1069891,36.0158193],[139.1069616,36.0155801],[139.1071519,36.0154913],[139.1074226,36.0154342],[139.1075682,36.0153231],[139.1076661,36.0151593],[139.1077098,36.015182]]]},"properties":{"layer":"landslide","class_code":"1","class_label":"急傾斜地の崩落","status_code":"0","status_label":"特別警戒区域指定済み"}},{"type":"Feature","id":"lsld_e2034030-f7a5-4324-80ed-38c9ec082540","geometry":{"type":"Polygon","coordinates":[[[139.1125,36.01187762085663],[139.1124888,36.0118664],[139.1124363,36.0118119],[139.1123849,36.0117567],[139.1123347,36.0117008],[139.1122858,36.0116441],[139.112238,36.0115868],[139.1121916,36.0115288],[139.1121463,36.0114702],[139.1121023,36.0114109],[139.1120597,36.011351],[139.1120183,36.0112905],[139.1119782,36.0112294],[139.1119394,36.0111678],[139.1119019,36.0111056],[139.1118658,36.011043],[139.1118311,36.0109798],[139.1117977,36.0109161],[139.1117657,36.0108519],[139.1117351,36.0107874],[139.1117058,36.0107224],[139.111678,36.010657],[139.1116515,36.0105912],[139.1116265,36.010525],[139.1116029,36.0104585],[139.1115808,36.0103917],[139.1115601,36.0103245],[139.1115408,36.0102571],[139.111523,36.0101894],[139.1115066,36.0101215],[139.1114917,36.0100534],[139.1114783,36.009985],[139.1114663,36.0099165],[139.1114558,36.0098478],[139.1114468,36.009779],[139.1114392,36.00971],[139.1114332,36.009641],[139.1114286,36.0095719],[139.1114255,36.0095027],[139.1114239,36.0094335],[139.1114248,36.0093415],[139.1122255,36.0093649],[139.1122731,36.0093656],[139.1124817,36.0093685],[139.1125,36.00936875009762],[139.1125,36.01187762085663]]]},"properties":{"layer":"landslide","class_code":"2","class_label":"土石流","status_code":"0","status_label":"特別警戒区域指定済み"}},{"type":"Feature","id":"lsld_010bab92-4bd0-4a18-ac94-101e22d12ebd","geometry":{"type":"Polygon","coordinates":[[[139.1125,36.00833333333333],[139.1125,36.008597623544304],[139.1124938,36.0085945],[139.1124548,36.008574],[139.1124163,36.0085529],[139.1123782,36.0085313],[139.1123406,36.0085091],[139.1123034,36.0084864],[139.1122668,36.0084632],[139.1122306,36.0084395],[139.112195,36.0084153],[139.1121599,36.0083906],[139.1121253,36.0083653],[139.1120913,36.0083396],[139.11208328727736,36.00833333333333],[139.1125,36.00833333333333]]]},"properties":{"layer":"landslide","class_code":"2","class_label":"土石流","status_code":"0","status_label":"特別警戒区域指定済み"}},{"type":"Feature","id":"lsld_2d1a6427-5aa7-4e39-bff0-d226129d9ba3","geometry":{"type":"Polygon","coordinates":[[[139.1125,36.00833333333333],[139.1125,36.009536847927464],[139.1124763,36.0095207],[139.1124383,36.0094939],[139.1124009,36.0094666],[139.112364,36.0094387],[139.1123277,36.0094104],[139.1122921,36.0093815],[139.1122731,36.0093656],[139.1122571,36.0093521],[139.1122227,36.0093222],[139.112189,36.0092919],[139.1121559,36.009261],[139.1121235,36.0092297],[139.1120918,36.009198],[139.1120607,36.0091658],[139.1120304,36.0091332],[139.1120007,36.0091001],[139.1119718,36.0090666],[139.1119436,36.0090328],[139.1119161,36.0089985],[139.1118894,36.0089638],[139.1118634,36.0089288],[139.1118382,36.0088934],[139.1118137,36.0088577],[139.11179,36.0088216],[139.1117671,36.0087852],[139.111745,36.0087485],[139.1117237,36.0087114],[139.1117031,36.0086741],[139.1116834,36.0086364],[139.1116645,36.0085985],[139.1116464,36.0085604],[139.1116291,36.008522],[139.1116127,36.0084833],[139.111597,36.0084444],[139.1115822,36.0084053],[139.1115683,36.008366],[139.11155746624473,36.00833333333333],[139.1125,36.00833333333333]]]},"properties":{"layer":"landslide","class_code":"2","class_label":"土石流","status_code":"0","status_label":"特別警戒区域指定済み"}}]}