{"type":"FeatureCollection","properties":{"mesh_code":"54390043","source":"PLATEAU秩父市2025","layer":"landslide"},"features":[{"type":"Feature","id":"lsld_bc62eb6f-109d-4348-af7c-95ace47172b5","geometry":{"type":"Polygon","coordinates":[[[139.0375,36.03949755516431],[139.037519,36.0395135],[139.0375,36.03955442689297],[139.0375,36.039094890305684],[139.0375971,36.0390195],[139.0377517,36.0389532],[139.037813,36.0389634],[139.0378324,36.0389336],[139.0377733,36.0388122],[139.0377334,36.0387219],[139.0376165,36.0386199],[139.0376917,36.0386001],[139.0377221,36.0385921],[139.0377609,36.0385819],[139.0378132,36.0385716],[139.0378151,36.0385713],[139.037865,36.0385615],[139.0379251,36.0385497],[139.0380507,36.0386139],[139.0382926,36.0386717],[139.0383213,36.0387024],[139.0383541,36.0387448],[139.038379,36.0387885],[139.0383951,36.0388063],[139.0384261,36.0388354],[139.0384579,36.0388547],[139.0385005,36.0388755],[139.0385498,36.0388896],[139.0385665,36.0388907],[139.0386598,36.0389945],[139.03857,36.0394],[139.0383458,36.0394678],[139.0381226,36.0395181],[139.0380979,36.0395953],[139.0381406,36.0396533],[139.0375,36.03946179069043],[139.0375,36.03949755516431]]]},"properties":{"layer":"landslide","class_code":"1","class_label":"急傾斜地の崩落","status_code":"0","status_label":"特別警戒区域指定済み"}},{"type":"Feature","id":"lsld_5ced2a70-994d-4baf-9900-d3c18dac3c88","geometry":{"type":"Polygon","coordinates":[[[139.0416568,36.0354862],[139.041669,36.0354917],[139.0417304,36.0355197],[139.0417803,36.0355424],[139.0418272,36.0355637],[139.0417798,36.035677],[139.0417101,36.0358062],[139.0416424,36.0359127],[139.0415568,36.0360548],[139.0414785,36.0361813],[139.0413995,36.0362998],[139.0413184,36.0364198],[139.0412356,36.036561],[139.0411696,36.0366635],[139.0411603,36.0367945],[139.0410808,36.0367918],[139.0410494,36.0367907],[139.0409737,36.0367881],[139.0409585,36.0367876],[139.0408978,36.0367855],[139.0408929,36.0367853],[139.0408971,36.0367782],[139.0409146,36.0367486],[139.0409313,36.0367112],[139.0409327,36.0366996],[139.0409323,36.0366714],[139.0409443,36.0366268],[139.0409493,36.0366109],[139.0409563,36.0365894],[139.0410018,36.0365235],[139.0410362,36.0364708],[139.0410617,36.0364351],[139.0410879,36.0363966],[139.0411079,36.036367],[139.04113,36.036334],[139.0411431,36.0363142],[139.041172,36.0362753],[139.0411906,36.0362494],[139.0412154,36.0362154],[139.0412347,36.036189],[139.0412746,36.036138],[139.041296,36.0361067],[139.0413111,36.0360836],[139.0413297,36.0360584],[139.0413711,36.035998],[139.0413828,36.0359804],[139.0413938,36.0359656],[139.0414042,36.0359529],[139.0414262,36.0359216],[139.0414407,36.0359013],[139.0414483,36.0358854],[139.0414601,36.0358584],[139.0414671,36.0358392],[139.0414679,36.0358303],[139.0414744,36.0357884],[139.0414807,36.0357747],[139.041491,36.0357582],[139.041517,36.035738],[139.0415267,36.0357259],[139.0415342,36.0357138],[139.0415351,36.0356995],[139.0415269,36.0356967],[139.0415107,36.0356921],[139.0415006,36.0356805],[139.0415007,36.0356755],[139.0415061,36.0356717],[139.0415157,36.0356712],[139.0415328,36.0356699],[139.0415549,36.0356357],[139.0415721,36.0356015],[139.0415869,36.0355761],[139.0416029,36.0355478],[139.0416226,36.0355077],[139.0416339,36.0354758],[139.0416568,36.0354862]]]},"properties":{"layer":"landslide","class_code":"1","class_label":"急傾斜地の崩落","status_code":"0","status_label":"特別警戒区域指定済み"}},{"type":"Feature","id":"lsld_a5616eb6-bda6-4905-9a88-eb701c5b3144","geometry":{"type":"Polygon","coordinates":[[[139.0447237,36.0364346],[139.0446967,36.0364351],[139.0446367,36.0364401],[139.0446266,36.0364409],[139.0445582,36.0364455],[139.0445006,36.0364477],[139.0444485,36.0364527],[139.0443506,36.036462],[139.0443402,36.036463],[139.0440998,36.0364861],[139.0439899,36.0363406],[139.0439921,36.0362524],[139.0442185,36.0362077],[139.0443203,36.0361876],[139.0443519,36.0361797],[139.0443806,36.0361725],[139.0444106,36.0361651],[139.0444285,36.0361606],[139.0444296,36.0361603],[139.0444834,36.0361469],[139.0444847,36.0361466],[139.0445426,36.0361321],[139.0445908,36.0361201],[139.0447905,36.0363074],[139.0448199,36.0363756],[139.0448346,36.0364347],[139.0448056,36.0364345],[139.0447511,36.0364342],[139.0447237,36.0364346]]]},"properties":{"layer":"landslide","class_code":"1","class_label":"急傾斜地の崩落","status_code":"0","status_label":"特別警戒区域指定済み"}},{"type":"Feature","id":"lsld_e4a2964d-fdb0-46ba-80d8-b46e0520d9c4","geometry":{"type":"Polygon","coordinates":[[[139.0442581,36.0357077],[139.0445493,36.0358649],[139.0445586,36.0358863],[139.0445687,36.0359002],[139.0445369,36.0359287],[139.0444942,36.035967],[139.0444851,36.0359751],[139.044464,36.0360027],[139.044463,36.036004],[139.0444455,36.0360494],[139.0444413,36.0360631],[139.0444206,36.0361321],[139.0444117,36.0361616],[139.0444106,36.0361651],[139.0443767,36.0362779],[139.0443223,36.0362538],[139.0442185,36.0362077],[139.0441007,36.0361554],[139.0439541,36.0360753],[139.0440298,36.0359427],[139.0439289,36.0358185],[139.0439686,36.0357819],[139.0439832,36.0357684],[139.0440022,36.0357509],[139.0440433,36.0357131],[139.0440649,36.0356932],[139.0441166,36.0356455],[139.0442581,36.0357077]]]},"properties":{"layer":"landslide","class_code":"1","class_label":"急傾斜地の崩落","status_code":"0","status_label":"特別警戒区域指定済み"}},{"type":"Feature","id":"lsld_d7252f7d-d63c-422c-93d2-0f0147087e3d","geometry":{"type":"Polygon","coordinates":[[[139.0474306,36.0412031],[139.0474452,36.0412032],[139.0474789,36.0412089],[139.0475076,36.0412132],[139.047538,36.0412216],[139.0475386,36.0412218],[139.0476997,36.0413216],[139.0478889,36.041386],[139.0480614,36.0414557],[139.0481017,36.0414916],[139.0481741,36.0415983],[139.0482212494253,36.041666666666664],[139.04687231402002,36.041666666666664],[139.046855,36.0415053],[139.0470587,36.0413438],[139.0472331,36.0412062],[139.0472928,36.0412051],[139.0472997,36.041205],[139.0473463,36.0412041],[139.047348,36.0412041],[139.0474113,36.041203],[139.0474306,36.0412031]]]},"properties":{"layer":"landslide","class_code":"1","class_label":"急傾斜地の崩落","status_code":"0","status_label":"特別警戒区域指定済み"}},{"type":"Feature","id":"lsld_5b7abfbe-a653-4df2-aaef-7e506b51a20e","geometry":{"type":"Polygon","coordinates":[[[139.0398747,36.0338469],[139.0398463,36.0338863],[139.0398277,36.033912],[139.0398131,36.0339322],[139.0398012,36.0339487],[139.0397569,36.0340099],[139.0396365,36.0339576],[139.0395253,36.0338911],[139.0393887,36.033843],[139.0392239,36.0338587],[139.0390994,36.0338474],[139.0390083,36.0338589],[139.0389055,36.0338684],[139.038762,36.0338749],[139.0385906,36.033835],[139.0386107,36.0337867],[139.0386261,36.0337496],[139.0386374,36.0337225],[139.0386442,36.0337061],[139.0386452,36.0337035],[139.0386593,36.0336653],[139.0386657,36.0336478],[139.0386741,36.0336252],[139.0386835,36.0336277],[139.0387083,36.0336326],[139.0387313,36.0336328],[139.0387549,36.0336335],[139.0387718,36.0336426],[139.0387807,36.0336462],[139.0387921,36.0336508],[139.0388319,36.0336659],[139.0388698,36.0336806],[139.0388881,36.0336865],[139.0389104,36.0336893],[139.0389267,36.0336916],[139.0389772,36.033693],[139.0390021,36.0336921],[139.0390434,36.0336945],[139.0391079,36.0336984],[139.0391213,36.0336993],[139.0391731,36.0337028],[139.0392137,36.0337041],[139.0392387,36.0337027],[139.0392537,36.0337039],[139.0393193,36.0337064],[139.0393802,36.0337106],[139.0394097,36.0337129],[139.0394607,36.0337212],[139.0394685,36.033725],[139.0394972,36.0337428],[139.0395207,36.0337589],[139.0395468,36.0337712],[139.0395787,36.0337848],[139.0396042,36.0337951],[139.0396146,36.0338005],[139.0396356,36.0338038],[139.0396802,36.033802],[139.0397142,36.0338049],[139.0397581,36.0338142],[139.0398071,36.0338279],[139.0398747,36.0338469]]]},"properties":{"layer":"landslide","class_code":"1","class_label":"急傾斜地の崩落","status_code":"0","status_label":"特別警戒区域指定済み"}},{"type":"Feature","id":"lsld_7e50121f-b877-4600-9e9e-a8e07fdf1ecd","geometry":{"type":"Polygon","coordinates":[[[139.05,36.035418574576276],[139.0499477,36.0353973],[139.0498974,36.0353768],[139.049885,36.0353718],[139.0498132,36.0353426],[139.0494683,36.0352022],[139.049266,36.0351382],[139.0491901,36.0351199],[139.0490772,36.0351018],[139.0489526,36.0350935],[139.0488597,36.0350873],[139.0487491,36.0350799],[139.048749,36.0350787],[139.0487486,36.0350771],[139.0487483,36.0350753],[139.0487478,36.0350731],[139.0487478,36.0350728],[139.0487426,36.0350485],[139.0487424,36.0350481],[139.048734,36.03502],[139.0487338,36.0350193],[139.0487028,36.0349632],[139.0487013,36.03495],[139.0487003,36.0349378],[139.0486969,36.0349127],[139.0486966,36.0349097],[139.0486962,36.0349063],[139.0486957,36.0349016],[139.048695,36.0348962],[139.0486943,36.0348888],[139.0486934,36.0348851],[139.0486891,36.0348677],[139.0486869,36.034862],[139.0486813,36.034852],[139.0486734,36.0348405],[139.0485863,36.0347273],[139.0485128,36.0346411],[139.0484548,36.0345932],[139.0484291,36.0345763],[139.0483716,36.0345517],[139.0483539,36.0345463],[139.0482822,36.0344189],[139.0478533,36.0345216],[139.04785,36.0345203],[139.0478451,36.0345184],[139.0478429,36.0345175],[139.0478453,36.0345094],[139.0478335,36.0345075],[139.0478235,36.0344993],[139.0477963,36.0344797],[139.0478552,36.0344032],[139.0479048,36.0343388],[139.0480347,36.03417],[139.0481598,36.0339664],[139.0482877,36.033765],[139.0483675,36.0336133],[139.0483989,36.0335522],[139.0484218,36.0335023],[139.0484477,36.0334275],[139.0484777,36.033335],[139.04847824105184,36.03333333333333],[139.04938095035607,36.03333333333333],[139.0494053,36.033378],[139.0495208,36.0334345],[139.0496401,36.0335655],[139.0497285,36.0336584],[139.0497651,36.0336913],[139.0499651,36.033871],[139.05,36.03390937172775],[139.05,36.035418574576276]]]},"properties":{"layer":"landslide","class_code":"1","class_label":"急傾斜地の崩落","status_code":"0","status_label":"特別警戒区域指定済み"}},{"type":"Feature","id":"lsld_afde89e4-f933-4b4a-840f-0a651504560a","geometry":{"type":"Polygon","coordinates":[[[139.037865,36.0385615],[139.0379825,36.0386374],[139.038151,36.0387171],[139.0382313,36.0388474],[139.0383332,36.0390134],[139.0382859,36.0392061],[139.0381349,36.0392937],[139.0379577,36.0393146],[139.0379154,36.0393137],[139.0379057,36.039323],[139.0378536,36.0394316],[139.0377852,36.0395298],[139.0375,36.039444124999996],[139.0375,36.03937940204708],[139.0375896,36.0392854],[139.0376457,36.0391888],[139.0377314,36.0391434],[139.0378302,36.0390911],[139.0379312,36.0390884],[139.0379834,36.0390251],[139.0380081,36.0389948],[139.0380047,36.0389079],[139.0379351,36.0387533],[139.0379099,36.0386624],[139.0378132,36.0385716],[139.0378151,36.0385713],[139.037865,36.0385615]]]},"properties":{"layer":"landslide","class_code":"1","class_label":"急傾斜地の崩落","status_code":"0","status_label":"特別警戒区域指定済み"}},{"type":"Feature","id":"lsld_d1aed4ad-6dff-4dae-9222-fb2941f0582f","geometry":{"type":"Polygon","coordinates":[[[139.041669,36.0354917],[139.0416203,36.0356098],[139.041568,36.0357266],[139.0414998,36.0358431],[139.0414087,36.035985],[139.0413301,36.0361035],[139.0412503,36.0362203],[139.041167,36.0363427],[139.0410747,36.0364827],[139.0409864,36.0366283],[139.0409737,36.0367881],[139.0409585,36.0367876],[139.0408978,36.0367855],[139.0408971,36.0367782],[139.0409146,36.0367486],[139.0409313,36.0367112],[139.0409327,36.0366996],[139.0409323,36.0366714],[139.0409443,36.0366268],[139.0409493,36.0366109],[139.0409563,36.0365894],[139.0410018,36.0365235],[139.0410362,36.0364708],[139.0410617,36.0364351],[139.0410879,36.0363966],[139.0411079,36.036367],[139.04113,36.036334],[139.0411431,36.0363142],[139.041172,36.0362753],[139.0411906,36.0362494],[139.0412154,36.0362154],[139.0412347,36.036189],[139.0412746,36.036138],[139.041296,36.0361067],[139.0413111,36.0360836],[139.0413297,36.0360584],[139.0413711,36.035998],[139.0413828,36.0359804],[139.0413938,36.0359656],[139.0414042,36.0359529],[139.0414262,36.0359216],[139.0414407,36.0359013],[139.0414483,36.0358854],[139.0414601,36.0358584],[139.0414671,36.0358392],[139.0414679,36.0358303],[139.0414744,36.0357884],[139.0414807,36.0357747],[139.041491,36.0357582],[139.041517,36.035738],[139.0415267,36.0357259],[139.0415342,36.0357138],[139.0415351,36.0356995],[139.0415269,36.0356967],[139.0415107,36.0356921],[139.0415006,36.0356805],[139.0415007,36.0356755],[139.0415061,36.0356717],[139.0415157,36.0356712],[139.0415328,36.0356699],[139.0415549,36.0356357],[139.0415721,36.0356015],[139.0415869,36.0355761],[139.0416029,36.0355478],[139.0416226,36.0355077],[139.0416339,36.0354758],[139.0416568,36.0354862],[139.041669,36.0354917]]]},"properties":{"layer":"landslide","class_code":"1","class_label":"急傾斜地の崩落","status_code":"0","status_label":"特別警戒区域指定済み"}},{"type":"Feature","id":"lsld_107d9cba-4acb-4ccd-9baa-c5dbec62d1d6","geometry":{"type":"Polygon","coordinates":[[[139.0446391,36.0362295],[139.0446559,36.0363419],[139.0446367,36.0364401],[139.0446266,36.0364409],[139.0445582,36.0364455],[139.0445006,36.0364477],[139.0444485,36.0364527],[139.0443506,36.036462],[139.0443417,36.0363452],[139.0443223,36.0362538],[139.0443184,36.0362355],[139.0443806,36.0361725],[139.0444106,36.0361651],[139.0444285,36.0361606],[139.0444296,36.0361603],[139.0446391,36.0362295]]]},"properties":{"layer":"landslide","class_code":"1","class_label":"急傾斜地の崩落","status_code":"0","status_label":"特別警戒区域指定済み"}},{"type":"Feature","id":"lsld_e4a78a96-766a-4cde-b5f3-e8f6ae48d1fb","geometry":{"type":"Polygon","coordinates":[[[139.044464,36.0360027],[139.044463,36.036004],[139.0444455,36.0360494],[139.0444413,36.0360631],[139.0444206,36.0361321],[139.0442603,36.0360567],[139.0441655,36.0359833],[139.0441044,36.0358659],[139.0439686,36.0357819],[139.0439832,36.0357684],[139.0440022,36.0357509],[139.044161,36.0358076],[139.0443784,36.0358982],[139.0444163,36.035963],[139.044464,36.0360027]]]},"properties":{"layer":"landslide","class_code":"1","class_label":"急傾斜地の崩落","status_code":"0","status_label":"特別警戒区域指定済み"}},{"type":"Feature","id":"lsld_107cb6a3-2323-43c3-8263-d8c7cfe9c71a","geometry":{"type":"Polygon","coordinates":[[[139.04731039234815,36.041666666666664],[139.0472902,36.0416009],[139.0472704,36.0414484],[139.0472665,36.0413291],[139.0472928,36.0412051],[139.0472997,36.041205],[139.0473463,36.0412041],[139.047348,36.0412041],[139.0475056,36.0413203],[139.0476945,36.0413885],[139.0478704,36.0414496],[139.0479146,36.0415292],[139.04799860212225,36.041666666666664],[139.04731039234815,36.041666666666664]]]},"properties":{"layer":"landslide","class_code":"1","class_label":"急傾斜地の崩落","status_code":"0","status_label":"特別警戒区域指定済み"}},{"type":"Feature","id":"lsld_83962638-38f9-4117-97b8-d4e8a3cb6131","geometry":{"type":"Polygon","coordinates":[[[139.0391079,36.0336984],[139.0391077,36.0337015],[139.039106,36.0337324],[139.0390031,36.0337366],[139.0388972,36.03374],[139.0387712,36.0337453],[139.0386374,36.0337225],[139.0386442,36.0337061],[139.0386452,36.0337035],[139.0386593,36.0336653],[139.0387807,36.0336462],[139.0387921,36.0336508],[139.0388319,36.0336659],[139.0388698,36.0336806],[139.0388881,36.0336865],[139.0389104,36.0336893],[139.0389267,36.0336916],[139.0389772,36.033693],[139.0390021,36.0336921],[139.0390434,36.0336945],[139.0391079,36.0336984]]]},"properties":{"layer":"landslide","class_code":"1","class_label":"急傾斜地の崩落","status_code":"0","status_label":"特別警戒区域指定済み"}},{"type":"Feature","id":"lsld_f0b351da-95b8-4d5b-b57f-cb0acc7bf221","geometry":{"type":"Polygon","coordinates":[[[139.0498898,36.0343987],[139.0499847,36.034567],[139.05,36.03460694105266],[139.05,36.035418574576276],[139.0499477,36.0353973],[139.0498974,36.0353768],[139.049885,36.0353718],[139.0498132,36.0353426],[139.0494683,36.0352022],[139.049266,36.0351382],[139.0491901,36.0351199],[139.0490772,36.0351018],[139.0489526,36.0350935],[139.0489545,36.0350919],[139.0489533,36.0350864],[139.0489483,36.0350825],[139.048944,36.035075],[139.0489321,36.0350158],[139.0489317,36.0350154],[139.0489195,36.0349762],[139.0489195,36.0349753],[139.0488485,36.034844],[139.048823,36.0348066],[139.0488226,36.0348061],[139.0488061,36.0347836],[139.0488057,36.034783],[139.0487663,36.0347412],[139.0486974,36.034702],[139.0485397,36.0345018],[139.0485398,36.0345015],[139.0484272,36.0343214],[139.0479872,36.0344184],[139.0479568,36.034376],[139.0479507,36.0343698],[139.0479392,36.0343619],[139.0479048,36.0343388],[139.0480347,36.03417],[139.0481598,36.0339664],[139.0482877,36.033765],[139.0483675,36.0336133],[139.0483989,36.0335522],[139.0484218,36.0335023],[139.0484477,36.0334275],[139.0484777,36.033335],[139.04847824105184,36.03333333333333],[139.0489135781576,36.03333333333333],[139.0490085,36.033527],[139.0491621,36.033635],[139.0492973,36.0337754],[139.0494226,36.033906],[139.0494698,36.0339511],[139.0496279,36.0340917],[139.0497559,36.0342307],[139.0497958,36.0342907],[139.0498898,36.0343987]]]},"properties":{"layer":"landslide","class_code":"1","class_label":"急傾斜地の崩落","status_code":"0","status_label":"特別警戒区域指定済み"}},{"type":"Feature","id":"lsld_37d47675-b96d-499b-9578-85310012b100","geometry":{"type":"Polygon","coordinates":[[[139.05,36.03549788952497],[139.0499776,36.0355013],[139.0499229,36.035512],[139.0498122,36.0353437],[139.0498132,36.0353426],[139.0498494,36.0353007],[139.0499519,36.0351723],[139.05,36.03510973809873],[139.05,36.03549788952497]]]},"properties":{"layer":"landslide","class_code":"2","class_label":"土石流","status_code":"0","status_label":"特別警戒区域指定済み"}},{"type":"Feature","id":"lsld_aecaeab8-0362-4187-add2-03b3530f4ca4","geometry":{"type":"Polygon","coordinates":[[[139.0498974,36.0353768],[139.0499442,36.0354483],[139.0498895,36.0354607],[139.0498689,36.0354293],[139.049847,36.0353958],[139.049885,36.0353718],[139.0498914,36.0353677],[139.0498974,36.0353768]]]},"properties":{"layer":"landslide","class_code":"2","class_label":"土石流","status_code":"0","status_label":"特別警戒区域指定済み"}}]}