{"type":"FeatureCollection","properties":{"mesh_code":"54390067","source":"PLATEAU秩父市2025","layer":"landslide"},"features":[{"type":"Feature","id":"lsld_6cbc0836-9bb7-4b49-aec9-94536228f15d","geometry":{"type":"Polygon","coordinates":[[[139.1,36.05690498474074],[139.0999632,36.0568925],[139.0998577,36.0568567],[139.1,36.056608161834774],[139.1,36.05690498474074]]]},"properties":{"layer":"landslide","class_code":"1","class_label":"急傾斜地の崩落","status_code":"0","status_label":"特別警戒区域指定済み"}},{"type":"Feature","id":"lsld_17ce87ee-2bf4-45c9-8456-50ea4c552e64","geometry":{"type":"Polygon","coordinates":[[[139.1,36.05763101525885],[139.0999664,36.057603],[139.0998416,36.0574175],[139.0998344,36.0574086],[139.0997641,36.0573221],[139.0996965,36.0572389],[139.0995288,36.0570325],[139.0997586,36.0569787],[139.0999632,36.0568925],[139.0999992,36.0568774],[139.1,36.05687743640124],[139.1,36.05763101525885]]]},"properties":{"layer":"landslide","class_code":"1","class_label":"急傾斜地の崩落","status_code":"0","status_label":"特別警戒区域指定済み"}},{"type":"Feature","id":"lsld_8f786701-1a0e-47a8-908c-a8d95814fa53","geometry":{"type":"Polygon","coordinates":[[[139.0900891,36.0575999],[139.0901365,36.057806],[139.0901124,36.0579961],[139.0900084,36.0581767],[139.0900227,36.0582878],[139.08998731354825,36.05833333333333],[139.08930570902862,36.05833333333333],[139.0893821,36.0582515],[139.0894568,36.0581066],[139.0894525,36.0580619],[139.0894021,36.0578788],[139.0894423,36.0577371],[139.0894726,36.0576357],[139.0894604,36.0576088],[139.0895226,36.0575864],[139.0895604,36.0575697],[139.0895963,36.0575539],[139.0896082,36.0575469],[139.0896371,36.05753],[139.0896858,36.0575063],[139.0897061,36.057497],[139.0897407,36.0574812],[139.0897962,36.0574639],[139.0900231,36.0573933],[139.0900891,36.0575999]]]},"properties":{"layer":"landslide","class_code":"1","class_label":"急傾斜地の崩落","status_code":"0","status_label":"特別警戒区域指定済み"}},{"type":"Feature","id":"lsld_658a349d-12ee-4392-a659-0159d9214eb9","geometry":{"type":"Polygon","coordinates":[[[139.1,36.05763101525885],[139.0999664,36.057603],[139.0998416,36.0574175],[139.0998344,36.0574086],[139.0997641,36.0573221],[139.0999427,36.0572829],[139.0999877,36.057273],[139.1,36.05726790168454],[139.1,36.05763101525885]]]},"properties":{"layer":"landslide","class_code":"1","class_label":"急傾斜地の崩落","status_code":"0","status_label":"特別警戒区域指定済み"}},{"type":"Feature","id":"lsld_15d93549-4649-4507-bc4f-cdbc44761708","geometry":{"type":"Polygon","coordinates":[[[139.0898566,36.0575821],[139.0898462,36.0577658],[139.0898074,36.0579489],[139.0897731,36.0581355],[139.0898087,36.0582246],[139.08973640351692,36.05833333333333],[139.0895166058183,36.05833333333333],[139.0895247,36.0583221],[139.0896095,36.0581658],[139.0895999,36.058104],[139.089562,36.0579079],[139.0896064,36.0577331],[139.0896362,36.0575942],[139.0896082,36.0575469],[139.0896371,36.05753],[139.0896858,36.0575063],[139.0897061,36.057497],[139.0897407,36.0574812],[139.0897962,36.0574639],[139.0898566,36.0575821]]]},"properties":{"layer":"landslide","class_code":"1","class_label":"急傾斜地の崩落","status_code":"0","status_label":"特別警戒区域指定済み"}},{"type":"Feature","id":"lsld_2e5ff2b8-83e0-4624-b009-4f92ac3a8847","geometry":{"type":"Polygon","coordinates":[[[139.1,36.05506602386927],[139.099503,36.0550434],[139.0994174,36.0550395],[139.0985482,36.055],[139.0985607,36.0549718],[139.09859,36.0549061],[139.0986202,36.054811],[139.0986387,36.0547467],[139.0986549,36.0546905],[139.0986732,36.0546268],[139.0987015,36.0545941],[139.0987355,36.0545549],[139.0987399,36.0545498],[139.0987455,36.0545351],[139.098785,36.054431],[139.0988061,36.0543701],[139.0988076,36.0543656],[139.0988449,36.0543004],[139.0988561,36.0542825],[139.098897,36.0542174],[139.0989141,36.0541887],[139.0989539,36.0541222],[139.0989715,36.0540928],[139.0990041,36.054044],[139.0990309,36.0540039],[139.0990312,36.0540022],[139.0990466,36.0538908],[139.0990458,36.0538558],[139.0990457,36.0538506],[139.0990444,36.0537937],[139.0990443,36.0537901],[139.0990441,36.0537793],[139.0990438,36.0537665],[139.0990436,36.0537588],[139.0990454,36.0537597],[139.0990498,36.0537619],[139.0990518,36.0537629],[139.0993127,36.053892],[139.0994883,36.0539672],[139.0996949,36.0540333],[139.0999494,36.0541156],[139.1,36.054069745175845],[139.1,36.05506602386927]]]},"properties":{"layer":"landslide","class_code":"2","class_label":"土石流","status_code":"0","status_label":"特別警戒区域指定済み"}},{"type":"Feature","id":"lsld_5b30a2dd-a625-41ab-82da-3694a28b28fe","geometry":{"type":"Polygon","coordinates":[[[139.1,36.054994999382615],[139.0994985,36.0550334],[139.0994174,36.0550395],[139.0985085,36.0551091],[139.0984967,36.05511],[139.0985076,36.055084],[139.0985667,36.0549436],[139.0985746,36.0549248],[139.0986091,36.0548428],[139.0986132,36.0548032],[139.0986172,36.0547654],[139.0986549,36.0546905],[139.0986919,36.0546171],[139.0987015,36.0545941],[139.0987293,36.054528],[139.0987743,36.0544271],[139.0987777,36.0544199],[139.0988191,36.0543321],[139.0988787,36.0542372],[139.0988852,36.0542282],[139.0989141,36.0541887],[139.0989341,36.0541613],[139.0989826,36.0540949],[139.0990041,36.054044],[139.0990201,36.0540059],[139.0990214,36.0539885],[139.0990227,36.0539696],[139.0990286,36.0538869],[139.0990356,36.0538454],[139.0990444,36.0537937],[139.099046,36.0537841],[139.0990462,36.0537834],[139.0990498,36.0537619],[139.0990518,36.0537501],[139.0990549,36.0537515],[139.0995206,36.053967],[139.0997208,36.0540377],[139.0999312,36.0540952],[139.1,36.05404450276243],[139.1,36.054994999382615]]]},"properties":{"layer":"landslide","class_code":"2","class_label":"土石流","status_code":"0","status_label":"特別警戒区域指定済み"}},{"type":"Feature","id":"lsld_58e4e13a-ab46-458a-a91c-59f121e27ca6","geometry":{"type":"Polygon","coordinates":[[[139.099281,36.0516713],[139.0993878,36.0517205],[139.0995039,36.0517741],[139.0997268,36.0518768],[139.0999497,36.0519796],[139.1,36.052002798026024],[139.1,36.054263817557256],[139.0998953,36.0541775],[139.0995912,36.0540804],[139.0995858,36.0540781],[139.0990784,36.053867],[139.0990697,36.0538446],[139.099046,36.0537841],[139.0990441,36.0537793],[139.099042,36.053774],[139.0990438,36.0537665],[139.0990454,36.0537597],[139.099074,36.0536408],[139.0990965,36.0533233],[139.0990976,36.0533076],[139.0991305,36.053022],[139.0991311,36.0530161],[139.0992032,36.052885],[139.0992042,36.0528832],[139.0992057,36.0527278],[139.099207,36.0525831],[139.09921,36.0522581],[139.0992296,36.0520964],[139.0992434,36.0519832],[139.0992021,36.0517011],[139.0991917,36.0516299],[139.099281,36.0516713]]]},"properties":{"layer":"landslide","class_code":"2","class_label":"土石流","status_code":"0","status_label":"特別警戒区域指定済み"}},{"type":"Feature","id":"lsld_022f2ec0-f0a9-409c-9b0c-f8fe23893e07","geometry":{"type":"Polygon","coordinates":[[[139.1,36.05423348455696],[139.0999862,36.0542222],[139.0999212,36.0541691],[139.0997223,36.0541107],[139.0995858,36.0540781],[139.0994765,36.0540521],[139.0993714,36.0540038],[139.0992312,36.0539458],[139.0990468,36.0538512],[139.0990457,36.0538506],[139.0990356,36.0538454],[139.0990299,36.0538425],[139.0990443,36.0537901],[139.099046,36.0537841],[139.0990462,36.0537834],[139.0990518,36.0537629],[139.0990549,36.0537515],[139.0990832,36.0536489],[139.099095,36.0534823],[139.0990965,36.0533233],[139.0990967,36.0532989],[139.099099,36.0530572],[139.0991305,36.053022],[139.0992027,36.0529412],[139.0992032,36.052885],[139.0992045,36.0527495],[139.0992057,36.0527278],[139.0992293,36.0522912],[139.0992307,36.0521328],[139.0992296,36.0520964],[139.0992229,36.0518744],[139.0991834,36.0516991],[139.0992021,36.0517011],[139.0993682,36.0517182],[139.0993878,36.0517205],[139.0996218,36.0517486],[139.0998753,36.0517791],[139.1,36.051794097436904],[139.1,36.05423348455696]]]},"properties":{"layer":"landslide","class_code":"2","class_label":"土石流","status_code":"0","status_label":"特別警戒区域指定済み"}},{"type":"Feature","id":"lsld_5b54f5f3-6bda-4736-8801-56967a6fec90","geometry":{"type":"Polygon","coordinates":[[[139.0990312,36.0540022],[139.0994985,36.0550334],[139.099503,36.0550434],[139.0998509,36.055811],[139.099901,36.0559217],[139.0999785,36.0561201],[139.1,36.05617514000001],[139.1,36.057293150234],[139.0999427,36.0572829],[139.0998847,36.0572725],[139.0996965,36.0572389],[139.0996343,36.0572278],[139.099384,36.0571831],[139.0991337,36.0571383],[139.0988833,36.0570936],[139.098633,36.0570489],[139.0983826,36.0570042],[139.0981323,36.0569594],[139.0978819,36.0569147],[139.0976316,36.05687],[139.097365,36.0568129],[139.0972251,36.0567893],[139.0973109,36.0566268],[139.0974389,36.056464],[139.0976025,36.0563794],[139.09768,36.0562866],[139.0978196,36.0561728],[139.0979266,36.056021],[139.0980497,36.0558601],[139.0980572,36.0558503],[139.0981335,36.0557041],[139.0981649,36.055644],[139.0981965,36.0556071],[139.0983781,36.0553951],[139.0984738,36.0552052],[139.0985085,36.0551091],[139.0985504,36.0549934],[139.0985641,36.0549555],[139.0985701,36.054939],[139.0985746,36.0549248],[139.0986132,36.0548032],[139.0986184,36.0547869],[139.0986387,36.0547467],[139.0987355,36.0545549],[139.0987455,36.0545351],[139.0989341,36.0541613],[139.0989539,36.0541222],[139.0990072,36.0540164],[139.0990172,36.0539968],[139.0990214,36.0539885],[139.0990232,36.0539847],[139.0990312,36.0540022]]]},"properties":{"layer":"landslide","class_code":"2","class_label":"土石流","status_code":"0","status_label":"特別警戒区域指定済み"}},{"type":"Feature","id":"lsld_2e14a7c7-c8ad-4085-8fb6-8c0b6e9e1496","geometry":{"type":"Polygon","coordinates":[[[139.1,36.05580719527713],[139.0999131,36.0558094],[139.0998509,36.055811],[139.0996569,36.0558159],[139.0994007,36.0558224],[139.0991445,36.0558289],[139.0988883,36.0558354],[139.0986321,36.0558419],[139.0983759,36.0558484],[139.0981408,36.0558543],[139.0980497,36.0558601],[139.0980315,36.0558613],[139.0981335,36.0557041],[139.0981965,36.0556071],[139.0982306,36.0555546],[139.0983741,36.0553907],[139.0984675,36.0551689],[139.0985076,36.055084],[139.0985504,36.0549934],[139.0985607,36.0549718],[139.0985641,36.0549555],[139.0985667,36.0549436],[139.0985924,36.0548237],[139.0986447,36.0546592],[139.0987582,36.054454],[139.0987777,36.0544199],[139.0988061,36.0543701],[139.0988561,36.0542825],[139.0988613,36.0542734],[139.0988852,36.0542282],[139.0989439,36.0541174],[139.0990072,36.0540164],[139.099016,36.0540025],[139.0990172,36.0539968],[139.0990227,36.0539696],[139.0990458,36.0538558],[139.0990468,36.0538512],[139.0990491,36.0538398],[139.0990697,36.0538446],[139.0992122,36.0538777],[139.0994289,36.0540044],[139.0996102,36.0540424],[139.0998003,36.0541025],[139.0999633,36.0541551],[139.0999862,36.0542222],[139.1,36.054262523853225],[139.1,36.05580719527713]]]},"properties":{"layer":"landslide","class_code":"2","class_label":"土石流","status_code":"0","status_label":"特別警戒区域指定済み"}}]}