{"type":"FeatureCollection","properties":{"mesh_code":"54390026","source":"PLATEAU秩父市2025","layer":"landslide"},"features":[{"type":"Feature","id":"lsld_39608021-acea-45f8-8afa-7d386fb30f15","geometry":{"type":"Polygon","coordinates":[[[139.0874919,36.018743],[139.0875,36.018749238306455],[139.0875,36.01911049568936],[139.0873145,36.0191553],[139.0873125,36.0191558],[139.0872833,36.0191147],[139.0872521,36.0190803],[139.0871451,36.0189878],[139.0870956,36.0189362],[139.0870353,36.0188445],[139.0869996,36.0187902],[139.0869107,36.0186734],[139.0869451,36.0186618],[139.0869422,36.0186498],[139.0869249,36.0186619],[139.0870391,36.0185324],[139.0870852,36.0184802],[139.0870924,36.018472],[139.0871441,36.0184134],[139.0871766,36.0183766],[139.0871768,36.0183763],[139.0872412,36.0183033],[139.0873585,36.0184099],[139.0874478,36.0184843],[139.0874985,36.0186403],[139.0874919,36.018743]]]},"properties":{"layer":"landslide","class_code":"1","class_label":"急傾斜地の崩落","status_code":"0","status_label":"特別警戒区域指定済み"}},{"type":"Feature","id":"lsld_c7acb8f7-f105-411b-a5e1-d3fa94f5725a","geometry":{"type":"Polygon","coordinates":[[[139.0865064,36.017699],[139.0866021,36.017783],[139.0867233,36.0178395],[139.0868736,36.0179725],[139.0869604,36.0181185],[139.0870668,36.0182618],[139.0869844,36.0183063],[139.0869744,36.0183117],[139.0869182,36.018342],[139.0867301,36.0184435],[139.0865859,36.0182428],[139.0864986,36.0181255],[139.086392,36.0179968],[139.0863564,36.0179607],[139.0863599,36.0178776],[139.0863135,36.0178189],[139.086289,36.0177806],[139.0862448,36.0177258],[139.0862463,36.0177247],[139.0862992,36.0176854],[139.0863168,36.0176724],[139.086326,36.0176656],[139.0863987,36.0176117],[139.0865064,36.017699]]]},"properties":{"layer":"landslide","class_code":"1","class_label":"急傾斜地の崩落","status_code":"0","status_label":"特別警戒区域指定済み"}},{"type":"Feature","id":"lsld_30243755-e5a3-4d33-b430-eafdb94997a6","geometry":{"type":"Polygon","coordinates":[[[139.0859270306546,36.016666666666666],[139.0858773,36.0167844],[139.085956,36.0169302],[139.0861192,36.0170834],[139.0862592,36.0172357],[139.0863472,36.0173519],[139.0862895,36.0173934],[139.0862642,36.0174117],[139.0862237,36.0174408],[139.086216,36.0174464],[139.0861012,36.0175274],[139.0860992,36.0175288],[139.0860642,36.017503],[139.086004,36.0174746],[139.0859323,36.0174414],[139.0858781,36.0173896],[139.0858727,36.0173568],[139.0858557,36.0173216],[139.0858388,36.0172864],[139.0858275,36.0172583],[139.085782,36.0171948],[139.085688,36.017096],[139.0855855,36.0169713],[139.0855116,36.0168633],[139.0855076,36.0168606],[139.0854715,36.0168373],[139.0854213,36.0168086],[139.0855666,36.0166864],[139.0855676711204,36.016666666666666],[139.0859270306546,36.016666666666666]]]},"properties":{"layer":"landslide","class_code":"1","class_label":"急傾斜地の崩落","status_code":"0","status_label":"特別警戒区域指定済み"}},{"type":"Feature","id":"lsld_b45b5f4b-c66b-46c1-8b9c-e0cc6f9b19ff","geometry":{"type":"Polygon","coordinates":[[[139.0846436,36.0175702],[139.0845814,36.0175668],[139.0845363,36.0175669],[139.0844253,36.0175673],[139.0845055,36.0174488],[139.0845612,36.0174079],[139.08447,36.0173021],[139.0843708,36.0172132],[139.0842025,36.0171554],[139.08423,36.0170681],[139.0842529,36.0169954],[139.0842666,36.0169518],[139.084284,36.0168966],[139.0843106,36.0168121],[139.0843842,36.0168046],[139.0845025,36.0168546],[139.0845475,36.0168996],[139.0845794,36.0169315],[139.0846593,36.0170133],[139.0847746,36.0171377],[139.0848749,36.0172669],[139.0849307,36.017357],[139.0849393,36.0173759],[139.084956,36.0174128],[139.0849289,36.0174253],[139.084894,36.0174415],[139.0848545,36.0174711],[139.0848332,36.0174871],[139.084744,36.0175371],[139.0846872,36.0175552],[139.0846737,36.0175598],[139.0846436,36.0175702]]]},"properties":{"layer":"landslide","class_code":"1","class_label":"急傾斜地の崩落","status_code":"0","status_label":"特別警戒区域指定済み"}},{"type":"Feature","id":"lsld_d5b6850b-d103-4579-ad17-501e4475a9d1","geometry":{"type":"Polygon","coordinates":[[[139.07609166758914,36.016666666666666],[139.0762498,36.0168817],[139.0757449,36.0169663],[139.0757065,36.0169727],[139.075569,36.0169957],[139.0751666,36.0171121],[139.075,36.017172133174455],[139.075,36.016666666666666],[139.07609166758914,36.016666666666666]]]},"properties":{"layer":"landslide","class_code":"1","class_label":"急傾斜地の崩落","status_code":"0","status_label":"特別警戒区域指定済み"}},{"type":"Feature","id":"lsld_a975b1c0-507e-4f0c-90ec-af2ec153970c","geometry":{"type":"Polygon","coordinates":[[[139.0808292,36.0240869],[139.080783,36.024106],[139.0807444,36.0241219],[139.080715,36.0241341],[139.0806341,36.0242069],[139.0805946,36.0242547],[139.0805503,36.0243083],[139.0805328,36.0243295],[139.0805176,36.0243183],[139.0797671,36.024037],[139.0801122,36.0238128],[139.0802181,36.0237859],[139.0802393,36.0237805],[139.0803097,36.0237627],[139.0804177,36.0237491],[139.080528,36.0237539],[139.0806025,36.0237703],[139.0807023,36.0237924],[139.0807082,36.0237937],[139.0811226,36.0238853],[139.0810696,36.023983],[139.0810753,36.0239852],[139.0810665,36.0239888],[139.0810604,36.0240002],[139.0810426,36.0239987],[139.0808292,36.0240869]]]},"properties":{"layer":"landslide","class_code":"1","class_label":"急傾斜地の崩落","status_code":"0","status_label":"特別警戒区域指定済み"}},{"type":"Feature","id":"lsld_989b7071-97f9-401e-987a-196bc9bbf5fe","geometry":{"type":"Polygon","coordinates":[[[139.0771785,36.0194032],[139.0771861,36.0194584],[139.0771891,36.0194806],[139.0772151,36.01967],[139.0772262,36.0197506],[139.0772384,36.0198402],[139.0770498,36.0199071],[139.0768766,36.0199499],[139.0768769,36.0198597],[139.0768772,36.0197862],[139.0768778,36.0196177],[139.076878,36.019544],[139.076878,36.019538],[139.0768781,36.0195206],[139.0770219,36.0194537],[139.0771776,36.0193966],[139.0771785,36.0194032]]]},"properties":{"layer":"landslide","class_code":"1","class_label":"急傾斜地の崩落","status_code":"0","status_label":"特別警戒区域指定済み"}},{"type":"Feature","id":"lsld_f97b355b-cb6e-4d8a-bb29-83ba1222adbd","geometry":{"type":"Polygon","coordinates":[[[139.075530439661,36.025],[139.0755421,36.0249766],[139.075569,36.0249225],[139.0757691,36.0249153],[139.0757687,36.024917],[139.0759331,36.0249346],[139.075934,36.0249348],[139.0762351,36.0249069],[139.0763752775937,36.025],[139.075530439661,36.025]]]},"properties":{"layer":"landslide","class_code":"1","class_label":"急傾斜地の崩落","status_code":"0","status_label":"特別警戒区域指定済み"}},{"type":"Feature","id":"lsld_f0422ecb-cc36-44a0-9791-8181115e648b","geometry":{"type":"Polygon","coordinates":[[[139.0875,36.01911049568936],[139.0873145,36.0191553],[139.0873125,36.0191558],[139.0872833,36.0191147],[139.0872521,36.0190803],[139.0871451,36.0189878],[139.0870956,36.0189362],[139.0870353,36.0188445],[139.0870677,36.0186761],[139.0871239,36.0185987],[139.0871122,36.0185518],[139.0870391,36.0185324],[139.0870852,36.0184802],[139.0870924,36.018472],[139.0871441,36.0184134],[139.0872328,36.0184823],[139.0872931,36.0185389],[139.0873112,36.0186559],[139.0873385,36.0188231],[139.0875,36.018949937426584],[139.0875,36.01911049568936]]]},"properties":{"layer":"landslide","class_code":"1","class_label":"急傾斜地の崩落","status_code":"0","status_label":"特別警戒区域指定済み"}},{"type":"Feature","id":"lsld_1437a8c2-b2ee-4b77-b15e-440ebe2e5d68","geometry":{"type":"Polygon","coordinates":[[[139.0869182,36.018342],[139.0867301,36.0184435],[139.0865859,36.0182428],[139.0864986,36.0181255],[139.086392,36.0179968],[139.0863564,36.0179607],[139.0863599,36.0178776],[139.0863135,36.0178189],[139.086289,36.0177806],[139.0862448,36.0177258],[139.0862463,36.0177247],[139.0862992,36.0176854],[139.0863921,36.0177691],[139.0865046,36.0178925],[139.0866188,36.0179612],[139.0867197,36.0180497],[139.0867961,36.0181726],[139.0869182,36.018342]]]},"properties":{"layer":"landslide","class_code":"1","class_label":"急傾斜地の崩落","status_code":"0","status_label":"特別警戒区域指定済み"}},{"type":"Feature","id":"lsld_32ca22b8-c2c2-4ba0-af98-33c64cd1c2d3","geometry":{"type":"Polygon","coordinates":[[[139.0862237,36.0174408],[139.086216,36.0174464],[139.0861012,36.0175274],[139.0860992,36.0175288],[139.0860642,36.017503],[139.086004,36.0174746],[139.0859323,36.0174414],[139.0858781,36.0173896],[139.0858727,36.0173568],[139.0858557,36.0173216],[139.0858388,36.0172864],[139.0858275,36.0172583],[139.085782,36.0171948],[139.085688,36.017096],[139.0855855,36.0169713],[139.0855116,36.0168633],[139.0855076,36.0168606],[139.08572156523832,36.016666666666666],[139.08579976779603,36.016666666666666],[139.0857114,36.0168143],[139.0858188,36.0170127],[139.0859649,36.0171548],[139.0860849,36.0172981],[139.0862237,36.0174408]]]},"properties":{"layer":"landslide","class_code":"1","class_label":"急傾斜地の崩落","status_code":"0","status_label":"特別警戒区域指定済み"}},{"type":"Feature","id":"lsld_f4ad8485-cc5a-4a21-b495-958d4d7bed1a","geometry":{"type":"Polygon","coordinates":[[[139.0849289,36.0174253],[139.084894,36.0174415],[139.0848545,36.0174711],[139.0848332,36.0174871],[139.084744,36.0175371],[139.0846872,36.0175552],[139.0846737,36.0175598],[139.0846798,36.0175034],[139.0847106,36.0173315],[139.0846102,36.0172144],[139.0844594,36.0170761],[139.0842529,36.0169954],[139.0842666,36.0169518],[139.084284,36.0168966],[139.0845475,36.0168996],[139.0845794,36.0169315],[139.0846593,36.0170133],[139.0847746,36.0171377],[139.0848749,36.0172669],[139.0849307,36.017357],[139.0849393,36.0173759],[139.0849311,36.0174136],[139.0849289,36.0174253]]]},"properties":{"layer":"landslide","class_code":"1","class_label":"急傾斜地の崩落","status_code":"0","status_label":"特別警戒区域指定済み"}},{"type":"Feature","id":"lsld_1bf0f83a-5e09-4980-b0fa-36f8de1bbb8c","geometry":{"type":"Polygon","coordinates":[[[139.080783,36.024106],[139.0807444,36.0241219],[139.080715,36.0241341],[139.0806341,36.0242069],[139.0805946,36.0242547],[139.0805967,36.024189],[139.0799478,36.0239956],[139.0802393,36.0237805],[139.0803097,36.0237627],[139.0804177,36.0237491],[139.080528,36.0237539],[139.0806025,36.0237703],[139.0807023,36.0237924],[139.080632,36.023964],[139.0807099,36.0240366],[139.0808292,36.0240869],[139.080783,36.024106]]]},"properties":{"layer":"landslide","class_code":"1","class_label":"急傾斜地の崩落","status_code":"0","status_label":"特別警戒区域指定済み"}},{"type":"Feature","id":"lsld_9b8e3786-2481-4a30-8460-3162cd16b9c9","geometry":{"type":"Polygon","coordinates":[[[139.0772151,36.01967],[139.0770393,36.0197421],[139.0768772,36.0197862],[139.0768778,36.0196177],[139.076878,36.019544],[139.076878,36.019538],[139.077021,36.019458],[139.0771785,36.0194032],[139.0771861,36.0194584],[139.0771891,36.0194806],[139.0772151,36.01967]]]},"properties":{"layer":"landslide","class_code":"1","class_label":"急傾斜地の崩落","status_code":"0","status_label":"特別警戒区域指定済み"}},{"type":"Feature","id":"lsld_3c322413-7e49-4a29-9569-78cea8797b1b","geometry":{"type":"Polygon","coordinates":[[[139.075530439661,36.025],[139.0755421,36.0249766],[139.0757275,36.0249913],[139.0757271,36.024993],[139.07574760453718,36.025],[139.075530439661,36.025]]]},"properties":{"layer":"landslide","class_code":"1","class_label":"急傾斜地の崩落","status_code":"0","status_label":"特別警戒区域指定済み"}}]}