{"type":"FeatureCollection","properties":{"mesh_code":"54390120","source":"PLATEAU秩父市2025","layer":"landslide"},"features":[{"type":"Feature","id":"lsld_bf6b3db4-109f-4f62-a884-63aaa1277d71","geometry":{"type":"Polygon","coordinates":[[[139.1334153,36.0233279],[139.1333736,36.023323],[139.1332774,36.0233116],[139.1331311,36.0232666],[139.1330285,36.0232153],[139.132906,36.0231592],[139.1328297,36.0231338],[139.1327097,36.0230939],[139.1326616,36.0230779],[139.1323119,36.0229723],[139.1322197,36.0228908],[139.1326488,36.0229232],[139.1326776,36.0229254],[139.132772,36.0229336],[139.1328389,36.0229394],[139.133089,36.0230144],[139.1332043,36.0230857],[139.1333409,36.0232101],[139.1334888,36.0232845],[139.1335971,36.0233098],[139.1336442,36.0233208],[139.1336746,36.0233218],[139.1337705,36.0233252],[139.1337855,36.0233257],[139.1335512,36.0233243],[139.1334153,36.0233279]]]},"properties":{"layer":"landslide","class_code":"1","class_label":"急傾斜地の崩落","status_code":"0","status_label":"特別警戒区域指定済み"}},{"type":"Feature","id":"lsld_200a8abd-63a8-4ecb-88d7-33f4d3643692","geometry":{"type":"Polygon","coordinates":[[[139.1328498,36.0222338],[139.1328533,36.0222342],[139.1328864,36.0222611],[139.1329385,36.0223033],[139.1329484,36.0223107],[139.1330068,36.0223542],[139.1330143,36.0223598],[139.1330407,36.0223659],[139.1330833,36.0223734],[139.1331695,36.0223886],[139.1332371,36.0224004],[139.133278,36.0224076],[139.1331785,36.0224326],[139.1330547,36.0224548],[139.132955,36.0224334],[139.132948,36.0224305],[139.1329011,36.0224114],[139.1328628,36.0223959],[139.1328465,36.022381],[139.1327929,36.0223323],[139.1327912,36.0223302],[139.1327423,36.0222715],[139.1327421,36.0222711],[139.1327085,36.0222308],[139.1326833,36.0222142],[139.1328498,36.0222338]]]},"properties":{"layer":"landslide","class_code":"1","class_label":"急傾斜地の崩落","status_code":"0","status_label":"特別警戒区域指定済み"}},{"type":"Feature","id":"lsld_96aa26b3-c422-4357-bbc9-1629e906622f","geometry":{"type":"Polygon","coordinates":[[[139.1333439,36.0222776],[139.1332468,36.0222952],[139.1332365,36.0222931],[139.1331391,36.0222733],[139.1330915,36.0222636],[139.133061,36.0222586],[139.1329948,36.0222476],[139.1329508,36.0222531],[139.1328864,36.0222611],[139.1328757,36.0222624],[139.1328607,36.0222634],[139.1327465,36.0222712],[139.1327423,36.0222715],[139.132686,36.0222753],[139.1325207,36.0221092],[139.1324935,36.0218819],[139.1327409,36.0217814],[139.1327435,36.0217823],[139.1329196,36.0218441],[139.1329922,36.0218696],[139.1330074,36.0218756],[139.1330259,36.0218829],[139.1331068,36.0219215],[139.1331677,36.0219506],[139.1331868,36.0219597],[139.1332634,36.0219963],[139.1333698,36.0221466],[139.1333439,36.0222776]]]},"properties":{"layer":"landslide","class_code":"1","class_label":"急傾斜地の崩落","status_code":"0","status_label":"特別警戒区域指定済み"}},{"type":"Feature","id":"lsld_aad85e5d-ea81-4420-a6dd-22ecd0226bfa","geometry":{"type":"Polygon","coordinates":[[[139.1322294,36.0238937],[139.1322158,36.0239536],[139.1322068,36.023993],[139.1322057,36.0239977],[139.1322037,36.0240064],[139.1321969,36.0240376],[139.1321838,36.0240969],[139.1321774,36.0241263],[139.1320749,36.0241586],[139.1319649,36.0241666],[139.1319501,36.0241361],[139.1319242,36.0240828],[139.1318968,36.0240263],[139.1318961,36.0240251],[139.1318905,36.0240149],[139.131866,36.0239703],[139.131837,36.0239178],[139.1320906,36.0238712],[139.1322294,36.0238937]]]},"properties":{"layer":"landslide","class_code":"1","class_label":"急傾斜地の崩落","status_code":"0","status_label":"特別警戒区域指定済み"}},{"type":"Feature","id":"lsld_78d04d12-e0a3-450b-b6ec-fd90532755bf","geometry":{"type":"Polygon","coordinates":[[[139.1313356,36.0209422],[139.131346,36.0209591],[139.1313848,36.0210227],[139.1313993,36.0210463],[139.1314129,36.0210564],[139.1314657,36.0210953],[139.1314678,36.0210968],[139.1315295,36.0211622],[139.1317225,36.0212307],[139.1317263,36.0213157],[139.1316824,36.021413],[139.1316173,36.0215408],[139.1316689,36.0216794],[139.131639,36.0216998],[139.1315987,36.0217293],[139.1315725,36.021739],[139.1315322,36.0217643],[139.1314814,36.0217951],[139.1314641,36.021807],[139.1314615,36.0218062],[139.1312593,36.0217424],[139.1312112,36.0217272],[139.1311369,36.0217072],[139.1311117,36.0217004],[139.1310239,36.0216618],[139.1309657,36.0216078],[139.1308334,36.0214675],[139.1307765,36.0213862],[139.1307102,36.0212915],[139.1306947,36.0212694],[139.1307162,36.0212674],[139.130745,36.0212391],[139.1306389,36.0210964],[139.1306366,36.0210922],[139.1306568,36.0210526],[139.1312966,36.0208784],[139.1313356,36.0209422]]]},"properties":{"layer":"landslide","class_code":"1","class_label":"急傾斜地の崩落","status_code":"0","status_label":"特別警戒区域指定済み"}},{"type":"Feature","id":"lsld_52af116e-a176-4cf1-9f1f-f76e96a8c12a","geometry":{"type":"Polygon","coordinates":[[[139.1302195,36.0221686],[139.1302348,36.0221743],[139.130308,36.0222017],[139.1305882,36.0223066],[139.1307211,36.0223778],[139.1307317,36.0223843],[139.1308273,36.0224432],[139.1308539,36.0224596],[139.1308994,36.022493],[139.130865,36.0225606],[139.1308596,36.0226245],[139.1308244,36.0226989],[139.1307587,36.0228624],[139.1306524,36.0228785],[139.1304964,36.0229308],[139.1304824,36.0229012],[139.1303411,36.0226027],[139.1303268,36.0225724],[139.1303026,36.0225087],[139.130301,36.0225043],[139.1301785,36.0223026],[139.1301514,36.022258],[139.1301404,36.0222399],[139.1301101,36.022186],[139.1301046,36.0221763],[139.1301198,36.0221704],[139.1301288,36.0221557],[139.1301313,36.022142],[139.1302195,36.0221686]]]},"properties":{"layer":"landslide","class_code":"1","class_label":"急傾斜地の崩落","status_code":"0","status_label":"特別警戒区域指定済み"}},{"type":"Feature","id":"lsld_8f2904e4-0a7e-443e-a457-3d82cefa346a","geometry":{"type":"Polygon","coordinates":[[[139.1303583,36.0232301],[139.1305921,36.0232579],[139.1305432,36.0233552],[139.1305492,36.0233804],[139.1304921,36.023532],[139.1304877,36.023568],[139.1304317,36.0235849],[139.1304264,36.0235865],[139.1303303,36.0236201],[139.1303057,36.0236287],[139.130088,36.0236823],[139.1299379,36.023722],[139.1298061,36.0237381],[139.1297142,36.0237494],[139.1297058,36.0237504],[139.1296309,36.0237547],[139.1296036,36.0237563],[139.1296016,36.0237448],[139.1295728,36.0237138],[139.1295645,36.0237102],[139.1295899,36.0236939],[139.1296516,36.0236544],[139.1296785,36.0236372],[139.1297229,36.0236053],[139.1298203,36.0235355],[139.1299002,36.0234656],[139.1299226,36.0234492],[139.1299667,36.0234171],[139.1299944,36.0233913],[139.1302173,36.0231837],[139.1303583,36.0232301]]]},"properties":{"layer":"landslide","class_code":"1","class_label":"急傾斜地の崩落","status_code":"0","status_label":"特別警戒区域指定済み"}},{"type":"Feature","id":"lsld_aaf4caee-6c0f-42ad-83cb-0aa5880f6977","geometry":{"type":"Polygon","coordinates":[[[139.1335971,36.0233098],[139.1333736,36.023323],[139.1332774,36.0233116],[139.1331311,36.0232666],[139.1330285,36.0232153],[139.132906,36.0231592],[139.1328297,36.0231338],[139.1327097,36.0230939],[139.1326488,36.0229232],[139.1326776,36.0229254],[139.132772,36.0229336],[139.1328389,36.0229394],[139.133089,36.0230144],[139.1332043,36.0230857],[139.1333409,36.0232101],[139.1334888,36.0232845],[139.1335971,36.0233098]]]},"properties":{"layer":"landslide","class_code":"1","class_label":"急傾斜地の崩落","status_code":"0","status_label":"特別警戒区域指定済み"}},{"type":"Feature","id":"lsld_79826f60-7039-4c18-a9bd-1f01e68b530b","geometry":{"type":"Polygon","coordinates":[[[139.1330833,36.0223734],[139.1330264,36.0224072],[139.1329011,36.0224114],[139.1328628,36.0223959],[139.1328465,36.022381],[139.1327929,36.0223323],[139.1327912,36.0223302],[139.1328745,36.0223395],[139.1329484,36.0223107],[139.1330068,36.0223542],[139.1330143,36.0223598],[139.1330407,36.0223659],[139.1330833,36.0223734]]]},"properties":{"layer":"landslide","class_code":"1","class_label":"急傾斜地の崩落","status_code":"0","status_label":"特別警戒区域指定済み"}},{"type":"Feature","id":"lsld_3abd9b48-266c-4bb8-9276-f39b54d7bb6c","geometry":{"type":"Polygon","coordinates":[[[139.1308273,36.0224432],[139.1306907,36.0225351],[139.1304783,36.0225539],[139.1303411,36.0226027],[139.1303268,36.0225724],[139.1303026,36.0225087],[139.130301,36.0225043],[139.1301785,36.0223026],[139.1302507,36.0222738],[139.1302839,36.0222356],[139.130308,36.0222017],[139.1305882,36.0223066],[139.1307211,36.0223778],[139.1307317,36.0223843],[139.1308273,36.0224432]]]},"properties":{"layer":"landslide","class_code":"1","class_label":"急傾斜地の崩落","status_code":"0","status_label":"特別警戒区域指定済み"}},{"type":"Feature","id":"lsld_968591d8-279f-435e-86c8-94b495f9a900","geometry":{"type":"Polygon","coordinates":[[[139.1329508,36.0222531],[139.1328864,36.0222611],[139.1328757,36.0222624],[139.1328607,36.0222634],[139.1328498,36.0222338],[139.1328255,36.0221682],[139.132854,36.0219721],[139.1329196,36.0218441],[139.1329922,36.0218696],[139.1330074,36.0218756],[139.1330259,36.0218829],[139.1331068,36.0219215],[139.1332026,36.0220794],[139.1331547,36.0222373],[139.133061,36.0222586],[139.1329948,36.0222476],[139.1329508,36.0222531]]]},"properties":{"layer":"landslide","class_code":"1","class_label":"急傾斜地の崩落","status_code":"0","status_label":"特別警戒区域指定済み"}},{"type":"Feature","id":"lsld_cdcc869b-4241-48a0-b449-3401e4ebebc4","geometry":{"type":"Polygon","coordinates":[[[139.1322057,36.0239977],[139.1320841,36.0240068],[139.1318961,36.0240251],[139.1318905,36.0240149],[139.131866,36.0239703],[139.1320879,36.0239361],[139.1322158,36.0239536],[139.1322068,36.023993],[139.1322057,36.0239977]]]},"properties":{"layer":"landslide","class_code":"1","class_label":"急傾斜地の崩落","status_code":"0","status_label":"特別警戒区域指定済み"}},{"type":"Feature","id":"lsld_d7f2b6a8-d3bd-4db9-a15c-5d995a986fb5","geometry":{"type":"Polygon","coordinates":[[[139.1314657,36.0210953],[139.1313005,36.0211308],[139.1312964,36.0212368],[139.1312493,36.0213337],[139.1312744,36.0214639],[139.131277,36.0216197],[139.1312593,36.0217424],[139.1312112,36.0217272],[139.1311369,36.0217072],[139.1311117,36.0217004],[139.1310239,36.0216618],[139.1309657,36.0216078],[139.1308334,36.0214675],[139.1307765,36.0213862],[139.1308179,36.0213809],[139.1309133,36.0213339],[139.130788,36.0212043],[139.1308136,36.0211601],[139.1308478,36.021071],[139.1313848,36.0210227],[139.1313993,36.0210463],[139.1314129,36.0210564],[139.1314657,36.0210953]]]},"properties":{"layer":"landslide","class_code":"1","class_label":"急傾斜地の崩落","status_code":"0","status_label":"特別警戒区域指定済み"}},{"type":"Feature","id":"lsld_3a52a85d-2e42-450e-8ece-81e36b45aebf","geometry":{"type":"Polygon","coordinates":[[[139.1304317,36.0235849],[139.1304264,36.0235865],[139.1303303,36.0236201],[139.1303057,36.0236287],[139.130088,36.0236823],[139.1299379,36.023722],[139.1298061,36.0237381],[139.1298008,36.0237122],[139.1297431,36.0236231],[139.1297229,36.0236053],[139.1298203,36.0235355],[139.1299002,36.0234656],[139.1299226,36.0234492],[139.1299667,36.0234171],[139.1299944,36.0233913],[139.1300742,36.0234273],[139.1303328,36.0234741],[139.1304317,36.0235849]]]},"properties":{"layer":"landslide","class_code":"1","class_label":"急傾斜地の崩落","status_code":"0","status_label":"特別警戒区域指定済み"}},{"type":"Feature","id":"lsld_88cc9cb5-4dec-489c-8d61-1d6e3ce6a8a1","geometry":{"type":"Polygon","coordinates":[[[139.1275224,36.023438],[139.1275948,36.0234711],[139.1277072,36.0235224],[139.1276644,36.0235996],[139.1275949,36.023678],[139.1275309,36.0238556],[139.1275338,36.0240637],[139.1275353,36.0241766],[139.1275366,36.0242719],[139.1275394,36.02448],[139.1275423,36.0246881],[139.1275451,36.0248962],[139.1275465458213,36.025],[139.12539300855263,36.025],[139.1253919,36.024999],[139.1253588,36.0249682],[139.1253264,36.0249369],[139.1252946,36.0249051],[139.1252636,36.024873],[139.1252332,36.0248403],[139.1252036,36.0248073],[139.1251746,36.0247738],[139.1251464,36.0247399],[139.1251189,36.0247057],[139.1250922,36.024671],[139.1250662,36.024636],[139.1250409,36.0246006],[139.1250165,36.0245649],[139.1250083,36.0245523],[139.1252163,36.0244523],[139.1254368,36.0243462],[139.1256572,36.0242401],[139.1258777,36.0241341],[139.1260982,36.024028],[139.1263186,36.023922],[139.1265391,36.0238159],[139.1267596,36.0237099],[139.12698,36.0236038],[139.1272005,36.0234977],[139.1273179,36.0234413],[139.1274042,36.0233839],[139.1275224,36.023438]]]},"properties":{"layer":"landslide","class_code":"2","class_label":"土石流","status_code":"0","status_label":"特別警戒区域指定済み"}},{"type":"Feature","id":"lsld_a554a32c-3dcf-464e-8360-982b55ed2ee7","geometry":{"type":"Polygon","coordinates":[[[139.13063313745928,36.025],[139.1306524,36.0249846],[139.1307204,36.0249183],[139.1307412,36.024885],[139.1307709,36.0248423],[139.1307889,36.0248019],[139.1308008,36.0247853],[139.1308068,36.0247663],[139.1308101,36.0247306],[139.1308137,36.024652],[139.1308187,36.0246816],[139.1308898,36.0249018],[139.13092397924427,36.025],[139.13063313745928,36.025]]]},"properties":{"layer":"landslide","class_code":"2","class_label":"土石流","status_code":"0","status_label":"特別警戒区域指定済み"}},{"type":"Feature","id":"lsld_a8079f92-c43c-40cf-b9a0-54cc82a64956","geometry":{"type":"Polygon","coordinates":[[[139.1318838,36.0236712],[139.1316535,36.0236826],[139.1309207,36.0238712],[139.1306765,36.0239341],[139.1306691,36.0239362],[139.130665,36.0238781],[139.1306635,36.0238378],[139.1306614,36.0238173],[139.1306592,36.0237618],[139.1306573,36.0237186],[139.1306545,36.023666],[139.1306507,36.0236291],[139.1306652,36.0235424],[139.1306958,36.0234535],[139.1307268,36.023374],[139.1307447,36.0233283],[139.1307616,36.0232829],[139.1307803,36.0232339],[139.1307991,36.0231878],[139.1308197,36.0231387],[139.1308487,36.0230763],[139.1308777,36.0230124],[139.130903,36.0229567],[139.1309377,36.0228667],[139.1309583,36.0228139],[139.1309724,36.0227797],[139.130993,36.0227374],[139.1310071,36.0226987],[139.1310333,36.0226385],[139.1310576,36.0225813],[139.1310726,36.0225523],[139.1310792,36.0225322],[139.1310821,36.0225076],[139.1310778,36.0224771],[139.1310726,36.0224495],[139.1310645,36.0224248],[139.1310538,36.0223905],[139.1310458,36.0223621],[139.1310361,36.0223233],[139.1310345,36.0222958],[139.1310284,36.022257],[139.1313026,36.0224618],[139.1314918,36.0226021],[139.131681,36.0227425],[139.1320593,36.0230233],[139.1322905,36.0231775],[139.1324269,36.0233219],[139.1326119,36.023458],[139.132834,36.0235752],[139.1330188,36.0235902],[139.1330104,36.0236616],[139.1330065,36.0236949],[139.133004,36.0237163],[139.1329921,36.0238188],[139.1326794,36.0238519],[139.1325579,36.0237324],[139.1323361,36.0236829],[139.1320956,36.0236492],[139.1318838,36.0236712]]]},"properties":{"layer":"landslide","class_code":"2","class_label":"土石流","status_code":"0","status_label":"特別警戒区域指定済み"}},{"type":"Feature","id":"lsld_a444bf8b-2786-4e01-87f2-736ff9d8011d","geometry":{"type":"Polygon","coordinates":[[[139.12673365110294,36.025],[139.1267848,36.0249475],[139.1269437,36.0247842],[139.1271027,36.024621],[139.1272616,36.0244577],[139.1274206,36.0242945],[139.1275353,36.0241766],[139.1275795,36.0241312],[139.1277385,36.023968],[139.1283027,36.024035],[139.1283973,36.0242286],[139.1284918,36.024422],[139.1285864,36.0246155],[139.128681,36.0248089],[139.12877447497416,36.025],[139.12673365110294,36.025]]]},"properties":{"layer":"landslide","class_code":"2","class_label":"土石流","status_code":"0","status_label":"特別警戒区域指定済み"}},{"type":"Feature","id":"lsld_f1eddc60-fb94-4d02-b189-ab7b9094b4f4","geometry":{"type":"Polygon","coordinates":[[[139.1275495,36.0234437],[139.1275948,36.0234711],[139.1275264,36.0235572],[139.1274373,36.0235165],[139.1275224,36.023438],[139.1275495,36.0234437]]]},"properties":{"layer":"landslide","class_code":"2","class_label":"土石流","status_code":"0","status_label":"特別警戒区域指定済み"}},{"type":"Feature","id":"lsld_36c82da9-765e-499c-8d8f-49274d73eb5a","geometry":{"type":"Polygon","coordinates":[[[139.1254291,36.0190068],[139.1254794,36.0190254],[139.1254395,36.0190987],[139.125386,36.0191969],[139.125281,36.0193623],[139.1252704,36.0193784],[139.1251096,36.0192845],[139.1251308,36.0192747],[139.1252525,36.0191295],[139.1252872,36.0190835],[139.1253635,36.0189825],[139.1254291,36.0190068]]]},"properties":{"layer":"landslide","class_code":"2","class_label":"土石流","status_code":"0","status_label":"特別警戒区域指定済み"}},{"type":"Feature","id":"lsld_45fba7ff-1859-4e59-b016-a81281900c38","geometry":{"type":"Polygon","coordinates":[[[139.1330065,36.0236949],[139.133004,36.0237163],[139.1327736,36.0236833],[139.1325784,36.0236282],[139.132503,36.0236047],[139.1325234,36.0235237],[139.132591,36.0235642],[139.1328065,36.0236244],[139.1330104,36.0236616],[139.1330065,36.0236949]]]},"properties":{"layer":"landslide","class_code":"2","class_label":"土石流","status_code":"0","status_label":"特別警戒区域指定済み"}},{"type":"Feature","id":"lsld_5bbd4c6a-9c7a-48bd-a3e0-77d44d6ef811","geometry":{"type":"Polygon","coordinates":[[[139.1253222,36.0226471],[139.1252664,36.0226548],[139.1252263,36.0225675],[139.1252861,36.0225686],[139.1252975,36.0225934],[139.1253222,36.0226471]]]},"properties":{"layer":"landslide","class_code":"2","class_label":"土石流","status_code":"0","status_label":"特別警戒区域指定済み"}}]}