{"type":"FeatureCollection","properties":{"mesh_code":"54390066","source":"PLATEAU秩父市2025","layer":"landslide"},"features":[{"type":"Feature","id":"lsld_b18c7649-5a11-4244-9d1e-5d1d26514206","geometry":{"type":"Polygon","coordinates":[[[139.0751088,36.0529825],[139.0752201,36.0530925],[139.0751619,36.0532381],[139.075108,36.0532628],[139.0750633,36.0532832],[139.0750616,36.053284],[139.075,36.05331222400001],[139.075,36.052859350781254],[139.0750195,36.0528463],[139.0750668,36.0528147],[139.0751088,36.0529825]]]},"properties":{"layer":"landslide","class_code":"1","class_label":"急傾斜地の崩落","status_code":"0","status_label":"特別警戒区域指定済み"}},{"type":"Feature","id":"lsld_68b5909f-01de-43be-af0e-a47d7d030186","geometry":{"type":"Polygon","coordinates":[[[139.0797817,36.0547771],[139.0797828,36.0548315],[139.0797844,36.0549077],[139.079786,36.0549824],[139.0797882,36.0550881],[139.0797889,36.055124],[139.0794651,36.0551304],[139.079129,36.054872],[139.0792063,36.0545812],[139.0792838,36.0544514],[139.0792673,36.0543835],[139.0792465,36.0543897],[139.0792322,36.0542389],[139.0792636,36.0542493],[139.0792638,36.0542476],[139.0790867,36.05406],[139.0791029,36.0535659],[139.0791957,36.0535165],[139.0790027,36.0533208],[139.0791622,36.0529855],[139.0794059,36.0527415],[139.0794063,36.0527417],[139.0795818,36.0527161],[139.0796298,36.0526961],[139.0796484,36.0527019],[139.0796657,36.0527062],[139.0796781,36.0527081],[139.0796856,36.0527092],[139.0796911,36.0527096],[139.0797012,36.0527089],[139.0797105,36.0527083],[139.0797173,36.0527074],[139.0797339,36.0527027],[139.0797424,36.0526989],[139.0798962,36.0527959],[139.0799073,36.0528029],[139.0800007,36.0528618],[139.0803516,36.053083],[139.0804162,36.0531237],[139.0805039,36.053179],[139.0804603,36.0532362],[139.0804099,36.053301],[139.0803358,36.0533903],[139.0803294,36.0533983],[139.0803289,36.0533982],[139.0803285,36.0534033],[139.080327,36.053409],[139.0803233,36.0534358],[139.0802749,36.0536941],[139.0802166,36.0538116],[139.080214,36.0538491],[139.0802,36.053993],[139.0801908,36.0541074],[139.0799064,36.0544609],[139.0796749,36.054586],[139.0795787,36.0547029],[139.0795739,36.0547121],[139.0795779,36.0547178],[139.0797798,36.0546869],[139.0797817,36.0547771]]]},"properties":{"layer":"landslide","class_code":"1","class_label":"急傾斜地の崩落","status_code":"0","status_label":"特別警戒区域指定済み"}},{"type":"Feature","id":"lsld_6f6f2c02-ec02-4c72-b547-142e354908f5","geometry":{"type":"Polygon","coordinates":[[[139.075,36.0501765297058],[139.0752095,36.0502326],[139.075255,36.0503222],[139.0753685,36.0504996],[139.0754274,36.0505463],[139.0755581,36.0505647],[139.0754817,36.0506986],[139.0753097,36.0508267],[139.0753458,36.0508753],[139.0753661,36.050915],[139.0753743,36.0509417],[139.0753822,36.0509743],[139.0753872,36.0509951],[139.0754674,36.0511269],[139.0755154,36.0511588],[139.0755967,36.0512127],[139.0756088,36.0512167],[139.0756513,36.0512219],[139.075689,36.0512231],[139.0757376,36.0512234],[139.0757583,36.0512236],[139.0757923,36.0512297],[139.0758274,36.0512418],[139.0758614,36.0512558],[139.0758843,36.0512728],[139.0759216,36.0513135],[139.0759308,36.0513287],[139.0759379,36.0513809],[139.0757453,36.0517218],[139.0757251,36.0517505],[139.075827,36.051889],[139.0758937,36.0519802],[139.0759673,36.05211],[139.0760202,36.0523363],[139.076021,36.0523367],[139.0760317,36.0524293],[139.0760705,36.0525332],[139.0760707,36.0525335],[139.0760793,36.0526797],[139.0759948,36.0528172],[139.0757695,36.0528491],[139.0757021,36.052818],[139.0756471,36.0527926],[139.0756292,36.0527844],[139.0755622,36.0527534],[139.0754657,36.0527089],[139.0755439,36.0526542],[139.0756463,36.0526365],[139.0756503,36.052601],[139.0756123,36.0525004],[139.075604,36.0523542],[139.0756032,36.0523539],[139.0755249,36.052225],[139.0754221,36.052142],[139.0753297,36.0520243],[139.0752644,36.0519126],[139.0751979,36.0517087],[139.0753018,36.05156],[139.0752726,36.051521],[139.075178,36.0514797],[139.0750491,36.0513429],[139.0750002,36.0512057],[139.075,36.051205566376616],[139.075,36.0501765297058]]]},"properties":{"layer":"landslide","class_code":"1","class_label":"急傾斜地の崩落","status_code":"0","status_label":"特別警戒区域指定済み"}},{"type":"Feature","id":"lsld_6e226475-2e1a-45e1-9568-a5724c920bd7","geometry":{"type":"Polygon","coordinates":[[[139.0783668,36.0519768],[139.07846,36.051996],[139.0784893,36.052002],[139.0785012,36.0520044],[139.0785994,36.0520246],[139.0787833,36.0520623],[139.0788644,36.052079],[139.078972,36.0521011],[139.0789553,36.052169],[139.0789399,36.0521952],[139.0788482,36.0522554],[139.0787519,36.0523248],[139.0786124,36.0524298],[139.0785431,36.0524077],[139.0784707,36.0523847],[139.0784214,36.052369],[139.0783674,36.0523518],[139.0782026,36.0522302],[139.0781431,36.0521863],[139.0780829,36.0520908],[139.0782482,36.0519525],[139.0783668,36.0519768]]]},"properties":{"layer":"landslide","class_code":"1","class_label":"急傾斜地の崩落","status_code":"0","status_label":"特別警戒区域指定済み"}},{"type":"Feature","id":"lsld_c8719c2a-ade0-456e-9671-1eeed4544d13","geometry":{"type":"Polygon","coordinates":[[[139.0785558,36.0519491],[139.0784893,36.052002],[139.0784823,36.0520076],[139.0784695,36.0520178],[139.0782026,36.0522302],[139.0781595,36.0522645],[139.0780362,36.052042],[139.0781116,36.0519996],[139.0781226,36.0518903],[139.0779755,36.0518816],[139.0778325,36.0519159],[139.077686,36.0518269],[139.0774887,36.0518949],[139.0773118,36.0518388],[139.0772907,36.0517939],[139.0772723,36.0517545],[139.077249,36.0517048],[139.0772095,36.0516206],[139.0772345,36.0515977],[139.0773499,36.0514922],[139.0775794,36.0514353],[139.0777596,36.051301],[139.0780146,36.0512968],[139.0782275,36.0513287],[139.0785129,36.0513055],[139.078863,36.0515766],[139.0789509,36.0516346],[139.0788717,36.0516977],[139.0788183,36.0517402],[139.0785558,36.0519491]]]},"properties":{"layer":"landslide","class_code":"1","class_label":"急傾斜地の崩落","status_code":"0","status_label":"特別警戒区域指定済み"}},{"type":"Feature","id":"lsld_780266fa-b44a-4505-8591-8c89784ce8e2","geometry":{"type":"Polygon","coordinates":[[[139.0773707,36.0511086],[139.0773824,36.0511499],[139.0773658,36.0511964],[139.0774063,36.0513707],[139.0773499,36.0514922],[139.0773193,36.0515584],[139.0772345,36.0515977],[139.0770359,36.0516897],[139.0769964,36.0517129],[139.0769581,36.0518053],[139.0769949,36.0518569],[139.0770507,36.0519561],[139.0769838,36.052028],[139.0769258,36.0520901],[139.0769255,36.0520905],[139.0768951,36.0521232],[139.0768657,36.0521546],[139.0767608,36.0519953],[139.0766911,36.0518917],[139.076689,36.0518886],[139.0766808,36.0518786],[139.0766745,36.051871],[139.0766317,36.0518172],[139.0766077,36.0517875],[139.0765983,36.0517762],[139.0765901,36.0517685],[139.0765903,36.0517285],[139.07673,36.051555],[139.0767992,36.0514021],[139.076736,36.0513157],[139.076723,36.0513139],[139.0769236,36.0511333],[139.0770101,36.0511262],[139.0770333,36.0511243],[139.0771025,36.0511186],[139.0771616,36.0511137],[139.0772053,36.0511101],[139.0772569,36.0511059],[139.0773673,36.0510968],[139.0773707,36.0511086]]]},"properties":{"layer":"landslide","class_code":"1","class_label":"急傾斜地の崩落","status_code":"0","status_label":"特別警戒区域指定済み"}},{"type":"Feature","id":"lsld_2f8c4e7c-f83b-42a5-b520-53a9885a9b1e","geometry":{"type":"Polygon","coordinates":[[[139.0772941,36.0508255],[139.0774689,36.0508862],[139.0774314,36.050971],[139.0773991,36.0510443],[139.0773707,36.0511086],[139.0773701,36.0511098],[139.0773359,36.0511871],[139.0772991,36.0512705],[139.0772137,36.0512045],[139.0771475,36.0511533],[139.0770312,36.0511304],[139.0770101,36.0511262],[139.0769508,36.0511145],[139.0767201,36.0510865],[139.0766694,36.0508067],[139.0766698,36.0506791],[139.0769346,36.0505673],[139.0770731,36.0505479],[139.0773017,36.0505464],[139.0772907,36.0505852],[139.0772614,36.0506883],[139.0772489,36.0507326],[139.0772403,36.0507631],[139.0772325,36.0507903],[139.0772283,36.0508052],[139.0773152,36.05083],[139.0772815,36.0508218],[139.0772941,36.0508255]]]},"properties":{"layer":"landslide","class_code":"1","class_label":"急傾斜地の崩落","status_code":"0","status_label":"特別警戒区域指定済み"}},{"type":"Feature","id":"lsld_18c433c3-a7ed-470f-a776-f82f681981bc","geometry":{"type":"Polygon","coordinates":[[[139.0818029,36.0575951],[139.081778,36.0575958],[139.0817493,36.0575966],[139.0817223,36.0575977],[139.0816763,36.0576036],[139.0816151,36.0576049],[139.0815672,36.0576142],[139.0815591,36.0576157],[139.081354,36.0576739],[139.0811486,36.0576775],[139.0811441,36.0576283],[139.0811404,36.0575877],[139.0811334,36.0575099],[139.0811253,36.05742],[139.0811741,36.057382],[139.0813227,36.0572455],[139.0816481,36.0569809],[139.0818258,36.0569674],[139.082106,36.0569742],[139.0822648,36.0569928],[139.0824303,36.0570036],[139.0825469,36.0570066],[139.0827004,36.0570001],[139.0827886,36.0570786],[139.0828512,36.0570729],[139.0828611,36.0570682],[139.0828856,36.0570562],[139.0829385,36.0570266],[139.0830774,36.0570466],[139.0831319,36.0571251],[139.0831772,36.0571902],[139.0832024,36.0572263],[139.0832318,36.0572686],[139.0831769,36.0573634],[139.0831409,36.0573539],[139.0831901,36.0575411],[139.0829653,36.0575308],[139.0828195,36.0576075],[139.0826876,36.057634],[139.0825305,36.0576547],[139.0825133,36.0576388],[139.0824973,36.0576266],[139.082464,36.0576105],[139.0823771,36.0576003],[139.0822988,36.0575952],[139.0822491,36.0575942],[139.0822068,36.0575933],[139.0821658,36.0575933],[139.082126,36.0575933],[139.0820962,36.0575933],[139.0820564,36.0575933],[139.082008,36.0575934],[139.081967,36.0575934],[139.0819135,36.0575934],[139.0818725,36.0575934],[139.0818427,36.0575933],[139.0818029,36.0575951]]]},"properties":{"layer":"landslide","class_code":"1","class_label":"急傾斜地の崩落","status_code":"0","status_label":"特別警戒区域指定済み"}},{"type":"Feature","id":"lsld_e1714039-e621-44dc-b1cd-1cdae260261e","geometry":{"type":"Polygon","coordinates":[[[139.075108,36.0532628],[139.0750633,36.0532832],[139.0750616,36.053284],[139.075,36.05326043086921],[139.075,36.052859350781254],[139.0750195,36.0528463],[139.0750178,36.0530379],[139.0750923,36.053158],[139.075108,36.0532628]]]},"properties":{"layer":"landslide","class_code":"1","class_label":"急傾斜地の崩落","status_code":"0","status_label":"特別警戒区域指定済み"}},{"type":"Feature","id":"lsld_be634ac6-9082-4402-a0c6-163b337043b7","geometry":{"type":"Polygon","coordinates":[[[139.079786,36.0549824],[139.0795011,36.0549907],[139.0792564,36.0548262],[139.0793323,36.0546297],[139.0793962,36.0544901],[139.0795254,36.0543355],[139.0796545,36.0542677],[139.0796752,36.0541357],[139.0795071,36.0539813],[139.079509,36.0537035],[139.0797116,36.0535628],[139.0796647,36.0534748],[139.07945,36.0533225],[139.0795537,36.0531597],[139.0796358,36.0530533],[139.0796361,36.0530535],[139.0797872,36.0530312],[139.0799717,36.0529379],[139.079972,36.0529378],[139.0799722,36.0528875],[139.0799073,36.0528029],[139.0800007,36.0528618],[139.0803516,36.053083],[139.0803209,36.053145],[139.0802783,36.0532081],[139.0801475,36.0533459],[139.0801291,36.0533557],[139.0801286,36.0533557],[139.0801291,36.0533624],[139.0801256,36.0533693],[139.080138,36.0534251],[139.0801001,36.0536533],[139.0800205,36.0538043],[139.0800344,36.0538827],[139.0800423,36.0540359],[139.0800248,36.054157],[139.0797558,36.0544114],[139.0795146,36.0545308],[139.0794343,36.054669],[139.0794034,36.0547734],[139.079537,36.0548507],[139.0797828,36.0548315],[139.0797844,36.0549077],[139.079786,36.0549824]]]},"properties":{"layer":"landslide","class_code":"1","class_label":"急傾斜地の崩落","status_code":"0","status_label":"特別警戒区域指定済み"}},{"type":"Feature","id":"lsld_e8c5d63c-fdbd-47c9-9e2d-f2b13ef175e7","geometry":{"type":"Polygon","coordinates":[[[139.0755154,36.0511588],[139.0755823,36.0512358],[139.0756341,36.0512878],[139.0757264,36.0514404],[139.0755614,36.0517174],[139.0755443,36.0518141],[139.0756491,36.0519374],[139.0757219,36.0520391],[139.07583,36.0521457],[139.0758657,36.0523428],[139.0758664,36.0523432],[139.075889,36.0524535],[139.0759276,36.0525562],[139.0759277,36.0525565],[139.0759408,36.0526659],[139.0758717,36.0527727],[139.0757021,36.052818],[139.0756471,36.0527926],[139.0756292,36.0527844],[139.0757245,36.0527195],[139.075811,36.052653],[139.0758076,36.0525757],[139.0757692,36.0524738],[139.0757574,36.0523477],[139.0757566,36.0523474],[139.0756891,36.0521823],[139.0755722,36.0520905],[139.0754869,36.0519815],[139.075408,36.0518621],[139.0753726,36.0517129],[139.0754854,36.0515083],[139.0754053,36.0514354],[139.0753204,36.0513938],[139.0752008,36.051264],[139.0751383,36.0511307],[139.075,36.051015402277415],[139.075,36.05099717674947],[139.0750377,36.0509245],[139.075,36.050886560127246],[139.075,36.05042258760611],[139.0750167,36.0504451],[139.0751294,36.0505891],[139.0751849,36.0506466],[139.075229,36.0507065],[139.0752716,36.0508055],[139.0753,36.0508343],[139.0753822,36.0509743],[139.0753872,36.0509951],[139.0754674,36.0511269],[139.0755154,36.0511588]]]},"properties":{"layer":"landslide","class_code":"1","class_label":"急傾斜地の崩落","status_code":"0","status_label":"特別警戒区域指定済み"}},{"type":"Feature","id":"lsld_db4733ac-27a0-46be-bbca-20e6e425eb84","geometry":{"type":"Polygon","coordinates":[[[139.0787833,36.0520623],[139.0787673,36.0521778],[139.0787026,36.052277],[139.0784707,36.0523847],[139.0784214,36.052369],[139.0784015,36.0522282],[139.0784165,36.0521332],[139.0785012,36.0520044],[139.0785994,36.0520246],[139.0787833,36.0520623]]]},"properties":{"layer":"landslide","class_code":"1","class_label":"急傾斜地の崩落","status_code":"0","status_label":"特別警戒区域指定済み"}},{"type":"Feature","id":"lsld_c15d2e2a-0510-4b6d-b06f-1e755efb330a","geometry":{"type":"Polygon","coordinates":[[[139.0788183,36.0517402],[139.0785558,36.0519491],[139.0784893,36.052002],[139.0784823,36.0520076],[139.0784695,36.0520178],[139.07846,36.051996],[139.0783924,36.0518415],[139.0782833,36.0517243],[139.0781657,36.0516597],[139.0779898,36.0516686],[139.0778066,36.0516978],[139.0776531,36.0517059],[139.0774429,36.0517619],[139.0772907,36.0517939],[139.0772723,36.0517545],[139.0773964,36.0516272],[139.0776177,36.0515758],[139.0777781,36.0514574],[139.0780046,36.051446],[139.0782025,36.0514625],[139.0784439,36.0514314],[139.0787207,36.0516567],[139.0788183,36.0517402]]]},"properties":{"layer":"landslide","class_code":"1","class_label":"急傾斜地の崩落","status_code":"0","status_label":"特別警戒区域指定済み"}},{"type":"Feature","id":"lsld_0fbe4ef7-9776-430d-a9ca-21f08acff05c","geometry":{"type":"Polygon","coordinates":[[[139.0772229,36.0511896],[139.0772137,36.0512045],[139.0771919,36.0512401],[139.0772648,36.0513591],[139.077182,36.0515171],[139.076872,36.0516308],[139.0768366,36.0517265],[139.0767821,36.0518618],[139.0768808,36.0519554],[139.0769258,36.0520901],[139.0769255,36.0520905],[139.0768951,36.0521232],[139.0768288,36.0519796],[139.0766911,36.0518917],[139.076689,36.0518886],[139.0766808,36.0518786],[139.0767232,36.0517275],[139.076798,36.0515913],[139.0770465,36.0514764],[139.0771014,36.0513456],[139.0770057,36.0512869],[139.0769914,36.0512471],[139.0770312,36.0511304],[139.0770333,36.0511243],[139.0771025,36.0511186],[139.0771616,36.0511137],[139.0772229,36.0511896]]]},"properties":{"layer":"landslide","class_code":"1","class_label":"急傾斜地の崩落","status_code":"0","status_label":"特別警戒区域指定済み"}},{"type":"Feature","id":"lsld_fec2e715-fe68-49f1-8caa-bf716d76b558","geometry":{"type":"Polygon","coordinates":[[[139.0769741,36.0507467],[139.07698,36.0507956],[139.0770259,36.0508866],[139.0770853,36.0509179],[139.0772235,36.0509834],[139.0773991,36.0510443],[139.0773707,36.0511086],[139.0773701,36.0511098],[139.0773359,36.0511871],[139.0772053,36.0511101],[139.0771748,36.0510922],[139.0770004,36.051042],[139.0768375,36.0510098],[139.0768111,36.0508016],[139.0767829,36.0507042],[139.0769826,36.0506354],[139.0771021,36.0506465],[139.0772614,36.0506883],[139.0772489,36.0507326],[139.0772403,36.0507631],[139.0771262,36.0507282],[139.0770366,36.0507122],[139.0769741,36.0507467]]]},"properties":{"layer":"landslide","class_code":"1","class_label":"急傾斜地の崩落","status_code":"0","status_label":"特別警戒区域指定済み"}},{"type":"Feature","id":"lsld_601f8a67-b31a-43f1-8c81-3e1187e1a756","geometry":{"type":"Polygon","coordinates":[[[139.0813119,36.0576056],[139.0811441,36.0576283],[139.0811404,36.0575877],[139.0812638,36.0575275],[139.0814176,36.0573884],[139.0816206,36.0571475],[139.0818366,36.0571352],[139.0821038,36.0571421],[139.0822665,36.0571607],[139.0824223,36.0571701],[139.082543,36.0571607],[139.0826974,36.0571504],[139.0828244,36.05721],[139.0829083,36.0572283],[139.0829566,36.0572168],[139.0829888,36.0572],[139.0830292,36.0571547],[139.0831772,36.0571902],[139.0832024,36.0572263],[139.0831073,36.0572651],[139.0830709,36.0572831],[139.0830836,36.0573932],[139.0829393,36.0573932],[139.082825,36.0573943],[139.0826924,36.0573957],[139.0825365,36.0574152],[139.0824085,36.0574616],[139.08227,36.057511],[139.0820988,36.0575316],[139.081883,36.0575276],[139.0816393,36.0575321],[139.0814991,36.0575112],[139.0813119,36.0576056]]]},"properties":{"layer":"landslide","class_code":"1","class_label":"急傾斜地の崩落","status_code":"0","status_label":"特別警戒区域指定済み"}}]}