{"type":"FeatureCollection","properties":{"mesh_code":"54390112","source":"PLATEAU秩父市2025","layer":"landslide"},"features":[{"type":"Feature","id":"lsld_23926969-da19-4a8f-8bf6-19ec854727cc","geometry":{"type":"Polygon","coordinates":[[[139.1503694,36.0105859],[139.1504602,36.0105976],[139.150548,36.010609],[139.1508671,36.0107015],[139.1510792,36.0107873],[139.1512251,36.0108788],[139.1515141,36.0110628],[139.1515316,36.0110777],[139.1516099,36.0111443],[139.1517822,36.0112909],[139.1519159,36.0114026],[139.1519523,36.0115639],[139.1518695,36.011645],[139.1516713,36.0115538],[139.151487,36.0114677],[139.151388,36.0114214],[139.1513717,36.0114138],[139.1512489,36.0113546],[139.1511192,36.0112502],[139.1510038,36.0111827],[139.1508035,36.0110993],[139.1506454,36.0110591],[139.1503041,36.0109661],[139.1502339,36.010947],[139.1502168,36.010945],[139.150107,36.0109319],[139.1502485,36.0106048],[139.1502599,36.0105717],[139.1503694,36.0105859]]]},"properties":{"layer":"landslide","class_code":"1","class_label":"急傾斜地の崩落","status_code":"0","status_label":"特別警戒区域指定済み"}},{"type":"Feature","id":"lsld_20b9e28f-5f09-40bb-9f00-6a105f153ecd","geometry":{"type":"Polygon","coordinates":[[[139.1501709,36.0110111],[139.1502343,36.011056],[139.1505102,36.0112515],[139.1506766,36.0113466],[139.1509399,36.0114471],[139.151184,36.0115629],[139.1512629,36.0116039],[139.1513727,36.0116332],[139.1513907,36.0116382],[139.1515047,36.0116697],[139.1516275,36.0117038],[139.1519144,36.0117866],[139.151877,36.0119037],[139.1515869,36.0118192],[139.1514698,36.011776],[139.1513625,36.0117363],[139.1513279,36.0117235],[139.1511583,36.0116474],[139.1509513,36.011496],[139.1508183,36.0114285],[139.1506515,36.0113679],[139.1504529,36.0112488],[139.1502168,36.01107],[139.1501657,36.0110313],[139.1501536,36.0110213],[139.1500757,36.0109572],[139.1500873,36.0109518],[139.1501709,36.0110111]]]},"properties":{"layer":"landslide","class_code":"1","class_label":"急傾斜地の崩落","status_code":"0","status_label":"特別警戒区域指定済み"}},{"type":"Feature","id":"lsld_baffd5a8-aa5e-4300-942b-5eb2a5b304e7","geometry":{"type":"Polygon","coordinates":[[[139.1512071,36.0119756],[139.1512289,36.0119757],[139.1512853,36.0119765],[139.1513596,36.0119776],[139.1514872,36.0119794],[139.1515349,36.0121748],[139.1514328,36.012151],[139.1514256,36.0121494],[139.1513555,36.0121339],[139.1513054,36.0121228],[139.1512957,36.0121205],[139.1511015,36.0120744],[139.1510008,36.0119744],[139.1512071,36.0119756]]]},"properties":{"layer":"landslide","class_code":"1","class_label":"急傾斜地の崩落","status_code":"0","status_label":"特別警戒区域指定済み"}},{"type":"Feature","id":"lsld_183c041d-66ae-4a1f-84b5-81f79ad189fb","geometry":{"type":"Polygon","coordinates":[[[139.1511917,36.0122566],[139.1512639,36.0122631],[139.1512939,36.0122659],[139.1513965,36.0122772],[139.1514032,36.0122779],[139.1515029,36.0122882],[139.151688,36.0123073],[139.1516448,36.0123503],[139.1516393,36.012359],[139.1516364,36.0123636],[139.1514912,36.0123534],[139.1514077,36.0123476],[139.1514044,36.0123475],[139.1513069,36.0123441],[139.151283,36.0123433],[139.1512258,36.012342],[139.1511362,36.0123401],[139.151115,36.0123396],[139.1510814,36.0122466],[139.1511917,36.0122566]]]},"properties":{"layer":"landslide","class_code":"1","class_label":"急傾斜地の崩落","status_code":"0","status_label":"特別警戒区域指定済み"}},{"type":"Feature","id":"lsld_02e787e4-11ee-460f-92c7-dcf46a5141d8","geometry":{"type":"Polygon","coordinates":[[[139.15,36.014976538809826],[139.1500499,36.014993],[139.1500499,36.0150399],[139.1500499,36.0152304],[139.1500499,36.0152895],[139.1500498,36.0153434],[139.1500498,36.0153766],[139.1500493,36.0154436],[139.1500491,36.0154588],[139.150041,36.0156305],[139.1500136,36.015752],[139.15,36.01583738091282],[139.15,36.014976538809826]]]},"properties":{"layer":"landslide","class_code":"1","class_label":"急傾斜地の崩落","status_code":"0","status_label":"特別警戒区域指定済み"}},{"type":"Feature","id":"lsld_b25b22da-1738-49f5-bc6d-3ef9407cd459","geometry":{"type":"Polygon","coordinates":[[[139.1516099,36.0111443],[139.1516006,36.0113459],[139.151487,36.0114677],[139.151388,36.0114214],[139.1513717,36.0114138],[139.1512489,36.0113546],[139.1511192,36.0112502],[139.1510038,36.0111827],[139.1508035,36.0110993],[139.1506454,36.0110591],[139.1503041,36.0109661],[139.1504484,36.010639],[139.1504602,36.0105976],[139.150548,36.010609],[139.1508671,36.0107015],[139.1510792,36.0107873],[139.1512251,36.0108788],[139.1515141,36.0110628],[139.1515316,36.0110777],[139.1516099,36.0111443]]]},"properties":{"layer":"landslide","class_code":"1","class_label":"急傾斜地の崩落","status_code":"0","status_label":"特別警戒区域指定済み"}},{"type":"Feature","id":"lsld_082d9aaf-00e8-436f-bca2-0cef6ddb09ea","geometry":{"type":"Polygon","coordinates":[[[139.1515047,36.0116697],[139.1514698,36.011776],[139.1513625,36.0117363],[139.1513279,36.0117235],[139.1511583,36.0116474],[139.1509513,36.011496],[139.1508183,36.0114285],[139.1506515,36.0113679],[139.1504529,36.0112488],[139.1502168,36.01107],[139.1502343,36.011056],[139.1505102,36.0112515],[139.1506766,36.0113466],[139.1509399,36.0114471],[139.151184,36.0115629],[139.1512629,36.0116039],[139.1513727,36.0116332],[139.1513907,36.0116382],[139.1515047,36.0116697]]]},"properties":{"layer":"landslide","class_code":"1","class_label":"急傾斜地の崩落","status_code":"0","status_label":"特別警戒区域指定済み"}},{"type":"Feature","id":"lsld_166e1f2b-7102-4ce7-a9c6-d1137d92aa10","geometry":{"type":"Polygon","coordinates":[[[139.1513596,36.0119776],[139.1514256,36.0121494],[139.1513555,36.0121339],[139.1513054,36.0121228],[139.1512957,36.0121205],[139.1512071,36.0119756],[139.1512289,36.0119757],[139.1512853,36.0119765],[139.1513596,36.0119776]]]},"properties":{"layer":"landslide","class_code":"1","class_label":"急傾斜地の崩落","status_code":"0","status_label":"特別警戒区域指定済み"}},{"type":"Feature","id":"lsld_d2338705-2080-4fab-9618-89d740158d64","geometry":{"type":"Polygon","coordinates":[[[139.15,36.015322517366194],[139.1500498,36.0153434],[139.1500498,36.0153766],[139.1500493,36.0154436],[139.1500491,36.0154588],[139.150041,36.0156305],[139.1500136,36.015752],[139.15,36.01583738091282],[139.15,36.015322517366194]]]},"properties":{"layer":"landslide","class_code":"1","class_label":"急傾斜地の崩落","status_code":"0","status_label":"特別警戒区域指定済み"}},{"type":"Feature","id":"lsld_fc735e41-e82e-4342-8715-6ee322e5c9b4","geometry":{"type":"Polygon","coordinates":[[[139.1515029,36.0122882],[139.1514912,36.0123534],[139.1514077,36.0123476],[139.1514044,36.0123475],[139.1513069,36.0123441],[139.1512639,36.0122631],[139.1512939,36.0122659],[139.1513965,36.0122772],[139.1514032,36.0122779],[139.1515029,36.0122882]]]},"properties":{"layer":"landslide","class_code":"1","class_label":"急傾斜地の崩落","status_code":"0","status_label":"特別警戒区域指定済み"}},{"type":"Feature","id":"lsld_812fc4d5-a906-4deb-b3ab-4999daac0e26","geometry":{"type":"Polygon","coordinates":[[[139.150604,36.0153167],[139.1507719,36.0154133],[139.1509552,36.0155128],[139.1509353,36.0155392],[139.1509135,36.0155682],[139.1508689,36.0156274],[139.1508383,36.0156683],[139.1506698,36.0155441],[139.1504794,36.0154237],[139.1502249,36.0153096],[139.1500499,36.0152304],[139.1500068,36.015211],[139.15,36.015210567430024],[139.15,36.014589941897235],[139.1501292,36.0147291],[139.1502166,36.0148841],[139.1503707,36.0150291],[139.1504802,36.0151869],[139.150604,36.0153167]]]},"properties":{"layer":"landslide","class_code":"2","class_label":"土石流","status_code":"0","status_label":"特別警戒区域指定済み"}},{"type":"Feature","id":"lsld_54354c2b-a15e-4ce7-80a5-4dbb6778e527","geometry":{"type":"Polygon","coordinates":[[[139.15,36.014726775209695],[139.1500757,36.0147569],[139.15019,36.0149047],[139.1503486,36.0150401],[139.1504522,36.0152004],[139.1505845,36.0153334],[139.1507529,36.0154377],[139.1509353,36.0155392],[139.1509135,36.0155682],[139.1508689,36.0156274],[139.1506913,36.0155166],[139.1505079,36.0153992],[139.150314,36.0152668],[139.1502351,36.0150969],[139.1500499,36.0150399],[139.1500251,36.0150323],[139.15,36.01500131942858],[139.15,36.014726775209695]]]},"properties":{"layer":"landslide","class_code":"2","class_label":"土石流","status_code":"0","status_label":"特別警戒区域指定済み"}}]}