{"type":"FeatureCollection","properties":{"mesh_code":"54390071","source":"PLATEAU秩父市2025","layer":"landslide"},"features":[{"type":"Feature","id":"lsld_13b9afd3-e470-4972-bce0-c0bd58a1b370","geometry":{"type":"Polygon","coordinates":[[[139.0228628,36.0640576],[139.0229509,36.0641187],[139.0229696,36.0641316],[139.0230822,36.064146],[139.0231161,36.0641797],[139.0232839,36.0642923],[139.0232906,36.0642968],[139.0233245,36.0643058],[139.0233386,36.0643618],[139.0233468,36.0643941],[139.0233513,36.064412],[139.0233533,36.06442],[139.0233553,36.0644294],[139.0233638,36.0644691],[139.0233703,36.0645187],[139.0232967,36.064604],[139.0230831,36.0647172],[139.0230081,36.0647247],[139.022906,36.0647244],[139.0228206,36.0647197],[139.0225869,36.0647158],[139.0225992,36.0646262],[139.022608,36.0645621],[139.0226362,36.0643564],[139.0226485,36.0642668],[139.022674,36.064081],[139.0226879,36.0639795],[139.0228628,36.0640576]]]},"properties":{"layer":"landslide","class_code":"1","class_label":"急傾斜地の崩落","status_code":"0","status_label":"特別警戒区域指定済み"}},{"type":"Feature","id":"lsld_1cac9527-98bc-4b8b-a1d4-d400b9d4926c","geometry":{"type":"Polygon","coordinates":[[[139.0232945,36.0639211],[139.0233006,36.0640346],[139.0233104,36.0641462],[139.0233222,36.0642414],[139.0233285,36.064274],[139.0233376,36.0643215],[139.0233546,36.0644106],[139.0233513,36.064412],[139.0233337,36.0644195],[139.023291,36.0644378],[139.0231072,36.0644428],[139.0229066,36.0644713],[139.0229175,36.0643817],[139.022923,36.064337],[139.022925,36.0643207],[139.0229461,36.0641482],[139.0229509,36.0641187],[139.0229813,36.0639327],[139.0229975,36.0638332],[139.0231091,36.0638327],[139.0231547,36.0638312],[139.0232121,36.0638291],[139.0232465,36.0638276],[139.0232893,36.0638241],[139.0232945,36.0639211]]]},"properties":{"layer":"landslide","class_code":"1","class_label":"急傾斜地の崩落","status_code":"0","status_label":"特別警戒区域指定済み"}},{"type":"Feature","id":"lsld_057a7968-6030-43c9-8928-86566018d4d0","geometry":{"type":"Polygon","coordinates":[[[139.0239509,36.0635394],[139.0239711,36.0635647],[139.0240052,36.0636074],[139.0242278,36.0638859],[139.0242657,36.0639333],[139.0242732,36.0639427],[139.0243262,36.0640089],[139.0242018,36.0640629],[139.0240716,36.0641179],[139.0240134,36.0641823],[139.0239623,36.0641141],[139.0239556,36.0641053],[139.0239174,36.0640543],[139.0237152,36.063785],[139.0236875,36.0637482],[139.0236649,36.063718],[139.0236559,36.063706],[139.0236703,36.0636902],[139.0237257,36.0636617],[139.0237729,36.0636357],[139.0238136,36.0636071],[139.0239472,36.0635348],[139.0239509,36.0635394]]]},"properties":{"layer":"landslide","class_code":"1","class_label":"急傾斜地の崩落","status_code":"0","status_label":"特別警戒区域指定済み"}},{"type":"Feature","id":"lsld_5b34dcde-526c-448e-a250-ffbe63997749","geometry":{"type":"Polygon","coordinates":[[[139.0233337,36.0644195],[139.0233055,36.0644745],[139.023092,36.0645717],[139.0230276,36.0645722],[139.0229221,36.0645741],[139.0228304,36.0645659],[139.022608,36.0645621],[139.0226362,36.0643564],[139.0226485,36.0642668],[139.022847,36.064305],[139.022923,36.064337],[139.0229465,36.0643469],[139.023056,36.0643502],[139.0231042,36.0643731],[139.0232988,36.0643942],[139.0233386,36.0643618],[139.0233468,36.0643941],[139.0233337,36.0644195]]]},"properties":{"layer":"landslide","class_code":"1","class_label":"急傾斜地の崩落","status_code":"0","status_label":"特別警戒区域指定済み"}},{"type":"Feature","id":"lsld_7edc84c3-f44c-4483-8a45-60f719a8b99f","geometry":{"type":"Polygon","coordinates":[[[139.0232945,36.0639211],[139.0233006,36.0640346],[139.0233104,36.0641462],[139.0233222,36.0642414],[139.0233285,36.064274],[139.0232839,36.0642923],[139.0232732,36.0642967],[139.0231038,36.0642989],[139.022925,36.0643207],[139.0229461,36.0641482],[139.0229509,36.0641187],[139.0229813,36.0639327],[139.0229975,36.0638332],[139.0231091,36.0638327],[139.0231547,36.0638312],[139.0232121,36.0638291],[139.0232465,36.0638276],[139.0232893,36.0638241],[139.0232945,36.0639211]]]},"properties":{"layer":"landslide","class_code":"1","class_label":"急傾斜地の崩落","status_code":"0","status_label":"特別警戒区域指定済み"}},{"type":"Feature","id":"lsld_0f71f198-c5ee-481c-b929-7c0e31252a45","geometry":{"type":"Polygon","coordinates":[[[139.0242278,36.0638859],[139.0241145,36.0639359],[139.0239794,36.0639942],[139.0239174,36.0640543],[139.0237152,36.063785],[139.0236875,36.0637482],[139.0236649,36.063718],[139.0237376,36.0636699],[139.0238704,36.0635807],[139.0239509,36.0635394],[139.0239711,36.0635647],[139.0240052,36.0636074],[139.0242278,36.0638859]]]},"properties":{"layer":"landslide","class_code":"1","class_label":"急傾斜地の崩落","status_code":"0","status_label":"特別警戒区域指定済み"}},{"type":"Feature","id":"lsld_d59be036-f208-4a36-9df4-90284a708570","geometry":{"type":"Polygon","coordinates":[[[139.025,36.06666666666667],[139.02483348345476,36.06666666666667],[139.0245501,36.0666015],[139.0244902,36.0665134],[139.0244646,36.0663761],[139.024493,36.0662391],[139.024569,36.0660806],[139.0247538,36.0658405],[139.024945,36.0656389],[139.025,36.06557434535692],[139.025,36.06666666666667]]]},"properties":{"layer":"landslide","class_code":"3","class_label":"地すべり","status_code":"0","status_label":"特別警戒区域指定済み"}},{"type":"Feature","id":"lsld_3e8fa3df-e804-4bed-a01a-c9a809f81009","geometry":{"type":"Polygon","coordinates":[[[139.02421078913503,36.06666666666667],[139.0242217,36.0666566],[139.0243421,36.0666278],[139.0245298,36.0666545],[139.02457121346157,36.06666666666667],[139.02421078913503,36.06666666666667]]]},"properties":{"layer":"landslide","class_code":"3","class_label":"地すべり","status_code":"0","status_label":"特別警戒区域指定済み"}}]}