{"type":"FeatureCollection","properties":{"mesh_code":"54390130","source":"PLATEAU秩父市2025","layer":"landslide"},"features":[{"type":"Feature","id":"lsld_0cf6aa77-9425-4c69-bb18-cf6a85a1ab44","geometry":{"type":"Polygon","coordinates":[[[139.1359299,36.028932],[139.1358497,36.0289371],[139.1358194,36.0289397],[139.135744,36.0289461],[139.1357175,36.0289483],[139.135641,36.0289646],[139.1354584,36.029035],[139.1351971,36.0291252],[139.1350822,36.0291649],[139.1347045,36.0292953],[139.1346866,36.0293015],[139.1346144,36.0292086],[139.1346378,36.0291996],[139.1350067,36.0290571],[139.1351154,36.0290152],[139.1352888,36.0289482],[139.1353889,36.0289225],[139.1355299,36.0289138],[139.1357294,36.0289269],[139.1357329,36.0289269],[139.1358155,36.0289266],[139.1359044,36.0289263],[139.1359262,36.0289239],[139.1359299,36.028932]]]},"properties":{"layer":"landslide","class_code":"1","class_label":"急傾斜地の崩落","status_code":"0","status_label":"特別警戒区域指定済み"}},{"type":"Feature","id":"lsld_d9351982-a636-42e0-b8c4-0d8badd84d2d","geometry":{"type":"Polygon","coordinates":[[[139.1314552,36.0300238],[139.1314167,36.0300655],[139.1313995,36.0300774],[139.1313724,36.0300962],[139.1313171,36.0301378],[139.131243,36.030069],[139.1311981,36.0300265],[139.1311816,36.0300095],[139.1311688,36.0300061],[139.1311588,36.030008],[139.1311064,36.0298204],[139.1310915,36.0297682],[139.1310828,36.0297323],[139.1310787,36.0297157],[139.1310719,36.029662],[139.131072,36.0296549],[139.131073,36.0296199],[139.1310823,36.029581],[139.1311035,36.029493],[139.1311214,36.0294189],[139.1311697,36.0292183],[139.1313807,36.0291652],[139.1315518,36.0292831],[139.1316647,36.0292955],[139.1318113,36.0292668],[139.1318374,36.0292726],[139.1318979,36.029286],[139.131898,36.0294109],[139.1318981,36.0294798],[139.1316836,36.0297448],[139.131624,36.0298186],[139.1315375,36.0299254],[139.131476,36.0300014],[139.1314552,36.0300238]]]},"properties":{"layer":"landslide","class_code":"1","class_label":"急傾斜地の崩落","status_code":"0","status_label":"特別警戒区域指定済み"}},{"type":"Feature","id":"lsld_9fb610f3-f7bf-4199-8b88-e7d465121b77","geometry":{"type":"Polygon","coordinates":[[[139.135744,36.0289461],[139.1357175,36.0289483],[139.135641,36.0289646],[139.1354584,36.029035],[139.1351971,36.0291252],[139.1350822,36.0291649],[139.1350067,36.0290571],[139.1351154,36.0290152],[139.1352888,36.0289482],[139.1353889,36.0289225],[139.1355299,36.0289138],[139.1357294,36.0289269],[139.1357329,36.0289269],[139.135744,36.0289461]]]},"properties":{"layer":"landslide","class_code":"1","class_label":"急傾斜地の崩落","status_code":"0","status_label":"特別警戒区域指定済み"}},{"type":"Feature","id":"lsld_734e2e28-431d-4647-956f-3c370d7236be","geometry":{"type":"Polygon","coordinates":[[[139.1315375,36.0299254],[139.131476,36.0300014],[139.1314552,36.0300238],[139.1313594,36.0299301],[139.131294,36.0298792],[139.1312534,36.0298548],[139.1311657,36.029839],[139.1311409,36.0298406],[139.131072,36.0296549],[139.131073,36.0296199],[139.1310823,36.029581],[139.1311035,36.029493],[139.1311214,36.0294189],[139.1312452,36.0294851],[139.1313612,36.0295444],[139.1314698,36.0295605],[139.1315635,36.0295602],[139.1316449,36.0295886],[139.1316836,36.0297448],[139.131624,36.0298186],[139.1315375,36.0299254]]]},"properties":{"layer":"landslide","class_code":"1","class_label":"急傾斜地の崩落","status_code":"0","status_label":"特別警戒区域指定済み"}},{"type":"Feature","id":"lsld_cce4cb75-04b5-4f2c-99c6-70fef79e01d6","geometry":{"type":"Polygon","coordinates":[[[139.1295191,36.0274626],[139.1299598,36.0279002],[139.1300658,36.0279379],[139.1303205,36.0280929],[139.13054,36.0282329],[139.1307308,36.0283455],[139.1309328,36.0284488],[139.131218,36.0285102],[139.1314677,36.0286666],[139.1318306,36.0287651],[139.1318364,36.0291179],[139.1318374,36.0292726],[139.1318377,36.0293261],[139.131898,36.0294109],[139.1319487,36.0294821],[139.1320729,36.029632],[139.1322015,36.0297797],[139.1322072,36.0299858],[139.1322147,36.0300657],[139.1322285,36.0301844],[139.1323162,36.0303517],[139.1322333,36.0303909],[139.1322015,36.030406],[139.1321359,36.0304372],[139.1319632,36.0305192],[139.1318292,36.0303739],[139.1317433,36.0302894],[139.1317135,36.03022],[139.1316614,36.030036],[139.1315375,36.0299254],[139.1315087,36.0298997],[139.1313192,36.0297808],[139.1311927,36.0296321],[139.1310823,36.029581],[139.1309701,36.029529],[139.1307476,36.0294258],[139.130525,36.0293226],[139.1303025,36.0292195],[139.1302633,36.029201],[139.1300775,36.0290154],[139.1299633,36.0289306],[139.1297082,36.0284202],[139.1293512,36.0281774],[139.1290368,36.0275969],[139.1288504,36.0274682],[139.1284308,36.0272721],[139.1266288,36.0272788],[139.1267585,36.0272129],[139.1268176,36.0271561],[139.1268947,36.0270707],[139.127001,36.0269904],[139.127078,36.0269003],[139.1271319,36.0267862],[139.12715,36.0267196],[139.1271685,36.0266244],[139.1271924,36.0265769],[139.1272166,36.0264961],[139.1272291,36.0264104],[139.12723,36.0263103],[139.1272778,36.0262058],[139.1273668,36.0260967],[139.1274851,36.025983],[139.1275912,36.0259265],[139.127756,36.0258607],[139.1279499,36.0258285],[139.1280849,36.025815],[139.1281742,36.025819],[139.12824,36.0258408],[139.1283055,36.0258984],[139.1284195,36.0259419],[139.1284765,36.0259565],[139.1289554,36.0269791],[139.1295191,36.0274626]]]},"properties":{"layer":"landslide","class_code":"2","class_label":"土石流","status_code":"0","status_label":"特別警戒区域指定済み"}},{"type":"Feature","id":"lsld_88cc9cb5-4dec-489c-8d61-1d6e3ce6a8a1","geometry":{"type":"Polygon","coordinates":[[[139.1275465458213,36.025],[139.127548,36.0251044],[139.1275508,36.0253125],[139.1275536,36.0255206],[139.1275565,36.0257287],[139.1275573,36.0257869],[139.1275286,36.0257869],[139.1274783,36.0257863],[139.127428,36.0257849],[139.1273777,36.0257828],[139.1273275,36.0257801],[139.1272773,36.0257766],[139.1272272,36.0257723],[139.1271772,36.0257674],[139.1271274,36.0257618],[139.1270776,36.0257554],[139.127028,36.0257484],[139.1269786,36.0257407],[139.1269293,36.0257322],[139.1268803,36.0257231],[139.1268314,36.0257132],[139.1267828,36.0257027],[139.1267343,36.0256915],[139.1266862,36.0256796],[139.1266383,36.025667],[139.1265906,36.0256538],[139.1265433,36.0256398],[139.1264963,36.0256252],[139.1264496,36.02561],[139.1264032,36.025594],[139.1263572,36.0255775],[139.1263115,36.0255602],[139.1262662,36.0255423],[139.1262235,36.0255247],[139.1262213,36.0255238],[139.1261768,36.0255047],[139.1261328,36.0254849],[139.1260891,36.0254645],[139.1260459,36.0254435],[139.1260032,36.0254219],[139.1259609,36.0253997],[139.1259191,36.0253768],[139.1258779,36.0253534],[139.1258371,36.0253294],[139.1257968,36.0253049],[139.1257571,36.0252797],[139.1257179,36.025254],[139.1256793,36.0252278],[139.1256413,36.025201],[139.1256038,36.0251737],[139.1255669,36.0251459],[139.1255307,36.0251175],[139.125495,36.0250886],[139.12546,36.0250592],[139.1254256,36.0250294],[139.12539300855263,36.025],[139.1275465458213,36.025]]]},"properties":{"layer":"landslide","class_code":"2","class_label":"土石流","status_code":"0","status_label":"特別警戒区域指定済み"}},{"type":"Feature","id":"lsld_a554a32c-3dcf-464e-8360-982b55ed2ee7","geometry":{"type":"Polygon","coordinates":[[[139.1325839,36.0257437],[139.1326003,36.025779],[139.132626,36.0258345],[139.1327177,36.0260324],[139.1327013,36.0260485],[139.1323353,36.0261572],[139.1321019,36.0262432],[139.1317946,36.0262183],[139.1314643,36.0261765],[139.1311232,36.0261616],[139.130914,36.0260945],[139.1305575,36.0260014],[139.1303049,36.0259667],[139.1298831,36.0257809],[139.1296448,36.0257044],[139.1294846,36.0257174],[139.1294252,36.0257032],[139.1293995,36.0256944],[139.1294615,36.0256542],[139.1295351,36.0256189],[139.1296088,36.0255836],[139.12965,36.0255648],[139.1296794,36.0255555],[139.1297089,36.0255413],[139.1297236,36.0255295],[139.1297678,36.0255059],[139.129818,36.0254729],[139.1298504,36.0254516],[139.1299213,36.0253996],[139.1300008,36.0253596],[139.1300598,36.0253266],[139.1301128,36.0253031],[139.1301571,36.0252724],[139.1301983,36.0252488],[139.1302425,36.0252276],[139.1302868,36.0251993],[139.1303251,36.0251757],[139.1303751,36.0251593],[139.1304546,36.025124],[139.1304989,36.0250933],[139.1305402,36.0250697],[139.1305844,36.025039],[139.130614,36.0250153],[139.13063313745928,36.025],[139.13092397924427,36.025],[139.1309552,36.0250897],[139.1310787,36.025207],[139.131229,36.0253422],[139.1313742,36.0254672],[139.1315678,36.0255554],[139.1317547,36.0256369],[139.1319618,36.0256679],[139.1321693,36.025686],[139.1323911,36.0256952],[139.1325349,36.0256891],[139.1325574,36.0256862],[139.1325839,36.0257437]]]},"properties":{"layer":"landslide","class_code":"2","class_label":"土石流","status_code":"0","status_label":"特別警戒区域指定済み"}},{"type":"Feature","id":"lsld_a444bf8b-2786-4e01-87f2-736ff9d8011d","geometry":{"type":"Polygon","coordinates":[[[139.1280044,36.0257939],[139.1277783,36.0258283],[139.1276665,36.0258681],[139.127537,36.0259126],[139.1274574,36.0259622],[139.1273776,36.0260284],[139.1273124,36.0261067],[139.12725,36.0261921],[139.1272289,36.0262563],[139.1272018,36.0263348],[139.1271951,36.02643],[139.1271915,36.0265015],[139.1271673,36.0265823],[139.1271253,36.0266893],[139.1271042,36.0267559],[139.1270534,36.0268604],[139.1269941,36.0269339],[139.126929,36.0269979],[139.1268668,36.0270594],[139.1267574,36.0271613],[139.1266513,36.0272202],[139.1265572,36.0272506],[139.1264809,36.0272549],[139.1263255,36.0272469],[139.1262349,36.0272106],[139.1261094,36.0271408],[139.1260132,36.0270782],[139.1259637,36.0270303],[139.1258737,36.0269273],[139.1257404,36.0267526],[139.1256651,36.0266378],[139.1256044,36.0265445],[139.125561,36.0264799],[139.125535,36.026425],[139.1255062,36.0263676],[139.1254657,36.0263102],[139.1262235,36.0255247],[139.126308,36.0254372],[139.1264669,36.025274],[139.1266258,36.0251107],[139.12673365110294,36.025],[139.12877447497416,36.025],[139.1287756,36.0250023],[139.1288702,36.0251958],[139.1289647,36.0253892],[139.1290593,36.0255827],[139.1291255,36.0257123],[139.1290459,36.0257643],[139.1287955,36.0258843],[139.1287396,36.0259007],[139.1286073,36.025938],[139.1285017,36.0259398],[139.1284198,36.0259131],[139.1283527,36.0258817],[139.1282534,36.0258239],[139.1281716,36.0257877],[139.1280044,36.0257939]]]},"properties":{"layer":"landslide","class_code":"2","class_label":"土石流","status_code":"0","status_label":"特別警戒区域指定済み"}},{"type":"Feature","id":"lsld_f3116eec-fad2-44e8-a9e4-4fc672dc5f45","geometry":{"type":"Polygon","coordinates":[[[139.1322015,36.030406],[139.1321359,36.0304372],[139.1320236,36.0302921],[139.1321404,36.0302367],[139.1322333,36.0303909],[139.1322015,36.030406]]]},"properties":{"layer":"landslide","class_code":"2","class_label":"土石流","status_code":"0","status_label":"特別警戒区域指定済み"}},{"type":"Feature","id":"lsld_8c50012b-e043-4889-b687-92643f2b9dd3","geometry":{"type":"Polygon","coordinates":[[[139.132626,36.0258345],[139.132607,36.0258447],[139.1325655,36.0257552],[139.1325839,36.0257437],[139.1326003,36.025779],[139.132626,36.0258345]]]},"properties":{"layer":"landslide","class_code":"2","class_label":"土石流","status_code":"0","status_label":"特別警戒区域指定済み"}},{"type":"Feature","id":"lsld_85d2d8d3-5d1d-4ab4-b638-dd387d60cdb1","geometry":{"type":"Polygon","coordinates":[[[139.1281105,36.0295649],[139.1280256,36.0295842],[139.1279507,36.0294583],[139.1281275,36.0294219],[139.1282073,36.0295428],[139.1281105,36.0295649]]]},"properties":{"layer":"landslide","class_code":"2","class_label":"土石流","status_code":"0","status_label":"特別警戒区域指定済み"}},{"type":"Feature","id":"lsld_cd8ce824-4a80-4a74-b866-6aa8d834d990","geometry":{"type":"Polygon","coordinates":[[[139.1279747,36.0284231],[139.128131,36.0286309],[139.1281849,36.0288058],[139.1281681,36.0289952],[139.1281789,36.0291789],[139.1282074,36.029359],[139.128228,36.0294105],[139.1283083,36.0295199],[139.1282073,36.0295428],[139.1281105,36.0295649],[139.1280256,36.0295842],[139.1278433,36.0296257],[139.1277285,36.0295133],[139.1277127,36.0294607],[139.1276853,36.0292804],[139.127656,36.0291005],[139.1276145,36.0289231],[139.1275612,36.0287481],[139.1275307,36.0286359],[139.1274744,36.0285565],[139.1272404,36.0284589],[139.1271166,36.0284259],[139.1270453,36.0284109],[139.1269063,36.0284329],[139.1267548,36.0284756],[139.1264613,36.0286209],[139.1263703,36.0286262],[139.1262731,36.0286709],[139.1261848,36.0287133],[139.1261317,36.028744],[139.1257575,36.0289944],[139.1255845,36.029126],[139.1254794,36.0292848],[139.1254959,36.0294926],[139.1251253,36.0293438],[139.125,36.02929452364193],[139.125,36.02886783734482],[139.125187,36.0287694],[139.1253129,36.0286907],[139.1253685,36.0286371],[139.1255359,36.0284835],[139.1257076,36.0283184],[139.1259272,36.0281896],[139.1263699,36.0280106],[139.1264846,36.0279908],[139.1267679,36.0279692],[139.127049,36.0279948],[139.1273332,36.0280633],[139.1275438,36.0281957],[139.1277249,36.0282759],[139.1279747,36.0284231]]]},"properties":{"layer":"landslide","class_code":"2","class_label":"土石流","status_code":"0","status_label":"特別警戒区域指定済み"}}]}