{"type":"FeatureCollection","properties":{"mesh_code":"54390031","source":"PLATEAU秩父市2025","layer":"landslide"},"features":[{"type":"Feature","id":"lsld_61563b82-c9e1-4395-8b56-2cadc455ef83","geometry":{"type":"Polygon","coordinates":[[[139.02336368711417,36.03333333333333],[139.0233712,36.0332707],[139.0235868,36.0333093],[139.0236946299435,36.03333333333333],[139.02336368711417,36.03333333333333]]]},"properties":{"layer":"landslide","class_code":"1","class_label":"急傾斜地の崩落","status_code":"0","status_label":"特別警戒区域指定済み"}}]}