{"type":"FeatureCollection","properties":{"mesh_code":"54390027","source":"PLATEAU秩父市2025","layer":"landslide"},"features":[{"type":"Feature","id":"lsld_39608021-acea-45f8-8afa-7d386fb30f15","geometry":{"type":"Polygon","coordinates":[[[139.0875,36.018749238306455],[139.0876903,36.0188958],[139.0877884,36.0190409],[139.0876888,36.0190649],[139.0876821,36.0190665],[139.0876068,36.0190847],[139.0875,36.01911049568936],[139.0875,36.018749238306455]]]},"properties":{"layer":"landslide","class_code":"1","class_label":"急傾斜地の崩落","status_code":"0","status_label":"特別警戒区域指定済み"}},{"type":"Feature","id":"lsld_d3651082-11cd-4c4e-9103-69a793939b8a","geometry":{"type":"Polygon","coordinates":[[[139.09475836541247,36.016666666666666],[139.094597,36.0167927],[139.0945511,36.0168962],[139.0945499,36.0168965],[139.0945432,36.0169055],[139.0945168,36.0168922],[139.0944488,36.0168582],[139.0943723,36.0168199],[139.09406630453054,36.016666666666666],[139.09475836541247,36.016666666666666]]]},"properties":{"layer":"landslide","class_code":"1","class_label":"急傾斜地の崩落","status_code":"0","status_label":"特別警戒区域指定済み"}},{"type":"Feature","id":"lsld_f2db7e9b-108a-46ef-9425-7eeba80f00e0","geometry":{"type":"Polygon","coordinates":[[[139.0895189,36.0213193],[139.0896541,36.0214769],[139.089739,36.0216038],[139.0898679,36.0217284],[139.0899639,36.0218756],[139.0900393,36.0219813],[139.0902048,36.0220778],[139.0902977,36.0222245],[139.0903503,36.0223303],[139.0904495,36.0225554],[139.0905003,36.0227393],[139.0905215,36.0228715],[139.0905872,36.0230475],[139.0906012,36.0231933],[139.0906346,36.0233792],[139.0905731,36.023515],[139.0906057,36.0237216],[139.0905341,36.0238855],[139.0905761,36.0240801],[139.0905547,36.0242815],[139.0904637,36.0245232],[139.0904096,36.0246477],[139.0902895,36.0247977],[139.0901153,36.0249458],[139.0900915702728,36.025],[139.08969071069603,36.025],[139.0896931,36.024993],[139.0898372,36.0248121],[139.0898427,36.0248101],[139.0899709,36.0246394],[139.0900321,36.0245491],[139.0901217,36.0243242],[139.0901375,36.0242484],[139.0901542,36.0240794],[139.0902166,36.0238543],[139.0902542,36.02371],[139.0902318,36.0235261],[139.0902206,36.0234305],[139.0901767,36.0232832],[139.0901206,36.0231578],[139.0901113,36.0231526],[139.0900413,36.0229295],[139.0900119,36.0228435],[139.089947,36.0226887],[139.0898998,36.0225782],[139.0897937,36.0223153],[139.0897371,36.0222415],[139.0896217,36.0220006],[139.0895565,36.0218728],[139.08944,36.0217544],[139.0893386,36.0216337],[139.0891892,36.0214784],[139.0890526,36.0213633],[139.0890546,36.0213622],[139.0893012,36.0212258],[139.0893564,36.0211953],[139.0893626,36.0211918],[139.089448,36.0211445],[139.0895189,36.0213193]]]},"properties":{"layer":"landslide","class_code":"1","class_label":"急傾斜地の崩落","status_code":"0","status_label":"特別警戒区域指定済み"}},{"type":"Feature","id":"lsld_ba747a75-4a71-44de-9eed-fcff39879159","geometry":{"type":"Polygon","coordinates":[[[139.0970274,36.0184961],[139.0968624,36.0183512],[139.0968607,36.0182975],[139.0968594,36.0182586],[139.0968592,36.0182521],[139.096859,36.0182468],[139.0968575,36.0181981],[139.0968575,36.0181936],[139.0968575,36.0181913],[139.0968602,36.0181764],[139.096873,36.0181043],[139.0969425,36.0180334],[139.0970039,36.0180275],[139.0970571,36.0180186],[139.0972535,36.0180082],[139.0972637,36.0180547],[139.0972729,36.0180969],[139.0972864,36.018159],[139.097289,36.0181708],[139.0972957,36.0182014],[139.0973058,36.0182478],[139.0972426,36.0184606],[139.0970433,36.0184425],[139.0970274,36.0184961]]]},"properties":{"layer":"landslide","class_code":"1","class_label":"急傾斜地の崩落","status_code":"0","status_label":"特別警戒区域指定済み"}},{"type":"Feature","id":"lsld_f0422ecb-cc36-44a0-9791-8181115e648b","geometry":{"type":"Polygon","coordinates":[[[139.0876068,36.0190847],[139.0875,36.01911049568936],[139.0875,36.018949937426584],[139.0875258,36.0189702],[139.0876068,36.0190847]]]},"properties":{"layer":"landslide","class_code":"1","class_label":"急傾斜地の崩落","status_code":"0","status_label":"特別警戒区域指定済み"}},{"type":"Feature","id":"lsld_3dd122fb-c0ee-47fd-93c5-ac3d6abafb57","geometry":{"type":"Polygon","coordinates":[[[139.09446268807608,36.016666666666666],[139.0944575,36.0166702],[139.0943903,36.0167904],[139.0943892,36.0167905],[139.0943723,36.0168199],[139.09406630453054,36.016666666666666],[139.09446268807608,36.016666666666666]]]},"properties":{"layer":"landslide","class_code":"1","class_label":"急傾斜地の崩落","status_code":"0","status_label":"特別警戒区域指定済み"}},{"type":"Feature","id":"lsld_559b6338-ddbc-471e-b3e3-eac69bb554bf","geometry":{"type":"Polygon","coordinates":[[[139.0893825,36.0213879],[139.0895206,36.0215458],[139.0896078,36.0216704],[139.0897327,36.021794],[139.0898172,36.021928],[139.0899208,36.0220824],[139.090057,36.0221648],[139.0901311,36.0222645],[139.090228,36.0224526],[139.0902688,36.0226047],[139.090318,36.0227771],[139.0903376,36.0228951],[139.0904043,36.0230686],[139.0904338,36.0232325],[139.0904658,36.0234041],[139.0904177,36.0235146],[139.0904456,36.0237181],[139.0903819,36.0238736],[139.0904051,36.0240815],[139.0903846,36.0242684],[139.0903344,36.0244318],[139.0902476,36.0246148],[139.0901502,36.0247301],[139.0899833,36.0248822],[139.08992494563628,36.025],[139.08969071069603,36.025],[139.0896931,36.024993],[139.0898372,36.0248121],[139.0898427,36.0248101],[139.0899709,36.0246394],[139.0900321,36.0245491],[139.0901217,36.0243242],[139.0901375,36.0242484],[139.0901542,36.0240794],[139.0902166,36.0238543],[139.0902542,36.02371],[139.0902318,36.0235261],[139.0902206,36.0234305],[139.0901767,36.0232832],[139.0901206,36.0231578],[139.0901113,36.0231526],[139.0900413,36.0229295],[139.0900119,36.0228435],[139.089947,36.0226887],[139.0898998,36.0225782],[139.0897937,36.0223153],[139.0897371,36.0222415],[139.0896217,36.0220006],[139.0895565,36.0218728],[139.08944,36.0217544],[139.0893386,36.0216337],[139.0891892,36.0214784],[139.0890526,36.0213633],[139.0890546,36.0213622],[139.0893012,36.0212258],[139.0893825,36.0213879]]]},"properties":{"layer":"landslide","class_code":"1","class_label":"急傾斜地の崩落","status_code":"0","status_label":"特別警戒区域指定済み"}},{"type":"Feature","id":"lsld_fbbcd47a-b488-4e48-97df-d7e3cc4e6f60","geometry":{"type":"Polygon","coordinates":[[[139.0972957,36.0182014],[139.0971855,36.0183246],[139.097029,36.0182923],[139.0970009,36.0183515],[139.0968607,36.0182975],[139.0968594,36.0182586],[139.0968592,36.0182521],[139.096859,36.0182468],[139.0969705,36.0181856],[139.0970164,36.01816],[139.0971191,36.0181663],[139.0972864,36.018159],[139.097289,36.0181708],[139.0972957,36.0182014]]]},"properties":{"layer":"landslide","class_code":"1","class_label":"急傾斜地の崩落","status_code":"0","status_label":"特別警戒区域指定済み"}}]}