{"type":"FeatureCollection","properties":{"mesh_code":"54390038","source":"PLATEAU秩父市2025","layer":"landslide"},"features":[{"type":"Feature","id":"lsld_56ced73d-0dcb-450a-ad65-aa3006585c2a","geometry":{"type":"Polygon","coordinates":[[[139.103966,36.0292208],[139.1039204,36.0292539],[139.1038733,36.0292018],[139.1038397,36.0291646],[139.1038364,36.0291609],[139.1038221,36.029145],[139.1037708,36.0290882],[139.103752,36.0290674],[139.1037287,36.029032],[139.1037147,36.0290106],[139.1037481,36.0289772],[139.1039044,36.0288981],[139.1039495,36.0288057],[139.1039978,36.0288609],[139.1040138,36.0288792],[139.1040621,36.0289344],[139.1041304,36.0290124],[139.1041436,36.0290275],[139.1041827,36.0290722],[139.1042856,36.0291898],[139.1041081,36.0291801],[139.103966,36.0292208]]]},"properties":{"layer":"landslide","class_code":"1","class_label":"急傾斜地の崩落","status_code":"0","status_label":"特別警戒区域指定済み"}},{"type":"Feature","id":"lsld_cbae6ea9-07b6-445c-82ea-367ab0c01f64","geometry":{"type":"Polygon","coordinates":[[[139.1041827,36.0290722],[139.1040624,36.0291074],[139.1039174,36.0291665],[139.1038733,36.0292018],[139.1038397,36.0291646],[139.1038364,36.0291609],[139.1038221,36.029145],[139.1038637,36.0291065],[139.1040098,36.0290238],[139.1040621,36.0289344],[139.1041304,36.0290124],[139.1041436,36.0290275],[139.1041827,36.0290722]]]},"properties":{"layer":"landslide","class_code":"1","class_label":"急傾斜地の崩落","status_code":"0","status_label":"特別警戒区域指定済み"}}]}