{"type":"FeatureCollection","properties":{"mesh_code":"54390070","source":"PLATEAU秩父市2025","layer":"landslide"},"features":[{"type":"Feature","id":"lsld_6c463c17-5917-4e49-91a8-9431bbd82547","geometry":{"type":"Polygon","coordinates":[[[139.0003933,36.0648336],[139.0003848,36.0648343],[139.000364,36.0648359],[139.0002991,36.064841],[139.0002329,36.0648462],[139.0002152,36.0648476],[139.0000893,36.0648575],[139.0000729,36.0647033],[139.0000592,36.0646485],[139.0000576,36.064607],[139.0000501,36.0645405],[139.0000162,36.0644847],[139.0000039,36.0644763],[139.0,36.064473629940125],[139.0,36.062299425394684],[139.0001658,36.0621906],[139.0001637,36.0621897],[139.0004079,36.0621325],[139.0005568,36.0620866],[139.0005929,36.0620755],[139.000632,36.0620018],[139.0006326,36.0619979],[139.0006383,36.061959],[139.0007534,36.0619833],[139.0009382,36.0620221],[139.0011109,36.0620415],[139.001271,36.0620426],[139.0013855,36.0620459],[139.0013927,36.0620461],[139.0014471,36.0620517],[139.0014494,36.0620525],[139.0014917,36.0620676],[139.0015292,36.0621104],[139.0015882,36.0622762],[139.00178,36.0624862],[139.0017801,36.0624875],[139.0019881,36.0630147],[139.0019415,36.0639371],[139.0019404,36.0639381],[139.0019397,36.0639389],[139.0019404,36.0639398],[139.0019392,36.0639404],[139.0019384,36.0639416],[139.0019386,36.0639419],[139.0019377,36.0639424],[139.0019356,36.063944],[139.0019346,36.063945],[139.0019337,36.0639464],[139.0019333,36.0639473],[139.0019313,36.063948],[139.0019315,36.0639498],[139.0019302,36.0639536],[139.00193,36.0639553],[139.0019331,36.063958],[139.0019339,36.0639587],[139.0025999,36.0645571],[139.0022163,36.0647734],[139.0021161,36.0648121],[139.0021041,36.0648168],[139.0020552,36.0648302],[139.0020095,36.0648427],[139.0019297,36.0648451],[139.0018356,36.0648267],[139.0017054,36.0647934],[139.0015969,36.0647691],[139.0013976,36.0647501],[139.0012671,36.0647462],[139.0011365,36.0647512],[139.0010167,36.0647622],[139.0009077,36.064785],[139.0007968,36.0648136],[139.0006755,36.0648262],[139.0005295,36.0648229],[139.0003933,36.0648336]]]},"properties":{"layer":"landslide","class_code":"1","class_label":"急傾斜地の崩落","status_code":"0","status_label":"特別警戒区域指定済み"}},{"type":"Feature","id":"lsld_93172ad6-7945-4000-814d-836d80498ec4","geometry":{"type":"Polygon","coordinates":[[[139.0003933,36.0648336],[139.0003848,36.0648343],[139.000364,36.0648359],[139.0002991,36.064841],[139.0002329,36.0648462],[139.0001868,36.0646884],[139.0000632,36.0644842],[139.0000622,36.0644838],[139.0000571,36.0644277],[139.0000477,36.0643646],[139.0000473,36.0643622],[139.0000199,36.0642063],[139.0,36.06412973849462],[139.0,36.06284187632434],[139.0000722,36.062723],[139.0002111,36.0625986],[139.0004248,36.0624701],[139.0004592,36.0623649],[139.0004756,36.0623146],[139.0004921,36.0621591],[139.0004928,36.0621587],[139.0005568,36.0620866],[139.0005929,36.0620755],[139.000632,36.0620018],[139.0006326,36.0619979],[139.0006383,36.061959],[139.0007534,36.0619833],[139.0009382,36.0620221],[139.0011109,36.0620415],[139.001271,36.0620426],[139.0013855,36.0620459],[139.0014265,36.0622219],[139.0016029,36.0624408],[139.0016034,36.0624417],[139.0018385,36.0629239],[139.0017538,36.0639211],[139.0017513,36.0639239],[139.0017519,36.0639253],[139.0017548,36.0639263],[139.0017529,36.0639269],[139.0017503,36.0639277],[139.0017532,36.0639288],[139.0017512,36.0639292],[139.0017481,36.0639303],[139.0017504,36.0639317],[139.0017544,36.0639338],[139.0017582,36.0639355],[139.0017559,36.0639356],[139.0017557,36.0639376],[139.0017538,36.0639404],[139.0017519,36.0639562],[139.0018182,36.064065],[139.0018185,36.0640654],[139.0024336,36.0645044],[139.0020552,36.0648302],[139.0020095,36.0648427],[139.0019297,36.0648451],[139.0018356,36.0648267],[139.0017054,36.0647934],[139.0015969,36.0647691],[139.0013976,36.0647501],[139.0012671,36.0647462],[139.0011365,36.0647512],[139.0010167,36.0647622],[139.0009077,36.064785],[139.0007968,36.0648136],[139.0006755,36.0648262],[139.0005295,36.0648229],[139.0003933,36.0648336]]]},"properties":{"layer":"landslide","class_code":"1","class_label":"急傾斜地の崩落","status_code":"0","status_label":"特別警戒区域指定済み"}},{"type":"Feature","id":"lsld_268430fd-34db-4a25-bfec-d778e985393f","geometry":{"type":"Polygon","coordinates":[[[139.0,36.06378014358974],[139.0000123,36.0637977],[139.000068,36.0638851],[139.0001048,36.0639663],[139.0001478,36.0640774],[139.0001712,36.0641216],[139.0001855,36.0641444],[139.0002107,36.0641843],[139.0002237,36.0642143],[139.0002321,36.0642473],[139.000233,36.0643361],[139.000231,36.0644212],[139.0002342,36.0644607],[139.0002591,36.0645084],[139.0002899,36.0645457],[139.0003264,36.0645804],[139.000343,36.0645868],[139.000372,36.064587],[139.0003827,36.0646324],[139.0004137,36.0646525],[139.0004391,36.0646726],[139.0004294,36.0646979],[139.0004037,36.0647601],[139.0003961,36.06479],[139.0003848,36.0648343],[139.0003815,36.0648469],[139.0003778,36.0648831],[139.0003781,36.0649055],[139.0004016,36.0649539],[139.0004291,36.0649922],[139.0004476,36.0650113],[139.0004922,36.0650575],[139.000564,36.0651181],[139.0006398,36.065182],[139.0006987,36.0652294],[139.0007507,36.0652715],[139.0007694,36.0652924],[139.0007857,36.0653387],[139.0007941,36.0653801],[139.0007928,36.0654108],[139.0007927,36.065413],[139.000792,36.065415],[139.0007842,36.0654396],[139.0007834,36.0654419],[139.0007687,36.0654672],[139.0007313,36.0655185],[139.000698,36.0655526],[139.0006749,36.0655789],[139.00065,36.0656203],[139.0006317,36.0656582],[139.0006219,36.0656962],[139.000622,36.0658605],[139.0006346,36.0660485],[139.0006509,36.066147],[139.0006552,36.0662414],[139.0006652,36.0662962],[139.0007003,36.0663469],[139.0007789,36.0664129],[139.000868,36.0664886],[139.0009372,36.0665663],[139.00100748990064,36.06666666666667],[139.00060982300738,36.06666666666667],[139.0005658,36.066568],[139.0005113,36.0664797],[139.0004761,36.0664279],[139.0004501,36.0663902],[139.0004295,36.0663375],[139.0004094,36.0662418],[139.0004072,36.0661968],[139.0004142,36.0661614],[139.0004226,36.0661175],[139.0004316,36.0660625],[139.0004252,36.0658906],[139.0004314,36.0656962],[139.0004266,36.0656495],[139.0004294,36.065597],[139.0004558,36.0655275],[139.0004586,36.0655122],[139.0004617,36.0654949],[139.0004537,36.0654557],[139.0004325,36.0654087],[139.0004158,36.0653774],[139.0003876,36.0653269],[139.0003627,36.0652615],[139.0003377,36.0651952],[139.00032,36.0651627],[139.0002882,36.0651306],[139.0002485,36.0650878],[139.0002043,36.0650503],[139.0001762,36.0650198],[139.0001348,36.0649765],[139.0001064,36.0649265],[139.0000812,36.0648811],[139.0000574,36.0648252],[139.0000427,36.0647242],[139.0000395,36.0646386],[139.0000364,36.0645829],[139.0000369,36.0645376],[139.0000151,36.0644895],[139.0000039,36.0644763],[139.0,36.06447168832118],[139.0,36.06378014358974]]]},"properties":{"layer":"landslide","class_code":"2","class_label":"土石流","status_code":"0","status_label":"特別警戒区域指定済み"}}]}