{"type":"FeatureCollection","properties":{"mesh_code":"54390015","source":"PLATEAU秩父市2025","layer":"landslide"},"features":[{"type":"Feature","id":"lsld_65040f5c-3bfc-4f6d-ad32-f3ff1ea28c08","geometry":{"type":"Polygon","coordinates":[[[139.0699863,36.009103],[139.069731,36.0091504],[139.0697294,36.0091507],[139.0696325,36.0092602],[139.0695723,36.0093282],[139.0695179,36.0093897],[139.0694076,36.0094684],[139.0693721,36.0094851],[139.0692928,36.0095223],[139.0691967,36.0095674],[139.0687634,36.0094881],[139.0686782,36.0094542],[139.068768,36.0094013],[139.0688446,36.0093562],[139.0688809,36.0093348],[139.0690189,36.0092244],[139.0692762,36.0090508],[139.0693285,36.0090155],[139.0693968,36.0089694],[139.0694129,36.0089586],[139.0697552,36.0087276],[139.0699863,36.009103]]]},"properties":{"layer":"landslide","class_code":"1","class_label":"急傾斜地の崩落","status_code":"0","status_label":"特別警戒区域指定済み"}},{"type":"Feature","id":"lsld_d5b6850b-d103-4579-ad17-501e4475a9d1","geometry":{"type":"Polygon","coordinates":[[[139.075,36.016666666666666],[139.07410631713748,36.016666666666666],[139.0740074,36.0165075],[139.0740988,36.0164564],[139.0742283,36.0163841],[139.0745698,36.0162037],[139.07486,36.0160751],[139.075,36.0160287318408],[139.075,36.016666666666666]]]},"properties":{"layer":"landslide","class_code":"1","class_label":"急傾斜地の崩落","status_code":"0","status_label":"特別警戒区域指定済み"}},{"type":"Feature","id":"lsld_3143e07c-c7f1-4285-adb1-9ecc8dc293b5","geometry":{"type":"Polygon","coordinates":[[[139.0744022,36.0145864],[139.0745242,36.0146586],[139.074194,36.0149035],[139.0741225,36.0149566],[139.0741146,36.0149625],[139.0737619,36.0152241],[139.0736296,36.0152835],[139.0734622,36.0153587],[139.0733651,36.0154023],[139.0732696,36.0152725],[139.0731514,36.0150785],[139.0730629,36.0149443],[139.0730718,36.0146208],[139.0730186,36.0145651],[139.0729809,36.0142963],[139.0729888,36.0142867],[139.0730477,36.0142365],[139.0730569,36.0142311],[139.0731036,36.0142034],[139.0731343,36.0141897],[139.073169,36.0141743],[139.0731839,36.0141694],[139.0732489,36.0141481],[139.0733294,36.0141216],[139.0733485,36.0141154],[139.0738192,36.0139549],[139.0740681,36.0142925],[139.0742065,36.01445],[139.0742198,36.0144406],[139.0744022,36.0145864]]]},"properties":{"layer":"landslide","class_code":"1","class_label":"急傾斜地の崩落","status_code":"0","status_label":"特別警戒区域指定済み"}},{"type":"Feature","id":"lsld_a8d32703-d80f-4818-8cc2-193f675e7c33","geometry":{"type":"Polygon","coordinates":[[[139.062656,36.0146285],[139.0626648,36.014644],[139.0626955,36.0146977],[139.0627046,36.0147136],[139.0627052,36.0147147],[139.062728,36.0147524],[139.0627391,36.0147652],[139.06277,36.0148007],[139.0628179,36.0148556],[139.0628347,36.014875],[139.0629172,36.0149696],[139.0629586,36.0150291],[139.0630168,36.0151127],[139.0629336,36.0151221],[139.0626617,36.0151527],[139.0625,36.01517091620371],[139.0625,36.01456299549999],[139.0625079,36.0145658],[139.0626222,36.0145608],[139.062656,36.0146285]]]},"properties":{"layer":"landslide","class_code":"1","class_label":"急傾斜地の崩落","status_code":"0","status_label":"特別警戒区域指定済み"}},{"type":"Feature","id":"lsld_3289fe8c-c713-498a-bede-61ce959f3224","geometry":{"type":"Polygon","coordinates":[[[139.0630784,36.0146954],[139.0632306,36.0147787],[139.0633183,36.0148267],[139.0633235,36.0148298],[139.063345,36.0148428],[139.0633922,36.0148713],[139.0634644,36.0149042],[139.0635071,36.0149142],[139.0635223,36.0149178],[139.0635762,36.0149275],[139.0635821,36.0149285],[139.0636708,36.0149409],[139.0636855,36.0149425],[139.0636761,36.0149929],[139.0634518,36.0151382],[139.0634558,36.0151544],[139.0633475,36.0152901],[139.0634653,36.0154536],[139.0635791,36.0155621],[139.0637041,36.0156159],[139.0638497,36.0156673],[139.0640793,36.0157589],[139.0640574,36.0158041],[139.0640387,36.0158428],[139.0640316,36.0158573],[139.0640086,36.015892],[139.0639913,36.0159102],[139.0639601,36.015943],[139.06393,36.0159657],[139.0638738,36.0160082],[139.0638227,36.0160468],[139.0637709,36.0160859],[139.063695,36.0160369],[139.0634389,36.0159738],[139.0631919,36.0158544],[139.0630568,36.015724],[139.0629409,36.0154897],[139.062908,36.0154744],[139.0626895,36.0153729],[139.0626617,36.0151527],[139.0626416,36.0149937],[139.0626396,36.0149623],[139.0626314,36.0148333],[139.0627391,36.0147652],[139.0629556,36.0146283],[139.0630784,36.0146954]]]},"properties":{"layer":"landslide","class_code":"1","class_label":"急傾斜地の崩落","status_code":"0","status_label":"特別警戒区域指定済み"}},{"type":"Feature","id":"lsld_7b9922d3-7065-423e-9b12-15f4f7f5d769","geometry":{"type":"Polygon","coordinates":[[[139.0646053,36.0161576],[139.0646952,36.016163],[139.0647502,36.0161663],[139.0648058,36.0161696],[139.0648068,36.0162224],[139.0648198,36.0162623],[139.0648353,36.0162857],[139.0649857,36.0164099],[139.0649298,36.0164639],[139.0649133,36.0164782],[139.0648488,36.0165339],[139.0648473,36.016535],[139.0647964,36.0165705],[139.0647665,36.0165874],[139.0647298,36.0166036],[139.0646954,36.0166113],[139.0646856,36.0166135],[139.064608,36.0166309],[139.0645005,36.016655],[139.0644485261438,36.016666666666666],[139.06415425756174,36.016666666666666],[139.0641112,36.0166089],[139.0640671,36.0163923],[139.0640702,36.0161734],[139.0643187,36.0161629],[139.0643272,36.0161626],[139.0643355,36.0161622],[139.0644152,36.0161589],[139.0644286,36.0161583],[139.0645069,36.016155],[139.0645386,36.0161537],[139.0646053,36.0161576]]]},"properties":{"layer":"landslide","class_code":"1","class_label":"急傾斜地の崩落","status_code":"0","status_label":"特別警戒区域指定済み"}},{"type":"Feature","id":"lsld_88fa55fe-d1cc-4b29-ba08-e1851176d970","geometry":{"type":"Polygon","coordinates":[[[139.0695019,36.0091002],[139.0695541,36.0091833],[139.0696325,36.0092602],[139.0695723,36.0093282],[139.0695179,36.0093897],[139.0694076,36.0094684],[139.0693721,36.0094851],[139.0689584,36.0094451],[139.0688446,36.0093562],[139.0688809,36.0093348],[139.0690189,36.0092244],[139.0692762,36.0090508],[139.0693285,36.0090155],[139.0693968,36.0089694],[139.0694129,36.0089586],[139.0695019,36.0091002]]]},"properties":{"layer":"landslide","class_code":"1","class_label":"急傾斜地の崩落","status_code":"0","status_label":"特別警戒区域指定済み"}},{"type":"Feature","id":"lsld_fb0d43e1-653c-4075-a2d2-6801d7bedc67","geometry":{"type":"Polygon","coordinates":[[[139.074194,36.0149035],[139.0741225,36.0149566],[139.0741146,36.0149625],[139.0737619,36.0152241],[139.0736296,36.0152835],[139.0734643,36.0151786],[139.0733368,36.0150196],[139.0731985,36.0148227],[139.0732435,36.0145592],[139.0731384,36.0144423],[139.0731343,36.0141897],[139.073169,36.0141743],[139.0731839,36.0141694],[139.0732489,36.0141481],[139.0734912,36.0141934],[139.0736604,36.0144208],[139.0738148,36.0146056],[139.073887,36.0146745],[139.074046,36.0148058],[139.074194,36.0149035]]]},"properties":{"layer":"landslide","class_code":"1","class_label":"急傾斜地の崩落","status_code":"0","status_label":"特別警戒区域指定済み"}},{"type":"Feature","id":"lsld_4f4903bc-2b33-49eb-8e4f-3255694d69d2","geometry":{"type":"Polygon","coordinates":[[[139.062728,36.0147524],[139.0627391,36.0147652],[139.06277,36.0148007],[139.0628179,36.0148556],[139.0627553,36.0149591],[139.0626396,36.0149623],[139.0625082,36.0149659],[139.0625,36.0149632499154],[139.0625,36.014712794421484],[139.0625237,36.0147228],[139.0625557,36.0147289],[139.0626571,36.0147193],[139.0627052,36.0147147],[139.062728,36.0147524]]]},"properties":{"layer":"landslide","class_code":"1","class_label":"急傾斜地の崩落","status_code":"0","status_label":"特別警戒区域指定済み"}},{"type":"Feature","id":"lsld_cf072635-7ae9-41c1-bc5b-aa07c3e1ed55","geometry":{"type":"Polygon","coordinates":[[[139.0633183,36.0148267],[139.0633235,36.0148298],[139.063345,36.0148428],[139.0633922,36.0148713],[139.0634644,36.0149042],[139.0635071,36.0149142],[139.0634807,36.0149949],[139.0632505,36.0151451],[139.0632611,36.0152098],[139.0631877,36.0153763],[139.0633185,36.0155317],[139.0634532,36.0156623],[139.0636023,36.0157379],[139.0637947,36.0158106],[139.0639913,36.0159102],[139.0639601,36.015943],[139.06393,36.0159657],[139.0638738,36.0160082],[139.0637415,36.0159314],[139.0635156,36.0158615],[139.0633192,36.015761],[139.0631848,36.0156299],[139.0630543,36.015438],[139.0629917,36.0153496],[139.062955,36.0152978],[139.0629336,36.0151221],[139.0629269,36.015067],[139.0629586,36.0150291],[139.0630488,36.0149215],[139.0632306,36.0147787],[139.0633183,36.0148267]]]},"properties":{"layer":"landslide","class_code":"1","class_label":"急傾斜地の崩落","status_code":"0","status_label":"特別警戒区域指定済み"}},{"type":"Feature","id":"lsld_78efaaf4-28a9-4a90-a39c-cec68b27ba47","geometry":{"type":"Polygon","coordinates":[[[139.0646053,36.0161576],[139.0646178,36.0162436],[139.0646441,36.0163228],[139.0646844,36.0163666],[139.0648473,36.016535],[139.0647964,36.0165705],[139.0647665,36.0165874],[139.0647298,36.0166036],[139.0646954,36.0166113],[139.0646856,36.0166135],[139.064608,36.0166309],[139.064447,36.0165473],[139.0643698,36.01647],[139.0643308,36.0163189],[139.0643187,36.0161629],[139.0643272,36.0161626],[139.0643355,36.0161622],[139.0644152,36.0161589],[139.0644286,36.0161583],[139.0645069,36.016155],[139.0645386,36.0161537],[139.0646053,36.0161576]]]},"properties":{"layer":"landslide","class_code":"1","class_label":"急傾斜地の崩落","status_code":"0","status_label":"特別警戒区域指定済み"}},{"type":"Feature","id":"lsld_c851da76-df63-4b04-bbe0-47f2f75e387e","geometry":{"type":"Polygon","coordinates":[[[139.07278602550542,36.00833333333333],[139.0727269,36.008487],[139.0726368,36.0086615],[139.0725245,36.0088494],[139.0724064,36.0090552],[139.0723902,36.0090765],[139.0722329,36.0092831],[139.0720542,36.0094795],[139.0719353,36.0095904],[139.0718869,36.0096356],[139.0717424,36.0096027],[139.0704629,36.0093107],[139.0703849,36.0092936],[139.0702155,36.0092565],[139.0699682,36.0092024],[139.069731,36.0091504],[139.0697208,36.0091482],[139.0695019,36.0091002],[139.0694735,36.009094],[139.0692762,36.0090508],[139.0692261,36.0090398],[139.0689788,36.0089857],[139.0687325,36.0089354],[139.0686725,36.0087525],[139.0688541,36.0086054],[139.06918681023836,36.00833333333333],[139.07278602550542,36.00833333333333]]]},"properties":{"layer":"landslide","class_code":"2","class_label":"土石流","status_code":"0","status_label":"特別警戒区域指定済み"}},{"type":"Feature","id":"lsld_16a7a141-7bb2-4739-81cc-557cdb43c33b","geometry":{"type":"Polygon","coordinates":[[[139.071905,36.0095755],[139.0719353,36.0095904],[139.0722413,36.0097409],[139.0725313,36.0099801],[139.0725918,36.010035],[139.0728119,36.0102342],[139.072956,36.0104503],[139.0731178,36.0107185],[139.0732609,36.0110384],[139.0733132,36.0112985],[139.0732052,36.0113125],[139.0729502,36.0113321],[139.0726952,36.0113517],[139.0724401,36.0113714],[139.0721851,36.011391],[139.07193,36.0114107],[139.071675,36.0114303],[139.07142,36.0114499],[139.0711649,36.0114696],[139.0710661,36.0115338],[139.0708702,36.011642],[139.0707679,36.0117619],[139.0706399,36.0117189],[139.0706097,36.0117087],[139.0705826,36.0116996],[139.0704907,36.0116688],[139.0706215,36.0114988],[139.0707498,36.0113518],[139.0708769,36.0111405],[139.0709835,36.0109512],[139.0710901,36.0107619],[139.0711967,36.0105727],[139.0712455,36.010486],[139.0713033,36.0103834],[139.0714098,36.0101941],[139.0715164,36.0100049],[139.071623,36.0098156],[139.0717296,36.0096263],[139.0717424,36.0096027],[139.0717775,36.0095376],[139.071905,36.0095755]]]},"properties":{"layer":"landslide","class_code":"2","class_label":"土石流","status_code":"0","status_label":"特別警戒区域指定済み"}},{"type":"Feature","id":"lsld_d5bc0084-a78d-43f9-a294-07c8718644f3","geometry":{"type":"Polygon","coordinates":[[[139.0745439,36.0137463],[139.0745369,36.0139431],[139.0743459,36.0139109],[139.0740944,36.0138714],[139.0738428,36.0138319],[139.0735913,36.0137924],[139.0733397,36.0137529],[139.0730882,36.0137134],[139.0728367,36.0136739],[139.0725852,36.0136344],[139.0723833,36.0137117],[139.0721393,36.01369],[139.0719151,36.0137148],[139.0718935,36.0136639],[139.0718805,36.0136335],[139.0718703,36.0136095],[139.0718385,36.0135348],[139.0720065,36.0133775],[139.0721744,36.0132203],[139.0723422,36.0130631],[139.0725101,36.0129059],[139.072678,36.0127487],[139.0728459,36.0125914],[139.0730137,36.0124342],[139.0731816,36.012277],[139.0733495,36.0121198],[139.0735174,36.0119625],[139.0736272,36.0120017],[139.0737246,36.0120694],[139.0738984,36.0122213],[139.0740364,36.0123563],[139.0742199,36.0125753],[139.074392,36.0129199],[139.074427,36.0130291],[139.0745224,36.013302],[139.0745561,36.0135494],[139.0745439,36.0137463]]]},"properties":{"layer":"landslide","class_code":"2","class_label":"土石流","status_code":"0","status_label":"特別警戒区域指定済み"}},{"type":"Feature","id":"lsld_299c55b0-cbe8-47ab-91ef-9540dba4443e","geometry":{"type":"Polygon","coordinates":[[[139.063268,36.0149374],[139.0631455,36.0151201],[139.0630229,36.0153029],[139.0629917,36.0153496],[139.062908,36.0154744],[139.0629004,36.0154857],[139.0627779,36.0156685],[139.0626553,36.0158513],[139.0625328,36.0160341],[139.0625,36.01608301885716],[139.0625,36.01479627521941],[139.0626057,36.0147482],[139.0626571,36.0147193],[139.0626955,36.0146977],[139.0627885,36.0146455],[139.0629944,36.0145735],[139.063195,36.0144946],[139.0632638,36.0144824],[139.0634269,36.0144572],[139.06365,36.0144096],[139.063676,36.0144431],[139.063686,36.0144559],[139.0637053,36.0144807],[139.0637383,36.014523],[139.0635607,36.0146351],[139.0634468,36.0147257],[139.0634032,36.0147714],[139.063345,36.0148428],[139.063268,36.0149374]]]},"properties":{"layer":"landslide","class_code":"2","class_label":"土石流","status_code":"0","status_label":"特別警戒区域指定済み"}},{"type":"Feature","id":"lsld_26e27e3c-3344-4e6e-9671-b3a244007ab2","geometry":{"type":"Polygon","coordinates":[[[139.0711933582878,36.00833333333333],[139.0712031,36.0083368],[139.0713683,36.0084037],[139.071559,36.0085037],[139.071757,36.0086128],[139.0719476,36.0087218],[139.0721416,36.0088638],[139.0722843,36.0089755],[139.0723902,36.0090765],[139.0724486,36.0091323],[139.0726456,36.0093462],[139.0728241,36.0095659],[139.0729258,36.0097223],[139.0730274,36.0098876],[139.0725918,36.010035],[139.0719967,36.0102363],[139.0717596,36.0103151],[139.0715225,36.0103939],[139.0712854,36.0104728],[139.0712455,36.010486],[139.0710483,36.0105516],[139.0708112,36.0106304],[139.0705741,36.0107092],[139.070337,36.0107881],[139.070195,36.0109267],[139.0700103,36.0110385],[139.0698512,36.0111626],[139.0697177,36.0113066],[139.0695281,36.0113826],[139.0694988,36.0113988],[139.0693103,36.011284],[139.0693197,36.0112558],[139.0693456,36.0110801],[139.069524,36.0109634],[139.0696707,36.0108249],[139.0698243,36.0106935],[139.0699772,36.0105618],[139.070114,36.0104198],[139.070223,36.0102605],[139.0702576,36.0100542],[139.0702921,36.009848],[139.0703266,36.0096418],[139.0703611,36.0094355],[139.0703849,36.0092936],[139.0703956,36.0092293],[139.07053597246627,36.00833333333333],[139.0711933582878,36.00833333333333]]]},"properties":{"layer":"landslide","class_code":"2","class_label":"土石流","status_code":"0","status_label":"特別警戒区域指定済み"}},{"type":"Feature","id":"lsld_dc0a185b-fba6-4358-8e7c-8a59023b561a","geometry":{"type":"Polygon","coordinates":[[[139.0643569,36.0159329],[139.0644,36.0159378],[139.064456,36.0159442],[139.0645507,36.0159549],[139.0645071,36.0161321],[139.0645069,36.016155],[139.0645065,36.0162139],[139.0645383,36.0163177],[139.0646344,36.0165106],[139.0646856,36.0166135],[139.06471203581205,36.016666666666666],[139.06354319138737,36.016666666666666],[139.0636284,36.016578],[139.0637861,36.016414],[139.0639438,36.0162499],[139.0640305,36.0161597],[139.0641014,36.0160859],[139.0642592,36.0159217],[139.0643569,36.0159329]]]},"properties":{"layer":"landslide","class_code":"2","class_label":"土石流","status_code":"0","status_label":"特別警戒区域指定済み"}},{"type":"Feature","id":"lsld_3a481cfb-dd3c-4de6-b3cc-37746ea0e8a7","geometry":{"type":"Polygon","coordinates":[[[139.0705826,36.0116996],[139.0706634,36.0115804],[139.0707156,36.0115979],[139.0706399,36.0117189],[139.0706097,36.0117087],[139.0705826,36.0116996]]]},"properties":{"layer":"landslide","class_code":"2","class_label":"土石流","status_code":"0","status_label":"特別警戒区域指定済み"}},{"type":"Feature","id":"lsld_01ecbac1-0ce4-47c8-a480-77e6a4aad403","geometry":{"type":"Polygon","coordinates":[[[139.0718703,36.0136095],[139.0719624,36.0135498],[139.0719923,36.0136203],[139.0718935,36.0136639],[139.0718805,36.0136335],[139.0718703,36.0136095]]]},"properties":{"layer":"landslide","class_code":"2","class_label":"土石流","status_code":"0","status_label":"特別警戒区域指定済み"}},{"type":"Feature","id":"lsld_9e57721d-42ae-4a00-9c19-e6ed7cd33ae4","geometry":{"type":"Polygon","coordinates":[[[139.0637053,36.0144807],[139.0635135,36.0145724],[139.0633806,36.0146203],[139.063344,36.0145716],[139.0634783,36.0145255],[139.063676,36.0144431],[139.063686,36.0144559],[139.0637053,36.0144807]]]},"properties":{"layer":"landslide","class_code":"2","class_label":"土石流","status_code":"0","status_label":"特別警戒区域指定済み"}},{"type":"Feature","id":"lsld_c3f49c58-2e8d-45e5-af8b-44edf454393d","geometry":{"type":"Polygon","coordinates":[[[139.0693998,36.0113383],[139.0693629,36.0113158],[139.069379,36.0112918],[139.0694568,36.0113392],[139.0694274,36.0113551],[139.0693998,36.0113383]]]},"properties":{"layer":"landslide","class_code":"2","class_label":"土石流","status_code":"0","status_label":"特別警戒区域指定済み"}},{"type":"Feature","id":"lsld_4007a595-c43b-4735-8252-cae169f5945a","geometry":{"type":"Polygon","coordinates":[[[139.0644,36.0159378],[139.064456,36.0159442],[139.0644269,36.016123],[139.0644286,36.0161583],[139.06443,36.016187],[139.0643269,36.0161753],[139.0643272,36.0161626],[139.0643288,36.0161118],[139.0643569,36.0159329],[139.0644,36.0159378]]]},"properties":{"layer":"landslide","class_code":"2","class_label":"土石流","status_code":"0","status_label":"特別警戒区域指定済み"}}]}