{"type":"FeatureCollection","properties":{"mesh_code":"54390121","source":"PLATEAU秩父市2025","layer":"landslide"},"features":[{"type":"Feature","id":"lsld_facf75ec-6a8f-4896-838b-60bce6035ad3","geometry":{"type":"Polygon","coordinates":[[[139.1430842,36.0196903],[139.1430953,36.0196977],[139.1431379,36.0197261],[139.1431419,36.0197288],[139.1431528,36.0197361],[139.143191,36.0197641],[139.143233,36.0197949],[139.1432733,36.0198245],[139.1432013,36.0199411],[139.1431825,36.0199525],[139.1431091,36.0198849],[139.143063,36.0198425],[139.1430478,36.0198284],[139.1430329,36.0198237],[139.1429655,36.0198023],[139.1428718,36.0197725],[139.1428951,36.0197371],[139.1430453,36.0196643],[139.1430842,36.0196903]]]},"properties":{"layer":"landslide","class_code":"1","class_label":"急傾斜地の崩落","status_code":"0","status_label":"特別警戒区域指定済み"}},{"type":"Feature","id":"lsld_21d8e9b3-f0f9-4901-b85b-3ebe2fab84b3","geometry":{"type":"Polygon","coordinates":[[[139.1385186,36.0191311],[139.1386425,36.0192474],[139.1386378,36.0193049],[139.1386346,36.0193446],[139.1386343,36.0193479],[139.1386309,36.0193895],[139.1386236,36.0194795],[139.1383661,36.0195478],[139.137869,36.0197234],[139.1378897,36.0197056],[139.1379452,36.0196579],[139.1379624,36.0196431],[139.1380002,36.0196063],[139.1380122,36.0195947],[139.1381633,36.0194282],[139.1382558,36.0193214],[139.1382737,36.0192972],[139.138288,36.0192694],[139.1382917,36.0192549],[139.1383157,36.019161],[139.1383245,36.0191265],[139.1383266,36.0191183],[139.1385186,36.0191311]]]},"properties":{"layer":"landslide","class_code":"1","class_label":"急傾斜地の崩落","status_code":"0","status_label":"特別警戒区域指定済み"}},{"type":"Feature","id":"lsld_d860be2c-1b21-4f44-a4a2-666659ee16f5","geometry":{"type":"Polygon","coordinates":[[[139.1491132181067,36.016666666666666],[139.1487915,36.0167561],[139.1484531,36.0168577],[139.1483852,36.0168865],[139.1483601,36.0168624],[139.1483135,36.0168177],[139.1482765,36.0167822],[139.1481559860149,36.016666666666666],[139.1491132181067,36.016666666666666]]]},"properties":{"layer":"landslide","class_code":"1","class_label":"急傾斜地の崩落","status_code":"0","status_label":"特別警戒区域指定済み"}},{"type":"Feature","id":"lsld_bdddfc0a-1a28-46c1-a621-a436a0330037","geometry":{"type":"Polygon","coordinates":[[[139.1449182,36.0189531],[139.144896,36.0189572],[139.14481,36.018973],[139.1447328,36.0189871],[139.1446946,36.0189942],[139.1445385,36.0190541],[139.1443797,36.0190865],[139.1442211,36.019094],[139.1440524,36.0190847],[139.1440199,36.0190819],[139.1439465,36.0190757],[139.1438975,36.0190716],[139.1438104,36.0190642],[139.1437776,36.0190619],[139.1437723,36.0190616],[139.1434698,36.019025],[139.1434783,36.0189213],[139.1437256,36.0189333],[139.1438103,36.0189374],[139.1438771,36.0189407],[139.1439067,36.0189421],[139.1439582,36.0189446],[139.144032,36.0189478],[139.1440501,36.0189486],[139.1440521,36.0189487],[139.1443339,36.0189515],[139.1445938,36.0189423],[139.1447284,36.0189341],[139.1448036,36.0189295],[139.1448801,36.0189249],[139.1449142,36.0189228],[139.1449182,36.0189531]]]},"properties":{"layer":"landslide","class_code":"1","class_label":"急傾斜地の崩落","status_code":"0","status_label":"特別警戒区域指定済み"}},{"type":"Feature","id":"lsld_1432f493-bbda-48f6-a669-7578bffa7166","geometry":{"type":"Polygon","coordinates":[[[139.1438873,36.0188333],[139.1439003,36.0188431],[139.1439118,36.0188518],[139.143941,36.0188737],[139.1439446,36.0188764],[139.1439544,36.0188838],[139.1440047,36.0189178],[139.1440501,36.0189486],[139.1440899,36.0189755],[139.1439465,36.0190757],[139.1438988,36.019109],[139.1437987,36.0190702],[139.1437776,36.0190619],[139.1437767,36.0190616],[139.1437585,36.0190537],[139.1437555,36.0190523],[139.1437168,36.0190354],[139.1436502,36.0190063],[139.1437256,36.0189333],[139.1437913,36.0188698],[139.1438532,36.0188099],[139.1438873,36.0188333]]]},"properties":{"layer":"landslide","class_code":"1","class_label":"急傾斜地の崩落","status_code":"0","status_label":"特別警戒区域指定済み"}},{"type":"Feature","id":"lsld_34ec18ab-4515-4fb1-9a90-252c87fd5965","geometry":{"type":"Polygon","coordinates":[[[139.1449151,36.0188945],[139.1448892,36.0188951],[139.1448042,36.018897],[139.1448026,36.018897],[139.1447476,36.0188863],[139.1439451,36.0188468],[139.1439118,36.0188518],[139.1438887,36.0188552],[139.1437913,36.0188698],[139.1436637,36.0188889],[139.1434763,36.0188129],[139.1434678,36.0188059],[139.1433984,36.0187487],[139.1433978,36.0187482],[139.1433629,36.0187194],[139.1433624,36.0187187],[139.1433064,36.0186332],[139.1432995,36.0186213],[139.1432586,36.0185507],[139.1432557,36.0185457],[139.1431675,36.018394],[139.1431614,36.0183834],[139.1431734,36.0183746],[139.1432077,36.0183373],[139.1435245,36.0183814],[139.1437046,36.0182989],[139.1435996,36.0181681],[139.1436945,36.0181161],[139.1437298,36.0181271],[139.1438119,36.018163],[139.1439862,36.0181863],[139.1441989,36.0181952],[139.1442371,36.0182329],[139.1442665,36.018262],[139.1443141,36.0183181],[139.1443305,36.0183375],[139.1444527,36.0184526],[139.1446423,36.0185968],[139.1448241,36.0187398],[139.1448621,36.0187696],[139.1449309,36.0188238],[139.1449418,36.0188323],[139.1449151,36.0188945]]]},"properties":{"layer":"landslide","class_code":"1","class_label":"急傾斜地の崩落","status_code":"0","status_label":"特別警戒区域指定済み"}},{"type":"Feature","id":"lsld_f705b71d-2bb3-40d8-8ffb-0c0a2525cb29","geometry":{"type":"Polygon","coordinates":[[[139.1386343,36.0193479],[139.1384067,36.0194012],[139.1380002,36.0196063],[139.1380122,36.0195947],[139.1381633,36.0194282],[139.1382558,36.0193214],[139.1382737,36.0192972],[139.138288,36.0192694],[139.1382917,36.0192549],[139.1383157,36.019161],[139.1384583,36.0192543],[139.1386378,36.0193049],[139.1386346,36.0193446],[139.1386343,36.0193479]]]},"properties":{"layer":"landslide","class_code":"1","class_label":"急傾斜地の崩落","status_code":"0","status_label":"特別警戒区域指定済み"}},{"type":"Feature","id":"lsld_3896fc8b-e629-4f8d-a883-a80be0297bc6","geometry":{"type":"Polygon","coordinates":[[[139.1447328,36.0189871],[139.1446946,36.0189942],[139.1445385,36.0190541],[139.1443797,36.0190865],[139.1442211,36.019094],[139.1440524,36.0190847],[139.1440199,36.0190819],[139.1439465,36.0190757],[139.1438975,36.0190716],[139.1439067,36.0189421],[139.1439582,36.0189446],[139.144032,36.0189478],[139.1440501,36.0189486],[139.1440521,36.0189487],[139.1443339,36.0189515],[139.1445938,36.0189423],[139.1447284,36.0189341],[139.1447328,36.0189871]]]},"properties":{"layer":"landslide","class_code":"1","class_label":"急傾斜地の崩落","status_code":"0","status_label":"特別警戒区域指定済み"}},{"type":"Feature","id":"lsld_476d5207-9fe5-46a2-8a3a-5499907df663","geometry":{"type":"Polygon","coordinates":[[[139.1431419,36.0197288],[139.1430937,36.0198438],[139.143063,36.0198425],[139.1430478,36.0198284],[139.1430329,36.0198237],[139.1429655,36.0198023],[139.1430067,36.0197895],[139.1430953,36.0196977],[139.1431379,36.0197261],[139.1431419,36.0197288]]]},"properties":{"layer":"landslide","class_code":"1","class_label":"急傾斜地の崩落","status_code":"0","status_label":"特別警戒区域指定済み"}},{"type":"Feature","id":"lsld_938b45e7-cabb-4988-92fa-7546b1d59da5","geometry":{"type":"Polygon","coordinates":[[[139.148681445658,36.016666666666666],[139.1486612,36.0166716],[139.1483689,36.0167469],[139.1482765,36.0167822],[139.1481559860149,36.016666666666666],[139.148681445658,36.016666666666666]]]},"properties":{"layer":"landslide","class_code":"1","class_label":"急傾斜地の崩落","status_code":"0","status_label":"特別警戒区域指定済み"}},{"type":"Feature","id":"lsld_94a3537f-77a7-4f83-a9b2-f0b1e16b15ba","geometry":{"type":"Polygon","coordinates":[[[139.1439118,36.0188518],[139.143941,36.0188737],[139.1439446,36.0188764],[139.1438771,36.0189407],[139.1437585,36.0190537],[139.1437555,36.0190523],[139.1437168,36.0190354],[139.1438103,36.0189374],[139.1438887,36.0188552],[139.1439003,36.0188431],[139.1439118,36.0188518]]]},"properties":{"layer":"landslide","class_code":"1","class_label":"急傾斜地の崩落","status_code":"0","status_label":"特別警戒区域指定済み"}},{"type":"Feature","id":"lsld_578464ec-e910-4647-95e4-5c42f8d6b9f5","geometry":{"type":"Polygon","coordinates":[[[139.1448241,36.0187398],[139.1447434,36.0188855],[139.1438897,36.0187206],[139.1436248,36.0187473],[139.1433624,36.0187187],[139.1433064,36.0186332],[139.1432995,36.0186213],[139.1432586,36.0185507],[139.1432557,36.0185457],[139.143574,36.0185619],[139.1438062,36.0185298],[139.1439104,36.0184009],[139.1442371,36.0182329],[139.1442665,36.018262],[139.1443141,36.0183181],[139.1443305,36.0183375],[139.1444527,36.0184526],[139.1446423,36.0185968],[139.1448241,36.0187398]]]},"properties":{"layer":"landslide","class_code":"1","class_label":"急傾斜地の崩落","status_code":"0","status_label":"特別警戒区域指定済み"}}]}