{"type":"FeatureCollection","properties":{"mesh_code":"54390004","source":"PLATEAU秩父市2025","layer":"landslide"},"features":[{"type":"Feature","id":"lsld_524524dc-a700-4887-abd0-97e2029237f0","geometry":{"type":"Polygon","coordinates":[[[139.0557699,36.0022169],[139.0558558,36.0022522],[139.0560026,36.0024262],[139.0560688,36.0026718],[139.0561784,36.0027227],[139.0563196,36.0029439],[139.0563172,36.0029708],[139.0563081,36.0030726],[139.0563723,36.0032097],[139.0564102,36.0032909],[139.0564155,36.0033021],[139.0564594,36.0035762],[139.0563886,36.0038027],[139.0565218,36.0040853],[139.0566881,36.0043873],[139.0565676,36.0044034],[139.0562979,36.0044395],[139.0562066,36.0044517],[139.0561442,36.0044601],[139.0560286,36.0044776],[139.0560019,36.0044792],[139.0559444,36.0044827],[139.055941,36.0044825],[139.0558863,36.0044791],[139.0558445,36.0044625],[139.0558395,36.0044559],[139.0557615,36.0043725],[139.0556204,36.0043052],[139.0554291,36.0042061],[139.0553224,36.0040498],[139.0552416,36.0037007],[139.0553286,36.0034484],[139.0553905,36.0033844],[139.055391,36.0033678],[139.0553769,36.0033522],[139.0552627,36.0031917],[139.0552617,36.0030798],[139.0552195,36.0028143],[139.0551563,36.0026731],[139.0550951,36.0025894],[139.0549727,36.0024856],[139.0549841,36.0024778],[139.0550574,36.0024275],[139.0550639,36.002423],[139.0551086,36.0023903],[139.055129,36.0023754],[139.0551463,36.0023627],[139.0551762,36.0023403],[139.0551823,36.0023358],[139.0552141,36.0023174],[139.0552321,36.0023071],[139.0552802,36.0022803],[139.0553352,36.0022499],[139.055495,36.0021613],[139.055554,36.0021286],[139.0555545,36.0021283],[139.0557699,36.0022169]]]},"properties":{"layer":"landslide","class_code":"1","class_label":"急傾斜地の崩落","status_code":"0","status_label":"特別警戒区域指定済み"}},{"type":"Feature","id":"lsld_f8421248-de14-4138-bfb4-2e7210f906bc","geometry":{"type":"Polygon","coordinates":[[[139.055244,36.001184],[139.0553172,36.0012886],[139.055364,36.0014016],[139.0553913,36.0016103],[139.0555039,36.0016668],[139.0556073,36.0018038],[139.0557061,36.0019347],[139.0557143,36.001971],[139.055723,36.0020098],[139.0557319,36.0020495],[139.0555538,36.0021272],[139.0554948,36.0021601],[139.0554049,36.0022104],[139.0553351,36.0022495],[139.0552802,36.0022803],[139.0552321,36.0023071],[139.0552213,36.0023131],[139.0552141,36.0023174],[139.0551762,36.0023403],[139.0551714,36.0023432],[139.0551289,36.0023751],[139.0551086,36.0023903],[139.0550896,36.0024045],[139.0550582,36.0024279],[139.0550447,36.002438],[139.0549841,36.0024778],[139.0549727,36.0024853],[139.0548299,36.002406],[139.0547386,36.0023046],[139.0547231,36.0022566],[139.0545232,36.0020695],[139.0545127,36.0020242],[139.0544867,36.0018978],[139.0544817,36.0018633],[139.0544834,36.0018457],[139.0543631,36.0018208],[139.0542951,36.0017515],[139.0542616,36.0017219],[139.0542997,36.0016897],[139.0543384,36.001657],[139.0544002,36.0016048],[139.0544189,36.0015889],[139.0545676,36.0014529],[139.0546161,36.0014133],[139.054691,36.0013443],[139.0547258,36.0013024],[139.0547672,36.0012526],[139.0547736,36.0012449],[139.0550361,36.0009288],[139.055244,36.001184]]]},"properties":{"layer":"landslide","class_code":"1","class_label":"急傾斜地の崩落","status_code":"0","status_label":"特別警戒区域指定済み"}},{"type":"Feature","id":"lsld_163d38ab-ca58-4c38-8d72-ed81097c2e41","geometry":{"type":"Polygon","coordinates":[[[139.0565912,36.0030013],[139.0565919,36.0030015],[139.0566432,36.0031943],[139.0565128,36.0032785],[139.0564521,36.0032858],[139.0564318,36.0032883],[139.0564102,36.0032909],[139.0564031,36.0032917],[139.0563514,36.003298],[139.0563453,36.0032987],[139.0563298,36.0033006],[139.0562568,36.0033053],[139.0562348,36.0033067],[139.0561932,36.0032353],[139.0562002,36.0031486],[139.0562001,36.0031481],[139.0562039,36.0030505],[139.0562437,36.0030123],[139.056256,36.0030005],[139.056282,36.0029879],[139.0563172,36.0029708],[139.056325,36.002967],[139.0563403,36.0029596],[139.0564202,36.0029207],[139.0565912,36.0030013]]]},"properties":{"layer":"landslide","class_code":"1","class_label":"急傾斜地の崩落","status_code":"0","status_label":"特別警戒区域指定済み"}},{"type":"Feature","id":"lsld_e1c0ceb2-2101-4047-b560-4b12ea01e9a9","geometry":{"type":"Polygon","coordinates":[[[139.0557596,36.0020982],[139.0557647,36.0022053],[139.0557699,36.0022169],[139.0557917,36.0022652],[139.0558281,36.002348],[139.0557967,36.0023573],[139.0557735,36.0023642],[139.055724,36.0023789],[139.0557156,36.0023814],[139.0556907,36.0023852],[139.0556712,36.0023866],[139.0556474,36.0023854],[139.055643,36.002385],[139.0556012,36.0023812],[139.0555636,36.0023784],[139.0555495,36.0023774],[139.0555326,36.0023761],[139.0555302,36.0023536],[139.0555269,36.0023233],[139.0555043,36.0022499],[139.055495,36.0021613],[139.0554948,36.0021601],[139.0554865,36.0020808],[139.0554954,36.0020097],[139.05559,36.001885],[139.0556132,36.0018984],[139.0555895,36.0018677],[139.0555895,36.0018668],[139.0556073,36.0018038],[139.055614,36.00178],[139.0557034,36.0017534],[139.0557182,36.001749],[139.0557368,36.0017435],[139.0557599,36.0017396],[139.0558044,36.0017321],[139.0558686,36.0017213],[139.0559161,36.0018715],[139.0559466,36.0018724],[139.0559151,36.0020443],[139.0557702,36.0020963],[139.0557648,36.0020902],[139.0557596,36.0020982]]]},"properties":{"layer":"landslide","class_code":"1","class_label":"急傾斜地の崩落","status_code":"0","status_label":"特別警戒区域指定済み"}},{"type":"Feature","id":"lsld_053bb1a8-bbfd-4533-951f-53349e9167b2","geometry":{"type":"Polygon","coordinates":[[[139.0591585,36.0049172],[139.0591618,36.0049218],[139.0591632,36.0049307],[139.058946,36.0053466],[139.0588248,36.005454],[139.0587565,36.0055226],[139.0587155,36.0055569],[139.0587016,36.0055631],[139.0586794,36.0055794],[139.0586349,36.0056113],[139.0586196,36.0056301],[139.0585585,36.005679],[139.0585415,36.005694],[139.058505,36.0057261],[139.0584931,36.0057363],[139.0584612,36.0057634],[139.0584309,36.0058007],[139.0584007,36.0058359],[139.0583615,36.0058811],[139.0583141,36.0059358],[139.0583101,36.0059403],[139.0580984,36.0061847],[139.0577871,36.0058974],[139.0576776,36.0056385],[139.0578028,36.0052824],[139.0578975,36.0051561],[139.0579527,36.0050911],[139.0578772,36.0047846],[139.0578809,36.0047853],[139.0578571,36.0046793],[139.0577737,36.0046047],[139.0577444,36.0043179],[139.0577894,36.0038521],[139.0578816,36.0037453],[139.0580479,36.0038088],[139.0583107,36.0039092],[139.0583302,36.0039166],[139.0583831,36.0039377],[139.0584011,36.0039449],[139.0584654,36.0039764],[139.0585165,36.0040078],[139.058569,36.004036],[139.0586254,36.0040642],[139.0586673,36.0040859],[139.0587382,36.0041206],[139.0587828,36.0041402],[139.0588075,36.0041546],[139.0588279,36.0041666],[139.0588617,36.004184],[139.0588849,36.0041978],[139.0588916,36.0042017],[139.0589897,36.0042263],[139.0589874,36.004233],[139.0589809,36.0042395],[139.0589787,36.0042506],[139.058984,36.0042752],[139.0591343,36.0046198],[139.0591314,36.0046437],[139.0591585,36.0049172]]]},"properties":{"layer":"landslide","class_code":"1","class_label":"急傾斜地の崩落","status_code":"0","status_label":"特別警戒区域指定済み"}},{"type":"Feature","id":"lsld_31d29a28-3fbb-46ca-8217-12b32b79584b","geometry":{"type":"Polygon","coordinates":[[[139.0555302,36.0023536],[139.0555565,36.0023676],[139.0555636,36.0023784],[139.0556606,36.002526],[139.0557153,36.0027206],[139.055781,36.0028787],[139.0558679,36.0030281],[139.0558751,36.0031937],[139.0559627,36.0033444],[139.0560054,36.0035133],[139.055935,36.0037012],[139.0558592,36.0037593],[139.0558863,36.0038371],[139.0559445,36.0039116],[139.0560411,36.0040145],[139.0561926,36.0042103],[139.0562979,36.0044395],[139.0562066,36.0044517],[139.0561442,36.0044601],[139.0560286,36.0044776],[139.0560019,36.0044792],[139.0559224,36.0043229],[139.0557686,36.0042353],[139.0555802,36.004099],[139.0555121,36.0040037],[139.0554335,36.0037146],[139.0555031,36.0035386],[139.0555631,36.0034412],[139.0555651,36.0033728],[139.0555348,36.0032924],[139.0554439,36.003156],[139.0554335,36.0030151],[139.0554003,36.0027682],[139.0553417,36.002619],[139.0552792,36.0024998],[139.055129,36.0023754],[139.0551463,36.0023627],[139.0551762,36.0023403],[139.0551823,36.0023358],[139.0552141,36.0023174],[139.0552321,36.0023071],[139.0552802,36.0022803],[139.0553352,36.0022499],[139.0555302,36.0023536]]]},"properties":{"layer":"landslide","class_code":"1","class_label":"急傾斜地の崩落","status_code":"0","status_label":"特別警戒区域指定済み"}},{"type":"Feature","id":"lsld_886a43a6-a56d-4c9c-9df7-26904c7c0cd9","geometry":{"type":"Polygon","coordinates":[[[139.0548417,36.0013785],[139.0549166,36.0014804],[139.0549851,36.0016118],[139.0550009,36.0017433],[139.0549851,36.0017979],[139.0550256,36.001818],[139.0550468,36.0018536],[139.055222,36.0019451],[139.0552775,36.002043],[139.05532,36.0021476],[139.0553351,36.0022495],[139.0552802,36.0022803],[139.0552321,36.0023071],[139.0552213,36.0023131],[139.0552141,36.0023174],[139.0551762,36.0023403],[139.0551714,36.0023432],[139.0551289,36.0023751],[139.0549839,36.002306],[139.0549131,36.0022186],[139.0549013,36.0021716],[139.0547182,36.0020297],[139.0547062,36.00199],[139.0546631,36.0018839],[139.0546656,36.0018415],[139.0546468,36.0017857],[139.0545012,36.0017103],[139.0544387,36.0016412],[139.0544002,36.0016048],[139.0544189,36.0015889],[139.0545676,36.0014529],[139.0546161,36.0014133],[139.054691,36.0013443],[139.0547258,36.0013024],[139.0547672,36.0012526],[139.0547736,36.0012449],[139.0548417,36.0013785]]]},"properties":{"layer":"landslide","class_code":"1","class_label":"急傾斜地の崩落","status_code":"0","status_label":"特別警戒区域指定済み"}},{"type":"Feature","id":"lsld_8cb4331f-d23e-4f49-92d0-aeb44ece7c9f","geometry":{"type":"Polygon","coordinates":[[[139.0565128,36.0031918],[139.0564521,36.0032858],[139.0564318,36.0032883],[139.0564102,36.0032909],[139.0564031,36.0032917],[139.0563723,36.0032097],[139.056365,36.0031904],[139.0563527,36.0030682],[139.0564064,36.0030532],[139.0564508,36.0030408],[139.0564805,36.0030325],[139.0565128,36.0031918]]]},"properties":{"layer":"landslide","class_code":"1","class_label":"急傾斜地の崩落","status_code":"0","status_label":"特別警戒区域指定済み"}},{"type":"Feature","id":"lsld_b77923e4-7895-4da0-aa16-1ee4eb68d980","geometry":{"type":"Polygon","coordinates":[[[139.0584931,36.0057363],[139.0584612,36.0057634],[139.0584309,36.0058007],[139.0584007,36.0058359],[139.0583615,36.0058811],[139.0583141,36.0059358],[139.0583101,36.0059403],[139.0581608,36.0057858],[139.0581336,36.0056275],[139.0582033,36.0054599],[139.05829,36.0053398],[139.0583848,36.0052174],[139.0583672,36.005152],[139.0583246,36.0050928],[139.0583193,36.0048693],[139.0583244,36.0047512],[139.0582992,36.0046109],[139.0583194,36.0045461],[139.0581694,36.00441],[139.0581908,36.0041851],[139.0582253,36.0040044],[139.0583107,36.0039092],[139.0583302,36.0039166],[139.0583831,36.0039377],[139.0584011,36.0039449],[139.0584654,36.0039764],[139.0585165,36.0040078],[139.058569,36.004036],[139.0586254,36.0040642],[139.0586673,36.0040859],[139.0587382,36.0041206],[139.0587828,36.0041402],[139.0588075,36.0041546],[139.0587902,36.0041856],[139.0587816,36.004198],[139.0587874,36.0042252],[139.0588042,36.0042817],[139.0589573,36.004599],[139.0589541,36.0046315],[139.0589753,36.00492],[139.0589845,36.0049233],[139.0589897,36.0049332],[139.0587998,36.0053666],[139.0586672,36.0054915],[139.0586043,36.0055905],[139.0585092,36.0056264],[139.0584785,36.0056885],[139.0584931,36.0057363]]]},"properties":{"layer":"landslide","class_code":"1","class_label":"急傾斜地の崩落","status_code":"0","status_label":"特別警戒区域指定済み"}},{"type":"Feature","id":"lsld_467f50b4-79e5-4354-a917-1181b4f1ac50","geometry":{"type":"Polygon","coordinates":[[[139.0557652,36.0018696],[139.0558044,36.0018701],[139.0558209,36.0018703],[139.0558195,36.0018707],[139.0557986,36.0019943],[139.055723,36.0020098],[139.0556996,36.0020146],[139.0556961,36.0020106],[139.0556783,36.00199],[139.0556703,36.0019807],[139.0557143,36.001971],[139.0557342,36.0019666],[139.05574,36.0018697],[139.0557481,36.0018693],[139.0557652,36.0018696]]]},"properties":{"layer":"landslide","class_code":"1","class_label":"急傾斜地の崩落","status_code":"0","status_label":"特別警戒区域指定済み"}},{"type":"Feature","id":"lsld_a12597a0-4e99-47ac-be1a-1c7fce5a9e79","geometry":{"type":"Polygon","coordinates":[[[139.0557735,36.0023642],[139.055724,36.0023789],[139.0556862,36.002293],[139.0556567,36.0022257],[139.0556961,36.0022183],[139.0557307,36.0022813],[139.0557735,36.0023642]]]},"properties":{"layer":"landslide","class_code":"1","class_label":"急傾斜地の崩落","status_code":"0","status_label":"特別警戒区域指定済み"}}]}