{"type":"FeatureCollection","properties":{"mesh_code":"54390068","source":"PLATEAU秩父市2025","layer":"landslide"},"features":[{"type":"Feature","id":"lsld_6cbc0836-9bb7-4b49-aec9-94536228f15d","geometry":{"type":"Polygon","coordinates":[[[139.1010451,36.057202],[139.1009423,36.0572032],[139.1009343,36.0572019],[139.1008698,36.0571915],[139.1007722,36.0571758],[139.100562,36.0570987],[139.1003801,36.0570251],[139.1003734,36.0570231],[139.1003255,36.0570089],[139.1002517,36.0569869],[139.1001657,36.0569612],[139.1,36.05690498474074],[139.1,36.056608161834774],[139.100055,36.0565121],[139.1001152,36.0564702],[139.1001704,36.0564317],[139.1001894,36.0562056],[139.1004679,36.0558967],[139.1004688,36.0558957],[139.1005847,36.0559868],[139.100644,36.0560537],[139.1006719,36.0560851],[139.1007477,36.056138],[139.1007614,36.0561457],[139.1007622,36.0561461],[139.1008666,36.0562047],[139.1008686,36.0562058],[139.1009026,36.0562248],[139.1011131,36.0563287],[139.1012012,36.0563665],[139.1012103,36.0563704],[139.1012113,36.0563708],[139.1012634,36.0563932],[139.1012652,36.056394],[139.1012733,36.0564054],[139.1013197,36.0564706],[139.1013146,36.0564837],[139.1012953,36.0571727],[139.1010889,36.0571159],[139.1010451,36.057202]]]},"properties":{"layer":"landslide","class_code":"1","class_label":"急傾斜地の崩落","status_code":"0","status_label":"特別警戒区域指定済み"}},{"type":"Feature","id":"lsld_e0c6f787-a3db-4a00-a07f-c9475e35849a","geometry":{"type":"Polygon","coordinates":[[[139.10217,36.0520515],[139.1023223,36.0520907],[139.1023865,36.0521072],[139.1023881,36.0521076],[139.1023987,36.0521107],[139.1024304,36.0521197],[139.1024432,36.0521234],[139.1024869,36.052136],[139.1026229,36.0522117],[139.1027446,36.0523483],[139.1027607,36.0523609],[139.1027982,36.0523902],[139.102809,36.0523987],[139.1028921,36.0524376],[139.1028818,36.0524489],[139.1028785,36.0524569],[139.102992,36.0526337],[139.1030093,36.0526569],[139.1030006,36.0526678],[139.1029462,36.0527182],[139.1029584,36.0527694],[139.1029108,36.0528437],[139.1029046,36.0528477],[139.1028569,36.0528779],[139.1027838,36.052924],[139.1026598,36.0529948],[139.1025772,36.053042],[139.1024177,36.053134],[139.1024051,36.0531382],[139.1024035,36.0531387],[139.1022838,36.0531777],[139.1022544,36.0531873],[139.1018901,36.0533059],[139.1018383,36.0531667],[139.1018149,36.0531037],[139.1018027,36.0528663],[139.1018023,36.0528338],[139.1018012,36.0527314],[139.1018,36.0526234],[139.1016828,36.0524105],[139.1016438,36.0522172],[139.1018756,36.0520194],[139.1019148,36.0519859],[139.10217,36.0520515]]]},"properties":{"layer":"landslide","class_code":"1","class_label":"急傾斜地の崩落","status_code":"0","status_label":"特別警戒区域指定済み"}},{"type":"Feature","id":"lsld_5276f1f3-b669-4b37-8817-3e4d0bf2c03c","geometry":{"type":"Polygon","coordinates":[[[139.1010287,36.055507],[139.1010426,36.0555266],[139.1011283,36.0556471],[139.1011468,36.055673],[139.1011504,36.0556782],[139.1011662,36.0557003],[139.1012109,36.0557631],[139.1012121,36.0557649],[139.1012519,36.0558208],[139.1013238,36.0559858],[139.1013491,36.0561028],[139.1013486,36.0561624],[139.1013429,36.0562316],[139.1013376,36.0562953],[139.1013302,36.0563852],[139.1013252,36.056401],[139.1013272,36.0564235],[139.101325,36.0564444],[139.1013426,36.0564577],[139.1013231,36.0564626],[139.1013064,36.0564304],[139.1012733,36.0564054],[139.101262,36.0563968],[139.1012612,36.0563965],[139.1012107,36.0563712],[139.1012102,36.056371],[139.1012012,36.0563665],[139.1011614,36.0563466],[139.1008686,36.0562058],[139.1008647,36.0562039],[139.1007918,36.0561689],[139.1007622,36.0561461],[139.1007603,36.0561447],[139.1006589,36.0560669],[139.100644,36.0560537],[139.1004679,36.0558967],[139.1004653,36.0558944],[139.1005274,36.0557938],[139.1005803,36.055708],[139.1005559,36.055573],[139.1007235,36.0554717],[139.1007506,36.0554553],[139.1009509,36.0553678],[139.1010287,36.055507]]]},"properties":{"layer":"landslide","class_code":"1","class_label":"急傾斜地の崩落","status_code":"0","status_label":"特別警戒区域指定済み"}},{"type":"Feature","id":"lsld_70ca1b4f-3b4c-40d5-ac1d-91c0600e402d","geometry":{"type":"Polygon","coordinates":[[[139.1028951,36.0542047],[139.1021774,36.0545854],[139.1018805,36.0545949],[139.1018663,36.0545953],[139.1018258,36.0545963],[139.1017831,36.0545945],[139.1017743,36.0545862],[139.1017682,36.0545804],[139.1017186,36.0545702],[139.1016792,36.0545621],[139.1015874,36.0545432],[139.1015164,36.0545285],[139.1014951,36.0545232],[139.1014372,36.0545089],[139.1014204,36.0545036],[139.1012856,36.0544612],[139.1015395,36.0541986],[139.1015807,36.0540695],[139.1016846,36.0541458],[139.1017217,36.0539954],[139.1017333,36.0537563],[139.1017382,36.0536058],[139.1017424,36.0534788],[139.1017317,36.0534378],[139.1018383,36.0531667],[139.1019035,36.0530009],[139.1022544,36.0531873],[139.1022603,36.0531904],[139.1022914,36.0532069],[139.102368,36.0532476],[139.1023739,36.0532508],[139.1023761,36.0532518],[139.1024023,36.0532647],[139.102479,36.0533023],[139.1025888,36.0533711],[139.102747,36.0534725],[139.1028347,36.053566],[139.102852,36.0535844],[139.1028776,36.0536108],[139.1029395,36.0536746],[139.102947,36.0536811],[139.1029425,36.0536851],[139.1031235,36.0541809],[139.1031191,36.054182],[139.1030462,36.0542005],[139.1030451,36.0541989],[139.1030343,36.0542014],[139.102998,36.0542059],[139.1029696,36.0542076],[139.1029613,36.0541978],[139.1028966,36.0541947],[139.1028951,36.0542047]]]},"properties":{"layer":"landslide","class_code":"1","class_label":"急傾斜地の崩落","status_code":"0","status_label":"特別警戒区域指定済み"}},{"type":"Feature","id":"lsld_30f7bf5b-177a-42f3-aca7-eae22cde53ff","geometry":{"type":"Polygon","coordinates":[[[139.1014679,36.0549745],[139.1015003,36.0550354],[139.1015243,36.0550805],[139.1015254,36.0550826],[139.1015262,36.0550908],[139.1015265,36.0550939],[139.1015305,36.0551357],[139.1015311,36.0551417],[139.1015397,36.0552316],[139.1014083,36.055245],[139.1014129,36.0552658],[139.1015139,36.0553859],[139.1015564,36.0554655],[139.101618,36.0555628],[139.1015142,36.0555947],[139.1014459,36.0556157],[139.1012588,36.0556732],[139.1012396,36.0556791],[139.1012229,36.0556842],[139.101214,36.0556867],[139.1011814,36.055696],[139.1011662,36.0557003],[139.1011057,36.0557174],[139.1009067,36.0557739],[139.1008668,36.0557852],[139.1007529,36.0558175],[139.1007345,36.0557885],[139.1006585,36.0556685],[139.1007235,36.0554717],[139.1007787,36.0553048],[139.100931,36.0551807],[139.1009658,36.0551523],[139.1010147,36.0551122],[139.101216,36.054947],[139.1012455,36.0549228],[139.1014679,36.0549745]]]},"properties":{"layer":"landslide","class_code":"1","class_label":"急傾斜地の崩落","status_code":"0","status_label":"特別警戒区域指定済み"}},{"type":"Feature","id":"lsld_d6aa2657-938e-4762-b66c-3a4d0b20c6f5","geometry":{"type":"Polygon","coordinates":[[[139.1026436,36.0505788],[139.1026769,36.0506114],[139.1026525,36.0505968],[139.1026057,36.0505689],[139.1025845,36.0505624],[139.1025294,36.0505458],[139.1025079,36.0505393],[139.1025058,36.0505387],[139.1023648,36.0505193],[139.102184,36.0505325],[139.102178,36.050533],[139.1020582,36.0505387],[139.1020031,36.0505414],[139.1016301,36.0505593],[139.1015952,36.050426],[139.1015798,36.0503672],[139.1016039,36.0503037],[139.1017106,36.0500224],[139.1021454,36.0500465],[139.1021646,36.0500495],[139.1025962,36.0501166],[139.1025839,36.0501581],[139.1025815,36.0501667],[139.102571,36.0502044],[139.1025589,36.0502474],[139.102549,36.050283],[139.1025502,36.0503244],[139.1025557,36.0503358],[139.1023778,36.0502235],[139.1024328,36.0503141],[139.1024675,36.0503713],[139.1025761,36.0505128],[139.1026436,36.0505788]]]},"properties":{"layer":"landslide","class_code":"1","class_label":"急傾斜地の崩落","status_code":"0","status_label":"特別警戒区域指定済み"}},{"type":"Feature","id":"lsld_8cafb099-4dbf-4a21-8152-4d137d200f32","geometry":{"type":"Polygon","coordinates":[[[139.10927501883808,36.05],[139.1093008,36.0500568],[139.1096879,36.0505042],[139.1096861,36.0505209],[139.1096736,36.0505142],[139.1095905,36.0504752],[139.1095189,36.0504416],[139.1094777,36.0504223],[139.1092815,36.0503693],[139.1089803,36.0503583],[139.1088794,36.0503401],[139.1088352,36.0503321],[139.1087613,36.050321],[139.1085934,36.0502957],[139.1083341,36.0502567],[139.108406,36.050083],[139.1085405,36.0500225],[139.1085905737393,36.05],[139.10927501883808,36.05]]]},"properties":{"layer":"landslide","class_code":"1","class_label":"急傾斜地の崩落","status_code":"0","status_label":"特別警戒区域指定済み"}},{"type":"Feature","id":"lsld_17ce87ee-2bf4-45c9-8456-50ea4c552e64","geometry":{"type":"Polygon","coordinates":[[[139.100362,36.0577066],[139.1002544,36.057814],[139.1001621,36.057764],[139.1001546,36.0577599],[139.1001132,36.0577254],[139.1,36.05763101525885],[139.1,36.05687743640124],[139.1001926,36.0568862],[139.1002517,36.0569869],[139.100355,36.0571629],[139.1003735,36.0572028],[139.1003766,36.0572095],[139.1004173,36.0572978],[139.1004213,36.0573063],[139.1004217,36.0573255],[139.1004218,36.0573298],[139.1004254,36.0574971],[139.1004218,36.0575663],[139.1004212,36.0575682],[139.1004057,36.0576168],[139.1004036,36.0576234],[139.1004186,36.0577058],[139.1003803,36.0577013],[139.100362,36.0577066]]]},"properties":{"layer":"landslide","class_code":"1","class_label":"急傾斜地の崩落","status_code":"0","status_label":"特別警戒区域指定済み"}},{"type":"Feature","id":"lsld_ab79df03-e8dc-4af2-a46c-1c58e9a56be5","geometry":{"type":"Polygon","coordinates":[[[139.1019745,36.0501357],[139.1019778,36.0501364],[139.1020304,36.0501478],[139.1020629,36.0501548],[139.1021335,36.0501702],[139.1021784,36.0501799],[139.1022018,36.0501861],[139.1023043,36.0502134],[139.1023073,36.0502142],[139.1024217,36.0503133],[139.1024323,36.0503136],[139.1024328,36.0503141],[139.1024786,36.0503626],[139.1026062,36.0505031],[139.1026436,36.0505788],[139.1026525,36.0505968],[139.1029053,36.0511088],[139.1028931,36.0511205],[139.1028891,36.0511219],[139.102863,36.0512581],[139.1027808,36.0514312],[139.1026757,36.0515925],[139.1026234,36.0516536],[139.1026046,36.0516574],[139.1025631,36.051666],[139.1023721,36.0517905],[139.1023673,36.0517964],[139.102329,36.0518226],[139.1022851,36.051841],[139.1022249,36.0518303],[139.102215,36.0518286],[139.102158,36.0518258],[139.1018415,36.0518105],[139.1017278,36.051805],[139.1012875,36.0517836],[139.1013956,36.0514658],[139.1014411,36.0513271],[139.1016553,36.051296],[139.10173,36.0511793],[139.1016614,36.0510724],[139.1015812,36.050986],[139.1015405,36.0509222],[139.1015588,36.0505971],[139.1015884,36.050547],[139.1015952,36.050426],[139.1015989,36.0503598],[139.101697,36.0502615],[139.1018495,36.0501086],[139.1019745,36.0501357]]]},"properties":{"layer":"landslide","class_code":"1","class_label":"急傾斜地の崩落","status_code":"0","status_label":"特別警戒区域指定済み"}},{"type":"Feature","id":"lsld_22c85652-0d56-4a85-b717-54d1d2c3d6cd","geometry":{"type":"Polygon","coordinates":[[[139.1008698,36.0571915],[139.1007722,36.0571758],[139.100562,36.0570987],[139.1003801,36.0570251],[139.1003734,36.0570231],[139.1003255,36.0570089],[139.1002517,36.0569869],[139.1002905,36.0569192],[139.1004322,36.0566723],[139.1005611,36.0565808],[139.100614,36.0562322],[139.1007614,36.0561457],[139.1007622,36.0561461],[139.1008666,36.0562047],[139.1008686,36.0562058],[139.1009026,36.0562248],[139.1011131,36.0563287],[139.1012012,36.0563665],[139.1012103,36.0563704],[139.1012102,36.056371],[139.1012072,36.056388],[139.1011676,36.0570611],[139.1009908,36.0570002],[139.1008698,36.0571915]]]},"properties":{"layer":"landslide","class_code":"1","class_label":"急傾斜地の崩落","status_code":"0","status_label":"特別警戒区域指定済み"}},{"type":"Feature","id":"lsld_658a349d-12ee-4392-a659-0159d9214eb9","geometry":{"type":"Polygon","coordinates":[[[139.1002719,36.0575939],[139.1001132,36.0577254],[139.1,36.05763101525885],[139.1,36.05726790168454],[139.1001836,36.0571918],[139.1003735,36.0572028],[139.1003766,36.0572095],[139.1004173,36.0572978],[139.1004213,36.0573063],[139.1004217,36.0573255],[139.1004218,36.0573298],[139.1004254,36.0574971],[139.1004218,36.0575663],[139.1004212,36.0575682],[139.1003458,36.0575637],[139.1002719,36.0575939]]]},"properties":{"layer":"landslide","class_code":"1","class_label":"急傾斜地の崩落","status_code":"0","status_label":"特別警戒区域指定済み"}},{"type":"Feature","id":"lsld_49e8559e-0dd2-4e34-8676-00a8baa08393","geometry":{"type":"Polygon","coordinates":[[[139.1020304,36.0501478],[139.1020629,36.0501548],[139.1021335,36.0501702],[139.1023157,36.0503034],[139.1024519,36.0504257],[139.1024988,36.0504817],[139.1025045,36.0505325],[139.1025079,36.0505393],[139.1026911,36.050905],[139.1027505,36.0510237],[139.1026591,36.0514815],[139.1025631,36.051666],[139.1021729,36.051774],[139.102158,36.0518258],[139.1018415,36.0518105],[139.1017278,36.051805],[139.1017897,36.0515361],[139.1019907,36.0514959],[139.1021099,36.0513438],[139.1020901,36.0512086],[139.1020671,36.0511278],[139.1020108,36.0510331],[139.1019629,36.0508835],[139.1019592,36.0508063],[139.1020031,36.0505414],[139.1020083,36.0505098],[139.1019658,36.0503477],[139.1019778,36.0501364],[139.1020304,36.0501478]]]},"properties":{"layer":"landslide","class_code":"1","class_label":"急傾斜地の崩落","status_code":"0","status_label":"特別警戒区域指定済み"}},{"type":"Feature","id":"lsld_97489a82-e624-4d06-9262-f498b50c8080","geometry":{"type":"Polygon","coordinates":[[[139.1023865,36.0521072],[139.1023881,36.0521076],[139.1023987,36.0521107],[139.1024304,36.0521197],[139.1024432,36.0521234],[139.1024869,36.052136],[139.1026229,36.0522117],[139.1027446,36.0523483],[139.1027607,36.0523609],[139.1027218,36.052403],[139.1027217,36.0524097],[139.1028726,36.0527298],[139.1028824,36.0527406],[139.1028281,36.0527977],[139.1028569,36.0528779],[139.1027838,36.052924],[139.1026598,36.0529948],[139.1025772,36.053042],[139.1024177,36.053134],[139.1024051,36.0531382],[139.1024035,36.0531387],[139.1022838,36.0531777],[139.1022309,36.0530314],[139.1022169,36.0529929],[139.1022239,36.0528241],[139.1022242,36.0526308],[139.1021135,36.0524214],[139.1021078,36.0524104],[139.1020665,36.0522456],[139.1023223,36.0520907],[139.1023865,36.0521072]]]},"properties":{"layer":"landslide","class_code":"1","class_label":"急傾斜地の崩落","status_code":"0","status_label":"特別警戒区域指定済み"}},{"type":"Feature","id":"lsld_f42122e2-2b30-472a-8c28-cbe75c62a0c4","geometry":{"type":"Polygon","coordinates":[[[139.1011662,36.0557003],[139.1012109,36.0557631],[139.1012121,36.0557649],[139.1012519,36.0558208],[139.1013238,36.0559858],[139.1013491,36.0561028],[139.1013486,36.0561624],[139.1013429,36.0562316],[139.101324,36.056263],[139.101314,36.0562764],[139.101259,36.0563386],[139.1012113,36.0563708],[139.1012107,36.0563712],[139.1012102,36.056371],[139.1012012,36.0563665],[139.1011614,36.0563466],[139.1008686,36.0562058],[139.1008647,36.0562039],[139.1007918,36.0561689],[139.1007622,36.0561461],[139.1007603,36.0561447],[139.1008464,36.0559779],[139.1009036,36.0557842],[139.1009067,36.0557739],[139.1009086,36.0557675],[139.1010698,36.0556909],[139.1010881,36.055688],[139.1011504,36.0556782],[139.1011662,36.0557003]]]},"properties":{"layer":"landslide","class_code":"1","class_label":"急傾斜地の崩落","status_code":"0","status_label":"特別警戒区域指定済み"}},{"type":"Feature","id":"lsld_bc90a4cf-809b-49ac-8103-0eb4ee2f8f60","geometry":{"type":"Polygon","coordinates":[[[139.1022914,36.0532069],[139.102368,36.0532476],[139.1023739,36.0532508],[139.1023761,36.0532518],[139.1024023,36.0532647],[139.102479,36.0533023],[139.1025888,36.0533711],[139.102747,36.0534725],[139.1028347,36.053566],[139.10282,36.0535819],[139.102993,36.0541233],[139.102895,36.0541369],[139.1027289,36.0541647],[139.1027252,36.0541952],[139.102042,36.0545471],[139.1017319,36.0545457],[139.1015874,36.0545432],[139.1015164,36.0545285],[139.1014951,36.0545232],[139.1014372,36.0545089],[139.1014204,36.0545036],[139.1016328,36.0543733],[139.1018724,36.0543423],[139.1021052,36.054195],[139.102139,36.0540624],[139.1021482,36.0538327],[139.1021394,36.0536142],[139.1021566,36.0534348],[139.1021717,36.0533992],[139.1022603,36.0531904],[139.1022914,36.0532069]]]},"properties":{"layer":"landslide","class_code":"1","class_label":"急傾斜地の崩落","status_code":"0","status_label":"特別警戒区域指定済み"}},{"type":"Feature","id":"lsld_92d0f00d-b0db-42b2-adb7-879858dbb1b7","geometry":{"type":"Polygon","coordinates":[[[139.1013581,36.055016],[139.1015003,36.0550354],[139.1015243,36.0550805],[139.1015254,36.0550826],[139.1015262,36.0550908],[139.1015265,36.0550939],[139.1013499,36.0551054],[139.1013359,36.0551268],[139.101291,36.0551961],[139.1013637,36.055348],[139.1013795,36.0555052],[139.1014459,36.0556157],[139.1012588,36.0556732],[139.1012396,36.0556791],[139.1012229,36.0556842],[139.101214,36.0556867],[139.1011814,36.055696],[139.1011662,36.0557003],[139.1011057,36.0557174],[139.1010881,36.055688],[139.1010235,36.0555793],[139.1010426,36.0555266],[139.1010916,36.0553912],[139.1011175,36.0553199],[139.1011499,36.0551747],[139.1011978,36.0551205],[139.1012977,36.0550077],[139.1013581,36.055016]]]},"properties":{"layer":"landslide","class_code":"1","class_label":"急傾斜地の崩落","status_code":"0","status_label":"特別警戒区域指定済み"}},{"type":"Feature","id":"lsld_b692db36-611b-40e0-a580-9509f5ecb76f","geometry":{"type":"Polygon","coordinates":[[[139.1025294,36.0505458],[139.1025079,36.0505393],[139.1025058,36.0505387],[139.1023648,36.0505193],[139.102184,36.0505325],[139.102178,36.050533],[139.1020582,36.0505387],[139.1020123,36.0503725],[139.1020304,36.0501478],[139.102031,36.0501405],[139.1022067,36.0500791],[139.1025815,36.0501667],[139.102571,36.0502044],[139.102268,36.0501117],[139.1023043,36.0502134],[139.102328,36.0502798],[139.1024623,36.0503995],[139.1025294,36.0505458]]]},"properties":{"layer":"landslide","class_code":"1","class_label":"急傾斜地の崩落","status_code":"0","status_label":"特別警戒区域指定済み"}},{"type":"Feature","id":"lsld_faf2de2d-c423-4835-8f1c-56b4e5eddd5f","geometry":{"type":"Polygon","coordinates":[[[139.1091357429228,36.05],[139.1091421,36.0500145],[139.1095246,36.0504081],[139.1095189,36.0504416],[139.1094777,36.0504223],[139.1092815,36.0503693],[139.1089803,36.0503583],[139.1088794,36.0503401],[139.1088352,36.0503321],[139.1087613,36.050321],[139.1088368,36.0501617],[139.10894476791276,36.05],[139.1091357429228,36.05]]]},"properties":{"layer":"landslide","class_code":"1","class_label":"急傾斜地の崩落","status_code":"0","status_label":"特別警戒区域指定済み"}},{"type":"Feature","id":"lsld_2e5ff2b8-83e0-4624-b009-4f92ac3a8847","geometry":{"type":"Polygon","coordinates":[[[139.1005676,36.0541637],[139.1014569,36.0548835],[139.1016794,36.0550636],[139.1016695,36.0550716],[139.1016463,36.0550909],[139.1016087,36.0551221],[139.1015891,36.0551383],[139.1015305,36.0551357],[139.1013359,36.0551268],[139.1011978,36.0551205],[139.1010147,36.0551122],[139.1008738,36.0551058],[139.1,36.05506602386927],[139.1,36.054069745175845],[139.1000603,36.0540151],[139.1001937,36.0538611],[139.1004523,36.0540704],[139.1005676,36.0541637]]]},"properties":{"layer":"landslide","class_code":"2","class_label":"土石流","status_code":"0","status_label":"特別警戒区域指定済み"}},{"type":"Feature","id":"lsld_5b30a2dd-a625-41ab-82da-3694a28b28fe","geometry":{"type":"Polygon","coordinates":[[[139.1006341,36.0541321],[139.1016134,36.0547355],[139.1016079,36.0547485],[139.1016037,36.0547586],[139.101588,36.0547959],[139.1015543,36.0548761],[139.1014569,36.0548835],[139.1013616,36.0548908],[139.101089,36.0549117],[139.1007457,36.0549379],[139.1,36.054994999382615],[139.1,36.05404450276243],[139.100076,36.0539885],[139.1001799,36.0538522],[139.1004836,36.0540394],[139.1006341,36.0541321]]]},"properties":{"layer":"landslide","class_code":"2","class_label":"土石流","status_code":"0","status_label":"特別警戒区域指定済み"}},{"type":"Feature","id":"lsld_58e4e13a-ab46-458a-a91c-59f121e27ca6","geometry":{"type":"Polygon","coordinates":[[[139.1,36.052002798026024],[139.1001726,36.0520824],[139.1003955,36.0521852],[139.1006184,36.0522879],[139.1008413,36.0523907],[139.1010642,36.0524935],[139.101287,36.0525963],[139.1015099,36.052699],[139.1017311,36.052801],[139.1017328,36.0528018],[139.1018023,36.0528338],[139.1019557,36.0529046],[139.1021786,36.0530073],[139.1022309,36.0530314],[139.1022901,36.0530587],[139.1024037,36.0531079],[139.1024035,36.0531387],[139.1024027,36.0532118],[139.1024026,36.0532321],[139.1024024,36.0532487],[139.1024023,36.0532647],[139.1024021,36.0532866],[139.1022926,36.0533416],[139.1021821,36.0533942],[139.1021717,36.0533992],[139.101961,36.0534996],[139.1017399,36.053605],[139.1017382,36.0536058],[139.1015189,36.0537103],[139.1012978,36.0538157],[139.1010768,36.053921],[139.1008557,36.0540264],[139.1006347,36.0541318],[139.1006341,36.0541321],[139.1005676,36.0541637],[139.1004136,36.0542371],[139.1001926,36.0543425],[139.1001644,36.0543563],[139.1000335,36.0544203],[139.1000328,36.0544206],[139.100022,36.0544259],[139.1000001,36.0542639],[139.1,36.054263817557256],[139.1,36.052002798026024]]]},"properties":{"layer":"landslide","class_code":"2","class_label":"土石流","status_code":"0","status_label":"特別警戒区域指定済み"}},{"type":"Feature","id":"lsld_022f2ec0-f0a9-409c-9b0c-f8fe23893e07","geometry":{"type":"Polygon","coordinates":[[[139.1024019,36.0520657],[139.1024159,36.0520821],[139.1024405,36.0521111],[139.1024304,36.0521197],[139.1024037,36.0521426],[139.1022639,36.0522721],[139.1021135,36.0524214],[139.1018012,36.0527314],[139.1017311,36.052801],[139.1004836,36.0540394],[139.1004523,36.0540704],[139.1001644,36.0543563],[139.1000356,36.0544841],[139.1000334,36.0544325],[139.1000328,36.0544206],[139.1000298,36.0543496],[139.1000257,36.0542545],[139.1,36.05423348455696],[139.1,36.051794097436904],[139.1001289,36.0518096],[139.1003824,36.05184],[139.100636,36.0518705],[139.1008895,36.0519009],[139.1011431,36.0519314],[139.1013966,36.0519619],[139.1016502,36.0519923],[139.1018756,36.0520194],[139.1019038,36.0520228],[139.1021573,36.0520532],[139.10217,36.0520515],[139.1023478,36.0520278],[139.1023663,36.0520236],[139.1023868,36.0520478],[139.1024019,36.0520657]]]},"properties":{"layer":"landslide","class_code":"2","class_label":"土石流","status_code":"0","status_label":"特別警戒区域指定済み"}},{"type":"Feature","id":"lsld_5b54f5f3-6bda-4736-8801-56967a6fec90","geometry":{"type":"Polygon","coordinates":[[[139.1,36.05617514000001],[139.100056,36.0563185],[139.1001152,36.0564702],[139.1001334,36.0565169],[139.1002109,36.0567153],[139.1002884,36.0569137],[139.1002905,36.0569192],[139.1003255,36.0570089],[139.1003658,36.0571121],[139.1004168,36.0571737],[139.1004849,36.0572736],[139.1004554,36.0572998],[139.1004424,36.0573113],[139.1004243,36.0573275],[139.1004218,36.0573298],[139.1003855,36.057362],[139.1002352,36.0573352],[139.100135,36.0573173],[139.1,36.057293150234],[139.1,36.05617514000001]]]},"properties":{"layer":"landslide","class_code":"2","class_label":"土石流","status_code":"0","status_label":"特別警戒区域指定済み"}},{"type":"Feature","id":"lsld_840e8515-b928-426e-bad2-869cf47c7e53","geometry":{"type":"Polygon","coordinates":[[[139.1085361461688,36.05],[139.1085405,36.0500225],[139.1085934,36.0502957],[139.1086181,36.0504235],[139.1086967,36.0506009],[139.1088709,36.0507092],[139.1088148,36.0507757],[139.1087811,36.0508156],[139.1087597,36.050841],[139.1087252,36.050882],[139.1085419,36.0507777],[139.1055026,36.0502316],[139.1054603,36.0500467],[139.10542551020146,36.05],[139.1085361461688,36.05]]]},"properties":{"layer":"landslide","class_code":"2","class_label":"土石流","status_code":"0","status_label":"特別警戒区域指定済み"}},{"type":"Feature","id":"lsld_18015cd5-73aa-493f-8f5e-76439ac9924f","geometry":{"type":"Polygon","coordinates":[[[139.1022737831181,36.05],[139.1021646,36.0500495],[139.1019745,36.0501357],[139.101697,36.0502615],[139.1016039,36.0503037],[139.1012757,36.0504525],[139.1014313544901,36.05],[139.1022737831181,36.05]]]},"properties":{"layer":"landslide","class_code":"2","class_label":"土石流","status_code":"0","status_label":"特別警戒区域指定済み"}},{"type":"Feature","id":"lsld_2e14a7c7-c8ad-4085-8fb6-8c0b6e9e1496","geometry":{"type":"Polygon","coordinates":[[[139.1006079,36.0547575],[139.100743,36.0549344],[139.1007457,36.0549379],[139.1008738,36.0551058],[139.100878,36.0551113],[139.100931,36.0551807],[139.101013,36.0552882],[139.1010916,36.0553912],[139.1011481,36.0554651],[139.1012021,36.0555359],[139.1012774,36.0556385],[139.1012588,36.0556732],[139.1012523,36.0556853],[139.101243,36.0557029],[139.1012295,36.055728],[139.1012109,36.0557631],[139.1012025,36.0557788],[139.1010404,36.0557808],[139.1009379,36.0557834],[139.1009036,36.0557842],[139.1008668,36.0557852],[139.1007345,36.0557885],[139.1006817,36.0557899],[139.1005274,36.0557938],[139.1004255,36.0557964],[139.1001693,36.0558029],[139.1,36.05580719527713],[139.1,36.054262523853225],[139.1000298,36.0543496],[139.100034,36.054362],[139.1000335,36.0544203],[139.1000334,36.0544325],[139.1000323,36.0545463],[139.1001497,36.0546134],[139.1002768,36.0546142],[139.1004589,36.0545711],[139.1006079,36.0547575]]]},"properties":{"layer":"landslide","class_code":"2","class_label":"土石流","status_code":"0","status_label":"特別警戒区域指定済み"}},{"type":"Feature","id":"lsld_1f5b0686-0a4b-4ebf-aeda-bb3a43c251f2","geometry":{"type":"Polygon","coordinates":[[[139.1024027,36.0532118],[139.1024026,36.0532321],[139.1024024,36.0532487],[139.1023761,36.0532518],[139.1022919,36.0532618],[139.1022914,36.0532069],[139.1022913,36.0531964],[139.1024027,36.0532118]]]},"properties":{"layer":"landslide","class_code":"2","class_label":"土石流","status_code":"0","status_label":"特別警戒区域指定済み"}},{"type":"Feature","id":"lsld_475c7eae-fa78-40a8-bf30-f95140a064d8","geometry":{"type":"Polygon","coordinates":[[[139.1024019,36.0520657],[139.1024159,36.0520821],[139.1023987,36.0521107],[139.1023929,36.0521203],[139.1023865,36.0521072],[139.1023625,36.0520579],[139.1023868,36.0520478],[139.1024019,36.0520657]]]},"properties":{"layer":"landslide","class_code":"2","class_label":"土石流","status_code":"0","status_label":"特別警戒区域指定済み"}},{"type":"Feature","id":"lsld_6f5e8a41-52fc-4c68-923f-c78c4202c19c","geometry":{"type":"Polygon","coordinates":[[[139.1004554,36.0572998],[139.1004424,36.0573113],[139.1004243,36.0573275],[139.1004217,36.0573255],[139.1003279,36.0572528],[139.1003766,36.0572095],[139.100393,36.0571948],[139.1004554,36.0572998]]]},"properties":{"layer":"landslide","class_code":"2","class_label":"土石流","status_code":"0","status_label":"特別警戒区域指定済み"}},{"type":"Feature","id":"lsld_0ef9062d-7d16-4ba4-91b7-dfa32cb34710","geometry":{"type":"Polygon","coordinates":[[[139.1087811,36.0508156],[139.1087597,36.050841],[139.1085771,36.0507374],[139.1083447,36.0506751],[139.1082084,36.0505529],[139.1083791,36.0504573],[139.1084434,36.0505843],[139.108627,36.0506805],[139.1088148,36.0507757],[139.1087811,36.0508156]]]},"properties":{"layer":"landslide","class_code":"2","class_label":"土石流","status_code":"0","status_label":"特別警戒区域指定済み"}},{"type":"Feature","id":"lsld_4f97efb0-cdbc-4035-933d-d854c0880a88","geometry":{"type":"Polygon","coordinates":[[[139.1012396,36.0556791],[139.1012523,36.0556853],[139.101243,36.0557029],[139.1012295,36.055728],[139.1011814,36.055696],[139.1011468,36.055673],[139.1011223,36.0556567],[139.1011283,36.0556471],[139.1011392,36.0556296],[139.1012396,36.0556791]]]},"properties":{"layer":"landslide","class_code":"2","class_label":"土石流","status_code":"0","status_label":"特別警戒区域指定済み"}},{"type":"Feature","id":"lsld_9f748d24-4591-4fdb-b71d-44b733eb4d44","geometry":{"type":"Polygon","coordinates":[[[139.1012963,36.0548619],[139.1013616,36.0548908],[139.1014912,36.0549483],[139.1016695,36.0550716],[139.1016463,36.0550909],[139.1016087,36.0551221],[139.1015262,36.0550908],[139.101424,36.0550521],[139.1013581,36.055016],[139.1012389,36.0549507],[139.101216,36.054947],[139.101078,36.0549249],[139.101089,36.0549117],[139.1011465,36.0548424],[139.1012963,36.0548619]]]},"properties":{"layer":"landslide","class_code":"2","class_label":"土石流","status_code":"0","status_label":"特別警戒区域指定済み"}},{"type":"Feature","id":"lsld_2f4ce752-3cf9-4187-b2fe-2d8ab625423a","geometry":{"type":"Polygon","coordinates":[[[139.1016037,36.0547586],[139.101588,36.0547959],[139.101373,36.0547493],[139.1013083,36.0547357],[139.1013305,36.0546828],[139.1013956,36.0546955],[139.1016079,36.0547485],[139.1016037,36.0547586]]]},"properties":{"layer":"landslide","class_code":"2","class_label":"土石流","status_code":"0","status_label":"特別警戒区域指定済み"}}]}