{"type":"FeatureCollection","properties":{"mesh_code":"54390046","source":"PLATEAU秩父市2025","layer":"landslide"},"features":[{"type":"Feature","id":"lsld_5978fca4-31cf-4db8-9e9e-f98b3c0408db","geometry":{"type":"Polygon","coordinates":[[[139.086138,36.0349034],[139.0862189,36.0351094],[139.0863692,36.0353894],[139.0861842,36.0354219],[139.085957,36.0355245],[139.0858932,36.0355533],[139.0858604,36.0355681],[139.0857521,36.035617],[139.0855555,36.0356717],[139.0853164,36.0357434],[139.0851683,36.0357955],[139.0850817,36.035826],[139.0850159,36.0358491],[139.0849799,36.0358618],[139.0849095,36.0357305],[139.0848587,36.0356105],[139.0848119,36.0355085],[139.0849188,36.0352826],[139.0850185,36.0352429],[139.0850996,36.0352106],[139.0851021,36.0352095],[139.0852826,36.035132],[139.0854655,36.0350648],[139.085605,36.0350026],[139.0856251,36.0349937],[139.0857017,36.0349595],[139.0860914,36.0347858],[139.086138,36.0349034]]]},"properties":{"layer":"landslide","class_code":"1","class_label":"急傾斜地の崩落","status_code":"0","status_label":"特別警戒区域指定済み"}},{"type":"Feature","id":"lsld_07094233-964b-4a30-ad82-0f4791fa3a3e","geometry":{"type":"Polygon","coordinates":[[[139.0767724,36.035299],[139.0766745,36.035533],[139.0766592,36.0355709],[139.0766552,36.0355757],[139.076684,36.0356326],[139.0766842,36.035633],[139.0767461,36.0357647],[139.0768855,36.0359971],[139.0768489,36.0362995],[139.0766637,36.0362161],[139.0765772,36.0361771],[139.0765103,36.036147],[139.0764642,36.0361329],[139.0763988,36.0361129],[139.0763946,36.0361116],[139.076292,36.0360886],[139.0763147,36.0359951],[139.0762849,36.0359022],[139.0762256,36.035801],[139.0762253,36.0358005],[139.0762024,36.0357659],[139.0761473,36.0355439],[139.076177,36.0354478],[139.076179,36.0354157],[139.0761621,36.0353777],[139.0761616,36.035377],[139.0760744,36.0351892],[139.0760743,36.0351879],[139.0760743,36.0351876],[139.0760445,36.0351509],[139.0759507,36.0351461],[139.0759006,36.0351172],[139.0758424,36.0351286],[139.0758187,36.0351183],[139.0756547,36.0350939],[139.0756596,36.0350725],[139.0756646,36.0350349],[139.0756647,36.0350044],[139.0756648,36.0349861],[139.075664,36.0349665],[139.0756668,36.0349506],[139.075667,36.0349494],[139.075675,36.0349189],[139.0756901,36.0348608],[139.0757117,36.0347778],[139.0759437,36.0348107],[139.0762701,36.0347446],[139.076431,36.0347119],[139.0764908,36.0347288],[139.076638,36.0347614],[139.076638,36.0347666],[139.0766383,36.0347671],[139.076553,36.0348463],[139.0767627,36.0350401],[139.0767632,36.0350407],[139.0767724,36.035299]]]},"properties":{"layer":"landslide","class_code":"1","class_label":"急傾斜地の崩落","status_code":"0","status_label":"特別警戒区域指定済み"}},{"type":"Feature","id":"lsld_faf56e32-2876-4d54-b84d-da3b121ea88b","geometry":{"type":"Polygon","coordinates":[[[139.0816282,36.0346619],[139.0818273,36.0347778],[139.0821149,36.0349379],[139.0823099,36.0351409],[139.0823173,36.0351498],[139.0823444,36.0351888],[139.0823593,36.0352212],[139.0823605,36.0352236],[139.0823607,36.0352261],[139.0824437,36.0353655],[139.0824445,36.0353668],[139.0824573,36.0353989],[139.0824703,36.035423],[139.0824684,36.035451],[139.0824681,36.0354516],[139.0824472,36.035503],[139.0824309,36.0355432],[139.0824125,36.0355886],[139.082105,36.0357454],[139.0818176,36.0357779],[139.0816905,36.0357559],[139.0814559,36.0357151],[139.0811981,36.0356107],[139.0808742,36.035479],[139.0809434,36.0352831],[139.0809576,36.0351723],[139.0809613,36.035134],[139.0809645,36.0351005],[139.0810299,36.035086],[139.0810907,36.0350725],[139.0811246,36.035059],[139.0811651,36.0350368],[139.0812255,36.0349936],[139.0812696,36.0349555],[139.0813115,36.0349108],[139.0813685,36.0348513],[139.0814208,36.034803],[139.0814721,36.0347647],[139.0814731,36.034764],[139.081526,36.0347248],[139.0815347,36.0347184],[139.0815928,36.0346693],[139.0816035,36.0346603],[139.081605,36.0346605],[139.0816055,36.0346598],[139.0816282,36.0346619]]]},"properties":{"layer":"landslide","class_code":"1","class_label":"急傾斜地の崩落","status_code":"0","status_label":"特別警戒区域指定済み"}},{"type":"Feature","id":"lsld_3cc64701-7d7e-4a79-8e0d-ed6e8c2e2a1c","geometry":{"type":"Polygon","coordinates":[[[139.085957,36.0355245],[139.0858932,36.0355533],[139.0858604,36.0355681],[139.0857521,36.035617],[139.0855555,36.0356717],[139.0853164,36.0357434],[139.0851683,36.0357955],[139.0851077,36.0356595],[139.0850486,36.0355462],[139.0849978,36.0354355],[139.0851021,36.0352095],[139.0852826,36.035132],[139.0854655,36.0350648],[139.085605,36.0350026],[139.0856251,36.0349937],[139.0857017,36.0349595],[139.0857683,36.0351051],[139.0858293,36.0352836],[139.0859334,36.035466],[139.085957,36.0355245]]]},"properties":{"layer":"landslide","class_code":"1","class_label":"急傾斜地の崩落","status_code":"0","status_label":"特別警戒区域指定済み"}},{"type":"Feature","id":"lsld_a48946fe-5ac5-4929-b2f2-b6132d710081","geometry":{"type":"Polygon","coordinates":[[[139.0763843,36.0350007],[139.076563,36.0351681],[139.0765635,36.0351688],[139.0765834,36.0353364],[139.0765393,36.0354981],[139.0765175,36.0355663],[139.0765295,36.0356278],[139.0765544,36.0356758],[139.0765547,36.0356762],[139.0766154,36.035802],[139.0767031,36.0359936],[139.0766637,36.0362161],[139.0765772,36.0361771],[139.0765103,36.036147],[139.0764642,36.0361329],[139.0764993,36.0359896],[139.076462,36.0358458],[139.0764005,36.0357287],[139.0764002,36.0357282],[139.0763787,36.0356903],[139.0763472,36.0355609],[139.0763762,36.0354575],[139.0763668,36.0353828],[139.0763327,36.0353024],[139.0763323,36.0353019],[139.0762141,36.0351153],[139.0762494,36.0350984],[139.076203,36.0350467],[139.0760832,36.0350302],[139.0760334,36.0349891],[139.0759499,36.0349886],[139.0758929,36.0349623],[139.0756668,36.0349506],[139.075667,36.0349494],[139.075675,36.0349189],[139.0756901,36.0348608],[139.0759196,36.0348824],[139.0761209,36.034854],[139.0762462,36.0348372],[139.0762973,36.0348706],[139.0764401,36.0348978],[139.0764648,36.0349255],[139.076465,36.0349259],[139.0763843,36.0350007]]]},"properties":{"layer":"landslide","class_code":"1","class_label":"急傾斜地の崩落","status_code":"0","status_label":"特別警戒区域指定済み"}},{"type":"Feature","id":"lsld_7d4d916d-bed5-49b1-8381-b82dd09ce6b1","geometry":{"type":"Polygon","coordinates":[[[139.0815081,36.0347871],[139.0815311,36.0347954],[139.0816171,36.034809],[139.0818637,36.0349214],[139.0821371,36.0350858],[139.082346,36.0352862],[139.0824472,36.035503],[139.0824309,36.0355432],[139.0822218,36.0355257],[139.0819819,36.0354497],[139.081779,36.035414],[139.0815538,36.0353776],[139.0813469,36.0352843],[139.0811147,36.0351935],[139.0809613,36.035134],[139.0809607,36.0351338],[139.0809638,36.0351007],[139.0809645,36.0351005],[139.0810299,36.035086],[139.0810907,36.0350725],[139.0811246,36.035059],[139.0811651,36.0350368],[139.0812255,36.0349936],[139.0812696,36.0349555],[139.0813115,36.0349108],[139.0813685,36.0348513],[139.0814208,36.034803],[139.0814721,36.0347647],[139.0815081,36.0347871]]]},"properties":{"layer":"landslide","class_code":"1","class_label":"急傾斜地の崩落","status_code":"0","status_label":"特別警戒区域指定済み"}}]}