{"type":"FeatureCollection","properties":{"mesh_code":"54390049","source":"PLATEAU秩父市2025","layer":"landslide"},"features":[{"type":"Feature","id":"lsld_68928d40-1aed-4210-bc24-7d5e26f7b236","geometry":{"type":"Polygon","coordinates":[[[139.1125,36.036629614117665],[139.1125088,36.036638],[139.1125427,36.0367601],[139.1125517,36.0367928],[139.1125661,36.0368447],[139.1125891,36.0369004],[139.1126158,36.0369736],[139.1126176,36.0369927],[139.1126114,36.0370307],[139.1126008,36.0370716],[139.112578,36.0371598],[139.1125629,36.0371593],[139.1125446,36.0371818],[139.1125552,36.0371883],[139.1125586,36.0371904],[139.1125516,36.0371923],[139.1125084,36.0372395],[139.1125,36.037237417948724],[139.1125,36.036629614117665]]]},"properties":{"layer":"landslide","class_code":"1","class_label":"急傾斜地の崩落","status_code":"0","status_label":"特別警戒区域指定済み"}},{"type":"Feature","id":"lsld_725bcdec-f678-4e35-bc21-f84f67de6c9f","geometry":{"type":"Polygon","coordinates":[[[139.1125,36.03682441398002],[139.1125,36.036475421341464],[139.1126455,36.0364769],[139.1127156,36.0365079],[139.1126554,36.0365836],[139.1126431,36.0365991],[139.1126163,36.0366412],[139.1125703,36.0367136],[139.1125672,36.0367187],[139.1125427,36.0367601],[139.1125398,36.036765],[139.1125284,36.0367842],[139.1125161,36.0368049],[139.1125052,36.0368233],[139.1125046,36.0368232],[139.1125,36.03682441398002]]]},"properties":{"layer":"landslide","class_code":"1","class_label":"急傾斜地の崩落","status_code":"0","status_label":"特別警戒区域指定済み"}},{"type":"Feature","id":"lsld_176bca9a-2692-4e20-9a05-745f499ddb99","geometry":{"type":"Polygon","coordinates":[[[139.1133772,36.0342413],[139.11325,36.0347653],[139.1127568,36.0348987],[139.1126035,36.0349322],[139.1125,36.034951325886524],[139.1125,36.03365085625899],[139.1126709,36.0335343],[139.1130713,36.0334187],[139.113076,36.0333781],[139.1131222,36.0333761],[139.11332417917305,36.03333333333333],[139.11351414968115,36.03333333333333],[139.1136438,36.0333683],[139.114046,36.0334768],[139.1139407,36.0336183],[139.113899,36.0336742],[139.1138748,36.0337067],[139.113843,36.0337494],[139.113839,36.0337548],[139.1137633,36.0338688],[139.1137586,36.033876],[139.1137338,36.0339167],[139.1137139,36.0339496],[139.1137018,36.0340022],[139.1136987,36.033999],[139.1136831,36.0340271],[139.1135632,36.0343305],[139.1133708,36.0342244],[139.1133684,36.0342241],[139.1133772,36.0342413]]]},"properties":{"layer":"landslide","class_code":"1","class_label":"急傾斜地の崩落","status_code":"0","status_label":"特別警戒区域指定済み"}},{"type":"Feature","id":"lsld_cdebff9a-cddc-4e43-9828-37fc4c8d87c4","geometry":{"type":"Polygon","coordinates":[[[139.11380425620916,36.03333333333333],[139.1138259,36.0333395],[139.1139048,36.0333768],[139.11398,36.0334079],[139.1140326,36.0334266],[139.114106,36.0334515],[139.1142223,36.033515],[139.1142543,36.0335306],[139.1143031,36.0335603],[139.1142792,36.033611],[139.1142354,36.0337037],[139.1142074,36.0337629],[139.1141616,36.0338931],[139.1141929,36.0340575],[139.1142658,36.0342126],[139.1142987,36.0343064],[139.1143209,36.0343699],[139.1143166,36.03446],[139.1143148,36.0344842],[139.114313,36.0344936],[139.1143143,36.0344643],[139.1143127,36.0343941],[139.114312,36.0343671],[139.1143009,36.0343334],[139.1142657,36.0342271],[139.1141428,36.0339993],[139.1140606,36.0338877],[139.1139191,36.033754],[139.1138748,36.0337067],[139.1138486,36.0336788],[139.1138242,36.0336528],[139.1135829,36.0333955],[139.1136438,36.0333683],[139.11372233285908,36.03333333333333],[139.11380425620916,36.03333333333333]]]},"properties":{"layer":"landslide","class_code":"1","class_label":"急傾斜地の崩落","status_code":"0","status_label":"特別警戒区域指定済み"}},{"type":"Feature","id":"lsld_0fe35fd6-ad23-4071-bcf6-aa5b17cd7cbb","geometry":{"type":"Polygon","coordinates":[[[139.1125,36.03669683547904],[139.1125205,36.0366957],[139.1125398,36.036765],[139.1125477,36.0367934],[139.1125621,36.0368453],[139.112585,36.036901],[139.1126117,36.0369742],[139.1126135,36.0369933],[139.1126079,36.0370276],[139.1125931,36.0370274],[139.1125169,36.0370632],[139.1125,36.03707187642014],[139.1125,36.03669683547904]]]},"properties":{"layer":"landslide","class_code":"1","class_label":"急傾斜地の崩落","status_code":"0","status_label":"特別警戒区域指定済み"}},{"type":"Feature","id":"lsld_ab3ff39a-4419-42ff-8580-d30e2705f5f6","geometry":{"type":"Polygon","coordinates":[[[139.1125,36.036597914639174],[139.1125277,36.0365986],[139.1126163,36.0366412],[139.1125703,36.0367136],[139.1125672,36.0367187],[139.1125427,36.0367601],[139.1125398,36.036765],[139.1125284,36.0367842],[139.1125,36.03676579422085],[139.1125,36.036597914639174]]]},"properties":{"layer":"landslide","class_code":"1","class_label":"急傾斜地の崩落","status_code":"0","status_label":"特別警戒区域指定済み"}},{"type":"Feature","id":"lsld_ec6156f8-6f01-4698-81bf-83a6d46deffe","geometry":{"type":"Polygon","coordinates":[[[139.1131983,36.034178],[139.1131884,36.0342095],[139.1131031,36.0346551],[139.1126422,36.0348059],[139.1125,36.03484685563506],[139.1125,36.03408742706373],[139.112543,36.0340491],[139.1127421,36.0339489],[139.1128929,36.0338331],[139.1131233,36.0337643],[139.1132597,36.0336929],[139.1133789,36.0336398],[139.113589,36.0335854],[139.1138242,36.0336528],[139.1138688,36.0336656],[139.113899,36.0336742],[139.1138748,36.0337067],[139.113843,36.0337494],[139.113839,36.0337548],[139.1137633,36.0338688],[139.1137124,36.0338536],[139.113619,36.0338929],[139.1134557,36.0342198],[139.113264,36.0341283],[139.1131983,36.034178]]]},"properties":{"layer":"landslide","class_code":"1","class_label":"急傾斜地の崩落","status_code":"0","status_label":"特別警戒区域指定済み"}},{"type":"Feature","id":"lsld_8db88c56-95e0-45f2-a95c-d1aa40d532dc","geometry":{"type":"Polygon","coordinates":[[[139.1142792,36.033611],[139.1142354,36.0337037],[139.1142074,36.0337629],[139.1141616,36.0338931],[139.1141929,36.0340575],[139.1142658,36.0342126],[139.1142987,36.0343064],[139.114299,36.0343246],[139.1143009,36.0343334],[139.1142657,36.0342271],[139.1141428,36.0339993],[139.1140606,36.0338877],[139.1139191,36.033754],[139.1138748,36.0337067],[139.1138486,36.0336788],[139.1138688,36.0336656],[139.1139407,36.0336183],[139.1140341,36.0335567],[139.1142792,36.033611]]]},"properties":{"layer":"landslide","class_code":"1","class_label":"急傾斜地の崩落","status_code":"0","status_label":"特別警戒区域指定済み"}},{"type":"Feature","id":"lsld_d1906f88-d3b5-4147-b361-e4eaa41ecfd0","geometry":{"type":"Polygon","coordinates":[[[139.1180514,36.0357551],[139.1179665,36.0357979],[139.1178988,36.0358165],[139.1178284,36.0358137],[139.1177699,36.0358014],[139.1177231,36.0357869],[139.1176325,36.035753],[139.1175917,36.0357194],[139.1175482,36.0356691],[139.1175221,36.0356284],[139.1174548,36.0356066],[139.1173904,36.0355967],[139.1172965,36.0356009],[139.1172115,36.0355908],[139.1171794,36.0355787],[139.1171502,36.0355571],[139.1170599,36.0354946],[139.1170071,36.0354872],[139.1169103,36.035489],[139.1170295,36.0354179],[139.1172314,36.0352897],[139.1174332,36.0351615],[139.1176351,36.0350333],[139.1177357,36.0348718],[139.1178452,36.0349077],[139.117867,36.0349149],[139.1179062,36.0349277],[139.1179622,36.034946],[139.1179419,36.0351339],[139.1179777,36.03534],[139.1180514,36.0357551]]]},"properties":{"layer":"landslide","class_code":"2","class_label":"土石流","status_code":"0","status_label":"特別警戒区域指定済み"}},{"type":"Feature","id":"lsld_0f32d1fe-d02d-4844-bcbd-aa03f4042fb0","geometry":{"type":"Polygon","coordinates":[[[139.116023,36.0337365],[139.116036,36.0337532],[139.116051,36.0337725],[139.1161293,36.0338737],[139.1160454,36.0340026],[139.1160095,36.0340578],[139.1158898,36.0342419],[139.11577,36.0344259],[139.1156503,36.0346099],[139.1156205,36.0346124],[139.1155381,36.0346417],[139.1154586,36.0346781],[139.1154042,36.0346897],[139.1153499,36.034693],[139.1152971,36.0346879],[139.115252,36.0346543],[139.1152377,36.0346113],[139.115235,36.0345815],[139.1152324,36.0345457],[139.1152288,36.0344588],[139.1152223,36.0343718],[139.1151936,36.0343001],[139.115169,36.0342678],[139.1150919,36.0341935],[139.1150614,36.0341647],[139.1149608,36.0340926],[139.1149143,36.0340471],[139.1148882,36.0340088],[139.1148551,36.0339467],[139.1147985,36.0338749],[139.1147417,36.0338328],[139.1146936,36.0338039],[139.1146585,36.0337894],[139.1150069,36.0337782],[139.115263,36.0337704],[139.115519,36.0337626],[139.1157751,36.0337548],[139.11583,36.0337242],[139.1159809,36.0336819],[139.116023,36.0337365]]]},"properties":{"layer":"landslide","class_code":"2","class_label":"土石流","status_code":"0","status_label":"特別警戒区域指定済み"}},{"type":"Feature","id":"lsld_a7a54bec-09ab-486a-8e2c-f06c71a9a059","geometry":{"type":"Polygon","coordinates":[[[139.1179062,36.0349277],[139.1178223,36.0350946],[139.1177799,36.0351877],[139.1176851,36.0351566],[139.1177553,36.0350727],[139.1178452,36.0349077],[139.117867,36.0349149],[139.1179062,36.0349277]]]},"properties":{"layer":"landslide","class_code":"2","class_label":"土石流","status_code":"0","status_label":"特別警戒区域指定済み"}},{"type":"Feature","id":"lsld_34181c5c-8abb-485a-b26b-096feca52393","geometry":{"type":"Polygon","coordinates":[[[139.116051,36.0337725],[139.1159424,36.0338694],[139.1159044,36.0338204],[139.116023,36.0337365],[139.116036,36.0337532],[139.116051,36.0337725]]]},"properties":{"layer":"landslide","class_code":"2","class_label":"土石流","status_code":"0","status_label":"特別警戒区域指定済み"}}]}