{"type":"FeatureCollection","properties":{"mesh_code":"54390082","source":"PLATEAU秩父市2025","layer":"landslide"},"features":[{"type":"Feature","id":"lsld_30153d24-ecee-4ec7-a960-efc8f7a96721","geometry":{"type":"Polygon","coordinates":[[[139.0320560947567,36.06666666666667],[139.0314014,36.0669168],[139.0312805,36.0669711],[139.0311849,36.0670273],[139.0311751,36.067033],[139.0310993,36.0670775],[139.030735,36.0672912],[139.0305085,36.0670175],[139.0304021,36.0669122],[139.0303934,36.0668627],[139.0303882,36.0668335],[139.030375,36.066759],[139.03043217858038,36.06666666666667],[139.0320560947567,36.06666666666667]]]},"properties":{"layer":"landslide","class_code":"1","class_label":"急傾斜地の崩落","status_code":"0","status_label":"特別警戒区域指定済み"}},{"type":"Feature","id":"lsld_a199ac63-de61-4015-b436-3342465faf10","geometry":{"type":"Polygon","coordinates":[[[139.0280165,36.0676891],[139.0278252,36.0677213],[139.0276678,36.0677479],[139.0273436,36.0677235],[139.0273248,36.0677193],[139.0271505,36.0676801],[139.0271487,36.0676802],[139.027022,36.0676861],[139.0270153,36.067643],[139.0269749,36.067386],[139.026968,36.0673423],[139.0269678,36.0673412],[139.0269518,36.0672391],[139.0269503,36.0672299],[139.0269573,36.0671507],[139.0269954,36.0669958],[139.0270809,36.0667511],[139.0271002,36.0666957],[139.0271009,36.0666937],[139.02709992874253,36.06666666666667],[139.02720066915424,36.06666666666667],[139.0272069,36.0666708],[139.027241,36.066709],[139.0272597,36.0667376],[139.0272822,36.0667719],[139.0272873,36.0667794],[139.0273167,36.0668228],[139.0273331,36.0668466],[139.0278082,36.0673165],[139.0278917,36.0673992],[139.0280049,36.067511],[139.0281055,36.0676106],[139.0281603,36.0676648],[139.0280165,36.0676891]]]},"properties":{"layer":"landslide","class_code":"1","class_label":"急傾斜地の崩落","status_code":"0","status_label":"特別警戒区域指定済み"}},{"type":"Feature","id":"lsld_edf22779-2f10-461f-9ce1-cf89ae65b7d1","geometry":{"type":"Polygon","coordinates":[[[139.0277092,36.0679085],[139.0277751,36.0679563],[139.0277829,36.0679633],[139.0278113,36.067989],[139.0278285,36.0680095],[139.0278339,36.0680161],[139.027844,36.0680412],[139.0278566,36.0680809],[139.0278772,36.0681455],[139.0278791,36.0681515],[139.0279056,36.0682345],[139.0279198,36.068279],[139.0278187,36.0683542],[139.0278169,36.0684165],[139.0278382,36.068457],[139.0278813,36.0685387],[139.0277831,36.0684888],[139.0277631,36.0684786],[139.0275843,36.0683877],[139.0275672,36.068379],[139.0275661,36.0683784],[139.0275499,36.0683702],[139.0274766,36.0683329],[139.0274307,36.0683096],[139.0273533,36.0682691],[139.0273412,36.0682616],[139.0273024,36.0682374],[139.0272537,36.0682071],[139.0272238,36.0681884],[139.0272144,36.0681826],[139.0272717,36.0681347],[139.0274375,36.0679963],[139.0274958,36.0679667],[139.0276192,36.0679042],[139.027701,36.0679025],[139.0277092,36.0679085]]]},"properties":{"layer":"landslide","class_code":"1","class_label":"急傾斜地の崩落","status_code":"0","status_label":"特別警戒区域指定済み"}},{"type":"Feature","id":"lsld_789ff067-286e-4f0b-8b6d-a0d33de26330","geometry":{"type":"Polygon","coordinates":[[[139.0278517,36.0675082],[139.0279479,36.06751],[139.0280049,36.067511],[139.028111,36.067513],[139.0281995,36.0675147],[139.0284104,36.0675187],[139.0283463,36.0675733],[139.0284209,36.0677253],[139.0284376,36.0677592],[139.0284502,36.0677849],[139.0283527,36.0680455],[139.0282946,36.0681725],[139.0282811,36.068202],[139.0282789,36.0682069],[139.0282743,36.0682039],[139.0282352,36.0681782],[139.0281979,36.0681536],[139.0281417,36.0681167],[139.0281124,36.0680974],[139.028086,36.0680801],[139.0280612,36.0680662],[139.0280507,36.0680603],[139.0279676,36.0680177],[139.0279976,36.0679605],[139.0279755,36.0678942],[139.0278252,36.0677213],[139.0278006,36.0676931],[139.0277408,36.0675061],[139.0278517,36.0675082]]]},"properties":{"layer":"landslide","class_code":"1","class_label":"急傾斜地の崩落","status_code":"0","status_label":"特別警戒区域指定済み"}},{"type":"Feature","id":"lsld_04bff3b4-550c-4b00-a08c-9689b35a4b5e","geometry":{"type":"Polygon","coordinates":[[[139.0287988,36.0681106],[139.0287973,36.0681271],[139.0287655,36.0681451],[139.0287331,36.0681668],[139.0287262,36.0681722],[139.028698,36.0681941],[139.0286635,36.0682235],[139.0286299,36.0682582],[139.028607,36.0682853],[139.0284505,36.0683447],[139.0284106,36.068348],[139.0283855,36.0683495],[139.028376,36.0683496],[139.0282251,36.0682637],[139.0282292,36.068216],[139.0282292,36.0682158],[139.0282304,36.0682026],[139.0282352,36.0681782],[139.028236,36.0681741],[139.0282388,36.06816],[139.02825,36.0681222],[139.0282732,36.0680441],[139.028276,36.0680346],[139.0282907,36.0680627],[139.0282971,36.0680307],[139.0282987,36.0679922],[139.0283269,36.0679037],[139.0283363,36.0678908],[139.0283055,36.0678712],[139.0282406,36.0678298],[139.0282592,36.067819],[139.0283049,36.0677923],[139.0283307,36.0677772],[139.0284021,36.0677356],[139.0284089,36.0677319],[139.0284209,36.0677253],[139.028426,36.0677226],[139.0284711,36.067698],[139.028474,36.0676965],[139.028539,36.067663],[139.0286527,36.0677473],[139.0287743,36.0679083],[139.0288123,36.0679587],[139.0287988,36.0681106]]]},"properties":{"layer":"landslide","class_code":"1","class_label":"急傾斜地の崩落","status_code":"0","status_label":"特別警戒区域指定済み"}},{"type":"Feature","id":"lsld_2489ed41-8880-4c60-b360-b7473519df6f","geometry":{"type":"Polygon","coordinates":[[[139.0269021,36.0673378],[139.0269678,36.0673412],[139.026981,36.0673418],[139.0269907,36.0673423],[139.0270424,36.067345],[139.0271015,36.067348],[139.0271206,36.0674629],[139.0272822,36.0675693],[139.0273248,36.0677193],[139.0273349,36.0677551],[139.0274958,36.0679667],[139.0275,36.0679722],[139.027464,36.0681221],[139.027314,36.0682153],[139.0272558,36.0682073],[139.0272537,36.0682071],[139.0272045,36.0682004],[139.0271388,36.0681914],[139.0271272,36.0681898],[139.0270295,36.0681758],[139.0269612,36.0681381],[139.0269581,36.0681379],[139.026924,36.0681238],[139.0268755,36.0680908],[139.0268393,36.0679481],[139.0268462,36.0678045],[139.026806,36.0676457],[139.0267967,36.0674355],[139.0267913,36.0673321],[139.0269021,36.0673378]]]},"properties":{"layer":"landslide","class_code":"1","class_label":"急傾斜地の崩落","status_code":"0","status_label":"特別警戒区域指定済み"}},{"type":"Feature","id":"lsld_64308a75-6341-479f-9255-3be46873541c","geometry":{"type":"Polygon","coordinates":[[[139.0276698,36.0683163],[139.0277631,36.0684786],[139.0277725,36.068495],[139.0278108,36.0685616],[139.0278069,36.0686093],[139.0278035,36.0686515],[139.0278024,36.068665],[139.0277983,36.0687054],[139.0277948,36.0687398],[139.0277863,36.068795],[139.0276342,36.0688771],[139.0274725,36.0689393],[139.0273579,36.0689698],[139.0273361,36.0688814],[139.0273239,36.0688319],[139.0272931,36.0687069],[139.0272874,36.0686838],[139.0272654,36.0685946],[139.0272473,36.0685213],[139.0273476,36.0684837],[139.0273648,36.0684748],[139.0274334,36.0684421],[139.0275188,36.0684012],[139.0275191,36.0684009],[139.0275205,36.0684],[139.0275235,36.0683979],[139.0275281,36.0683943],[139.0275312,36.0683915],[139.0275374,36.0683855],[139.0275413,36.0683817],[139.027542,36.0683809],[139.0275431,36.0683797],[139.0275467,36.0683753],[139.0275499,36.0683702],[139.0275555,36.0683612],[139.0275674,36.0683419],[139.0275854,36.0683134],[139.0276072,36.0682878],[139.0276078,36.0682873],[139.0276245,36.0682721],[139.0276381,36.0682611],[139.0276698,36.0683163]]]},"properties":{"layer":"landslide","class_code":"1","class_label":"急傾斜地の崩落","status_code":"0","status_label":"特別警戒区域指定済み"}},{"type":"Feature","id":"lsld_afc3ec17-3dc2-4b0c-b94a-276f4a53b235","geometry":{"type":"Polygon","coordinates":[[[139.0285841,36.0689642],[139.0286278,36.0690134],[139.0286583,36.0690478],[139.0286854,36.0690783],[139.028718,36.069115],[139.0287232,36.0691209],[139.0285793,36.0691813],[139.0284935,36.0692541],[139.02843,36.0692854],[139.0284025,36.0692696],[139.0283506,36.0692397],[139.0282939,36.0692072],[139.0282665,36.0691915],[139.0282593,36.0691861],[139.0282362,36.0691693],[139.0282149,36.06915],[139.0282004,36.0691351],[139.0281517,36.0690853],[139.0281314,36.0690645],[139.0281739,36.0690515],[139.0285321,36.0689585],[139.0285629,36.0689403],[139.0285841,36.0689642]]]},"properties":{"layer":"landslide","class_code":"1","class_label":"急傾斜地の崩落","status_code":"0","status_label":"特別警戒区域指定済み"}},{"type":"Feature","id":"lsld_40d14b95-280a-4614-8465-6001720e7351","geometry":{"type":"Polygon","coordinates":[[[139.025,36.06806925516014],[139.025101,36.0681167],[139.0252677,36.0682519],[139.0253032,36.0683046],[139.0253073,36.0683107],[139.0253198,36.0683292],[139.0254092,36.068443],[139.0254099,36.0684439],[139.0255358,36.0686039],[139.0255011,36.0686155],[139.0254734,36.0686248],[139.0254128,36.0686451],[139.0253347,36.0686712],[139.0253041,36.0686815],[139.0251438,36.0687352],[139.0250247,36.068775],[139.0250228,36.0687759],[139.0250135,36.0687798],[139.025,36.06878566012862],[139.025,36.06806925516014]]]},"properties":{"layer":"landslide","class_code":"1","class_label":"急傾斜地の崩落","status_code":"0","status_label":"特別警戒区域指定済み"}},{"type":"Feature","id":"lsld_e6fd7fc8-b4d0-4a53-8233-53b110901f17","geometry":{"type":"Polygon","coordinates":[[[139.0320560947567,36.06666666666667],[139.0314014,36.0669168],[139.0312805,36.0669711],[139.0311849,36.0670273],[139.0311751,36.067033],[139.0310993,36.0670775],[139.0309435,36.0669263],[139.0308409,36.0668327],[139.0308404,36.0668301],[139.0308206,36.0667239],[139.0308239961066,36.06666666666667],[139.0320560947567,36.06666666666667]]]},"properties":{"layer":"landslide","class_code":"1","class_label":"急傾斜地の崩落","status_code":"0","status_label":"特別警戒区域指定済み"}},{"type":"Feature","id":"lsld_74e1d71a-223e-4816-a0c8-2cbad62e467e","geometry":{"type":"Polygon","coordinates":[[[139.0278917,36.0673992],[139.0275688,36.0674137],[139.0273192,36.06738],[139.0271092,36.0673373],[139.026981,36.0673418],[139.026968,36.0673423],[139.0269678,36.0673412],[139.0269518,36.0672391],[139.0269503,36.0672299],[139.0269573,36.0671507],[139.0269954,36.0669958],[139.0270809,36.0667511],[139.0272102,36.0667919],[139.0272695,36.0667858],[139.0272873,36.0667794],[139.0273167,36.0668228],[139.0273331,36.0668466],[139.0278082,36.0673165],[139.0278917,36.0673992]]]},"properties":{"layer":"landslide","class_code":"1","class_label":"急傾斜地の崩落","status_code":"0","status_label":"特別警戒区域指定済み"}},{"type":"Feature","id":"lsld_ac5a6a2f-943a-4280-9428-8af2fb02396b","geometry":{"type":"Polygon","coordinates":[[[139.0278339,36.0680161],[139.027844,36.0680412],[139.0278566,36.0680809],[139.0278772,36.0681455],[139.0278791,36.0681515],[139.0277541,36.0681838],[139.0276382,36.0682186],[139.0276078,36.0682873],[139.0275679,36.0683773],[139.0275672,36.068379],[139.0275661,36.0683784],[139.0275499,36.0683702],[139.0274766,36.0683329],[139.0274307,36.0683096],[139.0273533,36.0682691],[139.0273412,36.0682616],[139.0275269,36.0680954],[139.0276915,36.0680276],[139.0278285,36.0680095],[139.0278339,36.0680161]]]},"properties":{"layer":"landslide","class_code":"1","class_label":"急傾斜地の崩落","status_code":"0","status_label":"特別警戒区域指定済み"}},{"type":"Feature","id":"lsld_eb85025e-32af-4e40-8387-2f155320a471","geometry":{"type":"Polygon","coordinates":[[[139.0280049,36.067511],[139.028111,36.067513],[139.0281995,36.0675147],[139.0281851,36.0676162],[139.0283049,36.0677923],[139.0283203,36.0678148],[139.0283055,36.0678712],[139.0282654,36.0680246],[139.0281979,36.0681536],[139.0281417,36.0681167],[139.0281124,36.0680974],[139.0281705,36.0680019],[139.028165,36.0678506],[139.0280165,36.0676891],[139.0279933,36.0676638],[139.0279479,36.06751],[139.0280049,36.067511]]]},"properties":{"layer":"landslide","class_code":"1","class_label":"急傾斜地の崩落","status_code":"0","status_label":"特別警戒区域指定済み"}},{"type":"Feature","id":"lsld_fe39155f-e212-4305-92ba-ef7b6c7d8947","geometry":{"type":"Polygon","coordinates":[[[139.0285771,36.0677776],[139.0286646,36.0679268],[139.0286321,36.0680235],[139.0286138,36.068078],[139.0285188,36.0681668],[139.0283485,36.0682251],[139.0282301,36.0682158],[139.0282292,36.0682158],[139.0282304,36.0682026],[139.0282352,36.0681782],[139.028236,36.0681741],[139.0282946,36.0681725],[139.0283284,36.0681716],[139.028418,36.0681049],[139.0284557,36.0680263],[139.0285038,36.0679029],[139.0284969,36.0678157],[139.0284376,36.0677592],[139.0284089,36.0677319],[139.0284209,36.0677253],[139.028426,36.0677226],[139.0284711,36.067698],[139.028474,36.0676965],[139.0285771,36.0677776]]]},"properties":{"layer":"landslide","class_code":"1","class_label":"急傾斜地の崩落","status_code":"0","status_label":"特別警戒区域指定済み"}},{"type":"Feature","id":"lsld_7048613d-9c17-4543-8dc9-509e1ae9d32b","geometry":{"type":"Polygon","coordinates":[[[139.0270424,36.067345],[139.0270224,36.0674546],[139.0271375,36.0675935],[139.0271487,36.0676802],[139.0271607,36.0677727],[139.0272598,36.0679713],[139.0272729,36.0681292],[139.0272717,36.0681347],[139.0272558,36.0682073],[139.0272537,36.0682071],[139.0272045,36.0682004],[139.0270507,36.0681374],[139.0270151,36.0679704],[139.027008,36.0677881],[139.0269809,36.0676197],[139.0269521,36.0674486],[139.0269749,36.067386],[139.0269907,36.0673423],[139.0270424,36.067345]]]},"properties":{"layer":"landslide","class_code":"1","class_label":"急傾斜地の崩落","status_code":"0","status_label":"特別警戒区域指定済み"}},{"type":"Feature","id":"lsld_c132e408-c4cc-47db-b5ad-b45d67a0f430","geometry":{"type":"Polygon","coordinates":[[[139.0277018,36.0685362],[139.0278069,36.0686093],[139.0278035,36.0686515],[139.027619,36.0687411],[139.0274377,36.0687999],[139.0273239,36.0688319],[139.0272931,36.0687069],[139.0272874,36.0686838],[139.0272654,36.0685946],[139.0273751,36.0685493],[139.027587,36.0684563],[139.0277018,36.0685362]]]},"properties":{"layer":"landslide","class_code":"1","class_label":"急傾斜地の崩落","status_code":"0","status_label":"特別警戒区域指定済み"}},{"type":"Feature","id":"lsld_6325b62b-1156-469c-ab4a-3a06f382fb33","geometry":{"type":"Polygon","coordinates":[[[139.0286854,36.0690783],[139.0285641,36.0691095],[139.0283818,36.0691898],[139.0283506,36.0692397],[139.0282939,36.0692072],[139.0282665,36.0691915],[139.0282593,36.0691861],[139.0282916,36.0691379],[139.0285571,36.0690765],[139.0286583,36.0690478],[139.0286854,36.0690783]]]},"properties":{"layer":"landslide","class_code":"1","class_label":"急傾斜地の崩落","status_code":"0","status_label":"特別警戒区域指定済み"}},{"type":"Feature","id":"lsld_5897ad52-7901-4ec9-8250-78868c1fe99f","geometry":{"type":"Polygon","coordinates":[[[139.025,36.06855303257791],[139.0250029,36.0685582],[139.0251438,36.0687352],[139.0250247,36.068775],[139.0250228,36.0687759],[139.0250135,36.0687798],[139.025,36.06878566012862],[139.025,36.06855303257791]]]},"properties":{"layer":"landslide","class_code":"1","class_label":"急傾斜地の崩落","status_code":"0","status_label":"特別警戒区域指定済み"}},{"type":"Feature","id":"lsld_31adf1bb-3a9e-4993-95cf-8444857f23cd","geometry":{"type":"Polygon","coordinates":[[[139.025,36.0680445509434],[139.0250454,36.0680574],[139.0252027,36.06808],[139.025209,36.0680809],[139.0252121,36.0680823],[139.0252927,36.0681186],[139.0253681,36.0681525],[139.0254433,36.0682708],[139.0254446,36.0683599],[139.0254451,36.0683899],[139.0254336,36.0684068],[139.0254092,36.068443],[139.0253998,36.068457],[139.0254,36.068458],[139.0254244,36.0685447],[139.0255011,36.0686155],[139.0255218,36.0686347],[139.0256435,36.0686427],[139.025836,36.0686201],[139.0259524,36.0685756],[139.0260735,36.0685038],[139.0261721,36.0684723],[139.0262928,36.0684701],[139.0265354,36.0685414],[139.0267109,36.0685809],[139.026938,36.0685632],[139.0271599,36.0685376],[139.0272725,36.0685023],[139.0274334,36.0684421],[139.0275038,36.0684157],[139.0275661,36.0683784],[139.0275679,36.0683773],[139.0276698,36.0683163],[139.0277223,36.0682849],[139.0278707,36.0682401],[139.0279056,36.0682345],[139.0281029,36.0682026],[139.0282264,36.0682168],[139.0282292,36.068216],[139.0282301,36.0682158],[139.0282743,36.0682039],[139.0282811,36.068202],[139.0283269,36.0681897],[139.0284502,36.0681421],[139.0285911,36.0680558],[139.0286321,36.0680235],[139.028771,36.0679143],[139.0287743,36.0679083],[139.0288248,36.0678157],[139.0288797,36.0676608],[139.0288876,36.0675564],[139.0290221,36.0674449],[139.0291577,36.0673492],[139.0292459,36.0672455],[139.0293536,36.0671902],[139.0295755,36.0671381],[139.0297336,36.0670814],[139.029907,36.0669755],[139.0300251,36.0668544],[139.0300396,36.0668361],[139.0301519,36.0666941],[139.03017376568266,36.06666666666667],[139.03063007161273,36.06666666666667],[139.0306095,36.0666945],[139.0304419,36.0668331],[139.0304163,36.0668543],[139.0303934,36.0668627],[139.0301967,36.066935],[139.0300144,36.0670694],[139.029957,36.067168],[139.0299733,36.067292],[139.0296263,36.0672817],[139.0294222,36.0673414],[139.029324,36.0674426],[139.0291503,36.0675932],[139.029108,36.0676735],[139.0290957,36.0677294],[139.0290621,36.0678698],[139.0288834,36.068046],[139.0287988,36.0681106],[139.0287409,36.0681548],[139.0287262,36.0681722],[139.0285977,36.0683243],[139.0284964,36.068364],[139.0283288,36.0683725],[139.028109,36.0683832],[139.0279131,36.0684244],[139.0278382,36.068457],[139.0278362,36.0684579],[139.0277831,36.0684888],[139.0277725,36.068495],[139.0277018,36.0685362],[139.0276047,36.0685927],[139.0274212,36.0686842],[139.0272931,36.0687069],[139.0271608,36.0687303],[139.0269389,36.0687547],[139.0267215,36.0687606],[139.0264684,36.0687278],[139.0262748,36.068732],[139.0259102,36.0688151],[139.0256724,36.0688323],[139.0254189,36.0687984],[139.0253436,36.0687886],[139.0253389,36.068788],[139.0252738,36.0687796],[139.0250169,36.068785],[139.0250135,36.0687798],[139.025,36.068759278942224],[139.025,36.0680445509434]]]},"properties":{"layer":"landslide","class_code":"2","class_label":"土石流","status_code":"0","status_label":"特別警戒区域指定済み"}},{"type":"Feature","id":"lsld_ab3d7d3d-a710-4c9f-b6e4-7f5b158466db","geometry":{"type":"Polygon","coordinates":[[[139.025,36.068037565625],[139.0250224,36.0680445],[139.0251161,36.0680618],[139.0252027,36.06808],[139.0252098,36.0680815],[139.0252121,36.0680823],[139.0252921,36.0681106],[139.0253268,36.0681228],[139.025391,36.068159],[139.0254375,36.0682093],[139.025457,36.0683072],[139.0254446,36.0683599],[139.0254336,36.0684068],[139.0254324,36.0684119],[139.0254099,36.0684439],[139.0254,36.068458],[139.0253908,36.0684712],[139.0253896,36.0684733],[139.0253549,36.0685353],[139.0253515,36.0685829],[139.0253804,36.068626],[139.0254128,36.0686451],[139.0254416,36.0686621],[139.0255029,36.0686983],[139.02539,36.0687601],[139.0253515,36.0687812],[139.0253433,36.0687856],[139.0253389,36.068788],[139.0252524,36.0688346],[139.0251806,36.0688733],[139.0251382,36.0688965],[139.025,36.06902917948544],[139.025,36.068037565625]]]},"properties":{"layer":"landslide","class_code":"2","class_label":"土石流","status_code":"0","status_label":"特別警戒区域指定済み"}},{"type":"Feature","id":"lsld_fe1c1285-a7f0-4f30-a7aa-ffd10c74b198","geometry":{"type":"Polygon","coordinates":[[[139.025,36.06805256494845],[139.0250425,36.0680679],[139.025265,36.0682349],[139.0253032,36.0683046],[139.0253074,36.0683123],[139.0253869,36.0684573],[139.0253896,36.0684733],[139.0254056,36.0685692],[139.0254734,36.0686248],[139.0255027,36.0686487],[139.0256433,36.0686618],[139.0256698,36.0688181],[139.0254197,36.0687873],[139.02539,36.0687601],[139.0253378,36.0687123],[139.0253041,36.0686815],[139.025259,36.0686402],[139.0251085,36.0684645],[139.0250302,36.0684223],[139.025,36.06839946072424],[139.025,36.06805256494845]]]},"properties":{"layer":"landslide","class_code":"2","class_label":"土石流","status_code":"0","status_label":"特別警戒区域指定済み"}},{"type":"Feature","id":"lsld_1e4d2ca4-0059-42ed-8b45-cc77b769214c","geometry":{"type":"Polygon","coordinates":[[[139.025,36.068800397081084],[139.0250749,36.0688306],[139.0250673,36.0688434],[139.0250556,36.0688631],[139.025,36.068932156745696],[139.025,36.06884488571428],[139.0250023,36.0688416],[139.025,36.06883653148147],[139.025,36.068800397081084]]]},"properties":{"layer":"landslide","class_code":"2","class_label":"土石流","status_code":"0","status_label":"特別警戒区域指定済み"}},{"type":"Feature","id":"lsld_d59be036-f208-4a36-9df4-90284a708570","geometry":{"type":"Polygon","coordinates":[[[139.02560956409974,36.06666666666667],[139.0254949,36.0666957],[139.0251907,36.066721],[139.025,36.0667009623709],[139.025,36.06666666666667],[139.02560956409974,36.06666666666667]]]},"properties":{"layer":"landslide","class_code":"3","class_label":"地すべり","status_code":"0","status_label":"特別警戒区域指定済み"}},{"type":"Feature","id":"lsld_0d70d0ed-d504-498f-829a-0e6530e198fc","geometry":{"type":"Polygon","coordinates":[[[139.0310332284153,36.06666666666667],[139.031032,36.0666854],[139.0310535,36.0667541],[139.0310883,36.0668265],[139.0310892,36.0668282],[139.0308404,36.0668301],[139.0304419,36.0668331],[139.0303882,36.0668335],[139.0300396,36.0668361],[139.0299839,36.0668365],[139.0297839,36.0668304],[139.0295858,36.0668013],[139.0294099,36.0667694],[139.0291756,36.0667023],[139.02909928062655,36.06666666666667],[139.0310332284153,36.06666666666667]]]},"properties":{"layer":"landslide","class_code":"3","class_label":"地すべり","status_code":"0","status_label":"特別警戒区域指定済み"}},{"type":"Feature","id":"lsld_3e8fa3df-e804-4bed-a01a-c9a809f81009","geometry":{"type":"Polygon","coordinates":[[[139.0250937,36.0688301],[139.0250673,36.0688434],[139.0250387,36.0688579],[139.025,36.068855657934506],[139.025,36.06678631753846],[139.0250504,36.0668064],[139.0251229,36.0668662],[139.0251792,36.0669768],[139.0252238,36.0672103],[139.0252921,36.0681106],[139.0252927,36.0681186],[139.0253073,36.0683107],[139.0253074,36.0683123],[139.0253347,36.0686712],[139.0253378,36.0687123],[139.0253433,36.0687856],[139.0253436,36.0687886],[139.0253447,36.0688038],[139.0253475,36.0688573],[139.0252922,36.0688435],[139.0252524,36.0688346],[139.0251807,36.0688186],[139.0250937,36.0688301]]]},"properties":{"layer":"landslide","class_code":"3","class_label":"地すべり","status_code":"0","status_label":"特別警戒区域指定済み"}}]}