{"type":"FeatureCollection","properties":{"mesh_code":"54390081","source":"PLATEAU秩父市2025","layer":"landslide"},"features":[{"type":"Feature","id":"lsld_d559778a-1c60-4c4f-b485-c347fb6dd97a","geometry":{"type":"Polygon","coordinates":[[[139.018037,36.0706025],[139.0180042,36.0706603],[139.0180013,36.0706819],[139.0179581,36.0709991],[139.0178396,36.0709756],[139.0177562,36.070959],[139.0177309,36.0709539],[139.0177195,36.0709516],[139.0175403,36.070916],[139.017419,36.0708918],[139.0170825,36.0708249],[139.0170317,36.0708148],[139.0169239,36.0707933],[139.0169274,36.0706736],[139.0169821,36.0705031],[139.0169828,36.0705008],[139.0171826,36.0701518],[139.0172117,36.0701143],[139.0172144,36.0700979],[139.0172145,36.0700896],[139.0172086,36.0700692],[139.0172024,36.0700524],[139.017187,36.0700098],[139.0171771,36.0699824],[139.0171539,36.0699187],[139.0171262,36.0698412],[139.0170907,36.0697684],[139.0170545,36.0697128],[139.0170214,36.0696689],[139.0169573,36.0695841],[139.0169226,36.0695382],[139.0167555,36.069317],[139.0167502,36.0693101],[139.0167311,36.0692848],[139.0168842,36.0692499],[139.0169596,36.0692327],[139.0169983,36.0692335],[139.0170107,36.0692341],[139.0170748,36.0692373],[139.017101,36.069244],[139.017132,36.0692606],[139.0171777,36.069312],[139.0172286,36.0693692],[139.0172486,36.0693857],[139.0172876,36.0694097],[139.0173187,36.0694213],[139.01741,36.0694563],[139.0174833,36.0694764],[139.0175396,36.0694915],[139.0175949,36.0694993],[139.0176634,36.0695005],[139.0177289,36.0694944],[139.0177723,36.0694874],[139.0178198,36.0694771],[139.0178926,36.0694465],[139.0179523,36.0694191],[139.0180324,36.0693714],[139.0181053,36.0693367],[139.01817,36.0693085],[139.0182206,36.0692893],[139.0182852,36.0692766],[139.0183709,36.0692649],[139.0184408,36.0692609],[139.0184623,36.0692597],[139.0184643,36.0692596],[139.0184716,36.0692639],[139.0186542,36.0693722],[139.0186733,36.0693869],[139.0188321,36.0695094],[139.0188511,36.0695977],[139.0188566,36.0696231],[139.0188791,36.0697277],[139.0188846,36.069753],[139.0188683,36.0697762],[139.0188519,36.0698031],[139.0188354,36.0698349],[139.0188333,36.069841],[139.0188178,36.0698855],[139.0187981,36.0699352],[139.0187846,36.0699809],[139.0187689,36.0700389],[139.0187501,36.0701034],[139.018747,36.070114],[139.0187408,36.0701352],[139.0187027,36.0701539],[139.0186678,36.0701911],[139.0185215,36.0703468],[139.0184715,36.0704382],[139.0183521,36.0705007],[139.0182075,36.0705763],[139.0181959,36.0705753],[139.0180998,36.0705672],[139.01804,36.0705622],[139.018037,36.0706025]]]},"properties":{"layer":"landslide","class_code":"1","class_label":"急傾斜地の崩落","status_code":"0","status_label":"特別警戒区域指定済み"}},{"type":"Feature","id":"lsld_377fab36-f473-47a5-a111-394729c52304","geometry":{"type":"Polygon","coordinates":[[[139.0192097,36.0696053],[139.0190442,36.0696152],[139.0190342,36.0696158],[139.0189972,36.069618],[139.0189605,36.0696202],[139.0189371,36.0696208],[139.0188671,36.0696228],[139.0188566,36.0696231],[139.0186025,36.0696302],[139.0185852,36.0696114],[139.0185717,36.0695963],[139.0185665,36.0695904],[139.018561,36.0695727],[139.0185513,36.0695375],[139.0185491,36.0695295],[139.0185424,36.0695089],[139.0185303,36.0694841],[139.018511,36.0694507],[139.0184826,36.0694124],[139.0184811,36.0694111],[139.018478,36.0694078],[139.0184724,36.0694031],[139.0184669,36.0694002],[139.0184524,36.069307],[139.0184683,36.0692711],[139.0184716,36.0692639],[139.0184812,36.0692421],[139.0184861,36.0692364],[139.0185027,36.0692161],[139.0185177,36.0692006],[139.0185471,36.069179],[139.0185689,36.0691668],[139.018595,36.069155],[139.0186147,36.0691473],[139.0186371,36.069142],[139.0186623,36.0691389],[139.0186627,36.0691389],[139.0186984,36.0691369],[139.0187288,36.0691348],[139.0187421,36.0691339],[139.0187482,36.0691335],[139.0187564,36.0691328],[139.0187725,36.0691319],[139.0187929,36.0691296],[139.0188121,36.0691271],[139.0188176,36.0691254],[139.0188236,36.0691235],[139.0188329,36.0691165],[139.0188384,36.0691078],[139.0188463,36.0690907],[139.0188537,36.0690746],[139.0188825,36.0690122],[139.0188969,36.0689921],[139.0189249,36.0689681],[139.0189819,36.068923],[139.0190037,36.0689475],[139.0190196,36.0689653],[139.0190923,36.0690469],[139.0191664,36.06913],[139.0191693,36.0691332],[139.0191814,36.0691468],[139.0191928,36.0691596],[139.019423,36.0694178],[139.0195026,36.0695035],[139.0195309,36.0695306],[139.0195381,36.0695375],[139.0195478,36.0695465],[139.0195618,36.0695558],[139.0195766,36.0695626],[139.0196079,36.0695771],[139.0196175,36.0695806],[139.0196572,36.0695944],[139.0196771,36.0696006],[139.0196764,36.069601],[139.019677,36.0696017],[139.0196745,36.0696042],[139.019675,36.0696048],[139.0196741,36.0696064],[139.0196723,36.069609],[139.0196726,36.0696105],[139.0196727,36.0696117],[139.0196374,36.069607],[139.0195897,36.0696052],[139.0195623,36.0696041],[139.0195029,36.0696018],[139.0194451,36.0695996],[139.0192097,36.0696053]]]},"properties":{"layer":"landslide","class_code":"1","class_label":"急傾斜地の崩落","status_code":"0","status_label":"特別警戒区域指定済み"}},{"type":"Feature","id":"lsld_cf2e032d-762b-4520-b6cb-314474cda331","geometry":{"type":"Polygon","coordinates":[[[139.0215527,36.0674775],[139.0215944,36.0674812],[139.0216324,36.0674892],[139.021674,36.0675006],[139.0217241,36.0675172],[139.0217314,36.0675289],[139.0217382,36.0675397],[139.0217398,36.0675423],[139.0218331,36.0676917],[139.0218442,36.0677095],[139.0218345,36.0677179],[139.0217586,36.0677836],[139.0216974,36.0678367],[139.0216376,36.0678884],[139.0216321,36.0678932],[139.0215548,36.0679602],[139.0215259,36.0679853],[139.0214769,36.0680277],[139.0214656,36.068039],[139.0212528,36.0682537],[139.0211139,36.0684062],[139.0209718,36.0685728],[139.0208939,36.0686561],[139.0208571,36.0686955],[139.0208553,36.0686972],[139.020782,36.0687649],[139.0207811,36.0687643],[139.0207782,36.0687638],[139.0208384,36.0686963],[139.0208417,36.06869],[139.0208687,36.06864],[139.0208893,36.068602],[139.0212576,36.0678288],[139.0213048,36.0677297],[139.0213334,36.0676697],[139.0213498,36.0676353],[139.02142,36.0674879],[139.0214234,36.0674809],[139.0214466,36.0674793],[139.0214682,36.0674778],[139.0215052,36.0674767],[139.0215527,36.0674775]]]},"properties":{"layer":"landslide","class_code":"1","class_label":"急傾斜地の崩落","status_code":"0","status_label":"特別警戒区域指定済み"}},{"type":"Feature","id":"lsld_ddaf9508-44a6-478f-92e0-fd7c6987c161","geometry":{"type":"Polygon","coordinates":[[[139.0215808,36.0674967],[139.0216212,36.0675043],[139.0216689,36.0675161],[139.021722,36.0675346],[139.0217398,36.0675423],[139.021849,36.0675894],[139.0219415,36.0676288],[139.0219487,36.0676319],[139.0220181,36.0676627],[139.0220305,36.0676683],[139.0220471,36.0676758],[139.0221111,36.0676988],[139.0221592,36.067715],[139.0222441,36.0677415],[139.0222591,36.067746],[139.0222996,36.0677582],[139.0223485,36.0677729],[139.0224515,36.0678035],[139.0224911,36.0678145],[139.0225055,36.067818],[139.0225114,36.0678195],[139.0224717,36.0678835],[139.0224125,36.0679791],[139.0224111,36.0679815],[139.0224032,36.0679942],[139.0222308,36.0682727],[139.0221208,36.068451],[139.0220908,36.0685148],[139.0220902,36.0685168],[139.0220782,36.0685589],[139.0220765,36.0685653],[139.022071,36.0685856],[139.0220678,36.0686491],[139.0220675,36.0686549],[139.022062,36.0686517],[139.0220507,36.068585],[139.022023,36.0685308],[139.0219172,36.0682874],[139.0218968,36.0682463],[139.0218687,36.0681895],[139.0218462,36.068156],[139.0218069,36.0680717],[139.0217826,36.0680196],[139.0217542,36.0679585],[139.0217037,36.0678503],[139.0216974,36.0678367],[139.0216632,36.0677634],[139.0215848,36.0675952],[139.0215826,36.0675906],[139.0215384,36.0674956],[139.0215374,36.0674935],[139.0215808,36.0674967]]]},"properties":{"layer":"landslide","class_code":"1","class_label":"急傾斜地の崩落","status_code":"0","status_label":"特別警戒区域指定済み"}},{"type":"Feature","id":"lsld_40d14b95-280a-4614-8465-6001720e7351","geometry":{"type":"Polygon","coordinates":[[[139.0249886,36.0680639],[139.025,36.06806925516014],[139.025,36.06878566012862],[139.0249824,36.0687933],[139.0249807,36.068794],[139.024965,36.0688008],[139.0248694,36.0688421],[139.0247599,36.0688893],[139.0244518,36.0690348],[139.0241939,36.0691659],[139.0240121,36.0692771],[139.0237894,36.0694253],[139.023763,36.0694478],[139.0237221,36.0694828],[139.0237176,36.0694882],[139.0236693,36.0695458],[139.0236553,36.0695628],[139.023655,36.0695626],[139.0236546,36.0695622],[139.0236435,36.069556],[139.0236387,36.0695533],[139.0236383,36.0695531],[139.0236374,36.0695529],[139.0236366,36.0695526],[139.023665,36.0694655],[139.0236825,36.069412],[139.0237417,36.0692302],[139.023772,36.0690843],[139.0238224,36.0689395],[139.0238577,36.0688195],[139.0238683,36.0687185],[139.023857,36.0685818],[139.0238442,36.0684728],[139.0238429,36.068395],[139.0238545,36.0683052],[139.0238674,36.0682525],[139.0238704,36.06824],[139.0238784,36.0682072],[139.0239039,36.0681031],[139.0239218,36.0680297],[139.0239231,36.0680246],[139.0239756,36.0680292],[139.0240661,36.068031],[139.0240952,36.0680316],[139.024166,36.0680265],[139.024167,36.0680264],[139.0242499,36.0680076],[139.0243579,36.0679719],[139.0244548,36.067941],[139.0245268,36.0679213],[139.0245853,36.067912],[139.0246386,36.0679262],[139.02477,36.0679779],[139.0247902,36.0679859],[139.0248202,36.0679977],[139.0249886,36.0680639]]]},"properties":{"layer":"landslide","class_code":"1","class_label":"急傾斜地の崩落","status_code":"0","status_label":"特別警戒区域指定済み"}},{"type":"Feature","id":"lsld_47986340-667f-4a2d-bfdf-47aecd1f4a1c","geometry":{"type":"Polygon","coordinates":[[[139.0191533,36.0710506],[139.0191841,36.0710798],[139.0192133,36.0711035],[139.0192583,36.0711273],[139.0193082,36.0711485],[139.0193183,36.0711519],[139.019336,36.0711578],[139.0193913,36.0711759],[139.0194001,36.0711788],[139.0194607,36.0711974],[139.0194948,36.0712084],[139.0194947,36.0712087],[139.0194944,36.0712092],[139.0194943,36.0712096],[139.0194941,36.07121],[139.0194935,36.0712112],[139.0194931,36.0712121],[139.0194927,36.071213],[139.0194924,36.0712136],[139.019492,36.0712146],[139.0194915,36.0712157],[139.0194909,36.071217],[139.0194901,36.0712187],[139.0193854,36.0711887],[139.0193101,36.0711672],[139.0192393,36.0711469],[139.019145,36.0711199],[139.0190317,36.0710891],[139.0189457,36.0710665],[139.0188084,36.0710358],[139.0186653,36.071013],[139.0185489,36.071006],[139.0184298,36.0710093],[139.0184071,36.0710128],[139.0183354,36.0710235],[139.0183337,36.0710238],[139.018216,36.0710501],[139.0179867,36.0711014],[139.0179511,36.0711093],[139.0179187,36.0711166],[139.0178002,36.0711431],[139.0177798,36.0710875],[139.017746,36.0709952],[139.0177309,36.0709539],[139.0177062,36.0708867],[139.017703,36.0708781],[139.0177148,36.070848],[139.0177295,36.0708153],[139.0177443,36.0707709],[139.0177627,36.0706383],[139.0178282,36.0705682],[139.0179189,36.0704712],[139.0179554,36.0703973],[139.0179755,36.0703094],[139.0179762,36.0703063],[139.0179784,36.0703002],[139.018015,36.0701997],[139.0180848,36.0701272],[139.0181469,36.0700627],[139.0181471,36.0700624],[139.0182635,36.0699616],[139.0182638,36.0699614],[139.0184535,36.0698873],[139.0185161,36.0698629],[139.018562,36.0698449],[139.0186661,36.0698043],[139.0186663,36.0698476],[139.0186677,36.0701538],[139.0186678,36.0701911],[139.0186681,36.0702549],[139.0186705,36.070267],[139.0186827,36.0703284],[139.0186895,36.0703491],[139.0187158,36.0704298],[139.0187776,36.0705563],[139.0188514,36.0706913],[139.0188949,36.0707511],[139.0189546,36.070818],[139.0189858,36.0708532],[139.0190414,36.0709174],[139.0190959,36.0709821],[139.0191533,36.0710506]]]},"properties":{"layer":"landslide","class_code":"1","class_label":"急傾斜地の崩落","status_code":"0","status_label":"特別警戒区域指定済み"}},{"type":"Feature","id":"lsld_707241dd-4130-4a4a-816b-0e100619d2a9","geometry":{"type":"Polygon","coordinates":[[[139.0185297,36.0699029],[139.0183793,36.0699622],[139.0183248,36.0699837],[139.0181522,36.0701558],[139.0181049,36.0702597],[139.0180531,36.0702796],[139.0180294,36.0702887],[139.0179755,36.0703094],[139.0179672,36.0703125],[139.0178838,36.0703445],[139.0176949,36.0703471],[139.0176153,36.0705348],[139.0175742,36.070665],[139.0175403,36.070916],[139.017419,36.0708918],[139.0170825,36.0708249],[139.0170897,36.0706702],[139.0171406,36.0704804],[139.0173637,36.0701406],[139.0175213,36.0700848],[139.0176272,36.0700272],[139.0178575,36.0700035],[139.0178737,36.0698963],[139.017894,36.0698872],[139.0178855,36.06989],[139.0178823,36.0698906],[139.0178844,36.0698895],[139.0178789,36.0698907],[139.0178427,36.069886],[139.0177515,36.0698777],[139.0176688,36.0699122],[139.017416,36.0699501],[139.017373,36.0699717],[139.0173491,36.0699712],[139.0171882,36.0700109],[139.017187,36.0700098],[139.0171771,36.0699824],[139.0171539,36.0699187],[139.0171262,36.0698412],[139.0170907,36.0697684],[139.0170545,36.0697128],[139.0170214,36.0696689],[139.0169573,36.0695841],[139.0169775,36.0695768],[139.0172018,36.0694962],[139.0173837,36.0695819],[139.0174311,36.0695719],[139.0175011,36.0695932],[139.0177685,36.0696471],[139.0178161,36.0696182],[139.0178844,36.0695948],[139.0180292,36.069467],[139.0181508,36.0694745],[139.0183101,36.0695962],[139.0183115,36.0695973],[139.0183406,36.0696195],[139.0184604,36.0696984],[139.0185078,36.0698385],[139.0185161,36.0698629],[139.0185297,36.0699029]]]},"properties":{"layer":"landslide","class_code":"1","class_label":"急傾斜地の崩落","status_code":"0","status_label":"特別警戒区域指定済み"}},{"type":"Feature","id":"lsld_c680fe6f-add5-43eb-b872-3a1ca0bb0b82","geometry":{"type":"Polygon","coordinates":[[[139.0192097,36.0696053],[139.0190442,36.0696152],[139.0190342,36.0696158],[139.0189972,36.069618],[139.0189605,36.0696202],[139.0189371,36.0696208],[139.0188671,36.0696228],[139.0188702,36.0695984],[139.0188811,36.0695121],[139.0188851,36.0694773],[139.0188635,36.0693919],[139.0188641,36.0693904],[139.0189301,36.0692169],[139.0190044,36.0692494],[139.0190693,36.0691698],[139.019,36.0691088],[139.0190923,36.0690469],[139.0191664,36.06913],[139.0191693,36.0691332],[139.0191814,36.0691468],[139.0191928,36.0691596],[139.019423,36.0694178],[139.0195026,36.0695035],[139.0195309,36.0695306],[139.0195222,36.0695381],[139.0195245,36.069541],[139.0195151,36.0695565],[139.0195139,36.0695573],[139.0195118,36.0695648],[139.0195106,36.0695804],[139.0195099,36.0695876],[139.0195029,36.0696018],[139.0194451,36.0695996],[139.0192097,36.0696053]]]},"properties":{"layer":"landslide","class_code":"1","class_label":"急傾斜地の崩落","status_code":"0","status_label":"特別警戒区域指定済み"}},{"type":"Feature","id":"lsld_2a3d7c19-32e5-4573-a998-6be2d7e5092e","geometry":{"type":"Polygon","coordinates":[[[139.0214157,36.0677664],[139.0214978,36.0677935],[139.0215548,36.0679602],[139.0215259,36.0679853],[139.0214769,36.0680277],[139.0214656,36.068039],[139.0212528,36.0682537],[139.0211139,36.0684062],[139.0209718,36.0685728],[139.0208939,36.0686561],[139.0208879,36.0686484],[139.0208687,36.06864],[139.0208893,36.068602],[139.0212576,36.0678288],[139.0213048,36.0677297],[139.0214157,36.0677664]]]},"properties":{"layer":"landslide","class_code":"1","class_label":"急傾斜地の崩落","status_code":"0","status_label":"特別警戒区域指定済み"}},{"type":"Feature","id":"lsld_8c9ce4b9-162d-49cf-ae59-5822667255fc","geometry":{"type":"Polygon","coordinates":[[[139.0224125,36.0679791],[139.0224111,36.0679815],[139.0224032,36.0679942],[139.0222308,36.0682727],[139.0221208,36.068451],[139.0220908,36.0685148],[139.0220902,36.0685168],[139.022084,36.0685164],[139.022055,36.0684495],[139.0220137,36.0683943],[139.0218862,36.0681549],[139.0218684,36.0681153],[139.0218269,36.0680604],[139.0217826,36.0680196],[139.0217542,36.0679585],[139.0217037,36.0678503],[139.0216974,36.0678367],[139.0216632,36.0677634],[139.0217586,36.0677836],[139.0218632,36.0678058],[139.0218932,36.0678129],[139.0219142,36.0678178],[139.0219503,36.0678263],[139.0219828,36.0678094],[139.0221194,36.0678435],[139.0221946,36.0678624],[139.0223218,36.0678837],[139.0224344,36.0679132],[139.0224717,36.0678835],[139.0224125,36.0679791]]]},"properties":{"layer":"landslide","class_code":"1","class_label":"急傾斜地の崩落","status_code":"0","status_label":"特別警戒区域指定済み"}},{"type":"Feature","id":"lsld_5897ad52-7901-4ec9-8250-78868c1fe99f","geometry":{"type":"Polygon","coordinates":[[[139.0237894,36.0694253],[139.023763,36.0694478],[139.0237617,36.0694465],[139.0237603,36.0694458],[139.0237568,36.0694427],[139.0237035,36.0694184],[139.0236853,36.0694141],[139.0236843,36.069414],[139.0236825,36.0694155],[139.0236825,36.069412],[139.0237417,36.0692302],[139.023772,36.0690843],[139.0238224,36.0689395],[139.0238577,36.0688195],[139.0238683,36.0687185],[139.023857,36.0685818],[139.0238442,36.0684728],[139.0238429,36.068395],[139.0238545,36.0683052],[139.0238674,36.0682525],[139.0238704,36.06824],[139.0238784,36.0682072],[139.0239039,36.0681031],[139.024077,36.0681737],[139.0241369,36.0681981],[139.0242361,36.0681805],[139.024418,36.0682201],[139.0247102,36.0683242],[139.0247693,36.0683528],[139.0248308,36.0683824],[139.0248528,36.0684005],[139.0249676,36.0684953],[139.025,36.06855303257791],[139.025,36.06878566012862],[139.0249824,36.0687933],[139.0249807,36.068794],[139.024965,36.0688008],[139.0248694,36.0688421],[139.0247599,36.0688893],[139.0244518,36.0690348],[139.0241939,36.0691659],[139.0240121,36.0692771],[139.0237894,36.0694253]]]},"properties":{"layer":"landslide","class_code":"1","class_label":"急傾斜地の崩落","status_code":"0","status_label":"特別警戒区域指定済み"}},{"type":"Feature","id":"lsld_f13cfa8b-64f2-4027-a4da-2a4e2bbe8b48","geometry":{"type":"Polygon","coordinates":[[[139.0191533,36.0710506],[139.0191841,36.0710798],[139.0192133,36.0711035],[139.0192583,36.0711273],[139.0193082,36.0711485],[139.0193183,36.0711519],[139.0193204,36.071153],[139.0193186,36.0711536],[139.019318,36.0711539],[139.019319,36.0711546],[139.0193191,36.0711571],[139.019319,36.0711573],[139.0193177,36.0711605],[139.0193159,36.0711611],[139.0193162,36.0711622],[139.0193141,36.0711632],[139.0193103,36.0711637],[139.0193083,36.0711651],[139.0193101,36.0711672],[139.0192393,36.0711469],[139.019145,36.0711199],[139.0190317,36.0710891],[139.0189457,36.0710665],[139.0188084,36.0710358],[139.0186653,36.071013],[139.0185489,36.071006],[139.0184298,36.0710093],[139.0184071,36.0710128],[139.0183354,36.0710235],[139.0183337,36.0710238],[139.018216,36.0710501],[139.0181969,36.0710251],[139.0181038,36.0709031],[139.0180852,36.0708786],[139.0181321,36.0708014],[139.0181405,36.0707935],[139.0181552,36.0707797],[139.0182509,36.0706893],[139.0182745,36.070667],[139.0182934,36.0706111],[139.0183104,36.0705747],[139.0183107,36.0705743],[139.018342,36.0705668],[139.0183913,36.0705385],[139.0183907,36.070538],[139.0183518,36.0705026],[139.0183521,36.0705007],[139.0183666,36.0704008],[139.0184318,36.0703239],[139.0184321,36.0703235],[139.0185101,36.0702465],[139.0185105,36.0702461],[139.0186677,36.0701538],[139.0186678,36.0701911],[139.0186681,36.0702549],[139.0186705,36.070267],[139.0186827,36.0703284],[139.0186895,36.0703491],[139.0187158,36.0704298],[139.0187776,36.0705563],[139.0188514,36.0706913],[139.0188949,36.0707511],[139.0189546,36.070818],[139.0189858,36.0708532],[139.0190414,36.0709174],[139.0190959,36.0709821],[139.0191533,36.0710506]]]},"properties":{"layer":"landslide","class_code":"1","class_label":"急傾斜地の崩落","status_code":"0","status_label":"特別警戒区域指定済み"}},{"type":"Feature","id":"lsld_54e114a3-3a5e-4e01-b596-13133e85a691","geometry":{"type":"Polygon","coordinates":[[[139.0178149,36.0697058],[139.0177207,36.0697242],[139.0175619,36.0697073],[139.0174278,36.0696674],[139.0173401,36.0696335],[139.0171878,36.0695991],[139.0170644,36.0696125],[139.0169971,36.0695906],[139.0169775,36.0695768],[139.0169226,36.0695382],[139.0168908,36.0695159],[139.0167188,36.069406],[139.0165563,36.0693516],[139.0165696,36.0692794],[139.016576,36.0692445],[139.0165829,36.0692072],[139.0165907,36.0691643],[139.0168494,36.0691836],[139.0170107,36.0692341],[139.0170623,36.0692503],[139.0171777,36.069312],[139.017252,36.0693517],[139.0174109,36.0694344],[139.0176148,36.0694661],[139.0178006,36.0694802],[139.0179188,36.0694123],[139.0180925,36.069296],[139.018277,36.069195],[139.0184303,36.0690499],[139.018591,36.0689154],[139.018704,36.0688707],[139.0188069,36.0688594],[139.0190235,36.0688027],[139.0191845,36.0686666],[139.0193242,36.0685031],[139.0193469,36.0684436],[139.0193531,36.0684275],[139.0194135,36.0682692],[139.0195737,36.0684953],[139.0195861,36.0685293],[139.0195931,36.0685486],[139.0196137,36.0686052],[139.0196211,36.0687458],[139.0196117,36.068803],[139.019582,36.0688673],[139.0195276,36.0689835],[139.0194479,36.0690393],[139.0192526,36.0691252],[139.0191928,36.0691596],[139.0191635,36.0691764],[139.0190969,36.0692146],[139.0190706,36.0692297],[139.0190602,36.0692593],[139.019028,36.0693509],[139.0190127,36.0693946],[139.0190157,36.0694344],[139.019023,36.0695305],[139.0189966,36.0695558],[139.0189489,36.0696015],[139.0189473,36.0696014],[139.0188702,36.0695984],[139.0188511,36.0695977],[139.0188184,36.0695964],[139.0186131,36.0695963],[139.0185717,36.0695963],[139.0185621,36.0695963],[139.0185593,36.0695963],[139.0183113,36.0695962],[139.0183101,36.0695962],[139.0183057,36.0695962],[139.0180493,36.0695961],[139.0178149,36.0697058]]]},"properties":{"layer":"landslide","class_code":"2","class_label":"土石流","status_code":"0","status_label":"特別警戒区域指定済み"}},{"type":"Feature","id":"lsld_31adf1bb-3a9e-4993-95cf-8444857f23cd","geometry":{"type":"Polygon","coordinates":[[[139.0169185,36.0716682],[139.0168425,36.0718063],[139.0167187,36.0719792],[139.0166567,36.0721371],[139.0165392,36.0722936],[139.0164547,36.0723812],[139.016356,36.0724205],[139.0161665,36.0725607],[139.0161007,36.0727328],[139.0160648,36.0728926],[139.0160723,36.0730291],[139.0160464,36.0731207],[139.0159654,36.0732869],[139.0158759,36.0733958],[139.0157851,36.0735811],[139.0156495,36.0737743],[139.0155661,36.0738857],[139.0152889,36.0740202],[139.0152749,36.0740052],[139.0152238,36.0739507],[139.0151516,36.0738739],[139.0151272,36.0738479],[139.0152332,36.0737848],[139.0154289,36.0736418],[139.0154825,36.0735028],[139.0155914,36.073353],[139.0157062,36.0731669],[139.0158248,36.0730178],[139.0158379,36.0728716],[139.0159187,36.0726873],[139.0159594,36.0725071],[139.0160089,36.0723308],[139.0159712,36.072161],[139.0161257,36.0721381],[139.0163069,36.0720638],[139.0164946,36.0720488],[139.0165429,36.0718806],[139.0166221,36.0717352],[139.0167398,36.0715497],[139.0170488,36.0714124],[139.0172265,36.0714026],[139.0172936,36.0713876],[139.0174296,36.0712677],[139.0176007,36.071132],[139.0177285,36.0709834],[139.0177195,36.0709516],[139.0177028,36.0708932],[139.0177062,36.0708867],[139.0177624,36.0707771],[139.0178156,36.0707084],[139.0178811,36.0706238],[139.0179907,36.0704648],[139.0180294,36.0702887],[139.0180347,36.0702648],[139.0180395,36.0702514],[139.0180848,36.0701272],[139.0180895,36.0701142],[139.0181984,36.0699481],[139.0182665,36.0698902],[139.0183623,36.0698432],[139.0183599,36.069792],[139.0183115,36.0695973],[139.0183113,36.0695962],[139.0182416,36.0693158],[139.0184033,36.0692965],[139.0184408,36.0692609],[139.0184556,36.0692469],[139.0185366,36.06917],[139.01865,36.0691291],[139.0186547,36.0691288],[139.018813,36.0691207],[139.0188502,36.0690776],[139.0188537,36.0690746],[139.019002,36.0689494],[139.0190037,36.0689475],[139.0191955,36.0687232],[139.0192325,36.0686887],[139.0193957,36.0685134],[139.0193469,36.0684436],[139.0192848,36.068355],[139.0192268,36.0682692],[139.019291,36.0681612],[139.019381,36.0681031],[139.0196205,36.0680438],[139.0198022,36.0679814],[139.0199796,36.0678859],[139.0201367,36.0677577],[139.020263,36.0675482],[139.020272,36.0675596],[139.0202738,36.067562],[139.0203001,36.0675649],[139.0206351,36.067602],[139.0208481,36.0675924],[139.0210125,36.0676119],[139.0211636,36.0675598],[139.021292,36.0675201],[139.0214298,36.0674775],[139.0214466,36.0674793],[139.0216698,36.0675023],[139.0217314,36.0675289],[139.0218759,36.0675913],[139.0220346,36.0676637],[139.0220688,36.0676794],[139.0222591,36.067746],[139.0222684,36.0677493],[139.0222996,36.0677582],[139.0224639,36.0678052],[139.0226809,36.0678379],[139.0229212,36.0678819],[139.0231058,36.067909],[139.0233267,36.0679224],[139.0235611,36.0679586],[139.0237439,36.0679867],[139.0239713,36.0680129],[139.0240652,36.0680195],[139.024166,36.0680265],[139.0242181,36.0680302],[139.0242821,36.0680211],[139.0245759,36.0679549],[139.0247199,36.0679757],[139.0247902,36.0679859],[139.0247961,36.0679867],[139.0248199,36.0679935],[139.024897,36.0680154],[139.025,36.0680445509434],[139.025,36.068759278942224],[139.0249114,36.0686246],[139.0248637,36.0685782],[139.0247632,36.0684804],[139.0245473,36.0683834],[139.0244199,36.0683446],[139.0240866,36.0682995],[139.0240737,36.0682977],[139.0239511,36.0682672],[139.0238674,36.0682525],[139.0237414,36.0682304],[139.0234923,36.0681593],[139.0232911,36.0681185],[139.0230687,36.068101],[139.0228237,36.068037],[139.0226496,36.0679915],[139.0224202,36.067997],[139.0224032,36.0679942],[139.0221612,36.0679557],[139.021952,36.0678652],[139.0219142,36.0678178],[139.0219025,36.0678032],[139.0218345,36.0677179],[139.0218121,36.0676898],[139.0216286,36.0675984],[139.0215848,36.0675952],[139.0214255,36.0675839],[139.0213563,36.0676484],[139.0213334,36.0676697],[139.0213137,36.0676881],[139.0210665,36.0677439],[139.0208342,36.0677664],[139.0206141,36.0677961],[139.0204901,36.0678703],[139.0203424,36.0679646],[139.0202579,36.0680427],[139.0201264,36.0681264],[139.0199459,36.068181],[139.0196924,36.0682275],[139.0195557,36.0682559],[139.0195289,36.0682988],[139.0195792,36.0684757],[139.0195931,36.0685486],[139.0196156,36.0686666],[139.0195884,36.0687887],[139.019522,36.068888],[139.0194899,36.0689406],[139.0192875,36.069025],[139.019188,36.0691359],[139.0191814,36.0691468],[139.0191635,36.0691764],[139.019088,36.0693011],[139.0190353,36.0694872],[139.0190343,36.0696028],[139.0190342,36.0696158],[139.0190335,36.0696967],[139.0190331,36.0697353],[139.0189856,36.069773],[139.018904,36.069838],[139.0188841,36.0698537],[139.0187888,36.0700215],[139.0187639,36.0702152],[139.0187716,36.0702928],[139.0186895,36.0703491],[139.0186134,36.0704013],[139.018496,36.0705471],[139.0183989,36.0707132],[139.0183334,36.07086],[139.0183267,36.0708748],[139.0182936,36.0709615],[139.0181969,36.0710251],[139.0181785,36.0710372],[139.0179867,36.0711014],[139.0179597,36.0711104],[139.0179414,36.0711165],[139.0177782,36.0712406],[139.0176366,36.071348],[139.0175303,36.0715292],[139.0174254,36.0716097],[139.0172745,36.07166],[139.0170316,36.0716504],[139.0169185,36.0716682]]]},"properties":{"layer":"landslide","class_code":"2","class_label":"土石流","status_code":"0","status_label":"特別警戒区域指定済み"}},{"type":"Feature","id":"lsld_067a4fab-c69f-417f-89b2-cab9587822ba","geometry":{"type":"Polygon","coordinates":[[[139.0180395,36.0702514],[139.0180508,36.0702748],[139.0180531,36.0702796],[139.0181231,36.0704245],[139.0181444,36.0704686],[139.0181959,36.0705753],[139.0182379,36.0706624],[139.0182509,36.0706893],[139.018263,36.0707142],[139.0183315,36.0708561],[139.0183334,36.07086],[139.0184071,36.0710128],[139.0184251,36.07105],[139.0183821,36.0710937],[139.0183644,36.0711117],[139.018348,36.0711283],[139.018322,36.0711548],[139.0180684,36.0711237],[139.0179597,36.0711104],[139.0179511,36.0711093],[139.0179306,36.0711068],[139.0178149,36.0710926],[139.0177798,36.0710875],[139.0176735,36.0710718],[139.0176824,36.0710604],[139.0177315,36.0709972],[139.0177319,36.070959],[139.0177309,36.0709539],[139.0177222,36.0709065],[139.017739,36.0708411],[139.0177747,36.0707961],[139.0178016,36.0707474],[139.0178156,36.0707084],[139.0178242,36.0706844],[139.0178268,36.070576],[139.0178282,36.0705682],[139.017844,36.0704808],[139.0178783,36.0704227],[139.0179289,36.0703551],[139.0179672,36.0703125],[139.0179779,36.0703006],[139.0179784,36.0703002],[139.018039,36.0702504],[139.0180395,36.0702514]]]},"properties":{"layer":"landslide","class_code":"2","class_label":"土石流","status_code":"0","status_label":"特別警戒区域指定済み"}},{"type":"Feature","id":"lsld_78c48136-906e-4d39-b355-810e2151d857","geometry":{"type":"Polygon","coordinates":[[[139.0186475,36.0691199],[139.0186547,36.0691288],[139.0186627,36.0691389],[139.0187334,36.0692271],[139.0187873,36.0692944],[139.0188641,36.0693904],[139.018927,36.0694689],[139.0189759,36.06953],[139.0189814,36.0695368],[139.0189966,36.0695558],[139.0190343,36.0696028],[139.0190442,36.0696152],[139.0190668,36.0696435],[139.0190335,36.0696967],[139.0190183,36.0697208],[139.0190138,36.069728],[139.0189931,36.069761],[139.0189856,36.069773],[139.0189461,36.0698362],[139.018904,36.069838],[139.0188333,36.069841],[139.0188137,36.0698418],[139.0187796,36.0698433],[139.01869,36.0698472],[139.0186663,36.0698476],[139.0185632,36.0698497],[139.018562,36.0698449],[139.0185506,36.0698001],[139.0185181,36.069673],[139.0185627,36.0696209],[139.0185593,36.0695963],[139.0185513,36.0695375],[139.018549,36.0695207],[139.0185236,36.0694228],[139.0184953,36.0693226],[139.0184683,36.0692711],[139.0184623,36.0692597],[139.0184556,36.0692469],[139.0184464,36.0692293],[139.0184978,36.0691412],[139.0186172,36.0690829],[139.0186177,36.0690827],[139.0186475,36.0691199]]]},"properties":{"layer":"landslide","class_code":"2","class_label":"土石流","status_code":"0","status_label":"特別警戒区域指定済み"}},{"type":"Feature","id":"lsld_20a2a7f4-790c-4ef1-8b70-ec934568a1a9","geometry":{"type":"Polygon","coordinates":[[[139.0217118,36.0674634],[139.0217792,36.0674817],[139.0218698,36.0675157],[139.0220816,36.0676101],[139.0220346,36.0676637],[139.0220305,36.0676683],[139.0220298,36.0676692],[139.0220234,36.0676765],[139.0219563,36.0677468],[139.0219025,36.0678032],[139.0218932,36.0678129],[139.0218664,36.067841],[139.0217542,36.0679585],[139.0217092,36.0680057],[139.021624,36.0679962],[139.021599,36.0679934],[139.0215259,36.0679853],[139.0214289,36.0677925],[139.0214157,36.0677664],[139.0213563,36.0676484],[139.0213498,36.0676353],[139.0213319,36.0675999],[139.0212995,36.0675351],[139.021292,36.0675201],[139.02128,36.0674962],[139.0213846,36.0674612],[139.0214757,36.0674487],[139.0215741,36.0674458],[139.0217118,36.0674634]]]},"properties":{"layer":"landslide","class_code":"2","class_label":"土石流","status_code":"0","status_label":"特別警戒区域指定済み"}},{"type":"Feature","id":"lsld_ab3d7d3d-a710-4c9f-b6e4-7f5b158466db","geometry":{"type":"Polygon","coordinates":[[[139.02492,36.0680128],[139.025,36.068037565625],[139.025,36.06902917948544],[139.0249905,36.0690383],[139.0248403,36.0689777],[139.0248694,36.0688421],[139.0248801,36.0687923],[139.0248769,36.0687507],[139.024874,36.0687138],[139.0248641,36.0685845],[139.0248637,36.0685782],[139.0248528,36.0684005],[139.0248516,36.0683817],[139.0248496,36.0683589],[139.0248332,36.0681719],[139.0248202,36.0679977],[139.0248199,36.0679935],[139.0248194,36.0679873],[139.0248177,36.0679645],[139.02492,36.0680128]]]},"properties":{"layer":"landslide","class_code":"2","class_label":"土石流","status_code":"0","status_label":"特別警戒区域指定済み"}},{"type":"Feature","id":"lsld_4ae311f8-4779-48da-98da-5cc0024a4e87","geometry":{"type":"Polygon","coordinates":[[[139.0168255,36.0692243],[139.0168942,36.0692328],[139.0168842,36.0692499],[139.0168307,36.0693411],[139.0167694,36.0693198],[139.0167555,36.069317],[139.0165696,36.0692794],[139.016576,36.0692445],[139.0165829,36.0692072],[139.0168255,36.0692243]]]},"properties":{"layer":"landslide","class_code":"2","class_label":"土石流","status_code":"0","status_label":"特別警戒区域指定済み"}},{"type":"Feature","id":"lsld_fe1c1285-a7f0-4f30-a7aa-ffd10c74b198","geometry":{"type":"Polygon","coordinates":[[[139.0168817,36.0716423],[139.0167901,36.0717894],[139.016706,36.0719721],[139.0166478,36.0721323],[139.0164329,36.0722027],[139.0163629,36.0723144],[139.0162123,36.0723833],[139.0161518,36.0725569],[139.0160964,36.0727317],[139.0160625,36.0728924],[139.0160003,36.0731063],[139.0158192,36.0732298],[139.0157373,36.073375],[139.0157516,36.0735724],[139.0156243,36.0737592],[139.015514,36.0738699],[139.0152749,36.0740052],[139.0152238,36.0739507],[139.0151516,36.0738739],[139.0152698,36.0737958],[139.0154456,36.0736519],[139.0155147,36.0735111],[139.0156091,36.0733557],[139.0157083,36.073168],[139.0158329,36.0730219],[139.0158394,36.0728718],[139.0159466,36.072693],[139.0159778,36.0725119],[139.0160375,36.0723382],[139.0161417,36.07215],[139.0163148,36.0720725],[139.0165019,36.0720528],[139.0165505,36.0718849],[139.0166407,36.0717412],[139.0167602,36.071563],[139.0170458,36.0714544],[139.0172346,36.0714459],[139.0173369,36.0714135],[139.0174779,36.0712865],[139.0176082,36.0711365],[139.0176824,36.0710604],[139.017746,36.0709952],[139.0177465,36.0709946],[139.0177562,36.070959],[139.0177996,36.0708004],[139.0179918,36.070693],[139.0180013,36.0706819],[139.0180998,36.0705672],[139.0181189,36.070545],[139.0181231,36.0704245],[139.0181266,36.0703223],[139.0182821,36.0701676],[139.0183366,36.0701028],[139.0183793,36.0699622],[139.0183827,36.0699508],[139.0184535,36.0698873],[139.0185078,36.0698385],[139.0185506,36.0698001],[139.0185547,36.0697964],[139.0186025,36.0696302],[139.0186114,36.0695997],[139.0186131,36.0695963],[139.0186722,36.0694732],[139.0186733,36.0693869],[139.0186745,36.0692983],[139.0187334,36.0692271],[139.0188176,36.0691254],[139.0188463,36.0690907],[139.0188538,36.0690816],[139.0190187,36.0689662],[139.0190196,36.0689653],[139.0192081,36.0687646],[139.0192652,36.0687112],[139.0193307,36.0686834],[139.0194021,36.0685121],[139.0193531,36.0684275],[139.0193095,36.0683524],[139.0193921,36.0681177],[139.019625,36.0680553],[139.0198145,36.0679984],[139.0199924,36.0679009],[139.0201589,36.0677833],[139.020272,36.0675596],[139.0203001,36.0675649],[139.0206307,36.0676288],[139.0208451,36.0676292],[139.0210224,36.0676361],[139.0211864,36.0675793],[139.0212995,36.0675351],[139.02142,36.0674879],[139.0214296,36.0674842],[139.0215384,36.0674956],[139.0216212,36.0675043],[139.0216669,36.0675091],[139.0217382,36.0675397],[139.0218721,36.0675971],[139.0219415,36.0676288],[139.0220298,36.0676692],[139.0220651,36.0676853],[139.0222656,36.0677546],[139.0224623,36.0678121],[139.0225055,36.067818],[139.0226801,36.0678421],[139.0229165,36.0678893],[139.0231035,36.067921],[139.0233249,36.0679323],[139.0235561,36.0679731],[139.0237437,36.068005],[139.0239218,36.0680297],[139.0239694,36.0680363],[139.0240669,36.0680423],[139.0242069,36.068051],[139.0242862,36.0680947],[139.0245749,36.0679694],[139.0247199,36.0679757],[139.02477,36.0679779],[139.0247966,36.0679791],[139.0248194,36.0679873],[139.024897,36.0680154],[139.025,36.06805256494845],[139.025,36.06839946072424],[139.0249584,36.068368],[139.0248496,36.0683589],[139.0247717,36.0683524],[139.0247693,36.0683528],[139.0245474,36.068382],[139.0244181,36.0683411],[139.0240864,36.0682974],[139.0240747,36.0682959],[139.0239519,36.0682574],[139.0238704,36.06824],[139.0237415,36.0682126],[139.0234951,36.0681512],[139.0232922,36.0681123],[139.0230697,36.068096],[139.0228261,36.0680332],[139.0226505,36.067987],[139.0224226,36.0679862],[139.0224111,36.0679815],[139.0221937,36.0678931],[139.0221194,36.0678435],[139.0220111,36.0677713],[139.0219563,36.0677468],[139.0218331,36.0676917],[139.0218159,36.067684],[139.0216302,36.0675945],[139.0215826,36.0675906],[139.0214257,36.0675778],[139.0213498,36.0676353],[139.0212979,36.0676746],[139.021065,36.0677402],[139.0208347,36.0677591],[139.020608,36.0677668],[139.0204369,36.0678029],[139.0202752,36.0679178],[139.0201074,36.0680358],[139.0199098,36.0681309],[139.0196724,36.0681764],[139.019482,36.0682368],[139.0195343,36.0683291],[139.0195775,36.068476],[139.0195861,36.0685293],[139.0196082,36.068667],[139.0195109,36.0688803],[139.0192812,36.0690041],[139.0191735,36.0691214],[139.0191664,36.06913],[139.0190969,36.0692146],[139.0190602,36.0692593],[139.0190376,36.0692868],[139.0190354,36.0693008],[139.019028,36.0693509],[139.0190157,36.0694344],[139.019008,36.0694862],[139.0189814,36.0695368],[139.0189473,36.0696014],[139.0189371,36.0696208],[139.0189275,36.069639],[139.0189017,36.0696881],[139.0188995,36.0696923],[139.0188791,36.0697277],[139.0188138,36.0698415],[139.0188137,36.0698418],[139.0187605,36.0700166],[139.018747,36.070114],[139.018734,36.0702073],[139.0186705,36.070267],[139.0185581,36.0703727],[139.0184298,36.0705118],[139.0183273,36.0706752],[139.018263,36.0707142],[139.0181552,36.0707797],[139.0181426,36.0707873],[139.0181405,36.0707935],[139.0181038,36.0709031],[139.0180796,36.0709754],[139.0179306,36.0711068],[139.0179286,36.0711085],[139.0179187,36.0711166],[139.0177711,36.0712363],[139.0176218,36.0713423],[139.0175046,36.0715138],[139.0172668,36.0716184],[139.0170352,36.0716008],[139.0168817,36.0716423]]]},"properties":{"layer":"landslide","class_code":"2","class_label":"土石流","status_code":"0","status_label":"特別警戒区域指定済み"}},{"type":"Feature","id":"lsld_9c28e6eb-e9ba-4f94-8f0b-b25f63d66b0b","geometry":{"type":"Polygon","coordinates":[[[139.0183644,36.0711117],[139.018348,36.0711283],[139.0182756,36.0711152],[139.0183398,36.07105],[139.0183821,36.0710937],[139.0183644,36.0711117]]]},"properties":{"layer":"landslide","class_code":"2","class_label":"土石流","status_code":"0","status_label":"特別警戒区域指定済み"}},{"type":"Feature","id":"lsld_5935cd17-89bc-4c4f-97df-f8aa05077610","geometry":{"type":"Polygon","coordinates":[[[139.0189275,36.069639],[139.0190183,36.0697208],[139.0190138,36.069728],[139.0189931,36.069761],[139.0189017,36.0696881],[139.0188851,36.0696749],[139.0189148,36.0696275],[139.0189275,36.069639]]]},"properties":{"layer":"landslide","class_code":"2","class_label":"土石流","status_code":"0","status_label":"特別警戒区域指定済み"}},{"type":"Feature","id":"lsld_afd316df-5e7b-4fe3-a1c8-c1c4c21c002d","geometry":{"type":"Polygon","coordinates":[[[139.0216376,36.0678884],[139.0217006,36.0678954],[139.0216461,36.0679985],[139.021624,36.0679962],[139.021599,36.0679934],[139.0216321,36.0678932],[139.0216338,36.067888],[139.0216376,36.0678884]]]},"properties":{"layer":"landslide","class_code":"2","class_label":"土石流","status_code":"0","status_label":"特別警戒区域指定済み"}},{"type":"Feature","id":"lsld_1e4d2ca4-0059-42ed-8b45-cc77b769214c","geometry":{"type":"Polygon","coordinates":[[[139.0249824,36.0687933],[139.025,36.068800397081084],[139.025,36.068932156745696],[139.0249333,36.069015],[139.0249095,36.0690055],[139.0248931,36.0689988],[139.024996,36.0688506],[139.025,36.06884488571428],[139.025,36.06883653148147],[139.0249807,36.068794],[139.0249799,36.0687923],[139.0249824,36.0687933]]]},"properties":{"layer":"landslide","class_code":"2","class_label":"土石流","status_code":"0","status_label":"特別警戒区域指定済み"}},{"type":"Feature","id":"lsld_d59be036-f208-4a36-9df4-90284a708570","geometry":{"type":"Polygon","coordinates":[[[139.025,36.06666666666667],[139.025,36.0667009623709],[139.024968,36.0666976],[139.02483348345476,36.06666666666667],[139.025,36.06666666666667]]]},"properties":{"layer":"landslide","class_code":"3","class_label":"地すべり","status_code":"0","status_label":"特別警戒区域指定済み"}},{"type":"Feature","id":"lsld_3e8fa3df-e804-4bed-a01a-c9a809f81009","geometry":{"type":"Polygon","coordinates":[[[139.025,36.068855657934506],[139.024999,36.0688556],[139.024996,36.0688506],[139.0249673,36.068803],[139.024965,36.0688008],[139.024874,36.0687138],[139.0248591,36.0686994],[139.0247383,36.0686039],[139.0246422,36.0685326],[139.024531,36.0684795],[139.0243553,36.0684198],[139.0242016,36.0683845],[139.0240922,36.068374],[139.0240866,36.0682995],[139.0240864,36.0682974],[139.024077,36.0681737],[139.0240669,36.0680423],[139.0240661,36.068031],[139.0240652,36.0680195],[139.0240178,36.0673985],[139.0240128,36.0671724],[139.0240408,36.0669861],[139.0240791,36.066821],[139.0241532,36.0667198],[139.02421078913503,36.06666666666667],[139.02457121346157,36.06666666666667],[139.0247068,36.0667065],[139.0249204,36.0667546],[139.025,36.06678631753846],[139.025,36.068855657934506]]]},"properties":{"layer":"landslide","class_code":"3","class_label":"地すべり","status_code":"0","status_label":"特別警戒区域指定済み"}}]}