{"type":"FeatureCollection","properties":{"mesh_code":"54390055","source":"PLATEAU秩父市2025","layer":"landslide"},"features":[{"type":"Feature","id":"lsld_227018b1-75f1-4e8c-8b40-df26ff4d6f81","geometry":{"type":"Polygon","coordinates":[[[139.06471720697675,36.05],[139.06460882500002,36.05],[139.0647037,36.0499703],[139.06471720697675,36.05]]]},"properties":{"layer":"landslide","class_code":"1","class_label":"急傾斜地の崩落","status_code":"0","status_label":"特別警戒区域指定済み"}},{"type":"Feature","id":"lsld_65446b9d-c598-49ed-bd4b-d00a419f23b1","geometry":{"type":"Polygon","coordinates":[[[139.0634311,36.0472056],[139.0634942,36.0472751],[139.0636532,36.0474502],[139.0635957,36.047581],[139.0632955,36.047622],[139.0628643,36.0475754],[139.0625,36.047545698570325],[139.0625,36.047221106727484],[139.0625464,36.0471946],[139.0626243,36.0471501],[139.0626447,36.04714],[139.0627105,36.0471107],[139.0627657,36.0470923],[139.0627683,36.0470919],[139.0628518,36.0470798],[139.062961,36.047064],[139.0630141,36.0471147],[139.063015,36.047112],[139.0630197,36.0470944],[139.0631057,36.0470545],[139.0632273,36.0469812],[139.0632931,36.0470538],[139.063334,36.0470988],[139.0634311,36.0472056]]]},"properties":{"layer":"landslide","class_code":"1","class_label":"急傾斜地の崩落","status_code":"0","status_label":"特別警戒区域指定済み"}},{"type":"Feature","id":"lsld_a8962ef9-a4a9-4acb-a92b-9a0343c1c0df","geometry":{"type":"Polygon","coordinates":[[[139.075,36.0492042278761],[139.0747885,36.049133],[139.0747976,36.0490595],[139.0747865,36.0489738],[139.0747374,36.0489168],[139.074652,36.0487655],[139.0748607,36.0487091],[139.075,36.04867137141378],[139.075,36.0492042278761]]]},"properties":{"layer":"landslide","class_code":"1","class_label":"急傾斜地の崩落","status_code":"0","status_label":"特別警戒区域指定済み"}},{"type":"Feature","id":"lsld_8d146b8c-c916-499e-85ed-4a22b97c8d17","geometry":{"type":"Polygon","coordinates":[[[139.0735801,36.0455716],[139.073498,36.0456821],[139.07331,36.0458126],[139.0732499,36.0458414],[139.0732087,36.045843],[139.0731814,36.0458441],[139.073134,36.0458287],[139.0730903,36.0458146],[139.0730219,36.0457925],[139.0729253,36.0457613],[139.0726286,36.0455984],[139.0726412,36.0455712],[139.0725703,36.0455885],[139.0723843,36.0455063],[139.0723039,36.0453509],[139.0721282,36.0452644],[139.0720259,36.0451866],[139.0719905,36.0450958],[139.0719375,36.0450286],[139.0719637,36.0449337],[139.071987,36.0448492],[139.0719999,36.0448021],[139.07206,36.0448065],[139.0720713,36.0448074],[139.0720931,36.044809],[139.0721104,36.0448102],[139.0722044,36.0448171],[139.072315,36.0448252],[139.0723188,36.0448263],[139.0723816,36.0448849],[139.0724334,36.0449649],[139.0726229,36.0448936],[139.07263,36.0448834],[139.0726367,36.0448884],[139.0726359,36.044889],[139.0726557,36.0449074],[139.072707,36.0449237],[139.072796,36.0449105],[139.073073,36.0448766],[139.0734361,36.0448982],[139.0736531,36.045111],[139.0736526,36.0453333],[139.0735801,36.0455716]]]},"properties":{"layer":"landslide","class_code":"1","class_label":"急傾斜地の崩落","status_code":"0","status_label":"特別警戒区域指定済み"}},{"type":"Feature","id":"lsld_a21313b7-6008-49d9-a1e8-8409a24d7ad7","geometry":{"type":"Polygon","coordinates":[[[139.0721486,36.0448694],[139.0720722,36.0449066],[139.0720529,36.0449161],[139.0719637,36.0449337],[139.071888,36.0449486],[139.0717259,36.04488],[139.0715622,36.0448452],[139.0715043,36.0448548],[139.0714563,36.0448355],[139.0713689,36.0448334],[139.0712889,36.0448919],[139.0711214,36.0448978],[139.0711126,36.0448498],[139.0711051,36.0448087],[139.0710915,36.0447347],[139.0710908,36.0447309],[139.0710945,36.0447291],[139.0711118,36.0447236],[139.0711404,36.0447007],[139.0711621,36.0446662],[139.0711801,36.0446425],[139.0711972,36.0446152],[139.0712214,36.0445916],[139.0712518,36.0445665],[139.0712768,36.044553],[139.0713232,36.0445345],[139.0713651,36.0445196],[139.0714051,36.0445112],[139.0714443,36.0445028],[139.0714782,36.0444967],[139.0715714,36.0445057],[139.0717121,36.0445416],[139.0718555,36.0446546],[139.0718658,36.044658],[139.0719161,36.0446647],[139.0719244,36.0446251],[139.0719907,36.0446974],[139.0720243,36.044734],[139.0720438,36.0447552],[139.0720848,36.0447999],[139.0720931,36.044809],[139.0721486,36.0448694]]]},"properties":{"layer":"landslide","class_code":"1","class_label":"急傾斜地の崩落","status_code":"0","status_label":"特別警戒区域指定済み"}},{"type":"Feature","id":"lsld_697fd74f-cecf-4806-9af3-d3e4f596bd67","geometry":{"type":"Polygon","coordinates":[[[139.0710179,36.0471874],[139.0711257,36.0473561],[139.0713375,36.0473574],[139.0711334,36.0474404],[139.0710089,36.047491],[139.0709187,36.0475277],[139.0706423,36.04764],[139.0705565,36.0476749],[139.0704572,36.0477152],[139.070416,36.0476732],[139.0703471,36.0475738],[139.0702314,36.0474406],[139.0703214,36.0473879],[139.0703994,36.0473424],[139.0705941,36.0472285],[139.0706724,36.0471828],[139.0708715,36.0470663],[139.0709094,36.0470442],[139.0710179,36.0471874]]]},"properties":{"layer":"landslide","class_code":"1","class_label":"急傾斜地の崩落","status_code":"0","status_label":"特別警戒区域指定済み"}},{"type":"Feature","id":"lsld_c4acd341-bfbe-4e37-bab8-7e89d5b03d9f","geometry":{"type":"Polygon","coordinates":[[[139.0712592,36.0427966],[139.0710507,36.0430055],[139.0707854,36.0430448],[139.0706906,36.042998],[139.0706119,36.0429591],[139.0705682,36.0429375],[139.0705373,36.0429223],[139.0705171,36.0429123],[139.0705612,36.0428672],[139.0705717,36.0427497],[139.0703732,36.0426634],[139.0703427,36.0425758],[139.0703507,36.0425202],[139.0702962,36.0426643],[139.070228,36.0425192],[139.0700333,36.0424232],[139.0698635,36.0424034],[139.0698857,36.0423584],[139.0699047,36.0423197],[139.0699281,36.042272],[139.0699693,36.0421883],[139.070068,36.0421226],[139.0702368,36.0419099],[139.07057278654756,36.041666666666664],[139.07071919578323,36.041666666666664],[139.0713083,36.0418435],[139.0714313,36.0422384],[139.0714605,36.0424901],[139.0712592,36.0427966]]]},"properties":{"layer":"landslide","class_code":"1","class_label":"急傾斜地の崩落","status_code":"0","status_label":"特別警戒区域指定済み"}},{"type":"Feature","id":"lsld_ee9aab40-aae2-4df9-b15d-1505e74116e9","geometry":{"type":"Polygon","coordinates":[[[139.0634126,36.0473965],[139.0631894,36.0474368],[139.0629273,36.0473818],[139.0626346,36.0474039],[139.0625,36.04728207896532],[139.0625,36.047221106727484],[139.0625464,36.0471946],[139.0626243,36.0471501],[139.0626447,36.04714],[139.0627105,36.0471107],[139.0627657,36.0470923],[139.0627683,36.0470919],[139.0629171,36.0472499],[139.0629748,36.0472358],[139.0630807,36.0472372],[139.0632092,36.0471914],[139.063334,36.0470988],[139.0634311,36.0472056],[139.0634942,36.0472751],[139.0634126,36.0473965]]]},"properties":{"layer":"landslide","class_code":"1","class_label":"急傾斜地の崩落","status_code":"0","status_label":"特別警戒区域指定済み"}},{"type":"Feature","id":"lsld_3559fa3b-40e5-4275-bf00-c49d744d916b","geometry":{"type":"Polygon","coordinates":[[[139.0735285,36.0453944],[139.0734406,36.0456069],[139.0733587,36.0457203],[139.073134,36.0458287],[139.0730903,36.0458146],[139.0730219,36.0457925],[139.07305,36.0456688],[139.0730955,36.0455746],[139.0730866,36.0454246],[139.0730432,36.0453793],[139.0730241,36.0453054],[139.072989,36.0452486],[139.0728636,36.0452401],[139.0726274,36.0453109],[139.0724964,36.0452589],[139.0724252,36.045177],[139.0722912,36.0451439],[139.0722114,36.0450857],[139.0721549,36.0450071],[139.072078,36.0449541],[139.0720722,36.0449066],[139.0720608,36.0448131],[139.07206,36.0448065],[139.0720713,36.0448074],[139.0720931,36.044809],[139.0721104,36.0448102],[139.0721872,36.0448961],[139.072257,36.0449521],[139.0723121,36.0450309],[139.0724844,36.045001],[139.0725438,36.045007],[139.0725963,36.0450384],[139.0726784,36.0450627],[139.0728224,36.0450396],[139.0730417,36.0450151],[139.0733241,36.0450089],[139.0735061,36.0451757],[139.0735285,36.0453944]]]},"properties":{"layer":"landslide","class_code":"1","class_label":"急傾斜地の崩落","status_code":"0","status_label":"特別警戒区域指定済み"}},{"type":"Feature","id":"lsld_1017394b-84bb-4cc0-b36b-a3b08cc4119e","geometry":{"type":"Polygon","coordinates":[[[139.0720116,36.0448401],[139.071987,36.0448492],[139.0718833,36.0448873],[139.0717507,36.0448369],[139.0716067,36.044755],[139.0715273,36.0447352],[139.0714383,36.0447285],[139.071335,36.0447603],[139.0712493,36.044815],[139.0711126,36.0448498],[139.0711051,36.0448087],[139.0712062,36.0447312],[139.0713024,36.0446901],[139.0714209,36.0446244],[139.0715467,36.0446344],[139.0716497,36.044668],[139.0717729,36.0447983],[139.0718785,36.0448252],[139.07198,36.044782],[139.0720243,36.044734],[139.0720438,36.0447552],[139.0720848,36.0447999],[139.0720713,36.0448074],[139.0720608,36.0448131],[139.0720116,36.0448401]]]},"properties":{"layer":"landslide","class_code":"1","class_label":"急傾斜地の崩落","status_code":"0","status_label":"特別警戒区域指定済み"}},{"type":"Feature","id":"lsld_30b59a82-d1dd-48b5-af8b-6eba43b7baad","geometry":{"type":"Polygon","coordinates":[[[139.0710089,36.047491],[139.0709187,36.0475277],[139.0706423,36.04764],[139.0705972,36.0475922],[139.0705158,36.0474766],[139.0703994,36.0473424],[139.0705941,36.0472285],[139.0706724,36.0471828],[139.0707848,36.0473216],[139.0708807,36.0474655],[139.0710089,36.047491]]]},"properties":{"layer":"landslide","class_code":"1","class_label":"急傾斜地の崩落","status_code":"0","status_label":"特別警戒区域指定済み"}},{"type":"Feature","id":"lsld_c9cda0b8-e083-4dff-b7a3-20c8c66b1258","geometry":{"type":"Polygon","coordinates":[[[139.0712379,36.0422983],[139.0712583,36.0425223],[139.071075,36.042784],[139.0708627,36.0429524],[139.0706119,36.0429591],[139.0705682,36.0429375],[139.0706983,36.0429059],[139.0708154,36.0427663],[139.070798,36.0425957],[139.0707634,36.0424454],[139.0706868,36.0422827],[139.0703599,36.0423046],[139.0702269,36.0423155],[139.0700428,36.0423405],[139.0698857,36.0423584],[139.0699047,36.0423197],[139.0700522,36.0422595],[139.0702257,36.0420768],[139.0705367,36.0417909],[139.0711541,36.0419525],[139.0712379,36.0422983]]]},"properties":{"layer":"landslide","class_code":"1","class_label":"急傾斜地の崩落","status_code":"0","status_label":"特別警戒区域指定済み"}}]}