{"type":"FeatureCollection","properties":{"mesh_code":"54390057","source":"PLATEAU秩父市2025","layer":"landslide"},"features":[{"type":"Feature","id":"lsld_cf303b19-6713-47b8-847c-fa933b0fcaec","geometry":{"type":"Polygon","coordinates":[[[139.09025366826486,36.041666666666664],[139.0903748,36.0417583],[139.0904957,36.0418521],[139.0904484,36.0419009],[139.0904074,36.0419433],[139.0903585,36.0419938],[139.0903018,36.0420523],[139.0902452,36.0421108],[139.0902156,36.0421413],[139.0901689,36.0421758],[139.0900155,36.0420653],[139.0898782,36.0419504],[139.0897016,36.0418351],[139.0895507,36.0417155],[139.08949893818794,36.041666666666664],[139.09025366826486,36.041666666666664]]]},"properties":{"layer":"landslide","class_code":"1","class_label":"急傾斜地の崩落","status_code":"0","status_label":"特別警戒区域指定済み"}},{"type":"Feature","id":"lsld_8960d2da-5185-4e19-a0f3-d1a7055c349a","geometry":{"type":"Polygon","coordinates":[[[139.0891168,36.0431238],[139.0891933,36.0432116],[139.0892763,36.0432902],[139.0892257,36.0435035],[139.0891587,36.0435343],[139.0891292,36.0435479],[139.0890653,36.0435773],[139.0889554,36.0436279],[139.0889329,36.0436383],[139.0888706,36.043667],[139.0886927,36.0437488],[139.0883824,36.0437434],[139.0883424,36.0435465],[139.0882706,36.0433464],[139.0883226,36.0431979],[139.0885263,36.0431397],[139.0885947,36.0431201],[139.0886138,36.0431147],[139.0887653,36.0430714],[139.0888502,36.0430471],[139.0889029,36.0430321],[139.0889549,36.0430172],[139.0891168,36.0431238]]]},"properties":{"layer":"landslide","class_code":"1","class_label":"急傾斜地の崩落","status_code":"0","status_label":"特別警戒区域指定済み"}},{"type":"Feature","id":"lsld_76040e29-1c91-459e-b120-7bbfcb9efb67","geometry":{"type":"Polygon","coordinates":[[[139.0904074,36.0419433],[139.0903585,36.0419938],[139.0903018,36.0420523],[139.0901607,36.0419476],[139.0900216,36.0418367],[139.0898427,36.0417151],[139.0897769012138,36.041666666666664],[139.09003718824752,36.041666666666664],[139.0901402,36.0417384],[139.0902773,36.0418445],[139.0904074,36.0419433]]]},"properties":{"layer":"landslide","class_code":"1","class_label":"急傾斜地の崩落","status_code":"0","status_label":"特別警戒区域指定済み"}},{"type":"Feature","id":"lsld_d64912d8-a7f3-4cb6-99f9-04efdcdeef3d","geometry":{"type":"Polygon","coordinates":[[[139.0890653,36.0435773],[139.0889554,36.0436279],[139.0889329,36.0436383],[139.0888706,36.043667],[139.088758,36.0435625],[139.0886902,36.0434096],[139.0885966,36.043267],[139.0885263,36.0431397],[139.0885947,36.0431201],[139.0886138,36.0431147],[139.0887653,36.0430714],[139.0889378,36.0431813],[139.0890272,36.043277],[139.0891285,36.0433819],[139.0890653,36.0435773]]]},"properties":{"layer":"landslide","class_code":"1","class_label":"急傾斜地の崩落","status_code":"0","status_label":"特別警戒区域指定済み"}}]}