{"type":"FeatureCollection","properties":{"mesh_code":"54390074","source":"PLATEAU秩父市2025","layer":"landslide"},"features":[{"type":"Feature","id":"lsld_065d0b57-0209-4e83-b8a5-65a9d9625f77","geometry":{"type":"Polygon","coordinates":[[[139.0512239,36.0649692],[139.0512598,36.0650185],[139.0512719,36.0650351],[139.0512737,36.0650376],[139.0512959,36.0650681],[139.0513262,36.0651097],[139.0513563,36.065151],[139.0515485,36.065415],[139.0520762,36.0660893],[139.0521442,36.0661984],[139.0521745,36.066247],[139.0522246,36.0663275],[139.0522163,36.06633],[139.0522036,36.0663351],[139.0521244,36.0663949],[139.0518938,36.066408],[139.0516435,36.0664172],[139.051557,36.0663607],[139.0515049,36.0663268],[139.0513518,36.0662268],[139.050955,36.0659289],[139.0506384,36.0657044],[139.0504485,36.065599],[139.0504414,36.065595],[139.0504344,36.0655911],[139.0504231,36.0655849],[139.0504038,36.0655742],[139.0503526,36.0655457],[139.0502961,36.0655144],[139.0502504,36.065489],[139.0502495,36.065389],[139.050246,36.0653081],[139.0502448,36.0652788],[139.050252,36.0652284],[139.0502665,36.0651265],[139.0502765,36.0651194],[139.0503945,36.0650359],[139.0504676,36.0649379],[139.0504965,36.0648706],[139.0505163,36.0648611],[139.0505694,36.0648409],[139.0507052,36.064789],[139.0508903,36.0647523],[139.0508992,36.0647505],[139.0509021,36.0647499],[139.0509121,36.0647479],[139.0510014,36.0647302],[139.0510438,36.0647218],[139.0512239,36.0649692]]]},"properties":{"layer":"landslide","class_code":"1","class_label":"急傾斜地の崩落","status_code":"0","status_label":"特別警戒区域指定済み"}},{"type":"Feature","id":"lsld_b08a3ba1-e271-4261-a647-469c58670b8b","geometry":{"type":"Polygon","coordinates":[[[139.0510453,36.0642976],[139.0510805,36.0643257],[139.0511336,36.0643681],[139.0511405,36.0643736],[139.0511547,36.0643849],[139.051175,36.0644012],[139.0511754,36.0644014],[139.0513849,36.0645688],[139.0514734,36.0646296],[139.0515815,36.0647107],[139.0516653,36.0647434],[139.0517292,36.0647605],[139.0517887,36.0647763],[139.0518039,36.0647791],[139.0519123,36.0647987],[139.0519133,36.0648105],[139.0519105,36.0648208],[139.0519038,36.0648745],[139.0518262,36.0648901],[139.0517958,36.0648952],[139.051727,36.0649066],[139.0515261,36.06494],[139.05142,36.0649797],[139.0513381,36.0650103],[139.0513227,36.0650161],[139.0512746,36.0650341],[139.0512719,36.0650351],[139.0512238,36.0650531],[139.0512091,36.0650586],[139.0509588,36.0651522],[139.0508186,36.0652047],[139.0507876,36.0651743],[139.050787,36.0651738],[139.0507832,36.0651701],[139.0507766,36.0651636],[139.0507752,36.0651622],[139.0507481,36.0651357],[139.0505915,36.0649826],[139.0505593,36.0649511],[139.0505651,36.0648881],[139.0505694,36.0648409],[139.0506002,36.0645065],[139.0506378,36.0643823],[139.0507379,36.0640521],[139.0510453,36.0642976]]]},"properties":{"layer":"landslide","class_code":"1","class_label":"急傾斜地の崩落","status_code":"0","status_label":"特別警戒区域指定済み"}},{"type":"Feature","id":"lsld_7bfd8ffb-8122-47df-ad80-960cb9bf4938","geometry":{"type":"Polygon","coordinates":[[[139.050141,36.0657067],[139.0501405,36.0657145],[139.0501398,36.065727],[139.0501397,36.0657288],[139.0501378,36.065763],[139.0500592,36.0659755],[139.05,36.06596843303543],[139.05,36.06547979259638],[139.0501547,36.0654589],[139.050141,36.0657067]]]},"properties":{"layer":"landslide","class_code":"1","class_label":"急傾斜地の崩落","status_code":"0","status_label":"特別警戒区域指定済み"}},{"type":"Feature","id":"lsld_ac7c2b51-4281-43be-a778-db3336816f5b","geometry":{"type":"Polygon","coordinates":[[[139.0518261,36.0630448],[139.0518243,36.0630457],[139.0518425,36.06307],[139.051894,36.063139],[139.0518502,36.063164],[139.051718,36.0632604],[139.0516904,36.0632805],[139.0513862,36.0633088],[139.0513827,36.063267],[139.0513785,36.0632182],[139.051378,36.0632126],[139.0513756,36.0631849],[139.0513712,36.0631334],[139.051358,36.0629801],[139.0513476,36.0628593],[139.0513272,36.0626217],[139.0513225,36.0625662],[139.0513147,36.0624763],[139.051384,36.0624654],[139.0514284,36.062259],[139.0517135,36.0622941],[139.0517573,36.0623769],[139.0517906,36.0624398],[139.0518903,36.0626281],[139.0519059,36.0626521],[139.0519503,36.0627205],[139.051953,36.0627248],[139.0519569,36.0627308],[139.0519605,36.0627363],[139.051971,36.0627526],[139.0520396,36.0628581],[139.0520383,36.0628605],[139.0520376,36.0629287],[139.0520329,36.0629538],[139.0520017,36.0629859],[139.0519442,36.0629855],[139.0518261,36.0630448]]]},"properties":{"layer":"landslide","class_code":"1","class_label":"急傾斜地の崩落","status_code":"0","status_label":"特別警戒区域指定済み"}},{"type":"Feature","id":"lsld_a6043003-1306-42a2-850a-85dc44659540","geometry":{"type":"Polygon","coordinates":[[[139.0519535,36.0630993],[139.0519643,36.0631162],[139.0519897,36.0631561],[139.0519902,36.063157],[139.0519908,36.0631579],[139.0519929,36.0631612],[139.0520561,36.0632604],[139.0522909,36.0634982],[139.0523646,36.0636534],[139.0523898,36.0637064],[139.0524035,36.0637353],[139.0524227,36.0637924],[139.0523899,36.0638258],[139.0518549,36.0633794],[139.0517873,36.0633206],[139.0517866,36.0633201],[139.0517792,36.0633135],[139.0517786,36.0633131],[139.0517594,36.0632963],[139.0517318,36.0632724],[139.0517299,36.0632707],[139.051718,36.0632604],[139.0517061,36.0632499],[139.0516933,36.0632388],[139.0516511,36.0632022],[139.0515836,36.0629629],[139.0515745,36.0629309],[139.0515533,36.0628557],[139.051547,36.0628334],[139.0515465,36.0628317],[139.0515667,36.0628173],[139.0516009,36.0627931],[139.051608,36.0628011],[139.0516132,36.0628069],[139.051617,36.0628111],[139.0516442,36.0628415],[139.0516835,36.0628855],[139.0518261,36.0630448],[139.0518461,36.0630673],[139.0518468,36.063068],[139.0519118,36.0630537],[139.0519245,36.0630538],[139.0519535,36.0630993]]]},"properties":{"layer":"landslide","class_code":"1","class_label":"急傾斜地の崩落","status_code":"0","status_label":"特別警戒区域指定済み"}},{"type":"Feature","id":"lsld_7982c235-4aba-4094-a054-194d79be0a23","geometry":{"type":"Polygon","coordinates":[[[139.053048,36.0620379],[139.0531429,36.062044],[139.0532053,36.0620663],[139.0532127,36.0620689],[139.0532293,36.0620748],[139.0532339,36.0620765],[139.053244,36.0620801],[139.0533964,36.0621344],[139.0533737,36.062195],[139.0533357,36.0622962],[139.0533087,36.0623682],[139.0532808,36.0624424],[139.0532608,36.0624959],[139.053248,36.06253],[139.0532346,36.0625655],[139.0532245,36.0625925],[139.0532075,36.0626379],[139.0531881,36.0626897],[139.0531261,36.0628573],[139.0531446,36.063012],[139.0531513,36.0630679],[139.0531579,36.0631235],[139.053162,36.0631576],[139.0531519,36.0631504],[139.0531328,36.0631437],[139.0531319,36.063142],[139.0530896,36.0630607],[139.0530563,36.0629966],[139.0529711,36.0628329],[139.0528355,36.0625963],[139.0528141,36.0625287],[139.052814,36.0625283],[139.0527985,36.0624793],[139.0527958,36.0624706],[139.0527954,36.0624693],[139.0527948,36.0624673],[139.0527889,36.0624487],[139.0527798,36.0624197],[139.0527607,36.0623594],[139.0527602,36.0623578],[139.0527551,36.0623414],[139.0527516,36.0623303],[139.052705,36.0621827],[139.0527042,36.0621804],[139.0527091,36.0621756],[139.0527274,36.0621577],[139.0527332,36.0621521],[139.0527429,36.0621462],[139.0527926,36.0621156],[139.052806,36.0621074],[139.0528335,36.0621009],[139.0528389,36.0620996],[139.0529175,36.062081],[139.052962,36.062071],[139.0529956,36.0620635],[139.0530373,36.0620419],[139.0530455,36.0620377],[139.053048,36.0620379]]]},"properties":{"layer":"landslide","class_code":"1","class_label":"急傾斜地の崩落","status_code":"0","status_label":"特別警戒区域指定済み"}},{"type":"Feature","id":"lsld_ee9ce796-aafe-44c0-9ae8-fc5909c71349","geometry":{"type":"Polygon","coordinates":[[[139.052962,36.062071],[139.053131,36.0621219],[139.0531467,36.0621266],[139.0531735,36.0621347],[139.053179,36.0621363],[139.0531949,36.0621411],[139.0532623,36.0621614],[139.053268,36.0621631],[139.0533447,36.0621862],[139.0533737,36.062195],[139.0535118,36.0622366],[139.0540978,36.0624389],[139.0545701,36.0625688],[139.0547825,36.0626278],[139.05485,36.0626466],[139.054955,36.0626757],[139.0549564,36.0626958],[139.0549577,36.0627088],[139.054849,36.0626904],[139.05478,36.0626787],[139.0547356,36.0626712],[139.0540807,36.0625909],[139.0535871,36.0625159],[139.0533588,36.0625019],[139.0532696,36.0624964],[139.0532608,36.0624959],[139.0532075,36.0624926],[139.0531524,36.0624892],[139.0531243,36.0624875],[139.0531101,36.0624867],[139.0529628,36.0624776],[139.0529438,36.0624765],[139.0527986,36.0624676],[139.0527971,36.0624675],[139.0527948,36.0624673],[139.0527446,36.0624643],[139.052729,36.0624633],[139.0527324,36.0624609],[139.0527664,36.0624367],[139.0527798,36.0624197],[139.0527833,36.0624151],[139.052777,36.0623771],[139.0527607,36.0623594],[139.0527522,36.0623502],[139.0527551,36.0623414],[139.0527584,36.062331],[139.0527604,36.0623249],[139.0528068,36.0621107],[139.052807,36.0621098],[139.0528335,36.0621009],[139.05285,36.0620954],[139.0528543,36.0620943],[139.0529059,36.0620813],[139.0529237,36.0620769],[139.0529351,36.0620748],[139.0529595,36.0620703],[139.052962,36.062071]]]},"properties":{"layer":"landslide","class_code":"1","class_label":"急傾斜地の崩落","status_code":"0","status_label":"特別警戒区域指定済み"}},{"type":"Feature","id":"lsld_6ee5dc12-80df-46a0-aeee-740d2e1e9877","geometry":{"type":"Polygon","coordinates":[[[139.0521228,36.0662026],[139.052017,36.0662743],[139.0517815,36.0662943],[139.0515049,36.0663268],[139.0513518,36.0662268],[139.050955,36.0659289],[139.0506384,36.0657044],[139.0504485,36.065599],[139.0504414,36.065595],[139.0504344,36.0655911],[139.0504231,36.0655849],[139.0504038,36.0655742],[139.0503526,36.0655457],[139.0502961,36.0655144],[139.0504438,36.0653662],[139.0505555,36.0652285],[139.0505708,36.0652096],[139.0507481,36.0651357],[139.0508152,36.0651078],[139.050824,36.0651044],[139.0508256,36.0651038],[139.05083,36.0651021],[139.0508426,36.0650973],[139.0510042,36.0650357],[139.0510623,36.0650318],[139.0511676,36.0650247],[139.0512598,36.0650185],[139.0512719,36.0650351],[139.0512737,36.0650376],[139.0512959,36.0650681],[139.0513262,36.0651097],[139.0513563,36.065151],[139.0515485,36.065415],[139.0520762,36.0660893],[139.0521442,36.0661984],[139.0521375,36.0661965],[139.0521228,36.0662026]]]},"properties":{"layer":"landslide","class_code":"1","class_label":"急傾斜地の崩落","status_code":"0","status_label":"特別警戒区域指定済み"}},{"type":"Feature","id":"lsld_08e4ceca-354c-4e39-8ca8-668eb487d67f","geometry":{"type":"Polygon","coordinates":[[[139.0510805,36.0643257],[139.0511336,36.0643681],[139.0511405,36.0643736],[139.0511547,36.0643849],[139.051175,36.0644012],[139.0511754,36.0644014],[139.0513849,36.0645688],[139.0514734,36.0646296],[139.0515815,36.0647107],[139.0516653,36.0647434],[139.0517292,36.0647605],[139.0517231,36.0647931],[139.051718,36.0648148],[139.051727,36.0649066],[139.0515261,36.06494],[139.05142,36.0649797],[139.0513381,36.0650103],[139.0513227,36.0650161],[139.0512746,36.0650341],[139.0512719,36.0650351],[139.0512238,36.0650531],[139.0512091,36.0650586],[139.0511983,36.0650497],[139.0511676,36.0650247],[139.0510367,36.0649179],[139.0509832,36.0648743],[139.0510014,36.0647302],[139.051008,36.0646777],[139.0510172,36.0646046],[139.0510267,36.0645005],[139.0510269,36.0644987],[139.0510273,36.0644938],[139.0510275,36.0644914],[139.0510453,36.0642976],[139.0510805,36.0643257]]]},"properties":{"layer":"landslide","class_code":"1","class_label":"急傾斜地の崩落","status_code":"0","status_label":"特別警戒区域指定済み"}},{"type":"Feature","id":"lsld_5124e950-c21e-4c74-b75c-e3afe1ba5f9a","geometry":{"type":"Polygon","coordinates":[[[139.0517906,36.0624398],[139.0518903,36.0626281],[139.0519059,36.0626521],[139.0519503,36.0627205],[139.051953,36.0627248],[139.0519569,36.0627308],[139.0519605,36.0627363],[139.051971,36.0627526],[139.0517243,36.0628522],[139.0516835,36.0628855],[139.0515893,36.0629625],[139.0515836,36.0629629],[139.0515474,36.0629657],[139.0514397,36.0629739],[139.0514325,36.0629744],[139.0514248,36.062975],[139.051358,36.0629801],[139.0513476,36.0628593],[139.0513272,36.0626217],[139.0514506,36.0626013],[139.0515116,36.0623986],[139.0517906,36.0624398]]]},"properties":{"layer":"landslide","class_code":"1","class_label":"急傾斜地の崩落","status_code":"0","status_label":"特別警戒区域指定済み"}},{"type":"Feature","id":"lsld_4a0ad0b0-b4e2-4942-bf50-489cf863b810","geometry":{"type":"Polygon","coordinates":[[[139.0519535,36.0630993],[139.0519643,36.0631162],[139.0519897,36.0631561],[139.0519902,36.063157],[139.0519908,36.0631579],[139.0519929,36.0631612],[139.0520561,36.0632604],[139.0522909,36.0634982],[139.0523646,36.0636534],[139.0522861,36.0637075],[139.0517896,36.0633177],[139.0517891,36.0633173],[139.0517797,36.06331],[139.05176,36.0632945],[139.0517318,36.0632724],[139.0517299,36.0632707],[139.051718,36.0632604],[139.0517061,36.0632499],[139.0516933,36.0632388],[139.051765,36.0631279],[139.0518425,36.06307],[139.0518461,36.0630673],[139.0518468,36.063068],[139.0519118,36.0630537],[139.0519245,36.0630538],[139.0519535,36.0630993]]]},"properties":{"layer":"landslide","class_code":"1","class_label":"急傾斜地の崩落","status_code":"0","status_label":"特別警戒区域指定済み"}},{"type":"Feature","id":"lsld_72f32e4d-fc7c-44b7-b6c5-b0385f785480","geometry":{"type":"Polygon","coordinates":[[[139.0527584,36.062331],[139.0529994,36.062355],[139.0530033,36.0623554],[139.0530338,36.0623584],[139.0530355,36.0623586],[139.0530603,36.0623611],[139.0531412,36.0623909],[139.0532808,36.0624424],[139.0532608,36.0624959],[139.053248,36.06253],[139.0532346,36.0625655],[139.0532245,36.0625925],[139.0532075,36.0626379],[139.0531881,36.0626897],[139.0531261,36.0628573],[139.0531446,36.063012],[139.053091,36.063006],[139.0530563,36.0629966],[139.0529711,36.0628329],[139.0528355,36.0625963],[139.0528141,36.0625287],[139.052814,36.0625283],[139.0527985,36.0624793],[139.0527958,36.0624706],[139.0527954,36.0624693],[139.0527948,36.0624673],[139.0527889,36.0624487],[139.0527798,36.0624197],[139.0527607,36.0623594],[139.0527602,36.0623578],[139.0527551,36.0623414],[139.0527516,36.0623303],[139.0527584,36.062331]]]},"properties":{"layer":"landslide","class_code":"1","class_label":"急傾斜地の崩落","status_code":"0","status_label":"特別警戒区域指定済み"}},{"type":"Feature","id":"lsld_a76102f9-6908-467c-b60f-c58b08b75427","geometry":{"type":"Polygon","coordinates":[[[139.0532623,36.0621614],[139.053268,36.0621631],[139.0533447,36.0621862],[139.0533737,36.062195],[139.0535118,36.0622366],[139.0540978,36.0624389],[139.0545701,36.0625688],[139.0547825,36.0626278],[139.0547809,36.0626599],[139.05478,36.0626787],[139.0547356,36.0626712],[139.0540807,36.0625909],[139.0535871,36.0625159],[139.0533588,36.0625019],[139.0532696,36.0624964],[139.0532608,36.0624959],[139.0532075,36.0624926],[139.0531524,36.0624892],[139.0531243,36.0624875],[139.0531101,36.0624867],[139.0531412,36.0623909],[139.0531538,36.062352],[139.0531949,36.0621411],[139.0532623,36.0621614]]]},"properties":{"layer":"landslide","class_code":"1","class_label":"急傾斜地の崩落","status_code":"0","status_label":"特別警戒区域指定済み"}},{"type":"Feature","id":"lsld_ce389256-7e0c-448f-92c2-3425382bd3a2","geometry":{"type":"Polygon","coordinates":[[[139.0520632,36.0631139],[139.0519902,36.063157],[139.0519418,36.0631856],[139.0518745,36.0632254],[139.0518682,36.063229],[139.0517961,36.0633095],[139.0517891,36.0633173],[139.0517866,36.0633201],[139.0517689,36.0633399],[139.0517346,36.0633781],[139.0517273,36.063402],[139.051683,36.0635468],[139.0516802,36.0635557],[139.0516741,36.0635656],[139.0515801,36.0637169],[139.0515757,36.0637263],[139.0515018,36.0638859],[139.0514394,36.0639959],[139.0514089,36.0640496],[139.0513517,36.0641635],[139.051325,36.0642166],[139.0512176,36.0643751],[139.0512036,36.0643836],[139.051175,36.0644012],[139.0510764,36.0644615],[139.0510678,36.0644668],[139.0510275,36.0644914],[139.0510149,36.0644992],[139.0510113,36.0645038],[139.0509989,36.0645197],[139.050991,36.0645299],[139.0509864,36.0645358],[139.0509529,36.0645789],[139.0509343,36.0646029],[139.0509266,36.0646127],[139.0508952,36.0646532],[139.050898,36.0647209],[139.0508992,36.0647505],[139.050901,36.064794],[139.0509021,36.0648197],[139.0509035,36.0648535],[139.050902,36.0648638],[139.0508988,36.064887],[139.0508956,36.06491],[139.0508773,36.0650413],[139.0508734,36.0650458],[139.0508676,36.0650528],[139.0508461,36.0650783],[139.0508264,36.0651015],[139.050824,36.0651044],[139.0507752,36.0651622],[139.0507607,36.0651793],[139.0507496,36.0651925],[139.0507473,36.0651973],[139.0507104,36.0652741],[139.05071,36.0652749],[139.0506731,36.0653518],[139.0506689,36.0653606],[139.0505787,36.0654393],[139.050509,36.0655001],[139.0504485,36.065599],[139.0504124,36.0656578],[139.05041,36.0656617],[139.0503966,36.0656814],[139.0503249,36.0657873],[139.0503155,36.0658012],[139.0503026,36.0658202],[139.0502974,36.0658237],[139.0502666,36.0658442],[139.0502661,36.0658447],[139.0501114,36.0659481],[139.050091,36.0659618],[139.05,36.066034893730595],[139.05,36.0657745679676],[139.0500825,36.0657626],[139.0501052,36.0657593],[139.0501243,36.0657565],[139.0501257,36.0657563],[139.050134,36.0657391],[139.0501398,36.065727],[139.0501546,36.0656967],[139.0501572,36.0656912],[139.0501846,36.0656347],[139.0501906,36.0656222],[139.050207,36.0655884],[139.0502012,36.0655301],[139.0501931,36.0654486],[139.0501866,36.0653838],[139.0501634,36.0651782],[139.0502164,36.0650967],[139.0502282,36.0650787],[139.0502365,36.0650659],[139.0502448,36.0650531],[139.0502597,36.0650302],[139.0502674,36.0650185],[139.0502709,36.0650117],[139.0503384,36.0648839],[139.0503459,36.0648698],[139.0503549,36.0648528],[139.0503485,36.0648038],[139.0503453,36.0647797],[139.050345,36.0647775],[139.0503409,36.0647454],[139.0503279,36.0646458],[139.0503292,36.0646384],[139.0503446,36.064553],[139.0503607,36.0644638],[139.0503613,36.0644606],[139.0504555,36.0643138],[139.0504641,36.0643005],[139.0504748,36.0642845],[139.0504758,36.064283],[139.0505029,36.0642422],[139.0505299,36.0642017],[139.050542,36.0641835],[139.0505656,36.064148],[139.05057,36.0641414],[139.0505957,36.0641238],[139.0506102,36.0641138],[139.0507582,36.0640121],[139.050921,36.0638736],[139.0509685,36.0637553],[139.0509775,36.0637326],[139.0511523,36.0637254],[139.0511527,36.0637239],[139.0511552,36.0637143],[139.0511917,36.0635767],[139.0512023,36.0635523],[139.0512653,36.0634061],[139.0512811,36.0633791],[139.0513547,36.0632534],[139.0513606,36.0632432],[139.051378,36.0632126],[139.0514478,36.0630895],[139.0514535,36.0630794],[139.0514397,36.0629739],[139.0514351,36.0629383],[139.0514276,36.0628811],[139.0514265,36.0628725],[139.0515667,36.0628173],[139.051608,36.0628011],[139.0516612,36.0627802],[139.0517304,36.062753],[139.051775,36.0627355],[139.0519503,36.0627205],[139.0519849,36.0627176],[139.0520012,36.0627162],[139.0520314,36.0627136],[139.0520374,36.0627131],[139.0521157,36.0626596],[139.0521355,36.0626461],[139.0521845,36.0626127],[139.0522026,36.0626003],[139.0522073,36.062597],[139.0522179,36.0625886],[139.0522372,36.0625732],[139.0522444,36.0625675],[139.0522484,36.0625643],[139.0523151,36.0625109],[139.0523209,36.0625063],[139.0523618,36.0624736],[139.0523664,36.0624699],[139.0523912,36.0624297],[139.0523938,36.0624254],[139.0524124,36.0623953],[139.0524757,36.0622925],[139.0524801,36.0622835],[139.052545,36.0621481],[139.0525688,36.0620986],[139.0525882,36.0620841],[139.0525993,36.0620759],[139.0526224,36.0620588],[139.0527091,36.0619945],[139.0527174,36.0619883],[139.052723,36.0619842],[139.052733,36.0619768],[139.052783,36.0619604],[139.052879,36.061929],[139.0529448,36.0619049],[139.0529668,36.0618968],[139.0530333,36.0618724],[139.0530359,36.0618714],[139.0530589,36.0618251],[139.0530668,36.0618093],[139.0531068,36.0617287],[139.0531071,36.0617283],[139.0531198,36.0617027],[139.0531225,36.0616259],[139.0531229,36.0616149],[139.0531263,36.0615181],[139.0531338,36.0614451],[139.0531451,36.0613361],[139.0531657,36.0612179],[139.0531764,36.0611566],[139.0532806,36.0610908],[139.0534184,36.0610039],[139.0534196,36.0610032],[139.0534251,36.0609997],[139.053441,36.0608639],[139.0534422,36.0608541],[139.0534474,36.0608099],[139.0534486,36.0608001],[139.0534959,36.060773],[139.0535769,36.0607266],[139.0536462,36.0606869],[139.0538158,36.0605557],[139.0538459,36.0605324],[139.0538819,36.0605046],[139.0540802,36.0604091],[139.0540816,36.0604084],[139.054177,36.060391],[139.0542428,36.0603792],[139.0542831,36.0603718],[139.0542948,36.0603696],[139.0543159,36.0604335],[139.0543293,36.060477],[139.054361,36.06058],[139.0543912,36.0606857],[139.054403,36.0607271],[139.0544091,36.0607502],[139.0542335,36.0607234],[139.0542006,36.0607184],[139.0541725,36.0607141],[139.054163,36.0607164],[139.0541558,36.0607181],[139.0540767,36.0607367],[139.053974,36.0607609],[139.0539591,36.0607644],[139.0539412,36.0607773],[139.0539391,36.0607789],[139.0539308,36.0607849],[139.0538954,36.0608106],[139.0538878,36.0608222],[139.053844,36.0608897],[139.0538108,36.0609407],[139.0537916,36.0609703],[139.053641,36.0612519],[139.0535751,36.0613906],[139.053573,36.0613951],[139.053564,36.061414],[139.0535605,36.0614213],[139.0535583,36.0614269],[139.0535476,36.0614537],[139.0535153,36.0615351],[139.0534922,36.0615932],[139.0534716,36.061641],[139.0534607,36.0616666],[139.0534189,36.061764],[139.053404,36.0618038],[139.0533965,36.0618237],[139.0533939,36.0618306],[139.0533542,36.0619367],[139.0533507,36.0619408],[139.0533129,36.0619846],[139.0532413,36.0620679],[139.0532339,36.0620765],[139.0531964,36.0621199],[139.053179,36.0621363],[139.0530915,36.0622184],[139.0530775,36.0622315],[139.0530709,36.0622377],[139.0530293,36.0622768],[139.0530137,36.0623239],[139.0530033,36.0623554],[139.0529926,36.0623875],[139.0529912,36.0623919],[139.0529628,36.0624776],[139.0529579,36.0624926],[139.0528982,36.0625074],[139.052822,36.0625263],[139.052814,36.0625283],[139.0527292,36.0625493],[139.0526862,36.0625877],[139.0526745,36.0625982],[139.0526738,36.0625988],[139.0525781,36.0626844],[139.0525773,36.0626859],[139.0525715,36.0626973],[139.0525708,36.0626988],[139.0525477,36.0627438],[139.0524841,36.0628678],[139.0524809,36.0628741],[139.052455,36.0628829],[139.0522678,36.0629464],[139.0522648,36.0629502],[139.0522359,36.0629878],[139.0522286,36.0629972],[139.052143,36.0631082],[139.0521332,36.063108],[139.0521127,36.0631075],[139.0521021,36.0631072],[139.0520755,36.0631066],[139.0520632,36.0631139]]]},"properties":{"layer":"landslide","class_code":"2","class_label":"土石流","status_code":"0","status_label":"特別警戒区域指定済み"}},{"type":"Feature","id":"lsld_84205ae8-6a36-493f-ba62-9de8f99f105e","geometry":{"type":"Polygon","coordinates":[[[139.05,36.06579630708283],[139.0500712,36.0657734],[139.0500719,36.0657727],[139.0500825,36.0657626],[139.050141,36.0657067],[139.0501572,36.0656912],[139.0501639,36.0656849],[139.0501647,36.0656841],[139.0501789,36.0656705],[139.0501799,36.0656646],[139.0501816,36.0656538],[139.0501846,36.0656347],[139.050191,36.0655942],[139.0502012,36.0655301],[139.0502086,36.0654833],[139.0501948,36.0653641],[139.0501845,36.0652761],[139.0501919,36.0652349],[139.0502061,36.065155],[139.0502164,36.0650967],[139.0502176,36.0650901],[139.0502286,36.0650759],[139.0502365,36.0650659],[139.0502541,36.0650433],[139.0503375,36.0649364],[139.0503376,36.0649274],[139.050338,36.0649059],[139.0503384,36.0648839],[139.0503409,36.0647454],[139.050341,36.0647394],[139.0503292,36.0646384],[139.0503169,36.0645322],[139.0503498,36.0644808],[139.0503607,36.0644638],[139.0504195,36.0643721],[139.0504748,36.0642845],[139.0504758,36.064283],[139.0505209,36.0642116],[139.0505241,36.064208],[139.0505261,36.0642058],[139.0505299,36.0642017],[139.0505939,36.0641317],[139.0506102,36.0641138],[139.0506716,36.0640466],[139.0507041,36.0640031],[139.0509097,36.0637286],[139.0511552,36.0637143],[139.0511626,36.0637139],[139.0511784,36.063713],[139.0512687,36.0634965],[139.0513446,36.0633263],[139.0513827,36.063267],[139.0514474,36.0631664],[139.0515236,36.0629963],[139.0515474,36.0629657],[139.0515745,36.0629309],[139.0516442,36.0628415],[139.0516937,36.062778],[139.0519495,36.0627417],[139.0519605,36.0627363],[139.0519923,36.0627206],[139.0520012,36.0627162],[139.0521062,36.0626643],[139.0521157,36.0626596],[139.052142,36.0626466],[139.0521987,36.0626033],[139.0522026,36.0626003],[139.0522179,36.0625886],[139.0523038,36.062523],[139.052305,36.0625217],[139.0523107,36.0625156],[139.0523151,36.0625109],[139.0523581,36.062465],[139.0523879,36.0624332],[139.0523912,36.0624297],[139.0524409,36.0623765],[139.0524436,36.0623701],[139.0524716,36.0623036],[139.0524801,36.0622835],[139.0525238,36.0621796],[139.052545,36.0621481],[139.0525555,36.0621326],[139.0525811,36.0620947],[139.0525882,36.0620841],[139.0526375,36.0620113],[139.0526596,36.0620061],[139.0526793,36.0620015],[139.0527091,36.0619945],[139.052833,36.0619655],[139.0529574,36.0619016],[139.0529668,36.0618968],[139.0529832,36.0618884],[139.0530301,36.0618642],[139.0530606,36.0618185],[139.0530668,36.0618093],[139.0531031,36.0617548],[139.0531068,36.0617287],[139.0531071,36.0617271],[139.0531163,36.0616612],[139.0531229,36.0616149],[139.0531288,36.0615727],[139.0531292,36.0615699],[139.0531397,36.0614942],[139.053171,36.0613041],[139.0532352,36.0611792],[139.0532688,36.0611137],[139.0532806,36.0610908],[139.0533018,36.0610496],[139.0534185,36.0609013],[139.0534343,36.0608751],[139.0534373,36.0608702],[139.053441,36.0608639],[139.0534534,36.0608435],[139.0534888,36.0607847],[139.0534959,36.060773],[139.0535172,36.0607377],[139.0536812,36.0606302],[139.0536976,36.0606195],[139.053802,36.0605632],[139.0538158,36.0605557],[139.0539315,36.0604933],[139.0539714,36.0604718],[139.054001,36.0604615],[139.0541822,36.0603987],[139.0542488,36.0604341],[139.0543103,36.0604668],[139.0543293,36.060477],[139.0544334,36.0605323],[139.0544379,36.0605735],[139.054447,36.0606782],[139.0543912,36.0606857],[139.0543683,36.0606888],[139.0542744,36.0607015],[139.0542396,36.0607062],[139.054149,36.0607149],[139.0541186,36.0607178],[139.0540259,36.0607267],[139.054019,36.0607273],[139.0540101,36.0607319],[139.0539975,36.0607384],[139.0539527,36.0607613],[139.05394,36.0607777],[139.0539391,36.0607789],[139.053893,36.0608385],[139.0538346,36.060914],[139.0538108,36.0609407],[139.0537993,36.0609536],[139.0537607,36.0609969],[139.0537044,36.0610601],[139.0536414,36.0612207],[139.0535781,36.0613819],[139.053573,36.0613951],[139.0535713,36.0613993],[139.0535636,36.061419],[139.0535209,36.0615215],[139.0535153,36.0615351],[139.0534846,36.0616088],[139.0534649,36.061656],[139.0534607,36.0616666],[139.0534468,36.0617013],[139.0534249,36.0617558],[139.0533961,36.0618274],[139.0533939,36.0618306],[139.053393,36.061832],[139.0533508,36.0618942],[139.0532639,36.0620224],[139.0532358,36.0620434],[139.0532053,36.0620663],[139.053131,36.0621219],[139.0530993,36.0621456],[139.0530709,36.0622377],[139.0530707,36.0622384],[139.0530338,36.0623584],[139.0530288,36.0623748],[139.0529926,36.0623875],[139.052983,36.0623909],[139.0528185,36.0624489],[139.052815,36.0624501],[139.0527986,36.0624676],[139.0527958,36.0624706],[139.0527899,36.0624769],[139.0526862,36.0625877],[139.0526817,36.0625925],[139.0526779,36.0625967],[139.0525708,36.0626988],[139.0525641,36.0627051],[139.0525323,36.0627354],[139.0524841,36.0628678],[139.052473,36.0628983],[139.0524578,36.0629401],[139.0522973,36.0629746],[139.0522359,36.0629878],[139.0522261,36.0629899],[139.0522184,36.0629915],[139.0521021,36.0631072],[139.0520957,36.0631136],[139.052076,36.0631332],[139.0520272,36.0631496],[139.0519929,36.0631612],[139.0519741,36.0631676],[139.051973,36.0631679],[139.0519418,36.0631856],[139.0519019,36.0632081],[139.0517626,36.0632867],[139.05176,36.0632945],[139.0517594,36.0632963],[139.0517118,36.0634389],[139.0517036,36.0634634],[139.0516954,36.0634779],[139.0516108,36.0636272],[139.0515433,36.0637741],[139.0515329,36.0637966],[139.0514521,36.0639422],[139.0514417,36.063961],[139.051402,36.0640481],[139.0513643,36.0641306],[139.0513552,36.0641379],[139.0511963,36.0642645],[139.0511405,36.0643736],[139.0511112,36.0644311],[139.0510678,36.0644668],[139.0510589,36.0644741],[139.0510508,36.0644807],[139.0510267,36.0645005],[139.050991,36.0645299],[139.0509892,36.0645314],[139.0509582,36.0645568],[139.0509451,36.0645676],[139.0509343,36.0646029],[139.0509303,36.0646157],[139.050925,36.0646332],[139.0509022,36.0647072],[139.050898,36.0647209],[139.0508904,36.0647455],[139.0508903,36.0647523],[139.0508883,36.0648469],[139.0508869,36.0649095],[139.0508863,36.0649422],[139.0508542,36.0650277],[139.0508436,36.0650558],[139.0508264,36.0651015],[139.0508256,36.0651038],[139.0508233,36.0651099],[139.0508209,36.0651162],[139.0507832,36.0651701],[139.05078,36.0651747],[139.0507109,36.0652735],[139.0507104,36.0652741],[139.050708,36.065277],[139.0507076,36.0652774],[139.0505834,36.0654244],[139.0504919,36.0655075],[139.0504514,36.0655442],[139.0504285,36.065565],[139.0504231,36.0655849],[139.0504012,36.0656646],[139.0503966,36.0656814],[139.0503833,36.0657303],[139.0503793,36.065745],[139.0503155,36.0658012],[139.0503076,36.0658082],[139.0502666,36.0658442],[139.0502661,36.0658447],[139.050253,36.0658563],[139.0501896,36.0659122],[139.0501892,36.0659125],[139.0500174,36.0660278],[139.05,36.06604442205663],[139.05,36.06579630708283]]]},"properties":{"layer":"landslide","class_code":"2","class_label":"土石流","status_code":"0","status_label":"特別警戒区域指定済み"}},{"type":"Feature","id":"lsld_a4620676-17b3-4c03-9efb-1f68387e9229","geometry":{"type":"Polygon","coordinates":[[[139.05,36.0657964848614],[139.0500817,36.0657714],[139.0501001,36.0657657],[139.0501052,36.0657593],[139.0501405,36.0657145],[139.0501546,36.0656967],[139.0501639,36.0656849],[139.0501651,36.0656832],[139.0501799,36.0656646],[139.0501902,36.0656514],[139.0501904,36.0656379],[139.0501906,36.0656222],[139.050191,36.0655942],[139.0501929,36.0654555],[139.0501931,36.0654486],[139.0501948,36.0653641],[139.0501966,36.0652731],[139.0501969,36.0652601],[139.050221,36.0651203],[139.0502282,36.0650787],[139.0502286,36.0650759],[139.0502289,36.0650747],[139.0502448,36.0650531],[139.0502569,36.0650367],[139.0503376,36.0649274],[139.0503439,36.0649189],[139.0503449,36.0648951],[139.0503459,36.0648698],[139.0503485,36.0648038],[139.0503491,36.0647877],[139.0503495,36.0647778],[139.05035,36.0647658],[139.0503516,36.0647248],[139.0504071,36.0645477],[139.0504335,36.0643542],[139.0505029,36.0642422],[139.050513,36.064226],[139.0505241,36.064208],[139.0505334,36.0641931],[139.0505372,36.0641888],[139.050542,36.0641835],[139.0505829,36.064138],[139.0505957,36.0641238],[139.0507041,36.0640031],[139.0508322,36.0639074],[139.0509294,36.0637284],[139.0511527,36.0637239],[139.0511592,36.0637237],[139.0511596,36.0637237],[139.0511626,36.0637139],[139.0511629,36.0637128],[139.0511844,36.0636415],[139.0512023,36.0635523],[139.0512214,36.0634571],[139.0512811,36.0633791],[139.0513396,36.0633027],[139.0513547,36.0632534],[139.0513756,36.0631849],[139.0513958,36.0631189],[139.0514248,36.062975],[139.0514295,36.0629516],[139.0514317,36.0629407],[139.0514351,36.0629383],[139.0515533,36.0628557],[139.051617,36.0628111],[139.051636,36.0627978],[139.0516612,36.0627802],[139.0516954,36.0627563],[139.0517304,36.062753],[139.0517535,36.0627508],[139.0519546,36.0627319],[139.0519569,36.0627308],[139.0519745,36.0627225],[139.0519849,36.0627176],[139.0521295,36.0626489],[139.0521355,36.0626461],[139.0521481,36.0626401],[139.0521845,36.0626127],[139.0522444,36.0625675],[139.0522484,36.0625643],[139.052305,36.0625217],[139.0523112,36.062517],[139.0523168,36.0625108],[139.0523209,36.0625063],[139.0523581,36.062465],[139.0523907,36.0624288],[139.0523938,36.0624254],[139.0524436,36.0623701],[139.0524473,36.062366],[139.0525421,36.0621726],[139.0526224,36.0620588],[139.0526397,36.0620342],[139.0526596,36.0620061],[139.052661,36.0620041],[139.0527009,36.061993],[139.0527174,36.0619883],[139.0528113,36.0619621],[139.0529448,36.0619049],[139.0529832,36.0618884],[139.0530277,36.0618693],[139.0530531,36.0618334],[139.0530589,36.0618251],[139.0531015,36.0617649],[139.0531031,36.0617548],[139.0531071,36.0617283],[139.0531073,36.0617266],[139.0531159,36.0616699],[139.0531225,36.0616259],[139.0531287,36.061585],[139.0531292,36.0615699],[139.0531338,36.0614451],[139.0531346,36.0614232],[139.0531354,36.0614012],[139.0531407,36.0613634],[139.0531433,36.0613439],[139.0531604,36.0612208],[139.0531657,36.0612179],[139.0531732,36.0612137],[139.0532352,36.0611792],[139.0534087,36.0610827],[139.0534173,36.061013],[139.0534184,36.0610039],[139.0534343,36.0608751],[139.0534362,36.0608597],[139.053439,36.0608571],[139.0534422,36.0608541],[139.0534534,36.0608435],[139.0535635,36.0607393],[139.0535769,36.0607266],[139.0535817,36.0607221],[139.0536812,36.0606302],[139.0537295,36.0605856],[139.0538337,36.060538],[139.0538459,36.0605324],[139.0539315,36.0604933],[139.054001,36.0604615],[139.0540295,36.0604485],[139.0541756,36.0603916],[139.054177,36.060391],[139.0542414,36.0603659],[139.0542428,36.0603792],[139.0542488,36.0604341],[139.0542603,36.0605395],[139.0542744,36.0607015],[139.0542759,36.0607189],[139.0542006,36.0607184],[139.0541818,36.0607183],[139.0541558,36.0607181],[139.0541391,36.0607179],[139.0541186,36.0607178],[139.0540541,36.0607173],[139.0540259,36.0607267],[139.0540101,36.0607319],[139.0540011,36.0607349],[139.0539975,36.0607384],[139.053974,36.0607609],[139.0539639,36.0607705],[139.053893,36.0608385],[139.0538568,36.0608732],[139.053844,36.0608897],[139.0538261,36.0609127],[139.0537607,36.0609969],[139.0537383,36.0610257],[139.0536367,36.061251],[139.0536118,36.0613062],[139.0535751,36.0613906],[139.0535713,36.0613993],[139.0535476,36.0614537],[139.0535374,36.0614772],[139.0534846,36.0616088],[139.0534716,36.061641],[139.0534683,36.0616492],[139.0534542,36.0616839],[139.0534249,36.0617558],[139.0533983,36.0618211],[139.0533965,36.0618237],[139.0533958,36.0618248],[139.0533508,36.0618942],[139.05327,36.0620188],[139.0532368,36.0620479],[139.0532127,36.0620689],[139.0531467,36.0621266],[139.0531183,36.0621516],[139.0530922,36.0622167],[139.0530915,36.0622184],[139.0530355,36.0623586],[139.0530269,36.0623801],[139.0529912,36.0623919],[139.052981,36.0623953],[139.0528185,36.0624489],[139.052815,36.0624501],[139.0528127,36.0624508],[139.0527971,36.0624675],[139.0527954,36.0624693],[139.0527886,36.0624765],[139.0526745,36.0625982],[139.0526738,36.0625988],[139.0526638,36.0626085],[139.0525715,36.0626973],[139.0525646,36.062704],[139.0525277,36.0627394],[139.052455,36.0628829],[139.0524435,36.0629057],[139.0524308,36.0629306],[139.0522973,36.0629746],[139.0522286,36.0629972],[139.0522175,36.0630008],[139.0522165,36.0630012],[139.0521127,36.0631075],[139.0521068,36.0631135],[139.0520748,36.0631463],[139.0520272,36.0631496],[139.052002,36.0631514],[139.0519908,36.0631579],[139.0519741,36.0631676],[139.0518745,36.0632254],[139.0518682,36.063229],[139.0518527,36.063238],[139.0517934,36.0632724],[139.0517797,36.06331],[139.0517786,36.0633131],[139.0517689,36.0633399],[139.0517662,36.0633473],[139.05173,36.063447],[139.051683,36.0635468],[139.0516741,36.0635656],[139.0516505,36.0636157],[139.0515757,36.0637263],[139.0515524,36.0637608],[139.0515433,36.0637741],[139.0514529,36.0639387],[139.0514521,36.0639422],[139.051443,36.0639805],[139.0514394,36.0639959],[139.0514098,36.0641208],[139.0513517,36.0641635],[139.0513365,36.0641746],[139.0512303,36.0642525],[139.0511547,36.0643849],[139.0511369,36.0644161],[139.0510764,36.0644615],[139.0510634,36.0644713],[139.0510508,36.0644807],[139.0510269,36.0644987],[139.0509989,36.0645197],[139.0509944,36.0645231],[139.0509601,36.0645488],[139.0509582,36.0645568],[139.0509529,36.0645789],[139.050949,36.0645951],[139.0509418,36.0646249],[139.0509121,36.0647479],[139.0509021,36.0647895],[139.050901,36.064794],[139.0508883,36.0648469],[139.0508733,36.0649088],[139.050873,36.0649104],[139.0508542,36.0650277],[139.0508498,36.0650551],[139.0508461,36.0650783],[139.050845,36.0650849],[139.0508431,36.0650966],[139.0508426,36.0650973],[139.0507881,36.0651736],[139.0507876,36.0651743],[139.050731,36.0652535],[139.05071,36.0652749],[139.050708,36.065277],[139.0507076,36.0652774],[139.0505882,36.0653994],[139.0504514,36.0655442],[139.0504491,36.0655467],[139.0504344,36.0655911],[139.050422,36.0656286],[139.0504124,36.0656578],[139.0503909,36.0657228],[139.0503833,36.0657303],[139.0503249,36.0657873],[139.0503148,36.0657972],[139.0502666,36.0658442],[139.0502661,36.0658447],[139.0502568,36.0658538],[139.0502104,36.0658991],[139.0501896,36.0659122],[139.0501892,36.0659125],[139.0500344,36.0660096],[139.05,36.06604282822383],[139.05,36.0657964848614]]]},"properties":{"layer":"landslide","class_code":"2","class_label":"土石流","status_code":"0","status_label":"特別警戒区域指定済み"}},{"type":"Feature","id":"lsld_a2c41ae7-2045-492a-8068-4e57aba2b3a9","geometry":{"type":"Polygon","coordinates":[[[139.05,36.06578221143497],[139.0500719,36.0657727],[139.0500817,36.0657714],[139.0501187,36.0657665],[139.0501243,36.0657565],[139.050134,36.0657391],[139.0501397,36.0657288],[139.0501647,36.0656841],[139.0501651,36.0656832],[139.0501816,36.0656538],[139.0501904,36.0656379],[139.0502103,36.0656023],[139.0502131,36.0654056],[139.0501966,36.0652731],[139.0501919,36.0652349],[139.0501874,36.0651985],[139.0502061,36.065155],[139.050221,36.0651203],[139.0502541,36.0650433],[139.0502569,36.0650367],[139.0502597,36.0650302],[139.0502608,36.0650277],[139.0502709,36.0650117],[139.050338,36.0649059],[139.0503449,36.0648951],[139.0503626,36.0648672],[139.050354,36.064798],[139.0503515,36.0647779],[139.05035,36.0647658],[139.0503369,36.0646601],[139.0503446,36.064553],[139.0503498,36.0644808],[139.0503508,36.0644675],[139.0504555,36.0643138],[139.0504586,36.0643093],[139.0504748,36.0642845],[139.0504758,36.064283],[139.050513,36.064226],[139.0505261,36.0642058],[139.0505372,36.0641888],[139.0505628,36.0641496],[139.0505656,36.064148],[139.0505829,36.064138],[139.0505939,36.0641317],[139.0507722,36.0640285],[139.0509247,36.0638885],[139.0509685,36.0637553],[139.0511582,36.0637265],[139.0511592,36.0637237],[139.0511626,36.0637139],[139.0511629,36.0637128],[139.0512035,36.0635944],[139.0512923,36.0634292],[139.051358,36.0632557],[139.0513785,36.0632182],[139.051448,36.0630909],[139.0514478,36.0630895],[139.0514325,36.0629744],[139.0514295,36.0629516],[139.0514206,36.062884],[139.0514276,36.0628811],[139.051547,36.0628334],[139.0516132,36.0628069],[139.051636,36.0627978],[139.0517535,36.0627508],[139.0517699,36.0627443],[139.051953,36.0627248],[139.0519745,36.0627225],[139.0519923,36.0627206],[139.0520263,36.062717],[139.0520314,36.0627136],[139.0521062,36.0626643],[139.0521295,36.0626489],[139.0521845,36.0626127],[139.0521987,36.0626033],[139.0522026,36.0626003],[139.0522372,36.0625732],[139.0522444,36.0625675],[139.0522484,36.0625643],[139.0523107,36.0625156],[139.0523168,36.0625108],[139.0523592,36.0624776],[139.0523618,36.0624736],[139.0523879,36.0624332],[139.0523907,36.0624288],[139.0524124,36.0623953],[139.0524716,36.0623036],[139.0524721,36.0623028],[139.0525555,36.0621326],[139.0525668,36.0621094],[139.0525811,36.0620947],[139.0525993,36.0620759],[139.0526397,36.0620342],[139.0526666,36.0620066],[139.0526793,36.0620015],[139.0527009,36.061993],[139.052723,36.0619842],[139.052783,36.0619604],[139.0528827,36.0619209],[139.0529448,36.0619049],[139.0529574,36.0619016],[139.0530277,36.0618834],[139.0530333,36.0618724],[139.0530531,36.0618334],[139.0530606,36.0618185],[139.0531071,36.0617271],[139.0531073,36.0617266],[139.0531133,36.0617148],[139.0531159,36.0616699],[139.0531163,36.0616612],[139.0531237,36.0615314],[139.0531346,36.0614232],[139.0531407,36.0613634],[139.0531421,36.0613496],[139.0531433,36.0613439],[139.0531451,36.0613361],[139.0531732,36.0612137],[139.0531827,36.0611721],[139.0532688,36.0611137],[139.0534173,36.061013],[139.0534184,36.0610123],[139.0534196,36.0610032],[139.0534373,36.0608702],[139.053439,36.0608571],[139.0534451,36.0608113],[139.0534474,36.0608099],[139.0534888,36.0607847],[139.0535635,36.0607393],[139.0536343,36.0606962],[139.0536462,36.0606869],[139.053802,36.0605632],[139.0538337,36.060538],[139.0538685,36.0605103],[139.0540695,36.060411],[139.0540802,36.0604091],[139.0541756,36.0603916],[139.0542428,36.0603792],[139.0542831,36.0603718],[139.0543103,36.0604668],[139.0543117,36.0604717],[139.0543642,36.0606717],[139.0543683,36.0606888],[139.0543801,36.0607381],[139.0542335,36.0607234],[139.0541818,36.0607183],[139.054163,36.0607164],[139.054149,36.0607149],[139.0541391,36.0607179],[139.0540767,36.0607367],[139.0539639,36.0607705],[139.0539412,36.0607773],[139.05394,36.0607777],[139.0539386,36.0607781],[139.0539308,36.0607849],[139.0538878,36.0608222],[139.0538821,36.0608272],[139.0538261,36.0609127],[139.0537993,36.0609536],[139.0537774,36.060987],[139.0536367,36.061251],[139.0536319,36.06126],[139.0535781,36.0613819],[139.053564,36.061414],[139.0535583,36.0614269],[139.0535566,36.0614307],[139.0535476,36.0614537],[139.0535209,36.0615215],[139.0534889,36.0616029],[139.0534542,36.0616839],[139.0534468,36.0617013],[139.0534156,36.0617739],[139.053404,36.0618038],[139.0533958,36.0618248],[139.053393,36.061832],[139.0533507,36.0619408],[139.0533486,36.0619462],[139.0533129,36.0619846],[139.0532402,36.0620631],[139.0532293,36.0620748],[139.0531769,36.0621313],[139.0531735,36.0621347],[139.0530922,36.0622167],[139.0530775,36.0622315],[139.0530707,36.0622384],[139.0530376,36.0622719],[139.0530137,36.0623239],[139.0529994,36.062355],[139.052983,36.0623909],[139.052981,36.0623953],[139.0529438,36.0624765],[139.0529374,36.0624903],[139.0528901,36.0625051],[139.052822,36.0625263],[139.0528141,36.0625287],[139.0527203,36.062558],[139.0526817,36.0625925],[139.0526638,36.0626085],[139.0525773,36.0626859],[139.0525691,36.0626933],[139.0525646,36.062704],[139.0525641,36.0627051],[139.0525477,36.0627438],[139.0524832,36.0628958],[139.052473,36.0628983],[139.0524435,36.0629057],[139.0522648,36.0629502],[139.0522555,36.0629526],[139.0522261,36.0629899],[139.0522175,36.0630008],[139.0521332,36.063108],[139.052129,36.0631133],[139.0521068,36.0631135],[139.0520957,36.0631136],[139.0520632,36.0631139],[139.0520608,36.0631139],[139.0519897,36.0631561],[139.0519019,36.0632081],[139.0518538,36.0632366],[139.0518527,36.063238],[139.0517961,36.0633095],[139.0517896,36.0633177],[139.0517873,36.0633206],[139.0517662,36.0633473],[139.0517323,36.0633901],[139.0517273,36.063402],[139.0517118,36.0634389],[139.0516954,36.0634779],[139.0516603,36.0635613],[139.0515677,36.0637252],[139.0515524,36.0637608],[139.0514943,36.0638959],[139.051443,36.0639805],[139.051402,36.0640481],[139.0513961,36.0640577],[139.0513552,36.0641379],[139.0513365,36.0641746],[139.0513106,36.0642254],[139.0512036,36.0643836],[139.0512034,36.064384],[139.0511754,36.0644014],[139.0510634,36.0644713],[139.0510589,36.0644741],[139.0510273,36.0644938],[139.0510113,36.0645038],[139.0510036,36.0645086],[139.0509944,36.0645231],[139.0509892,36.0645314],[139.0509864,36.0645358],[139.050949,36.0645951],[139.0509341,36.0646187],[139.050925,36.0646332],[139.0509022,36.0646692],[139.0509022,36.0647072],[139.0509021,36.0647499],[139.0509021,36.0647895],[139.0509021,36.0648197],[139.050902,36.0648638],[139.050902,36.0648668],[139.0508988,36.064887],[139.0508951,36.06491],[139.0508734,36.0650458],[139.0508724,36.0650522],[139.0508722,36.0650536],[139.050845,36.0650849],[139.05083,36.0651021],[139.0508233,36.0651099],[139.0507766,36.0651636],[139.0507635,36.0651787],[139.0507473,36.0651973],[139.0507418,36.0652036],[139.0507076,36.0652774],[139.0506731,36.0653518],[139.0506635,36.0653726],[139.0505787,36.0654393],[139.0504919,36.0655075],[139.0504414,36.065595],[139.050422,36.0656286],[139.0504012,36.0656646],[139.0503977,36.0656708],[139.0503148,36.0657972],[139.0503076,36.0658082],[139.0502974,36.0658237],[139.0502931,36.0658303],[139.0502568,36.0658538],[139.050253,36.0658563],[139.0501114,36.0659481],[139.0500758,36.0659712],[139.05,36.06603164336009],[139.05,36.06578221143497]]]},"properties":{"layer":"landslide","class_code":"2","class_label":"土石流","status_code":"0","status_label":"特別警戒区域指定済み"}},{"type":"Feature","id":"lsld_3dca077a-759b-43c5-aa9d-e67c287e61bd","geometry":{"type":"Polygon","coordinates":[[[139.0510165,36.065145],[139.0509588,36.0651522],[139.0507881,36.0651736],[139.050787,36.0651738],[139.0507806,36.0651746],[139.05078,36.0651747],[139.0507635,36.0651787],[139.0507607,36.0651793],[139.0505555,36.0652285],[139.0505365,36.0652331],[139.0504262,36.0652608],[139.0502916,36.0652946],[139.050246,36.0653081],[139.0502182,36.0653164],[139.050252,36.0652284],[139.05029,36.0651293],[139.0502765,36.0651194],[139.0502588,36.0651064],[139.0503585,36.0649267],[139.050382,36.0648572],[139.050354,36.064798],[139.0503491,36.0647877],[139.0503453,36.0647797],[139.0503443,36.0647774],[139.050345,36.0647775],[139.0503495,36.0647778],[139.0503515,36.0647779],[139.0504387,36.0647837],[139.0504908,36.0648182],[139.0505503,36.0648129],[139.0505649,36.064759],[139.0504858,36.0646193],[139.050455,36.064548],[139.0504419,36.0644599],[139.0504619,36.0643696],[139.0505136,36.0642832],[139.0506378,36.0643823],[139.0509266,36.0646127],[139.0509303,36.0646157],[139.0509341,36.0646187],[139.0509418,36.0646249],[139.051008,36.0646777],[139.0511221,36.0647687],[139.0513101,36.0649102],[139.05142,36.0649797],[139.0515036,36.0650325],[139.0514929,36.0650704],[139.0514873,36.0650903],[139.0514768,36.0651279],[139.0514672,36.0651622],[139.0513563,36.065151],[139.0512457,36.0651399],[139.0510165,36.065145]]]},"properties":{"layer":"landslide","class_code":"2","class_label":"土石流","status_code":"0","status_label":"特別警戒区域指定済み"}},{"type":"Feature","id":"lsld_bb7e06af-88b9-4a97-b70f-e759187134fa","geometry":{"type":"Polygon","coordinates":[[[139.0532278,36.062008],[139.0532358,36.0620434],[139.0532368,36.0620479],[139.0532402,36.0620631],[139.0532413,36.0620679],[139.053244,36.0620801],[139.0532623,36.0621614],[139.0532738,36.0622128],[139.0533087,36.0623682],[139.0533197,36.0624175],[139.0533588,36.0625019],[139.0534027,36.0625969],[139.0533595,36.0626266],[139.0533359,36.0626428],[139.0533149,36.0626574],[139.0532758,36.0626843],[139.0532075,36.0626379],[139.053103,36.0625669],[139.0528982,36.0625074],[139.0528901,36.0625051],[139.0528616,36.0624968],[139.0527985,36.0624793],[139.0527899,36.0624769],[139.0527886,36.0624765],[139.0527446,36.0624643],[139.0527324,36.0624609],[139.0527223,36.062458],[139.0527614,36.0624268],[139.0527579,36.062389],[139.0526965,36.0623193],[139.0526738,36.0622593],[139.0526859,36.0622153],[139.052705,36.0621827],[139.0527091,36.0621756],[139.0527135,36.0621682],[139.0527274,36.0621577],[139.0527429,36.0621462],[139.052776,36.0621213],[139.0527926,36.0621156],[139.0528068,36.0621107],[139.0528389,36.0620996],[139.0528543,36.0620943],[139.0528656,36.0620904],[139.0529059,36.0620813],[139.0529351,36.0620748],[139.0529744,36.0620659],[139.0530373,36.0620419],[139.053048,36.0620379],[139.0530718,36.0620288],[139.0532087,36.0619194],[139.0532278,36.062008]]]},"properties":{"layer":"landslide","class_code":"2","class_label":"土石流","status_code":"0","status_label":"特別警戒区域指定済み"}},{"type":"Feature","id":"lsld_1d80a67f-f8d4-45e1-a139-3d1e2d0aa461","geometry":{"type":"Polygon","coordinates":[[[139.0532075,36.0624926],[139.0532075,36.0624949],[139.053248,36.06253],[139.0533595,36.0626266],[139.0533359,36.0626428],[139.0533149,36.0626574],[139.0532245,36.0625925],[139.0531468,36.0625367],[139.0531524,36.0624892],[139.0531544,36.0624723],[139.0532079,36.0624355],[139.0532075,36.0624926]]]},"properties":{"layer":"landslide","class_code":"2","class_label":"土石流","status_code":"0","status_label":"特別警戒区域指定済み"}},{"type":"Feature","id":"lsld_336f60fc-c5fe-4bef-95b0-2224617eb987","geometry":{"type":"Polygon","coordinates":[[[139.0514929,36.0650704],[139.0514873,36.0650903],[139.0514768,36.0651279],[139.0512959,36.0650681],[139.0512684,36.065059],[139.0512238,36.0650531],[139.0511983,36.0650497],[139.0510623,36.0650318],[139.0510488,36.0650301],[139.0510042,36.0650357],[139.0508724,36.0650522],[139.0508676,36.0650528],[139.0508498,36.0650551],[139.0508436,36.0650558],[139.0508128,36.0650597],[139.0506076,36.0649792],[139.0505915,36.0649826],[139.0504987,36.0650023],[139.0505239,36.0649123],[139.0505651,36.0648881],[139.0506466,36.0648403],[139.0508554,36.0649078],[139.0508733,36.0649088],[139.0508869,36.0649095],[139.0508951,36.06491],[139.0508956,36.06491],[139.0510367,36.0649179],[139.0510796,36.0649203],[139.0512239,36.0649692],[139.0512875,36.0649907],[139.0513381,36.0650103],[139.0514929,36.0650704]]]},"properties":{"layer":"landslide","class_code":"2","class_label":"土石流","status_code":"0","status_label":"特別警戒区域指定済み"}},{"type":"Feature","id":"lsld_10828a96-1523-4265-8d45-972f2f87ac89","geometry":{"type":"Polygon","coordinates":[[[139.0621606,36.0618011],[139.0620131,36.0618248],[139.0619198,36.0618397],[139.0617341,36.0618184],[139.0616618,36.0617798],[139.0616002,36.061747],[139.061467,36.0616758],[139.0614228,36.0616249],[139.0613726,36.061567],[139.0613614,36.0614013],[139.0613549,36.0613062],[139.0613857,36.0611186],[139.0618663,36.0603035],[139.0625,36.06049486579821],[139.0625,36.06136043028622],[139.0624825,36.0613895],[139.0623601,36.061599],[139.0622422,36.061801],[139.0622404,36.0617918],[139.0621606,36.0618011]]]},"properties":{"layer":"landslide","class_code":"3","class_label":"地すべり","status_code":"0","status_label":"特別警戒区域指定済み"}},{"type":"Feature","id":"lsld_a28b408e-7e8c-4523-a070-3be6ea4aeb8e","geometry":{"type":"Polygon","coordinates":[[[139.0625,36.062312581228994],[139.0623721,36.0622039],[139.0622903,36.0620524],[139.0622733,36.0619636],[139.0622422,36.061801],[139.0623249,36.061581],[139.0624185,36.0613322],[139.0624917,36.0612023],[139.0625,36.06118685049506],[139.0625,36.062312581228994]]]},"properties":{"layer":"landslide","class_code":"3","class_label":"地すべり","status_code":"0","status_label":"特別警戒区域指定済み"}}]}