{"type":"FeatureCollection","properties":{"mesh_code":"54390021","source":"PLATEAU秩父市2025","layer":"landslide"},"features":[{"type":"Feature","id":"lsld_428be8d8-e543-444e-82db-62cac355c1f7","geometry":{"type":"Polygon","coordinates":[[[139.0229995,36.0213134],[139.0231261,36.0213485],[139.0231833,36.0215121],[139.0231604,36.0215574],[139.0231588,36.0215606],[139.0231396,36.0215988],[139.0231387,36.0216005],[139.0231169,36.0216438],[139.0230992,36.0216788],[139.0230748,36.0217272],[139.0230312,36.0217331],[139.0229526,36.0217436],[139.0228947,36.0217513],[139.022809,36.0217229],[139.0227808,36.0217135],[139.0226768,36.0216737],[139.0225915,36.0216675],[139.0226021,36.0216154],[139.0226096,36.0215786],[139.022619,36.0215327],[139.02262,36.0215298],[139.0226204,36.0215289],[139.0226293,36.0215051],[139.0226382,36.0214899],[139.0226649,36.0214446],[139.0229168,36.021307],[139.0229995,36.0213134]]]},"properties":{"layer":"landslide","class_code":"1","class_label":"急傾斜地の崩落","status_code":"0","status_label":"特別警戒区域指定済み"}},{"type":"Feature","id":"lsld_6bf744c3-d897-4ed1-862e-219e3f746bd1","geometry":{"type":"Polygon","coordinates":[[[139.0229696,36.021668],[139.0230375,36.0217228],[139.0230312,36.0217331],[139.0230068,36.021773],[139.0230002,36.0217837],[139.0229871,36.0218051],[139.0229866,36.0218058],[139.0229653,36.0218406],[139.0229595,36.02185],[139.0229412,36.0218823],[139.0229186,36.0219224],[139.0228223,36.0218952],[139.0227407,36.0218439],[139.022756,36.0218161],[139.0227845,36.0217644],[139.0227861,36.0217617],[139.0228044,36.0217306],[139.0228048,36.0217299],[139.022809,36.0217229],[139.022815,36.0217126],[139.0228219,36.021701],[139.0228537,36.021647],[139.0229696,36.021668]]]},"properties":{"layer":"landslide","class_code":"1","class_label":"急傾斜地の崩落","status_code":"0","status_label":"特別警戒区域指定済み"}},{"type":"Feature","id":"lsld_8e71b0d5-5b24-4cc5-8110-f475f8785440","geometry":{"type":"Polygon","coordinates":[[[139.0231387,36.0216005],[139.0229819,36.0216243],[139.0228535,36.021583],[139.0227256,36.0215314],[139.02262,36.0215298],[139.0226204,36.0215289],[139.0226293,36.0215051],[139.0226382,36.0214899],[139.0228226,36.0214116],[139.0229284,36.0214452],[139.0230577,36.0214818],[139.0231588,36.0215606],[139.0231396,36.0215988],[139.0231387,36.0216005]]]},"properties":{"layer":"landslide","class_code":"1","class_label":"急傾斜地の崩落","status_code":"0","status_label":"特別警戒区域指定済み"}},{"type":"Feature","id":"lsld_573a135d-326f-4ea8-a75b-c9e4d805e915","geometry":{"type":"Polygon","coordinates":[[[139.0229298,36.0217312],[139.0229526,36.0217436],[139.0230068,36.021773],[139.0230002,36.0217837],[139.0229871,36.0218051],[139.0229866,36.0218058],[139.0228987,36.0217807],[139.0228044,36.0217306],[139.0228048,36.0217299],[139.022809,36.0217229],[139.022815,36.0217126],[139.0228219,36.021701],[139.0229298,36.0217312]]]},"properties":{"layer":"landslide","class_code":"1","class_label":"急傾斜地の崩落","status_code":"0","status_label":"特別警戒区域指定済み"}}]}