{"type":"FeatureCollection","properties":{"mesh_code":"54390064","source":"PLATEAU秩父市2025","layer":"landslide"},"features":[{"type":"Feature","id":"lsld_ed460448-07ab-424b-a1f6-4c3ba35b7a2d","geometry":{"type":"Polygon","coordinates":[[[139.0551948,36.0547571],[139.0554548,36.054781],[139.055455,36.0547812],[139.0555354,36.054912],[139.0557161,36.0550776],[139.0558396,36.0552435],[139.0558582,36.0554553],[139.0558975,36.0556026],[139.0559643,36.0558106],[139.0559775,36.0559632],[139.0560065,36.0561256],[139.0560778,36.056228],[139.0561282,36.0564144],[139.0561386,36.0565859],[139.0561678,36.0567605],[139.0562092,36.0568949],[139.0562069,36.056897],[139.0561358,36.0569625],[139.0561022,36.0569936],[139.0560811,36.057013],[139.0560377,36.0570425],[139.0560264,36.0570483],[139.0559904,36.0570604],[139.055964,36.0570641],[139.0559062,36.0570695],[139.0557907,36.0570803],[139.0556981,36.0570889],[139.0556812,36.0570496],[139.0556882,36.0570078],[139.0556908,36.0569589],[139.0556858,36.0568712],[139.0556827,36.0568182],[139.055675,36.0567798],[139.0556626,36.056736],[139.0556563,36.0566656],[139.0556579,36.0566021],[139.0556608,36.0564792],[139.0556671,36.0564405],[139.0556703,36.0564214],[139.0556732,36.0564049],[139.0556748,36.0563954],[139.0556769,36.0563831],[139.0556787,36.0563727],[139.0556809,36.05636],[139.0556834,36.0563453],[139.0556856,36.0563326],[139.0556844,36.0563284],[139.0556816,36.0563182],[139.0556787,36.0563078],[139.0556753,36.056296],[139.0556728,36.0562868],[139.0556717,36.0562831],[139.0556693,36.0562738],[139.055652,36.0562128],[139.0556434,36.0561827],[139.0556391,36.0561665],[139.0556284,36.0561278],[139.0556148,36.0560797],[139.0556007,36.0560293],[139.0555956,36.0560112],[139.0555859,36.0559762],[139.0555787,36.0559588],[139.0555684,36.0559478],[139.0555543,36.0559327],[139.0555447,36.0559093],[139.0555464,36.055886],[139.0555506,36.055874],[139.0555556,36.0558594],[139.0555595,36.0558489],[139.0555705,36.0558263],[139.0555835,36.0557895],[139.0555836,36.0557832],[139.0555846,36.0557533],[139.0555824,36.0557431],[139.0555784,36.0557243],[139.0555775,36.0557203],[139.0555733,36.0556999],[139.055567,36.0556704],[139.0555529,36.0556475],[139.0555405,36.0556274],[139.0555257,36.0556032],[139.0555173,36.0555898],[139.0555059,36.0555713],[139.0554951,36.0555537],[139.0554763,36.0555235],[139.0554582,36.0554935],[139.0554428,36.055469],[139.0554238,36.0554379],[139.0554165,36.0554263],[139.0553727,36.0553547],[139.0553303,36.0552864],[139.0552948,36.0552284],[139.0552526,36.0551739],[139.0552127,36.0551226],[139.0551901,36.0550938],[139.0551683,36.0550657],[139.0551524,36.0550453],[139.0551377,36.0550267],[139.0551218,36.0550062],[139.0551198,36.0550037],[139.0551157,36.0549984],[139.0551064,36.0549865],[139.0550989,36.0549791],[139.0550848,36.0549651],[139.0550737,36.0549543],[139.0550706,36.0549512],[139.0550686,36.0549492],[139.0550523,36.0549332],[139.0550443,36.0549253],[139.0550305,36.0549117],[139.0550139,36.0548953],[139.0549979,36.0548795],[139.0549869,36.0548687],[139.0549714,36.0548535],[139.0549612,36.0548434],[139.054953,36.0548353],[139.0549509,36.0548333],[139.05495,36.0548324],[139.0550377,36.0547808],[139.0550437,36.0547772],[139.0550592,36.0547697],[139.0550938,36.0547527],[139.0551555,36.054725],[139.0551948,36.0547571]]]},"properties":{"layer":"landslide","class_code":"1","class_label":"急傾斜地の崩落","status_code":"0","status_label":"特別警戒区域指定済み"}},{"type":"Feature","id":"lsld_92eea487-872f-426a-92e3-652338af09c6","geometry":{"type":"Polygon","coordinates":[[[139.0613318,36.0519953],[139.0610147,36.0517793],[139.0607696,36.0516672],[139.0607814,36.0515268],[139.0607871,36.0514595],[139.0607957,36.0513575],[139.0608023,36.0512796],[139.0608035,36.0512655],[139.060813,36.0511899],[139.0609815,36.0511763],[139.0611243,36.0511629],[139.0613571,36.0511766],[139.061432,36.0511651],[139.0615248,36.0511173],[139.0618534,36.0512463],[139.061922,36.0511874],[139.0620983,36.0511585],[139.0620981,36.0511583],[139.0621809,36.0510989],[139.0622734,36.0511488],[139.0622983,36.0511622],[139.0624241,36.05123],[139.0623397,36.0512912],[139.06234,36.0512914],[139.0622865,36.051419],[139.0622036,36.0514921],[139.062114,36.0518643],[139.0617709,36.0519793],[139.0614579,36.0519161],[139.0613318,36.0519953]]]},"properties":{"layer":"landslide","class_code":"1","class_label":"急傾斜地の崩落","status_code":"0","status_label":"特別警戒区域指定済み"}},{"type":"Feature","id":"lsld_bc35f4a0-142a-4a81-a216-c08df05548f0","geometry":{"type":"Polygon","coordinates":[[[139.0586135,36.0518059],[139.0586275,36.0518294],[139.0586694,36.0518996],[139.0586862,36.0519277],[139.0587361,36.0520171],[139.0587724,36.0520822],[139.0588579,36.0522353],[139.0585694,36.0523832],[139.0583629,36.0526345],[139.0583567,36.052642],[139.058111,36.052359],[139.0581031,36.05235],[139.0581962,36.0521593],[139.0582086,36.0521339],[139.0582342,36.0520815],[139.0582672,36.0520138],[139.0582956,36.0519525],[139.0582981,36.0519472],[139.0583085,36.0519159],[139.0583148,36.0518917],[139.0583242,36.051856],[139.0583271,36.0518403],[139.058328,36.0518027],[139.058341,36.0517997],[139.0584654,36.0517865],[139.058578,36.0517487],[139.0586135,36.0518059]]]},"properties":{"layer":"landslide","class_code":"1","class_label":"急傾斜地の崩落","status_code":"0","status_label":"特別警戒区域指定済み"}},{"type":"Feature","id":"lsld_4ed0bede-1920-4d6f-9103-7e7b1b66fe8d","geometry":{"type":"Polygon","coordinates":[[[139.0571,36.0527982],[139.05685,36.0527051],[139.0566926,36.0526356],[139.0566186,36.0525079],[139.056391,36.0524643],[139.0562399,36.0521775],[139.0564311,36.0521368],[139.056515,36.052119],[139.0565941,36.0521022],[139.0566217,36.0520939],[139.0566423,36.0520843],[139.0566546,36.0520771],[139.0567128,36.0520428],[139.0567294,36.0520286],[139.0567636,36.0519994],[139.0568064,36.0519637],[139.0568069,36.051969],[139.0568135,36.0519767],[139.0568994,36.0519871],[139.0572258,36.0517493],[139.0573873,36.0518243],[139.0574935,36.0518581],[139.0576136,36.0518875],[139.0577534,36.0518512],[139.0577286,36.0518259],[139.0577259,36.0518054],[139.0578076,36.0518664],[139.0578402,36.0518908],[139.0578774,36.0519165],[139.0579096,36.0519388],[139.0580091,36.0520054],[139.0581413,36.0520905],[139.0582086,36.0521339],[139.0582234,36.0521435],[139.0584065,36.0522614],[139.0585452,36.0523508],[139.0583629,36.0526345],[139.0583406,36.0526691],[139.057987,36.0527255],[139.0576371,36.0527896],[139.0573753,36.0527835],[139.0571,36.0527982]]]},"properties":{"layer":"landslide","class_code":"1","class_label":"急傾斜地の崩落","status_code":"0","status_label":"特別警戒区域指定済み"}},{"type":"Feature","id":"lsld_e2fba10f-6acf-431a-b1ba-591e12cff6e3","geometry":{"type":"Polygon","coordinates":[[[139.0550881,36.0524617],[139.0547977,36.0524847],[139.0545402,36.0524144],[139.0542643,36.0524166],[139.0540218,36.0523227],[139.0538229,36.0522049],[139.0536316,36.0521181],[139.0534077,36.0519544],[139.053175,36.0517125],[139.053149,36.0515737],[139.053053,36.0514646],[139.0529167,36.0513871],[139.0527168,36.051321],[139.0525651,36.0512429],[139.0523499,36.0511695],[139.05213,36.0510515],[139.052057,36.0509484],[139.0518658,36.0503852],[139.0518887,36.0503864],[139.0522985,36.0504077],[139.0524196,36.050414],[139.0524798,36.0504171],[139.0527659,36.0504335],[139.0528385,36.0504376],[139.0529492,36.050444],[139.0529631,36.0504689],[139.0530139,36.0504914],[139.0532718,36.050613],[139.0533458,36.0506704],[139.0535715,36.0507802],[139.0537297,36.0509035],[139.053972,36.0510671],[139.0540835,36.0512596],[139.0541268,36.0513227],[139.0542383,36.0514395],[139.0544448,36.0515073],[139.0546377,36.0515939],[139.0547678,36.0517433],[139.0548402,36.0518965],[139.054989,36.0519568],[139.0551602,36.0519696],[139.0553539,36.0520337],[139.055535,36.05205],[139.0557923,36.0520681],[139.0557959,36.0521581],[139.0557986,36.0522257],[139.0558004,36.0522684],[139.0558023,36.0523158],[139.0555862,36.0523859],[139.055358,36.0523929],[139.0550881,36.0524617]]]},"properties":{"layer":"landslide","class_code":"1","class_label":"急傾斜地の崩落","status_code":"0","status_label":"特別警戒区域指定済み"}},{"type":"Feature","id":"lsld_bc6c46e5-c28b-47e2-9e99-7f5cc1a7f3fd","geometry":{"type":"Polygon","coordinates":[[[139.0561022,36.0569936],[139.0560811,36.057013],[139.0560377,36.0570425],[139.0560264,36.0570483],[139.0559904,36.0570604],[139.055964,36.0570641],[139.0559062,36.0570695],[139.0557907,36.0570803],[139.0556858,36.0568712],[139.0556827,36.0568182],[139.055675,36.0567798],[139.0556626,36.056736],[139.0556563,36.0566656],[139.0556579,36.0566021],[139.0556608,36.0564792],[139.0556671,36.0564405],[139.0556703,36.0564214],[139.0556732,36.0564049],[139.0556748,36.0563954],[139.0556769,36.0563831],[139.0556787,36.0563727],[139.0556809,36.05636],[139.0556834,36.0563453],[139.0556856,36.0563326],[139.0556844,36.0563284],[139.0556816,36.0563182],[139.0556787,36.0563078],[139.0556753,36.056296],[139.0556728,36.0562868],[139.0556717,36.0562831],[139.0556693,36.0562738],[139.055652,36.0562128],[139.0556434,36.0561827],[139.0556391,36.0561665],[139.0556284,36.0561278],[139.0556148,36.0560797],[139.0556007,36.0560293],[139.0555956,36.0560112],[139.0555859,36.0559762],[139.0555787,36.0559588],[139.0555684,36.0559478],[139.0555543,36.0559327],[139.0555447,36.0559093],[139.0555464,36.055886],[139.0555506,36.055874],[139.0555556,36.0558594],[139.0555595,36.0558489],[139.0555705,36.0558263],[139.0555835,36.0557895],[139.0555836,36.0557832],[139.0555846,36.0557533],[139.0555824,36.0557431],[139.0555784,36.0557243],[139.0555775,36.0557203],[139.0555733,36.0556999],[139.055567,36.0556704],[139.0555529,36.0556475],[139.0555405,36.0556274],[139.0555257,36.0556032],[139.0555173,36.0555898],[139.0555059,36.0555713],[139.0554951,36.0555537],[139.0554763,36.0555235],[139.0554582,36.0554935],[139.0554428,36.055469],[139.0554238,36.0554379],[139.0554165,36.0554263],[139.0553727,36.0553547],[139.0553303,36.0552864],[139.0552948,36.0552284],[139.0552526,36.0551739],[139.0552127,36.0551226],[139.0551901,36.0550938],[139.0551683,36.0550657],[139.0551524,36.0550453],[139.0551377,36.0550267],[139.0551218,36.0550062],[139.0551198,36.0550037],[139.0551157,36.0549984],[139.0551064,36.0549865],[139.0550989,36.0549791],[139.0550848,36.0549651],[139.0550737,36.0549543],[139.0550706,36.0549512],[139.0550686,36.0549492],[139.0550523,36.0549332],[139.0550443,36.0549253],[139.0550305,36.0549117],[139.0550139,36.0548953],[139.0549979,36.0548795],[139.0549869,36.0548687],[139.0549714,36.0548535],[139.0549612,36.0548434],[139.054953,36.0548353],[139.0549509,36.0548333],[139.05495,36.0548324],[139.0550377,36.0547808],[139.055164,36.0548661],[139.0553291,36.0548644],[139.0553295,36.0548646],[139.0554665,36.0550334],[139.0555755,36.0551519],[139.0556882,36.0553083],[139.0557079,36.0554958],[139.0557628,36.0556636],[139.0558028,36.0558404],[139.0558163,36.055941],[139.0558547,36.0561484],[139.055918,36.0562492],[139.0559718,36.056423],[139.055983,36.0566062],[139.0560097,36.0567864],[139.0561022,36.0569936]]]},"properties":{"layer":"landslide","class_code":"1","class_label":"急傾斜地の崩落","status_code":"0","status_label":"特別警戒区域指定済み"}},{"type":"Feature","id":"lsld_bf020b4c-c465-4e17-832b-def818985899","geometry":{"type":"Polygon","coordinates":[[[139.0607957,36.0513575],[139.0609828,36.0513368],[139.0611282,36.0513196],[139.0613772,36.0513238],[139.061496,36.0513165],[139.0616304,36.0512512],[139.061979,36.0513345],[139.0620528,36.0512703],[139.0621013,36.0513011],[139.0621656,36.0513421],[139.0620874,36.0514106],[139.0618753,36.0515617],[139.0616354,36.0516541],[139.0614166,36.0516136],[139.0612182,36.0516608],[139.0609992,36.0515719],[139.0607814,36.0515268],[139.0607871,36.0514595],[139.0607957,36.0513575]]]},"properties":{"layer":"landslide","class_code":"1","class_label":"急傾斜地の崩落","status_code":"0","status_label":"特別警戒区域指定済み"}},{"type":"Feature","id":"lsld_09a98bf5-e81f-4d83-affa-bd7a18686d24","geometry":{"type":"Polygon","coordinates":[[[139.0587361,36.0520171],[139.0587724,36.0520822],[139.0585368,36.0521549],[139.0584065,36.0522614],[139.0583616,36.0522982],[139.0582117,36.0521724],[139.0581962,36.0521593],[139.0582086,36.0521339],[139.0582342,36.0520815],[139.0582672,36.0520138],[139.0582956,36.0519525],[139.0583563,36.0519547],[139.0585039,36.0519287],[139.0586694,36.0518996],[139.0586862,36.0519277],[139.0587361,36.0520171]]]},"properties":{"layer":"landslide","class_code":"1","class_label":"急傾斜地の崩落","status_code":"0","status_label":"特別警戒区域指定済み"}},{"type":"Feature","id":"lsld_d7693670-1c47-45e2-9491-3d592603eedd","geometry":{"type":"Polygon","coordinates":[[[139.0571689,36.0524466],[139.0569532,36.0523574],[139.0567642,36.0524101],[139.0566564,36.0523257],[139.0565198,36.0522952],[139.0564311,36.0521368],[139.056515,36.052119],[139.0565941,36.0521022],[139.0566217,36.0520939],[139.0566423,36.0520843],[139.0566546,36.0520771],[139.0566743,36.0520979],[139.0567083,36.0521148],[139.056846,36.0521496],[139.0571372,36.0518935],[139.0573122,36.0519715],[139.057455,36.0520033],[139.0576238,36.0520315],[139.0577966,36.0519879],[139.0578479,36.0519488],[139.0578774,36.0519165],[139.0579096,36.0519388],[139.0580091,36.0520054],[139.0581413,36.0520905],[139.0582086,36.0521339],[139.0582234,36.0521435],[139.0582117,36.0521724],[139.0581372,36.0523557],[139.058111,36.052359],[139.0578895,36.0523865],[139.0576353,36.052441],[139.0574041,36.0524344],[139.0571689,36.0524466]]]},"properties":{"layer":"landslide","class_code":"1","class_label":"急傾斜地の崩落","status_code":"0","status_label":"特別警戒区域指定済み"}},{"type":"Feature","id":"lsld_9f19b039-29be-4897-be02-b56ccb3f9c02","geometry":{"type":"Polygon","coordinates":[[[139.0558004,36.0522684],[139.0555808,36.0522924],[139.0553567,36.0522841],[139.0551196,36.0522919],[139.054871,36.0522898],[139.0546481,36.0522282],[139.0544608,36.0521538],[139.0542653,36.0520346],[139.054075,36.051922],[139.0538847,36.0518349],[139.0536971,36.0516963],[139.0535427,36.0515299],[139.0534903,36.0513581],[139.0533617,36.0512122],[139.0532159,36.0511319],[139.0530053,36.0510606],[139.052828,36.0509666],[139.052617,36.0508967],[139.0524149,36.0507878],[139.052335,36.0506789],[139.0522985,36.0504077],[139.0524196,36.050414],[139.0524798,36.0504171],[139.0527659,36.0504335],[139.0527768,36.0504755],[139.0527788,36.0504763],[139.0529082,36.0505993],[139.0531248,36.0506861],[139.0532689,36.050792],[139.0534764,36.0508874],[139.0536203,36.0509963],[139.0538262,36.0511467],[139.053934,36.0513362],[139.054006,36.051422],[139.0541395,36.0515499],[139.0543435,36.0516209],[139.0545372,36.0517128],[139.0546665,36.0518788],[139.0547617,36.052032],[139.0549437,36.0520959],[139.0551491,36.0521145],[139.0553555,36.0521731],[139.055575,36.0521902],[139.0557986,36.0522257],[139.0558004,36.0522684]]]},"properties":{"layer":"landslide","class_code":"1","class_label":"急傾斜地の崩落","status_code":"0","status_label":"特別警戒区域指定済み"}}]}