{"type":"FeatureCollection","properties":{"mesh_code":"54390036","source":"PLATEAU秩父市2025","layer":"landslide"},"features":[{"type":"Feature","id":"lsld_07ccc754-6210-40f2-a57e-193d6145fc9f","geometry":{"type":"Polygon","coordinates":[[[139.0836857,36.0272364],[139.0837748,36.0275119],[139.0838562,36.027743],[139.0839284,36.0279884],[139.0840069,36.0282008],[139.0840146,36.028221],[139.0840014,36.0285551],[139.0839971,36.0286663],[139.0839952,36.0287127],[139.0839837,36.0287091],[139.0835915,36.0285875],[139.0835849,36.0285855],[139.0835765,36.0285829],[139.0834769,36.028552],[139.0833549,36.0285141],[139.0831941,36.0284903],[139.083151,36.0284863],[139.0830711,36.028479],[139.0830414,36.0284762],[139.0829603,36.0284757],[139.0829606,36.0284658],[139.0829617,36.0284219],[139.0829588,36.0284128],[139.0827017,36.0282284],[139.0828153,36.0279841],[139.0824318,36.0277964],[139.0823891,36.0276557],[139.0823491,36.0275892],[139.0823455,36.0275847],[139.0822932,36.0275342],[139.0822895,36.0275258],[139.0821133,36.0273069],[139.0821105,36.0273008],[139.081937,36.0271083],[139.0819799,36.027087],[139.0820317,36.0270613],[139.082072,36.0270413],[139.0822785,36.0269387],[139.0823569,36.026923],[139.0824583,36.0269026],[139.0826199,36.0268702],[139.0828395,36.0268261],[139.0831517,36.0268805],[139.0831541,36.0268878],[139.0831348,36.0269066],[139.0833775,36.0267277],[139.0833918,36.0267483],[139.0836857,36.0272364]]]},"properties":{"layer":"landslide","class_code":"1","class_label":"急傾斜地の崩落","status_code":"0","status_label":"特別警戒区域指定済み"}},{"type":"Feature","id":"lsld_46d0111b-3fc0-48bd-beef-91c4ec3fce6e","geometry":{"type":"Polygon","coordinates":[[[139.0841164,36.0322993],[139.0842017,36.0322994],[139.0842051,36.0322994],[139.0842585,36.0322994],[139.0843205,36.0322995],[139.0844211,36.0324087],[139.084581,36.0324954],[139.0846516,36.0326282],[139.0846759,36.0327258],[139.0845299,36.0327769],[139.0845118,36.0327832],[139.0844313,36.0328114],[139.0843686,36.0328333],[139.0843183,36.0328521],[139.084238,36.0328821],[139.0842105,36.0328924],[139.0841378,36.0329209],[139.084081,36.0328379],[139.0839439,36.0326422],[139.0839701,36.0324965],[139.0840054,36.0322992],[139.0841164,36.0322993]]]},"properties":{"layer":"landslide","class_code":"1","class_label":"急傾斜地の崩落","status_code":"0","status_label":"特別警戒区域指定済み"}},{"type":"Feature","id":"lsld_766ce58c-13fe-45fb-8889-742d6dbea3ff","geometry":{"type":"Polygon","coordinates":[[[139.0842465,36.0301763],[139.0842223,36.0303075],[139.084356,36.0305113],[139.0842592,36.0307673],[139.0841903,36.030798],[139.0841024,36.0308373],[139.0840213,36.0308735],[139.0839938,36.0308858],[139.0839291,36.0309071],[139.0838642,36.0309284],[139.0837613,36.0309622],[139.0836138,36.0306808],[139.0835652,36.0305403],[139.0834963,36.0303005],[139.083462,36.0301829],[139.0835701,36.0301627],[139.0836602,36.0301459],[139.0836738,36.0301434],[139.0838179,36.0301318],[139.0839078,36.0301245],[139.0839303,36.0301227],[139.0841183,36.0301075],[139.0842465,36.0301763]]]},"properties":{"layer":"landslide","class_code":"1","class_label":"急傾斜地の崩落","status_code":"0","status_label":"特別警戒区域指定済み"}},{"type":"Feature","id":"lsld_8c3c43cb-b3a5-4941-87df-fa483103cc5f","geometry":{"type":"Polygon","coordinates":[[[139.083151,36.0284696],[139.0833913,36.0284893],[139.0834914,36.0285001],[139.0835608,36.0285076],[139.0835863,36.0285103],[139.0836037,36.0285122],[139.0840014,36.0285551],[139.0840414,36.0285594],[139.0839971,36.0286663],[139.0839811,36.0287047],[139.0839837,36.0287091],[139.0840188,36.0287703],[139.0839508,36.0290506],[139.0836433,36.0290764],[139.0835861,36.0290812],[139.0834795,36.0290902],[139.0832886,36.0291062],[139.0831948,36.0291056],[139.0831674,36.0291054],[139.0831074,36.0291041],[139.083019,36.0291021],[139.0829969,36.0290985],[139.0828451,36.0289745],[139.0828382,36.028913],[139.0827412,36.0286611],[139.0825441,36.0285008],[139.0826544,36.028491],[139.0827452,36.028483],[139.0827735,36.0284805],[139.0829606,36.0284658],[139.0830342,36.02846],[139.083151,36.0284696]]]},"properties":{"layer":"landslide","class_code":"1","class_label":"急傾斜地の崩落","status_code":"0","status_label":"特別警戒区域指定済み"}},{"type":"Feature","id":"lsld_f97b355b-cb6e-4d8a-bb29-83ba1222adbd","geometry":{"type":"Polygon","coordinates":[[[139.0779716,36.0272485],[139.0779718,36.0272496],[139.0779831,36.0273354],[139.0780804,36.0277337],[139.0780837,36.0278085],[139.0781868,36.027937],[139.0783844,36.0283103],[139.0784412,36.0285],[139.0784577,36.0286652],[139.0784787,36.0290476],[139.0785207,36.0291826],[139.0785637,36.0294064],[139.0783313,36.0298508],[139.0780511,36.029992],[139.0779889,36.0300915],[139.0781143,36.0301554],[139.0778543,36.0300766],[139.0776693,36.0300206],[139.0775944,36.0299979],[139.0774346,36.0299495],[139.0773573,36.0299275],[139.0772604,36.0298783],[139.0771637,36.0297968],[139.0770715,36.0297135],[139.0770435,36.029682],[139.0769927,36.0296248],[139.0769856,36.0296201],[139.0769575,36.0296012],[139.0768955,36.0295677],[139.0768867,36.0294592],[139.0769505,36.0292554],[139.0770652,36.0291368],[139.0770671,36.0291335],[139.0771908,36.0290569],[139.0772587,36.0289608],[139.0772499,36.0289158],[139.0772151,36.0286354],[139.0772021,36.0285474],[139.0771629,36.0285135],[139.0768718,36.0282301],[139.0769445,36.0278119],[139.0769339,36.0278001],[139.0769185,36.0277922],[139.0767516,36.0276211],[139.076751,36.02762],[139.0768374,36.0273902],[139.0768371,36.0273894],[139.0768327,36.0273766],[139.0768321,36.0273758],[139.0768319,36.0273754],[139.0767371,36.0270334],[139.0767171,36.0269887],[139.0767041,36.0269725],[139.0765495,36.0267723],[139.076501,36.026727],[139.0763248,36.0265964],[139.0763827,36.026219],[139.0763345,36.0260659],[139.0762991,36.0259639],[139.0762015,36.0258971],[139.075952,36.0259285],[139.0757536,36.0256771],[139.0757648,36.0254401],[139.0757825,36.0253954],[139.0757849,36.0253067],[139.0757838,36.0253065],[139.0756342,36.0251949],[139.0756342,36.025193],[139.0754696,36.0251526],[139.0754816,36.0251152],[139.0754991,36.0250658],[139.0755027,36.0250557],[139.0755274,36.0250061],[139.075530439661,36.025],[139.0763752775937,36.025],[139.0765805,36.0251363],[139.0767994,36.0253394],[139.0768413,36.0253774],[139.0767604,36.0254209],[139.0769521,36.0255826],[139.0771248,36.0257879],[139.0772343,36.0261846],[139.0772848,36.0261901],[139.0773204,36.0261692],[139.0775118,36.0263962],[139.0774917,36.0264038],[139.0777548,36.0267462],[139.0777638,36.0270196],[139.0779257,36.0269731],[139.077938,36.0272115],[139.0779495,36.0272088],[139.0779498,36.0272097],[139.0779716,36.0272485]]]},"properties":{"layer":"landslide","class_code":"1","class_label":"急傾斜地の崩落","status_code":"0","status_label":"特別警戒区域指定済み"}},{"type":"Feature","id":"lsld_22e86c0d-fb12-47ec-89ea-9cd28cd5db35","geometry":{"type":"Polygon","coordinates":[[[139.075,36.02814530434783],[139.0750528,36.028146],[139.0750572,36.0281698],[139.0750631,36.0281803],[139.0750799,36.0282161],[139.0752282,36.0283125],[139.0753973,36.0287423],[139.0754341,36.0288383],[139.075531,36.0288905],[139.0755375,36.0289036],[139.0755669,36.0289236],[139.075519,36.0290018],[139.0755172,36.0290042],[139.0754945,36.0290355],[139.0754867,36.0290522],[139.0754718,36.0290842],[139.0754459,36.0291493],[139.0754253,36.0292262],[139.0754114,36.0292965],[139.0753959,36.0293749],[139.0753907,36.0294009],[139.07536,36.0294358],[139.0752859,36.029527],[139.075246,36.0295761],[139.0752193,36.0296179],[139.0751902,36.029648],[139.0751155,36.0296897],[139.075,36.02966101538462],[139.075,36.02814530434783]]]},"properties":{"layer":"landslide","class_code":"1","class_label":"急傾斜地の崩落","status_code":"0","status_label":"特別警戒区域指定済み"}},{"type":"Feature","id":"lsld_3d7c12a1-32fa-4748-a721-6c92ac9c481f","geometry":{"type":"Polygon","coordinates":[[[139.0832822,36.0273631],[139.0833673,36.0276294],[139.0834338,36.0278408],[139.0835046,36.0280728],[139.0835843,36.0282953],[139.0835899,36.0283094],[139.0835863,36.0285103],[139.0835854,36.0285598],[139.0835849,36.0285855],[139.0835765,36.0285829],[139.0834769,36.028552],[139.0833549,36.0285141],[139.0831941,36.0284903],[139.083151,36.0284863],[139.083151,36.0284696],[139.0831513,36.0284007],[139.0831469,36.0283901],[139.0828903,36.0281905],[139.0829995,36.0279418],[139.0826214,36.027777],[139.0825658,36.0275961],[139.0825324,36.0275155],[139.0825354,36.0275061],[139.0824575,36.0274737],[139.082444,36.0274653],[139.0822729,36.027248],[139.0822703,36.0272407],[139.082072,36.0270413],[139.0822785,36.0269387],[139.0823569,36.026923],[139.0824583,36.0269026],[139.0827733,36.0270409],[139.0827768,36.0270498],[139.082806,36.0271635],[139.0828108,36.0271644],[139.0831352,36.0270295],[139.0831441,36.0270473],[139.0832822,36.0273631]]]},"properties":{"layer":"landslide","class_code":"1","class_label":"急傾斜地の崩落","status_code":"0","status_label":"特別警戒区域指定済み"}},{"type":"Feature","id":"lsld_7dbf5b69-8ab4-49b2-9b23-aa406af9e1d4","geometry":{"type":"Polygon","coordinates":[[[139.0845118,36.0327832],[139.0844313,36.0328114],[139.0843686,36.0328333],[139.0843183,36.0328521],[139.0842655,36.0328073],[139.0841149,36.0326537],[139.0841347,36.0324682],[139.0842017,36.0322994],[139.0842051,36.0322994],[139.0842585,36.0322994],[139.0842757,36.0324389],[139.0843443,36.0325766],[139.0844725,36.0327112],[139.0845118,36.0327832]]]},"properties":{"layer":"landslide","class_code":"1","class_label":"急傾斜地の崩落","status_code":"0","status_label":"特別警戒区域指定済み"}},{"type":"Feature","id":"lsld_b1294e98-7d10-41f4-ba6e-905af9c639fe","geometry":{"type":"Polygon","coordinates":[[[139.0841024,36.0308373],[139.0840213,36.0308735],[139.0839938,36.0308858],[139.0839291,36.0309071],[139.0838175,36.0306343],[139.0837492,36.0305002],[139.0836886,36.0302653],[139.0836602,36.0301459],[139.0836738,36.0301434],[139.0838179,36.0301318],[139.0839078,36.0301245],[139.0839832,36.0302183],[139.0839981,36.0304033],[139.0841073,36.0305681],[139.0841024,36.0308373]]]},"properties":{"layer":"landslide","class_code":"1","class_label":"急傾斜地の崩落","status_code":"0","status_label":"特別警戒区域指定済み"}},{"type":"Feature","id":"lsld_cc6488ed-c2c7-46d4-b516-fe2f9f005ae2","geometry":{"type":"Polygon","coordinates":[[[139.083151,36.0284696],[139.0833913,36.0284893],[139.0834914,36.0285001],[139.0835608,36.0285076],[139.0835863,36.0285103],[139.0836037,36.0285122],[139.0835854,36.0285598],[139.0835765,36.0285829],[139.0835352,36.0286905],[139.0835521,36.0287808],[139.0836167,36.0289002],[139.0835861,36.0290812],[139.0834795,36.0290902],[139.0832886,36.0291062],[139.0831948,36.0291056],[139.0830321,36.0289956],[139.0830184,36.0289019],[139.0829227,36.0286311],[139.0827452,36.028483],[139.0827735,36.0284805],[139.0829606,36.0284658],[139.0830342,36.02846],[139.083151,36.0284696]]]},"properties":{"layer":"landslide","class_code":"1","class_label":"急傾斜地の崩落","status_code":"0","status_label":"特別警戒区域指定済み"}},{"type":"Feature","id":"lsld_3c322413-7e49-4a29-9569-78cea8797b1b","geometry":{"type":"Polygon","coordinates":[[[139.0768083,36.0259257],[139.0768766,36.0261658],[139.0768994,36.0263274],[139.0769501,36.0263858],[139.0771005,36.0265518],[139.0771821,36.0266585],[139.0773047,36.0268125],[139.077309,36.0270151],[139.0775042,36.0271224],[139.0774859,36.0272531],[139.0775124,36.0273117],[139.0775128,36.0273128],[139.0775177,36.0273603],[139.0775181,36.0273614],[139.0775679,36.0275],[139.0776231,36.027727],[139.0776295,36.0278534],[139.0776301,36.0279447],[139.0777946,36.0281414],[139.0779322,36.02839],[139.0779848,36.0285735],[139.0780066,36.0287603],[139.0780226,36.0289883],[139.0780561,36.0291749],[139.0780926,36.0293729],[139.0779576,36.029613],[139.0777029,36.0297319],[139.0776405,36.0298419],[139.0776693,36.0300206],[139.0775944,36.0299979],[139.0774346,36.0299495],[139.0773573,36.0299275],[139.0772604,36.0298783],[139.0771637,36.0297968],[139.0770715,36.0297135],[139.0770435,36.029682],[139.0770721,36.0295109],[139.0770833,36.0293784],[139.0772837,36.0292274],[139.0772502,36.0292094],[139.0773796,36.0291001],[139.0774487,36.0289412],[139.0774384,36.0288717],[139.0774107,36.0286349],[139.0773813,36.0284922],[139.0773155,36.0284132],[139.0770562,36.0281552],[139.0771258,36.0278127],[139.0771002,36.0277375],[139.07707,36.0276977],[139.0769507,36.0275801],[139.07695,36.027579],[139.0770138,36.0273588],[139.0770134,36.0273579],[139.0769967,36.0273154],[139.077003,36.0273111],[139.0769062,36.0270132],[139.0768765,36.0269178],[139.0768537,36.0268995],[139.0766999,36.0267027],[139.0766232,36.0266208],[139.0764513,36.0264792],[139.0765583,36.0261641],[139.0765222,36.0260474],[139.0764528,36.0258968],[139.0763317,36.0257879],[139.076116,36.0258499],[139.075905,36.0255868],[139.0759134,36.0253339],[139.0759195,36.025276],[139.0758504,36.0251482],[139.0758493,36.025148],[139.0756947,36.025052],[139.0756952,36.0250502],[139.0755274,36.0250061],[139.075530439661,36.025],[139.07574760453718,36.025],[139.0758885,36.0250481],[139.0758896,36.0250483],[139.0760753,36.0250963],[139.0762367,36.0252365],[139.0763568,36.0254442],[139.0764552,36.0255851],[139.0764984,36.0255748],[139.0766757,36.0257569],[139.0768083,36.0259257]]]},"properties":{"layer":"landslide","class_code":"1","class_label":"急傾斜地の崩落","status_code":"0","status_label":"特別警戒区域指定済み"}},{"type":"Feature","id":"lsld_303244bc-60d8-483c-a92d-f6e4a74d934b","geometry":{"type":"Polygon","coordinates":[[[139.0754867,36.0290522],[139.0754718,36.0290842],[139.0754459,36.0291493],[139.0754253,36.0292262],[139.0754114,36.0292965],[139.0753959,36.0293749],[139.075163,36.0293185],[139.075,36.02921203816425],[139.075,36.02835025358545],[139.0751183,36.028442],[139.0752178,36.0288093],[139.0752574,36.0289207],[139.0753568,36.0289721],[139.0754083,36.0290148],[139.0754867,36.0290522]]]},"properties":{"layer":"landslide","class_code":"1","class_label":"急傾斜地の崩落","status_code":"0","status_label":"特別警戒区域指定済み"}}]}