{"type":"FeatureCollection","properties":{"mesh_code":"53397052","source":"PLATEAU秩父市2025","layer":"building"},"features":[{"type":"Feature","id":"bldg_67778375-09ef-4639-9166-5042dc287c61","geometry":{"type":"Polygon","coordinates":[[[139.02511410225776,35.960923726633716],[139.02515215002936,35.96093788996185],[139.02512437568657,35.960987175360366],[139.02514953466243,35.960996547089806],[139.02513968941608,35.96101402011651],[139.0251567308709,35.96102036287938],[139.0251372773904,35.961054895930374],[139.02505702922372,35.961025009070134],[139.02511410225776,35.960923726633716]]]},"properties":{"layer":"building","height_m":4.1}},{"type":"Feature","id":"bldg_e0f4e867-678d-480e-9d3a-56220bd96c9b","geometry":{"type":"Polygon","coordinates":[[[139.02519005339457,35.96065720946768],[139.02518291796142,35.960715565769334],[139.02508466443751,35.96070760351334],[139.02509179902367,35.96064933734235],[139.02519005339457,35.96065720946768]]]},"properties":{"layer":"building","height_m":7.5}},{"type":"Feature","id":"bldg_6a078f50-32fd-4ed4-bcb6-2d364a8a03e9","geometry":{"type":"Polygon","coordinates":[[[139.02534508442767,35.96263336576975],[139.02537291091753,35.962742250083444],[139.0252936174012,35.96275559622439],[139.02526579101624,35.96264671189387],[139.02534508442767,35.96263336576975]]]},"properties":{"layer":"building","height_m":5.5}},{"type":"Feature","id":"bldg_1ebb7493-c3a4-41f5-a2dc-d36261cf3d2c","geometry":{"type":"Polygon","coordinates":[[[139.02543260265907,35.962781227669936],[139.02543551665255,35.96284343708879],[139.0253599942695,35.96284572265367],[139.02535719119263,35.96278351398016],[139.02543260265907,35.962781227669936]]]},"properties":{"layer":"building","height_m":7.0}},{"type":"Feature","id":"bldg_459f7f0f-2dbd-4e5d-94cd-36bf211d6cf6","geometry":{"type":"Polygon","coordinates":[[[139.02568490591983,35.962511544130564],[139.02543918830727,35.96250475271145],[139.02544199044434,35.962436452921835],[139.0256877087635,35.96244315420859],[139.02568490591983,35.962511544130564]]]},"properties":{"layer":"building","height_m":3.8}},{"type":"Feature","id":"bldg_57c1c10f-f9d7-4e5c-82a1-6945f4d44d7f","geometry":{"type":"Polygon","coordinates":[[[139.02561371525798,35.96282877375246],[139.02545139886658,35.96282975410065],[139.02545058057885,35.96274682885702],[139.02559316144462,35.96274598605985],[139.02559298307168,35.962730842994326],[139.02565152398418,35.96273042585141],[139.02565231311306,35.96281623506364],[139.02561361836806,35.96281651540031],[139.02561371525798,35.96282877375246]]]},"properties":{"layer":"building","height_m":7.5}},{"type":"Feature","id":"bldg_d796b694-7284-4a84-ae45-598ee98390fa","geometry":{"type":"Polygon","coordinates":[[[139.02558223558802,35.96374257161158],[139.02559049939643,35.96380202299447],[139.02549129249343,35.96381108922942],[139.02548302875874,35.96375163784073],[139.02558223558802,35.96374257161158]]]},"properties":{"layer":"building","height_m":5.1}},{"type":"Feature","id":"bldg_21411147-156e-45ed-a1de-ad0c7b8299ae","geometry":{"type":"Polygon","coordinates":[[[139.02561383700706,35.96348086615041],[139.02550427041007,35.963483914079006],[139.025501753883,35.96342621385042],[139.0255411232541,35.96342503679158],[139.02554030269096,35.96340763615132],[139.02561061159778,35.9634056759053],[139.02561383700706,35.96348086615041]]]},"properties":{"layer":"building","height_m":6.4}},{"type":"Feature","id":"bldg_155884c0-a17e-4201-be3b-a630833f67f0","geometry":{"type":"Polygon","coordinates":[[[139.02571957214843,35.960587768773465],[139.02566018248228,35.960649919420206],[139.0255432004068,35.96057594632772],[139.025602478335,35.96051388511643],[139.02571957214843,35.960587768773465]]]},"properties":{"layer":"building","height_m":8.1}},{"type":"Feature","id":"bldg_484d5932-bd41-44fc-8047-42529a7871fe","geometry":{"type":"Polygon","coordinates":[[[139.02568952739082,35.96254762729503],[139.02568400814786,35.96266502973545],[139.0256520895328,35.962664003737956],[139.02565138656607,35.9626786000908],[139.0255444359662,35.96267526642985],[139.02554854577636,35.962587417199146],[139.02559287759996,35.96258879716908],[139.02559487934252,35.962544646869055],[139.02568952739082,35.96254762729503]]]},"properties":{"layer":"building","height_m":5.9}},{"type":"Feature","id":"bldg_54b4219e-2728-4994-82c5-48ebb6baa89c","geometry":{"type":"Polygon","coordinates":[[[139.02561583077068,35.96372053560084],[139.02569667244632,35.9637185560711],[139.0256991257946,35.96378247484776],[139.02561828313597,35.963784544502246],[139.02561583077068,35.96372053560084]]]},"properties":{"layer":"building","height_m":4.3}},{"type":"Feature","id":"bldg_37dd4896-6b02-4c05-8701-f2420eef690b","geometry":{"type":"Polygon","coordinates":[[[139.0259676577131,35.96065541338824],[139.02598127055555,35.96074482398102],[139.02578883776707,35.960764259141925],[139.02577335546735,35.960662488113925],[139.02583306120084,35.96065640051013],[139.02583493088176,35.960668760925756],[139.0259676577131,35.96065541338824]]]},"properties":{"layer":"building","height_m":6.5}},{"type":"Feature","id":"bldg_c0efd8d3-9215-41c3-ad41-b6ebcd759c27","geometry":{"type":"Polygon","coordinates":[[[139.02611550951892,35.96053932890416],[139.02605155237103,35.960592796526186],[139.02600668155915,35.960557343896866],[139.02602121736575,35.96054518397999],[139.0259909737029,35.960521276278826],[139.02602586017107,35.9604920384051],[139.02605148556418,35.96051221969265],[139.02606590958413,35.96050014914838],[139.02611550951892,35.96053932890416]]]},"properties":{"layer":"building","height_m":4.0}},{"type":"Feature","id":"bldg_6fc650dc-9b18-4556-a9ac-c937055b783a","geometry":{"type":"Polygon","coordinates":[[[139.02602776197162,35.964302483812645],[139.02619462588038,35.964366967764256],[139.0261559250127,35.96443313335321],[139.02598906191574,35.96436855922313],[139.02602776197162,35.964302483812645]]]},"properties":{"layer":"building","height_m":6.3}},{"type":"Feature","id":"bldg_3487b0ee-cc1b-49ae-9492-970d0bb87903","geometry":{"type":"Polygon","coordinates":[[[139.0262627940215,35.9613647492911],[139.02625818584622,35.961372009830285],[139.0263149930767,35.96139587979234],[139.0262869954254,35.961439927395006],[139.0262679529993,35.96143192195265],[139.0262484841758,35.961462552444196],[139.0261868528016,35.96143665812678],[139.02617643119703,35.9614530457997],[139.0261110134708,35.96142555771105],[139.02611789744822,35.96141472530528],[139.0260242196684,35.96137536620217],[139.02605641985716,35.9613247133514],[139.02606645441364,35.96132892684233],[139.02608986658993,35.96129209491119],[139.0262627940215,35.9613647492911]]]},"properties":{"layer":"building","height_m":8.3}},{"type":"Feature","id":"bldg_31c69ea3-c15d-4210-a826-5eea8bb52f7c","geometry":{"type":"Polygon","coordinates":[[[139.02619289898308,35.964275203677545],[139.02610024578303,35.96422852394335],[139.0261249659956,35.964196153255486],[139.02621761917314,35.96424283297058],[139.02619289898308,35.964275203677545]]]},"properties":{"layer":"building","height_m":4.0}},{"type":"Feature","id":"bldg_cb6d7787-eb23-4732-9608-f81c42fc618d","geometry":{"type":"Polygon","coordinates":[[[139.0263379647858,35.96146988693707],[139.02631020464506,35.96151782976513],[139.02624460676765,35.96149278306511],[139.02627236693868,35.96144484025242],[139.02628252713123,35.96144869404961],[139.0263379647858,35.96146988693707]]]},"properties":{"layer":"building","height_m":3.8}},{"type":"Feature","id":"bldg_05468b18-46de-4a4c-a79c-49f14024fbd3","geometry":{"type":"Polygon","coordinates":[[[139.02637095839185,35.961376103036244],[139.02644414297848,35.9613964237804],[139.02642153445802,35.96145016960515],[139.02634834982817,35.96142984884681],[139.02637095839185,35.961376103036244]]]},"properties":{"layer":"building","height_m":5.0}},{"type":"Feature","id":"bldg_c27e4ce5-a9e3-428c-9995-77d49a054da9","geometry":{"type":"Polygon","coordinates":[[[139.02656659894438,35.961260510606394],[139.02653911880378,35.96125152014042],[139.02652825255686,35.96127348391355],[139.02647207690816,35.961255098213364],[139.02651203270264,35.96117436686447],[139.02656557865964,35.96119187863025],[139.02656190005564,35.961199307665204],[139.02659200991795,35.961209163028265],[139.02656659894438,35.961260510606394]]]},"properties":{"layer":"building","height_m":4.0}},{"type":"Feature","id":"bldg_d1e749ab-05fe-4ba7-b325-026cdfd30a73","geometry":{"type":"Polygon","coordinates":[[[139.02669486150518,35.96136899727053],[139.02672426079388,35.96121435123778],[139.02696198564502,35.961243618840314],[139.02698736327304,35.96121188327992],[139.02707621787192,35.96126115058783],[139.02703141950715,35.96131664017863],[139.02696115280855,35.96129282432194],[139.02693631745194,35.96136935821853],[139.02687885770862,35.961361671544374],[139.0268738215418,35.96137723022064],[139.02676609025767,35.96136361757183],[139.02676373201223,35.96137748176878],[139.02669486150518,35.96136899727053]]]},"properties":{"layer":"building","height_m":9.9}},{"type":"Feature","id":"bldg_7b770e8d-e3b5-4e0c-861a-78c9af5d0fe6","geometry":{"type":"Polygon","coordinates":[[[139.02713102784216,35.961264484104085],[139.02709132001326,35.96124235175317],[139.02712943969337,35.96119713717642],[139.02716914760234,35.96121926050234],[139.02713102784216,35.961264484104085]]]},"properties":{"layer":"building","height_m":6.4}},{"type":"Feature","id":"bldg_32c97b27-c49b-4776-8d59-812841d21265","geometry":{"type":"Polygon","coordinates":[[[139.02846982431052,35.96343034900168],[139.02856046371477,35.963404575801334],[139.02860141613996,35.96349977551995],[139.02851077663902,35.963525548749594],[139.02846982431052,35.96343034900168]]]},"properties":{"layer":"building","height_m":8.5}},{"type":"Feature","id":"bldg_33ad1ad7-5ea5-4a5e-86db-1179beddc8b3","geometry":{"type":"Polygon","coordinates":[[[139.02860417739356,35.96350735595724],[139.02864674257856,35.96360642404534],[139.0285763624092,35.963626321493],[139.02855914101528,35.9635862783414],[139.02854157323284,35.96359129794226],[139.028516228617,35.96353236310263],[139.02860417739356,35.96350735595724]]]},"properties":{"layer":"building","height_m":5.3}},{"type":"Feature","id":"bldg_538096b9-8302-4906-ba41-ea396f0f3dc3","geometry":{"type":"Polygon","coordinates":[[[139.0306913285159,35.960660241452416],[139.03067541174684,35.96071033752235],[139.03060527403477,35.96069562780832],[139.03060985597557,35.960681057362926],[139.0305297623731,35.9606642080137],[139.03054109727555,35.96062868240674],[139.0306913285159,35.960660241452416]]]},"properties":{"layer":"building","height_m":5.9}},{"type":"Feature","id":"bldg_07397bb6-67ba-40f3-a05f-78681b43b27b","geometry":{"type":"Polygon","coordinates":[[[139.03061705677425,35.96049534715718],[139.03069259151914,35.96051351790956],[139.030697495052,35.960500031173765],[139.0307463768465,35.96051180464012],[139.03070703865305,35.960619607670395],[139.03058262288474,35.96058957328853],[139.03061705677425,35.96049534715718]]]},"properties":{"layer":"building","height_m":7.2}},{"type":"Feature","id":"bldg_e1aa9423-7dcf-461c-8eec-34180dd9c8e8","geometry":{"type":"Polygon","coordinates":[[[139.03070186668515,35.96069248842201],[139.03073096487577,35.960599668655405],[139.03086106621143,35.960626586345796],[139.03083196816198,35.96071940614536],[139.03070186668515,35.96069248842201]]]},"properties":{"layer":"building","height_m":6.0}},{"type":"Feature","id":"bldg_a5a3489b-153d-4952-84a7-1bf43dbb6791","geometry":{"type":"Polygon","coordinates":[[[139.03085555554443,35.960930198185096],[139.0308294794959,35.96092155157007],[139.0308409056222,35.96089891516602],[139.03086698166462,35.96090756177853],[139.03085555554443,35.960930198185096]]]},"properties":{"layer":"building","height_m":null}},{"type":"Feature","id":"bldg_70020f06-0a06-4314-8b05-cdf4b80a369e","geometry":{"type":"Polygon","coordinates":[[[139.03126467093293,35.961272273517146],[139.03129324577822,35.96120046848748],[139.03137573015871,35.96122215527312],[139.03134716646505,35.9612939603971],[139.03126467093293,35.961272273517146]]]},"properties":{"layer":"building","height_m":4.9}},{"type":"Feature","id":"bldg_e4c3b89a-c09b-4f3a-b729-92191ac3aa0f","geometry":{"type":"Polygon","coordinates":[[[139.03177105237012,35.96107331461272],[139.03172142823144,35.96118979189816],[139.0315580377783,35.96114381551359],[139.0315506563592,35.96116116132746],[139.03151041619452,35.96114989657841],[139.03152869846164,35.961107026620766],[139.03151753306392,35.9611038875917],[139.0315562575444,35.96101284441863],[139.03177105237012,35.96107331461272]]]},"properties":{"layer":"building","height_m":8.1}},{"type":"Feature","id":"bldg_da61f13e-0388-41e6-b382-6497c0eef940","geometry":{"type":"Polygon","coordinates":[[[139.03176070574798,35.96121952684033],[139.03186145046712,35.96098108426504],[139.03282567487372,35.96125043000476],[139.0328117058337,35.96128341461168],[139.03286664910942,35.96129883286105],[139.03283666651606,35.96136965547582],[139.0327847072016,35.961355158420936],[139.03275733423155,35.9614200498292],[139.03256707574153,35.96136686541059],[139.03253493109224,35.96144317146347],[139.03239077207914,35.96140291261406],[139.0324118990377,35.96135276095992],[139.0323432470468,35.961333555663124],[139.03232484793634,35.96137705587725],[139.03176070574798,35.96121952684033]]]},"properties":{"layer":"building","height_m":9.8}},{"type":"Feature","id":"bldg_df4429c3-fbde-42c7-864d-50990ffb2248","geometry":{"type":"Polygon","coordinates":[[[139.03181510029086,35.9645134004969],[139.03184658351392,35.96443252968285],[139.03198174519156,35.96446731229139],[139.03195025100513,35.964548183067976],[139.03181510029086,35.9645134004969]]]},"properties":{"layer":"building","height_m":8.5}},{"type":"Feature","id":"bldg_3d8438b2-ca90-4fa5-af90-321eef3c3b7f","geometry":{"type":"Polygon","coordinates":[[[139.03196580072267,35.96453331629088],[139.03198573930678,35.96447251243541],[139.03200002099643,35.96447560914104],[139.03200423067818,35.96446276666454],[139.03201114476045,35.964464263930644],[139.032014759483,35.96445324712316],[139.0320694857699,35.96446510415132],[139.03204173393726,35.964549767381946],[139.03196580072267,35.96453331629088]]]},"properties":{"layer":"building","height_m":9.4}},{"type":"Feature","id":"bldg_7c79791f-4f35-46e1-9aca-2972a2bf10a4","geometry":{"type":"Polygon","coordinates":[[[139.0321725592761,35.964518870007204],[139.03214627187938,35.964571618934045],[139.03204674476723,35.964538832000216],[139.03207303212739,35.96448609210801],[139.0321725592761,35.964518870007204]]]},"properties":{"layer":"building","height_m":9.0}},{"type":"Feature","id":"bldg_959f126d-532d-4ebb-9880-d51bfb950cfc","geometry":{"type":"Polygon","coordinates":[[[139.03227352282224,35.96426785553462],[139.03229104208492,35.964237995187986],[139.0323618195674,35.964265443592616],[139.0323443004159,35.96429529493728],[139.03227352282224,35.96426785553462]]]},"properties":{"layer":"building","height_m":null}},{"type":"Feature","id":"bldg_b308a05d-37c0-4dcf-b41a-f910e8e9a16f","geometry":{"type":"Polygon","coordinates":[[[139.0323393885597,35.96107891204464],[139.0323549026267,35.96103566295992],[139.0324458144069,35.96105717993475],[139.03243041124,35.96110042977147],[139.0323393885597,35.96107891204464]]]},"properties":{"layer":"building","height_m":3.7}},{"type":"Feature","id":"bldg_2b40285f-c507-40e8-928c-1d4da8bc4587","geometry":{"type":"Polygon","coordinates":[[[139.03261930085992,35.96493492735487],[139.03246614360967,35.96491777198984],[139.03248052499657,35.964833055485045],[139.032633682087,35.96485021082992],[139.03261930085992,35.96493492735487]]]},"properties":{"layer":"building","height_m":5.6}},{"type":"Feature","id":"bldg_d9d814bd-7081-400d-8cfb-c9dc3efdd696","geometry":{"type":"Polygon","coordinates":[[[139.03260815229507,35.9644183620357],[139.03262193890347,35.96438484448795],[139.03268611024316,35.964402280224604],[139.03267233474455,35.9644357978539],[139.03260815229507,35.9644183620357]]]},"properties":{"layer":"building","height_m":null}},{"type":"Feature","id":"bldg_31b83175-2a96-4418-bac7-117f0d767f27","geometry":{"type":"Polygon","coordinates":[[[139.03280051535802,35.96123881563323],[139.03269110563866,35.96116075399519],[139.0327269159191,35.96112764472673],[139.0328362147739,35.96120570559294],[139.03280051535802,35.96123881563323]]]},"properties":{"layer":"building","height_m":3.9}},{"type":"Feature","id":"bldg_ce61b18a-9881-48d3-8ca9-91191adcd7f7","geometry":{"type":"Polygon","coordinates":[[[139.0327542747557,35.966464471378316],[139.0327102117759,35.96642634977605],[139.03271884860806,35.96641975579636],[139.03268950251072,35.966394377635],[139.03273691028053,35.96635816419229],[139.03277443359187,35.96639062704789],[139.03280164016093,35.966369853294594],[139.03282891980874,35.96639346010563],[139.03281023838042,35.96640772025072],[139.03281884441486,35.9664151593217],[139.0327542747557,35.966464471378316]]]},"properties":{"layer":"building","height_m":3.9}},{"type":"Feature","id":"bldg_a6546e55-4c82-4def-aba0-ebc6725bd83b","geometry":{"type":"Polygon","coordinates":[[[139.03289833740956,35.96627684411368],[139.0330569793272,35.966223193221545],[139.03309579508394,35.96629898114627],[139.03293726299188,35.966352722951],[139.03289833740956,35.96627684411368]]]},"properties":{"layer":"building","height_m":6.0}},{"type":"Feature","id":"bldg_503e9794-aab4-45c2-b3f0-bbe64350a213","geometry":{"type":"Polygon","coordinates":[[[139.03324611847276,35.961640974117365],[139.03323397953918,35.961679378786656],[139.03316195955492,35.96166429749091],[139.03317420937674,35.961625893568375],[139.03324611847276,35.961640974117365]]]},"properties":{"layer":"building","height_m":3.0}},{"type":"Feature","id":"bldg_35571b5f-9c3e-4ade-ba40-b85c3d32db44","geometry":{"type":"Polygon","coordinates":[[[139.03316221382644,35.96622130826171],[139.03321393215037,35.96619078354469],[139.03325753237664,35.966239618353484],[139.0332058252141,35.96627013415037],[139.03316221382644,35.96622130826171]]]},"properties":{"layer":"building","height_m":null}},{"type":"Feature","id":"bldg_256a1c44-64f9-48a8-8610-d2c5f1e137bd","geometry":{"type":"Polygon","coordinates":[[[139.03675722121446,35.965951195119516],[139.03666998682226,35.965938178038755],[139.0366811202858,35.965889401396815],[139.0367682437644,35.96590241773301],[139.03675722121446,35.965951195119516]]]},"properties":{"layer":"building","height_m":null}},{"type":"Feature","id":"bldg_ba0f65a5-17ad-450c-851c-b037aa64f77c","geometry":{"type":"Polygon","coordinates":[[[139.03688422276636,35.965493005105024],[139.0368455351418,35.96556971950012],[139.0367868595571,35.96555022242787],[139.0368255472282,35.965473508052064],[139.03688422276636,35.965493005105024]]]},"properties":{"layer":"building","height_m":5.5}},{"type":"Feature","id":"bldg_1aa61119-41a6-4493-b18b-e5d0a9547225","geometry":{"type":"Polygon","coordinates":[[[139.03684033123602,35.96543656267602],[139.0368809002869,35.96534913527568],[139.03696169641975,35.965373916527824],[139.03692101658282,35.96546134322033],[139.03684033123602,35.96543656267602]]]},"properties":{"layer":"building","height_m":4.5}},{"type":"Feature","id":"bldg_9b6c0d91-696e-48f7-8008-057bf51684f1","geometry":{"type":"Polygon","coordinates":[[[139.03709509718325,35.96554803198945],[139.03704219140263,35.9656495280349],[139.03684375545245,35.96558133448113],[139.0368966623433,35.96547974840047],[139.03709509718325,35.96554803198945]]]},"properties":{"layer":"building","height_m":9.9}},{"type":"Feature","id":"bldg_7a8c42bb-a0f2-4b14-8882-7d6d81f48f73","geometry":{"type":"Polygon","coordinates":[[[139.03704414715077,35.9657418343208],[139.03703604430615,35.965786935772606],[139.03693029068398,35.96577433676904],[139.03693839268215,35.9657293254492],[139.03704414715077,35.9657418343208]]]},"properties":{"layer":"building","height_m":3.0}},{"type":"Feature","id":"bldg_608d702f-8e40-416a-9b7b-16ed41a2dc14","geometry":{"type":"Polygon","coordinates":[[[139.03708075265837,35.965596426846524],[139.0371272700483,35.96551282430214],[139.03720050522392,35.96553980848066],[139.03715398789433,35.96562341105383],[139.03708075265837,35.965596426846524]]]},"properties":{"layer":"building","height_m":12.4}},{"type":"Feature","id":"bldg_d499af31-eeff-455d-87f4-55a78bc51191","geometry":{"type":"Polygon","coordinates":[[[139.03730480217644,35.96559809358666],[139.03727909921574,35.9656514604095],[139.03717720321896,35.96561905857435],[139.03720290623687,35.965565691773804],[139.03730480217644,35.96559809358666]]]},"properties":{"layer":"building","height_m":5.6}},{"type":"Feature","id":"bldg_3cc44b05-8211-461d-b6c1-1f8376c48d5c","geometry":{"type":"Polygon","coordinates":[[[139.03742347187227,35.96539527664672],[139.03731082621445,35.96536244310522],[139.0373417978302,35.96529225687551],[139.03740237609804,35.965309963693194],[139.0374061213516,35.96530133603639],[139.03745818774652,35.96531655285293],[139.03742347187227,35.96539527664672]]]},"properties":{"layer":"building","height_m":7.6}},{"type":"Feature","id":"bldg_e568a6ed-e616-4234-a1a1-61da64f70007","geometry":{"type":"Polygon","coordinates":[[[139.03739086443835,35.965540079842455],[139.0374279673883,35.96555492702918],[139.03741265594638,35.965578169191566],[139.0373757792345,35.965562872849844],[139.03739086443835,35.965540079842455]]]},"properties":{"layer":"building","height_m":4.5}},{"type":"Feature","id":"bldg_ef077a08-90a8-404e-9994-54372f0ae772","geometry":{"type":"Polygon","coordinates":[[[139.03742037441066,35.965512794882486],[139.0374438143097,35.9654849559133],[139.0374999772894,35.96551620700419],[139.0374765374004,35.96554404598433],[139.03742037441066,35.965512794882486]]]},"properties":{"layer":"building","height_m":3.9}},{"type":"Feature","id":"bldg_5682de19-6561-4a73-a8d9-7fa5f4b37c8f","geometry":{"type":"Polygon","coordinates":[[[139.0346341544548,35.96513816003378],[139.03460213407377,35.96520106506643],[139.03449887744938,35.965166326549216],[139.03453090898336,35.96510342161842],[139.0346341544548,35.96513816003378]]]},"properties":{"layer":"building","height_m":9.9}},{"type":"Feature","id":"bldg_d01e9874-97f4-4f8a-8af6-7e900f994549","geometry":{"type":"Polygon","coordinates":[[[139.0348469826353,35.965373274937285],[139.03485256748235,35.96536585833419],[139.03478886011212,35.96533415021955],[139.03482790896697,35.9652823058149],[139.03488998364247,35.96531320088677],[139.03489887216895,35.96530139889774],[139.03499053360764,35.96534701975979],[139.034993702444,35.96534281373663],[139.03503146361982,35.96536160472944],[139.03502675530115,35.96536785547996],[139.0351512801067,35.965429828144565],[139.03509929743154,35.96549885555959],[139.0348469826353,35.965373274937285]]]},"properties":{"layer":"building","height_m":8.5}},{"type":"Feature","id":"bldg_6827b4a7-e4c7-4206-97ac-11cd945a1a66","geometry":{"type":"Polygon","coordinates":[[[139.03516112581553,35.965457311232946],[139.03526117761245,35.965474560640494],[139.03525080011386,35.965514239029275],[139.03515085822383,35.96549708047412],[139.03516112581553,35.965457311232946]]]},"properties":{"layer":"building","height_m":9.5}},{"type":"Feature","id":"bldg_9463aff3-ccb2-4632-ae8e-1c063f05dfb1","geometry":{"type":"Polygon","coordinates":[[[139.03522598930863,35.96486189204399],[139.0353078397297,35.96490299498097],[139.03527267148334,35.964949358402215],[139.03519082103358,35.96490825544117],[139.03522598930863,35.96486189204399]]]},"properties":{"layer":"building","height_m":6.5}},{"type":"Feature","id":"bldg_11c2eace-4dd9-4b19-ae96-78941ef8bcce","geometry":{"type":"Polygon","coordinates":[[[139.03555954380158,35.96467371001163],[139.03551939739742,35.96465399301112],[139.03550164003494,35.96467787661941],[139.03546817913406,35.96466144873784],[139.03550773995192,35.96460822851365],[139.03549115854022,35.96460007865691],[139.03551632238944,35.964566221814934],[139.03552427660122,35.96457013227037],[139.0355474735398,35.9645389301983],[139.0355964567283,35.964562987119294],[139.0356093813286,35.96454560580825],[139.03566239126513,35.96457164529621],[139.03566765103983,35.96456456898725],[139.03571937019876,35.96458997797173],[139.0356966002912,35.96462061509535],[139.0356251113392,35.96458549384198],[139.03555954380158,35.96467371001163]]]},"properties":{"layer":"building","height_m":6.5}},{"type":"Feature","id":"bldg_b16a03af-c8d8-4a10-86ca-e571b6f2aeb4","geometry":{"type":"Polygon","coordinates":[[[139.03572186968142,35.9651627088292],[139.03568856262626,35.965211428126864],[139.03563147202453,35.965177700458646],[139.035560794929,35.96511693351448],[139.03560156906352,35.96504230639915],[139.0356365176765,35.965050830703156],[139.03560439136675,35.96511442930744],[139.03572186968142,35.9651627088292]]]},"properties":{"layer":"building","height_m":5.6}},{"type":"Feature","id":"bldg_9bafbd35-c731-4128-a363-f19ea4336dfd","geometry":{"type":"Polygon","coordinates":[[[139.03585092142194,35.96531696811458],[139.03576781008695,35.96542322000999],[139.0355637637582,35.96531776329357],[139.03564687615716,35.96521142141554],[139.03585092142194,35.96531696811458]]]},"properties":{"layer":"building","height_m":15.8}},{"type":"Feature","id":"bldg_b238f0f4-ffbb-480e-b7b2-4854a998df40","geometry":{"type":"Polygon","coordinates":[[[139.03561555113265,35.966573080059696],[139.03559537821656,35.96659457719054],[139.03556893520692,35.96657808783573],[139.03558921898872,35.966556591446334],[139.03561555113265,35.966573080059696]]]},"properties":{"layer":"building","height_m":null}},{"type":"Feature","id":"bldg_9d0cc780-d322-4831-a703-0e95f4e048fa","geometry":{"type":"Polygon","coordinates":[[[139.03573049926595,35.96518656055634],[139.0358115821268,35.965215850995456],[139.03579080030977,35.965253837942726],[139.0357097174183,35.96522454748937],[139.03573049926595,35.96518656055634]]]},"properties":{"layer":"building","height_m":4.1}},{"type":"Feature","id":"bldg_875cc0b1-15ad-478f-8022-4b52c8f9b16b","geometry":{"type":"Polygon","coordinates":[[[139.0359265710292,35.965269161062956],[139.03594979504516,35.96521983391712],[139.03610165427082,35.965266989569734],[139.03607854028954,35.96531640760631],[139.0359265710292,35.965269161062956]]]},"properties":{"layer":"building","height_m":3.9}},{"type":"Feature","id":"bldg_8263241b-bf73-4b78-9405-e09c97e923d8","geometry":{"type":"Polygon","coordinates":[[[139.0361675214099,35.96471438831883],[139.0361112520336,35.96469824171997],[139.0361443914759,35.96462203147565],[139.0360833678649,35.964604591457466],[139.03610527484932,35.964553903571435],[139.03616563417148,35.964571249035295],[139.03617448780614,35.964550758166155],[139.03623142044108,35.9645670894013],[139.0361675214099,35.96471438831883]]]},"properties":{"layer":"building","height_m":12.7}}]}