{"type":"FeatureCollection","properties":{"mesh_code":"53397061","source":"PLATEAU秩父市2025","layer":"building"},"features":[{"type":"Feature","id":"bldg_3dec4c9c-71e0-4eec-a093-b99c662c55cb","geometry":{"type":"Polygon","coordinates":[[[139.0180938,35.9674656],[139.0181388,35.9674268],[139.0182611,35.9675206],[139.0182162,35.9675594],[139.0180938,35.9674656]]]},"properties":{"layer":"building","height_m":3.2}},{"type":"Feature","id":"bldg_8ce7af3a-dc69-47ef-9221-b73159b05f80","geometry":{"type":"Polygon","coordinates":[[[139.0182334,35.9673419],[139.0182485,35.9672983],[139.0182894,35.9673076],[139.0182942,35.9672938],[139.0183273,35.9673014],[139.0183317,35.9672887],[139.0184173,35.9673083],[139.018393,35.9673784],[139.0182334,35.9673419]]]},"properties":{"layer":"building","height_m":3.4}},{"type":"Feature","id":"bldg_a34aedda-889c-4042-9dfe-eb969688c3a2","geometry":{"type":"Polygon","coordinates":[[[139.0184061,35.9676029],[139.0183391,35.9675485],[139.0183992,35.9674997],[139.0183937,35.9674953],[139.0184365,35.9674605],[139.0185089,35.9675192],[139.0184061,35.9676029]]]},"properties":{"layer":"building","height_m":3.8}},{"type":"Feature","id":"bldg_2fe41324-b595-4111-afb0-91693fa0000b","geometry":{"type":"Polygon","coordinates":[[[139.0183971,35.96738],[139.0184203,35.967308],[139.0184614,35.9673355],[139.0184783,35.9673188],[139.0185491,35.9673661],[139.0184917,35.9674229],[139.0184782,35.9674139],[139.0184663,35.9674256],[139.0183971,35.96738]]]},"properties":{"layer":"building","height_m":3.2}},{"type":"Feature","id":"bldg_3e570913-a90e-495d-94da-e19a05df2f5f","geometry":{"type":"Polygon","coordinates":[[[139.0185246,35.9675087],[139.0184759,35.9674699],[139.0185458,35.9674119],[139.0185945,35.9674507],[139.0185246,35.9675087]]]},"properties":{"layer":"building","height_m":null}},{"type":"Feature","id":"bldg_7f711f3f-9289-434b-8bfa-028934ef4648","geometry":{"type":"Polygon","coordinates":[[[139.0179612,35.967348],[139.0180022,35.9673148],[139.0181382,35.9674259],[139.0180971,35.9674591],[139.0179612,35.967348]]]},"properties":{"layer":"building","height_m":null}}]}