{"type":"FeatureCollection","properties":{"mesh_code":"53397094","source":"PLATEAU秩父市2025","layer":"building"},"features":[{"type":"Feature","id":"bldg_0ce5902a-558d-4594-ad9d-da6ec8d311dd","geometry":{"type":"Polygon","coordinates":[[[139.05086066578505,35.992706285435474],[139.05088016889087,35.992646196874446],[139.05095751808682,35.99266277151808],[139.0509380150351,35.992722860092194],[139.05086066578505,35.992706285435474]]]},"properties":{"layer":"building","height_m":5.7}},{"type":"Feature","id":"bldg_84c83771-a012-4ef1-9978-d18a1a976c44","geometry":{"type":"Polygon","coordinates":[[[139.0522197333063,35.99281300552815],[139.05211832712462,35.99276052050944],[139.05216561230347,35.99270035127673],[139.05226690665245,35.99275292565746],[139.0522197333063,35.99281300552815]]]},"properties":{"layer":"building","height_m":5.1}},{"type":"Feature","id":"bldg_c6ba1656-7eee-426a-9f81-e87d5b8aa9c0","geometry":{"type":"Polygon","coordinates":[[[139.05110005907164,35.9923703823773],[139.0509722081196,35.992480228133104],[139.05092487820178,35.99244377736797],[139.05105261825935,35.99233393093884],[139.05110005907164,35.9923703823773]]]},"properties":{"layer":"building","height_m":5.0}},{"type":"Feature","id":"bldg_34a4f509-fde9-40bf-976d-71421da3397f","geometry":{"type":"Polygon","coordinates":[[[139.0509062813991,35.99501851304856],[139.05090085882463,35.994994836621665],[139.05094410069566,35.99498830484322],[139.0509495233717,35.99501197225592],[139.0509062813991,35.99501851304856]]]},"properties":{"layer":"building","height_m":null}},{"type":"Feature","id":"bldg_490b7a22-44e7-4376-8355-ce1c8dcd570c","geometry":{"type":"Polygon","coordinates":[[[139.05105889071746,35.99259613263238],[139.05104091250314,35.99261187825378],[139.05099358617898,35.99257617561733],[139.05101156430533,35.99256043901535],[139.05105889071746,35.99259613263238]]]},"properties":{"layer":"building","height_m":3.2}},{"type":"Feature","id":"bldg_98329d1a-f0a8-4313-9a72-36f911f65f2c","geometry":{"type":"Polygon","coordinates":[[[139.0588004478591,35.99949085588627],[139.05873939868619,35.99959753591517],[139.05864988616872,35.99956379007836],[139.0587108254063,35.99945701925523],[139.0588004478591,35.99949085588627]]]},"properties":{"layer":"building","height_m":5.0}},{"type":"Feature","id":"bldg_09e20dda-592c-4eb2-b669-3f2d7ed99070","geometry":{"type":"Polygon","coordinates":[[[139.0511508329572,35.994226036846385],[139.0512100294127,35.9942402126829],[139.0511987404642,35.99427150427019],[139.0511395439876,35.994257328427906],[139.0511508329572,35.994226036846385]]]},"properties":{"layer":"building","height_m":3.3}},{"type":"Feature","id":"bldg_f8b5a058-8cbb-497f-974c-990bf24aa905","geometry":{"type":"Polygon","coordinates":[[[139.05426072558146,35.996312501292046],[139.05420026764935,35.996257219549804],[139.054204479176,35.9962349848315],[139.05421925414439,35.99621002469698],[139.05423597564695,35.99617885824321],[139.0542875747663,35.99617630920249],[139.05452257400933,35.996370442631616],[139.05451549172506,35.99641392936689],[139.05446855163711,35.996438951087235],[139.05441998680192,35.99644873029496],[139.05436061466384,35.996395799059904],[139.05431221369412,35.99637763903575],[139.05428932446668,35.996359284157926],[139.05427058305563,35.99633644972152],[139.05426072558146,35.996312501292046]]]},"properties":{"layer":"building","height_m":14.8}},{"type":"Feature","id":"bldg_f0bb4b46-6c13-4a33-883b-daa87fbdb15d","geometry":{"type":"Polygon","coordinates":[[[139.06045933800831,35.99819169870169],[139.06047639296634,35.99814320155219],[139.06054728432318,35.99815966534111],[139.06053024058335,35.998208153560086],[139.06045933800831,35.99819169870169]]]},"properties":{"layer":"building","height_m":4.4}},{"type":"Feature","id":"bldg_68a53b40-f61b-4e0d-a4ef-f652575264d5","geometry":{"type":"Polygon","coordinates":[[[139.05115530544498,35.995165949104404],[139.05121597400372,35.99516364979016],[139.05121938919618,35.99522327492249],[139.05115872059181,35.99522557423788],[139.05115530544498,35.995165949104404]]]},"properties":{"layer":"building","height_m":5.0}},{"type":"Feature","id":"bldg_79b95890-e19f-4ced-8cee-0571de07e71d","geometry":{"type":"Polygon","coordinates":[[[139.05221023956747,35.99466112883807],[139.05219442664935,35.994625974368155],[139.05224283640385,35.994611589408166],[139.05225866043108,35.99464674394423],[139.05221023956747,35.99466112883807]]]},"properties":{"layer":"building","height_m":3.5}},{"type":"Feature","id":"bldg_acea8eff-7512-4333-9c25-ed2b2bc674a4","geometry":{"type":"Polygon","coordinates":[[[139.05336439687898,35.99998938086846],[139.05331287268152,35.99991649135081],[139.053372264643,35.99988875705385],[139.05340081635106,35.999929140586936],[139.05341530210757,35.999922384908956],[139.05343827375125,35.99995498099011],[139.05336439687898,35.99998938086846]]]},"properties":{"layer":"building","height_m":5.3}},{"type":"Feature","id":"bldg_f4bf63d8-5d92-490e-958f-d340743bf887","geometry":{"type":"Polygon","coordinates":[[[139.05502806990745,35.99692784176005],[139.05486713606388,35.99695032136305],[139.05485495050658,35.99689237892432],[139.05485552167224,35.99687940393359],[139.05486459076528,35.99685945396352],[139.05488059466364,35.99684486665685],[139.05490644791507,35.99683250637954],[139.05493300399252,35.99682763143435],[139.05496126902568,35.99682943718082],[139.0549821717714,35.99683552138233],[139.05500100294486,35.996849253175704],[139.05501492238935,35.99686619777162],[139.05502806990745,35.99692784176005]]]},"properties":{"layer":"building","height_m":10.5}},{"type":"Feature","id":"bldg_71f596cd-b756-4d4c-8c6b-624235bb501b","geometry":{"type":"Polygon","coordinates":[[[139.0534621700082,35.999949998956545],[139.0534137467879,35.99987758029134],[139.0534714519641,35.99985217835187],[139.05351976431245,35.99992459627353],[139.0534621700082,35.999949998956545]]]},"properties":{"layer":"building","height_m":8.4}},{"type":"Feature","id":"bldg_47b37a4d-9e8d-4404-8e9e-0d6489549614","geometry":{"type":"Polygon","coordinates":[[[139.0560982168648,35.9923096751924],[139.05611639492173,35.99234467324497],[139.05608556965123,35.99235528911933],[139.05606739160567,35.99232029106232],[139.0560982168648,35.9923096751924]]]},"properties":{"layer":"building","height_m":3.9}},{"type":"Feature","id":"bldg_2c3a888e-a189-4eab-b3ea-b19d7e69f8f0","geometry":{"type":"Polygon","coordinates":[[[139.05482336239487,35.99639357561289],[139.05480520410845,35.99644681463682],[139.05455135101448,35.99638784426155],[139.05452188418442,35.99654213551183],[139.0544953200626,35.99653655525232],[139.05451549172506,35.99641392936689],[139.05452257400933,35.996370442631616],[139.0542875747663,35.99617630920249],[139.05423597564695,35.99617885824321],[139.05408983151008,35.996186291054244],[139.05408770996306,35.996165186888106],[139.05428057867272,35.99615463260316],[139.0542250000727,35.99594156519069],[139.05428355754634,35.99593067926772],[139.0543486850797,35.995928398317226],[139.0544194058213,35.995932552869185],[139.05449600465423,35.99594801177558],[139.05456143509267,35.99597132955502],[139.05462465649924,35.99600499789217],[139.05468527400004,35.99604405708538],[139.05494041256128,35.99585923425279],[139.05496243758844,35.995875240024034],[139.05471036449384,35.996064138643874],[139.05473745854962,35.996094778394415],[139.0547713348306,35.99613501592231],[139.0548031209692,35.996184793639884],[139.05482520970227,35.996239465556094],[139.05483360381302,35.996288190152725],[139.05483202463725,35.996347305086594],[139.05482336239487,35.99639357561289]]]},"properties":{"layer":"building","height_m":22.5}},{"type":"Feature","id":"bldg_3245f0f0-f2fb-447f-b1f4-da79cab22cf6","geometry":{"type":"Polygon","coordinates":[[[139.05932521158485,35.99946639300686],[139.0592500441265,35.9995764071334],[139.05920498938153,35.999556017423494],[139.05922513377266,35.999526314451145],[139.05922267093285,35.99951728557403],[139.0592236762406,35.999505214664076],[139.05923245402985,35.99949229261473],[139.05924575444763,35.999481923385886],[139.05926213214568,35.9994744581683],[139.05928114978352,35.999446550511514],[139.05932521158485,35.99946639300686]]]},"properties":{"layer":"building","height_m":4.6}},{"type":"Feature","id":"bldg_988d2619-d4ce-4ee4-a26a-e6d2bee223a0","geometry":{"type":"Polygon","coordinates":[[[139.05305941801683,35.99571758746561],[139.05308869166296,35.99584215706416],[139.05302393055942,35.99585228101088],[139.0530097742006,35.99579189205744],[139.05303343498505,35.995788170384785],[139.05301831777786,35.99572398972803],[139.05305941801683,35.99571758746561]]]},"properties":{"layer":"building","height_m":5.9}},{"type":"Feature","id":"bldg_5929d9d3-b0fd-4645-8e85-197de382303b","geometry":{"type":"Polygon","coordinates":[[[139.05234832219082,35.99994499631321],[139.05238150091094,35.99993227870519],[139.0524193684832,35.99999748177048],[139.0523861897415,36.000010199388576],[139.05234832219082,35.99994499631321]]]},"properties":{"layer":"building","height_m":3.4}},{"type":"Feature","id":"bldg_1b0501bc-59c0-4d46-ac95-4286890f0561","geometry":{"type":"Polygon","coordinates":[[[139.0546253415369,35.9973230611893],[139.0546472128249,35.997422436115336],[139.0546027837325,35.99742890743519],[139.0545810234052,35.997329533221816],[139.0546253415369,35.9973230611893]]]},"properties":{"layer":"building","height_m":4.0}},{"type":"Feature","id":"bldg_6c48434a-2f71-4d39-9c1d-b5c75c4b574d","geometry":{"type":"Polygon","coordinates":[[[139.05462120049577,35.99750285233831],[139.05465888136203,35.997496859959995],[139.0546731608888,35.99755615893961],[139.05463547999526,35.99756215132202],[139.05462120049577,35.99750285233831]]]},"properties":{"layer":"building","height_m":3.3}},{"type":"Feature","id":"bldg_579298dd-adb0-40ec-8c89-31bf22a86669","geometry":{"type":"Polygon","coordinates":[[[139.05464773036184,35.997633802944314],[139.0547006781227,35.997622781269506],[139.05471743624594,35.9976759134252],[139.05466448836302,35.9976869441193],[139.05464773036184,35.997633802944314]]]},"properties":{"layer":"building","height_m":3.9}},{"type":"Feature","id":"bldg_cd6b2b2c-b95d-494e-bf0e-1d72af95a475","geometry":{"type":"Polygon","coordinates":[[[139.05372923261206,35.992605963372434],[139.0537819312317,35.992584990115176],[139.05380712822472,35.992626802877005],[139.0537544406735,35.992647776217005],[139.05372923261206,35.992605963372434]]]},"properties":{"layer":"building","height_m":4.6}},{"type":"Feature","id":"bldg_314f83b9-1b40-419e-baef-9e5132291686","geometry":{"type":"Polygon","coordinates":[[[139.05534499058732,35.993708331597624],[139.05528870714198,35.99370806570856],[139.05528907591906,35.9936569644509],[139.0553453593281,35.99365723033935],[139.05534499058732,35.993708331597624]]]},"properties":{"layer":"building","height_m":3.7}},{"type":"Feature","id":"bldg_75bd23e8-311f-4dde-bd83-60e8b7b0ffec","geometry":{"type":"Polygon","coordinates":[[[139.05328740292512,35.99976589910667],[139.05318827510663,35.999796439348216],[139.05315720825172,35.99972990176699],[139.05317389709626,35.99972469265324],[139.05316260038921,35.99970046439627],[139.05324492924692,35.999675042455024],[139.05328740292512,35.99976589910667]]]},"properties":{"layer":"building","height_m":12.8}},{"type":"Feature","id":"bldg_d7bd11a3-c948-4fa0-8868-cda62920749a","geometry":{"type":"Polygon","coordinates":[[[139.0536818420012,35.9998654431369],[139.053778177398,35.9998143347469],[139.05380447468707,35.99984713263169],[139.05370825017664,35.99989824176312],[139.0536818420012,35.9998654431369]]]},"properties":{"layer":"building","height_m":5.4}},{"type":"Feature","id":"bldg_123956c5-b2b3-4a15-87ca-bb644be41cc6","geometry":{"type":"Polygon","coordinates":[[[139.05933320711293,35.99939731501497],[139.05932986203783,35.99943316510522],[139.05930880067424,35.99943185751582],[139.05931214575878,35.99939600742628],[139.05933320711293,35.99939731501497]]]},"properties":{"layer":"building","height_m":5.2}},{"type":"Feature","id":"bldg_ba84defb-24a2-4097-ab3c-5b9f3aabbe72","geometry":{"type":"Polygon","coordinates":[[[139.05476933826534,35.99195946567839],[139.05482171505736,35.99199035963563],[139.05479222271006,35.992023336046984],[139.05473995680728,35.99199244279668],[139.05476933826534,35.99195946567839]]]},"properties":{"layer":"building","height_m":8.0}},{"type":"Feature","id":"bldg_893870b8-9ca9-45e4-ad64-9b10088cc7af","geometry":{"type":"Polygon","coordinates":[[[139.0519782379542,35.99340286509317],[139.05163739859557,35.993326107176024],[139.05166960362862,35.993231951048536],[139.0517945401971,35.993260164549234],[139.0518003659447,35.993242987697066],[139.0518927688848,35.99326377874834],[139.0518866015637,35.99328185467874],[139.0520101001373,35.993309698068735],[139.0519782379542,35.99340286509317]]]},"properties":{"layer":"building","height_m":9.8}},{"type":"Feature","id":"bldg_2453b65b-b6ca-440a-808f-ada323de2912","geometry":{"type":"Polygon","coordinates":[[[139.05322438215154,35.99581948863433],[139.05322235059091,35.995810669736514],[139.05310565210974,35.99582843244785],[139.05308006039087,35.9957174062791],[139.05358360902707,35.99564075334878],[139.05361123294472,35.99576060732419],[139.05322438215154,35.99581948863433]]]},"properties":{"layer":"building","height_m":9.8}},{"type":"Feature","id":"bldg_9b100b6f-da0e-466d-be6b-fa882565c3e8","geometry":{"type":"Polygon","coordinates":[[[139.05032084934862,35.993973035464926],[139.05036445906737,35.99393708790728],[139.05038734668193,35.99395544352143],[139.05034373696316,35.993991391087306],[139.05032084934862,35.993973035464926]]]},"properties":{"layer":"building","height_m":8.1}},{"type":"Feature","id":"bldg_8199747b-d660-4790-ae35-50e204490b53","geometry":{"type":"Polygon","coordinates":[[[139.05278508814325,35.99363984164652],[139.05283148775058,35.99360201860773],[139.05287847055666,35.99364008870234],[139.05278568826157,35.99370275620528],[139.05277179185003,35.99370609071994],[139.05275948268797,35.993705920495955],[139.0527464576009,35.993699616780575],[139.0527078148316,35.993636815190584],[139.05274448703653,35.99360695044478],[139.05278508814325,35.99363984164652]]]},"properties":{"layer":"building","height_m":3.8}},{"type":"Feature","id":"bldg_baa7b096-c5d1-4291-bd0d-0c2e0ab08035","geometry":{"type":"Polygon","coordinates":[[[139.05041512087976,35.99225604584885],[139.05040713794864,35.99227825582984],[139.05037969816087,35.99227167752131],[139.05038768109898,35.99224946754222],[139.05041512087976,35.99225604584885]]]},"properties":{"layer":"building","height_m":null}},{"type":"Feature","id":"bldg_11a4010a-758d-4c9f-a36e-495be7f10380","geometry":{"type":"Polygon","coordinates":[[[139.05046118452378,35.99399188723021],[139.05066435880613,35.99382458002836],[139.05072641845248,35.99387446620742],[139.05052469835982,35.994040521184495],[139.0505178767743,35.99403497874829],[139.0505027812487,35.994047408289454],[139.05049023641112,35.994037412140024],[139.05045266526503,35.99406835187992],[139.05043869028577,35.99405717470367],[139.05047771473218,35.99402507276418],[139.05046098947918,35.994011624395846],[139.05047328841556,35.99400161011549],[139.05046118452378,35.99399188723021]]]},"properties":{"layer":"building","height_m":13.0}},{"type":"Feature","id":"bldg_b03082a2-87af-440c-a2d7-8a2281459e8d","geometry":{"type":"Polygon","coordinates":[[[139.05395172698053,35.99595150688775],[139.05397908733383,35.99605650566463],[139.0538496554765,35.99607882805675],[139.05382218438365,35.99597382853208],[139.05395172698053,35.99595150688775]]]},"properties":{"layer":"building","height_m":5.0}},{"type":"Feature","id":"bldg_d2f33b77-bb2c-42fb-8962-facea295c86d","geometry":{"type":"Polygon","coordinates":[[[139.0520367923223,35.992676880743275],[139.05206823363113,35.99263872623249],[139.05213754453854,35.992676446315556],[139.05210609215743,35.99271460077229],[139.0520367923223,35.992676880743275]]]},"properties":{"layer":"building","height_m":5.1}},{"type":"Feature","id":"bldg_bb6b32db-b687-4911-93f6-47cb4383c22f","geometry":{"type":"Polygon","coordinates":[[[139.0520207719954,35.99465666830809],[139.05212911558024,35.99462447651899],[139.05216579906187,35.99470601253699],[139.05205734447637,35.99473820363529],[139.0520207719954,35.99465666830809]]]},"properties":{"layer":"building","height_m":5.2}},{"type":"Feature","id":"bldg_6a8b98cd-4c54-4e81-be08-aaf7e88591e0","geometry":{"type":"Polygon","coordinates":[[[139.05519276602786,35.99730141687202],[139.05517834942304,35.997233455582936],[139.05527297796553,35.99722018940665],[139.05528739376433,35.997288240809596],[139.05519276602786,35.99730141687202]]]},"properties":{"layer":"building","height_m":5.6}},{"type":"Feature","id":"bldg_b0250d5d-6a7a-482e-adb5-81b63eba1aa4","geometry":{"type":"Polygon","coordinates":[[[139.0527940739086,35.99471463571452],[139.0527766693666,35.99470366181871],[139.05280515689483,35.99467379788349],[139.05282257252463,35.99468477184736],[139.0527940739086,35.99471463571452]]]},"properties":{"layer":"building","height_m":null}},{"type":"Feature","id":"bldg_bf5ee39f-df6c-4fbc-b17f-b2e1b3b58241","geometry":{"type":"Polygon","coordinates":[[[139.0551111470697,35.99691621322713],[139.05517834942304,35.997233455582936],[139.05519276602786,35.99730141687202],[139.05520379300611,35.99735313280005],[139.05476474796058,35.99741454656763],[139.0547408959811,35.99730227023949],[139.05484807481318,35.99728728326182],[139.0548014355242,35.99706724402854],[139.05484652806354,35.99706095719873],[139.05482437527155,35.9969563529445],[139.05502806990745,35.99692784176005],[139.0551111470697,35.99691621322713]]]},"properties":{"layer":"building","height_m":20.1}},{"type":"Feature","id":"bldg_eaa81a4a-4dd4-4f67-a526-a7ec1c810f4c","geometry":{"type":"Polygon","coordinates":[[[139.0587297129727,35.99970328578735],[139.0587975840063,35.999602237864195],[139.05883645856554,35.999619433279165],[139.0587685866846,35.99972057134859],[139.0587297129727,35.99970328578735]]]},"properties":{"layer":"building","height_m":3.0}},{"type":"Feature","id":"bldg_a1fb0a41-9caa-45f5-ba42-0de02cafa003","geometry":{"type":"Polygon","coordinates":[[[139.05193792882238,35.99301432302239],[139.05199547311432,35.99294854250289],[139.05206748572058,35.99299011074268],[139.05201005235736,35.993055892018944],[139.05193792882238,35.99301432302239]]]},"properties":{"layer":"building","height_m":5.4}},{"type":"Feature","id":"bldg_a9d9e141-fbb5-4763-a546-705660ddefac","geometry":{"type":"Polygon","coordinates":[[[139.05282059821118,35.993817989070195],[139.05285000605016,35.99389506118923],[139.0528060880302,35.99390613180667],[139.05277668023027,35.993829059677495],[139.05282059821118,35.993817989070195]]]},"properties":{"layer":"building","height_m":4.6}},{"type":"Feature","id":"bldg_59f0c539-acfc-47f0-91c8-d437ddb0e106","geometry":{"type":"Polygon","coordinates":[[[139.0520696620943,35.992634454365856],[139.0521006431712,35.992596855654114],[139.0521738812097,35.992636719343416],[139.0521428890613,35.992674318001846],[139.0520696620943,35.992634454365856]]]},"properties":{"layer":"building","height_m":5.4}},{"type":"Feature","id":"bldg_77775dcb-3ec4-4d3e-a56c-dbe267965db3","geometry":{"type":"Polygon","coordinates":[[[139.05210135878158,35.992591767975746],[139.0521312621258,35.99255548714646],[139.05220601147195,35.99259617182702],[139.05217610814597,35.99263245267492],[139.05210135878158,35.992591767975746]]]},"properties":{"layer":"building","height_m":5.3}},{"type":"Feature","id":"bldg_f6cae607-3098-4b67-90a0-bc0835fc8d1f","geometry":{"type":"Polygon","coordinates":[[[139.0520019142885,35.99271713992679],[139.05203186270828,35.992680796326255],[139.0521028724289,35.99271944681826],[139.0520729351164,35.992755790508745],[139.0520019142885,35.99271713992679]]]},"properties":{"layer":"building","height_m":5.1}},{"type":"Feature","id":"bldg_5cbe516d-6bb0-4670-a346-52ec45a470ae","geometry":{"type":"Polygon","coordinates":[[[139.0520299980868,35.99335232390208],[139.0520097412071,35.99334721679861],[139.05202185498575,35.99331546182438],[139.05204211194706,35.993320559913336],[139.0520299980868,35.99335232390208]]]},"properties":{"layer":"building","height_m":null}},{"type":"Feature","id":"bldg_a081c54a-2676-4e44-8be0-6daaa7d1cb1d","geometry":{"type":"Polygon","coordinates":[[[139.05099975427606,35.99278378495512],[139.05098035416128,35.992834572802956],[139.05096604949046,35.99283096444625],[139.05095874048914,35.99285007838992],[139.05087127515804,35.99282801194487],[139.05087770746127,35.99281119961312],[139.05085144361215,35.99280456599097],[139.05087173160794,35.992751476630616],[139.05099975427606,35.99278378495512]]]},"properties":{"layer":"building","height_m":5.1}},{"type":"Feature","id":"bldg_e701f4d9-6c38-4942-8229-9f5c889918ae","geometry":{"type":"Polygon","coordinates":[[[139.05212263180988,35.992976319485],[139.05202018492272,35.992916887605645],[139.05203925304716,35.992895200363655],[139.0521417008098,35.992954542102666],[139.05212263180988,35.992976319485]]]},"properties":{"layer":"building","height_m":3.1}}]}