{"type":"FeatureCollection","properties":{"mesh_code":"53397045","source":"PLATEAU秩父市2025","layer":"building"},"features":[{"type":"Feature","id":"bldg_f33663f9-9613-41fd-9f2e-bbb06e6e26da","geometry":{"type":"Polygon","coordinates":[[[139.0709272731666,35.95788492414538],[139.0709547581687,35.95787882566687],[139.07096403780827,35.957906428505645],[139.07093654171206,35.95791252691575],[139.0709272731666,35.95788492414538]]]},"properties":{"layer":"building","height_m":null}},{"type":"Feature","id":"bldg_6237d306-5034-4ae0-8114-e2be96714ebc","geometry":{"type":"Polygon","coordinates":[[[139.07072758920953,35.957427703094076],[139.07076138332474,35.957394930060175],[139.07084497698347,35.957451882918264],[139.0708111828777,35.957484655975506],[139.07072758920953,35.957427703094076]]]},"properties":{"layer":"building","height_m":7.0}},{"type":"Feature","id":"bldg_2f345477-3ab5-4588-bc33-9102404005c7","geometry":{"type":"Polygon","coordinates":[[[139.07081403905596,35.95750352041715],[139.07086162851178,35.95746911351438],[139.07093352014132,35.95753483376765],[139.0708859306762,35.957569240698454],[139.07081403905596,35.95750352041715]]]},"properties":{"layer":"building","height_m":4.4}},{"type":"Feature","id":"bldg_025befe3-b06c-4ed1-aca6-75eaefa052be","geometry":{"type":"Polygon","coordinates":[[[139.07020702698418,35.957378878123606],[139.0702881707862,35.957379303947526],[139.07028793759113,35.957403547577115],[139.07030789077828,35.957403674441515],[139.07030684694985,35.95752372166812],[139.07028622862526,35.95752359057429],[139.07028603270518,35.95754395882765],[139.07020566556045,35.95754344780946],[139.07020702698418,35.957378878123606]]]},"properties":{"layer":"building","height_m":5.3}},{"type":"Feature","id":"bldg_8cace1da-8a04-4a58-b454-bbbc74395410","geometry":{"type":"Polygon","coordinates":[[[139.07013531144554,35.95753921493333],[139.0701747388051,35.957554697722706],[139.07013169302832,35.95762724944506],[139.0700922647745,35.9576118567664],[139.07013531144554,35.95753921493333]]]},"properties":{"layer":"building","height_m":3.2}},{"type":"Feature","id":"bldg_7ce468ba-f09e-4c6a-8e83-44568afaea8d","geometry":{"type":"Polygon","coordinates":[[[139.07089903787602,35.957489261019994],[139.07092252224376,35.95747378158199],[139.07095421030402,35.95750557364034],[139.07093072593284,35.957521053084434],[139.07089903787602,35.957489261019994]]]},"properties":{"layer":"building","height_m":null}},{"type":"Feature","id":"bldg_ff2c529c-450f-46d8-9647-75cc15571c7c","geometry":{"type":"Polygon","coordinates":[[[139.0706465651947,35.95753011726301],[139.0707036252934,35.95746423393849],[139.07082986374868,35.957536419463246],[139.07077280283434,35.957602392972696],[139.0706465651947,35.95753011726301]]]},"properties":{"layer":"building","height_m":8.8}},{"type":"Feature","id":"bldg_8d68e6d4-c376-4d0b-81a6-463eb77aa297","geometry":{"type":"Polygon","coordinates":[[[139.0703694592414,35.957675899549436],[139.07038787262823,35.95758255125604],[139.07064042462574,35.957615341718316],[139.07062201066051,35.957708780178464],[139.0703694592414,35.957675899549436]]]},"properties":{"layer":"building","height_m":5.2}},{"type":"Feature","id":"bldg_d51f0b2c-7202-40ac-bc77-2eadb7245e7a","geometry":{"type":"Polygon","coordinates":[[[139.0702010509177,35.957665905849176],[139.0702087173762,35.957629541867426],[139.07028820722098,35.9576405925775],[139.07028054079768,35.957676956564676],[139.0702010509177,35.957665905849176]]]},"properties":{"layer":"building","height_m":6.1}},{"type":"Feature","id":"bldg_a92604ec-0614-42a4-953b-45574a24a45a","geometry":{"type":"Polygon","coordinates":[[[139.07029307838968,35.95766432787737],[139.07030077341332,35.95762498976378],[139.07036355158255,35.957633140122084],[139.07035585658915,35.957672478240006],[139.07029307838968,35.95766432787737]]]},"properties":{"layer":"building","height_m":5.0}}]}