{"type":"FeatureCollection","properties":{"mesh_code":"53397055","source":"PLATEAU秩父市2025","layer":"building"},"features":[{"type":"Feature","id":"bldg_5ba3a2ed-1124-48be-b786-95755ab38015","geometry":{"type":"Polygon","coordinates":[[[139.0649783,35.9647172],[139.0650098,35.9647728],[139.064915,35.9648084],[139.0648835,35.9647526],[139.0649783,35.9647172]]]},"properties":{"layer":"building","height_m":3.7}},{"type":"Feature","id":"bldg_8d4620c4-c553-408d-9740-80ff3b712602","geometry":{"type":"Polygon","coordinates":[[[139.0650536,35.965209],[139.0650971,35.9652613],[139.0650811,35.9652701],[139.0651128,35.9653081],[139.0649291,35.9654093],[139.0648538,35.9653189],[139.0650536,35.965209]]]},"properties":{"layer":"building","height_m":14.1}},{"type":"Feature","id":"bldg_51ba09e1-b721-461a-bb6d-bbabec2dce0d","geometry":{"type":"Polygon","coordinates":[[[139.0667556,35.9642174],[139.0667671,35.9642264],[139.0667747,35.9642378],[139.0667775,35.9642506],[139.0667754,35.9642634],[139.0667685,35.9642751],[139.0667574,35.9642845],[139.0667434,35.9642906],[139.0667277,35.9642929],[139.0667119,35.9642912],[139.0666975,35.9642856],[139.066686,35.9642766],[139.0666784,35.9642652],[139.0666756,35.9642524],[139.0666777,35.9642396],[139.0666847,35.9642279],[139.0666957,35.9642185],[139.0667097,35.9642124],[139.0667254,35.9642101],[139.0667412,35.9642118],[139.0667556,35.9642174]]]},"properties":{"layer":"building","height_m":27.3}},{"type":"Feature","id":"bldg_1da217d7-b819-44b5-b7fc-2433f32f0fc2","geometry":{"type":"Polygon","coordinates":[[[139.064564,35.9655038],[139.0645893,35.9654878],[139.0646105,35.9655101],[139.0645851,35.965526],[139.064564,35.9655038]]]},"properties":{"layer":"building","height_m":null}},{"type":"Feature","id":"bldg_8de4b6fa-8ced-42a9-97a3-e35dc06b21ae","geometry":{"type":"Polygon","coordinates":[[[139.0644979,35.9620367],[139.0644662,35.9620218],[139.0645028,35.9619704],[139.0645345,35.9619854],[139.0644979,35.9620367]]]},"properties":{"layer":"building","height_m":3.5}},{"type":"Feature","id":"bldg_5ced0bb0-1d7f-4c39-9352-b4a6b311cfd6","geometry":{"type":"Polygon","coordinates":[[[139.0665073,35.96532],[139.0665123,35.9653574],[139.0662965,35.9653761],[139.0662916,35.9653387],[139.0665073,35.96532]]]},"properties":{"layer":"building","height_m":5.6}},{"type":"Feature","id":"bldg_39aea72b-41dd-429f-9015-e2476af18a40","geometry":{"type":"Polygon","coordinates":[[[139.062604,35.9623849],[139.0626047,35.9624274],[139.0624808,35.9624288],[139.0624801,35.9623863],[139.062604,35.9623849]]]},"properties":{"layer":"building","height_m":5.5}},{"type":"Feature","id":"bldg_7daa7b52-dfd9-435b-ad53-9c57abc8d52f","geometry":{"type":"Polygon","coordinates":[[[139.0627317,35.9624583],[139.0626298,35.9624669],[139.0626202,35.9623921],[139.0627221,35.9623835],[139.0627317,35.9624583]]]},"properties":{"layer":"building","height_m":10.3}},{"type":"Feature","id":"bldg_aea9c269-acf3-46b4-8190-4c8b1a5cd84a","geometry":{"type":"Polygon","coordinates":[[[139.0670232,35.9652917],[139.067031,35.965334],[139.066949,35.9653441],[139.0669411,35.9653017],[139.0670232,35.9652917]]]},"properties":{"layer":"building","height_m":null}},{"type":"Feature","id":"bldg_739a222c-2a7a-464a-8822-62d917454591","geometry":{"type":"Polygon","coordinates":[[[139.0629148,35.9623484],[139.0629642,35.9623463],[139.0629678,35.9624018],[139.0629182,35.9624039],[139.0629148,35.9623484]]]},"properties":{"layer":"building","height_m":5.1}},{"type":"Feature","id":"bldg_0c845252-f00e-4467-84b2-b28d943454dc","geometry":{"type":"Polygon","coordinates":[[[139.0629443,35.9626014],[139.0630233,35.962585],[139.0630427,35.9626465],[139.063071,35.9626406],[139.063095,35.9627166],[139.0629934,35.9627377],[139.0629707,35.9626655],[139.0629649,35.9626667],[139.0629443,35.9626014]]]},"properties":{"layer":"building","height_m":8.7}},{"type":"Feature","id":"bldg_66d49564-9826-4cb5-a771-832e81f8bf60","geometry":{"type":"Polygon","coordinates":[[[139.0630753,35.9626357],[139.0631047,35.9626296],[139.0631289,35.9627063],[139.0630995,35.9627125],[139.0630753,35.9626357]]]},"properties":{"layer":"building","height_m":3.6}},{"type":"Feature","id":"bldg_d860c749-fb12-451b-bc30-5760161cd843","geometry":{"type":"Polygon","coordinates":[[[139.0630848,35.9624454],[139.0631744,35.9624267],[139.0632055,35.9625249],[139.0631157,35.9625436],[139.0630848,35.9624454]]]},"properties":{"layer":"building","height_m":6.1}},{"type":"Feature","id":"bldg_9ed4e363-ef9d-47d6-b399-8126371658ad","geometry":{"type":"Polygon","coordinates":[[[139.0631723,35.9625392],[139.0632102,35.9625313],[139.0632056,35.9625165],[139.0632351,35.9625104],[139.0632595,35.9625878],[139.063192,35.9626019],[139.0631723,35.9625392]]]},"properties":{"layer":"building","height_m":4.8}},{"type":"Feature","id":"bldg_34b16c99-a638-4137-91ab-49e08efd3aa8","geometry":{"type":"Polygon","coordinates":[[[139.0653121,35.9649805],[139.0652844,35.9648975],[139.0665555,35.9646171],[139.0665832,35.9647001],[139.0653121,35.9649805]]]},"properties":{"layer":"building","height_m":27.7}},{"type":"Feature","id":"bldg_29e584f6-11e0-4c4b-9f98-3b3dad431b36","geometry":{"type":"Polygon","coordinates":[[[139.0677155,35.9655874],[139.0677522,35.9655565],[139.0678713,35.9656499],[139.0678346,35.9656808],[139.0677155,35.9655874]]]},"properties":{"layer":"building","height_m":7.7}},{"type":"Feature","id":"bldg_1a3bc67e-bc00-4825-80be-cbc184acf88a","geometry":{"type":"Polygon","coordinates":[[[139.0691798,35.9625634],[139.0694115,35.9626172],[139.0693834,35.9627086],[139.0691483,35.9626562],[139.0691798,35.9625634]]]},"properties":{"layer":"building","height_m":19.3}},{"type":"Feature","id":"bldg_b749009a-20f6-422b-ba6a-84cb828e0d37","geometry":{"type":"Polygon","coordinates":[[[139.0696767,35.9626868],[139.0697279,35.9627061],[139.0697072,35.9627424],[139.0696559,35.9627232],[139.0696767,35.9626868]]]},"properties":{"layer":"building","height_m":5.3}},{"type":"Feature","id":"bldg_bff69d54-fae5-465e-95f9-a636edda63e3","geometry":{"type":"Polygon","coordinates":[[[139.0723358,35.9590722],[139.0723604,35.9590641],[139.0723738,35.9590913],[139.0723491,35.9590993],[139.0723358,35.9590722]]]},"properties":{"layer":"building","height_m":3.1}},{"type":"Feature","id":"bldg_0b1000de-330c-4736-af95-201b1e0f0118","geometry":{"type":"Polygon","coordinates":[[[139.0693399,35.9623665],[139.0692205,35.9623737],[139.0692095,35.9622521],[139.0693288,35.9622449],[139.0693399,35.9623665]]]},"properties":{"layer":"building","height_m":5.1}},{"type":"Feature","id":"bldg_4be0c94c-980a-481d-a879-3b4bcb5741c1","geometry":{"type":"Polygon","coordinates":[[[139.0652587,35.9651974],[139.0652449,35.9652311],[139.0651857,35.9652151],[139.0651993,35.9651814],[139.0652587,35.9651974]]]},"properties":{"layer":"building","height_m":8.0}},{"type":"Feature","id":"bldg_2d59f6b8-ee40-49e0-a181-be927d9cd718","geometry":{"type":"Polygon","coordinates":[[[139.0650933,35.9648232],[139.0651574,35.9648007],[139.06519,35.964862],[139.065126,35.9648845],[139.0650933,35.9648232]]]},"properties":{"layer":"building","height_m":6.0}},{"type":"Feature","id":"bldg_88dce1f3-12cb-4b19-a01b-244541ec9bad","geometry":{"type":"Polygon","coordinates":[[[139.0685975,35.9645213],[139.0686796,35.9645363],[139.0686671,35.9645811],[139.0686224,35.9645729],[139.0685954,35.9646703],[139.068558,35.9646634],[139.0685975,35.9645213]]]},"properties":{"layer":"building","height_m":7.8}},{"type":"Feature","id":"bldg_4078fafa-f12c-4ee6-9e7d-a11331b9acc0","geometry":{"type":"Polygon","coordinates":[[[139.065664,35.9652684],[139.0656493,35.9653133],[139.0654021,35.9652598],[139.0653974,35.965274],[139.0653215,35.9652576],[139.0653409,35.9651984],[139.065664,35.9652684]]]},"properties":{"layer":"building","height_m":9.9}},{"type":"Feature","id":"bldg_42e61e11-dbfc-4a30-a599-4db690da8320","geometry":{"type":"Polygon","coordinates":[[[139.0653375,35.9650695],[139.0653101,35.9649875],[139.0661703,35.9647977],[139.0661977,35.9648797],[139.0653375,35.9650695]]]},"properties":{"layer":"building","height_m":17.3}},{"type":"Feature","id":"bldg_26a3ac60-8e8b-4542-ab88-a9fca898ce51","geometry":{"type":"Polygon","coordinates":[[[139.0697052,35.9623545],[139.069658,35.9623849],[139.0695938,35.9623192],[139.069641,35.9622887],[139.0697052,35.9623545]]]},"properties":{"layer":"building","height_m":7.8}},{"type":"Feature","id":"bldg_261906fd-9678-4da4-80f6-4bec524661c7","geometry":{"type":"Polygon","coordinates":[[[139.0656609,35.9651345],[139.0656534,35.9652254],[139.065457,35.9652149],[139.0654643,35.9651241],[139.0656609,35.9651345]]]},"properties":{"layer":"building","height_m":6.1}},{"type":"Feature","id":"bldg_d5a446af-069b-45f8-b377-c7fd06866a15","geometry":{"type":"Polygon","coordinates":[[[139.0691965,35.9654931],[139.0693127,35.9654951],[139.0693104,35.9655809],[139.0691943,35.9655789],[139.0691965,35.9654931]]]},"properties":{"layer":"building","height_m":8.4}},{"type":"Feature","id":"bldg_e1baa398-c675-440e-9b8d-f4bb08bb76e5","geometry":{"type":"Polygon","coordinates":[[[139.0691936,35.9636461],[139.0692094,35.9636082],[139.0692701,35.963625],[139.0692543,35.9636628],[139.0691936,35.9636461]]]},"properties":{"layer":"building","height_m":11.7}},{"type":"Feature","id":"bldg_15ee8a97-43c3-4a42-b57c-4f66725b7810","geometry":{"type":"Polygon","coordinates":[[[139.0694467,35.9655957],[139.0694548,35.9655373],[139.0697203,35.9655619],[139.0697121,35.9656203],[139.0694467,35.9655957]]]},"properties":{"layer":"building","height_m":13.3}},{"type":"Feature","id":"bldg_227074dc-dafc-435d-89a9-9f8daac96b2c","geometry":{"type":"Polygon","coordinates":[[[139.0691791,35.9625243],[139.0691373,35.9624898],[139.0691864,35.9624542],[139.0692266,35.9624916],[139.0691791,35.9625243]]]},"properties":{"layer":"building","height_m":8.1}},{"type":"Feature","id":"bldg_7ca03b1f-3e5d-4e12-8add-bfaf99044320","geometry":{"type":"Polygon","coordinates":[[[139.0677134,35.9655277],[139.0677007,35.9655505],[139.0676634,35.9655367],[139.067676,35.965514],[139.0677134,35.9655277]]]},"properties":{"layer":"building","height_m":10.9}},{"type":"Feature","id":"bldg_7ade7af5-5f7a-4c12-b616-0bf92feb2edd","geometry":{"type":"Polygon","coordinates":[[[139.0687341,35.9623626],[139.0687311,35.9622905],[139.0688708,35.9622865],[139.068874,35.9623587],[139.0687341,35.9623626]]]},"properties":{"layer":"building","height_m":7.9}},{"type":"Feature","id":"bldg_3aef9ca7-801f-4a3e-985e-0105a7bd10ee","geometry":{"type":"Polygon","coordinates":[[[139.0667768,35.9655099],[139.0668163,35.9655039],[139.066825,35.9655414],[139.0667855,35.9655475],[139.0667768,35.9655099]]]},"properties":{"layer":"building","height_m":3.3}},{"type":"Feature","id":"bldg_52dee237-a14e-44bf-9fdb-b9d37760aea4","geometry":{"type":"Polygon","coordinates":[[[139.0652714,35.965198],[139.065308,35.96521],[139.0652943,35.9652376],[139.0652577,35.9652257],[139.0652714,35.965198]]]},"properties":{"layer":"building","height_m":11.9}},{"type":"Feature","id":"bldg_a83d95e8-4b71-4f18-ad4c-3fc7c8fc292d","geometry":{"type":"Polygon","coordinates":[[[139.0686854,35.9619348],[139.0686465,35.9619131],[139.0686488,35.9619103],[139.0686189,35.9618936],[139.0686722,35.9618304],[139.068741,35.9618687],[139.0686854,35.9619348]]]},"properties":{"layer":"building","height_m":11.5}},{"type":"Feature","id":"bldg_8ed90017-0cd4-4edd-8f4c-38ba37d2f312","geometry":{"type":"Polygon","coordinates":[[[139.0693159,35.962442],[139.0694182,35.9624623],[139.0693855,35.9625777],[139.0692789,35.9625579],[139.0693159,35.962442]]]},"properties":{"layer":"building","height_m":17.5}},{"type":"Feature","id":"bldg_14f7fd43-1c2e-4a2b-a6ef-d65198bf4584","geometry":{"type":"Polygon","coordinates":[[[139.0685039,35.9645415],[139.0685572,35.9645356],[139.068564,35.964576],[139.0685108,35.9645819],[139.0685039,35.9645415]]]},"properties":{"layer":"building","height_m":8.5}},{"type":"Feature","id":"bldg_44db3603-cdf3-4192-ac8d-b78d11076e60","geometry":{"type":"Polygon","coordinates":[[[139.0685705,35.9623135],[139.0685692,35.9623561],[139.0684915,35.9623546],[139.0684928,35.9623119],[139.0685705,35.9623135]]]},"properties":{"layer":"building","height_m":4.0}},{"type":"Feature","id":"bldg_d554b2c5-67a0-4a31-be2c-46bfcc8a18a8","geometry":{"type":"Polygon","coordinates":[[[139.0685122,35.9646433],[139.068467,35.9646462],[139.0684606,35.9645814],[139.0685058,35.9645784],[139.0685122,35.9646433]]]},"properties":{"layer":"building","height_m":4.3}},{"type":"Feature","id":"bldg_12b54718-e944-4084-ae7d-0378c0e9aaab","geometry":{"type":"Polygon","coordinates":[[[139.0685163,35.9657434],[139.0685383,35.9657856],[139.0684559,35.9658139],[139.068434,35.9657716],[139.0685163,35.9657434]]]},"properties":{"layer":"building","height_m":5.4}},{"type":"Feature","id":"bldg_11d9b33a-ca14-436d-8109-4a85af83e2ce","geometry":{"type":"Polygon","coordinates":[[[139.0684224,35.9618151],[139.0684252,35.9617784],[139.068477,35.961781],[139.0684741,35.9618177],[139.0684224,35.9618151]]]},"properties":{"layer":"building","height_m":5.0}},{"type":"Feature","id":"bldg_ee627e02-dc20-4ab0-bd9c-27a4694dfd96","geometry":{"type":"Polygon","coordinates":[[[139.0659718,35.9651007],[139.0659861,35.9652178],[139.065716,35.9652395],[139.0657018,35.9651224],[139.0659718,35.9651007]]]},"properties":{"layer":"building","height_m":9.4}},{"type":"Feature","id":"bldg_4f449b38-3a67-401f-81ce-652f95267378","geometry":{"type":"Polygon","coordinates":[[[139.068357,35.9620259],[139.0683583,35.9619926],[139.0684359,35.9619947],[139.0684368,35.9619717],[139.068542,35.9619746],[139.0685397,35.9620309],[139.068357,35.9620259]]]},"properties":{"layer":"building","height_m":5.7}},{"type":"Feature","id":"bldg_48c929ff-5960-4ecd-82aa-2c0e461171a4","geometry":{"type":"Polygon","coordinates":[[[139.0682276,35.9658106],[139.0682559,35.9657451],[139.068394,35.9657845],[139.0683658,35.9658501],[139.0682276,35.9658106]]]},"properties":{"layer":"building","height_m":7.1}},{"type":"Feature","id":"bldg_a3b863b4-00b3-4ec4-92be-65d04a8a605d","geometry":{"type":"Polygon","coordinates":[[[139.0683322,35.9625881],[139.0682571,35.9625648],[139.0683333,35.9624025],[139.0684046,35.9624246],[139.0684153,35.9624018],[139.0684767,35.9624208],[139.0684601,35.9624562],[139.0684841,35.9624637],[139.0684736,35.9624861],[139.0684494,35.9624786],[139.0684439,35.9624903],[139.0683864,35.9624725],[139.0683322,35.9625881]]]},"properties":{"layer":"building","height_m":12.1}},{"type":"Feature","id":"bldg_6915c1fe-73bb-451f-b1ae-ad9e165d5ddf","geometry":{"type":"Polygon","coordinates":[[[139.0683232,35.9620046],[139.0683312,35.9620392],[139.0682645,35.9620493],[139.0682566,35.9620148],[139.0683232,35.9620046]]]},"properties":{"layer":"building","height_m":3.8}},{"type":"Feature","id":"bldg_404fc67b-9fa5-4e4e-bef7-ee4b65d59762","geometry":{"type":"Polygon","coordinates":[[[139.0682221,35.9626665],[139.0681797,35.962602],[139.0682935,35.9626352],[139.0682731,35.9626814],[139.0682221,35.9626665]]]},"properties":{"layer":"building","height_m":7.9}},{"type":"Feature","id":"bldg_081eadae-f6a4-423d-9f46-29eb3455b962","geometry":{"type":"Polygon","coordinates":[[[139.0682225,35.9630674],[139.0683057,35.9631597],[139.0682052,35.9632197],[139.0681597,35.9631693],[139.0682066,35.9631414],[139.0681687,35.9630995],[139.0682225,35.9630674]]]},"properties":{"layer":"building","height_m":11.2}},{"type":"Feature","id":"bldg_42d0ef8f-7d38-4535-a9f7-21365a289741","geometry":{"type":"Polygon","coordinates":[[[139.0681863,35.9624844],[139.0681513,35.962472],[139.0681536,35.9624678],[139.0681278,35.9624586],[139.0681685,35.962383],[139.0681916,35.9623913],[139.0682136,35.9623505],[139.0682513,35.9623639],[139.0681863,35.9624844]]]},"properties":{"layer":"building","height_m":5.1}},{"type":"Feature","id":"bldg_b4189670-f328-4ce6-821f-690fda050973","geometry":{"type":"Polygon","coordinates":[[[139.0673619,35.9652829],[139.0673868,35.9653039],[139.067344,35.9653374],[139.0673191,35.9653164],[139.0673619,35.9652829]]]},"properties":{"layer":"building","height_m":3.3}},{"type":"Feature","id":"bldg_54177e37-b650-4502-b3d0-ab292ce619b4","geometry":{"type":"Polygon","coordinates":[[[139.0681418,35.9658003],[139.0681178,35.965852],[139.0680531,35.9658322],[139.0680772,35.9657804],[139.0681418,35.9658003]]]},"properties":{"layer":"building","height_m":6.8}},{"type":"Feature","id":"bldg_53deeaeb-6d79-46c0-be83-18a0fbc57724","geometry":{"type":"Polygon","coordinates":[[[139.0680601,35.9629955],[139.068081,35.9629612],[139.0681098,35.9629727],[139.0680889,35.963007],[139.0680601,35.9629955]]]},"properties":{"layer":"building","height_m":3.6}},{"type":"Feature","id":"bldg_0eb48ba1-d786-46c4-9b8d-715a7abc10b2","geometry":{"type":"Polygon","coordinates":[[[139.0680952,35.9629063],[139.0680826,35.9629271],[139.0680416,35.9629106],[139.0680542,35.9628898],[139.0680952,35.9629063]]]},"properties":{"layer":"building","height_m":6.3}},{"type":"Feature","id":"bldg_c42ee812-1aa6-4b05-acb8-d924dfe4f777","geometry":{"type":"Polygon","coordinates":[[[139.0680025,35.9657463],[139.06804,35.9656659],[139.0682081,35.9657175],[139.0681706,35.9657981],[139.0680025,35.9657463]]]},"properties":{"layer":"building","height_m":6.6}},{"type":"Feature","id":"bldg_17770436-dcff-4308-8f0a-0060aecf7907","geometry":{"type":"Polygon","coordinates":[[[139.067995,35.9630473],[139.0680253,35.9629975],[139.0680902,35.9630236],[139.0680598,35.9630734],[139.067995,35.9630473]]]},"properties":{"layer":"building","height_m":6.1}},{"type":"Feature","id":"bldg_83753841-ade4-4b16-9fec-dd047ee2e0f2","geometry":{"type":"Polygon","coordinates":[[[139.0679598,35.9656157],[139.0679787,35.9655773],[139.0680376,35.9655965],[139.0680187,35.9656349],[139.0679598,35.9656157]]]},"properties":{"layer":"building","height_m":3.7}},{"type":"Feature","id":"bldg_5ae4b5a2-52ea-4261-a785-24935f458408","geometry":{"type":"Polygon","coordinates":[[[139.0681376,35.9624161],[139.0680503,35.9623629],[139.0680861,35.9623243],[139.0679818,35.9622607],[139.0680422,35.9621952],[139.0682337,35.9623119],[139.0681376,35.9624161]]]},"properties":{"layer":"building","height_m":6.9}},{"type":"Feature","id":"bldg_0a336a5d-4a64-4864-ac81-b1336a3d0d63","geometry":{"type":"Polygon","coordinates":[[[139.0679259,35.9656125],[139.0680057,35.9656381],[139.0679375,35.9657785],[139.0678577,35.9657528],[139.0679259,35.9656125]]]},"properties":{"layer":"building","height_m":7.1}},{"type":"Feature","id":"bldg_d920325d-e025-4a27-a8cd-04872b330b68","geometry":{"type":"Polygon","coordinates":[[[139.0667839,35.9653209],[139.0667925,35.9653643],[139.0667372,35.9653715],[139.0667285,35.9653281],[139.0667839,35.9653209]]]},"properties":{"layer":"building","height_m":null}},{"type":"Feature","id":"bldg_32b39f3b-357f-43dd-9d6a-ed8c00072144","geometry":{"type":"Polygon","coordinates":[[[139.0650412,35.9648148],[139.0650525,35.9648383],[139.0649883,35.9648588],[139.064977,35.9648353],[139.0650412,35.9648148]]]},"properties":{"layer":"building","height_m":3.0}}]}