{"type":"FeatureCollection","properties":{"mesh_code":"53397053","source":"PLATEAU秩父市2025","layer":"building"},"features":[{"type":"Feature","id":"bldg_292cf2e2-400b-4816-8bfa-1698380680b9","geometry":{"type":"Polygon","coordinates":[[[139.03811225452284,35.96573143211377],[139.038081985029,35.96578693197269],[139.037983997607,35.96575167255728],[139.03801415629323,35.96569617198868],[139.03811225452284,35.96573143211377]]]},"properties":{"layer":"building","height_m":3.9}},{"type":"Feature","id":"bldg_5b77c3ec-9f53-43f4-94dc-a713ebffdce2","geometry":{"type":"Polygon","coordinates":[[[139.03890402459368,35.966368038509486],[139.03888279397356,35.96641773994514],[139.038785392929,35.96639023625916],[139.03880651273943,35.966340534107154],[139.03890402459368,35.966368038509486]]]},"properties":{"layer":"building","height_m":3.8}},{"type":"Feature","id":"bldg_0c3046e6-669e-4ff6-b193-2981944ac36c","geometry":{"type":"Polygon","coordinates":[[[139.0388076031569,35.966335719362085],[139.0388202653369,35.96630354560654],[139.03892226620547,35.96633006124496],[139.03890961514844,35.96636223508498],[139.0388076031569,35.966335719362085]]]},"properties":{"layer":"building","height_m":3.0}},{"type":"Feature","id":"bldg_52454c7c-88db-4e9a-9be0-596adcb93c65","geometry":{"type":"Polygon","coordinates":[[[139.03887568479578,35.966192214189334],[139.03888322889532,35.96617401277249],[139.03895044199433,35.96619244772765],[139.038942886822,35.96621064907544],[139.03887568479578,35.966192214189334]]]},"properties":{"layer":"building","height_m":null}},{"type":"Feature","id":"bldg_fbcd6bea-57f2-4bbd-b994-4476db656ce5","geometry":{"type":"Polygon","coordinates":[[[139.03891219593433,35.96637133729346],[139.0390085865985,35.96640009601107],[139.03898557049305,35.9664509573383],[139.03888929063893,35.96642219933575],[139.03891219593433,35.96637133729346]]]},"properties":{"layer":"building","height_m":3.9}},{"type":"Feature","id":"bldg_3fff43e2-eec0-4c77-ab27-2fa85f201940","geometry":{"type":"Polygon","coordinates":[[[139.03892153690302,35.966446026927194],[139.03896740686113,35.96646012050776],[139.0389505235634,35.96649642133593],[139.03890465358754,35.96648232774876],[139.03892153690302,35.966446026927194]]]},"properties":{"layer":"building","height_m":3.5}},{"type":"Feature","id":"bldg_b22ed27f-caa3-4315-8255-621e61522e58","geometry":{"type":"Polygon","coordinates":[[[139.0389940465146,35.965902508151736],[139.0389685924492,35.96589349788096],[139.0389934485465,35.965847092150085],[139.03901890260002,35.965856102415486],[139.0389940465146,35.965902508151736]]]},"properties":{"layer":"building","height_m":null}},{"type":"Feature","id":"bldg_19cb8580-d2e1-4dce-b3b9-c6cfa8daa284","geometry":{"type":"Polygon","coordinates":[[[139.03920880451037,35.966423593218614],[139.03918081368872,35.96650623761748],[139.03900370669143,35.9664666699157],[139.03903180944758,35.96638393616936],[139.03920880451037,35.966423593218614]]]},"properties":{"layer":"building","height_m":7.3}},{"type":"Feature","id":"bldg_01f764ea-a60f-4319-864b-e5c9eaadd759","geometry":{"type":"Polygon","coordinates":[[[139.03960505728574,35.96606884869638],[139.03957977641838,35.96614664409097],[139.03953862128878,35.96613780948458],[139.0395216904086,35.966189972996254],[139.0394561960387,35.96617593005847],[139.0394746132795,35.96611926987969],[139.03945934584448,35.966116014318324],[139.03948325136275,35.96604271636044],[139.03960505728574,35.96606884869638]]]},"properties":{"layer":"building","height_m":9.2}},{"type":"Feature","id":"bldg_8042b94e-c403-4f10-a6a0-c3f898d197a0","geometry":{"type":"Polygon","coordinates":[[[139.03920791927516,35.9661577033014],[139.03921642348095,35.96613883224042],[139.03930485534318,35.96616519466521],[139.03929635205776,35.96618397560838],[139.03920791927516,35.9661577033014]]]},"properties":{"layer":"building","height_m":null}},{"type":"Feature","id":"bldg_ccc9dee8-7fec-43db-a8ce-c246d1d31398","geometry":{"type":"Polygon","coordinates":[[[139.03952458344938,35.96651013457181],[139.03946297443156,35.9664955765582],[139.0394819108749,35.96644243489397],[139.0395436316203,35.96645690350665],[139.03952458344938,35.96651013457181]]]},"properties":{"layer":"building","height_m":4.0}},{"type":"Feature","id":"bldg_7a279904-fde5-4104-8e1e-abf9f7bd6111","geometry":{"type":"Polygon","coordinates":[[[139.03944695016656,35.966457165214564],[139.03942089116822,35.96653513568138],[139.03933039925445,35.96651515895326],[139.0393267397458,35.96652631088192],[139.03925383717203,35.966510235949414],[139.0392835558359,35.96642111359313],[139.03944695016656,35.966457165214564]]]},"properties":{"layer":"building","height_m":7.0}},{"type":"Feature","id":"bldg_207aa46f-0296-48a2-a7ee-a5d88487abd9","geometry":{"type":"Polygon","coordinates":[[[139.03928405012385,35.965003152529086],[139.03930012793407,35.96495534569763],[139.0393080153434,35.964957092336256],[139.0393131803694,35.96494173227287],[139.03941319377074,35.96496395315445],[139.03940599490042,35.96498534750316],[139.03938476654346,35.964980628437445],[139.0393707225545,35.96502241001291],[139.03928405012385,35.965003152529086]]]},"properties":{"layer":"building","height_m":3.5}},{"type":"Feature","id":"bldg_8e849f78-fad5-4542-91c5-7f9e67d7a060","geometry":{"type":"Polygon","coordinates":[[[139.0395198247857,35.9662766658998],[139.0394346327774,35.96626997344931],[139.0394331050044,35.96628193263099],[139.0393491990831,35.9662763482169],[139.03935283265739,35.96624563786398],[139.03937388120866,35.96624730934625],[139.03937847746562,35.96620903442579],[139.0394111584535,35.96621159403787],[139.0394127377127,35.96619781456709],[139.03951620842642,35.966205979905844],[139.03951790213836,35.966191840669936],[139.03955157998493,35.96619449696846],[139.03954541359678,35.966245650127206],[139.03952381072887,35.96624397500808],[139.0395198247857,35.9662766658998]]]},"properties":{"layer":"building","height_m":4.5}},{"type":"Feature","id":"bldg_0fa5b78b-181e-4bc4-8091-a8a6e3f3cb5b","geometry":{"type":"Polygon","coordinates":[[[139.03759715559337,35.96586187882501],[139.03763608686356,35.96579728831334],[139.03767358826946,35.96581221918377],[139.0376777148082,35.96580536961198],[139.03772588353633,35.9658245532368],[139.03768282569203,35.96589600236245],[139.03759715559337,35.96586187882501]]]},"properties":{"layer":"building","height_m":4.3}},{"type":"Feature","id":"bldg_b9c423c5-76cd-4e80-929d-aa51b42a0711","geometry":{"type":"Polygon","coordinates":[[[139.03785695646977,35.96594139271262],[139.03783343927194,35.96598909594077],[139.0378039115547,35.96597946355893],[139.03779986014584,35.965987665585736],[139.0376932970876,35.96595293492642],[139.03770442178788,35.965930386011514],[139.03767709312066,35.96592148020753],[139.03769353711343,35.96588812390219],[139.03785695646977,35.96594139271262]]]},"properties":{"layer":"building","height_m":4.8}},{"type":"Feature","id":"bldg_1b77a7b1-b552-4df6-bc4c-b245d97d1915","geometry":{"type":"Polygon","coordinates":[[[139.03771974188115,35.96560237765552],[139.03778870346693,35.965624375980994],[139.0377639076056,35.96567576605896],[139.03769494598257,35.96565376771895],[139.03771974188115,35.96560237765552]]]},"properties":{"layer":"building","height_m":3.6}},{"type":"Feature","id":"bldg_9386178e-b310-46dc-a41d-2a50f3e3c181","geometry":{"type":"Polygon","coordinates":[[[139.0376978528628,35.96588341166974],[139.0377420337864,35.965807211110636],[139.03786823534884,35.965845992574664],[139.0378767678522,35.96582764455206],[139.03792839581484,35.96584350719687],[139.03791873029488,35.965864281227915],[139.03793613863354,35.965869624169954],[139.03792361737808,35.965896562203014],[139.03789774258414,35.96588861245316],[139.03787486459737,35.965937807075335],[139.0376978528628,35.96588341166974]]]},"properties":{"layer":"building","height_m":5.8}},{"type":"Feature","id":"bldg_92369c5a-d4fc-4ffa-944d-cb1f6dbec2d6","geometry":{"type":"Polygon","coordinates":[[[139.037841415677,35.965991924828124],[139.03790906348274,35.96589513180437],[139.03792587111906,35.96590288625505],[139.0379343524208,35.965890747858964],[139.0379998831279,35.965921015299614],[139.03798181826832,35.96594686207282],[139.0381233197112,35.96601222492592],[139.03812853899782,35.96600475166887],[139.03818327670467,35.96603004440372],[139.03812579792674,35.96611225881549],[139.0380941581083,35.96609764633499],[139.0380883203931,35.96610598074171],[139.037841415677,35.965991924828124]]]},"properties":{"layer":"building","height_m":8.7}},{"type":"Feature","id":"bldg_18cfae5c-1756-410c-8c62-0f3f9ee30243","geometry":{"type":"Polygon","coordinates":[[[139.03797212073485,35.965189271561734],[139.03788571303397,35.96516021767145],[139.03790607117574,35.96512015455159],[139.037992589702,35.96514920916174],[139.03797212073485,35.965189271561734]]]},"properties":{"layer":"building","height_m":4.2}},{"type":"Feature","id":"bldg_7d7e716e-d0ad-4b1f-aa87-8a3dd14eb092","geometry":{"type":"Polygon","coordinates":[[[139.03946978354122,35.96599037878849],[139.03948951532075,35.96599843176973],[139.03946330229442,35.96604086289806],[139.0394741343102,35.96604528784751],[139.03945161754254,35.96608174976793],[139.03942105363902,35.96606928083954],[139.03946978354122,35.96599037878849]]]},"properties":{"layer":"building","height_m":3.1}},{"type":"Feature","id":"bldg_59bc2178-1dd5-4e49-86ed-422638269a34","geometry":{"type":"Polygon","coordinates":[[[139.03822735424887,35.96580709300698],[139.03817997106137,35.9658444534559],[139.03810135995218,35.96577858813495],[139.03815656581884,35.96573506057138],[139.03819042932966,35.96576340558535],[139.03818249488126,35.96576966212235],[139.03822735424887,35.96580709300698]]]},"properties":{"layer":"building","height_m":4.8}},{"type":"Feature","id":"bldg_7edd16d3-8575-495f-bc6d-412c2ac77ca0","geometry":{"type":"Polygon","coordinates":[[[139.03817262581344,35.96601972602421],[139.0381181151143,35.965996120223366],[139.0381590086845,35.96593371468278],[139.03821351935363,35.96595732046489],[139.03817262581344,35.96601972602421]]]},"properties":{"layer":"building","height_m":3.8}},{"type":"Feature","id":"bldg_23562708-b09c-49f9-8847-1894a08b0116","geometry":{"type":"Polygon","coordinates":[[[139.03820896998562,35.96613903784059],[139.03819607641645,35.96615998878995],[139.03813473832778,35.96613504889456],[139.03819222984123,35.96604161335507],[139.03823993104993,35.966061009988884],[139.0382441237094,35.96605419688786],[139.0382930064671,35.966074070006414],[139.03828759671012,35.96608284889634],[139.03832838572137,35.96609943270135],[139.03833384063307,35.9660905729916],[139.03839304760052,35.966114651443895],[139.03834420099602,35.96619402095292],[139.03820896998562,35.96613903784059]]]},"properties":{"layer":"building","height_m":7.5}},{"type":"Feature","id":"bldg_9ccbcd47-9879-4042-a1a0-e5141a67f7fe","geometry":{"type":"Polygon","coordinates":[[[139.03835642347508,35.96587393246211],[139.03839931529188,35.965818984828836],[139.0384899480759,35.965865731855175],[139.03848086199784,35.96587737958213],[139.03848420404523,35.96587910518003],[139.03847100747862,35.965896007307954],[139.0385030494149,35.96591253311304],[139.03847235469823,35.965951851884505],[139.03843435655122,35.965932258241445],[139.03844444214283,35.965919337290494],[139.03835642347508,35.96587393246211]]]},"properties":{"layer":"building","height_m":3.0}},{"type":"Feature","id":"bldg_4a1335b9-09e5-4289-b086-e8c96cc29473","geometry":{"type":"Polygon","coordinates":[[[139.03843680387254,35.9663694509215],[139.03836527922803,35.966337611796384],[139.03839510322692,35.966293375192826],[139.03846662694085,35.966325304424224],[139.03843680387254,35.9663694509215]]]},"properties":{"layer":"building","height_m":6.1}},{"type":"Feature","id":"bldg_2aadcbb8-c445-4920-8b6e-db8696b22431","geometry":{"type":"Polygon","coordinates":[[[139.03854247802,35.966312647833995],[139.03846839089593,35.96628205362033],[139.03848010940217,35.9662632940348],[139.03838802583618,35.96622518988815],[139.03842137775774,35.966171873499476],[139.03843981680797,35.966179476451245],[139.0384491692531,35.966164486662784],[139.03859690168207,35.966225491881566],[139.03854247802,35.966312647833995]]]},"properties":{"layer":"building","height_m":9.5}},{"type":"Feature","id":"bldg_7ee4064c-c30e-420f-93a9-f7d949c73da4","geometry":{"type":"Polygon","coordinates":[[[139.03956680053045,35.966202438978044],[139.03969952266888,35.96622350600676],[139.03968483069636,35.966284607237924],[139.0396271587551,35.96627548315982],[139.03962322435487,35.966291950961406],[139.03954817314292,35.966280098115114],[139.03956680053045,35.966202438978044]]]},"properties":{"layer":"building","height_m":5.4}},{"type":"Feature","id":"bldg_2d3c0d56-e0c7-4b2f-93ef-7cdc450be1a1","geometry":{"type":"Polygon","coordinates":[[[139.03965210044436,35.96640439009654],[139.03973616772242,35.966403837500714],[139.03973641038183,35.96642833649149],[139.0397256219838,35.96642840935062],[139.03972610306423,35.966476722314425],[139.03965963199846,35.96647715694879],[139.03965931137347,35.96644383369689],[139.0396524813189,35.96644387865216],[139.03965210044436,35.96640439009654]]]},"properties":{"layer":"building","height_m":7.1}},{"type":"Feature","id":"bldg_45fd7cb6-8e8c-4f43-af92-162295cfcecf","geometry":{"type":"Polygon","coordinates":[[[139.03971107845675,35.966232054671615],[139.03975999764384,35.96624058004427],[139.03975066694292,35.96627557898292],[139.03970185859802,35.96626705433946],[139.03971107845675,35.966232054671615]]]},"properties":{"layer":"building","height_m":4.2}},{"type":"Feature","id":"bldg_a78f5aee-e058-4fa5-b2a2-701a3d52701b","geometry":{"type":"Polygon","coordinates":[[[139.03995930598228,35.966510125410885],[139.0398034553238,35.966484669603666],[139.03982263322084,35.9664073745895],[139.03987576441452,35.96641601789849],[139.03987911018896,35.96640297114382],[139.03992692808572,35.966410768125336],[139.03992311542342,35.966426155179335],[139.03997790687947,35.96643507981126],[139.03995930598228,35.966510125410885]]]},"properties":{"layer":"building","height_m":8.8}},{"type":"Feature","id":"bldg_cc252e5a-1979-4282-8006-63e42b9f9a59","geometry":{"type":"Polygon","coordinates":[[[139.03997633638932,35.96628175796859],[139.03992559556062,35.96627799753978],[139.0399005751073,35.96621897708778],[139.0399092838879,35.96616856176107],[139.04000876985137,35.96618715543068],[139.03997633638932,35.96628175796859]]]},"properties":{"layer":"building","height_m":4.2}},{"type":"Feature","id":"bldg_4c5c774a-fb4c-4ef5-ace8-0e2c3b192ecd","geometry":{"type":"Polygon","coordinates":[[[139.04001845315673,35.9665180964037],[139.0400996651092,35.96654475300796],[139.04004517231812,35.96665447778867],[139.03996394918667,35.966627821073544],[139.04001845315673,35.9665180964037]]]},"properties":{"layer":"building","height_m":6.9}},{"type":"Feature","id":"bldg_f059c618-2207-4765-a3d7-598877ba26bb","geometry":{"type":"Polygon","coordinates":[[[139.0399884330761,35.96626949010797],[139.03999909672746,35.96623422957207],[139.0400453471329,35.96624354835629],[139.0400346835007,35.9662788088965],[139.0399884330761,35.96626949010797]]]},"properties":{"layer":"building","height_m":3.3}},{"type":"Feature","id":"bldg_77c0b5cb-bb29-48ee-ab23-23a34759e233","geometry":{"type":"Polygon","coordinates":[[[139.04008284861547,35.96659548428315],[139.04016433206266,35.96661828506645],[139.04016875938748,35.96660794935861],[139.0401996063667,35.96661653535714],[139.0401912023866,35.96663648871219],[139.04021707405752,35.96664368986804],[139.04019061737355,35.96670606535251],[139.0400524160677,35.96666738725431],[139.04008284861547,35.96659548428315]]]},"properties":{"layer":"building","height_m":8.5}},{"type":"Feature","id":"bldg_fd8091a4-5ce8-43de-91f5-da14b3213005","geometry":{"type":"Polygon","coordinates":[[[139.04022649482334,35.96622275399652],[139.04020603749623,35.96628390731865],[139.04017340332166,35.966276661462004],[139.04016917340408,35.96628943199082],[139.04007536380485,35.96626862272311],[139.04008313505167,35.966245420505146],[139.04006565662473,35.966241519493416],[139.04007799669867,35.96620491807948],[139.04010687052252,35.96621123780274],[139.04011155561489,35.966197298592284],[139.04022649482334,35.96622275399652]]]},"properties":{"layer":"building","height_m":4.1}},{"type":"Feature","id":"bldg_282ac6e4-5539-4fd0-82bd-4b0ac59935d3","geometry":{"type":"Polygon","coordinates":[[[139.04021429354438,35.96645611055974],[139.04018743764,35.966514067027695],[139.04008375828698,35.966482376905965],[139.04011061425558,35.96642442046174],[139.04021429354438,35.96645611055974]]]},"properties":{"layer":"building","height_m":8.1}},{"type":"Feature","id":"bldg_98ed2531-fea2-4148-a61a-48acac9c57d9","geometry":{"type":"Polygon","coordinates":[[[139.0402491774395,35.96588365383913],[139.040155607158,35.965850047728495],[139.04016791827246,35.965827416292385],[139.04013179349465,35.96581446914993],[139.04014839759074,35.965783844504664],[139.04027809258926,35.96583039772979],[139.0402491774395,35.96588365383913]]]},"properties":{"layer":"building","height_m":5.7}},{"type":"Feature","id":"bldg_a4683dd4-5fae-4381-a93b-b626d22162ac","geometry":{"type":"Polygon","coordinates":[[[139.04022099044087,35.96626318607439],[139.04029147918297,35.96616586067824],[139.04035360188064,35.966195563534505],[139.04028311318697,35.9662928889673],[139.04022099044087,35.96626318607439]]]},"properties":{"layer":"building","height_m":5.0}},{"type":"Feature","id":"bldg_3ebf780c-3b76-4a58-9ff7-7b79204195de","geometry":{"type":"Polygon","coordinates":[[[139.04041142069218,35.96588063410841],[139.04041899488817,35.96586825520182],[139.04045314864914,35.96588207251072],[139.04043132792125,35.965917719033186],[139.0404406697346,35.9659214941245],[139.04042555531603,35.96594618005997],[139.04041687606042,35.96594267072308],[139.04038996088005,35.96598662963114],[139.0403198534593,35.96595826203138],[139.04032547758777,35.96594908789204],[139.04023554924285,35.965912711874935],[139.0402861902938,35.965829973556396],[139.04041142069218,35.96588063410841]]]},"properties":{"layer":"building","height_m":7.6}},{"type":"Feature","id":"bldg_41accc88-8cdc-4b5c-86c7-6ff4d34c2cd4","geometry":{"type":"Polygon","coordinates":[[[139.04038558449378,35.965780094389764],[139.04040797763483,35.96574707444609],[139.04044230430878,35.96576244314017],[139.0404200220394,35.965795463822815],[139.04038558449378,35.965780094389764]]]},"properties":{"layer":"building","height_m":null}},{"type":"Feature","id":"bldg_d18a46ca-3a15-469f-ad25-31aa473cffd4","geometry":{"type":"Polygon","coordinates":[[[139.04048863716864,35.965947579287665],[139.04043401763084,35.96591594321472],[139.04046292957318,35.96588295732215],[139.0404476845684,35.96587413198806],[139.0404884507532,35.96582760574128],[139.0405583152658,35.96586806711154],[139.04048863716864,35.965947579287665]]]},"properties":{"layer":"building","height_m":5.7}},{"type":"Feature","id":"bldg_c36009de-621a-4102-9912-7b50284490b6","geometry":{"type":"Polygon","coordinates":[[[139.0422895613909,35.96651291834279],[139.0423895213746,35.96660747490637],[139.04230130790037,35.96666910129437],[139.042201347947,35.966574544658606],[139.0422895613909,35.96651291834279]]]},"properties":{"layer":"building","height_m":8.7}},{"type":"Feature","id":"bldg_8e704292-bbbb-4f98-9b5c-01e0c3d5ac83","geometry":{"type":"Polygon","coordinates":[[[139.0414282008596,35.965968681980684],[139.04139741216727,35.96593206618736],[139.04143308966138,35.965912112471656],[139.04146398922498,35.96594872898764],[139.0414282008596,35.965968681980684]]]},"properties":{"layer":"building","height_m":3.6}},{"type":"Feature","id":"bldg_8b547fe4-98f9-4ab6-a562-662ee3f0f7a4","geometry":{"type":"Polygon","coordinates":[[[139.04160729357437,35.96610920504302],[139.0415374347594,35.96615471051067],[139.04140089429717,35.966016360913386],[139.0414707539655,35.96597076539936],[139.04160729357437,35.96610920504302]]]},"properties":{"layer":"building","height_m":7.9}},{"type":"Feature","id":"bldg_f94aa023-5444-46eb-9f9e-5f054195df46","geometry":{"type":"Polygon","coordinates":[[[139.0415308895523,35.96616620398891],[139.04157511054441,35.96613449954881],[139.04161916241208,35.966175258663526],[139.0415748314514,35.966206872263804],[139.0415308895523,35.96616620398891]]]},"properties":{"layer":"building","height_m":5.4}},{"type":"Feature","id":"bldg_17e07198-7d05-483a-8ab7-eab613ed65e9","geometry":{"type":"Polygon","coordinates":[[[139.04169702215557,35.9660279587947],[139.04173340743034,35.966070379764666],[139.0416571420906,35.96611349965482],[139.04162086770015,35.96607107939373],[139.04169702215557,35.9660279587947]]]},"properties":{"layer":"building","height_m":6.1}},{"type":"Feature","id":"bldg_c7a8206e-a6d4-4d71-ac8d-b5f7c2b16c1e","geometry":{"type":"Polygon","coordinates":[[[139.0416532045205,35.966130328025905],[139.0417326983833,35.966085877483316],[139.04176940639536,35.96612929200357],[139.04168991340836,35.9661736524456],[139.0416532045205,35.966130328025905]]]},"properties":{"layer":"building","height_m":6.8}},{"type":"Feature","id":"bldg_ecdf5b54-4dfe-4ffc-92b1-4a5f8676d3d3","geometry":{"type":"Polygon","coordinates":[[[139.04219477226948,35.9665246412755],[139.04216614957414,35.96649756672257],[139.0422091006698,35.966467566151344],[139.04223772327944,35.96649464970662],[139.04219477226948,35.9665246412755]]]},"properties":{"layer":"building","height_m":3.7}},{"type":"Feature","id":"bldg_340190e0-102b-4759-9520-f1993005dbfb","geometry":{"type":"Polygon","coordinates":[[[139.0423817746025,35.96670276357588],[139.0423310642081,35.96665478648439],[139.04241109375715,35.966598883478895],[139.04246180416547,35.96664686053717],[139.0423817746025,35.96670276357588]]]},"properties":{"layer":"building","height_m":8.7}}]}