{"type":"FeatureCollection","properties":{"mesh_code":"53397066","source":"PLATEAU秩父市2025","layer":"building"},"features":[{"type":"Feature","id":"bldg_8b5b1c7e-5065-4ca2-afa3-864e80c2cb1a","geometry":{"type":"Polygon","coordinates":[[[139.0838412,35.9739411],[139.0838247,35.9739019],[139.0838972,35.9738817],[139.0839138,35.9739209],[139.0838412,35.9739411]]]},"properties":{"layer":"building","height_m":3.3}},{"type":"Feature","id":"bldg_5a74efff-95ff-46f3-bd46-1b2db5e98415","geometry":{"type":"Polygon","coordinates":[[[139.0838527,35.9738447],[139.0838259,35.9737672],[139.0839077,35.9737484],[139.0839346,35.9738259],[139.0838527,35.9738447]]]},"properties":{"layer":"building","height_m":7.4}},{"type":"Feature","id":"bldg_5f1a681a-0cd2-4f3e-9dc2-4653aa92b120","geometry":{"type":"Polygon","coordinates":[[[139.0837976,35.9736524],[139.0838417,35.9736444],[139.0838639,35.9737258],[139.0838199,35.9737338],[139.0837976,35.9736524]]]},"properties":{"layer":"building","height_m":null}},{"type":"Feature","id":"bldg_3da79856-d900-4296-8031-fb607016bdb3","geometry":{"type":"Polygon","coordinates":[[[139.0837466,35.9741533],[139.0838437,35.9741337],[139.0838601,35.9741874],[139.083763,35.974207],[139.0837466,35.9741533]]]},"properties":{"layer":"building","height_m":8.1}},{"type":"Feature","id":"bldg_258affa9-f149-4ebf-a5c6-94d52cf68287","geometry":{"type":"Polygon","coordinates":[[[139.0837059,35.9740813],[139.0836813,35.9740199],[139.0837855,35.9739923],[139.0838101,35.9740537],[139.0837059,35.9740813]]]},"properties":{"layer":"building","height_m":6.9}},{"type":"Feature","id":"bldg_8b33b86c-da32-4ada-84e2-8f1dd6cfe2a5","geometry":{"type":"Polygon","coordinates":[[[139.0836507,35.9739804],[139.0836329,35.9739388],[139.0836692,35.9739285],[139.0836564,35.9738989],[139.0837423,35.9738746],[139.0837728,35.9739458],[139.0836507,35.9739804]]]},"properties":{"layer":"building","height_m":7.6}},{"type":"Feature","id":"bldg_d50f48b7-1c24-4373-9460-ee6d21f89ba1","geometry":{"type":"Polygon","coordinates":[[[139.083671,35.9741944],[139.0836488,35.9741888],[139.0836321,35.9742319],[139.0835609,35.9742138],[139.0835837,35.9741545],[139.0836013,35.9741591],[139.0836116,35.9741327],[139.0836872,35.974152],[139.083671,35.9741944]]]},"properties":{"layer":"building","height_m":9.0}},{"type":"Feature","id":"bldg_44dba606-3973-40ca-85ce-f81dcf88c293","geometry":{"type":"Polygon","coordinates":[[[139.0835525,35.9742553],[139.0836489,35.9742472],[139.0836569,35.9743103],[139.0835605,35.9743183],[139.0835525,35.9742553]]]},"properties":{"layer":"building","height_m":8.5}},{"type":"Feature","id":"bldg_98d5cbc9-4fd0-4a13-a393-95d2715d8e88","geometry":{"type":"Polygon","coordinates":[[[139.0771571,35.9691222],[139.0772833,35.9690783],[139.0774304,35.9693578],[139.0773041,35.9694017],[139.0771571,35.9691222]]]},"properties":{"layer":"building","height_m":8.3}},{"type":"Feature","id":"bldg_429ec9a5-332f-43fc-b1a7-55bd22f60362","geometry":{"type":"Polygon","coordinates":[[[139.0772126,35.9750326],[139.0771601,35.9750127],[139.0771876,35.9749648],[139.07724,35.9749846],[139.0772126,35.9750326]]]},"properties":{"layer":"building","height_m":3.2}},{"type":"Feature","id":"bldg_8819028f-cc1e-461e-843b-598516b30b51","geometry":{"type":"Polygon","coordinates":[[[139.0829219,35.9748992],[139.0828868,35.9748822],[139.0829288,35.9748251],[139.0829638,35.9748421],[139.0829219,35.9748992]]]},"properties":{"layer":"building","height_m":null}},{"type":"Feature","id":"bldg_e51d4c44-9b62-4dbd-b7cc-75dd22a76fd2","geometry":{"type":"Polygon","coordinates":[[[139.0840334,35.9740664],[139.084057,35.9740436],[139.0840935,35.9740687],[139.0840698,35.9740914],[139.0840334,35.9740664]]]},"properties":{"layer":"building","height_m":3.6}},{"type":"Feature","id":"bldg_f68fa27b-9200-4aa5-a92d-8512727d07ee","geometry":{"type":"Polygon","coordinates":[[[139.0839131,35.9745352],[139.0839544,35.9745553],[139.0839365,35.9745794],[139.0838954,35.9745592],[139.0839131,35.9745352]]]},"properties":{"layer":"building","height_m":null}},{"type":"Feature","id":"bldg_c68c2679-2a39-4ace-b5ee-66a13c9196b0","geometry":{"type":"Polygon","coordinates":[[[139.0839231,35.9741087],[139.0838977,35.9740384],[139.0839617,35.9740231],[139.0839511,35.9739938],[139.0840336,35.9739741],[139.0840577,35.9740406],[139.0840077,35.9740525],[139.0840197,35.9740856],[139.0839231,35.9741087]]]},"properties":{"layer":"building","height_m":7.5}},{"type":"Feature","id":"bldg_248d1805-80fe-4f54-983a-3336a7cd011c","geometry":{"type":"Polygon","coordinates":[[[139.0750355,35.9685846],[139.0750328,35.9685584],[139.0750777,35.9685554],[139.0750803,35.9685816],[139.0750355,35.9685846]]]},"properties":{"layer":"building","height_m":3.6}},{"type":"Feature","id":"bldg_587a440b-3218-4534-b44b-9fdbf066b565","geometry":{"type":"Polygon","coordinates":[[[139.0750406,35.9743363],[139.0750067,35.9743167],[139.0750342,35.9742858],[139.0750674,35.9743052],[139.0750653,35.9743075],[139.0750749,35.974313],[139.0750519,35.9743391],[139.0750428,35.9743338],[139.0750406,35.9743363]]]},"properties":{"layer":"building","height_m":3.1}},{"type":"Feature","id":"bldg_bdc63412-d8e4-4458-8cce-da0c83ee33dd","geometry":{"type":"Polygon","coordinates":[[[139.0838391,35.9739531],[139.0839093,35.9739345],[139.0839318,35.9739906],[139.0838617,35.9740092],[139.0838391,35.9739531]]]},"properties":{"layer":"building","height_m":3.6}},{"type":"Feature","id":"bldg_83b723c6-4bce-45bd-83c9-b51aba63df80","geometry":{"type":"Polygon","coordinates":[[[139.075086,35.9744154],[139.0750628,35.974401],[139.0751005,35.9743609],[139.075133,35.9743811],[139.0751392,35.9743745],[139.0751701,35.9743936],[139.0751507,35.9744142],[139.0751586,35.9744191],[139.0751213,35.9744588],[139.0750732,35.9744291],[139.075086,35.9744154]]]},"properties":{"layer":"building","height_m":4.4}},{"type":"Feature","id":"bldg_0e98e241-fe92-4863-a62f-ec78d2bb4d6c","geometry":{"type":"Polygon","coordinates":[[[139.0750901,35.9746048],[139.0751189,35.9745361],[139.0751733,35.9745512],[139.0751446,35.9746199],[139.0750901,35.9746048]]]},"properties":{"layer":"building","height_m":4.0}},{"type":"Feature","id":"bldg_f8eec906-2a5d-4af4-8426-2c994e7503e0","geometry":{"type":"Polygon","coordinates":[[[139.075236,35.9685646],[139.0751999,35.968568],[139.0751918,35.9685105],[139.0752279,35.9685071],[139.075236,35.9685646]]]},"properties":{"layer":"building","height_m":7.3}},{"type":"Feature","id":"bldg_ce744f99-1a0a-4d73-889e-6d58e3e0c3f7","geometry":{"type":"Polygon","coordinates":[[[139.0751599,35.9743047],[139.0751489,35.9742976],[139.0751693,35.9742765],[139.0751797,35.9742832],[139.0751819,35.9742808],[139.0751848,35.9742826],[139.0751874,35.9742799],[139.0752457,35.9743174],[139.0752195,35.9743443],[139.0751591,35.9743054],[139.0751599,35.9743047]]]},"properties":{"layer":"building","height_m":3.4}},{"type":"Feature","id":"bldg_4508d6bb-2437-46d0-b9c6-4505e3d81d53","geometry":{"type":"Polygon","coordinates":[[[139.0752218,35.9745656],[139.0752255,35.9745573],[139.0752626,35.9745682],[139.0752702,35.9745513],[139.0753448,35.9745732],[139.0753208,35.9746272],[139.0753304,35.97463],[139.0753243,35.9746436],[139.075334,35.9746465],[139.0753273,35.9746615],[139.0753094,35.9746562],[139.0753055,35.974665],[139.0751626,35.974623],[139.0751921,35.974557],[139.0752218,35.9745656]]]},"properties":{"layer":"building","height_m":7.6}},{"type":"Feature","id":"bldg_c5566d95-5d25-4c86-aa87-295ffad521d0","geometry":{"type":"Polygon","coordinates":[[[139.0751696,35.9746552],[139.075183,35.9746323],[139.0752269,35.9746493],[139.0752135,35.9746722],[139.0751696,35.9746552]]]},"properties":{"layer":"building","height_m":3.1}},{"type":"Feature","id":"bldg_41e92738-2bc8-4f51-8291-f2c0f055bdbd","geometry":{"type":"Polygon","coordinates":[[[139.0751805,35.9740698],[139.0752092,35.9740182],[139.075302,35.9740523],[139.0752733,35.9741039],[139.0751805,35.9740698]]]},"properties":{"layer":"building","height_m":null}},{"type":"Feature","id":"bldg_03886bd4-9331-4596-920b-c9482467514c","geometry":{"type":"Polygon","coordinates":[[[139.0752317,35.974196],[139.0752428,35.9741832],[139.0752379,35.9741804],[139.0752688,35.9741447],[139.0753503,35.9741913],[139.0753083,35.9742398],[139.0752317,35.974196]]]},"properties":{"layer":"building","height_m":7.8}},{"type":"Feature","id":"bldg_255b8b1d-1423-47a0-9477-131d2d714e96","geometry":{"type":"Polygon","coordinates":[[[139.0752379,35.9745367],[139.075271,35.9744606],[139.0753271,35.9744767],[139.0753247,35.9744824],[139.0753843,35.9744995],[139.0753537,35.9745699],[139.0752379,35.9745367]]]},"properties":{"layer":"building","height_m":8.9}},{"type":"Feature","id":"bldg_8350db7f-df04-43fc-b3fc-422e6684749c","geometry":{"type":"Polygon","coordinates":[[[139.075383,35.9741926],[139.0753272,35.9741624],[139.0753543,35.9741293],[139.0754102,35.9741594],[139.075383,35.9741926]]]},"properties":{"layer":"building","height_m":3.2}},{"type":"Feature","id":"bldg_04838827-7e42-48d9-914a-2e38f6f53a30","geometry":{"type":"Polygon","coordinates":[[[139.0753798,35.9744052],[139.0753263,35.9743671],[139.0754283,35.9742728],[139.0754817,35.9743109],[139.0753798,35.9744052]]]},"properties":{"layer":"building","height_m":4.6}},{"type":"Feature","id":"bldg_a359c86e-ec71-4825-b217-dbab14717ce9","geometry":{"type":"Polygon","coordinates":[[[139.0755308,35.972284],[139.0754707,35.9722961],[139.0754637,35.9722729],[139.0754831,35.972269],[139.0754783,35.9722532],[139.0755038,35.972248],[139.0755079,35.9722616],[139.0755231,35.9722587],[139.0755308,35.972284]]]},"properties":{"layer":"building","height_m":null}},{"type":"Feature","id":"bldg_334074e1-083e-45d2-a00c-fb8ab87ce023","geometry":{"type":"Polygon","coordinates":[[[139.0755019,35.9746456],[139.0754643,35.974694],[139.0754504,35.9746872],[139.0754863,35.9746381],[139.0755019,35.9746456]]]},"properties":{"layer":"building","height_m":4.5}},{"type":"Feature","id":"bldg_66c32ef1-ca36-448b-826e-5d23629faba5","geometry":{"type":"Polygon","coordinates":[[[139.0755764,35.9747547],[139.0754624,35.9746965],[139.0754643,35.974694],[139.0755019,35.9746456],[139.0755193,35.9746231],[139.0755538,35.9746411],[139.0755579,35.974636],[139.0755676,35.9746409],[139.0755646,35.9746449],[139.0755761,35.9746508],[139.0755878,35.9746357],[139.0756455,35.9746652],[139.0755764,35.9747547]]]},"properties":{"layer":"building","height_m":7.0}},{"type":"Feature","id":"bldg_997121f7-429b-4a40-ab8c-b76ab4f1dc84","geometry":{"type":"Polygon","coordinates":[[[139.0755731,35.9743494],[139.0756234,35.9743837],[139.0755792,35.9744265],[139.0755877,35.9744323],[139.0755525,35.9744664],[139.075547,35.9744627],[139.0755334,35.9744759],[139.0754798,35.9744394],[139.075492,35.9744274],[139.0754821,35.9744206],[139.0755132,35.9743904],[139.0755236,35.9743974],[139.0755731,35.9743494]]]},"properties":{"layer":"building","height_m":4.4}},{"type":"Feature","id":"bldg_ea33eb01-9cfd-4b11-8d08-5b043fdf9f82","geometry":{"type":"Polygon","coordinates":[[[139.0755035,35.9744931],[139.0754839,35.9744806],[139.0754943,35.9744698],[139.0755139,35.9744824],[139.0755035,35.9744931]]]},"properties":{"layer":"building","height_m":null}},{"type":"Feature","id":"bldg_05e3e769-5683-4c84-ae92-8b12fa94da9e","geometry":{"type":"Polygon","coordinates":[[[139.0756552,35.974327],[139.0756063,35.9742929],[139.0756762,35.9742266],[139.0756644,35.9742184],[139.0756958,35.9741886],[139.0757084,35.9741973],[139.0757258,35.9741808],[139.0757735,35.9742141],[139.0757003,35.9742835],[139.0757089,35.9742895],[139.0756894,35.974308],[139.0756813,35.9743023],[139.0756552,35.974327]]]},"properties":{"layer":"building","height_m":3.6}},{"type":"Feature","id":"bldg_4fc11a69-9b6c-4a06-bd97-7a8401957ea9","geometry":{"type":"Polygon","coordinates":[[[139.0757023,35.9745953],[139.0756126,35.9745613],[139.0756353,35.9745218],[139.0756249,35.9745178],[139.0756382,35.9744945],[139.0756485,35.9744984],[139.0756668,35.9744665],[139.0757565,35.9745005],[139.0757395,35.9745302],[139.0757453,35.9745324],[139.0757256,35.9745667],[139.0757199,35.9745645],[139.0757023,35.9745953]]]},"properties":{"layer":"building","height_m":5.5}},{"type":"Feature","id":"bldg_62225b45-0280-4cc6-b22a-4f3848dda32e","geometry":{"type":"Polygon","coordinates":[[[139.0756643,35.9747896],[139.0756348,35.9747739],[139.0756581,35.9747451],[139.0756875,35.9747608],[139.0756643,35.9747896]]]},"properties":{"layer":"building","height_m":3.4}},{"type":"Feature","id":"bldg_bec69133-63fd-4803-93af-a641e1f400e0","geometry":{"type":"Polygon","coordinates":[[[139.0757189,35.9748184],[139.0756691,35.9747935],[139.0756983,35.9747549],[139.0757482,35.9747799],[139.0757189,35.9748184]]]},"properties":{"layer":"building","height_m":3.4}},{"type":"Feature","id":"bldg_a2910350-31c8-4c22-a121-5ae534aeae05","geometry":{"type":"Polygon","coordinates":[[[139.0757416,35.9744875],[139.0756733,35.9744619],[139.0757006,35.9744141],[139.0757688,35.9744398],[139.0757416,35.9744875]]]},"properties":{"layer":"building","height_m":null}},{"type":"Feature","id":"bldg_0c9bb7ac-6f42-4dc0-a525-02a0698eb924","geometry":{"type":"Polygon","coordinates":[[[139.0757597,35.9744235],[139.0757643,35.9744146],[139.0757063,35.9743947],[139.075716,35.9743761],[139.0757488,35.9743399],[139.0758267,35.9743667],[139.0758316,35.9743572],[139.0759255,35.9743894],[139.0758854,35.9744666],[139.0757597,35.9744235]]]},"properties":{"layer":"building","height_m":9.2}},{"type":"Feature","id":"bldg_869633a7-4ab2-4571-bf73-d2dea88f2ad8","geometry":{"type":"Polygon","coordinates":[[[139.0757354,35.9745778],[139.0757601,35.9745375],[139.0758151,35.9745598],[139.0757904,35.9746001],[139.0757354,35.9745778]]]},"properties":{"layer":"building","height_m":3.1}},{"type":"Feature","id":"bldg_793d57fa-1291-4de0-8828-de51dff145d4","geometry":{"type":"Polygon","coordinates":[[[139.0757714,35.9748318],[139.0757372,35.9748153],[139.0757473,35.9748016],[139.0757406,35.9747983],[139.0757715,35.9747569],[139.0757799,35.9747611],[139.0757842,35.9747554],[139.075818,35.974772],[139.0758239,35.9747641],[139.075901,35.9748019],[139.0759021,35.9748005],[139.075927,35.9748127],[139.0759242,35.9748165],[139.0759313,35.9748201],[139.0758896,35.9748763],[139.0758817,35.9748725],[139.075865,35.974895],[139.0758133,35.9748696],[139.0758164,35.9748655],[139.0757652,35.9748404],[139.0757714,35.9748318]]]},"properties":{"layer":"building","height_m":7.9}},{"type":"Feature","id":"bldg_e2837a51-5d54-4e63-8774-84114ada98c3","geometry":{"type":"Polygon","coordinates":[[[139.0758049,35.97467],[139.0758095,35.9746495],[139.0757979,35.9746478],[139.0758129,35.9745813],[139.075825,35.9745831],[139.0758273,35.9745726],[139.0759422,35.9745898],[139.0759201,35.9746873],[139.0758049,35.97467]]]},"properties":{"layer":"building","height_m":9.3}},{"type":"Feature","id":"bldg_88e46e3c-9b78-4a50-be72-0bfc71675887","geometry":{"type":"Polygon","coordinates":[[[139.0758223,35.974751],[139.0758028,35.9747443],[139.0758114,35.9747278],[139.0758309,35.9747345],[139.0758223,35.974751]]]},"properties":{"layer":"building","height_m":3.0}},{"type":"Feature","id":"bldg_be2da035-1fcb-4dcd-8885-edc0b183d6bb","geometry":{"type":"Polygon","coordinates":[[[139.0758863,35.9749711],[139.075922,35.9749351],[139.0759735,35.9749689],[139.0759378,35.9750049],[139.0758863,35.9749711]]]},"properties":{"layer":"building","height_m":4.4}},{"type":"Feature","id":"bldg_134aa7c2-7b95-4f19-b4c5-a543ba413be5","geometry":{"type":"Polygon","coordinates":[[[139.0758978,35.9744752],[139.0759101,35.9744515],[139.0759561,35.9744672],[139.0759438,35.9744909],[139.0758978,35.9744752]]]},"properties":{"layer":"building","height_m":null}},{"type":"Feature","id":"bldg_f18fb5d5-2e94-48f3-a2f8-6eb8c3de5bc0","geometry":{"type":"Polygon","coordinates":[[[139.0759589,35.9749386],[139.0759344,35.9749254],[139.0759446,35.9749129],[139.0759691,35.974926],[139.0759589,35.9749386]]]},"properties":{"layer":"building","height_m":null}},{"type":"Feature","id":"bldg_bc2f1276-493f-47bc-959b-a957da0a841b","geometry":{"type":"Polygon","coordinates":[[[139.0759861,35.9749841],[139.0760137,35.9749203],[139.0761398,35.9749565],[139.0761122,35.9750202],[139.0759861,35.9749841]]]},"properties":{"layer":"building","height_m":7.8}},{"type":"Feature","id":"bldg_dcf0c2cc-c82d-4c92-8075-f17c5bd778fd","geometry":{"type":"Polygon","coordinates":[[[139.0760119,35.9746102],[139.0761,35.9746003],[139.0761106,35.974664],[139.076022,35.9746737],[139.0760174,35.9746459],[139.076008,35.974647],[139.0760062,35.9746363],[139.0760162,35.9746353],[139.0760119,35.9746102]]]},"properties":{"layer":"building","height_m":8.6}},{"type":"Feature","id":"bldg_52f308dc-0593-4fba-9963-54867a4659c5","geometry":{"type":"Polygon","coordinates":[[[139.0762375,35.9749605],[139.0760282,35.9748964],[139.0760709,35.9748043],[139.0760839,35.9748083],[139.0760861,35.9748038],[139.0762872,35.9748655],[139.0762598,35.9749246],[139.0762549,35.9749231],[139.0762375,35.9749605]]]},"properties":{"layer":"building","height_m":6.5}},{"type":"Feature","id":"bldg_bf9bb324-094a-4ce1-ac9e-515604299fa9","geometry":{"type":"Polygon","coordinates":[[[139.0761015,35.9745932],[139.0760943,35.9745504],[139.0761203,35.9745475],[139.0761276,35.9745902],[139.0761015,35.9745932]]]},"properties":{"layer":"building","height_m":null}},{"type":"Feature","id":"bldg_9853d550-e4d7-4acc-9428-29f112d8caa7","geometry":{"type":"Polygon","coordinates":[[[139.0760976,35.9745449],[139.076095,35.9745318],[139.0761209,35.9745281],[139.0761236,35.9745414],[139.0760976,35.9745449]]]},"properties":{"layer":"building","height_m":null}},{"type":"Feature","id":"bldg_fe38bfc1-bba7-45f8-8f66-656f3364c2f7","geometry":{"type":"Polygon","coordinates":[[[139.0761538,35.9746416],[139.0761377,35.9745808],[139.0761931,35.9745702],[139.0761948,35.9745765],[139.076227,35.9745704],[139.0762314,35.9745854],[139.0762595,35.9745801],[139.0762784,35.9746457],[139.0761935,35.9746619],[139.0761945,35.9746652],[139.0761538,35.9746726],[139.0761459,35.974643],[139.0761538,35.9746416]]]},"properties":{"layer":"building","height_m":7.8}},{"type":"Feature","id":"bldg_d379703e-70ce-4b2a-be32-4112ec60eb28","geometry":{"type":"Polygon","coordinates":[[[139.0761394,35.9749544],[139.0761476,35.9749389],[139.0761877,35.974953],[139.0761794,35.9749685],[139.0761394,35.9749544]]]},"properties":{"layer":"building","height_m":3.7}},{"type":"Feature","id":"bldg_91113dbe-f724-4f7a-8ea5-c4f6ac744887","geometry":{"type":"Polygon","coordinates":[[[139.0762821,35.9744653],[139.0762783,35.9744137],[139.076416,35.974407],[139.0764198,35.9744586],[139.0762821,35.9744653]]]},"properties":{"layer":"building","height_m":7.8}},{"type":"Feature","id":"bldg_47c225c6-d83f-4454-80c7-8e78d552b20e","geometry":{"type":"Polygon","coordinates":[[[139.0763192,35.9748348],[139.0762777,35.9748202],[139.0762986,35.9747745],[139.0763457,35.9747887],[139.0763382,35.9748032],[139.0763701,35.9748017],[139.0763692,35.9748152],[139.0764245,35.9748163],[139.0764237,35.9748423],[139.0764912,35.9748417],[139.0764948,35.9749073],[139.0764055,35.9749096],[139.0764049,35.9748833],[139.0763431,35.974884],[139.0763432,35.9748765],[139.0763187,35.9748764],[139.0763192,35.9748348]]]},"properties":{"layer":"building","height_m":5.1}},{"type":"Feature","id":"bldg_ca0a7e1a-08ed-49f0-a22f-d20f44c1d7bc","geometry":{"type":"Polygon","coordinates":[[[139.0764263,35.9746114],[139.0763582,35.9746326],[139.0763149,35.9745411],[139.076383,35.9745198],[139.0764263,35.9746114]]]},"properties":{"layer":"building","height_m":5.1}},{"type":"Feature","id":"bldg_5ad5e9d8-c948-4852-b537-6040fa3808d6","geometry":{"type":"Polygon","coordinates":[[[139.0763531,35.9747511],[139.0763726,35.974708],[139.0763943,35.9747145],[139.0763712,35.9747566],[139.0763531,35.9747511]]]},"properties":{"layer":"building","height_m":3.3}},{"type":"Feature","id":"bldg_15a857e5-e945-4edc-99ee-931e54c62489","geometry":{"type":"Polygon","coordinates":[[[139.0765015,35.9748237],[139.0763655,35.9747669],[139.0763712,35.9747566],[139.0763943,35.9747145],[139.0763951,35.9747129],[139.0764068,35.9747175],[139.0764076,35.9747162],[139.0765119,35.9747566],[139.0765098,35.97476],[139.0765286,35.9747673],[139.0765071,35.9748041],[139.0765111,35.9748057],[139.0765015,35.9748237]]]},"properties":{"layer":"building","height_m":7.7}},{"type":"Feature","id":"bldg_14f1e09f-819a-4a92-b455-9dfeeaed7e0c","geometry":{"type":"Polygon","coordinates":[[[139.0764319,35.9746128],[139.0764035,35.9745526],[139.0765529,35.974506],[139.0765813,35.9745661],[139.0764319,35.9746128]]]},"properties":{"layer":"building","height_m":5.0}},{"type":"Feature","id":"bldg_e32b1b91-b5cf-4daf-b126-02e891f5b6aa","geometry":{"type":"Polygon","coordinates":[[[139.0764652,35.9745248],[139.0764414,35.9744745],[139.0765019,35.9744556],[139.0765185,35.9744907],[139.0766017,35.9744648],[139.0766447,35.9744491],[139.0767001,35.9744979],[139.0766661,35.9745214],[139.0766088,35.9744799],[139.0765582,35.9744957],[139.0764652,35.9745248]]]},"properties":{"layer":"building","height_m":5.8}},{"type":"Feature","id":"bldg_d627fe01-17a5-4c66-adab-6ffd0ddce527","geometry":{"type":"Polygon","coordinates":[[[139.0764972,35.9746447],[139.0764835,35.9746884],[139.0764654,35.9746849],[139.0764786,35.974641],[139.0764972,35.9746447]]]},"properties":{"layer":"building","height_m":4.4}},{"type":"Feature","id":"bldg_1d9e139d-8941-46b5-a1e0-1b1142e45e2d","geometry":{"type":"Polygon","coordinates":[[[139.0765138,35.9744737],[139.0764849,35.9744135],[139.076502,35.9744075],[139.0764971,35.9743958],[139.0765528,35.974378],[139.0765551,35.9743837],[139.0765674,35.9743812],[139.0765874,35.9744008],[139.0765965,35.9743993],[139.0766151,35.9744395],[139.0765138,35.9744737]]]},"properties":{"layer":"building","height_m":7.0}},{"type":"Feature","id":"bldg_6f397086-f37f-49ff-9b67-ca8312c8a7f1","geometry":{"type":"Polygon","coordinates":[[[139.0765196,35.9746996],[139.0764824,35.9746918],[139.0764835,35.9746884],[139.0764972,35.9746447],[139.0764975,35.9746438],[139.0765096,35.9746462],[139.0765144,35.9746308],[139.0765441,35.9746369],[139.0765495,35.9746196],[139.0765809,35.9746261],[139.0765794,35.974631],[139.0765845,35.974632],[139.0765576,35.9747177],[139.0765165,35.9747093],[139.0765196,35.9746996]]]},"properties":{"layer":"building","height_m":7.8}},{"type":"Feature","id":"bldg_af1a2083-0b78-45e0-a245-4490e851c3b0","geometry":{"type":"Polygon","coordinates":[[[139.0765849,35.9747462],[139.0766013,35.9747028],[139.076625,35.9747087],[139.0766086,35.9747521],[139.0765849,35.9747462]]]},"properties":{"layer":"building","height_m":null}},{"type":"Feature","id":"bldg_c671781e-48bc-4dda-9cf9-80833af3b8a6","geometry":{"type":"Polygon","coordinates":[[[139.0767417,35.9695758],[139.076681,35.9694618],[139.076926,35.9693757],[139.0769866,35.9694897],[139.0767417,35.9695758]]]},"properties":{"layer":"building","height_m":9.4}},{"type":"Feature","id":"bldg_80cd19e9-e520-4554-b568-3d2432adfb82","geometry":{"type":"Polygon","coordinates":[[[139.0766999,35.974911],[139.0766419,35.9748975],[139.0766588,35.9748492],[139.0767168,35.9748627],[139.0766999,35.974911]]]},"properties":{"layer":"building","height_m":3.2}},{"type":"Feature","id":"bldg_9b0ebcbc-606d-423f-bd47-839460f2dec1","geometry":{"type":"Polygon","coordinates":[[[139.0767615,35.9747784],[139.0766974,35.974748],[139.0767499,35.9746747],[139.0768141,35.9747052],[139.0767615,35.9747784]]]},"properties":{"layer":"building","height_m":7.8}},{"type":"Feature","id":"bldg_44caa238-b600-4646-94af-7be328389f0c","geometry":{"type":"Polygon","coordinates":[[[139.0770186,35.9691515],[139.0769695,35.9691859],[139.0768323,35.9690564],[139.0768815,35.969022],[139.0770186,35.9691515]]]},"properties":{"layer":"building","height_m":4.0}},{"type":"Feature","id":"bldg_f64e5913-3eeb-49ff-a7be-a6262a94fbbe","geometry":{"type":"Polygon","coordinates":[[[139.0768975,35.9748865],[139.0768308,35.9748548],[139.0768987,35.9747603],[139.0769654,35.9747919],[139.0768975,35.9748865]]]},"properties":{"layer":"building","height_m":8.0}},{"type":"Feature","id":"bldg_4e5f77eb-8544-4666-9718-0f66abea5cbc","geometry":{"type":"Polygon","coordinates":[[[139.0769375,35.969208],[139.0770587,35.9691671],[139.0771868,35.9694179],[139.0770656,35.9694588],[139.0769375,35.969208]]]},"properties":{"layer":"building","height_m":7.5}},{"type":"Feature","id":"bldg_35a93f7f-c0d3-4c1c-8cbb-6945e516a6e5","geometry":{"type":"Polygon","coordinates":[[[139.0769735,35.9748353],[139.0769649,35.9748315],[139.0769729,35.9748193],[139.0770351,35.9748462],[139.0770398,35.9748391],[139.077106,35.9748677],[139.0770523,35.9749498],[139.0770089,35.974931],[139.0770129,35.974925],[139.0769365,35.9748919],[139.0769735,35.9748353]]]},"properties":{"layer":"building","height_m":8.4}},{"type":"Feature","id":"bldg_f5d873cf-c77c-4462-8d3f-16d1764faef7","geometry":{"type":"Polygon","coordinates":[[[139.0783343,35.9749344],[139.0783397,35.9748838],[139.0783917,35.9748875],[139.0783865,35.9749381],[139.0783343,35.9749344]]]},"properties":{"layer":"building","height_m":null}}]}