{"type":"FeatureCollection","properties":{"mesh_code":"53397073","source":"PLATEAU秩父市2025","layer":"building"},"features":[{"type":"Feature","id":"bldg_d216812f-6a64-443e-acf3-3cee767b7ffd","geometry":{"type":"Polygon","coordinates":[[[139.04781800296362,35.97659173734818],[139.04784524317387,35.97659103240795],[139.04784572117484,35.9766032211262],[139.04787519073687,35.976602458669845],[139.04787773193092,35.97666717068799],[139.04782102210814,35.976668638085236],[139.04781800296362,35.97659173734818]]]},"properties":{"layer":"building","height_m":4.1}},{"type":"Feature","id":"bldg_ed26b8a5-fd4a-4fa8-9569-2d2566afd755","geometry":{"type":"Polygon","coordinates":[[[139.04988485862387,35.97744867944965],[139.04989435813016,35.977401900866525],[139.04988057113093,35.97740005330508],[139.0498851516925,35.97737751463832],[139.0499641637897,35.97738811609447],[139.04996665789284,35.977375856659094],[139.04999907113046,35.97738020525249],[139.05000099449336,35.97737071809717],[139.0500448470458,35.977376601469345],[139.050042445754,35.97738844691386],[139.0500481598685,35.97738921427141],[139.05003207485979,35.9774684327616],[139.04988485862387,35.97744867944965]]]},"properties":{"layer":"building","height_m":7.1}},{"type":"Feature","id":"bldg_584aa289-04ba-4761-95d9-8ce094ea1d61","geometry":{"type":"Polygon","coordinates":[[[139.04976941114913,35.977446880048376],[139.04976967526605,35.97738314176885],[139.04984681633235,35.97738334809593],[139.04984677102087,35.977395785753515],[139.04987975860774,35.97739587497601],[139.0498795233535,35.9774544580031],[139.04983454932727,35.97745433557323],[139.04983457695147,35.977447053241804],[139.04976941114913,35.977446880048376]]]},"properties":{"layer":"building","height_m":4.2}},{"type":"Feature","id":"bldg_cb577191-297e-4baa-b853-deb681101d91","geometry":{"type":"Polygon","coordinates":[[[139.0496226694094,35.97744307352788],[139.04962533176908,35.97737230274078],[139.04975215360346,35.97737546542459],[139.0497494913568,35.977446236215876],[139.0496226694094,35.97744307352788]]]},"properties":{"layer":"building","height_m":7.4}},{"type":"Feature","id":"bldg_79fd6937-82d1-4e0b-906e-8df38d7ccff1","geometry":{"type":"Polygon","coordinates":[[[139.04931401758344,35.98253283737881],[139.04928323630074,35.98248213637535],[139.0492959952283,35.982477019253196],[139.04928357794967,35.98245656872174],[139.04933262075957,35.98243689837179],[139.0493758193612,35.98250804988653],[139.04931401758344,35.98253283737881]]]},"properties":{"layer":"building","height_m":5.5}},{"type":"Feature","id":"bldg_ef957ece-289c-4107-8668-e8dbb7d377fa","geometry":{"type":"Polygon","coordinates":[[[139.0493084034799,35.98274948226391],[139.04925718292773,35.98268100924108],[139.04924336442932,35.98268785894328],[139.04920888746616,35.98264193769888],[139.0492420963786,35.982625480685144],[139.04922830666942,35.982607004039345],[139.04930107702324,35.9825708868243],[139.0493505465511,35.982637005006886],[139.04936347348794,35.98263060011641],[139.0494132721965,35.98269708094408],[139.04939065093478,35.98270819938639],[139.04939098002654,35.982708562056814],[139.0493084034799,35.98274948226391]]]},"properties":{"layer":"building","height_m":8.1}},{"type":"Feature","id":"bldg_c03cbfd0-78b6-4438-b169-7e39d6b95446","geometry":{"type":"Polygon","coordinates":[[[139.04927426731894,35.98276998908636],[139.0492068118452,35.98279568593805],[139.049176068105,35.982742308293034],[139.04919977686455,35.98273336011949],[139.0491768831762,35.98269355328255],[139.04922062894516,35.98267689475323],[139.04927426731894,35.98276998908636]]]},"properties":{"layer":"building","height_m":7.9}},{"type":"Feature","id":"bldg_c0a2308b-44bc-4edf-89f4-fef516f679a3","geometry":{"type":"Polygon","coordinates":[[[139.04913001418987,35.97726498414529],[139.0492391354232,35.977207923917604],[139.04927505686527,35.97725331383907],[139.04916582471577,35.97731037337389],[139.04913001418987,35.97726498414529]]]},"properties":{"layer":"building","height_m":8.9}},{"type":"Feature","id":"bldg_de375dcd-e063-4407-bc6c-bdf751eadc4d","geometry":{"type":"Polygon","coordinates":[[[139.04911664378216,35.977305094777975],[139.04916449717746,35.97732127043892],[139.049146293598,35.977356752851584],[139.04909844107686,35.97734048705899],[139.04911664378216,35.977305094777975]]]},"properties":{"layer":"building","height_m":5.7}},{"type":"Feature","id":"bldg_b58a1845-7ec9-4443-a008-69da823e6001","geometry":{"type":"Polygon","coordinates":[[[139.04908740357857,35.97722324579244],[139.0491237469099,35.97720356458765],[139.04915004205824,35.97723564250417],[139.04911358784022,35.97725532299198],[139.04908740357857,35.97722324579244]]]},"properties":{"layer":"building","height_m":5.4}},{"type":"Feature","id":"bldg_282f7b65-7520-4aaa-a55b-dee74f2a6592","geometry":{"type":"Polygon","coordinates":[[[139.0489310168285,35.98273219811663],[139.04895827289798,35.98271665764039],[139.0489962509192,35.9827606460225],[139.04896899484172,35.98277618650716],[139.0489310168285,35.98273219811663]]]},"properties":{"layer":"building","height_m":3.6}},{"type":"Feature","id":"bldg_ee41cdc4-941a-463b-86cb-1b5191c5e324","geometry":{"type":"Polygon","coordinates":[[[139.04895410294088,35.982712214007314],[139.04893444951287,35.98272710117488],[139.04891295534324,35.98270836682238],[139.0489326088597,35.982693470645884],[139.04895410294088,35.982712214007314]]]},"properties":{"layer":"building","height_m":null}},{"type":"Feature","id":"bldg_1d871633-8d7f-407b-b5a0-c5c5d8b6e806","geometry":{"type":"Polygon","coordinates":[[[139.04891302910403,35.982787186000266],[139.04897787770594,35.98285682982387],[139.04893469987752,35.98288331614761],[139.04886996217877,35.982813673026214],[139.04891302910403,35.982787186000266]]]},"properties":{"layer":"building","height_m":3.9}},{"type":"Feature","id":"bldg_c4ccd1d1-132d-4fd2-855f-134e9d534184","geometry":{"type":"Polygon","coordinates":[[[139.0488779233027,35.98335378408182],[139.04883975730513,35.98329963678469],[139.04893289387218,35.98325626231108],[139.0489710599136,35.983310409579474],[139.0488779233027,35.98335378408182]]]},"properties":{"layer":"building","height_m":4.3}},{"type":"Feature","id":"bldg_f8048a20-e71e-4e6f-bb7c-fd466641710c","geometry":{"type":"Polygon","coordinates":[[[139.04891413239034,35.977398227311404],[139.04905711688218,35.9774489138382],[139.04902571215646,35.97750738324326],[139.04896714804698,35.97748663100327],[139.0489547204326,35.977509893452314],[139.04891825624665,35.977496946721296],[139.04892401718067,35.97748625890404],[139.04887606088565,35.97746927130371],[139.04891413239034,35.977398227311404]]]},"properties":{"layer":"building","height_m":8.7}},{"type":"Feature","id":"bldg_b067ff10-c1fd-47c8-baca-03b0d55e035d","geometry":{"type":"Polygon","coordinates":[[[139.04891479192767,35.97755568889061],[139.04889326538773,35.97759078901732],[139.04880590374196,35.97755551773392],[139.04882743120234,35.97752032749878],[139.04891479192767,35.97755568889061]]]},"properties":{"layer":"building","height_m":6.2}},{"type":"Feature","id":"bldg_33a8f878-ec00-4e1b-825b-ec284fe373c9","geometry":{"type":"Polygon","coordinates":[[[139.0487841826885,35.98129274484067],[139.04874380558738,35.98129291342607],[139.04874351150727,35.98124756708342],[139.04878387758612,35.98124738941291],[139.0487841826885,35.98129274484067]]]},"properties":{"layer":"building","height_m":5.7}},{"type":"Feature","id":"bldg_32bcfe1c-baeb-4e69-bb01-9f6defe992fd","geometry":{"type":"Polygon","coordinates":[[[139.04885471779835,35.982729301788474],[139.04889468420092,35.98276958083421],[139.04881186620406,35.98282365810003],[139.04884184102065,35.982853867396045],[139.0487666113341,35.982903127226784],[139.0487152278785,35.98285114670286],[139.04878342444493,35.982806617803135],[139.04876497849457,35.98278802052656],[139.04885471779835,35.982729301788474]]]},"properties":{"layer":"building","height_m":7.3}},{"type":"Feature","id":"bldg_2235478d-0ab4-4a05-9538-6ca59ea954da","geometry":{"type":"Polygon","coordinates":[[[139.0487747395831,35.98315743713041],[139.0488800565306,35.98326150490621],[139.04877824808358,35.98332951825122],[139.0486977506367,35.98324994781081],[139.04874206883812,35.98322031448311],[139.048717360266,35.9831958177942],[139.0487747395831,35.98315743713041]]]},"properties":{"layer":"building","height_m":7.0}},{"type":"Feature","id":"bldg_f7dee95e-2e86-4b7b-aff0-bbde6f099e6d","geometry":{"type":"Polygon","coordinates":[[[139.0487651435346,35.982032011030356],[139.04883104859974,35.98207327088941],[139.0487758006339,35.98213167439382],[139.04877139199638,35.9821289416638],[139.048754359036,35.98214685628265],[139.0486994746427,35.98211251833817],[139.04871774251032,35.98209307959271],[139.0487112404454,35.982088981219654],[139.0487651435346,35.982032011030356]]]},"properties":{"layer":"building","height_m":5.5}},{"type":"Feature","id":"bldg_40e9a57c-f547-4554-a40c-9614018e5924","geometry":{"type":"Polygon","coordinates":[[[139.04869991330924,35.98193379337452],[139.04875469790193,35.98191098823183],[139.04878057166553,35.98195216658964],[139.04872578705138,35.98197497174374],[139.04869991330924,35.98193379337452]]]},"properties":{"layer":"building","height_m":null}},{"type":"Feature","id":"bldg_b1883f8b-540b-48eb-874c-b6af464ecbbe","geometry":{"type":"Polygon","coordinates":[[[139.0486018032942,35.982390020769536],[139.04868246240073,35.98234115706475],[139.04878076204216,35.98244824346108],[139.04870021287806,35.982497198079855],[139.0486018032942,35.982390020769536]]]},"properties":{"layer":"building","height_m":5.5}},{"type":"Feature","id":"bldg_2cff3931-186d-46a2-bcd1-58b6f87165d2","geometry":{"type":"Polygon","coordinates":[[[139.04863222850148,35.97763676089773],[139.04867896604964,35.97757523731978],[139.04885495238915,35.97766381428307],[139.04880821581472,35.97772524780547],[139.04863222850148,35.97763676089773]]]},"properties":{"layer":"building","height_m":12.3}},{"type":"Feature","id":"bldg_539877b3-1d5c-407e-8c66-ae84abffbe0d","geometry":{"type":"Polygon","coordinates":[[[139.04883338908212,35.98272186179419],[139.0486889366864,35.9828297040776],[139.04863781995513,35.9827843948856],[139.04867155824635,35.98275928901265],[139.04858086533608,35.98267911102964],[139.0485874575719,35.98267410686833],[139.04857646447712,35.98266439105198],[139.04859836139417,35.98264804048528],[139.04856241408967,35.98261625985174],[139.04866184476688,35.98254192202548],[139.04870460810213,35.982579695786946],[139.04867690234056,35.98260033462356],[139.04868569735453,35.98260805319495],[139.04869597646586,35.98260027910949],[139.04883338908212,35.98272186179419]]]},"properties":{"layer":"building","height_m":8.4}},{"type":"Feature","id":"bldg_f60f5c24-3347-4c40-88bc-82b49fef8da5","geometry":{"type":"Polygon","coordinates":[[[139.048660068266,35.98235173607526],[139.04858856664998,35.98238290405],[139.048543880265,35.982315374762585],[139.04861527184374,35.98228411596415],[139.048660068266,35.98235173607526]]]},"properties":{"layer":"building","height_m":7.5}},{"type":"Feature","id":"bldg_fd00790b-f7cd-49ae-b5b1-133761e67512","geometry":{"type":"Polygon","coordinates":[[[139.04862630303222,35.97752964760136],[139.04865957834025,35.977573488185804],[139.04861890331844,35.97759386195746],[139.04858562802477,35.97755002136207],[139.04862630303222,35.97752964760136]]]},"properties":{"layer":"building","height_m":4.1}},{"type":"Feature","id":"bldg_d3d5d639-42bb-4d0a-8e16-2f85a0c8962a","geometry":{"type":"Polygon","coordinates":[[[139.04854146651863,35.98270472063058],[139.04850836743663,35.982676473682496],[139.04854144486904,35.98265091287257],[139.04857454395255,35.982679159811646],[139.04854146651863,35.98270472063058]]]},"properties":{"layer":"building","height_m":4.5}},{"type":"Feature","id":"bldg_2c113577-e45d-42d5-adc5-fbd5df8fd6f4","geometry":{"type":"Polygon","coordinates":[[[139.048509578288,35.98254299905635],[139.0485345532159,35.982618961768196],[139.04847131911603,35.982632698528164],[139.04844645602307,35.98255664640525],[139.048509578288,35.98254299905635]]]},"properties":{"layer":"building","height_m":7.4}},{"type":"Feature","id":"bldg_1a0c437f-52ec-4856-a2b8-5fcc9ec07e94","geometry":{"type":"Polygon","coordinates":[[[139.04852429885796,35.982824688542266],[139.04846405061542,35.98286499712894],[139.04840385852003,35.98280557719916],[139.0484641068361,35.98276525962974],[139.04852429885796,35.982824688542266]]]},"properties":{"layer":"building","height_m":5.4}},{"type":"Feature","id":"bldg_1b3834b0-fc89-423d-8056-bc2a4214acbf","geometry":{"type":"Polygon","coordinates":[[[139.0484625673415,35.98180317472897],[139.0484857183257,35.981861730432236],[139.04844603028926,35.98189418799713],[139.0483984994026,35.981856382951015],[139.0484625673415,35.98180317472897]]]},"properties":{"layer":"building","height_m":3.8}},{"type":"Feature","id":"bldg_edf74d34-d813-4598-b8a7-47a88d3b17d4","geometry":{"type":"Polygon","coordinates":[[[139.0484396453766,35.98255011248857],[139.04839229894762,35.982448857119586],[139.04859707894715,35.9823855734979],[139.04864442560304,35.9824868287899],[139.0484396453766,35.98255011248857]]]},"properties":{"layer":"building","height_m":9.6}},{"type":"Feature","id":"bldg_1a87c34d-4452-4c9e-bbfa-036af28eaeed","geometry":{"type":"Polygon","coordinates":[[[139.04838104551746,35.98329733046778],[139.04834432170765,35.983259956630576],[139.0484115228399,35.9832163407615],[139.04844824666193,35.983253714578545],[139.04838104551746,35.98329733046778]]]},"properties":{"layer":"building","height_m":6.2}},{"type":"Feature","id":"bldg_61ea5d2e-6a1b-41a9-922a-dff6700ef0e7","geometry":{"type":"Polygon","coordinates":[[[139.04842064898338,35.98107547005285],[139.04842846170948,35.98106590429013],[139.0483384451376,35.981017303090134],[139.04840916328226,35.98093076324452],[139.04846805288787,35.98096255881809],[139.04848307194808,35.98094418942392],[139.04853077709035,35.98096994519327],[139.0484910515738,35.98101855383767],[139.04864967547073,35.98110420545997],[139.04859584010865,35.981170071886545],[139.04842064898338,35.98107547005285]]]},"properties":{"layer":"building","height_m":9.1}},{"type":"Feature","id":"bldg_1a6ffe1e-a3c2-45e7-bcd1-01bdab8a6287","geometry":{"type":"Polygon","coordinates":[[[139.04848017174712,35.976900845572224],[139.04837225897649,35.97684705300107],[139.04843158497496,35.9767683970176],[139.0485394976808,35.976822189535255],[139.04848017174712,35.976900845572224]]]},"properties":{"layer":"building","height_m":5.9}},{"type":"Feature","id":"bldg_480daaf0-3861-4d01-ac0e-43f41b2a0dbb","geometry":{"type":"Polygon","coordinates":[[[139.04831347432227,35.98130486180708],[139.04839643007506,35.98122554935709],[139.0484746274342,35.98127959816691],[139.048391671701,35.98135891067053],[139.04831347432227,35.98130486180708]]]},"properties":{"layer":"building","height_m":10.6}},{"type":"Feature","id":"bldg_40fdeb8f-2ca2-4403-93ce-83259ab895c5","geometry":{"type":"Polygon","coordinates":[[[139.04835758438733,35.98167682861974],[139.04830077760477,35.98163062581724],[139.0483221854848,35.98161324461466],[139.0483072578323,35.98160109655738],[139.04833639046825,35.98157743876832],[139.04840812499364,35.9816357805885],[139.04835758438733,35.98167682861974]]]},"properties":{"layer":"building","height_m":3.7}},{"type":"Feature","id":"bldg_383d96fb-415b-4867-8094-ad1f88f94a03","geometry":{"type":"Polygon","coordinates":[[[139.048351224296,35.98282280818318],[139.04845057717145,35.98291313755251],[139.04836032597743,35.98297870251466],[139.0482660292484,35.982892912657405],[139.0483055703785,35.98286414952978],[139.04830062514114,35.982859610671404],[139.048351224296,35.98282280818318]]]},"properties":{"layer":"building","height_m":8.6}},{"type":"Feature","id":"bldg_c207a79c-dc55-4a59-aecf-2b4c268213b7","geometry":{"type":"Polygon","coordinates":[[[139.0483690914258,35.97749614919253],[139.04829977016968,35.97748673671934],[139.04831451845968,35.977415026575336],[139.04838006576026,35.977442737796416],[139.0483690914258,35.97749614919253]]]},"properties":{"layer":"building","height_m":5.2}},{"type":"Feature","id":"bldg_8b350ec5-1c5d-4bda-a872-b8c739ac31b0","geometry":{"type":"Polygon","coordinates":[[[139.04844182080743,35.98150182446195],[139.04838126232954,35.981570197482085],[139.0482476356831,35.981492081719296],[139.0483083050981,35.981423709491956],[139.04844182080743,35.98150182446195]]]},"properties":{"layer":"building","height_m":7.6}},{"type":"Feature","id":"bldg_cce11fa6-774b-4f7d-b7e1-8c798867b2b2","geometry":{"type":"Polygon","coordinates":[[[139.0481771188287,35.981838080070936],[139.04820142291612,35.98182499000747],[139.04822432193546,35.98185299003405],[139.04820001784304,35.98186608010202],[139.0481771188287,35.981838080070936]]]},"properties":{"layer":"building","height_m":3.4}},{"type":"Feature","id":"bldg_4a71a0b7-a993-4dae-a16b-8f85f271e28f","geometry":{"type":"Polygon","coordinates":[[[139.04823427443503,35.98309838153175],[139.04836872825706,35.98322760642781],[139.04828375972576,35.98328599548955],[139.0481494177262,35.98315668110152],[139.04823427443503,35.98309838153175]]]},"properties":{"layer":"building","height_m":7.8}},{"type":"Feature","id":"bldg_3b427c66-310d-4257-93ba-20a0d415c526","geometry":{"type":"Polygon","coordinates":[[[139.04823400614777,35.9774047747376],[139.04830494108143,35.97743038517011],[139.04827580336632,35.97748382192371],[139.04820486839495,35.97745821147372],[139.04823400614777,35.9774047747376]]]},"properties":{"layer":"building","height_m":5.9}},{"type":"Feature","id":"bldg_20c3ac54-eb4f-4ed8-bbc0-8720525bca50","geometry":{"type":"Polygon","coordinates":[[[139.04832407677526,35.983022178389746],[139.04826494960574,35.98309146199187],[139.04821135434867,35.983061278242474],[139.04819284203697,35.98308296855604],[139.04809601779297,35.9830284371373],[139.0481275447181,35.98299150991613],[139.04822106020632,35.983044217057206],[139.0482672836956,35.98299017114132],[139.04832407677526,35.983022178389746]]]},"properties":{"layer":"building","height_m":6.8}},{"type":"Feature","id":"bldg_8e890402-5a44-4ca7-9344-05ee2e17f890","geometry":{"type":"Polygon","coordinates":[[[139.04822723227588,35.97779090176917],[139.0481371615644,35.977703372878466],[139.04820049356653,35.977660326598496],[139.04821165209088,35.977671179174436],[139.04822280466644,35.97766360010852],[139.04827329312096,35.97771265479496],[139.04830106855187,35.97769377401799],[139.04832948131528,35.97772138650103],[139.04822723227588,35.97779090176917]]]},"properties":{"layer":"building","height_m":8.3}},{"type":"Feature","id":"bldg_1b6d6d91-6a1a-4175-8465-1256720f9eab","geometry":{"type":"Polygon","coordinates":[[[139.0481090282789,35.97651022689086],[139.048102519194,35.97642852642236],[139.04819948286746,35.97642339263308],[139.04820599205206,35.97650509309762],[139.0481090282789,35.97651022689086]]]},"properties":{"layer":"building","height_m":8.2}},{"type":"Feature","id":"bldg_3e46b4bb-c43e-4483-a821-f0eff4d223fd","geometry":{"type":"Polygon","coordinates":[[[139.0480887739756,35.97670792989991],[139.0481266624527,35.976688980148744],[139.0481451606048,35.97671334620054],[139.04810727212023,35.97673229595738],[139.0480887739756,35.97670792989991]]]},"properties":{"layer":"building","height_m":null}},{"type":"Feature","id":"bldg_6188a461-0864-49cc-9ae6-29d2de706216","geometry":{"type":"Polygon","coordinates":[[[139.04818807917246,35.97662763393241],[139.04816067040787,35.9766341602517],[139.04816721015098,35.976652319197214],[139.0481356779166,35.97665981897091],[139.04812778917105,35.976637919809505],[139.04810369257788,35.97664365662056],[139.04808174210706,35.97658273823957],[139.04811014007794,35.976575975060726],[139.04810297422773,35.9765560995426],[139.0481576137682,35.97654309983695],[139.04818807917246,35.97662763393241]]]},"properties":{"layer":"building","height_m":6.7}},{"type":"Feature","id":"bldg_77e5eca3-ab3f-44da-8f99-054556b5b992","geometry":{"type":"Polygon","coordinates":[[[139.0481705123528,35.9818445261978],[139.0482152551158,35.981895111551246],[139.0482281927331,35.98188762529182],[139.0482576921928,35.98192098617506],[139.0481535151411,35.98198195337117],[139.04812708654796,35.98195203750134],[139.04810477922845,35.981965050487744],[139.04808591688,35.98194374648046],[139.04805680540136,35.98196077077519],[139.04800493378275,35.98190220725885],[139.04807431124908,35.9818615620735],[139.04807080133645,35.98185766350985],[139.04811619746758,35.98183110187925],[139.0481425160253,35.98186092690167],[139.0481705123528,35.9818445261978]]]},"properties":{"layer":"building","height_m":6.8}},{"type":"Feature","id":"bldg_8b95a452-485d-4cba-b20d-06007aa03bdb","geometry":{"type":"Polygon","coordinates":[[[139.0480551303473,35.97738413604075],[139.0481498310466,35.97742846890549],[139.0481409475619,35.97744093885215],[139.04817803401357,35.97745821613482],[139.04814519507022,35.97750468861877],[139.0480648424206,35.977467119283574],[139.0480478613837,35.977491072876234],[139.04796022563903,35.97744994072983],[139.04798035414845,35.97742168150749],[139.04794017834232,35.977402851729956],[139.0479731291328,35.97735628990383],[139.04804950786024,35.977392030689316],[139.0480551303473,35.97738413604075]]]},"properties":{"layer":"building","height_m":8.0}},{"type":"Feature","id":"bldg_98309c9c-d5fc-4ba1-ad88-db8b47ea6273","geometry":{"type":"Polygon","coordinates":[[[139.04784729640988,35.981706854988815],[139.04786803130213,35.98174060923574],[139.04783095492638,35.98175568860094],[139.04781010916176,35.98172193362186],[139.04784729640988,35.981706854988815]]]},"properties":{"layer":"building","height_m":4.6}},{"type":"Feature","id":"bldg_5d22b220-0097-4de1-a652-2194f0e2a6d1","geometry":{"type":"Polygon","coordinates":[[[139.04783761302795,35.98243439317583],[139.0477966901547,35.982403417947424],[139.0478493874654,35.98235742713126],[139.04789031033613,35.98238840234191],[139.04783761302795,35.98243439317583]]]},"properties":{"layer":"building","height_m":3.3}},{"type":"Feature","id":"bldg_ad372a3e-8317-4411-b7a3-be0953992c91","geometry":{"type":"Polygon","coordinates":[[[139.04787290942105,35.9772870448667],[139.04797506674566,35.97735098491166],[139.04793326800993,35.9773952355683],[139.04783100157115,35.977331114513575],[139.04787290942105,35.9772870448667]]]},"properties":{"layer":"building","height_m":null}},{"type":"Feature","id":"bldg_a8417c45-7e85-4bf5-b91c-c519e509010b","geometry":{"type":"Polygon","coordinates":[[[139.0478188831806,35.976692021854504],[139.0478843685599,35.976666592235944],[139.04793011325762,35.976744448632815],[139.0478646500033,35.97676987842056],[139.0478188831806,35.976692021854504]]]},"properties":{"layer":"building","height_m":3.4}},{"type":"Feature","id":"bldg_b63e2503-46cb-48f1-b23a-c70ccbc497ca","geometry":{"type":"Polygon","coordinates":[[[139.04792408147256,35.98266435816189],[139.04785918905807,35.982733513695685],[139.04773596728472,35.982657177959204],[139.04780085974173,35.982588022491754],[139.04792408147256,35.98266435816189]]]},"properties":{"layer":"building","height_m":7.2}},{"type":"Feature","id":"bldg_e70f7187-d5c2-4d90-bd80-06aa53bbbc84","geometry":{"type":"Polygon","coordinates":[[[139.04771996544287,35.9820787990358],[139.04780116310747,35.98203156178925],[139.04784371125962,35.98207978952956],[139.04780590152302,35.982101713964944],[139.04785404232902,35.98215628741928],[139.04781065436066,35.98218160027555],[139.04771996544287,35.9820787990358]]]},"properties":{"layer":"building","height_m":4.7}},{"type":"Feature","id":"bldg_eeeaadb8-25d7-464c-b591-e53fbb5ab4aa","geometry":{"type":"Polygon","coordinates":[[[139.04776965889428,35.98232690083959],[139.047728932533,35.98235553886358],[139.0476654611376,35.98229589880487],[139.047706187401,35.98226726981447],[139.04776965889428,35.98232690083959]]]},"properties":{"layer":"building","height_m":null}},{"type":"Feature","id":"bldg_72e602b3-f177-449e-be3a-ac5a9b528d48","geometry":{"type":"Polygon","coordinates":[[[139.0477036967836,35.98190771586744],[139.0476635484793,35.981908264131604],[139.04766232376605,35.981852826151346],[139.0477024720423,35.981852277887235],[139.0477036967836,35.98190771586744]]]},"properties":{"layer":"building","height_m":4.3}},{"type":"Feature","id":"bldg_a40f5ce7-9070-466e-9c9b-cbf7625a614f","geometry":{"type":"Polygon","coordinates":[[[139.0477275335255,35.98174041037981],[139.0477022439343,35.98175223207359],[139.04772335252258,35.981781842811166],[139.04769438586013,35.98179544302588],[139.04770871341339,35.98181554570972],[139.04764610055963,35.981844968730414],[139.04760563434678,35.98178810207262],[139.04762992242908,35.981776634360806],[139.04759131628006,35.981722303519504],[139.04761348681848,35.981711903502934],[139.04758877003323,35.981677131704416],[139.04763767967353,35.981654108335675],[139.04766491107893,35.98169250179217],[139.04768630183534,35.98168245717564],[139.0477275335255,35.98174041037981]]]},"properties":{"layer":"building","height_m":7.5}},{"type":"Feature","id":"bldg_41ca8159-ab5c-4647-a784-804a0198ca21","geometry":{"type":"Polygon","coordinates":[[[139.04760027109646,35.98236264578297],[139.04768671909576,35.982401066512224],[139.0476568922203,35.982445485544964],[139.0475704432943,35.98240715491822],[139.04760027109646,35.98236264578297]]]},"properties":{"layer":"building","height_m":7.5}},{"type":"Feature","id":"bldg_0ca2c49a-ed29-46d1-a19b-16c3a4476d79","geometry":{"type":"Polygon","coordinates":[[[139.04749702464062,35.981401363863],[139.04755694917463,35.9813746272101],[139.04760809594518,35.98145031087852],[139.0475481713702,35.981477047556126],[139.04749702464062,35.981401363863]]]},"properties":{"layer":"building","height_m":4.6}},{"type":"Feature","id":"bldg_f0c36f19-926f-44fa-bb6d-c392e9ae4da3","geometry":{"type":"Polygon","coordinates":[[[139.04758265141118,35.98120931681591],[139.0475788484325,35.981335654204514],[139.04748431498007,35.9813970445044],[139.0474591268071,35.981320359129924],[139.04751428962493,35.98130413652027],[139.04750198792772,35.981202749798946],[139.04758265141118,35.98120931681591]]]},"properties":{"layer":"building","height_m":5.4}},{"type":"Feature","id":"bldg_4a81903b-fcf5-40ea-b836-97112c831146","geometry":{"type":"Polygon","coordinates":[[[139.04744079410287,35.981799253061844],[139.04750236701798,35.981796429717875],[139.0475069249408,35.9818623896785],[139.04744535206385,35.981865204011726],[139.04744079410287,35.981799253061844]]]},"properties":{"layer":"building","height_m":3.9}},{"type":"Feature","id":"bldg_3907c62f-661d-484f-a464-12dc608a47eb","geometry":{"type":"Polygon","coordinates":[[[139.0474294999067,35.982261663214445],[139.0475649300343,35.98237043589641],[139.04751763682296,35.982409332698694],[139.04738363658555,35.9823017410212],[139.04740420838252,35.9822848412116],[139.04737681424604,35.98226285029481],[139.04740141186133,35.98224255191802],[139.0474142983354,35.982184322216945],[139.04747641818804,35.98219347173645],[139.0474602830962,35.982266191096684],[139.0474294999067,35.982261663214445]]]},"properties":{"layer":"building","height_m":7.3}},{"type":"Feature","id":"bldg_6176fdb4-44d3-46f4-a7b3-57da65c02841","geometry":{"type":"Polygon","coordinates":[[[139.0473858724295,35.98218810172625],[139.04736556931064,35.98211081743232],[139.04742810926567,35.98209996086612],[139.0474484124431,35.98217724515034],[139.0473858724295,35.98218810172625]]]},"properties":{"layer":"building","height_m":4.5}},{"type":"Feature","id":"bldg_f77f581b-c90c-4841-8a0b-641d43959c75","geometry":{"type":"Polygon","coordinates":[[[139.04745918049966,35.981326127803136],[139.0474221820625,35.981344542365065],[139.04743345565413,35.98135948766605],[139.04735121040548,35.98140058896738],[139.0473040352299,35.981338180323675],[139.04735618986498,35.981312204036435],[139.0473416335729,35.981292820851564],[139.04733126953806,35.981297980495825],[139.04731069240378,35.98127071655093],[139.0473288567339,35.98126173241957],[139.0473202086355,35.98125040951022],[139.04740033622767,35.98121037591652],[139.04742551062128,35.98124370867234],[139.0474481335171,35.98123241034776],[139.04744441261894,35.9812274288234],[139.047463914678,35.98121773239373],[139.04748690091338,35.98124807651321],[139.04742393611997,35.98127947997816],[139.04745918049966,35.981326127803136]]]},"properties":{"layer":"building","height_m":5.1}},{"type":"Feature","id":"bldg_acda01f1-79b4-4065-8ecf-98062be2bbc3","geometry":{"type":"Polygon","coordinates":[[[139.04729747627962,35.9819548069326],[139.04733840409068,35.98189802276932],[139.04739325817846,35.98192415930359],[139.04740663666755,35.98190577028961],[139.0474524411303,35.9819275212747],[139.04739813398933,35.982002784615716],[139.04729747627962,35.9819548069326]]]},"properties":{"layer":"building","height_m":7.7}},{"type":"Feature","id":"bldg_146d1cab-ac87-4139-9599-acd9394e8e32","geometry":{"type":"Polygon","coordinates":[[[139.0472883240414,35.98141288530874],[139.04730257160853,35.98138512847611],[139.04737109445122,35.98140829015001],[139.04735684690363,35.981436046990915],[139.0472883240414,35.98141288530874]]]},"properties":{"layer":"building","height_m":8.4}},{"type":"Feature","id":"bldg_3a0f2507-dbef-44b0-93a8-be86e9764b50","geometry":{"type":"Polygon","coordinates":[[[139.04703515416588,35.98189405286041],[139.04706146414068,35.98183528025885],[139.04710834510215,35.981849106988506],[139.0470820351571,35.981907879600584],[139.04703515416588,35.98189405286041]]]},"properties":{"layer":"building","height_m":3.5}},{"type":"Feature","id":"bldg_a364df94-c49b-474a-b388-ae74a46198e6","geometry":{"type":"Polygon","coordinates":[[[139.04437300022596,35.98189243904325],[139.0443876624174,35.9818721570687],[139.04443193072498,35.98189329522975],[139.04441726854077,35.98191357720973],[139.04437300022596,35.98189243904325]]]},"properties":{"layer":"building","height_m":null}},{"type":"Feature","id":"bldg_595cbe6d-9e52-49c1-a2fc-7f2cebf5fc39","geometry":{"type":"Polygon","coordinates":[[[139.04365362694364,35.98183524164441],[139.04360896410904,35.98183257724838],[139.0436144355751,35.98177202788376],[139.04365908728738,35.981774692204354],[139.04365362694364,35.98183524164441]]]},"properties":{"layer":"building","height_m":3.7}},{"type":"Feature","id":"bldg_4b9ddac8-3403-49d1-965d-314ffcb618df","geometry":{"type":"Polygon","coordinates":[[[139.0424939323939,35.98040265680186],[139.0425496391647,35.980387521620564],[139.04252906695342,35.980337724393884],[139.04265526907588,35.98030340545158],[139.0427635328447,35.980566667583076],[139.04258184520552,35.9806161233145],[139.0424939323939,35.98040265680186]]]},"properties":{"layer":"building","height_m":9.6}},{"type":"Feature","id":"bldg_43cdc771-9b8e-46e7-827c-2a07173ea157","geometry":{"type":"Polygon","coordinates":[[[139.04238144294737,35.9803407170005],[139.04239935748484,35.980390136211746],[139.04232832911794,35.980407153170304],[139.04231041372188,35.98035782407319],[139.04238144294737,35.9803407170005]]]},"properties":{"layer":"building","height_m":4.5}}]}