{"type":"FeatureCollection","properties":{"mesh_code":"53397056","source":"PLATEAU秩父市2025","layer":"building"},"features":[{"type":"Feature","id":"bldg_aaf6337d-519e-4ede-ac0b-e85c634845b7","geometry":{"type":"Polygon","coordinates":[[[139.08370046957225,35.9588870846283],[139.0832202692958,35.95901125835189],[139.0832015433264,35.958963372090906],[139.08368174333958,35.95883919843817],[139.08370046957225,35.9588870846283]]]},"properties":{"layer":"building","height_m":9.6}},{"type":"Feature","id":"bldg_a9e23073-9236-40a6-a7d8-d196e6dfd2d8","geometry":{"type":"Polygon","coordinates":[[[139.0753029706595,35.966382989112944],[139.07519995361545,35.96643478520269],[139.07512914338201,35.966341728795925],[139.07523216043532,35.9662899237528],[139.0753029706595,35.966382989112944]]]},"properties":{"layer":"building","height_m":17.8}}]}