{"type":"FeatureCollection","properties":{"mesh_code":"54390045","source":"PLATEAU秩父市2025","layer":"building"},"features":[{"type":"Feature","id":"bldg_affb491e-5cc8-44ee-9f71-ce495e8e7a43","geometry":{"type":"Polygon","coordinates":[[[139.0666729,36.0380974],[139.0666135,36.0381483],[139.0665914,36.0381313],[139.0665689,36.0381505],[139.0665065,36.0381025],[139.0664782,36.0381268],[139.0664268,36.0380872],[139.066457,36.0380613],[139.066407,36.0380229],[139.0664411,36.0379937],[139.0664359,36.0379896],[139.0664818,36.0379503],[139.0666729,36.0380974]]]},"properties":{"layer":"building","height_m":7.7}},{"type":"Feature","id":"bldg_dd872235-4723-4e9f-9922-6237911ecb89","geometry":{"type":"Polygon","coordinates":[[[139.0663385,36.0367615],[139.0663691,36.0367438],[139.0664082,36.0367888],[139.0663774,36.0368063],[139.0663385,36.0367615]]]},"properties":{"layer":"building","height_m":null}},{"type":"Feature","id":"bldg_d694b14f-4b1f-48db-bb17-75c3028e2537","geometry":{"type":"Polygon","coordinates":[[[139.0666456,36.0379342],[139.0665847,36.0378919],[139.0666657,36.037815],[139.0667266,36.0378573],[139.0666456,36.0379342]]]},"properties":{"layer":"building","height_m":7.5}},{"type":"Feature","id":"bldg_b0fd5cc5-9823-43b8-b68e-d5681ca13ccb","geometry":{"type":"Polygon","coordinates":[[[139.0664111,36.0382122],[139.0664301,36.0381543],[139.0665358,36.0381772],[139.0665169,36.038235],[139.0664111,36.0382122]]]},"properties":{"layer":"building","height_m":7.3}},{"type":"Feature","id":"bldg_c95d7e50-7816-444e-8a6c-de237681d4d0","geometry":{"type":"Polygon","coordinates":[[[139.0664795,36.0378467],[139.0665388,36.0377676],[139.0666421,36.0378187],[139.0666015,36.0378729],[139.0665512,36.037848],[139.0665326,36.037873],[139.0664795,36.0378467]]]},"properties":{"layer":"building","height_m":7.9}},{"type":"Feature","id":"bldg_fe70ca52-2fe5-4cec-bd46-6f3566d296f8","geometry":{"type":"Polygon","coordinates":[[[139.074983,36.0388117],[139.0749581,36.0389414],[139.0748548,36.0389283],[139.0748797,36.0387986],[139.074983,36.0388117]]]},"properties":{"layer":"building","height_m":4.6}},{"type":"Feature","id":"bldg_1ef6bf1f-c222-430f-873a-8000ad737275","geometry":{"type":"Polygon","coordinates":[[[139.0748944,36.0403205],[139.0748259,36.0402886],[139.0748532,36.0402497],[139.0749218,36.0402816],[139.0748944,36.0403205]]]},"properties":{"layer":"building","height_m":5.0}},{"type":"Feature","id":"bldg_469fae40-39c3-4b89-bacd-bb1aaa1dba0a","geometry":{"type":"Polygon","coordinates":[[[139.0747429,36.0414441],[139.0747731,36.0414872],[139.0747166,36.0415133],[139.0746864,36.0414702],[139.0747429,36.0414441]]]},"properties":{"layer":"building","height_m":7.3}},{"type":"Feature","id":"bldg_b17f5fc0-dc90-409c-81ef-ca0aa52a3142","geometry":{"type":"Polygon","coordinates":[[[139.0723743,36.0367474],[139.0723947,36.0367927],[139.0723387,36.0368093],[139.0723183,36.036764],[139.0723743,36.0367474]]]},"properties":{"layer":"building","height_m":3.3}},{"type":"Feature","id":"bldg_fbd24629-9907-4181-bc09-0464a420f187","geometry":{"type":"Polygon","coordinates":[[[139.0655887,36.0356458],[139.0656376,36.0357076],[139.0655436,36.0357567],[139.0654947,36.0356949],[139.0655887,36.0356458]]]},"properties":{"layer":"building","height_m":3.8}}]}