{"type":"FeatureCollection","properties":{"mesh_code":"54390056","source":"PLATEAU秩父市2025","layer":"building"},"features":[{"type":"Feature","id":"bldg_2a4358c9-f372-4967-a417-d669ac85d8c6","geometry":{"type":"Polygon","coordinates":[[[139.08708486092672,36.044594666150864],[139.08722032848897,36.04454364883768],[139.087256439556,36.0446068892939],[139.08712097079754,36.044657906639415],[139.08708486092672,36.044594666150864]]]},"properties":{"layer":"building","height_m":7.3}},{"type":"Feature","id":"bldg_333f4e83-c61e-4bda-a5c0-8c4786db3844","geometry":{"type":"Polygon","coordinates":[[[139.0844690465941,36.04329301607896],[139.08451610356414,36.04323418513495],[139.08460853026548,36.04328298156518],[139.08456136236214,36.0433418118524],[139.0844690465941,36.04329301607896]]]},"properties":{"layer":"building","height_m":5.1}},{"type":"Feature","id":"bldg_eef2e9aa-0455-4fb7-a6ae-8adb713b734e","geometry":{"type":"Polygon","coordinates":[[[139.08476444709416,36.042315398013514],[139.0847482333617,36.04230953751559],[139.0847057303823,36.04229417546641],[139.08473166994338,36.04224683024069],[139.08479038662747,36.04226805277493],[139.08478702144936,36.04227418760091],[139.08476444709416,36.042315398013514]]]},"properties":{"layer":"building","height_m":4.6}},{"type":"Feature","id":"bldg_7e441f7d-fa83-424c-b57f-5c74312fbccd","geometry":{"type":"Polygon","coordinates":[[[139.0859342472992,36.04208716085161],[139.0859182457302,36.04216922304056],[139.0857782967157,36.042151225955095],[139.08579148808195,36.042083530912485],[139.08570527538362,36.04207243920307],[139.08570808574245,36.04205807207901],[139.0859342472992,36.04208716085161]]]},"properties":{"layer":"building","height_m":4.9}},{"type":"Feature","id":"bldg_898c9f3f-481b-478f-b4e6-13b6b0e164a2","geometry":{"type":"Polygon","coordinates":[[[139.08660692274051,36.042864968716124],[139.08660448208792,36.04278025894606],[139.08673591416954,36.042777760695564],[139.08673566311018,36.04276908868663],[139.0867820711431,36.04276820598249],[139.0867847629656,36.04286159677253],[139.08660692274051,36.042864968716124]]]},"properties":{"layer":"building","height_m":6.1}},{"type":"Feature","id":"bldg_c6875d43-dfb3-4959-9392-7898cb0de749","geometry":{"type":"Polygon","coordinates":[[[139.08428611157905,36.04315694968608],[139.08435151815416,36.0431175211254],[139.08433833816156,36.043103018093085],[139.08437796176472,36.04307911095294],[139.0843903743501,36.04309261776437],[139.08441292030633,36.04307905893783],[139.08447926339943,36.04315166694155],[139.08435157538187,36.04322865097235],[139.08428611157905,36.04315694968608]]]},"properties":{"layer":"building","height_m":8.5}},{"type":"Feature","id":"bldg_a21a970a-7564-4a6c-9695-8be419985bba","geometry":{"type":"Polygon","coordinates":[[[139.08668993900304,36.044702137248265],[139.0867363530109,36.0447885457753],[139.08655843553672,36.04485157915877],[139.08651201947777,36.04476516965055],[139.08660411942031,36.044732541466885],[139.0865958851623,36.04471721325754],[139.086642683386,36.04470063431541],[139.0866509165417,36.04471596251474],[139.08668993900304,36.044702137248265]]]},"properties":{"layer":"building","height_m":10.4}},{"type":"Feature","id":"bldg_171dbe24-ca6e-4519-b5de-e048be258914","geometry":{"type":"Polygon","coordinates":[[[139.08231834687675,36.04236488582278],[139.08226275145415,36.04233408285836],[139.08229770491064,36.042292463770025],[139.08235330031818,36.042323266718235],[139.08231834687675,36.04236488582278]]]},"properties":{"layer":"building","height_m":5.9}},{"type":"Feature","id":"bldg_2ea59935-69a9-452b-bdcf-3417b3d96e3e","geometry":{"type":"Polygon","coordinates":[[[139.08541215718358,36.04337681989099],[139.08540266959068,36.043356761001675],[139.08546379905857,36.04333771043759],[139.0854732754824,36.043357778265495],[139.08541215718358,36.04337681989099]]]},"properties":{"layer":"building","height_m":3.2}},{"type":"Feature","id":"bldg_bfbe85e5-9190-48b9-bd6f-6a0d39350b86","geometry":{"type":"Polygon","coordinates":[[[139.08232773976175,36.042122541767526],[139.0823698567264,36.04206980951251],[139.0824501347857,36.042112132323936],[139.082407906881,36.04216486391212],[139.08232773976175,36.042122541767526]]]},"properties":{"layer":"building","height_m":6.7}},{"type":"Feature","id":"bldg_b70cc12e-c93c-4928-83a6-3c692b51eeda","geometry":{"type":"Polygon","coordinates":[[[139.08642663658338,36.04204278515199],[139.0863991462923,36.04212165736124],[139.0863561801391,36.04211183596687],[139.08634853828153,36.04213368979539],[139.08630867333116,36.04212451861095],[139.08633240125008,36.04205625824882],[139.0863548813361,36.04206135542248],[139.08636628564275,36.04202888976688],[139.08642663658338,36.04204278515199]]]},"properties":{"layer":"building","height_m":6.3}},{"type":"Feature","id":"bldg_6136db09-1b75-4080-af6f-2e250e949ad3","geometry":{"type":"Polygon","coordinates":[[[139.0874157253202,36.042082831358876],[139.08735587976167,36.04209769088924],[139.0873450531039,36.04206896238205],[139.08740500961255,36.04205410354717],[139.0874157253202,36.042082831358876]]]},"properties":{"layer":"building","height_m":3.1}},{"type":"Feature","id":"bldg_9583153c-e234-457c-90f6-e6692f21f72f","geometry":{"type":"Polygon","coordinates":[[[139.08338365010422,36.04279175511606],[139.0833125345376,36.04272518235958],[139.08332066800514,36.0427194559479],[139.08323644050546,36.042640606621674],[139.08326278494883,36.0426220515702],[139.08325399592337,36.042613821853124],[139.0833389842542,36.04255393981447],[139.08340475360774,36.04261551298937],[139.08341695382435,36.04260691885562],[139.0834743962896,36.04266068878505],[139.08346504505369,36.04266727283273],[139.08350595429238,36.04270558129942],[139.08338365010422,36.04279175511606]]]},"properties":{"layer":"building","height_m":6.2}},{"type":"Feature","id":"bldg_ce55e556-632d-4367-af20-64f9a8b00e46","geometry":{"type":"Polygon","coordinates":[[[139.08227713629736,36.042134031731734],[139.08242887510312,36.04220059633171],[139.08237235679886,36.042285684971546],[139.08218016889376,36.042201381797625],[139.08220752753252,36.042160183825125],[139.0822479765042,36.04217792231784],[139.08227713629736,36.042134031731734]]]},"properties":{"layer":"building","height_m":7.9}},{"type":"Feature","id":"bldg_1fe45ffc-0b0d-4634-a5a0-9049bfa1faa4","geometry":{"type":"Polygon","coordinates":[[[139.08463527509838,36.0431682066177],[139.08469311604483,36.04321401101873],[139.08468566612518,36.04322021947712],[139.0847078728161,36.043237807180994],[139.08466071252874,36.04327708849965],[139.08463815345888,36.043259210172764],[139.08463597219065,36.04326102617739],[139.08459717666148,36.04323029314777],[139.08459297076485,36.043233790939716],[139.08457428899334,36.04321899219946],[139.08463527509838,36.0431682066177]]]},"properties":{"layer":"building","height_m":3.8}},{"type":"Feature","id":"bldg_bd30f606-25c7-405c-8928-4a02d3c55774","geometry":{"type":"Polygon","coordinates":[[[139.08626283082017,36.04194810214192],[139.08623877181105,36.042018514520436],[139.08608261638437,36.041983328274505],[139.08610667552074,36.041912915928435],[139.08626283082017,36.04194810214192]]]},"properties":{"layer":"building","height_m":8.6}},{"type":"Feature","id":"bldg_4b2eec8c-5fe7-45d4-933f-1ec9516aa688","geometry":{"type":"Polygon","coordinates":[[[139.08513372027633,36.04188516313277],[139.08506608980937,36.04187828781038],[139.08507462582662,36.04182295658201],[139.08514225624717,36.0418298318991],[139.08513372027633,36.04188516313277]]]},"properties":{"layer":"building","height_m":null}},{"type":"Feature","id":"bldg_c1e1cc9a-aad0-4a60-be83-74ce15b09a08","geometry":{"type":"Polygon","coordinates":[[[139.08650657922396,36.04478009272671],[139.0865558819043,36.044864032647084],[139.0864941517946,36.04488794519833],[139.08644485027554,36.044804005260424],[139.08650657922396,36.04478009272671]]]},"properties":{"layer":"building","height_m":4.7}},{"type":"Feature","id":"bldg_65391e44-0ce2-46d0-b25c-ff78d5ef2ceb","geometry":{"type":"Polygon","coordinates":[[[139.08582803343214,36.04304030175914],[139.08585923307942,36.04310917484838],[139.08579702113138,36.04312771414273],[139.0857659325029,36.04305884173],[139.08582803343214,36.04304030175914]]]},"properties":{"layer":"building","height_m":5.3}},{"type":"Feature","id":"bldg_1563730b-0017-43d8-8435-061d8e979943","geometry":{"type":"Polygon","coordinates":[[[139.08561377467944,36.04201146389616],[139.08560996466477,36.04204822193357],[139.08558752865184,36.04204668500569],[139.08558501301425,36.04207095918321],[139.08552191926307,36.04206664504624],[139.08552389730815,36.04204758600791],[139.08551937237613,36.04204727838413],[139.08552372004425,36.04200530521239],[139.08561377467944,36.04201146389616]]]},"properties":{"layer":"building","height_m":3.7}},{"type":"Feature","id":"bldg_facf81e8-8e7b-4737-8ebb-6ee16b04c211","geometry":{"type":"Polygon","coordinates":[[[139.085568412898,36.04192991133526],[139.08569846373155,36.041943070085495],[139.0856887677814,36.04200610018818],[139.08567147266686,36.04200427988054],[139.0856688677335,36.04202156847665],[139.0856312830161,36.04201772892006],[139.08563399807534,36.04200053114096],[139.08555871769835,36.041992851302304],[139.085568412898,36.04192991133526]]]},"properties":{"layer":"building","height_m":3.3}},{"type":"Feature","id":"bldg_374fce74-225e-475f-a5e8-5ea5086254f0","geometry":{"type":"Polygon","coordinates":[[[139.08696638145042,36.04201225768877],[139.0868633568354,36.04208687434046],[139.08684993248687,36.04207471342281],[139.08681808653648,36.04209776852378],[139.0867714334122,36.04205529748512],[139.08683255596344,36.04201097388932],[139.0868236439661,36.042002806756365],[139.0868562726203,36.04197912562077],[139.08686144396853,36.04198384454558],[139.0869025641576,36.041954087466834],[139.08696638145042,36.04201225768877]]]},"properties":{"layer":"building","height_m":8.4}},{"type":"Feature","id":"bldg_f9bdf718-3822-4fe4-b8e1-d25693370c7d","geometry":{"type":"Polygon","coordinates":[[[139.0855591805539,36.04329357416434],[139.08542865347061,36.04333288559363],[139.08539752523222,36.043264706837974],[139.0855280522172,36.043225395440984],[139.0855591805539,36.04329357416434]]]},"properties":{"layer":"building","height_m":8.6}},{"type":"Feature","id":"bldg_be4465db-5239-45e2-8203-93a0b69e4afa","geometry":{"type":"Polygon","coordinates":[[[139.08495566148204,36.04228477604031],[139.08497132251162,36.0423115160349],[139.08493835282437,36.04232425281832],[139.08494060265,36.04232808834698],[139.08489286335288,36.04234653725578],[139.08487495252095,36.04231596172152],[139.08495566148204,36.04228477604031]]]},"properties":{"layer":"building","height_m":null}},{"type":"Feature","id":"bldg_83286f7e-f80d-436b-b875-32a9ceee2a4a","geometry":{"type":"Polygon","coordinates":[[[139.08642469826083,36.04208351155692],[139.08646501814994,36.04209151385481],[139.08645310445365,36.042130916308665],[139.08641278539704,36.04212282388252],[139.08642469826083,36.04208351155692]]]},"properties":{"layer":"building","height_m":8.6}},{"type":"Feature","id":"bldg_7c7c8464-f150-482f-9c14-dab4ff1e2264","geometry":{"type":"Polygon","coordinates":[[[139.0865082378104,36.04475712187893],[139.0864223097863,36.044792295836864],[139.08636415668767,36.044698597396184],[139.08645008463432,36.04466342347848],[139.0865082378104,36.04475712187893]]]},"properties":{"layer":"building","height_m":8.4}},{"type":"Feature","id":"bldg_03ed3ca8-222d-4182-a327-26cb2761b2dc","geometry":{"type":"Polygon","coordinates":[[[139.08706076960698,36.04472563997459],[139.08700832658639,36.04463314365742],[139.08708918239356,36.04460290833885],[139.08712078987176,36.04465826242557],[139.0871235274953,36.0446572312602],[139.08714455126395,36.04469431063536],[139.08706076960698,36.04472563997459]]]},"properties":{"layer":"building","height_m":7.4}},{"type":"Feature","id":"bldg_59b981ae-a7ed-4c05-8d3d-aa4284127793","geometry":{"type":"Polygon","coordinates":[[[139.08638291002472,36.044369292384665],[139.08645060701676,36.04433411303518],[139.08648284838694,36.044375052345465],[139.08641504040025,36.04441023102133],[139.08638291002472,36.044369292384665]]]},"properties":{"layer":"building","height_m":4.6}},{"type":"Feature","id":"bldg_90682235-f630-4feb-b871-26912a603a02","geometry":{"type":"Polygon","coordinates":[[[139.08598860930454,36.04200787942447],[139.08597227716308,36.042092048589],[139.0859342472992,36.04208716085161],[139.08570808574245,36.04205807207901],[139.085701933981,36.042057285645086],[139.0857182664017,36.04197311652021],[139.08598860930454,36.04200787942447]]]},"properties":{"layer":"building","height_m":7.4}},{"type":"Feature","id":"bldg_22f1c88f-1c1a-44ab-a6ea-77dc71e95ef2","geometry":{"type":"Polygon","coordinates":[[[139.0855665350664,36.04312962065407],[139.0856310847845,36.043130275586506],[139.08563054117795,36.043165467711184],[139.08565230184112,36.04316569354523],[139.0856518417247,36.0431955775713],[139.085565542294,36.04319470588509],[139.0855665350664,36.04312962065407]]]},"properties":{"layer":"building","height_m":3.5}},{"type":"Feature","id":"bldg_3a18982a-6ad2-41a5-8a97-949e862a376f","geometry":{"type":"Polygon","coordinates":[[[139.08568940598263,36.0432180737735],[139.08587689657756,36.04316597633675],[139.08590804690928,36.0432400766078],[139.08572055615744,36.04329217409079],[139.08568940598263,36.0432180737735]]]},"properties":{"layer":"building","height_m":6.8}},{"type":"Feature","id":"bldg_755854b8-bc99-42d5-97a0-d310ecc5ae41","geometry":{"type":"Polygon","coordinates":[[[139.08248864541847,36.042158699989606],[139.08243668376056,36.04213791520689],[139.08247546926816,36.042073715621854],[139.08252743089466,36.04209450038763],[139.08248864541847,36.042158699989606]]]},"properties":{"layer":"building","height_m":5.7}},{"type":"Feature","id":"bldg_93e1fa01-40f0-4148-b08b-cf7bad164234","geometry":{"type":"Polygon","coordinates":[[[139.0866220192307,36.04272943606145],[139.08662006106522,36.0426429897978],[139.08672450587363,36.04264138700428],[139.08672436816892,36.04263246333876],[139.08679373853283,36.0426314532296],[139.08679569603737,36.04271798961691],[139.08674341852304,36.04271874564791],[139.0867436672008,36.04272767000433],[139.0866220192307,36.04272943606145]]]},"properties":{"layer":"building","height_m":5.2}},{"type":"Feature","id":"bldg_b07722a4-3b66-4486-b6df-2acee859d757","geometry":{"type":"Polygon","coordinates":[[[139.0845286280098,36.04227483634086],[139.08451634091244,36.04222464767448],[139.0845490181973,36.04221935386657],[139.08454068167842,36.04218559341935],[139.08464882710427,36.04216815277399],[139.08464508820043,36.04215280743406],[139.0848001379916,36.04212772815134],[139.0848081519422,36.04216040501516],[139.08482715768346,36.04215736914087],[139.0848410472515,36.04221414722486],[139.08468811000213,36.04223878910342],[139.0846905693197,36.04224862856064],[139.0845286280098,36.04227483634086]]]},"properties":{"layer":"building","height_m":7.0}},{"type":"Feature","id":"bldg_a106f49d-3293-41e9-a246-f4667b4457df","geometry":{"type":"Polygon","coordinates":[[[139.08486881133655,36.04233985273139],[139.0848860371661,36.04236189775232],[139.08485230203655,36.04237928942172],[139.0848350762981,36.04235723538366],[139.08486881133655,36.04233985273139]]]},"properties":{"layer":"building","height_m":null}},{"type":"Feature","id":"bldg_37098af2-0385-4363-b330-ae45f3a1b877","geometry":{"type":"Polygon","coordinates":[[[139.08345964408895,36.042384836746244],[139.0834025803273,36.042419882645085],[139.0833314472692,36.04234348568827],[139.08338851092054,36.04230844883496],[139.08345964408895,36.042384836746244]]]},"properties":{"layer":"building","height_m":3.9}},{"type":"Feature","id":"bldg_be5f3c70-df8e-459b-8e41-541d5be0e5e6","geometry":{"type":"Polygon","coordinates":[[[139.08623090771425,36.042109703488094],[139.08613583250545,36.04209460018337],[139.08613409812924,36.04210197998365],[139.08608212812047,36.04209372470721],[139.0861007283492,36.04201614910726],[139.08617940374657,36.04202862661971],[139.086182523399,36.0420155773003],[139.0862143257888,36.0420206424638],[139.08621074352982,36.0420356717477],[139.08624731082662,36.042041487629504],[139.08623090771425,36.042109703488094]]]},"properties":{"layer":"building","height_m":5.0}},{"type":"Feature","id":"bldg_e36b5262-e9d2-4e9d-9219-465517f179ad","geometry":{"type":"Polygon","coordinates":[[[139.08734882634036,36.041876018840036],[139.08731061973916,36.0417957552312],[139.08743207660848,36.04175762006876],[139.08747028331592,36.0418378836406],[139.08734882634036,36.041876018840036]]]},"properties":{"layer":"building","height_m":3.8}},{"type":"Feature","id":"bldg_1f47782c-c734-4082-b110-2d221a081f5a","geometry":{"type":"Polygon","coordinates":[[[139.08711830232755,36.04211285036391],[139.08711622599824,36.042110611245356],[139.08716263743204,36.04208227500222],[139.08717709457488,36.042097894268004],[139.08718208401825,36.04209484289402],[139.08722512588798,36.04214134712361],[139.08721943333504,36.04214481773203],[139.08723780149987,36.04216465234506],[139.08720233990877,36.04218630606897],[139.0871852461617,36.042167840335374],[139.08712881130862,36.04220228806637],[139.0871219672583,36.04219489091277],[139.08706581140015,36.04222916910428],[139.08702516440326,36.04218525742595],[139.08704178456526,36.042175113168334],[139.08703258957846,36.042165177753546],[139.08711830232755,36.04211285036391]]]},"properties":{"layer":"building","height_m":8.1}},{"type":"Feature","id":"bldg_a38dcb27-e2c1-4884-bf82-c80b956119bb","geometry":{"type":"Polygon","coordinates":[[[139.08569899090259,36.04192252387463],[139.08553239081687,36.04190165643252],[139.08554080077474,36.041857275102544],[139.08555764941855,36.04185936303244],[139.08556185566746,36.041837037180336],[139.08571171794713,36.041855817366226],[139.08569899090259,36.04192252387463]]]},"properties":{"layer":"building","height_m":3.6}},{"type":"Feature","id":"bldg_efab8068-82a3-434f-b45e-ebf186ae38ea","geometry":{"type":"Polygon","coordinates":[[[139.0857722893916,36.0421281153791],[139.08578570252948,36.0421884054327],[139.08569635301765,36.04220154797297],[139.08568282897596,36.042141257218304],[139.0857722893916,36.0421281153791]]]},"properties":{"layer":"building","height_m":4.8}},{"type":"Feature","id":"bldg_1f2bba1a-6455-4860-a2ec-a83801eaa038","geometry":{"type":"Polygon","coordinates":[[[139.0845138448477,36.043226600162335],[139.08445294803892,36.04330544350546],[139.08437729264182,36.043266936340345],[139.084438189495,36.0431880930357],[139.0845138448477,36.043226600162335]]]},"properties":{"layer":"building","height_m":4.3}},{"type":"Feature","id":"bldg_4835d515-46b3-4d54-9fbc-f603f473668a","geometry":{"type":"Polygon","coordinates":[[[139.08478702144936,36.04227418760091],[139.0847964444659,36.04227759023079],[139.08481268332264,36.04224796694726],[139.0848503088891,36.04226156802625],[139.08482731681488,36.04230353292994],[139.08483940517885,36.04230790756741],[139.08482923043428,36.04232647378743],[139.08481355865774,36.04232080595339],[139.08478332802775,36.04237596566063],[139.08472366007757,36.042354403704685],[139.0847482333617,36.04230953751559],[139.08476444709416,36.042315398013514],[139.08478702144936,36.04227418760091]]]},"properties":{"layer":"building","height_m":4.1}},{"type":"Feature","id":"bldg_727b0642-2c37-468d-8b5f-359ac71cde9d","geometry":{"type":"Polygon","coordinates":[[[139.0871709997903,36.04229689806756],[139.08713277584772,36.042254930274126],[139.08720498687495,36.04221157679463],[139.0872432108357,36.04225354456555],[139.0871709997903,36.04229689806756]]]},"properties":{"layer":"building","height_m":4.1}},{"type":"Feature","id":"bldg_26ca405f-0946-4550-b2d4-3ecdb0ad3264","geometry":{"type":"Polygon","coordinates":[[[139.08707784728708,36.04189218715907],[139.08701478591635,36.04183505818875],[139.08708379891604,36.04178481701131],[139.08706268312412,36.04176568630727],[139.08709473125043,36.04174235299616],[139.08717890843099,36.041818612612666],[139.08716996895228,36.04182511839859],[139.08707784728708,36.04189218715907]]]},"properties":{"layer":"building","height_m":8.4}},{"type":"Feature","id":"bldg_b1a72a4b-4f73-4f44-8821-7d1d7a80035f","geometry":{"type":"Polygon","coordinates":[[[139.0862491141164,36.04192108601368],[139.0861330559353,36.0418834097432],[139.0861562509177,36.041836326497204],[139.08629410367257,36.041881168634525],[139.0862779234014,36.04191405517272],[139.08625601694175,36.04190697871265],[139.0862491141164,36.04192108601368]]]},"properties":{"layer":"building","height_m":4.1}},{"type":"Feature","id":"bldg_6286ab2b-e4da-4ae6-9b1a-7904e82a670d","geometry":{"type":"Polygon","coordinates":[[[139.08692814623453,36.04451174771143],[139.08696190071217,36.04457818759661],[139.0869105409512,36.0445953962098],[139.08687678761112,36.04452895721892],[139.08692814623453,36.04451174771143]]]},"properties":{"layer":"building","height_m":3.7}},{"type":"Feature","id":"bldg_c607dc74-5669-467c-9f25-cfcbfdbaabab","geometry":{"type":"Polygon","coordinates":[[[139.08660809171073,36.04257663411037],[139.08660755776123,36.04252623043874],[139.0865775808446,36.04252644030395],[139.08657734699912,36.042504194917804],[139.08660733491928,36.04250399413407],[139.08660729922846,36.042500722215465],[139.08675477527512,36.042499702843955],[139.08675556781392,36.042575623751965],[139.08660809171073,36.04257663411037]]]},"properties":{"layer":"building","height_m":3.9}},{"type":"Feature","id":"bldg_ae884b3c-e5c6-495e-849a-dd2df765c14d","geometry":{"type":"Polygon","coordinates":[[[139.08701834800902,36.04206792061693],[139.08706732783583,36.04209904973988],[139.0870237309696,36.04214429371186],[139.08697475028202,36.042113254695295],[139.08701834800902,36.04206792061693]]]},"properties":{"layer":"building","height_m":4.0}},{"type":"Feature","id":"bldg_8b47df03-aeb8-4764-90c8-7edd8e78b081","geometry":{"type":"Polygon","coordinates":[[[139.08690358128376,36.0426611227319],[139.08684624983215,36.04266118038634],[139.0868461801516,36.042620360358775],[139.08690352275576,36.04262029376072],[139.08690358128376,36.0426611227319]]]},"properties":{"layer":"building","height_m":null}},{"type":"Feature","id":"bldg_35bc5aca-b4dd-4a71-b1b3-e4cfe5587ff2","geometry":{"type":"Polygon","coordinates":[[[139.08727536348687,36.04195447001769],[139.08735110062182,36.04193139046086],[139.08734855570154,36.04192588574688],[139.08745670222504,36.04189293130114],[139.08746098713786,36.04190221424585],[139.08748721955726,36.04189422973731],[139.08751385387072,36.041951888957335],[139.08748432695145,36.041960889465166],[139.08750134728882,36.0419977320825],[139.0874096947586,36.042025660822134],[139.08741556761674,36.04203836955129],[139.08732664176722,36.04206546797421],[139.08727536348687,36.04195447001769]]]},"properties":{"layer":"building","height_m":7.0}},{"type":"Feature","id":"bldg_bf5db780-ecd8-4bd9-a765-ddbec7c059c9","geometry":{"type":"Polygon","coordinates":[[[139.0851779838907,36.04172496399213],[139.08519263693208,36.041644750150354],[139.0852648997791,36.04165345689093],[139.0852667375647,36.04164336485396],[139.08534343442142,36.04165260393659],[139.08534064911973,36.041667836451126],[139.08534828672904,36.04166874934124],[139.0853410541787,36.041708316082264],[139.08533306197486,36.04170734690183],[139.08532656679571,36.041742871432845],[139.0851779838907,36.04172496399213]]]},"properties":{"layer":"building","height_m":5.8}},{"type":"Feature","id":"bldg_ef1dc76c-5179-482f-863c-337d1b1261f7","geometry":{"type":"Polygon","coordinates":[[[139.08685418809947,36.04277603660679],[139.0868523155042,36.04270401157873],[139.08698440065334,36.04270167935395],[139.08698627251835,36.04277379450547],[139.08685418809947,36.04277603660679]]]},"properties":{"layer":"building","height_m":7.0}},{"type":"Feature","id":"bldg_606b990e-c4f2-409a-8079-467e0c345032","geometry":{"type":"Polygon","coordinates":[[[139.0797495629918,36.04653288536567],[139.07978495198833,36.046511116259985],[139.07980703229165,36.04653495903838],[139.07977164414922,36.0465566380266],[139.0797495629918,36.04653288536567]]]},"properties":{"layer":"building","height_m":3.7}},{"type":"Feature","id":"bldg_3807f9aa-f477-4eaf-bd26-26cd8919858f","geometry":{"type":"Polygon","coordinates":[[[139.08684689809087,36.044879325600334],[139.0868257548132,36.04488689009848],[139.08677412195834,36.044791707464555],[139.0870430865492,36.04469547988],[139.08706050789908,36.044726206160455],[139.08706792646566,36.04472343309124],[139.0871082422802,36.04479775502756],[139.08685231839016,36.044889316838265],[139.08684689809087,36.044879325600334]]]},"properties":{"layer":"building","height_m":11.4}},{"type":"Feature","id":"bldg_562ea719-28fa-4d9a-b336-6842af2cab26","geometry":{"type":"Polygon","coordinates":[[[139.08548445756702,36.043320705707565],[139.08554562304263,36.043303710275296],[139.08554686059279,36.04330662917216],[139.08557369898273,36.04329918063056],[139.08558538892592,36.04332693226337],[139.08555902889924,36.04333425760994],[139.08557036056092,36.04336116880646],[139.0855087165885,36.04337829646042],[139.08548445756702,36.043320705707565]]]},"properties":{"layer":"building","height_m":4.0}},{"type":"Feature","id":"bldg_72b7a5fc-645a-4235-af55-de1af9773291","geometry":{"type":"Polygon","coordinates":[[[139.08567973978722,36.04211938158128],[139.0856897804528,36.042080931910895],[139.08575590366576,36.042092312966155],[139.08574586294543,36.04213077165477],[139.08567973978722,36.04211938158128]]]},"properties":{"layer":"building","height_m":null}},{"type":"Feature","id":"bldg_e9bf1ca3-03ea-4319-a913-9611271d8b14","geometry":{"type":"Polygon","coordinates":[[[139.0846131772433,36.04304652918968],[139.08454866930023,36.04308718025318],[139.08444625305017,36.04297998064975],[139.08451074985933,36.042939329570906],[139.0846131772433,36.04304652918968]]]},"properties":{"layer":"building","height_m":4.4}},{"type":"Feature","id":"bldg_22ae1653-9755-4f0a-8dc7-dc75d98d4951","geometry":{"type":"Polygon","coordinates":[[[139.08649922428555,36.04460997464606],[139.08652591480666,36.04465312088303],[139.0864659163482,36.04467759940457],[139.08643922586057,36.04463445225347],[139.08649922428555,36.04460997464606]]]},"properties":{"layer":"building","height_m":3.9}},{"type":"Feature","id":"bldg_a7f386a6-f1a2-46b8-a247-063e0688f771","geometry":{"type":"Polygon","coordinates":[[[139.0859420005827,36.043228931971505],[139.08591039100435,36.04315645117455],[139.08599218248057,36.0431328964947],[139.08602379127353,36.0432054673952],[139.0859420005827,36.043228931971505]]]},"properties":{"layer":"building","height_m":7.6}},{"type":"Feature","id":"bldg_86e2e69d-e2c7-44c1-bf1b-a79cb35cad37","geometry":{"type":"Polygon","coordinates":[[[139.08690554087588,36.04448069351254],[139.0869218711498,36.04451283526195],[139.086870475784,36.04453005715608],[139.08685414663742,36.04449791540688],[139.08690554087588,36.04448069351254]]]},"properties":{"layer":"building","height_m":4.2}},{"type":"Feature","id":"bldg_6a148786-6927-4bb5-b41c-fd65ae7c5bf8","geometry":{"type":"Polygon","coordinates":[[[139.08595885755022,36.04189151720067],[139.08597944813343,36.041838198827705],[139.0860497478066,36.041856212237235],[139.08602904714758,36.041909439806865],[139.08595885755022,36.04189151720067]]]},"properties":{"layer":"building","height_m":3.3}},{"type":"Feature","id":"bldg_d5bacf9c-9463-4c10-9e46-c2fd16cc14c5","geometry":{"type":"Polygon","coordinates":[[[139.0848035574858,36.04197750383969],[139.08490574691433,36.04207340852496],[139.08485379785773,36.04210985701509],[139.0847517194166,36.04201395297917],[139.0848035574858,36.04197750383969]]]},"properties":{"layer":"building","height_m":3.8}},{"type":"Feature","id":"bldg_28ffd9dd-ef69-4a31-af6e-aec3cfdec727","geometry":{"type":"Polygon","coordinates":[[[139.08255435322425,36.04231782925538],[139.08251805251126,36.042349408585466],[139.0824653405828,36.04230944860367],[139.0825016524805,36.04227786034646],[139.08255435322425,36.04231782925538]]]},"properties":{"layer":"building","height_m":3.5}},{"type":"Feature","id":"bldg_6ca8d2f4-7839-48ad-ab03-89f1e66dd4b6","geometry":{"type":"Polygon","coordinates":[[[139.08516912765938,36.0418950910169],[139.08518012797404,36.04182326345653],[139.08525162826157,36.04183047831267],[139.08525375700447,36.04181661167073],[139.08528664109733,36.04181993531897],[139.08527352323543,36.04190562960167],[139.08516912765938,36.0418950910169]]]},"properties":{"layer":"building","height_m":8.1}},{"type":"Feature","id":"bldg_727490fe-7ff3-4f33-a66a-a3d3d14495c4","geometry":{"type":"Polygon","coordinates":[[[139.084919854052,36.042277234024006],[139.08486183446186,36.04221753066465],[139.08486694820013,36.04221425484013],[139.08486165070263,36.04220880499466],[139.08495354204683,36.04214989322364],[139.0849575756723,36.04215403731329],[139.08496056792202,36.04215212722197],[139.08501985150224,36.04221312727333],[139.084919854052,36.042277234024006]]]},"properties":{"layer":"building","height_m":9.3}},{"type":"Feature","id":"bldg_e7b4b13e-3f53-4e45-b4ac-46b3b9d13b8d","geometry":{"type":"Polygon","coordinates":[[[139.08564277239697,36.04332611845248],[139.08560688695587,36.0432363962053],[139.08568454368233,36.04321588034827],[139.0857204292031,36.04330560257342],[139.08564277239697,36.04332611845248]]]},"properties":{"layer":"building","height_m":5.8}},{"type":"Feature","id":"bldg_1625e79e-59f4-45a9-a688-688955b31f95","geometry":{"type":"Polygon","coordinates":[[[139.08466390929544,36.04235683363886],[139.08461467184975,36.04231666195554],[139.08467233274465,36.042270055606686],[139.08472157010613,36.04231023627904],[139.08466390929544,36.04235683363886]]]},"properties":{"layer":"building","height_m":4.6}},{"type":"Feature","id":"bldg_e674da5e-7fe7-458f-b4d8-1e517dec7e0a","geometry":{"type":"Polygon","coordinates":[[[139.08736218681614,36.04177613044769],[139.08735326192527,36.041757562341715],[139.08741659667095,36.0417374880002],[139.08742552157457,36.04175605610167],[139.08736218681614,36.04177613044769]]]},"properties":{"layer":"building","height_m":null}},{"type":"Feature","id":"bldg_47b9d840-b4bd-4610-a1a8-08587eea1c3a","geometry":{"type":"Polygon","coordinates":[[[139.08657711733667,36.04249090841753],[139.0865759718565,36.04244885592944],[139.0866299602664,36.04244788530236],[139.0866311058604,36.042489928777876],[139.08657711733667,36.04249090841753]]]},"properties":{"layer":"building","height_m":3.0}},{"type":"Feature","id":"bldg_56bbf353-ba26-4550-8486-7f2290128486","geometry":{"type":"Polygon","coordinates":[[[139.08332073986924,36.042428708117576],[139.08333067406835,36.04244607509717],[139.08335461989645,36.04243703169281],[139.0833927161254,36.04250396571141],[139.08319892467762,36.04257683972688],[139.08315089355554,36.04249262877991],[139.08332073986924,36.042428708117576]]]},"properties":{"layer":"building","height_m":8.4}},{"type":"Feature","id":"bldg_9c7d48c9-075c-4ee0-a0c5-f0820e008019","geometry":{"type":"Polygon","coordinates":[[[139.0870081527406,36.04447353882332],[139.08705049083312,36.04455687278495],[139.08696610886156,36.04458514744425],[139.0869237708439,36.04450181345407],[139.0870081527406,36.04447353882332]]]},"properties":{"layer":"building","height_m":7.7}}]}