{"type":"FeatureCollection","properties":{"mesh_code":"54390130","source":"PLATEAU秩父市2025","layer":"building"},"features":[{"type":"Feature","id":"bldg_1ce13438-7b48-4095-be57-3d2c5cac0c79","geometry":{"type":"Polygon","coordinates":[[[139.1281814858259,36.02529157838878],[139.12816041629063,36.02526911129442],[139.12824606751172,36.02521609579833],[139.12826713713804,36.025238553865435],[139.1281814858259,36.02529157838878]]]},"properties":{"layer":"building","height_m":3.4}},{"type":"Feature","id":"bldg_cf07517c-4c53-4297-a57e-56ba107b0237","geometry":{"type":"Polygon","coordinates":[[[139.1284255859803,36.027180684591315],[139.1284221178625,36.027271064454546],[139.12822676815713,36.02726613050991],[139.1282288033369,36.02721206456128],[139.12821371652024,36.027211705461106],[139.12821515049103,36.02717530142968],[139.1284255859803,36.027180684591315]]]},"properties":{"layer":"building","height_m":5.1}},{"type":"Feature","id":"bldg_247e4686-843b-4798-980f-f6ff33ba4208","geometry":{"type":"Polygon","coordinates":[[[139.1283777328129,36.02691019395782],[139.1283610727209,36.026986796531595],[139.1282480419783,36.02697062965365],[139.12826459122604,36.026894026444204],[139.1283777328129,36.02691019395782]]]},"properties":{"layer":"building","height_m":7.3}},{"type":"Feature","id":"bldg_ae389e36-bd92-4c56-ae24-98f5d7a012c4","geometry":{"type":"Polygon","coordinates":[[[139.12838254999406,36.027003407542914],[139.12838375171646,36.026983099336164],[139.12843059203922,36.02698492491799],[139.12842641257524,36.02705551709797],[139.1282530822872,36.02704874780228],[139.12825606007019,36.02699847284762],[139.12838254999406,36.027003407542914]]]},"properties":{"layer":"building","height_m":7.7}},{"type":"Feature","id":"bldg_c71c68c7-9797-4ef5-a23d-e4b0ed92728d","geometry":{"type":"Polygon","coordinates":[[[139.1251403210094,36.029445938599196],[139.12512934433045,36.02945741038741],[139.125157370769,36.02947497095953],[139.12509061252237,36.02954496806483],[139.12501778993996,36.02949911251062],[139.12509541313233,36.02941773313121],[139.1251403210094,36.029445938599196]]]},"properties":{"layer":"building","height_m":7.5}},{"type":"Feature","id":"bldg_6f298eed-cec0-45d8-a1ba-7c9582ff81bb","geometry":{"type":"Polygon","coordinates":[[[139.1284597935745,36.025059498754594],[139.12839455036107,36.025072274209485],[139.1283775321468,36.02501476142653],[139.12844277531525,36.02500198598027],[139.1284597935745,36.025059498754594]]]},"properties":{"layer":"building","height_m":3.0}},{"type":"Feature","id":"bldg_a28e8af6-eb67-4ca2-8b18-08e9d5e53298","geometry":{"type":"Polygon","coordinates":[[[139.1252260336332,36.026383941278155],[139.12519178611498,36.02641694288183],[139.12510379464075,36.026356676160965],[139.12513805326364,36.026323674647756],[139.1252260336332,36.026383941278155]]]},"properties":{"layer":"building","height_m":null}},{"type":"Feature","id":"bldg_34af31cd-4507-4e64-a54e-1d9958a4c364","geometry":{"type":"Polygon","coordinates":[[[139.12844376548082,36.02709543847543],[139.12844487693025,36.02705786085593],[139.1284729440642,36.02705838635447],[139.12847183262812,36.02709596397437],[139.12844376548082,36.02709543847543]]]},"properties":{"layer":"building","height_m":null}},{"type":"Feature","id":"bldg_aa9f591d-6bb9-4d9d-901c-72578125fb76","geometry":{"type":"Polygon","coordinates":[[[139.12511505743564,36.02618178260424],[139.125157846642,36.026162612319034],[139.12519083141584,36.02621118881253],[139.1251480532857,36.02623035917466],[139.12511505743564,36.02618178260424]]]},"properties":{"layer":"building","height_m":null}},{"type":"Feature","id":"bldg_7d394bcc-b716-48be-be2a-aaefba08a5f5","geometry":{"type":"Polygon","coordinates":[[[139.12846273643856,36.02723272763719],[139.12849289001278,36.02723569890167],[139.1284864015872,36.02727901322698],[139.12845624879964,36.02727595183556],[139.12846273643856,36.02723272763719]]]},"properties":{"layer":"building","height_m":null}},{"type":"Feature","id":"bldg_9b67ef78-3228-46b3-9f5e-1c6bb618e9a3","geometry":{"type":"Polygon","coordinates":[[[139.1286273831575,36.027109496366535],[139.1286122227836,36.02719214648778],[139.12850116471125,36.02717869533587],[139.1285162142481,36.02709604457765],[139.1286273831575,36.027109496366535]]]},"properties":{"layer":"building","height_m":8.1}},{"type":"Feature","id":"bldg_96a22a49-2a28-43b1-be75-75f3e019fafd","geometry":{"type":"Polygon","coordinates":[[[139.1285354494454,36.027203682557314],[139.128600412475,36.027210103053356],[139.12859451819463,36.027249004513536],[139.1285296660839,36.02724258466609],[139.1285354494454,36.027203682557314]]]},"properties":{"layer":"building","height_m":3.2}},{"type":"Feature","id":"bldg_3a7efad6-200c-4b99-b118-52730169fabc","geometry":{"type":"Polygon","coordinates":[[[139.12860305354965,36.02709047118197],[139.1285403486832,36.02708341502474],[139.1285528875195,36.0270098255814],[139.12861560350424,36.027016872784195],[139.12860305354965,36.02709047118197]]]},"properties":{"layer":"building","height_m":7.6}},{"type":"Feature","id":"bldg_35a370f8-b0c1-4e1d-a0b2-6e56cb68785d","geometry":{"type":"Polygon","coordinates":[[[139.12859124183842,36.02735524836388],[139.12860592154308,36.0272767413966],[139.12867751998644,36.02728563435224],[139.12866272940047,36.02736414067697],[139.12859124183842,36.02735524836388]]]},"properties":{"layer":"building","height_m":6.9}},{"type":"Feature","id":"bldg_0abdefe3-f118-437d-82a8-aec210b07484","geometry":{"type":"Polygon","coordinates":[[[139.1286658841213,36.025136022491374],[139.12863648731542,36.02510173558286],[139.1286975751959,36.025067169210686],[139.12872697201587,36.025101456104586],[139.1286658841213,36.025136022491374]]]},"properties":{"layer":"building","height_m":4.1}},{"type":"Feature","id":"bldg_23fc5ef4-67c8-47e9-b6f2-69a08f795373","geometry":{"type":"Polygon","coordinates":[[[139.1286262653991,36.027259916537886],[139.12864700260874,36.02714908854093],[139.12882345063187,36.027170855168414],[139.1288212398655,36.02718237880269],[139.1288345402439,36.0271839891494],[139.1288253394526,36.02723287561101],[139.12884839302905,36.0272357149438],[139.1288440832516,36.02725867273969],[139.1288301179613,36.02725696835783],[139.12882638780462,36.027277135532465],[139.12868396596025,36.027259534570184],[139.12868256954556,36.0272668268834],[139.1286262653991,36.027259916537886]]]},"properties":{"layer":"building","height_m":6.6}},{"type":"Feature","id":"bldg_3193d709-146d-4e97-8b3d-04ea12dc0b76","geometry":{"type":"Polygon","coordinates":[[[139.1250907134138,36.029558488131585],[139.12517358652224,36.02948561191144],[139.12527344642137,36.0295603784315],[139.12519057251762,36.02963334484496],[139.1250907134138,36.029558488131585]]]},"properties":{"layer":"building","height_m":5.2}},{"type":"Feature","id":"bldg_db2d9d18-bed5-4bb6-aad4-15af4c78e827","geometry":{"type":"Polygon","coordinates":[[[139.12868529068038,36.027085862108976],[139.12879413447078,36.027098759301445],[139.12878736392872,36.02713639380602],[139.12867852008785,36.02712349660692],[139.12868529068038,36.027085862108976]]]},"properties":{"layer":"building","height_m":4.2}},{"type":"Feature","id":"bldg_d296839d-3f70-42f3-a079-538896c816b0","geometry":{"type":"Polygon","coordinates":[[[139.1286838830595,36.02730622135108],[139.12880862274443,36.02731587713238],[139.12880381960463,36.027356858000054],[139.12867907905323,36.02734729233824],[139.1286838830595,36.02730622135108]]]},"properties":{"layer":"building","height_m":null}},{"type":"Feature","id":"bldg_3a0ed44c-41de-4f4f-b798-328e7fa84743","geometry":{"type":"Polygon","coordinates":[[[139.12868529068038,36.027085862108976],[139.12869743383152,36.02701806567505],[139.12879752054175,36.02707985192374],[139.12879413447078,36.027098759301445],[139.12868529068038,36.027085862108976]]]},"properties":{"layer":"building","height_m":6.1}},{"type":"Feature","id":"bldg_0e026d1e-888d-431d-9809-7a900ae8917f","geometry":{"type":"Polygon","coordinates":[[[139.1286979133652,36.02730062561331],[139.1287033519525,36.02727551133927],[139.1287235200263,36.02727842387073],[139.12871808144516,36.02730353814571],[139.1286979133652,36.02730062561331]]]},"properties":{"layer":"building","height_m":null}},{"type":"Feature","id":"bldg_9e3113b5-1d5c-42df-bf2d-9b1dafff8f0c","geometry":{"type":"Polygon","coordinates":[[[139.12870913228758,36.026638867930494],[139.1287612899451,36.026650350496425],[139.12875562612012,36.02671322786823],[139.12871700927204,36.02671372200693],[139.12870507349172,36.0266710204451],[139.12870913228758,36.026638867930494]]]},"properties":{"layer":"building","height_m":3.0}},{"type":"Feature","id":"bldg_2050a4f5-882d-4692-84f0-71b5b8effaae","geometry":{"type":"Polygon","coordinates":[[[139.12876817843892,36.02664930941091],[139.12891836303302,36.02665478833641],[139.12891335505466,36.02674371710146],[139.12883582218168,36.02674091825571],[139.1288337163906,36.02677803939083],[139.12877737004496,36.02677590575262],[139.1287808108555,36.026713465968854],[139.12876461704258,36.026712830044886],[139.12876817843892,36.02664930941091]]]},"properties":{"layer":"building","height_m":6.7}},{"type":"Feature","id":"bldg_f2554b74-2f77-4d13-9dd1-cc30ff792508","geometry":{"type":"Polygon","coordinates":[[[139.12880294242663,36.0267824552171],[139.1288828125019,36.02678445664529],[139.1288810935616,36.026827979274316],[139.12880122344254,36.0268259778445],[139.12880294242663,36.0267824552171]]]},"properties":{"layer":"building","height_m":3.6}},{"type":"Feature","id":"bldg_1e8cda1d-5db9-4d9d-a3c4-9a6e11088a3a","geometry":{"type":"Polygon","coordinates":[[[139.12517486381543,36.026082389083875],[139.12521953959327,36.02607061155219],[139.12524880834846,36.02614387969434],[139.12520413253318,36.026155657236366],[139.12517486381543,36.026082389083875]]]},"properties":{"layer":"building","height_m":3.1}},{"type":"Feature","id":"bldg_02660e41-9363-4843-b878-9a1286370b9d","geometry":{"type":"Polygon","coordinates":[[[139.12905889574677,36.026934385455114],[139.12891595420126,36.02700015184542],[139.1288524112783,36.026909017788654],[139.12892148657488,36.02687724720414],[139.12892992139197,36.026889464283435],[139.12897404121506,36.026869083698614],[139.12898291502495,36.02688184413197],[139.12901277309965,36.026868139503826],[139.12905889574677,36.026934385455114]]]},"properties":{"layer":"building","height_m":5.1}},{"type":"Feature","id":"bldg_2a2ad4ed-1474-42cc-ac47-40f61f49867b","geometry":{"type":"Polygon","coordinates":[[[139.12885837446973,36.02718638241712],[139.12888764423087,36.02717645981967],[139.12891796444677,36.02723549273133],[139.12888869466738,36.02724541533589],[139.12885837446973,36.02718638241712]]]},"properties":{"layer":"building","height_m":5.0}},{"type":"Feature","id":"bldg_060683d9-4d92-4c21-9f0e-d350bed7dc32","geometry":{"type":"Polygon","coordinates":[[[139.12519553829787,36.026419209272575],[139.1252377335386,36.02639203192173],[139.12529555467307,36.02645126417837],[139.12525335941993,36.02647844154917],[139.12519553829787,36.026419209272575]]]},"properties":{"layer":"building","height_m":null}},{"type":"Feature","id":"bldg_3dc57a86-3e68-46eb-9870-44f1bbb0775d","geometry":{"type":"Polygon","coordinates":[[[139.12890713430977,36.026769457702244],[139.12893080072146,36.02670344139747],[139.12897066070906,36.02671286877757],[139.12894699432755,36.026778885090444],[139.12890713430977,36.026769457702244]]]},"properties":{"layer":"building","height_m":3.0}},{"type":"Feature","id":"bldg_b4a7abf9-334d-4eca-a179-30c492b1e588","geometry":{"type":"Polygon","coordinates":[[[139.12522426451912,36.02631134024716],[139.12525793646077,36.02628809629808],[139.12529962062354,36.02632794548004],[139.12526593758187,36.02635118937512],[139.12522426451912,36.02631134024716]]]},"properties":{"layer":"building","height_m":null}},{"type":"Feature","id":"bldg_6b3dbef7-c17e-419d-9511-f93e783eff5f","geometry":{"type":"Polygon","coordinates":[[[139.12912931864923,36.027087803491995],[139.12914118054735,36.02715130654941],[139.12913658191823,36.02715187440177],[139.1291418140481,36.02717986341095],[139.12908646396903,36.02718668566259],[139.12908422912503,36.027174739343685],[139.1290640130131,36.02717722536971],[139.12904915383527,36.02709768862479],[139.12912931864923,36.027087803491995]]]},"properties":{"layer":"building","height_m":6.9}},{"type":"Feature","id":"bldg_de8e7091-ef8d-4839-b896-bb6af188f2d0","geometry":{"type":"Polygon","coordinates":[[[139.12539138851307,36.02967283575206],[139.12531308858593,36.029718249532294],[139.1252588283852,36.02965637048791],[139.12533712747458,36.02961104686735],[139.12539138851307,36.02967283575206]]]},"properties":{"layer":"building","height_m":6.5}},{"type":"Feature","id":"bldg_022d7e23-6a83-400d-8b68-a033889093e6","geometry":{"type":"Polygon","coordinates":[[[139.12533926540314,36.02952092968308],[139.12534925018545,36.0295583023751],[139.12531220119251,36.02959422568032],[139.12528143068369,36.02957331413865],[139.1252969895152,36.02955817407025],[139.12527151413724,36.02954071872395],[139.12531147371828,36.02950192846248],[139.12533926540314,36.02952092968308]]]},"properties":{"layer":"building","height_m":3.1}},{"type":"Feature","id":"bldg_5e0bc09a-d242-4d1f-9c0e-263ee2085b4b","geometry":{"type":"Polygon","coordinates":[[[139.12918774231167,36.02790385785999],[139.12913780970334,36.027953947234145],[139.12907980099857,36.027889163723415],[139.12914170775724,36.027852574038604],[139.12918774231167,36.02790385785999]]]},"properties":{"layer":"building","height_m":4.7}},{"type":"Feature","id":"bldg_3226fedf-69a2-4b08-9d5b-58057a7a08cc","geometry":{"type":"Polygon","coordinates":[[[139.12915887412396,36.02798083949785],[139.12912997252892,36.02796183263789],[139.12913780970334,36.027953947234145],[139.12918774231167,36.02790385785999],[139.12921103028935,36.02788038058252],[139.12936425459455,36.02798096380699],[139.12929316137786,36.02805237992483],[139.12930353066463,36.02805920054275],[139.1292836016778,36.02807927262433],[139.12914890962372,36.02799087552708],[139.12915887412396,36.02798083949785]]]},"properties":{"layer":"building","height_m":7.9}},{"type":"Feature","id":"bldg_ed7da74a-0bb0-43c0-a3fb-d4f179db6d06","geometry":{"type":"Polygon","coordinates":[[[139.12916981375508,36.0271380994176],[139.1291552028448,36.02705933024651],[139.12929327006998,36.02704256560238],[139.1293077701651,36.02712133410698],[139.12916981375508,36.0271380994176]]]},"properties":{"layer":"building","height_m":4.6}},{"type":"Feature","id":"bldg_2d6dcf0d-d969-403a-a9f7-e2dc10720827","geometry":{"type":"Polygon","coordinates":[[[139.1292223897191,36.027214838263276],[139.1292477232947,36.027248244931],[139.12922409517302,36.02726009346936],[139.1291987624058,36.02722659667161],[139.1292223897191,36.027214838263276]]]},"properties":{"layer":"building","height_m":3.2}},{"type":"Feature","id":"bldg_a8ba5dbd-67bf-4c3c-bf63-e9c7d388e6e1","geometry":{"type":"Polygon","coordinates":[[[139.1292251866021,36.02751898889559],[139.129289526908,36.02749941191117],[139.12930368909468,36.027530121185094],[139.1292804918868,36.02753717735489],[139.12929360891744,36.02756563625998],[139.1293191981483,36.027557855066156],[139.12933207575557,36.027585789808214],[139.12926534337166,36.02760609183508],[139.1292251866021,36.02751898889559]]]},"properties":{"layer":"building","height_m":7.7}},{"type":"Feature","id":"bldg_1faa95e5-f139-48c3-bd7e-4caf911922f8","geometry":{"type":"Polygon","coordinates":[[[139.12930954706647,36.02520440814233],[139.12930964185963,36.02523864904611],[139.1292536095481,36.025238752701924],[139.129253514699,36.025204520810874],[139.12930954706647,36.02520440814233]]]},"properties":{"layer":"building","height_m":3.3}},{"type":"Feature","id":"bldg_70b2c5be-a59f-4695-9497-d59e42b74edf","geometry":{"type":"Polygon","coordinates":[[[139.12933067911973,36.02520242316296],[139.12926612535176,36.0252025579151],[139.1292659736588,36.02515102075005],[139.12933052730455,36.02515089501004],[139.12933067911973,36.02520242316296]]]},"properties":{"layer":"building","height_m":3.5}},{"type":"Feature","id":"bldg_bb7d286f-0b43-45e1-bf19-229e849058a5","geometry":{"type":"Polygon","coordinates":[[[139.12932485551406,36.02745824971772],[139.1292941625897,36.02746600094898],[139.1292698726279,36.027402587174905],[139.12943445857985,36.027360921965716],[139.12946579689412,36.0274427635712],[139.12933190451972,36.02747658746299],[139.12932485551406,36.02745824971772]]]},"properties":{"layer":"building","height_m":4.4}},{"type":"Feature","id":"bldg_ef9f397b-050c-4724-946c-8ad5fc144392","geometry":{"type":"Polygon","coordinates":[[[139.12544499534292,36.02982015393456],[139.12546141182466,36.02984557732028],[139.12538433581818,36.02987819993814],[139.12533399466486,36.02979994044168],[139.12544292755692,36.02975362593205],[139.12547696244823,36.029806552782766],[139.12544499534292,36.02982015393456]]]},"properties":{"layer":"building","height_m":7.0}},{"type":"Feature","id":"bldg_21c65293-0d3c-46f1-b779-5824d7d9fe1b","geometry":{"type":"Polygon","coordinates":[[[139.12939817375454,36.02759189206925],[139.1293690043493,36.02752567367271],[139.12941444756063,36.02751246602215],[139.12941205491407,36.027507026159405],[139.12947663204156,36.027488261633174],[139.12950819425862,36.027559910853206],[139.12939817375454,36.02759189206925]]]},"properties":{"layer":"building","height_m":7.4}},{"type":"Feature","id":"bldg_915f9067-9b9a-4b82-a028-f66aa629030d","geometry":{"type":"Polygon","coordinates":[[[139.1254856175962,36.02962048582553],[139.12550613368762,36.029646564314326],[139.12546254604098,36.02966919998751],[139.12543928756855,36.029639590239654],[139.12541197573546,36.02965375964387],[139.12534713769782,36.029571178465126],[139.1254172572232,36.029534729348384],[139.125437224954,36.02956008357339],[139.1254630870988,36.029546716773524],[139.12551081080682,36.02960747558609],[139.1254856175962,36.02962048582553]]]},"properties":{"layer":"building","height_m":9.0}},{"type":"Feature","id":"bldg_e1aa6ca6-bfec-4d13-8f8c-fbe29df7b28c","geometry":{"type":"Polygon","coordinates":[[[139.12941908510228,36.027704587016835],[139.12945508241438,36.02771173831666],[139.12944936249198,36.02773108266173],[139.12941336436987,36.02772402148526],[139.12941908510228,36.027704587016835]]]},"properties":{"layer":"building","height_m":4.8}},{"type":"Feature","id":"bldg_92f8af16-70c5-4620-8409-661719863d91","geometry":{"type":"Polygon","coordinates":[[[139.1294279213589,36.02788372691355],[139.12952375414423,36.027850130196704],[139.12955682081,36.02791233360853],[139.12946098796243,36.02794593035079],[139.1294279213589,36.02788372691355]]]},"properties":{"layer":"building","height_m":8.0}},{"type":"Feature","id":"bldg_46b0c243-1673-4c09-b7c2-22790ae8b43f","geometry":{"type":"Polygon","coordinates":[[[139.12958886645316,36.02770260923645],[139.12948279912803,36.02773921035104],[139.12944123236034,36.02765965209047],[139.12950945847817,36.027636078006125],[139.12951589554896,36.027648373448066],[139.12955362572168,36.02763534580001],[139.12958886645316,36.02770260923645]]]},"properties":{"layer":"building","height_m":6.8}},{"type":"Feature","id":"bldg_52391573-6032-4b2e-b32a-b7a4da4c09f8","geometry":{"type":"Polygon","coordinates":[[[139.1255894105137,36.02978901029791],[139.1254984855487,36.02981929800575],[139.12544146065915,36.02970674977373],[139.12554841201256,36.02967105878599],[139.12558013998975,36.029733796140704],[139.1255642252416,36.02973910999594],[139.1255894105137,36.02978901029791]]]},"properties":{"layer":"building","height_m":5.6}},{"type":"Feature","id":"bldg_b351eed3-212d-4845-bc18-3207bee914eb","geometry":{"type":"Polygon","coordinates":[[[139.12551218472015,36.025273950877484],[139.12556702227232,36.025283377659235],[139.12555668392687,36.02532279352546],[139.12550195729625,36.02531336739362],[139.12551218472015,36.025273950877484]]]},"properties":{"layer":"building","height_m":3.2}},{"type":"Feature","id":"bldg_2d2f9502-95cd-404b-b636-a7e55d05a8df","geometry":{"type":"Polygon","coordinates":[[[139.12955362572168,36.02763534580001],[139.12951589554896,36.027648373448066],[139.12950945847817,36.027636078006125],[139.12948530679043,36.027644408457256],[139.12947897987382,36.027632203790105],[139.12954086172147,36.027610845695996],[139.12955362572168,36.02763534580001]]]},"properties":{"layer":"building","height_m":null}},{"type":"Feature","id":"bldg_8ebdda1a-56b5-49ff-9d0f-4311f2e9cbb5","geometry":{"type":"Polygon","coordinates":[[[139.12958482685352,36.0271737485513],[139.12959977166452,36.027101498023356],[139.12966912367003,36.02711096304774],[139.12967006276037,36.02710642601283],[139.1297736918156,36.0271205715614],[139.12976032395883,36.027185197364005],[139.12972305468662,36.0271801116801],[139.12972053879503,36.027192273463385],[139.12958482685352,36.0271737485513]]]},"properties":{"layer":"building","height_m":7.7}},{"type":"Feature","id":"bldg_1565b9ab-7ab9-4ae0-a744-8f8287eb262a","geometry":{"type":"Polygon","coordinates":[[[139.12962342289345,36.02779691661721],[139.1296074698964,36.0277666835734],[139.12965855727077,36.02774889430509],[139.1296699383001,36.02777045706066],[139.1296590976075,36.02777422396643],[139.12966368060532,36.027782903326134],[139.12962342289345,36.02779691661721]]]},"properties":{"layer":"building","height_m":null}},{"type":"Feature","id":"bldg_7004077d-42cc-4ef7-a985-8f24e73aa91f","geometry":{"type":"Polygon","coordinates":[[[139.12549574821875,36.026032296682985],[139.12552308991346,36.026027050276994],[139.12553299647416,36.02606072718734],[139.1255056539622,36.02606606372054],[139.12549574821875,36.026032296682985]]]},"properties":{"layer":"building","height_m":null}},{"type":"Feature","id":"bldg_60f050e6-bdd6-48da-b187-aea230d3fde1","geometry":{"type":"Polygon","coordinates":[[[139.12552577662606,36.025205712659336],[139.12559202478025,36.025217099505774],[139.12557616671432,36.02527820409696],[139.12550980756419,36.02526681658649],[139.12552577662606,36.025205712659336]]]},"properties":{"layer":"building","height_m":3.5}},{"type":"Feature","id":"bldg_ab4cf670-c0e8-40d1-89a1-5888f9c3e811","geometry":{"type":"Polygon","coordinates":[[[139.1257018902891,36.02527669279732],[139.12575344753245,36.02529313026725],[139.12571568992595,36.02537132046268],[139.12559177528283,36.02533183336064],[139.12562433107573,36.02526460835015],[139.12569657743424,36.0252876572911],[139.1257018902891,36.02527669279732]]]},"properties":{"layer":"building","height_m":7.4}},{"type":"Feature","id":"bldg_80a5aefe-f878-4e84-8026-e67d87190eb8","geometry":{"type":"Polygon","coordinates":[[[139.12565082806685,36.02608575767543],[139.12564902230577,36.026051948321154],[139.12588265190797,36.02604404345579],[139.12588538918104,36.02609777700197],[139.1258375526181,36.02609947764161],[139.12583943717655,36.02613689265255],[139.1256825002072,36.02614218561316],[139.1256795742197,36.02608475562553],[139.12565082806685,36.02608575767543]]]},"properties":{"layer":"building","height_m":7.5}},{"type":"Feature","id":"bldg_c67d55d7-4913-4502-bc54-358fe865a939","geometry":{"type":"Polygon","coordinates":[[[139.1257500841502,36.02614325137543],[139.12576133523757,36.02619160934147],[139.12566834976147,36.02620587799744],[139.12565709872916,36.02615752002342],[139.1257500841502,36.02614325137543]]]},"properties":{"layer":"building","height_m":6.5}},{"type":"Feature","id":"bldg_fd9644da-2331-4deb-8c08-94cc1d4c4855","geometry":{"type":"Polygon","coordinates":[[[139.1256941264383,36.02516470568037],[139.12571037955053,36.025121449118245],[139.12576971911813,36.025136129905334],[139.1257534660351,36.02517938647574],[139.1256941264383,36.02516470568037]]]},"properties":{"layer":"building","height_m":null}},{"type":"Feature","id":"bldg_f9e4722a-3400-45c2-b613-8460be05232a","geometry":{"type":"Polygon","coordinates":[[[139.13040345765322,36.02857034435312],[139.13035710697287,36.02862069857888],[139.13030168298738,36.028587034622724],[139.13036257941806,36.028545517298404],[139.13040345765322,36.02857034435312]]]},"properties":{"layer":"building","height_m":3.6}},{"type":"Feature","id":"bldg_e9f451fe-6819-4173-9338-2b43d7b9adb5","geometry":{"type":"Polygon","coordinates":[[[139.13035314196833,36.02847626027242],[139.13031648847826,36.02845549578608],[139.13034227488708,36.02842554358793],[139.1303789283703,36.028446308066414],[139.13035314196833,36.02847626027242]]]},"properties":{"layer":"building","height_m":3.4}},{"type":"Feature","id":"bldg_c8db91fb-b93a-4712-a705-18293a0ded9e","geometry":{"type":"Polygon","coordinates":[[[139.13035092517313,36.02853843687538],[139.13042442314404,36.02845856202306],[139.13051911400464,36.02851607910448],[139.13044561607393,36.028595954014556],[139.13040345765322,36.02857034435312],[139.13036257941806,36.028545517298404],[139.13035092517313,36.02853843687538]]]},"properties":{"layer":"building","height_m":4.8}},{"type":"Feature","id":"bldg_21ccb34b-66cf-4e35-8695-c822ca3f6ce8","geometry":{"type":"Polygon","coordinates":[[[139.1304310974234,36.02880638520377],[139.13041518983562,36.028822190862805],[139.1303627938415,36.02878739102259],[139.13038229487412,36.02876801926759],[139.13037283048644,36.02876173581356],[139.13044105050184,36.02869396149252],[139.13045498235581,36.02870320936039],[139.13045710023087,36.02870461878693],[139.1303852867782,36.028775959220106],[139.1304310974234,36.02880638520377]]]},"properties":{"layer":"building","height_m":4.5}},{"type":"Feature","id":"bldg_7e235473-f138-4d3b-93da-96a0a4eade83","geometry":{"type":"Polygon","coordinates":[[[139.12600866601073,36.02626462254726],[139.12601937118504,36.02635421167957],[139.12595673743547,36.02635915087825],[139.12596233312183,36.02640591621756],[139.1258744837104,36.02641284270593],[139.12587111858096,36.02638465727282],[139.1258024779466,36.026390065679834],[139.1258008572499,36.026376500587006],[139.12574147677412,36.026381179465226],[139.1257319484779,36.02630146647401],[139.1258488884537,36.02629224216132],[139.1258471019975,36.02627736019501],[139.12600866601073,36.02626462254726]]]},"properties":{"layer":"building","height_m":8.3}},{"type":"Feature","id":"bldg_c68e9c1d-13b4-4bc4-9c22-5d5ec71b3a04","geometry":{"type":"Polygon","coordinates":[[[139.1303852867782,36.028775959220106],[139.13045710023087,36.02870461878693],[139.13051557422455,36.02874344696189],[139.13052179833616,36.02873727349437],[139.13054883466168,36.028755232594605],[139.1305562363404,36.02876014298532],[139.1305545347338,36.02876183646698],[139.130478209818,36.02883766602053],[139.1304310974234,36.02880638520377],[139.1303852867782,36.028775959220106]]]},"properties":{"layer":"building","height_m":4.7}},{"type":"Feature","id":"bldg_c4b398f8-627f-45f2-b7d7-3b4b290ad0f3","geometry":{"type":"Polygon","coordinates":[[[139.12578147691895,36.02526057850631],[139.12584014044444,36.025276426958406],[139.12584388470518,36.02526716567151],[139.1259195930625,36.02528771126668],[139.12588420556276,36.02537384692636],[139.12574994369893,36.02533754362015],[139.12578147691895,36.02526057850631]]]},"properties":{"layer":"building","height_m":6.8}},{"type":"Feature","id":"bldg_9cf5fe8f-7de5-4cd8-b479-b24d405a4fbd","geometry":{"type":"Polygon","coordinates":[[[139.1305611450279,36.029417984431056],[139.13051967679013,36.02946451878053],[139.13039262521792,36.02938995772695],[139.1304506811052,36.02932477364463],[139.1305897530065,36.02940643520935],[139.13057328737483,36.0294250947329],[139.1305611450279,36.029417984431056]]]},"properties":{"layer":"building","height_m":9.0}},{"type":"Feature","id":"bldg_eac96115-55b4-44b9-be8c-045f108365d7","geometry":{"type":"Polygon","coordinates":[[[139.13045498235581,36.02870320936039],[139.13047568126294,36.028682636871004],[139.13056332046594,36.02874084263666],[139.13054883466168,36.028755232594605],[139.13052179833616,36.02873727349437],[139.13051557422455,36.02874344696189],[139.13045710023087,36.02870461878693],[139.13045498235581,36.02870320936039]]]},"properties":{"layer":"building","height_m":3.4}},{"type":"Feature","id":"bldg_48779919-3c0e-4fc6-aba9-a51f0dd1f837","geometry":{"type":"Polygon","coordinates":[[[139.1305545347338,36.02876183646698],[139.13058643574084,36.02878301466555],[139.13051011075444,36.02885885325176],[139.130478209818,36.02883766602053],[139.1305545347338,36.02876183646698]]]},"properties":{"layer":"building","height_m":3.1}},{"type":"Feature","id":"bldg_3e3636a9-fc23-4a34-9e80-90d1e9057735","geometry":{"type":"Polygon","coordinates":[[[139.13049127162554,36.02869004679375],[139.13050840664425,36.02867221138344],[139.1305648493321,36.02861368738893],[139.13057963270842,36.02859827169213],[139.13063159983477,36.0286313834971],[139.13059979482696,36.028664364901225],[139.1306129253077,36.02867264366516],[139.1305877273002,36.0286988139149],[139.13057261088304,36.02868926169176],[139.1305412528388,36.028721885179806],[139.13049127162554,36.02869004679375]]]},"properties":{"layer":"building","height_m":4.3}},{"type":"Feature","id":"bldg_11b6494f-a0bd-4a3d-8bd8-71e6210e49bc","geometry":{"type":"Polygon","coordinates":[[[139.13050840664425,36.02867221138344],[139.13049461446394,36.028663478080524],[139.13055105795607,36.028604863967324],[139.1305648493321,36.02861368738893],[139.13050840664425,36.02867221138344]]]},"properties":{"layer":"building","height_m":null}},{"type":"Feature","id":"bldg_3943161b-e8c7-4c9e-90bf-880bd6fa4e33","geometry":{"type":"Polygon","coordinates":[[[139.1258920109569,36.02612656749227],[139.12588207509788,36.02602168784697],[139.12601385149208,36.02601345219494],[139.12602023623458,36.02608117738152],[139.12596517191423,36.026084638037744],[139.12596872317897,36.02612179248896],[139.1258920109569,36.02612656749227]]]},"properties":{"layer":"building","height_m":8.1}},{"type":"Feature","id":"bldg_5313ad20-3257-48dd-aa59-02e6cb3eb7f3","geometry":{"type":"Polygon","coordinates":[[[139.13063826849836,36.02942970262917],[139.13058020708206,36.02949551767809],[139.13053461707273,36.02946893257672],[139.13057328737483,36.0294250947329],[139.1305897530065,36.02940643520935],[139.13059267850667,36.02940311754979],[139.13063826849836,36.02942970262917]]]},"properties":{"layer":"building","height_m":3.1}},{"type":"Feature","id":"bldg_e22c8276-f14f-47ed-b7d7-c20b19fc9dc3","geometry":{"type":"Polygon","coordinates":[[[139.12603876467116,36.026528150510316],[139.1259017653121,36.02654960446146],[139.12589064559427,36.02650267133744],[139.12602764487463,36.026481217397965],[139.12603876467116,36.026528150510316]]]},"properties":{"layer":"building","height_m":3.2}},{"type":"Feature","id":"bldg_03a64760-c902-41b0-9631-e6f6ac95d46e","geometry":{"type":"Polygon","coordinates":[[[139.13058452386,36.02949671466435],[139.13062969516275,36.02944551524113],[139.13064393530888,36.02945380050402],[139.1306252171832,36.02947496145762],[139.13065811321397,36.02949408149385],[139.13063166004702,36.02952411997605],[139.13058452386,36.02949671466435]]]},"properties":{"layer":"building","height_m":11.2}},{"type":"Feature","id":"bldg_22d7ec8a-4fc1-4957-830b-902311ce1a5e","geometry":{"type":"Polygon","coordinates":[[[139.12594508764357,36.02551388033973],[139.1259074414504,36.02551011615953],[139.125921203135,36.025419130119516],[139.12597467939466,36.02542446580182],[139.12597164830137,36.02544455589696],[139.12595581826898,36.02544297537717],[139.12594508764357,36.02551388033973]]]},"properties":{"layer":"building","height_m":null}},{"type":"Feature","id":"bldg_33b9a518-c060-462e-9d67-bc2d59bb758d","geometry":{"type":"Polygon","coordinates":[[[139.1259761858093,36.0253366251004],[139.125966912019,36.02538109455496],[139.12593854247388,36.0253772318837],[139.12594781627956,36.02533276243148],[139.1259761858093,36.0253366251004]]]},"properties":{"layer":"building","height_m":3.2}},{"type":"Feature","id":"bldg_582f3c55-f948-4936-a681-559bf04cc0da","geometry":{"type":"Polygon","coordinates":[[[139.1260734706654,36.0253390015037],[139.12613309921394,36.025346203036435],[139.12611746784864,36.02543164410271],[139.12597549054416,36.02541440307974],[139.12599041609275,36.02533346436298],[139.1260288754039,36.02533810757249],[139.1260338878179,36.0253110981742],[139.126077556014,36.025316402999714],[139.1260734706654,36.0253390015037]]]},"properties":{"layer":"building","height_m":7.3}},{"type":"Feature","id":"bldg_c6fc4775-4b56-4c70-9e29-63ff5ee784ac","geometry":{"type":"Polygon","coordinates":[[[139.1311708903112,36.02897757674836],[139.13118850154254,36.02901859882228],[139.13112465066274,36.029036701553316],[139.1311070394608,36.028995679470476],[139.1311708903112,36.02897757674836]]]},"properties":{"layer":"building","height_m":6.5}},{"type":"Feature","id":"bldg_2fc33e0a-79c7-423b-b84b-42efcd979021","geometry":{"type":"Polygon","coordinates":[[[139.1312504134942,36.02914397142598],[139.13117688402122,36.02916490167181],[139.13113013568372,36.02905629185035],[139.1312036642674,36.029035451757004],[139.1312504134942,36.02914397142598]]]},"properties":{"layer":"building","height_m":6.5}},{"type":"Feature","id":"bldg_e5a4079c-0dd4-4627-b486-0147f1cef1ad","geometry":{"type":"Polygon","coordinates":[[[139.13114253224282,36.02939732565355],[139.13117473977195,36.029356505170256],[139.13119638823636,36.02936771790222],[139.13121613915504,36.02934268732198],[139.1313115669411,36.02939236679604],[139.13125960854512,36.02945821790672],[139.13114253224282,36.02939732565355]]]},"properties":{"layer":"building","height_m":9.9}},{"type":"Feature","id":"bldg_a97a63ea-f757-4872-a9db-7f068b3c1fec","geometry":{"type":"Polygon","coordinates":[[[139.13126512300767,36.029487001613035],[139.13125625595038,36.029460902173184],[139.13128027067137,36.029455544852716],[139.13127713539356,36.02944624312276],[139.13130960015945,36.029438952411695],[139.13132214368832,36.02947588895231],[139.13132418203085,36.029546292293425],[139.13128201008965,36.029547126957645],[139.13128024306675,36.0294836652025],[139.13126512300767,36.029487001613035]]]},"properties":{"layer":"building","height_m":4.2}},{"type":"Feature","id":"bldg_4e7e63c4-0d3c-4576-a0f1-3eda304e1fb8","geometry":{"type":"Polygon","coordinates":[[[139.1314240368957,36.02944719322229],[139.13149861756972,36.02944537650674],[139.13150237022143,36.02954769584455],[139.1314518735663,36.029548842364726],[139.13145267706474,36.0295708387497],[139.13141993696462,36.02957163853873],[139.13141912228144,36.02955090390592],[139.1314066922858,36.02955119166579],[139.13140786042817,36.02958211303995],[139.13136080411132,36.029583189530086],[139.13135964958104,36.029550736027915],[139.1313386737633,36.0295512441428],[139.13133556125646,36.02946434075204],[139.13142456989058,36.02946215789646],[139.1314240368957,36.02944719322229]]]},"properties":{"layer":"building","height_m":7.2}},{"type":"Feature","id":"bldg_27cdda80-59b6-4686-9239-47786ad33258","geometry":{"type":"Polygon","coordinates":[[[139.131452322685,36.02912298146532],[139.13135861043023,36.029130093950606],[139.1313552088594,36.02910078183665],[139.13138274517215,36.02909868978467],[139.13138140992936,36.02908660456851],[139.1314475858268,36.02908158413804],[139.131452322685,36.02912298146532]]]},"properties":{"layer":"building","height_m":3.9}},{"type":"Feature","id":"bldg_1940c2b1-bc48-49c3-9fd1-59ef9da55882","geometry":{"type":"Polygon","coordinates":[[[139.13153837848148,36.02922848641049],[139.13146259911497,36.02922786262993],[139.13146304585834,36.0291900107081],[139.13153882518858,36.02919063448799],[139.13153837848148,36.02922848641049]]]},"properties":{"layer":"building","height_m":3.3}},{"type":"Feature","id":"bldg_f5067503-c712-48df-9bc5-c1dc99444d1a","geometry":{"type":"Polygon","coordinates":[[[139.12598818968553,36.02552047071566],[139.12598727701013,36.025486035721414],[139.12604475920668,36.025485112949646],[139.1260455609593,36.02551954728938],[139.12598818968553,36.02552047071566]]]},"properties":{"layer":"building","height_m":null}},{"type":"Feature","id":"bldg_0eaca3b5-529b-48a0-b88a-40fcec09fc6b","geometry":{"type":"Polygon","coordinates":[[[139.13159878310128,36.02956141904816],[139.1315224454492,36.02956115255607],[139.13152292482127,36.02946958343913],[139.131599262385,36.02946984992995],[139.13159878310128,36.02956141904816]]]},"properties":{"layer":"building","height_m":9.0}},{"type":"Feature","id":"bldg_11561917-93eb-4ac3-8c0a-83677a07afbb","geometry":{"type":"Polygon","coordinates":[[[139.13160508095743,36.0294455939864],[139.13164238574018,36.02943805210592],[139.13164133970596,36.0294346390767],[139.1316808898148,36.02942665066076],[139.13168370417392,36.0294358603728],[139.13169324155845,36.02943393332166],[139.13171291104948,36.02949814875723],[139.1316265297955,36.02951560618437],[139.13160508095743,36.0294455939864]]]},"properties":{"layer":"building","height_m":5.2}},{"type":"Feature","id":"bldg_bc57e668-d535-4637-b3cf-ad5e44e13d04","geometry":{"type":"Polygon","coordinates":[[[139.1317023482979,36.02931790837523],[139.13170330628157,36.02928620629954],[139.13178362639812,36.02928780285713],[139.1317826684466,36.029319504933824],[139.1317023482979,36.02931790837523]]]},"properties":{"layer":"building","height_m":3.9}},{"type":"Feature","id":"bldg_1f478fc7-eb5b-4e36-85ab-7bb53a3fb3ce","geometry":{"type":"Polygon","coordinates":[[[139.13177326042734,36.02948078232064],[139.1317169438863,36.0294875730835],[139.13170551797654,36.02942468572656],[139.13176172352024,36.029417894319394],[139.13177326042734,36.02948078232064]]]},"properties":{"layer":"building","height_m":4.6}},{"type":"Feature","id":"bldg_2ef20299-ab21-445d-81ae-30b7069961df","geometry":{"type":"Polygon","coordinates":[[[139.13178184500936,36.029561282445684],[139.13173289700944,36.02956046430092],[139.1317340488703,36.02951440567606],[139.13178299692166,36.02951521480752],[139.13178184500936,36.029561282445684]]]},"properties":{"layer":"building","height_m":3.2}},{"type":"Feature","id":"bldg_475c52c1-293b-4cd5-b790-41cbbc5704b8","geometry":{"type":"Polygon","coordinates":[[[139.13184269541048,36.029516194964884],[139.13184138877787,36.029568453619106],[139.13178169024968,36.02956747346066],[139.13178184500936,36.029561282445684],[139.13178299692166,36.02951521480752],[139.13184269541048,36.029516194964884]]]},"properties":{"layer":"building","height_m":null}},{"type":"Feature","id":"bldg_622926df-705e-4e4d-9a1b-e273a6df1855","geometry":{"type":"Polygon","coordinates":[[[139.1260261094716,36.02647920745893],[139.1259879161721,36.02648073971075],[139.12598369914934,36.02641131484615],[139.12602189241537,36.02640978259528],[139.1260261094716,36.02647920745893]]]},"properties":{"layer":"building","height_m":null}},{"type":"Feature","id":"bldg_a7db8e07-93ff-4d34-8d1a-cf1213351386","geometry":{"type":"Polygon","coordinates":[[[139.12604435532845,36.026225437289725],[139.1260476914041,36.02624943150913],[139.12600982564183,36.026252813362554],[139.1260064887719,36.02622890926735],[139.12604435532845,36.026225437289725]]]},"properties":{"layer":"building","height_m":null}},{"type":"Feature","id":"bldg_faa890fd-c576-4394-9a47-dc2fc4be0a1a","geometry":{"type":"Polygon","coordinates":[[[139.13465457072732,36.02904992985413],[139.13473369482642,36.029061296556996],[139.13472178363224,36.02911593599535],[139.1346262583341,36.029102220473725],[139.13463238954725,36.029073865289355],[139.13464890164093,36.02907621474535],[139.13465457072732,36.02904992985413]]]},"properties":{"layer":"building","height_m":5.1}},{"type":"Feature","id":"bldg_8855659d-1735-4b62-a582-22a8bcda4918","geometry":{"type":"Polygon","coordinates":[[[139.13475337339247,36.02918884582242],[139.13474774091375,36.02915192285383],[139.13477681579982,36.02914899176447],[139.1347760503235,36.02914394904548],[139.1349207248349,36.029129388559994],[139.1349271339745,36.02917135430419],[139.13475337339247,36.02918884582242]]]},"properties":{"layer":"building","height_m":7.9}},{"type":"Feature","id":"bldg_8161dced-a939-466d-818d-eb8ac930a7af","geometry":{"type":"Polygon","coordinates":[[[139.13597086817646,36.032373829841916],[139.1359552183471,36.032487572798985],[139.13570486326705,36.03246484587082],[139.1357239537473,36.03232588661294],[139.13588560907453,36.03234052671141],[139.13588216803421,36.032365833178744],[139.13597086817646,36.032373829841916]]]},"properties":{"layer":"building","height_m":10.7}},{"type":"Feature","id":"bldg_698b9de3-1ea5-4525-bf1f-790089e59f06","geometry":{"type":"Polygon","coordinates":[[[139.1357613760277,36.029579307043804],[139.13573072876966,36.029556686418786],[139.13575130634652,36.0295384196343],[139.13578195360353,36.029561040254116],[139.1357613760277,36.029579307043804]]]},"properties":{"layer":"building","height_m":null}},{"type":"Feature","id":"bldg_13fc0254-dc20-4783-a046-5d263b0de80b","geometry":{"type":"Polygon","coordinates":[[[139.1357182082291,36.03227276671756],[139.13577986005296,36.032277722001844],[139.1357743499279,36.03232374629031],[139.13571258631632,36.032318880482514],[139.1357182082291,36.03227276671756]]]},"properties":{"layer":"building","height_m":3.8}},{"type":"Feature","id":"bldg_be1a41d3-f2a5-4386-8a65-1a8bb091bff8","geometry":{"type":"Polygon","coordinates":[[[139.13597450945818,36.02983833616135],[139.13592494440243,36.029825673073944],[139.1359343572255,36.029801365714874],[139.13592176948094,36.02979814697343],[139.135929376982,36.02977849784206],[139.13599152983437,36.02979437065035],[139.13597450945818,36.02983833616135]]]},"properties":{"layer":"building","height_m":null}},{"type":"Feature","id":"bldg_47cfa9bc-7d12-43e3-8a7c-2fe5519cfbad","geometry":{"type":"Polygon","coordinates":[[[139.13602898252702,36.031805736969076],[139.13606536826788,36.03183456477713],[139.1360151776567,36.031876363547674],[139.1359787919154,36.03184753572457],[139.13602898252702,36.031805736969076]]]},"properties":{"layer":"building","height_m":5.9}},{"type":"Feature","id":"bldg_880eba5b-02a5-4f58-9720-5d94185c5c9f","geometry":{"type":"Polygon","coordinates":[[[139.1360847546936,36.03031727840544],[139.13614758128168,36.03031466941691],[139.13615011268823,36.03035479192265],[139.13608728606835,36.03035740091214],[139.1360847546936,36.03031727840544]]]},"properties":{"layer":"building","height_m":6.0}},{"type":"Feature","id":"bldg_1bb2b573-dd20-4e89-8b1d-0db1cf3e81e3","geometry":{"type":"Polygon","coordinates":[[[139.13636343844775,36.03004571490658],[139.13635722619497,36.02996996971111],[139.13648167180028,36.02996321218697],[139.1364878849657,36.030038867252124],[139.13636343844775,36.03004571490658]]]},"properties":{"layer":"building","height_m":6.0}},{"type":"Feature","id":"bldg_3c543ba7-8e9d-464a-911d-3eb8532ebca0","geometry":{"type":"Polygon","coordinates":[[[139.13650916733656,36.03018372146609],[139.13652750791587,36.03021660827507],[139.13648628576496,36.03023177192271],[139.13646795637433,36.03019887615961],[139.13650916733656,36.03018372146609]]]},"properties":{"layer":"building","height_m":5.1}},{"type":"Feature","id":"bldg_2a478888-3b45-4501-9261-e90e1ddc9bfc","geometry":{"type":"Polygon","coordinates":[[[139.12626900355164,36.026346057961106],[139.1262660176786,36.02636605819764],[139.1262172514209,36.02636127316922],[139.12622856052363,36.02642676511966],[139.12614347745213,36.02641839505405],[139.12613081263905,36.026503357886284],[139.12606845593825,36.02651577054162],[139.12606792919553,36.026491531516406],[139.12606993393297,36.02641744758424],[139.12608374985106,36.0263278408457],[139.12626900355164,36.026346057961106]]]},"properties":{"layer":"building","height_m":5.1}},{"type":"Feature","id":"bldg_0394c426-5f3e-45b8-89eb-59c8a2a4a6cc","geometry":{"type":"Polygon","coordinates":[[[139.12608969773896,36.02678334715335],[139.12611672821356,36.02670618416808],[139.12627523333603,36.02674281928705],[139.1262482030023,36.02681998230916],[139.12608969773896,36.02678334715335]]]},"properties":{"layer":"building","height_m":7.7}},{"type":"Feature","id":"bldg_3e048ab8-0059-41f5-bd1c-36874812ea75","geometry":{"type":"Polygon","coordinates":[[[139.12615513862812,36.02664064293329],[139.12612937774256,36.02663907597463],[139.12613161329648,36.02661488929242],[139.12611073185312,36.026613612482315],[139.126113667325,36.026581877046254],[139.12616029853262,36.02658472074769],[139.12615513862812,36.02664064293329]]]},"properties":{"layer":"building","height_m":4.5}},{"type":"Feature","id":"bldg_d904485d-7e45-424e-856a-e92850539b93","geometry":{"type":"Polygon","coordinates":[[[139.12612225607435,36.02587664350806],[139.12614997401528,36.02586653216455],[139.12616624353893,36.02589592031466],[139.12613841464136,36.0259060310075],[139.12612225607435,36.02587664350806]]]},"properties":{"layer":"building","height_m":null}},{"type":"Feature","id":"bldg_fdfa5ac3-a3b0-4d90-9cd0-c81dbeced339","geometry":{"type":"Polygon","coordinates":[[[139.12613952668954,36.025458813153186],[139.1261498893339,36.0253918176381],[139.12625420001675,36.025402617405696],[139.12624361556357,36.025469611622256],[139.12613952668954,36.025458813153186]]]},"properties":{"layer":"building","height_m":7.7}},{"type":"Feature","id":"bldg_42b0e174-7450-494f-be90-8d081008a077","geometry":{"type":"Polygon","coordinates":[[[139.12617405140307,36.025965817004014],[139.12614698784412,36.02597719402991],[139.12613571722503,36.02595955224026],[139.1261887308156,36.025937242270295],[139.1261971562503,36.02595045091417],[139.12617405140307,36.025965817004014]]]},"properties":{"layer":"building","height_m":3.4}},{"type":"Feature","id":"bldg_a9117f5d-4279-419f-824a-e360cb75c828","geometry":{"type":"Polygon","coordinates":[[[139.12629015606717,36.0261592893977],[139.1261443055109,36.02609110236002],[139.12618554715903,36.02603276115381],[139.1262981406301,36.02608524972663],[139.12626689990248,36.026129499551],[139.12630026948875,36.026145018378166],[139.12629015606717,36.0261592893977]]]},"properties":{"layer":"building","height_m":5.6}},{"type":"Feature","id":"bldg_745d665c-a3d3-4d17-81d6-60b701b46c20","geometry":{"type":"Polygon","coordinates":[[[139.12614980184017,36.02592304257544],[139.1261765357568,36.02591130308535],[139.12618923582025,36.02593039537842],[139.1261626128473,36.02594213552553],[139.12614980184017,36.02592304257544]]]},"properties":{"layer":"building","height_m":null}},{"type":"Feature","id":"bldg_6256612d-7db1-4947-a538-bce612cde34b","geometry":{"type":"Polygon","coordinates":[[[139.1261289079276,36.0288194221666],[139.12615201523727,36.028803875852],[139.1261709355259,36.02882228378458],[139.12614782821444,36.02883783010275],[139.1261289079276,36.0288194221666]]]},"properties":{"layer":"building","height_m":null}},{"type":"Feature","id":"bldg_e953b35a-19d0-47c0-8c0c-48853af32848","geometry":{"type":"Polygon","coordinates":[[[139.12611040478535,36.03153363513925],[139.12615431599883,36.031443863474394],[139.1262521352555,36.03147543595899],[139.12620821303867,36.03156520759482],[139.12611040478535,36.03153363513925]]]},"properties":{"layer":"building","height_m":6.2}},{"type":"Feature","id":"bldg_9c4d70a9-a576-41c4-989c-c1d11a483bb6","geometry":{"type":"Polygon","coordinates":[[[139.12621200097655,36.02594062416445],[139.12625291378066,36.02598115345739],[139.1262194279106,36.02600348847486],[139.12619942094665,36.026007426343575],[139.12616110406657,36.02597439311995],[139.12617405140307,36.025965817004014],[139.1261971562503,36.02595045091417],[139.12621200097655,36.02594062416445]]]},"properties":{"layer":"building","height_m":4.8}},{"type":"Feature","id":"bldg_b7411a2e-896a-41dd-89cf-69bde17f1122","geometry":{"type":"Polygon","coordinates":[[[139.1262830317834,36.02668465039467],[139.12615704483088,36.02667689538928],[139.12616525540662,36.02658876075765],[139.1261714765999,36.02658913993802],[139.12629124302518,36.026596425627865],[139.1262830317834,36.02668465039467]]]},"properties":{"layer":"building","height_m":6.9}},{"type":"Feature","id":"bldg_97c2412a-e190-4c3a-9bb7-bed22d88063a","geometry":{"type":"Polygon","coordinates":[[[139.1261714765999,36.02658913993802],[139.12617441323425,36.0265585131043],[139.1262325216359,36.026562100432415],[139.12622958582918,36.02659263714267],[139.1261714765999,36.02658913993802]]]},"properties":{"layer":"building","height_m":6.3}},{"type":"Feature","id":"bldg_a83c5645-37b3-4449-8951-d37c8bacd6cd","geometry":{"type":"Polygon","coordinates":[[[139.1261766545116,36.02881555777379],[139.12615646380416,36.02880273039907],[139.12618367815844,36.028774590123476],[139.12620386886326,36.02878741749366],[139.1261766545116,36.02881555777379]]]},"properties":{"layer":"building","height_m":null}},{"type":"Feature","id":"bldg_e835795e-4809-4637-b519-203666588e12","geometry":{"type":"Polygon","coordinates":[[[139.1262788688995,36.02600690337672],[139.12625291378066,36.02598115345739],[139.12621200097655,36.02594062416445],[139.12634806433942,36.02584994459402],[139.12641504244547,36.02591631451097],[139.12637497204514,36.02594293699023],[139.1262788688995,36.02600690337672]]]},"properties":{"layer":"building","height_m":5.0}},{"type":"Feature","id":"bldg_cbe3b0b0-d74a-4fe4-a425-154b9eaa8777","geometry":{"type":"Polygon","coordinates":[[[139.12619922800363,36.02874800339358],[139.12640862047158,36.02870913022007],[139.12640162921414,36.028684393432414],[139.1264803186488,36.028669715491986],[139.12649677179746,36.02872830673365],[139.1264126367871,36.02874394400991],[139.1264297346785,36.02880488243619],[139.1262258984477,36.028842796980534],[139.12619922800363,36.02874800339358]]]},"properties":{"layer":"building","height_m":7.6}},{"type":"Feature","id":"bldg_8322ad0d-fb59-4f6a-9398-66fe60d0fc6a","geometry":{"type":"Polygon","coordinates":[[[139.12618020456011,36.031819875364775],[139.12617565533932,36.03181984853641],[139.12617540330461,36.03174873465429],[139.126437613668,36.031748027474656],[139.126437660831,36.031767585915205],[139.12649292201854,36.03176737089866],[139.12649296452994,36.03177503218066],[139.12652503338845,36.03177495082408],[139.1265251952331,36.03181893511125],[139.12649057435473,36.0318190014243],[139.126495621353,36.031812992479665],[139.12618014757837,36.031813836333555],[139.12618020456011,36.031819875364775]]]},"properties":{"layer":"building","height_m":9.0}},{"type":"Feature","id":"bldg_86d93ca5-914a-4b49-a670-9ebd3f73e715","geometry":{"type":"Polygon","coordinates":[[[139.12626720722062,36.031930707265786],[139.12618072474777,36.031960300626075],[139.12618020456011,36.031819875364775],[139.12618014757837,36.031813836333555],[139.126495621353,36.031812992479665],[139.12643405146474,36.031885905038564],[139.12643413227352,36.031914116135795],[139.12626724044816,36.031914574231514],[139.12626720722062,36.031930707265786]]]},"properties":{"layer":"building","height_m":9.5}},{"type":"Feature","id":"bldg_a2503437-3780-4759-be3f-c023e94d1ae2","geometry":{"type":"Polygon","coordinates":[[[139.12631365271656,36.025342580925226],[139.12629949419986,36.02538738212652],[139.12624389837248,36.02537587822088],[139.1262579467762,36.0253309862471],[139.12631365271656,36.025342580925226]]]},"properties":{"layer":"building","height_m":null}},{"type":"Feature","id":"bldg_5e0e459a-3336-46b5-bc45-ba8dd365fe9b","geometry":{"type":"Polygon","coordinates":[[[139.12626095978467,36.02647141721935],[139.1262386696384,36.02640801462679],[139.1263678576073,36.02641634722103],[139.1263777043539,36.02644434552781],[139.12626095978467,36.02647141721935]]]},"properties":{"layer":"building","height_m":5.7}},{"type":"Feature","id":"bldg_af0250cc-1c76-4b2e-98d8-9a2cabc122b8","geometry":{"type":"Polygon","coordinates":[[[139.1262710359141,36.026051561605286],[139.12634937305108,36.02597667490303],[139.1264958189285,36.026077582342744],[139.12641748182696,36.026152469139845],[139.1262710359141,36.026051561605286]]]},"properties":{"layer":"building","height_m":7.2}},{"type":"Feature","id":"bldg_eaec4b4e-ef49-4eca-9e44-521cf06aaec4","geometry":{"type":"Polygon","coordinates":[[[139.12631504173658,36.0265903469841],[139.12638298439458,36.02659849871335],[139.12638683655473,36.02657716064668],[139.12642562934238,36.02658180569722],[139.12641068224102,36.02666517783173],[139.12630383494897,36.02665247051086],[139.12631504173658,36.0265903469841]]]},"properties":{"layer":"building","height_m":7.4}},{"type":"Feature","id":"bldg_bc033f66-be23-4e56-9be2-ea6a8d1dde0e","geometry":{"type":"Polygon","coordinates":[[[139.1264562123312,36.02642488963366],[139.126386163055,36.026441421109],[139.12636158717504,36.026373047921155],[139.1264154032266,36.02636029634976],[139.12642254952803,36.02638007691664],[139.1264388944546,36.02637620755425],[139.1264562123312,36.02642488963366]]]},"properties":{"layer":"building","height_m":6.1}},{"type":"Feature","id":"bldg_feabc144-ac5d-4a1c-8fb2-f33516571c53","geometry":{"type":"Polygon","coordinates":[[[139.12641504244547,36.02591631451097],[139.12647174475097,36.02587852382263],[139.12651216087946,36.02591256074986],[139.12642243652806,36.025982873940784],[139.12637497204514,36.02594293699023],[139.12641504244547,36.02591631451097]]]},"properties":{"layer":"building","height_m":3.7}},{"type":"Feature","id":"bldg_dbe1f209-5e74-43fe-a9b2-a39a3de0921f","geometry":{"type":"Polygon","coordinates":[[[139.12644339926618,36.02667925069442],[139.12662746620248,36.026655279490576],[139.12663786755692,36.02670815688464],[139.12666219526716,36.02670496544504],[139.1266681428228,36.02673474334661],[139.1266349286804,36.02673905410624],[139.1266434239136,36.02678173559225],[139.12657466242257,36.026790703856484],[139.12656839975983,36.02675894123673],[139.12646186954942,36.026772824232246],[139.12644339926618,36.02667925069442]]]},"properties":{"layer":"building","height_m":5.1}},{"type":"Feature","id":"bldg_ec1669d1-f6c3-4734-b846-b7f7ad01ae5d","geometry":{"type":"Polygon","coordinates":[[[139.12647469614217,36.028865606564494],[139.12645413224286,36.02884610743282],[139.12649203835807,36.028819715540564],[139.1265126022601,36.02883921466586],[139.12647469614217,36.028865606564494]]]},"properties":{"layer":"building","height_m":3.2}},{"type":"Feature","id":"bldg_46a2cc1e-1f04-4471-88d3-701dcaa45675","geometry":{"type":"Polygon","coordinates":[[[139.12649725582784,36.02612788327719],[139.12650987331673,36.026069283105485],[139.126601073696,36.026082168416345],[139.12658845546733,36.02614085872335],[139.12649725582784,36.02612788327719]]]},"properties":{"layer":"building","height_m":5.5}},{"type":"Feature","id":"bldg_a25fce32-27e3-4e61-96a4-90bb8823ff0c","geometry":{"type":"Polygon","coordinates":[[[139.12670797918645,36.028560738337966],[139.12673783688342,36.028609313995965],[139.12654217427234,36.028688736965975],[139.1265123166672,36.02864016126088],[139.12670797918645,36.028560738337966]]]},"properties":{"layer":"building","height_m":4.3}},{"type":"Feature","id":"bldg_16f189c2-c383-42e6-809d-173bca16bd13","geometry":{"type":"Polygon","coordinates":[[[139.12666144240623,36.02614819280142],[139.12664615135446,36.02609245651178],[139.1267881473828,36.026082901246674],[139.12679922655104,36.026123245561024],[139.12666144240623,36.02614819280142]]]},"properties":{"layer":"building","height_m":4.2}},{"type":"Feature","id":"bldg_a5f00961-7f0e-4c30-90c6-288574f55f8f","geometry":{"type":"Polygon","coordinates":[[[139.12667550769447,36.027810937145645],[139.1266366788713,36.02781025767424],[139.1266374044097,36.02777871650563],[139.1266762332174,36.027779395976616],[139.12667550769447,36.027810937145645]]]},"properties":{"layer":"building","height_m":null}},{"type":"Feature","id":"bldg_e5764761-76d1-4dfa-a8b7-956fb117bda3","geometry":{"type":"Polygon","coordinates":[[[139.12668378434003,36.02623812985686],[139.12665971415768,36.026150381785655],[139.12682508178645,36.026120441632386],[139.12684915214422,36.02620818967277],[139.12668378434003,36.02623812985686]]]},"properties":{"layer":"building","height_m":10.2}},{"type":"Feature","id":"bldg_547e1db9-db59-4b7d-8e09-2b6a9599b361","geometry":{"type":"Polygon","coordinates":[[[139.12669146497348,36.02562655382503],[139.12670568471222,36.025550027223154],[139.12687126857816,36.02557029061155],[139.1268571599432,36.02564681788819],[139.12669146497348,36.02562655382503]]]},"properties":{"layer":"building","height_m":5.2}},{"type":"Feature","id":"bldg_0443ef1e-c1b8-4c99-873e-0103bc5d9984","geometry":{"type":"Polygon","coordinates":[[[139.1267226412471,36.026334978039486],[139.126710193237,36.026337338195894],[139.12668793186083,36.02625825325692],[139.12689898574797,36.02621893831588],[139.12692135827422,36.026298023872],[139.1267226412471,36.026334978039486]]]},"properties":{"layer":"building","height_m":5.0}},{"type":"Feature","id":"bldg_0d431e0f-fc87-43f3-93a4-111a3ab1512d","geometry":{"type":"Polygon","coordinates":[[[139.12670907751124,36.02580376280779],[139.12672388178558,36.02572390484518],[139.1268707351016,36.025741894749416],[139.12684998615546,36.025853803942915],[139.12677240285237,36.02584433385993],[139.12677555216027,36.02582713761025],[139.1267468463491,36.02582363366767],[139.1267496418931,36.02580877871085],[139.12670907751124,36.02580376280779]]]},"properties":{"layer":"building","height_m":5.7}},{"type":"Feature","id":"bldg_0e82e5f2-cd41-4267-b58b-3fb45592662d","geometry":{"type":"Polygon","coordinates":[[[139.12692888573568,36.026324836784326],[139.12691546485448,36.0263367449968],[139.1267327517438,36.02637072904046],[139.1267226412471,36.026334978039486],[139.12692135827422,36.026298023872],[139.12692888573568,36.026324836784326]]]},"properties":{"layer":"building","height_m":3.9}},{"type":"Feature","id":"bldg_99afbc31-4039-4533-b79d-a964241fd605","geometry":{"type":"Polygon","coordinates":[[[139.12672473845308,36.02663440179579],[139.12675371393792,36.026632589672005],[139.12675837739107,36.02668191818272],[139.1267294018882,36.026683730307404],[139.12672473845308,36.02663440179579]]]},"properties":{"layer":"building","height_m":null}},{"type":"Feature","id":"bldg_410e8a0d-0b80-448f-abf1-4a95707f2ecf","geometry":{"type":"Polygon","coordinates":[[[139.12671702003632,36.02849265346074],[139.12684213783172,36.02847257067814],[139.12685251953096,36.02851526325301],[139.12672740167034,36.02853534604558],[139.12671702003632,36.02849265346074]]]},"properties":{"layer":"building","height_m":5.1}},{"type":"Feature","id":"bldg_c83d2526-a026-491d-b8a3-7088117883f4","geometry":{"type":"Polygon","coordinates":[[[139.1267475740095,36.025543334049736],[139.12675212791615,36.02551794425725],[139.1268041109254,36.0255240188497],[139.12679955623034,36.025549498769436],[139.1267475740095,36.025543334049736]]]},"properties":{"layer":"building","height_m":null}},{"type":"Feature","id":"bldg_ee659546-5e88-422a-b92a-4d296691e946","geometry":{"type":"Polygon","coordinates":[[[139.1306325697259,36.02947166973999],[139.13067335377227,36.02942720432839],[139.13079000885895,36.02949800885244],[139.1307492248403,36.02954247430352],[139.1306325697259,36.02947166973999]]]},"properties":{"layer":"building","height_m":6.5}},{"type":"Feature","id":"bldg_bb8475c4-6bb7-400f-b402-209a359ecdad","geometry":{"type":"Polygon","coordinates":[[[139.1267539475492,36.02658157754805],[139.12673940916002,36.02649496721801],[139.12687235369617,36.02648024815978],[139.1268868922287,36.026566858475505],[139.1267539475492,36.02658157754805]]]},"properties":{"layer":"building","height_m":7.5}},{"type":"Feature","id":"bldg_bd35ce59-5898-42bc-8d00-12d2e90cd87d","geometry":{"type":"Polygon","coordinates":[[[139.1267578893133,36.02605316938221],[139.12674690615475,36.02587906389051],[139.12684513723326,36.02587495589578],[139.12685048542542,36.025959439092446],[139.12683661124237,36.02595998826295],[139.12684079461442,36.026025807713566],[139.12680261223778,36.02602738535553],[139.12680417496938,36.02605118884799],[139.1267578893133,36.02605316938221]]]},"properties":{"layer":"building","height_m":8.3}},{"type":"Feature","id":"bldg_7ea966c2-6cb4-4488-ba3e-52d2353abb1a","geometry":{"type":"Polygon","coordinates":[[[139.12679661158572,36.02528654552901],[139.1268260489453,36.02520063591484],[139.12694021118813,36.02522645468557],[139.12693591631916,36.02523899349172],[139.1269717484222,36.025247099936465],[139.12695320210403,36.025301221840714],[139.12692537579187,36.02529492008294],[139.12691877967663,36.02531417803435],[139.12679661158572,36.02528654552901]]]},"properties":{"layer":"building","height_m":7.6}},{"type":"Feature","id":"bldg_c480b023-726e-4af0-85e4-ac390b08316e","geometry":{"type":"Polygon","coordinates":[[[139.12678832460637,36.02662098658876],[139.1268004786465,36.026589422618],[139.12685029638897,36.026601973785645],[139.12683814156196,36.02663362788671],[139.12678832460637,36.02662098658876]]]},"properties":{"layer":"building","height_m":4.6}},{"type":"Feature","id":"bldg_0867e31c-5e60-40f0-b422-b00144172e84","geometry":{"type":"Polygon","coordinates":[[[139.1268358292149,36.02551320987577],[139.12683879853637,36.025478887886415],[139.126885596754,36.0254815970921],[139.12688262745266,36.02551591908283],[139.1268358292149,36.02551320987577]]]},"properties":{"layer":"building","height_m":null}},{"type":"Feature","id":"bldg_922c2eba-a6d2-4a27-a04d-b7035497f07e","geometry":{"type":"Polygon","coordinates":[[[139.12688419145755,36.02558929401545],[139.12692507571248,36.0255957538212],[139.1269004148236,36.02569844673539],[139.12685953051795,36.02569198692076],[139.12688419145755,36.02558929401545]]]},"properties":{"layer":"building","height_m":null}},{"type":"Feature","id":"bldg_5cbcad3c-d67a-45fd-9251-f2855441d93b","geometry":{"type":"Polygon","coordinates":[[[139.12685540408665,36.026179024428565],[139.1268815422088,36.02617187789485],[139.1268946878004,36.02620323040001],[139.12686843791556,36.02621046640794],[139.12685540408665,36.026179024428565]]]},"properties":{"layer":"building","height_m":3.1}},{"type":"Feature","id":"bldg_77a36230-159b-4822-9012-dd75107cd021","geometry":{"type":"Polygon","coordinates":[[[139.127008191415,36.025072408541135],[139.12687183181075,36.02505979829299],[139.12688167122667,36.024989194428926],[139.1270180299068,36.02500189478984],[139.127008191415,36.025072408541135]]]},"properties":{"layer":"building","height_m":8.8}},{"type":"Feature","id":"bldg_efa8da37-8ec4-4031-9244-8f74c890d854","geometry":{"type":"Polygon","coordinates":[[[139.12687562352448,36.0253683352126],[139.12691709619443,36.025371013032206],[139.12691380855114,36.025403710811325],[139.12687233666878,36.02540094286529],[139.12687562352448,36.0253683352126]]]},"properties":{"layer":"building","height_m":null}},{"type":"Feature","id":"bldg_1c9441fd-90e5-4608-9310-2f8fa28eb6c6","geometry":{"type":"Polygon","coordinates":[[[139.12699146353643,36.02653621743332],[139.12688967749494,36.02651711418734],[139.12691078922958,36.02644288141974],[139.12692792513354,36.02644610987043],[139.1269328049979,36.02642895085147],[139.12701745486746,36.02644484364951],[139.12699146353643,36.02653621743332]]]},"properties":{"layer":"building","height_m":6.7}},{"type":"Feature","id":"bldg_d210bb65-e274-47b6-af09-e20b312b0a41","geometry":{"type":"Polygon","coordinates":[[[139.1269328407291,36.0254791174244],[139.12690243858208,36.02547548635817],[139.1269087175735,36.025440796305084],[139.12693911970754,36.0254444273696],[139.1269328407291,36.0254791174244]]]},"properties":{"layer":"building","height_m":null}},{"type":"Feature","id":"bldg_02a98a98-a93c-4b1d-8276-8dbb95ae7d7f","geometry":{"type":"Polygon","coordinates":[[[139.12695889441997,36.026582631740965],[139.12690432939357,36.026572387015854],[139.12691775474022,36.026525183977895],[139.126972319736,36.026535428696626],[139.12695889441997,36.026582631740965]]]},"properties":{"layer":"building","height_m":5.5}},{"type":"Feature","id":"bldg_4f4a95a0-7c16-4b07-8312-3113e080735a","geometry":{"type":"Polygon","coordinates":[[[139.12700854055961,36.026052573004606],[139.12701228150456,36.02604367218183],[139.1272249045467,36.02610197655393],[139.1271911155997,36.026183164863305],[139.12698026352197,36.026125321511856],[139.12698343685835,36.02611785942463],[139.1269365072794,36.026104964806535],[139.12696338136405,36.026040229603915],[139.12700854055961,36.026052573004606]]]},"properties":{"layer":"building","height_m":6.1}},{"type":"Feature","id":"bldg_a7a06add-6d75-4367-8862-bf27bb111521","geometry":{"type":"Polygon","coordinates":[[[139.12707653797722,36.02561944880482],[139.1271080375377,36.02562071587428],[139.12710360653628,36.02569450614739],[139.12703816730567,36.02569186749601],[139.1270369853614,36.02571241014602],[139.1269711023266,36.02570976884407],[139.1269742164099,36.025659224327434],[139.12698885752152,36.025659761216545],[139.12699145217752,36.025617685847756],[139.1270255027335,36.02561905809455],[139.12702653833534,36.02560248029693],[139.12707744814148,36.02560449260573],[139.12707653797722,36.02561944880482]]]},"properties":{"layer":"building","height_m":5.0}},{"type":"Feature","id":"bldg_b7661910-da25-49bd-8101-af923a7bae82","geometry":{"type":"Polygon","coordinates":[[[139.12699282141742,36.02616036586953],[139.12701898921844,36.02616232259719],[139.12701718179156,36.02617835506792],[139.12707927446047,36.02618304701021],[139.12707302087077,36.02623726835987],[139.12698476033577,36.026230619684235],[139.12699282141742,36.02616036586953]]]},"properties":{"layer":"building","height_m":4.5}},{"type":"Feature","id":"bldg_9081a38a-b1f2-48c9-8faa-9e55fcad5f65","geometry":{"type":"Polygon","coordinates":[[[139.12706067025167,36.02556987404946],[139.12700590062292,36.025565225232796],[139.127013651222,36.02550488386631],[139.12706842000514,36.02550962280415],[139.12706067025167,36.02556987404946]]]},"properties":{"layer":"building","height_m":null}},{"type":"Feature","id":"bldg_0bf0064f-471a-46b9-adbc-439ea5d1a79e","geometry":{"type":"Polygon","coordinates":[[[139.12708757947027,36.025314694583884],[139.12705951457812,36.02531398851766],[139.12706172015075,36.02525334409765],[139.127091782075,36.02525406192436],[139.12709233767103,36.02524153714289],[139.12716499696037,36.02524322685111],[139.12716224151174,36.02531576517983],[139.12714349460018,36.02531529426362],[139.12714290120908,36.02533205492704],[139.1270869933067,36.025330644120615],[139.12708757947027,36.025314694583884]]]},"properties":{"layer":"building","height_m":4.1}},{"type":"Feature","id":"bldg_66711b45-25fb-4fff-ae31-fe33c22f2a95","geometry":{"type":"Polygon","coordinates":[[[139.12707892564927,36.02716813729133],[139.12704448732103,36.02708955754016],[139.12711874198783,36.0270680842957],[139.12711451202358,36.027058424503075],[139.12716345893682,36.02704426493683],[139.12719646193986,36.027119573502254],[139.1271516198209,36.02713254951443],[139.12715728521718,36.02714548045949],[139.12707892564927,36.02716813729133]]]},"properties":{"layer":"building","height_m":5.7}},{"type":"Feature","id":"bldg_93fbad00-3062-412c-9967-e7592065de51","geometry":{"type":"Polygon","coordinates":[[[139.12706234498881,36.02522063063061],[139.12707313055546,36.02514345284284],[139.1272081613849,36.02515578464894],[139.12719748689526,36.02523296310344],[139.12706234498881,36.02522063063061]]]},"properties":{"layer":"building","height_m":5.7}},{"type":"Feature","id":"bldg_8331ac5e-cf1a-420d-bde9-a44c68d44fca","geometry":{"type":"Polygon","coordinates":[[[139.12708639682484,36.025136410712335],[139.12709675143623,36.02505778830499],[139.12713555478635,36.0250611713671],[139.12713734526955,36.02504703151918],[139.12722404319868,36.02505457217484],[139.127211787295,36.025147333790315],[139.12708639682484,36.025136410712335]]]},"properties":{"layer":"building","height_m":8.1}},{"type":"Feature","id":"bldg_3597b0f0-f454-49c9-8631-de8f39fecaae","geometry":{"type":"Polygon","coordinates":[[[139.12709358637449,36.025574033621645],[139.12709999363102,36.02547772251661],[139.12729952025813,36.02548655845165],[139.1272884082762,36.0256500787572],[139.1272016767144,36.025646233272255],[139.12720615985918,36.025579022782544],[139.12709358637449,36.025574033621645]]]},"properties":{"layer":"building","height_m":5.4}},{"type":"Feature","id":"bldg_5a7769c6-2fd1-4823-ab79-4212b2e7a5fa","geometry":{"type":"Polygon","coordinates":[[[139.12721605925648,36.026086061613285],[139.1271530790656,36.026081364515626],[139.12716465105675,36.025978233958966],[139.12722763116645,36.02598293104971],[139.12722738835956,36.02598527299667],[139.12725884705475,36.02599113641006],[139.12724395489982,36.026043594439706],[139.12722124744616,36.02603931476016],[139.12721605925648,36.026086061613285]]]},"properties":{"layer":"building","height_m":6.9}},{"type":"Feature","id":"bldg_b82a5fd1-5dfa-4381-8da3-c9e740743bf2","geometry":{"type":"Polygon","coordinates":[[[139.1271859363026,36.025234247036416],[139.12721243744966,36.02523611555361],[139.12720109397466,36.02533852643493],[139.12717459359794,36.02533656778975],[139.1271859363026,36.025234247036416]]]},"properties":{"layer":"building","height_m":3.0}},{"type":"Feature","id":"bldg_9d045c7f-1ca2-4017-82b8-24247bf57ea5","geometry":{"type":"Polygon","coordinates":[[[139.12717557100262,36.0269925296208],[139.12730937980226,36.026968081148],[139.1273408757013,36.027081740068766],[139.127207066718,36.02710618857421],[139.12717557100262,36.0269925296208]]]},"properties":{"layer":"building","height_m":6.6}},{"type":"Feature","id":"bldg_7fa7b3de-5dcb-4a56-b313-ecb982a612cf","geometry":{"type":"Polygon","coordinates":[[[139.12722490601115,36.02499518166049],[139.12722136605893,36.025031302900864],[139.12719785733512,36.02502981252611],[139.1272013981022,36.0249936011614],[139.12722490601115,36.02499518166049]]]},"properties":{"layer":"building","height_m":null}},{"type":"Feature","id":"bldg_1606a667-e360-4d53-af27-842c0bd29eb9","geometry":{"type":"Polygon","coordinates":[[[139.12723899025474,36.025157588513196],[139.1273301873016,36.02517074363648],[139.12733747288362,36.02513761873118],[139.1273871161518,36.02514476085415],[139.12735947809526,36.02527032933846],[139.12721874935335,36.0252499425918],[139.12723899025474,36.025157588513196]]]},"properties":{"layer":"building","height_m":7.1}},{"type":"Feature","id":"bldg_522465de-608c-496d-8368-76cece2d838a","geometry":{"type":"Polygon","coordinates":[[[139.12722436410863,36.02530459436121],[139.12723383495296,36.025262829861774],[139.12729134269193,36.02527146040937],[139.12728187187676,36.02531322491361],[139.12722436410863,36.02530459436121]]]},"properties":{"layer":"building","height_m":null}},{"type":"Feature","id":"bldg_aec574bb-dc1b-4963-84a4-57550907392e","geometry":{"type":"Polygon","coordinates":[[[139.12726823958582,36.027102132409695],[139.127308032871,36.02709416488709],[139.1273128800673,36.027110506929255],[139.12727319772435,36.027118475106626],[139.12726823958582,36.027102132409695]]]},"properties":{"layer":"building","height_m":null}},{"type":"Feature","id":"bldg_73741d77-b591-4590-8bf3-5349d946f6fb","geometry":{"type":"Polygon","coordinates":[[[139.12735144280026,36.02669949845806],[139.12730144292433,36.02667128185577],[139.12735392851343,36.02660992400876],[139.12740392837006,36.02663814058923],[139.12735144280026,36.02669949845806]]]},"properties":{"layer":"building","height_m":null}},{"type":"Feature","id":"bldg_80b2fe12-e7af-428f-b512-fd72135bab42","geometry":{"type":"Polygon","coordinates":[[[139.12739246377416,36.02815322800881],[139.12740794353908,36.0281319493517],[139.1274631966358,36.028158475350544],[139.12743972989085,36.02819072987839],[139.12741647300993,36.02817956107995],[139.12742445992106,36.028168594230436],[139.12739246377416,36.02815322800881]]]},"properties":{"layer":"building","height_m":null}},{"type":"Feature","id":"bldg_fb364b7b-9944-4a18-ba89-48689baa2a72","geometry":{"type":"Polygon","coordinates":[[[139.12740709516083,36.026763241453914],[139.12740952370493,36.02671240448232],[139.12746580668423,36.026714168857495],[139.12746639383172,36.026701833535455],[139.12750706967282,36.02670311846397],[139.12750406514465,36.0267662908258],[139.12740709516083,36.026763241453914]]]},"properties":{"layer":"building","height_m":7.2}},{"type":"Feature","id":"bldg_729bc9e9-e5cf-4401-9337-132698f54fea","geometry":{"type":"Polygon","coordinates":[[[139.1276261586331,36.02623775781327],[139.12754163771123,36.02620244321691],[139.12761096221976,36.02609295586162],[139.12768562268425,36.02612414752955],[139.1276750663685,36.02614083154169],[139.12768492682343,36.02614494540929],[139.1276261586331,36.02623775781327]]]},"properties":{"layer":"building","height_m":10.7}},{"type":"Feature","id":"bldg_7c5b2422-15ef-4d46-a966-be9ccc1a1336","geometry":{"type":"Polygon","coordinates":[[[139.12765435336084,36.026294858772175],[139.12770480376315,36.02629867071075],[139.1277032424802,36.02631200074447],[139.1277208721067,36.02631336629882],[139.12770980646386,36.02640955988667],[139.12765336876083,36.02640526206729],[139.12760912742073,36.02640193729699],[139.12762175528513,36.026292323562025],[139.12765435336084,36.026294858772175]]]},"properties":{"layer":"building","height_m":6.3}},{"type":"Feature","id":"bldg_c0040bc9-5f60-4365-9ed9-5ee4bf2499a6","geometry":{"type":"Polygon","coordinates":[[[139.12762091460607,36.02674985386631],[139.12761160736832,36.026696144785596],[139.1276430731075,36.02669254450494],[139.12764050901657,36.026677730092146],[139.12766790957764,36.02667460159626],[139.12766679122296,36.02666812369097],[139.12770758658482,36.02666346969665],[139.1277099716379,36.02667721050923],[139.12774915654785,36.026672736297215],[139.12775129864025,36.02668510570548],[139.12775962876887,36.02668415427729],[139.12776809158478,36.02673302741808],[139.12762091460607,36.02674985386631]]]},"properties":{"layer":"building","height_m":6.7}},{"type":"Feature","id":"bldg_2500b80a-3f25-44b2-88d6-78316c412f60","geometry":{"type":"Polygon","coordinates":[[[139.12764327751776,36.02556359695785],[139.1276631958082,36.02556833783263],[139.1276445950449,36.02561989983412],[139.12762468775716,36.02561516803396],[139.12764327751776,36.02556359695785]]]},"properties":{"layer":"building","height_m":null}},{"type":"Feature","id":"bldg_e988c1b4-4701-40d7-a558-620fb49b6f5a","geometry":{"type":"Polygon","coordinates":[[[139.12764566160146,36.025560023818265],[139.12765550252348,36.02553272730995],[139.12768589485236,36.02553995430998],[139.12767605393987,36.025567250820856],[139.12764566160146,36.025560023818265]]]},"properties":{"layer":"building","height_m":null}},{"type":"Feature","id":"bldg_d077887a-e842-4984-b830-e1305da2d8b7","geometry":{"type":"Polygon","coordinates":[[[139.12765474318056,36.026251148079254],[139.12770916412748,36.02617053169195],[139.12771040185063,36.02617108876718],[139.1278173586437,36.02621875685489],[139.12778857484813,36.02626130906633],[139.12784029641753,36.02628432608934],[139.12780633985048,36.026334599041135],[139.12765460172028,36.026267010103936],[139.1276464236556,36.02626335678362],[139.12765474318056,36.026251148079254]]]},"properties":{"layer":"building","height_m":9.3}},{"type":"Feature","id":"bldg_24c4242b-2e60-4b72-8993-2330f47e0bf7","geometry":{"type":"Polygon","coordinates":[[[139.12771305761345,36.02563437197138],[139.1276708611834,36.025625741595334],[139.1276856806402,36.025581394768594],[139.12771350588986,36.025534330441815],[139.1277511950098,36.0254884958341],[139.1278280727304,36.02544018787711],[139.12790775063496,36.025401359979945],[139.12793314333888,36.02542800753591],[139.12805609287716,36.025351849905974],[139.128104892559,36.02540387145432],[139.12814784674907,36.02537726534819],[139.12822104641035,36.025455297608296],[139.12815343540512,36.02549717095956],[139.12807957670987,36.025542883114014],[139.12818117740082,36.025651158764084],[139.12818333166243,36.02565345171766],[139.12810378235628,36.025702735618204],[139.12789758781446,36.0257074714058],[139.12781544933458,36.02572357208687],[139.12778889582873,36.0257399997595],[139.12770668298876,36.02565245056778],[139.12771305761345,36.02563437197138]]]},"properties":{"layer":"building","height_m":9.3}},{"type":"Feature","id":"bldg_274dfcb5-c4a0-4eee-9e5d-76a90e542bf0","geometry":{"type":"Polygon","coordinates":[[[139.12521945502533,36.026802898080334],[139.12501836232275,36.02674555956163],[139.12501292299336,36.02675823574147],[139.12491962577258,36.02673163709754],[139.12492642394162,36.02671590453444],[139.124889569774,36.02670541201193],[139.12488571760943,36.02671431210903],[139.1247803568632,36.026684307283304],[139.12481026969616,36.02661499391253],[139.1248911710815,36.02663809447615],[139.1249167781661,36.02657876005359],[139.12527248106446,36.026680093815145],[139.12525322045343,36.026724594363316],[139.12521945502533,36.026802898080334]]]},"properties":{"layer":"building","height_m":9.0}},{"type":"Feature","id":"bldg_2d949841-bbf2-4f26-96b1-89654657456e","geometry":{"type":"Polygon","coordinates":[[[139.12771040185063,36.02617108876718],[139.12772759374923,36.02614563810783],[139.12783455051877,36.02619330618013],[139.1278173586437,36.02621875685489],[139.12771040185063,36.02617108876718]]]},"properties":{"layer":"building","height_m":5.0}},{"type":"Feature","id":"bldg_a762f0ba-6356-4929-9fe2-f4fb2e0c0c61","geometry":{"type":"Polygon","coordinates":[[[139.12771866854075,36.026112543979856],[139.12773116144845,36.02609269878716],[139.12776111922906,36.0261051327184],[139.12774862632682,36.02612497791424],[139.12771866854075,36.026112543979856]]]},"properties":{"layer":"building","height_m":4.4}},{"type":"Feature","id":"bldg_b26e22e1-082d-4d89-a558-25e5e28a1c87","geometry":{"type":"Polygon","coordinates":[[[139.1277467749302,36.02548398135897],[139.12772544248972,36.025461143109844],[139.12776446857515,36.02543708273067],[139.12778580102062,36.025459920973],[139.1277467749302,36.02548398135897]]]},"properties":{"layer":"building","height_m":null}},{"type":"Feature","id":"bldg_2a2feb90-268b-40a5-9544-c8eb219dc653","geometry":{"type":"Polygon","coordinates":[[[139.1277346199592,36.02661317406652],[139.12773617161108,36.026581015847476],[139.1277936300069,36.0265828500754],[139.12779207837832,36.02661500829545],[139.1277346199592,36.02661317406652]]]},"properties":{"layer":"building","height_m":null}},{"type":"Feature","id":"bldg_a7aac317-8c0f-45c2-a592-e7316755ee64","geometry":{"type":"Polygon","coordinates":[[[139.12782855449285,36.02631949778891],[139.12792238624735,36.0263733165389],[139.12786745475668,36.02643653495259],[139.12774929629103,36.026410693545735],[139.12782855449285,36.02631949778891]]]},"properties":{"layer":"building","height_m":9.9}},{"type":"Feature","id":"bldg_8442fa0f-6855-4578-9632-6cba6a357353","geometry":{"type":"Polygon","coordinates":[[[139.1249294760838,36.02593377570354],[139.12496365007829,36.02590897555453],[139.12497405062345,36.02591842852235],[139.12497786998514,36.025915666070624],[139.125102511348,36.02602898346573],[139.12506451789787,36.026056555120746],[139.1249294760838,36.02593377570354]]]},"properties":{"layer":"building","height_m":null}},{"type":"Feature","id":"bldg_4416a783-865f-4a62-81c8-5ef32ef649b4","geometry":{"type":"Polygon","coordinates":[[[139.12777820993932,36.02665223145026],[139.1278032016794,36.02664922394543],[139.1278112328443,36.02669424599876],[139.12778624109023,36.02669725350507],[139.12777820993932,36.02665223145026]]]},"properties":{"layer":"building","height_m":null}},{"type":"Feature","id":"bldg_76b972ee-57ce-40de-a0c8-4dc09bdd3af0","geometry":{"type":"Polygon","coordinates":[[[139.1278746692382,36.02621847212116],[139.12782654488538,36.026185246535746],[139.12786077762976,36.02615252348759],[139.12790890197755,36.0261857490594],[139.1278746692382,36.02621847212116]]]},"properties":{"layer":"building","height_m":3.7}},{"type":"Feature","id":"bldg_288263ce-2830-4c29-adf1-b179f0349dcb","geometry":{"type":"Polygon","coordinates":[[[139.12800493995306,36.02721190170999],[139.12803073904675,36.02729758668748],[139.12786305358782,36.02733090373399],[139.1278608226458,36.02732351798714],[139.12783775842345,36.02732809608904],[139.12782101167272,36.02727248658506],[139.12783711777726,36.0272692825891],[139.12783028539013,36.02724660177259],[139.12800493995306,36.02721190170999]]]},"properties":{"layer":"building","height_m":7.9}},{"type":"Feature","id":"bldg_d842cd24-bea3-4b67-8a2a-bdac212b1a8e","geometry":{"type":"Polygon","coordinates":[[[139.12783988010537,36.02699058126675],[139.12799431260794,36.026980133358144],[139.12800329852735,36.02706743191725],[139.12784875490516,36.02707787918264],[139.12783988010537,36.02699058126675]]]},"properties":{"layer":"building","height_m":5.2}},{"type":"Feature","id":"bldg_bbffceca-14ee-483a-869f-3b1ee626dd22","geometry":{"type":"Polygon","coordinates":[[[139.1279107409393,36.02733232891854],[139.12791814896747,36.027361385297326],[139.1278499528018,36.02737286322569],[139.1278425447174,36.02734381585554],[139.1279107409393,36.02733232891854]]]},"properties":{"layer":"building","height_m":3.8}},{"type":"Feature","id":"bldg_0615c636-377d-4be8-a1dc-b52f51bea81b","geometry":{"type":"Polygon","coordinates":[[[139.1278550360661,36.0267218400903],[139.12787777013088,36.02665097853865],[139.12793350868427,36.0266627799584],[139.12793644179433,36.02665363100464],[139.12798689779245,36.026664310754306],[139.12796123079133,36.02674431226935],[139.1278550360661,36.0267218400903]]]},"properties":{"layer":"building","height_m":7.3}},{"type":"Feature","id":"bldg_6ca9cedb-e7bd-44f6-8a78-83c7ad9a07f3","geometry":{"type":"Polygon","coordinates":[[[139.12793521352543,36.02634085511081],[139.12787877010047,36.02631231242884],[139.1279128978919,36.0262677186452],[139.1279693412979,36.026296261311074],[139.12793521352543,36.02634085511081]]]},"properties":{"layer":"building","height_m":null}},{"type":"Feature","id":"bldg_69ea6901-9072-4467-a11a-6928a767c290","geometry":{"type":"Polygon","coordinates":[[[139.12791210892703,36.02539787055204],[139.12798061004742,36.02536817010648],[139.1279916671369,36.02538490917137],[139.12792305425492,36.02541469909557],[139.12791210892703,36.02539787055204]]]},"properties":{"layer":"building","height_m":3.1}},{"type":"Feature","id":"bldg_6c55de9f-6cc5-4378-9df0-4897d7a27a97","geometry":{"type":"Polygon","coordinates":[[[139.1250176907243,36.02627272538629],[139.12498216388337,36.0262490817739],[139.1250183903311,36.026213162697864],[139.1250539171671,36.02623680629961],[139.1250176907243,36.02627272538629]]]},"properties":{"layer":"building","height_m":null}},{"type":"Feature","id":"bldg_e0bfb564-e58b-411b-91dd-1b262259ebdd","geometry":{"type":"Polygon","coordinates":[[[139.12791131389432,36.02646406626213],[139.12797282408505,36.02637605574563],[139.1280854905635,36.026428011309115],[139.1280239915507,36.026516021948865],[139.12791131389432,36.02646406626213]]]},"properties":{"layer":"building","height_m":9.5}},{"type":"Feature","id":"bldg_d463126d-d17b-45d1-92c0-b4083e1c23ee","geometry":{"type":"Polygon","coordinates":[[[139.1279429792145,36.027149996585386],[139.12793202861042,36.02709639503368],[139.12800523626126,36.027086550844956],[139.12801607596376,36.02714015173803],[139.1279429792145,36.027149996585386]]]},"properties":{"layer":"building","height_m":3.7}},{"type":"Feature","id":"bldg_de79e4b4-dfe5-413c-844e-0f3dc959d99f","geometry":{"type":"Polygon","coordinates":[[[139.12795011289765,36.02636222241543],[139.12797943507243,36.026320259176536],[139.12803576829597,36.02634623246182],[139.12800644614097,36.02638819571453],[139.12795011289765,36.02636222241543]]]},"properties":{"layer":"building","height_m":null}},{"type":"Feature","id":"bldg_51c1baaa-bd51-467e-b236-046fdc5ad69f","geometry":{"type":"Polygon","coordinates":[[[139.12795273077163,36.027151405894706],[139.12800660905447,36.02714415189966],[139.12801277262074,36.02717465204462],[139.1279588943176,36.02718190604217],[139.12795273077163,36.027151405894706]]]},"properties":{"layer":"building","height_m":3.0}},{"type":"Feature","id":"bldg_69d7f093-56d5-4831-9862-2259a4a5fb50","geometry":{"type":"Polygon","coordinates":[[[139.12502238095416,36.026273077557285],[139.12505201362347,36.02624369900344],[139.1251406709856,36.026302689851114],[139.12511103824568,36.0263320774392],[139.12502238095416,36.026273077557285]]]},"properties":{"layer":"building","height_m":null}},{"type":"Feature","id":"bldg_25ee79af-e4d8-4375-a443-077abb469bc3","geometry":{"type":"Polygon","coordinates":[[[139.12504719416344,36.02619952493487],[139.12502674771116,36.02618809287112],[139.12507484382982,36.02613136981129],[139.12509527917982,36.02614280180134],[139.12504719416344,36.02619952493487]]]},"properties":{"layer":"building","height_m":null}},{"type":"Feature","id":"bldg_f85066bf-bcb7-4a1f-bae0-65bd645f2220","geometry":{"type":"Polygon","coordinates":[[[139.12808233297878,36.02508921251348],[139.1280813559359,36.025032019351976],[139.12808737023437,36.02503194656624],[139.12808623601296,36.02496500042558],[139.12822639450104,36.02496343617171],[139.1282278856093,36.025051357635895],[139.12821498052693,36.025051498067484],[139.12821558972624,36.02508772485275],[139.12808233297878,36.02508921251348]]]},"properties":{"layer":"building","height_m":5.2}},{"type":"Feature","id":"bldg_f5956d97-f18f-46a8-b945-019712327e72","geometry":{"type":"Polygon","coordinates":[[[139.12815343540512,36.02549717095956],[139.12817014124965,36.02551502478368],[139.12812484343226,36.0255431493227],[139.12820961633804,36.025633561388624],[139.12818117740082,36.025651158764084],[139.12807957670987,36.025542883114014],[139.12815343540512,36.02549717095956]]]},"properties":{"layer":"building","height_m":4.8}},{"type":"Feature","id":"bldg_b3b1373e-4096-4e7b-8378-e98336f0d758","geometry":{"type":"Polygon","coordinates":[[[139.1281062296735,36.025340986683275],[139.12808735829387,36.02532086686734],[139.12815047277857,36.0252817971884],[139.12816935526004,36.02530191705984],[139.1281062296735,36.025340986683275]]]},"properties":{"layer":"building","height_m":3.3}},{"type":"Feature","id":"bldg_cb130d6f-0e90-4b89-b8df-f4eee14c1424","geometry":{"type":"Polygon","coordinates":[[[139.12810494882356,36.02518217930186],[139.12810341006812,36.02509090472665],[139.1281466084052,36.02509041969678],[139.12814707607473,36.02511762364775],[139.12820999272486,36.02511692106625],[139.12821107492599,36.025181000768264],[139.12810494882356,36.02518217930186]]]},"properties":{"layer":"building","height_m":5.4}},{"type":"Feature","id":"bldg_852fd112-d9f9-48b4-8919-e7f697aacfed","geometry":{"type":"Polygon","coordinates":[[[139.12809976912547,36.02716763786107],[139.1280978262981,36.02713788358162],[139.12815328105734,36.02713550580427],[139.1281552128105,36.0271652600178],[139.12809976912547,36.02716763786107]]]},"properties":{"layer":"building","height_m":null}},{"type":"Feature","id":"bldg_16fab5d2-4cd8-4c37-b3cf-db6b07175cac","geometry":{"type":"Polygon","coordinates":[[[139.1280707807192,36.025360832107886],[139.128045391765,36.02533376099223],[139.12807330627157,36.025316485030984],[139.12809869531029,36.02534354712835],[139.1280707807192,36.025360832107886]]]},"properties":{"layer":"building","height_m":4.3}}]}