{"type":"FeatureCollection","properties":{"mesh_code":"54390110","source":"PLATEAU秩父市2025","layer":"building"},"features":[{"type":"Feature","id":"bldg_39787310-9a61-4dbf-982a-34d0b31c8b56","geometry":{"type":"Polygon","coordinates":[[[139.1273602,36.0116736],[139.1273975,36.0116943],[139.1273472,36.0117548],[139.1273086,36.0117335],[139.1273602,36.0116736]]]},"properties":{"layer":"building","height_m":3.8}},{"type":"Feature","id":"bldg_ca2d514c-7e1e-456d-9615-e5d8ca3d77c6","geometry":{"type":"Polygon","coordinates":[[[139.1250676,36.0134696],[139.1250768,36.0134914],[139.1250019,36.0135124],[139.1250061,36.0135225],[139.1249632,36.0135345],[139.1249369,36.0134725],[139.1249219,36.0134768],[139.1249091,36.0134467],[139.1249654,36.0134309],[139.1249616,36.0134219],[139.1249993,36.0134114],[139.1250028,36.0134196],[139.1250598,36.0134036],[139.1250632,36.0134119],[139.1250957,36.0134029],[139.1251151,36.0134486],[139.1250842,36.0134573],[139.1250872,36.0134641],[139.1250676,36.0134696]]]},"properties":{"layer":"building","height_m":5.1}},{"type":"Feature","id":"bldg_f2445ece-74f1-4d67-b24f-32310a3d1c20","geometry":{"type":"Polygon","coordinates":[[[139.1250884,36.0136621],[139.1251446,36.0137293],[139.1250596,36.0137761],[139.1250669,36.0137848],[139.1250245,36.0138082],[139.125035,36.0138208],[139.1250016,36.0138392],[139.1249363,36.0137612],[139.1249695,36.0137429],[139.1249608,36.0137325],[139.1250884,36.0136621]]]},"properties":{"layer":"building","height_m":6.3}},{"type":"Feature","id":"bldg_53208485-b9ab-41a9-86c8-04ba3067c967","geometry":{"type":"Polygon","coordinates":[[[139.1274798,36.0116327],[139.127509,36.0116767],[139.1274227,36.0117145],[139.1273935,36.0116705],[139.1274798,36.0116327]]]},"properties":{"layer":"building","height_m":3.9}},{"type":"Feature","id":"bldg_b31780be-0e56-4648-bfa2-e44857c99ae6","geometry":{"type":"Polygon","coordinates":[[[139.1261646,36.0127726],[139.1263208,36.012883],[139.1262782,36.0129227],[139.1261219,36.0128124],[139.1261646,36.0127726]]]},"properties":{"layer":"building","height_m":null}},{"type":"Feature","id":"bldg_9e9f1b4c-0166-4489-a7e7-080be1c99a89","geometry":{"type":"Polygon","coordinates":[[[139.128569,36.0139334],[139.1287414,36.0139115],[139.1287491,36.0139509],[139.1287881,36.013946],[139.1287953,36.0139832],[139.1285836,36.0140101],[139.128569,36.0139334]]]},"properties":{"layer":"building","height_m":7.7}},{"type":"Feature","id":"bldg_0de17173-dfef-4f24-a21f-9beb61d53446","geometry":{"type":"Polygon","coordinates":[[[139.1287931,36.0138931],[139.1288576,36.0138895],[139.1288567,36.0138787],[139.1289001,36.0138762],[139.1289016,36.0138941],[139.1289299,36.0138925],[139.1289352,36.0139563],[139.1287991,36.0139639],[139.1287931,36.0138931]]]},"properties":{"layer":"building","height_m":7.9}},{"type":"Feature","id":"bldg_528b1762-1f11-456d-a71d-6f3cf1a97bbe","geometry":{"type":"Polygon","coordinates":[[[139.1289392,36.0139282],[139.1289307,36.0138859],[139.1289429,36.0138843],[139.1289417,36.0138784],[139.1290239,36.0138675],[139.1290336,36.0139157],[139.1289392,36.0139282]]]},"properties":{"layer":"building","height_m":4.9}},{"type":"Feature","id":"bldg_3b1ba56d-8b00-415e-9d7a-6354a74da7ac","geometry":{"type":"Polygon","coordinates":[[[139.125149,36.0132094],[139.1251961,36.0132011],[139.1252061,36.0132384],[139.1251591,36.0132468],[139.125149,36.0132094]]]},"properties":{"layer":"building","height_m":3.4}},{"type":"Feature","id":"bldg_7e9b0826-3e62-416a-8361-8fb126d16cef","geometry":{"type":"Polygon","coordinates":[[[139.1291674,36.0131884],[139.1291408,36.0132357],[139.1289889,36.0131791],[139.1290155,36.0131319],[139.1291674,36.0131884]]]},"properties":{"layer":"building","height_m":9.7}},{"type":"Feature","id":"bldg_534a96f7-6754-4a7a-b196-02369c1dd7db","geometry":{"type":"Polygon","coordinates":[[[139.1253044,36.0131867],[139.125314,36.013226],[139.1252197,36.0132411],[139.1252102,36.0132018],[139.1253044,36.0131867]]]},"properties":{"layer":"building","height_m":4.3}},{"type":"Feature","id":"bldg_c09faa1f-34ec-484a-8ad8-cd4b1dc499d7","geometry":{"type":"Polygon","coordinates":[[[139.1263123,36.0134007],[139.1261709,36.0134214],[139.1261517,36.0133349],[139.1262931,36.0133143],[139.1263123,36.0134007]]]},"properties":{"layer":"building","height_m":11.1}},{"type":"Feature","id":"bldg_cd887751-66c7-4f1e-b47b-c5c3a9bd27b0","geometry":{"type":"Polygon","coordinates":[[[139.1263777,36.0125397],[139.1264071,36.0125313],[139.1264186,36.0125577],[139.1263892,36.0125662],[139.1263777,36.0125397]]]},"properties":{"layer":"building","height_m":null}},{"type":"Feature","id":"bldg_dffb599b-9ee6-4a60-926c-a94a18932e56","geometry":{"type":"Polygon","coordinates":[[[139.1302771,36.0148017],[139.1303804,36.0147447],[139.1304359,36.0148111],[139.1303327,36.014868],[139.1302771,36.0148017]]]},"properties":{"layer":"building","height_m":8.7}},{"type":"Feature","id":"bldg_779cfd1a-8138-4533-807a-0d2c84029c86","geometry":{"type":"Polygon","coordinates":[[[139.1291966,36.0133376],[139.1291994,36.013365],[139.1291765,36.0133665],[139.1291738,36.0133391],[139.1291966,36.0133376]]]},"properties":{"layer":"building","height_m":4.2}},{"type":"Feature","id":"bldg_6818fcba-373e-4ec8-9d0c-3c8e21a8a064","geometry":{"type":"Polygon","coordinates":[[[139.1294581,36.0133873],[139.1292946,36.0133984],[139.1292936,36.0133877],[139.1292503,36.0133907],[139.1292478,36.0133666],[139.1292032,36.0133696],[139.1291971,36.0133103],[139.129246,36.013307],[139.1292452,36.0132984],[139.1294476,36.0132848],[139.1294581,36.0133873]]]},"properties":{"layer":"building","height_m":7.8}},{"type":"Feature","id":"bldg_fd207cbc-167c-4e99-b0e6-3c47b1d09592","geometry":{"type":"Polygon","coordinates":[[[139.1295014,36.0133011],[139.1295068,36.0133536],[139.1294627,36.0133566],[139.1294574,36.0133041],[139.1295014,36.0133011]]]},"properties":{"layer":"building","height_m":3.8}},{"type":"Feature","id":"bldg_e9a45865-ba79-48db-860a-4302f751fa26","geometry":{"type":"Polygon","coordinates":[[[139.1295762,36.0143297],[139.1296437,36.0143322],[139.1296401,36.0143959],[139.1295726,36.0143935],[139.1295762,36.0143297]]]},"properties":{"layer":"building","height_m":5.2}},{"type":"Feature","id":"bldg_36ef618e-05ce-417f-bf39-02c2c128b2bd","geometry":{"type":"Polygon","coordinates":[[[139.1295788,36.014279],[139.1296842,36.0142829],[139.1296816,36.0143295],[139.1295761,36.0143255],[139.1295788,36.014279]]]},"properties":{"layer":"building","height_m":4.2}},{"type":"Feature","id":"bldg_b0cbac69-524b-4864-a690-5207644b279c","geometry":{"type":"Polygon","coordinates":[[[139.1297697,36.0143824],[139.1297753,36.0143138],[139.1298006,36.0143152],[139.1298015,36.0143037],[139.1298421,36.0143059],[139.1298413,36.0143155],[139.1298848,36.0143178],[139.129884,36.0143271],[139.1298983,36.0143279],[139.1298933,36.014389],[139.1297697,36.0143824]]]},"properties":{"layer":"building","height_m":3.7}},{"type":"Feature","id":"bldg_9fefb6a8-2132-4d2f-84f5-14edc617a417","geometry":{"type":"Polygon","coordinates":[[[139.129864,36.0134917],[139.1301316,36.0134205],[139.1301473,36.013459],[139.1298795,36.0135304],[139.129864,36.0134917]]]},"properties":{"layer":"building","height_m":4.1}},{"type":"Feature","id":"bldg_4534ea38-cc61-48b1-8f54-212347f3c758","geometry":{"type":"Polygon","coordinates":[[[139.1262279,36.0127575],[139.126269,36.0127206],[139.1264214,36.0128328],[139.1263804,36.0128696],[139.1262279,36.0127575]]]},"properties":{"layer":"building","height_m":3.3}},{"type":"Feature","id":"bldg_d72ce281-8b26-49aa-8f67-6cc15f2f4501","geometry":{"type":"Polygon","coordinates":[[[139.1302814,36.0147773],[139.1302497,36.0147988],[139.1302372,36.0147866],[139.130269,36.0147651],[139.1302814,36.0147773]]]},"properties":{"layer":"building","height_m":null}},{"type":"Feature","id":"bldg_59c34097-7012-498d-bdd5-d7e9a237f772","geometry":{"type":"Polygon","coordinates":[[[139.1302912,36.0148185],[139.1302713,36.0148295],[139.1302539,36.0148087],[139.1302738,36.0147978],[139.1302912,36.0148185]]]},"properties":{"layer":"building","height_m":5.2}},{"type":"Feature","id":"bldg_ddd63b8a-3c27-42df-b609-19b6020c4b10","geometry":{"type":"Polygon","coordinates":[[[139.1263951,36.0125754],[139.1264192,36.0125677],[139.1264304,36.0125908],[139.1264063,36.0125985],[139.1263951,36.0125754]]]},"properties":{"layer":"building","height_m":null}},{"type":"Feature","id":"bldg_fae812d5-1286-45f7-8807-d30f19ffe842","geometry":{"type":"Polygon","coordinates":[[[139.1264556,36.0126063],[139.1266782,36.0125599],[139.126709,36.0126576],[139.1264863,36.012704],[139.1264556,36.0126063]]]},"properties":{"layer":"building","height_m":7.7}},{"type":"Feature","id":"bldg_cacae58b-1649-4ecf-9930-8ee1919ff8d6","geometry":{"type":"Polygon","coordinates":[[[139.1269685,36.0123134],[139.1270592,36.0122971],[139.1270785,36.012368],[139.1269878,36.0123843],[139.1269685,36.0123134]]]},"properties":{"layer":"building","height_m":4.5}},{"type":"Feature","id":"bldg_60a8a618-f10c-496b-a61d-382b86ac407c","geometry":{"type":"Polygon","coordinates":[[[139.1277845,36.0116822],[139.1278438,36.0117372],[139.1277836,36.0117801],[139.1277688,36.0117907],[139.1276749,36.0117038],[139.12775,36.0116503],[139.1277845,36.0116822]]]},"properties":{"layer":"building","height_m":4.5}},{"type":"Feature","id":"bldg_6be5603d-8ba4-4e5f-9a06-5c8fa26d60ec","geometry":{"type":"Polygon","coordinates":[[[139.1277832,36.0118253],[139.1277849,36.0118244],[139.1278245,36.0118706],[139.1277826,36.0118944],[139.127773,36.0118998],[139.1277825,36.0119108],[139.1278017,36.0119332],[139.1277822,36.0119442],[139.1276589,36.0120141],[139.1275973,36.0119422],[139.1277381,36.0118625],[139.1277314,36.0118547],[139.1277832,36.0118253]]]},"properties":{"layer":"building","height_m":7.6}},{"type":"Feature","id":"bldg_7b45b46a-9355-452d-89b4-1eb2c38f8024","geometry":{"type":"Polygon","coordinates":[[[139.1265987,36.012772],[139.1265828,36.0127461],[139.1266289,36.0127273],[139.1266449,36.0127533],[139.1265987,36.012772]]]},"properties":{"layer":"building","height_m":5.2}},{"type":"Feature","id":"bldg_a0e36935-0ff8-4f17-9d2c-fdaa15b2554f","geometry":{"type":"Polygon","coordinates":[[[139.1259337,36.0129227],[139.1258532,36.0128864],[139.1259535,36.0127396],[139.1260456,36.0127811],[139.1259963,36.0128533],[139.1259847,36.0128481],[139.1259337,36.0129227]]]},"properties":{"layer":"building","height_m":5.1}},{"type":"Feature","id":"bldg_2b90a538-bc24-407f-827d-f6e68a41ab62","geometry":{"type":"Polygon","coordinates":[[[139.1264543,36.013271],[139.1264616,36.013347],[139.1263258,36.0133556],[139.1263185,36.0132798],[139.1264543,36.013271]]]},"properties":{"layer":"building","height_m":6.7}},{"type":"Feature","id":"bldg_ae644e92-3e25-4b0a-bc04-23504d08012a","geometry":{"type":"Polygon","coordinates":[[[139.1304917,36.0145578],[139.1304991,36.0144763],[139.1305557,36.0144797],[139.1305575,36.01446],[139.1306055,36.0144629],[139.130604,36.0144797],[139.1306447,36.0144821],[139.130637,36.0145665],[139.1304917,36.0145578]]]},"properties":{"layer":"building","height_m":7.2}},{"type":"Feature","id":"bldg_8df96fa2-754d-4c25-a6bf-d74d2ab93093","geometry":{"type":"Polygon","coordinates":[[[139.1306651,36.0144462],[139.130628,36.0144466],[139.1306274,36.014405],[139.1306645,36.0144046],[139.1306651,36.0144462]]]},"properties":{"layer":"building","height_m":3.4}},{"type":"Feature","id":"bldg_89e4bf82-a8e4-4b5b-9c9a-6fa3b5462a69","geometry":{"type":"Polygon","coordinates":[[[139.1306842,36.0144151],[139.1307204,36.0144104],[139.1307242,36.0144301],[139.130688,36.0144349],[139.1306842,36.0144151]]]},"properties":{"layer":"building","height_m":null}},{"type":"Feature","id":"bldg_87eb16af-fafb-4593-8294-0da5e460025c","geometry":{"type":"Polygon","coordinates":[[[139.1307711,36.014451],[139.1307588,36.0144111],[139.1308214,36.0143983],[139.1308337,36.0144382],[139.1307711,36.014451]]]},"properties":{"layer":"building","height_m":null}},{"type":"Feature","id":"bldg_b842d09f-fafe-4479-abe2-86b9d6a2bcc5","geometry":{"type":"Polygon","coordinates":[[[139.1275536,36.0120055],[139.1276068,36.0119673],[139.1276536,36.0120105],[139.1276003,36.0120487],[139.1275536,36.0120055]]]},"properties":{"layer":"building","height_m":5.3}},{"type":"Feature","id":"bldg_c3b23876-e477-4eda-8f33-a4008f7e53da","geometry":{"type":"Polygon","coordinates":[[[139.1312325,36.014482],[139.1312666,36.0144821],[139.1312664,36.0145645],[139.1311482,36.0145641],[139.1311486,36.0144818],[139.1311818,36.0144819],[139.1311818,36.0144658],[139.1312325,36.0144659],[139.1312325,36.014482]]]},"properties":{"layer":"building","height_m":6.9}},{"type":"Feature","id":"bldg_e4b14e79-3849-4620-b769-d2bb83bdb3ed","geometry":{"type":"Polygon","coordinates":[[[139.1316703,36.0145393],[139.1316214,36.0145494],[139.1316137,36.0145247],[139.1316626,36.0145146],[139.1316703,36.0145393]]]},"properties":{"layer":"building","height_m":4.4}},{"type":"Feature","id":"bldg_52a40ce0-41ac-4d6b-bd4c-030e0d065835","geometry":{"type":"Polygon","coordinates":[[[139.1326119,36.0119258],[139.1325888,36.0119744],[139.1325333,36.0119571],[139.1325563,36.0119084],[139.1326119,36.0119258]]]},"properties":{"layer":"building","height_m":3.7}},{"type":"Feature","id":"bldg_839e4675-fb91-480d-b9d1-3cc7623028aa","geometry":{"type":"Polygon","coordinates":[[[139.1328239,36.0117383],[139.1327496,36.0118656],[139.1325973,36.0118069],[139.1326715,36.0116797],[139.1328239,36.0117383]]]},"properties":{"layer":"building","height_m":4.1}},{"type":"Feature","id":"bldg_740ce696-05e1-4060-90e8-9d2d25a53bf2","geometry":{"type":"Polygon","coordinates":[[[139.125981,36.0134067],[139.1260106,36.0133973],[139.1260279,36.0134319],[139.1259984,36.0134416],[139.125981,36.0134067]]]},"properties":{"layer":"building","height_m":null}},{"type":"Feature","id":"bldg_2445094d-ba14-46a4-b41f-60533f74c448","geometry":{"type":"Polygon","coordinates":[[[139.1263451,36.012576],[139.1263393,36.0125613],[139.1263769,36.0125514],[139.1263827,36.0125661],[139.1263451,36.012576]]]},"properties":{"layer":"building","height_m":3.5}},{"type":"Feature","id":"bldg_b47e1afe-afe7-4531-aa9c-fb0ab603d32f","geometry":{"type":"Polygon","coordinates":[[[139.1260703,36.0129109],[139.1260782,36.0129184],[139.1261267,36.0128847],[139.1261901,36.0129448],[139.1260659,36.0129774],[139.1260363,36.0129493],[139.1260417,36.0129456],[139.1260327,36.0129371],[139.1260703,36.0129109]]]},"properties":{"layer":"building","height_m":4.6}},{"type":"Feature","id":"bldg_5835169c-07d4-4920-b15f-5d886870685c","geometry":{"type":"Polygon","coordinates":[[[139.1259747,36.0134167],[139.1259851,36.01344],[139.125883,36.0134703],[139.1258725,36.0134472],[139.1259747,36.0134167]]]},"properties":{"layer":"building","height_m":null}},{"type":"Feature","id":"bldg_e85d05d0-8f3e-4b0b-b42d-fdf9f3dbd05f","geometry":{"type":"Polygon","coordinates":[[[139.1269374,36.012503],[139.1269708,36.0125492],[139.1267902,36.0126317],[139.126758,36.012585],[139.1269374,36.012503]]]},"properties":{"layer":"building","height_m":5.4}},{"type":"Feature","id":"bldg_3521eb0e-ff4d-4c50-9a3e-e3cb5030af5d","geometry":{"type":"Polygon","coordinates":[[[139.1261057,36.0128316],[139.1261478,36.0128706],[139.1261277,36.012885],[139.1260856,36.0128459],[139.1261057,36.0128316]]]},"properties":{"layer":"building","height_m":null}},{"type":"Feature","id":"bldg_bece298a-1f28-40c7-b7e4-ab58037d7217","geometry":{"type":"Polygon","coordinates":[[[139.1263996,36.0125852],[139.1264209,36.0126349],[139.1264393,36.0126297],[139.1264803,36.0127249],[139.126465,36.0127292],[139.1264881,36.0127828],[139.1264321,36.0127987],[139.1263468,36.0126002],[139.1263996,36.0125852]]]},"properties":{"layer":"building","height_m":9.9}},{"type":"Feature","id":"bldg_aed91df7-ca85-4df2-ab5a-4f688352d34e","geometry":{"type":"Polygon","coordinates":[[[139.1274757,36.0120306],[139.1274609,36.0119974],[139.1275038,36.0119848],[139.1275186,36.0120179],[139.1274757,36.0120306]]]},"properties":{"layer":"building","height_m":4.0}},{"type":"Feature","id":"bldg_72e083c5-d7b9-47da-a526-9ad385167044","geometry":{"type":"Polygon","coordinates":[[[139.1291651,36.0132698],[139.12917,36.0133172],[139.1291199,36.0133206],[139.129115,36.0132731],[139.1291651,36.0132698]]]},"properties":{"layer":"building","height_m":8.3}},{"type":"Feature","id":"bldg_e0c556d4-b685-4a6b-bd4f-1e5b4aed3fce","geometry":{"type":"Polygon","coordinates":[[[139.1284851,36.013962],[139.1285442,36.013939],[139.1285723,36.0139867],[139.1285133,36.0140097],[139.1284851,36.013962]]]},"properties":{"layer":"building","height_m":7.3}}]}