{"type":"FeatureCollection","properties":{"mesh_code":"54390003","source":"PLATEAU秩父市2025","layer":"building"},"features":[{"type":"Feature","id":"bldg_b37a734a-3e00-4df8-bbd0-dcfea1a2073e","geometry":{"type":"Polygon","coordinates":[[[139.0491525117056,36.006298579393984],[139.0492298003502,36.00624527726487],[139.0492930943951,36.00630580750634],[139.0492158057325,36.0063591096755],[139.0491525117056,36.006298579393984]]]},"properties":{"layer":"building","height_m":8.3}},{"type":"Feature","id":"bldg_5ab5441e-4578-4be1-8264-57e1c18b9483","geometry":{"type":"Polygon","coordinates":[[[139.0450693820289,36.003822216832596],[139.0450885779922,36.00379371779787],[139.04513409867258,36.00381397164401],[139.04511491390173,36.003842461746565],[139.0450693820289,36.003822216832596]]]},"properties":{"layer":"building","height_m":4.2}},{"type":"Feature","id":"bldg_8145deef-0717-4777-9b51-159d144b31a5","geometry":{"type":"Polygon","coordinates":[[[139.04503828099848,36.003767447934074],[139.0450720570284,36.00371728741767],[139.04518293240548,36.00376659590769],[139.04514915642363,36.003816756455514],[139.04503828099848,36.003767447934074]]]},"properties":{"layer":"building","height_m":6.6}},{"type":"Feature","id":"bldg_212b85f8-ec30-479d-a7a5-377c3eaa989f","geometry":{"type":"Polygon","coordinates":[[[139.04908661359343,36.00391367764659],[139.0491357740334,36.00394509380856],[139.0490890402814,36.00399345829747],[139.04903976891504,36.003962041391205],[139.04908661359343,36.00391367764659]]]},"properties":{"layer":"building","height_m":4.8}},{"type":"Feature","id":"bldg_37364d54-6ee9-445a-830f-0d565cf7f4f5","geometry":{"type":"Polygon","coordinates":[[[139.04293548757522,36.00096141033795],[139.0429621014505,36.0009598462002],[139.04296702798342,36.00101524533801],[139.04294041408954,36.00101680947661],[139.04293548757522,36.00096141033795]]]},"properties":{"layer":"building","height_m":null}},{"type":"Feature","id":"bldg_9f0ccee7-133c-4b29-8ce0-bc974e96aa02","geometry":{"type":"Polygon","coordinates":[[[139.049056152697,36.006126973390785],[139.04917899353774,36.00625675210261],[139.04906826940174,36.00632596879129],[139.0489454286394,36.006196189968456],[139.049056152697,36.006126973390785]]]},"properties":{"layer":"building","height_m":8.1}},{"type":"Feature","id":"bldg_55779115-8b60-41c5-b1c7-18b503dc82b8","geometry":{"type":"Polygon","coordinates":[[[139.04905256712664,36.00610820297482],[139.04894265322866,36.00616282384178],[139.04889601342856,36.006100780002804],[139.04900592637833,36.00604624930119],[139.04905256712664,36.00610820297482]]]},"properties":{"layer":"building","height_m":8.3}},{"type":"Feature","id":"bldg_333dff34-fa2f-490d-b245-4f04935b4b76","geometry":{"type":"Polygon","coordinates":[[[139.04893213432462,36.004674894338144],[139.0490023059865,36.0047229236643],[139.04891691071606,36.004805284541504],[139.04886349688817,36.00476873012036],[139.04887477467543,36.00475785312207],[139.04885801682272,36.004746378169024],[139.04893213432462,36.004674894338144]]]},"properties":{"layer":"building","height_m":5.0}},{"type":"Feature","id":"bldg_2548dfa4-ff93-4937-9348-2c7af6234cfb","geometry":{"type":"Polygon","coordinates":[[[139.0451137055182,36.00138275139072],[139.0451968452102,36.00146576637787],[139.0451301885543,36.00150976233572],[139.04509152871623,36.00147120316513],[139.04507757322142,36.001480304687234],[139.04504846857864,36.0014512719143],[139.04506677923953,36.00143922473569],[139.045034160418,36.001406653806576],[139.0450590588265,36.00139023356701],[139.04507630156888,36.00140747152475],[139.0451137055182,36.00138275139072]]]},"properties":{"layer":"building","height_m":5.0}},{"type":"Feature","id":"bldg_1dd5257c-8f55-46ea-af53-cc0ccb8a0cac","geometry":{"type":"Polygon","coordinates":[[[139.0489369242336,36.00374001033349],[139.04888277768595,36.00377525746052],[139.04885642047407,36.003748586949754],[139.04891045699216,36.00371324898517],[139.0489369242336,36.00374001033349]]]},"properties":{"layer":"building","height_m":6.2}},{"type":"Feature","id":"bldg_85359e75-2fd6-41ea-bd79-739b28a4a37d","geometry":{"type":"Polygon","coordinates":[[[139.04341277583046,36.00046927363351],[139.04344670331128,36.00051510268778],[139.0433851777183,36.000545071234846],[139.0433513611715,36.00049924289411],[139.04341277583046,36.00046927363351]]]},"properties":{"layer":"building","height_m":6.3}},{"type":"Feature","id":"bldg_6eb43ff7-bcc5-4ed7-bd17-65ef11ff2c2d","geometry":{"type":"Polygon","coordinates":[[[139.04894592186167,36.00482610494948],[139.04887996836723,36.00488973780663],[139.0487980737444,36.00483369130793],[139.0488640272563,36.00477005849547],[139.04894592186167,36.00482610494948]]]},"properties":{"layer":"building","height_m":3.5}},{"type":"Feature","id":"bldg_e73713a6-7f34-483f-95f2-53d81f47b442","geometry":{"type":"Polygon","coordinates":[[[139.0487705071068,36.003848627799755],[139.04881650591568,36.00381175917734],[139.0488779988305,36.00386240866619],[139.04883201111153,36.00389927738441],[139.0487705071068,36.003848627799755]]]},"properties":{"layer":"building","height_m":4.8}},{"type":"Feature","id":"bldg_bbb9e5fe-f528-4b63-80ad-30852692fedb","geometry":{"type":"Polygon","coordinates":[[[139.0488357139454,36.00507741382481],[139.0487349801639,36.005000505225595],[139.04881408155399,36.0049320734181],[139.048914814435,36.00500907207546],[139.0488357139454,36.00507741382481]]]},"properties":{"layer":"building","height_m":5.3}},{"type":"Feature","id":"bldg_73958581-a167-401f-b9a7-2aa6d80fa25a","geometry":{"type":"Polygon","coordinates":[[[139.04495992009356,36.00376129080005],[139.0449291784855,36.00373839408888],[139.04495572353153,36.00371486446039],[139.04498646513844,36.00373776116482],[139.04495992009356,36.00376129080005]]]},"properties":{"layer":"building","height_m":null}},{"type":"Feature","id":"bldg_7b090fd1-ea0c-4094-adaf-336e8c2059c2","geometry":{"type":"Polygon","coordinates":[[[139.0486691514652,36.0048119469144],[139.04866204843512,36.00481905674425],[139.04860669313888,36.00478254358637],[139.04867512423456,36.00471404205815],[139.048690905343,36.004724456129765],[139.04869831087296,36.00471704183592],[139.04872501328543,36.004734647590475],[139.04873331507594,36.004726337860376],[139.04882142306474,36.00478444394742],[139.04874438762928,36.00486156876479],[139.0486691514652,36.0048119469144]]]},"properties":{"layer":"building","height_m":6.5}},{"type":"Feature","id":"bldg_90059c0a-3cff-4764-bd73-bb314209c8da","geometry":{"type":"Polygon","coordinates":[[[139.0484684583182,36.00462823840161],[139.0485710687443,36.00469479458945],[139.04850338734443,36.004763751611925],[139.04840077688803,36.004697195366525],[139.0484684583182,36.00462823840161]]]},"properties":{"layer":"building","height_m":8.2}},{"type":"Feature","id":"bldg_d9ae4f78-1b6e-4a3c-9e5d-ef36695d021e","geometry":{"type":"Polygon","coordinates":[[[139.04839171723683,36.004545835376184],[139.04835749119135,36.00455876131275],[139.0483336890001,36.00451715489614],[139.0483390333548,36.004515134915906],[139.04830992104627,36.004464264461916],[139.04833879170553,36.00445334943388],[139.04839171723683,36.004545835376184]]]},"properties":{"layer":"building","height_m":3.5}},{"type":"Feature","id":"bldg_862fdf06-802d-4c12-a505-28f1ace736a3","geometry":{"type":"Polygon","coordinates":[[[139.04800666049945,36.00534634328864],[139.04804130896073,36.00536468620518],[139.04801087134425,36.005402701903535],[139.04797622287373,36.00538435897819],[139.04800666049945,36.00534634328864]]]},"properties":{"layer":"building","height_m":3.7}},{"type":"Feature","id":"bldg_b1aba648-e31b-427b-957f-dbb68cb10b81","geometry":{"type":"Polygon","coordinates":[[[139.043692402106,36.00054691383346],[139.04362935260053,36.00049611625057],[139.04367453338682,36.00045900986003],[139.04373769470172,36.00050971802576],[139.043692402106,36.00054691383346]]]},"properties":{"layer":"building","height_m":3.7}},{"type":"Feature","id":"bldg_b55e7f49-1ff9-4ddf-a397-ccf78de7e0cc","geometry":{"type":"Polygon","coordinates":[[[139.0479482532045,36.0051847188734],[139.04797662266483,36.00514272394206],[139.0480318399738,36.005167420484575],[139.0480035823445,36.00520932603147],[139.0479482532045,36.0051847188734]]]},"properties":{"layer":"building","height_m":5.2}},{"type":"Feature","id":"bldg_2e25143d-ad08-462c-b4af-2df981816bbe","geometry":{"type":"Polygon","coordinates":[[[139.04790956542848,36.00531641538553],[139.0479855244976,36.00535242384824],[139.04794863048022,36.0054039167074],[139.04787266959153,36.005368088468856],[139.04790956542848,36.00531641538553]]]},"properties":{"layer":"building","height_m":5.1}},{"type":"Feature","id":"bldg_98aaa258-4f7b-4377-a43c-a00b93eac390","geometry":{"type":"Polygon","coordinates":[[[139.04476221198075,36.00166143851707],[139.0447702150751,36.00168202267734],[139.04473581962256,36.00169086360089],[139.0447278054451,36.00167027936554],[139.04476221198075,36.00166143851707]]]},"properties":{"layer":"building","height_m":3.4}},{"type":"Feature","id":"bldg_7512ad59-3b78-4933-b6c1-3b57a1c922f8","geometry":{"type":"Polygon","coordinates":[[[139.04780134924502,36.00448426044052],[139.0477675983289,36.00445375582564],[139.04778614631738,36.00444017758913],[139.04781989634105,36.004470772322726],[139.04780134924502,36.00448426044052]]]},"properties":{"layer":"building","height_m":3.9}},{"type":"Feature","id":"bldg_5f8d6405-a720-4a20-8925-0c1e8f2df386","geometry":{"type":"Polygon","coordinates":[[[139.04769096523,36.002535807684026],[139.04769188810678,36.00250986538469],[139.04770667037886,36.00251021456817],[139.04771000314125,36.00241688905319],[139.04776821175912,36.00241826171259],[139.0477670892962,36.00244979074818],[139.04775780744868,36.00244956772577],[139.04775551708002,36.002513851262634],[139.04777446898768,36.002514299849615],[139.0477736373591,36.002537755167275],[139.04769096523,36.002535807684026]]]},"properties":{"layer":"building","height_m":null}},{"type":"Feature","id":"bldg_9264b445-0c1f-496b-9c9a-dbdb220365b0","geometry":{"type":"Polygon","coordinates":[[[139.04771727794872,36.005221331104714],[139.04787442150177,36.0053032967075],[139.04779870653888,36.00539923961168],[139.04764145285426,36.005317183059226],[139.04771727794872,36.005221331104714]]]},"properties":{"layer":"building","height_m":8.1}},{"type":"Feature","id":"bldg_cd43b79c-7a32-41c5-bd8a-118babf58ad5","geometry":{"type":"Polygon","coordinates":[[[139.0478364528395,36.004546139034005],[139.04773815440888,36.00461525563424],[139.04763693652058,36.00452022687989],[139.04773512400223,36.0044511096347],[139.0478364528395,36.004546139034005]]]},"properties":{"layer":"building","height_m":8.0}},{"type":"Feature","id":"bldg_4f340061-aed8-4763-88ac-8464900eb210","geometry":{"type":"Polygon","coordinates":[[[139.04748072977185,36.005249434188265],[139.04750436227218,36.005215339746115],[139.0475356123636,36.0052296047082],[139.04755474464795,36.005201879980056],[139.04764562452957,36.0052433040555],[139.04760297071866,36.00530512399115],[139.04748072977185,36.005249434188265]]]},"properties":{"layer":"building","height_m":7.7}},{"type":"Feature","id":"bldg_d19150d2-6fcc-4851-8da1-d7cbeee06e53","geometry":{"type":"Polygon","coordinates":[[[139.04748981961677,36.001494149751],[139.04750672198887,36.00145631586985],[139.04754896968407,36.00146876015218],[139.04753206732929,36.00150659403944],[139.04748981961677,36.001494149751]]]},"properties":{"layer":"building","height_m":3.0}},{"type":"Feature","id":"bldg_94aaf9d7-6363-47f6-bb17-b03c719ab723","geometry":{"type":"Polygon","coordinates":[[[139.0462163224173,36.00251860511881],[139.0461733351233,36.00251134698433],[139.046162002691,36.002555616427976],[139.04608936066128,36.002543341709185],[139.04610287459258,36.00249051525526],[139.04609621935353,36.00248939903286],[139.04611572277184,36.002413160137884],[139.046238018174,36.00243381826824],[139.0462163224173,36.00251860511881]]]},"properties":{"layer":"building","height_m":7.6}},{"type":"Feature","id":"bldg_4f426739-3be8-4b60-b1c2-958d1d9d9c20","geometry":{"type":"Polygon","coordinates":[[[139.04739562931726,36.001438021735126],[139.0473910625402,36.001461182190965],[139.04738759528541,36.001460726849906],[139.04738168522275,36.00149071033683],[139.0472283930834,36.001470760550205],[139.04722997001002,36.00146274933929],[139.04717832614313,36.00145602969084],[139.04718595328202,36.001417332910506],[139.0472302969683,36.001423103416194],[139.04723156986822,36.0014166674829],[139.04739562931726,36.001438021735126]]]},"properties":{"layer":"building","height_m":4.4}},{"type":"Feature","id":"bldg_a6259f14-de5f-4c6a-8bbc-72c42d0f89a0","geometry":{"type":"Polygon","coordinates":[[[139.04715660824013,36.0032717576661],[139.04719673657414,36.00323855551731],[139.04727435560267,36.00330042450571],[139.04723424927286,36.003333644850294],[139.0472232991437,36.00332492063509],[139.04715660824013,36.0032717576661]]]},"properties":{"layer":"building","height_m":3.6}},{"type":"Feature","id":"bldg_a34ad027-11cf-456a-96ae-3ba916b2e867","geometry":{"type":"Polygon","coordinates":[[[139.04731821256144,36.00155488138647],[139.0472658665392,36.00161107673379],[139.047132358127,36.0015289678197],[139.04718470418746,36.00147277253037],[139.04731821256144,36.00155488138647]]]},"properties":{"layer":"building","height_m":7.2}},{"type":"Feature","id":"bldg_0ae5832f-a1f7-4a4b-90e5-6124eb2da5c5","geometry":{"type":"Polygon","coordinates":[[[139.047105160737,36.00331441231595],[139.04715660824013,36.0032717576661],[139.0472232991437,36.00332492063509],[139.0471718516409,36.00336757531321],[139.047105160737,36.00331441231595]]]},"properties":{"layer":"building","height_m":4.5}},{"type":"Feature","id":"bldg_e6722b5f-e215-4e03-8cd1-f53fad894fc3","geometry":{"type":"Polygon","coordinates":[[[139.0440808450973,36.00031233904387],[139.0437938827787,36.00052559018951],[139.0436114878312,36.00036332769502],[139.04389855915,36.00015025795636],[139.0440808450973,36.00031233904387]]]},"properties":{"layer":"building","height_m":3.7}},{"type":"Feature","id":"bldg_f59902dd-58f5-49e8-8261-fd36448383e3","geometry":{"type":"Polygon","coordinates":[[[139.04709203766654,36.00092797989348],[139.04707190218235,36.000921655997125],[139.04707931109945,36.00090605804001],[139.0470994577609,36.000912372995415],[139.04709203766654,36.00092797989348]]]},"properties":{"layer":"building","height_m":null}},{"type":"Feature","id":"bldg_4d101579-900f-42d6-b918-0c38f7ce5c70","geometry":{"type":"Polygon","coordinates":[[[139.04707313107963,36.00231736784632],[139.047039993109,36.00230345090755],[139.04705948889512,36.00227257408492],[139.0470927386644,36.00228640162142],[139.04707313107963,36.00231736784632]]]},"properties":{"layer":"building","height_m":3.3}},{"type":"Feature","id":"bldg_2398833d-a4b8-46ef-aeb3-be7ee821adc6","geometry":{"type":"Polygon","coordinates":[[[139.04473400506492,36.00151663095065],[139.04471933328242,36.001480698920005],[139.04470372942944,36.001484904531026],[139.04468499700505,36.00143904955686],[139.04473716929715,36.00142498082814],[139.044740406955,36.0014328974761],[139.04476939038392,36.001425075488704],[139.0447995569097,36.00149895483911],[139.04473400506492,36.00151663095065]]]},"properties":{"layer":"building","height_m":3.3}},{"type":"Feature","id":"bldg_19f87997-53b5-4701-b187-8c19414f0bf9","geometry":{"type":"Polygon","coordinates":[[[139.0470451121525,36.000959965784],[139.04706285235363,36.00092266020715],[139.047109536767,36.00093730585217],[139.04714081496053,36.000871463795235],[139.04722698536636,36.00089849965287],[139.04717797817548,36.00100164740233],[139.0470451121525,36.000959965784]]]},"properties":{"layer":"building","height_m":7.0}},{"type":"Feature","id":"bldg_1d20389e-009f-4dfc-9a7b-39665885ebe5","geometry":{"type":"Polygon","coordinates":[[[139.04692500947868,36.002759555576525],[139.04696504999708,36.002684911287794],[139.04706544661266,36.002720458643886],[139.04702541726107,36.00279510303936],[139.04692500947868,36.002759555576525]]]},"properties":{"layer":"building","height_m":9.2}},{"type":"Feature","id":"bldg_e5a11d99-69ac-4151-a489-3ffc411e527f","geometry":{"type":"Polygon","coordinates":[[[139.04693845048112,36.00316866129051],[139.04701545620102,36.003221891999694],[139.04703212653052,36.003207490399824],[139.04707432045916,36.00323660849238],[139.04705741130084,36.003252720996734],[139.04708153695475,36.00326946300612],[139.04699643022823,36.003350652738234],[139.04692107827276,36.00329842428654],[139.04693552497383,36.003284548899835],[139.04686678145296,36.003237050484145],[139.04693845048112,36.00316866129051]]]},"properties":{"layer":"building","height_m":8.5}},{"type":"Feature","id":"bldg_565a072a-217e-4127-b17c-87497ef30386","geometry":{"type":"Polygon","coordinates":[[[139.04686107191844,36.00242361952959],[139.0468352323731,36.00241418476971],[139.04684931718361,36.002388707324194],[139.04687515681192,36.00239813306863],[139.04686107191844,36.00242361952959]]]},"properties":{"layer":"building","height_m":null}},{"type":"Feature","id":"bldg_299dd495-bac2-4476-a2e5-5c794923dfd0","geometry":{"type":"Polygon","coordinates":[[[139.04680935623475,36.00461756887871],[139.04684224456375,36.00460645523372],[139.04686295169654,36.0046468970005],[139.0468300632639,36.00465801966329],[139.04680935623475,36.00461756887871]]]},"properties":{"layer":"building","height_m":3.6}},{"type":"Feature","id":"bldg_cd5995ca-cfdd-4ff1-822a-da74f3edd67f","geometry":{"type":"Polygon","coordinates":[[[139.0469577181717,36.00256426066221],[139.04692800772423,36.00263634088933],[139.0468883717878,36.00262556288523],[139.0468835752426,36.00263721224619],[139.04678638281746,36.002610761810836],[139.04682090111285,36.0025270233219],[139.0469577181717,36.00256426066221]]]},"properties":{"layer":"building","height_m":8.8}},{"type":"Feature","id":"bldg_b270b4a2-3194-4ade-8407-732ac9e12d7c","geometry":{"type":"Polygon","coordinates":[[[139.04678130865977,36.00470528842926],[139.04674056008145,36.0047237862085],[139.04670646624314,36.00467423464918],[139.04674721489303,36.00465572786877],[139.04678130865977,36.00470528842926]]]},"properties":{"layer":"building","height_m":5.1}},{"type":"Feature","id":"bldg_c4be129d-ca98-488d-af18-b8ea46da0fb2","geometry":{"type":"Polygon","coordinates":[[[139.04670363037417,36.00315738753789],[139.0468082279737,36.0031687087586],[139.04679748134845,36.00323443296787],[139.04669288366398,36.003223111736816],[139.04670363037417,36.00315738753789]]]},"properties":{"layer":"building","height_m":4.0}},{"type":"Feature","id":"bldg_7487a993-8c70-40ab-9433-1edaea60fbe2","geometry":{"type":"Polygon","coordinates":[[[139.04665206598509,36.004482505531705],[139.0466735249774,36.0044617632255],[139.0467063684376,36.00448419558852],[139.04668490944763,36.00450493790054],[139.04665206598509,36.004482505531705]]]},"properties":{"layer":"building","height_m":3.4}},{"type":"Feature","id":"bldg_55d69779-e516-4526-bfe7-82266c9a21e3","geometry":{"type":"Polygon","coordinates":[[[139.04663455692204,36.004476342993655],[139.0466125640325,36.00446485141895],[139.04662903206867,36.00444404934619],[139.04665102495494,36.004455540917874],[139.04663455692204,36.004476342993655]]]},"properties":{"layer":"building","height_m":3.8}},{"type":"Feature","id":"bldg_dcff871c-254a-4206-817c-9c499c1f5fb0","geometry":{"type":"Polygon","coordinates":[[[139.04371607295113,36.0011909833397],[139.04365565537518,36.00124327542824],[139.04356625830715,36.00117506254371],[139.04362667579855,36.001122779512094],[139.04371607295113,36.0011909833397]]]},"properties":{"layer":"building","height_m":8.1}},{"type":"Feature","id":"bldg_70a60bc5-58aa-4fad-925e-9f24540cfc41","geometry":{"type":"Polygon","coordinates":[[[139.04296973965685,36.00094024825389],[139.04294397524632,36.00094338624756],[139.04293681957645,36.000904628388994],[139.04296258406455,36.00090148138429],[139.04296973965685,36.00094024825389]]]},"properties":{"layer":"building","height_m":null}},{"type":"Feature","id":"bldg_29c5ca4b-9f10-4d83-b2fb-d54edbfffe2d","geometry":{"type":"Polygon","coordinates":[[[139.0436811755593,36.00043805336267],[139.04358867843754,36.00050396013784],[139.04354262927436,36.00046129598117],[139.04363501547277,36.00039538851071],[139.0436811755593,36.00043805336267]]]},"properties":{"layer":"building","height_m":3.8}},{"type":"Feature","id":"bldg_b71dc5e6-93b6-4c72-be57-5c90816372a0","geometry":{"type":"Polygon","coordinates":[[[139.04665513221278,36.00093329909133],[139.04665838784908,36.00092937276077],[139.04664356086244,36.000921271999864],[139.04667598295407,36.000882124981295],[139.046690158962,36.00088987897609],[139.04668272694448,36.00089886123517],[139.0467742369095,36.00094889748953],[139.04675946295197,36.00096672741356],[139.0467461694704,36.00095945690173],[139.0467360993497,36.00097161245676],[139.04672169157246,36.00096373977884],[139.04671830114353,36.000967836473635],[139.04665513221278,36.00093329909133]]]},"properties":{"layer":"building","height_m":null}},{"type":"Feature","id":"bldg_4efc8934-a4fa-47cd-a92f-464ceb28d923","geometry":{"type":"Polygon","coordinates":[[[139.04654925369806,36.00455703537998],[139.04657267697579,36.00454178586128],[139.04656229099683,36.00453320949482],[139.04660268472347,36.00450018054411],[139.04660657230264,36.004504117670756],[139.0466131482493,36.004499834577906],[139.046741481158,36.00462994021978],[139.0466858479981,36.00466616801769],[139.04663346501945,36.004613053535785],[139.0466158360805,36.00462453759881],[139.04654925369806,36.00455703537998]]]},"properties":{"layer":"building","height_m":12.8}},{"type":"Feature","id":"bldg_9d335f7b-4cb6-49fa-a574-f47e674a8891","geometry":{"type":"Polygon","coordinates":[[[139.04641016854907,36.00408019321338],[139.04637387624123,36.00404877023848],[139.04642148990314,36.00401248996807],[139.04645778310928,36.00404382280495],[139.04641016854907,36.00408019321338]]]},"properties":{"layer":"building","height_m":4.3}},{"type":"Feature","id":"bldg_eb2e3203-d063-4979-a19f-739d55675747","geometry":{"type":"Polygon","coordinates":[[[139.0463866452632,36.00444820058939],[139.04636623976776,36.00446561495797],[139.0463284062561,36.004436344970664],[139.04635763845033,36.00441139960289],[139.04630408571805,36.00436999416009],[139.0463543276864,36.004327097621086],[139.0463652693605,36.0043355604829],[139.04636954289498,36.00433191123077],[139.046398283931,36.004354154528386],[139.04640428026008,36.004349038451124],[139.04648105894287,36.004408450904045],[139.04647508497646,36.00441354910587],[139.04654189087194,36.00446523507452],[139.04655034839985,36.004458017087],[139.04659796779023,36.004494868006454],[139.04652613488597,36.00455615367964],[139.0463866452632,36.00444820058939]]]},"properties":{"layer":"building","height_m":7.2}},{"type":"Feature","id":"bldg_77f08fce-0a97-4d18-8199-5ae9f960a77c","geometry":{"type":"Polygon","coordinates":[[[139.04630244436854,36.00436773014844],[139.0462817168685,36.00435169526762],[139.04628902211917,36.00434546116397],[139.04625028607882,36.004315491231374],[139.04629698137177,36.00427565387769],[139.0463080439654,36.00428422569376],[139.0463433954273,36.00425406591968],[139.04640632623335,36.00430277028523],[139.04638118864028,36.00432421845959],[139.04637744597466,36.00432132778062],[139.04636401013994,36.004332794253045],[139.04635320066998,36.004324422388194],[139.04630244436854,36.00436773014844]]]},"properties":{"layer":"building","height_m":5.6}},{"type":"Feature","id":"bldg_c6b1e1a8-d177-4f95-8ee9-5ae3d2f40a0e","geometry":{"type":"Polygon","coordinates":[[[139.0464099588486,36.00337124975837],[139.0464468859668,36.00331307896273],[139.04652684944674,36.00334658197147],[139.04650911264258,36.003374532009836],[139.0465362200877,36.00338588590641],[139.04645683262575,36.00351097888525],[139.04645006121225,36.00350814945591],[139.04643320336095,36.00353470823791],[139.04635056660877,36.003500079032186],[139.04636632005048,36.00347527054473],[139.04629321619743,36.00344464251151],[139.0463105134501,36.0034174016464],[139.0462362499045,36.003386279269066],[139.0462189298235,36.00341358306445],[139.04613977286303,36.00338040961106],[139.04615938045387,36.0033495066387],[139.04614309836995,36.003342685122],[139.04616294236425,36.00331143219448],[139.04617929072361,36.003318281182324],[139.0462011969508,36.003283770073836],[139.0464099588486,36.00337124975837]]]},"properties":{"layer":"building","height_m":7.3}},{"type":"Feature","id":"bldg_7125802e-f969-42c7-9d3f-0148b7394fed","geometry":{"type":"Polygon","coordinates":[[[139.0447653571006,36.00141462997911],[139.04470511689155,36.00142799674288],[139.04469969838817,36.001411854939235],[139.04468524136306,36.00136884012089],[139.04468156785765,36.00135791027352],[139.04474180801694,36.0013445435208],[139.0447653571006,36.00141462997911]]]},"properties":{"layer":"building","height_m":3.8}},{"type":"Feature","id":"bldg_74fbcbf8-93a2-4a02-8c80-1d3726bafec0","geometry":{"type":"Polygon","coordinates":[[[139.04467820837206,36.001590576049885],[139.04466022290887,36.001544338426],[139.0446949406685,36.00153542753891],[139.04470229495232,36.001554331025666],[139.04471292632962,36.00158164713312],[139.04467820837206,36.001590576049885]]]},"properties":{"layer":"building","height_m":3.0}},{"type":"Feature","id":"bldg_1c82f639-4549-43ab-ad1d-f165e9a5a41f","geometry":{"type":"Polygon","coordinates":[[[139.04469969838817,36.001411854939235],[139.04465268675713,36.00142228930444],[139.04463824084704,36.00137927455373],[139.04468524136306,36.00136884012089],[139.04469969838817,36.001411854939235]]]},"properties":{"layer":"building","height_m":3.8}},{"type":"Feature","id":"bldg_152bfe89-fdd9-4ceb-a20e-5366a818b31a","geometry":{"type":"Polygon","coordinates":[[[139.046100299937,36.00331638379583],[139.0460922494202,36.00338978665515],[139.04604115087892,36.00338611647478],[139.04604920144257,36.00331271361943],[139.046100299937,36.00331638379583]]]},"properties":{"layer":"building","height_m":4.4}},{"type":"Feature","id":"bldg_7543d2f2-b490-482b-aed3-6a38410fcc45","geometry":{"type":"Polygon","coordinates":[[[139.04466531829357,36.00167980983564],[139.04463490545893,36.00160171076427],[139.04467820837206,36.001590576049885],[139.04471292632962,36.00158164713312],[139.04470229495232,36.001554331025666],[139.04474033786803,36.00154454970314],[139.0447457780148,36.001558519521076],[139.04478443246953,36.0015485889845],[139.04482003669136,36.00164003430362],[139.04466531829357,36.00167980983564]]]},"properties":{"layer":"building","height_m":5.5}},{"type":"Feature","id":"bldg_35082c4b-8643-4ec3-83a0-395f0fb53191","geometry":{"type":"Polygon","coordinates":[[[139.04609011781903,36.00102657178299],[139.046003272566,36.001015005954365],[139.0460072379665,36.00099547383249],[139.0460940831988,36.00100703965801],[139.04609011781903,36.00102657178299]]]},"properties":{"layer":"building","height_m":3.2}},{"type":"Feature","id":"bldg_244927d2-5ae9-4ea8-876a-4348a9531ee3","geometry":{"type":"Polygon","coordinates":[[[139.04468795726103,36.00123087840492],[139.04470507192528,36.001249828038205],[139.04468766470202,36.00126025876701],[139.0446439243517,36.001286379180996],[139.04463679316876,36.001278491007504],[139.04448470576543,36.001369333078216],[139.04445299874666,36.00133433448657],[139.04445857755152,36.00133103637761],[139.04443378259236,36.00130365413456],[139.04464165960727,36.00117965071299],[139.04468795726103,36.00123087840492]]]},"properties":{"layer":"building","height_m":5.8}},{"type":"Feature","id":"bldg_9583c5bb-d319-4929-99dc-1aa5973d7ae1","geometry":{"type":"Polygon","coordinates":[[[139.04604434463033,36.004281035043235],[139.04599562038626,36.004328574079594],[139.04593964781208,36.00429071271297],[139.0459883720656,36.00424317369918],[139.04604434463033,36.004281035043235]]]},"properties":{"layer":"building","height_m":7.5}},{"type":"Feature","id":"bldg_46f94188-2204-4b39-a36c-f4f8e8696ca3","geometry":{"type":"Polygon","coordinates":[[[139.04598757849524,36.00003861770767],[139.04609733922572,35.99997642755281],[139.04616170262312,36.00005138724159],[139.04604926386855,36.00011518221279],[139.0460140666467,36.000074212555525],[139.04597480231658,36.000096487266674],[139.0460016671102,36.00012766823222],[139.04586390812614,36.00020571758675],[139.0458106204663,36.00014353874989],[139.0459523954496,36.00006317244395],[139.04596456670257,36.00007731257603],[139.04600249204222,36.00005584024699],[139.04598757849524,36.00003861770767]]]},"properties":{"layer":"building","height_m":8.2}},{"type":"Feature","id":"bldg_2e24fac8-9077-4096-9018-d48efba12973","geometry":{"type":"Polygon","coordinates":[[[139.04373010000907,36.00074860190168],[139.0437876985157,36.000689765821924],[139.0438192712049,36.0007159309939],[139.04378065106275,36.00077363019546],[139.04373010000907,36.00074860190168]]]},"properties":{"layer":"building","height_m":4.1}},{"type":"Feature","id":"bldg_42634c21-747e-4468-98e8-b68d6f4c4755","geometry":{"type":"Polygon","coordinates":[[[139.04589006746718,36.00414545871283],[139.0458172733639,36.00420410586681],[139.0457694121582,36.004164855601694],[139.04584220625978,36.00410620847637],[139.04589006746718,36.00414545871283]]]},"properties":{"layer":"building","height_m":4.1}},{"type":"Feature","id":"bldg_3f1684f5-eace-44b4-8c2c-bbfae2cd0f7f","geometry":{"type":"Polygon","coordinates":[[[139.04562205916872,36.00403689528445],[139.04566950461628,36.00398075864209],[139.04567672996453,36.00398478982092],[139.04568394725945,36.003976247856535],[139.0457307962048,36.00400238665429],[139.04572484722738,36.00400943178408],[139.04583302894883,36.004069798925286],[139.04578431524573,36.00412743247031],[139.04562205916872,36.00403689528445]]]},"properties":{"layer":"building","height_m":7.1}},{"type":"Feature","id":"bldg_fc1aa883-062b-4fde-80bd-c3c1acab20d5","geometry":{"type":"Polygon","coordinates":[[[139.04567551959263,36.00025430440466],[139.04561558424749,36.000285077687366],[139.04558543390857,36.00024634021437],[139.045645967434,36.000215642978276],[139.04567551959263,36.00025430440466]]]},"properties":{"layer":"building","height_m":4.0}},{"type":"Feature","id":"bldg_a4ae0256-cccb-480b-a0cb-65af8330aa8c","geometry":{"type":"Polygon","coordinates":[[[139.04289120338476,36.00095973954073],[139.04291401030628,36.00095842071591],[139.0429213884997,36.001042677515244],[139.04289858155403,36.00104399634115],[139.04289120338476,36.00095973954073]]]},"properties":{"layer":"building","height_m":null}},{"type":"Feature","id":"bldg_406fe7d6-ed59-45f8-9ef7-bbb9b3d31ac4","geometry":{"type":"Polygon","coordinates":[[[139.04358161850666,36.00054456215671],[139.04379487048297,36.000682422392856],[139.04373010000907,36.00074860190168],[139.04360225924864,36.00066592251579],[139.04362377519078,36.00064389226098],[139.04353847483276,36.00058871204173],[139.04358161850666,36.00054456215671]]]},"properties":{"layer":"building","height_m":7.9}},{"type":"Feature","id":"bldg_9451f2a4-269c-460c-a29c-8481716b7944","geometry":{"type":"Polygon","coordinates":[[[139.04370493439635,36.00058043445698],[139.0436783219869,36.000560728157765],[139.04369721510216,36.000544773391326],[139.04372317457546,36.00056433118072],[139.04370493439635,36.00058043445698]]]},"properties":{"layer":"building","height_m":3.1}},{"type":"Feature","id":"bldg_50c8dc09-24a7-47cd-b8a9-d470e9ed14b3","geometry":{"type":"Polygon","coordinates":[[[139.04552899542284,36.00391530301736],[139.0455587671021,36.003871812698236],[139.04562839079483,36.00390328356798],[139.04559863023286,36.003946773977354],[139.04552899542284,36.00391530301736]]]},"properties":{"layer":"building","height_m":6.2}},{"type":"Feature","id":"bldg_57b66640-8839-4ede-83f5-1238bb90881c","geometry":{"type":"Polygon","coordinates":[[[139.0437303531601,36.001032503139044],[139.0436604473939,36.00103076310531],[139.0436634321208,36.00095167591067],[139.04373333781734,36.00095341594179],[139.0437303531601,36.001032503139044]]]},"properties":{"layer":"building","height_m":3.6}},{"type":"Feature","id":"bldg_0028152d-2003-4f1b-8b2f-769100c6a090","geometry":{"type":"Polygon","coordinates":[[[139.04569623937172,36.00034684145896],[139.0455675244186,36.00041882103019],[139.04552367206358,36.00036706895215],[139.04556360301248,36.00034470863946],[139.04554869399084,36.00032703542767],[139.04562007911824,36.000287035981195],[139.04563235767006,36.000301537369886],[139.04564763843885,36.000292985260906],[139.0456549833909,36.000301685946965],[139.04572313322237,36.000263557917826],[139.04575240484124,36.00029808954153],[139.04568626303288,36.00033505908595],[139.04569623937172,36.00034684145896]]]},"properties":{"layer":"building","height_m":4.2}},{"type":"Feature","id":"bldg_92b74c12-b718-4503-98d2-856a50dd120f","geometry":{"type":"Polygon","coordinates":[[[139.04547623887004,36.000311796305134],[139.04550197704455,36.0002967694816],[139.04552333239585,36.000320929312835],[139.045497583216,36.0003359470556],[139.04547623887004,36.000311796305134]]]},"properties":{"layer":"building","height_m":null}},{"type":"Feature","id":"bldg_204cf5eb-2ed2-4396-b86f-44bffb938ce5","geometry":{"type":"Polygon","coordinates":[[[139.04542748038912,36.00397090418455],[139.04548049627226,36.00389338038381],[139.04552899542284,36.00391530301736],[139.04559863023286,36.003946773977354],[139.0456508839939,36.003970388618704],[139.04559786911963,36.00404782237143],[139.04542748038912,36.00397090418455]]]},"properties":{"layer":"building","height_m":7.9}},{"type":"Feature","id":"bldg_e3c31587-1dce-4102-948d-65b0b533e113","geometry":{"type":"Polygon","coordinates":[[[139.0454584325667,36.00026871450751],[139.04548119211066,36.000259869049245],[139.04549437902466,36.00028228980845],[139.04547161956532,36.00029112625674],[139.0454584325667,36.00026871450751]]]},"properties":{"layer":"building","height_m":null}},{"type":"Feature","id":"bldg_79b5e276-b617-4276-b54f-06e96cb59336","geometry":{"type":"Polygon","coordinates":[[[139.0454696713552,36.00388657659454],[139.04541781556065,36.00396233245644],[139.0453298169956,36.00392255697594],[139.04533507360085,36.003914867396524],[139.04528333903332,36.00389148135341],[139.0453299272177,36.00382341505654],[139.0454696713552,36.00388657659454]]]},"properties":{"layer":"building","height_m":6.0}},{"type":"Feature","id":"bldg_a25cf80b-6a82-4673-adbb-c3051a52849c","geometry":{"type":"Polygon","coordinates":[[[139.04531806189507,36.00130036358622],[139.04529590488036,36.00125308018273],[139.04531782263868,36.0012463743156],[139.0453041374033,36.00121717251152],[139.04541595509656,36.00118257621183],[139.0454490820378,36.00125327524598],[139.04538221338427,36.0012740164885],[139.04538493058712,36.00127962238004],[139.04531806189507,36.00130036358622]]]},"properties":{"layer":"building","height_m":8.2}},{"type":"Feature","id":"bldg_8e733d5f-ff1c-462b-b176-deb384f0be92","geometry":{"type":"Polygon","coordinates":[[[139.04529926594896,36.001015610461785],[139.04527432547806,36.00096939032287],[139.0453759542372,36.00093319491155],[139.0454008947568,36.000979415030194],[139.04529926594896,36.001015610461785]]]},"properties":{"layer":"building","height_m":8.0}},{"type":"Feature","id":"bldg_f2e72b6e-6d6d-4dff-8e27-2f18e82065e1","geometry":{"type":"Polygon","coordinates":[[[139.0452330185586,36.00378173331077],[139.04524329534772,36.00376670411222],[139.0453144759099,36.00379887037814],[139.04530418803833,36.00381389950996],[139.0452330185586,36.00378173331077]]]},"properties":{"layer":"building","height_m":3.2}},{"type":"Feature","id":"bldg_219ddb00-56d8-4540-82f9-a789c3a91cc5","geometry":{"type":"Polygon","coordinates":[[[139.04527551166217,36.00141200712126],[139.04524514107385,36.00133741452164],[139.0453682356159,36.00130431640761],[139.04539860621898,36.00137891799015],[139.04527551166217,36.00141200712126]]]},"properties":{"layer":"building","height_m":9.1}},{"type":"Feature","id":"bldg_933ccdcc-250d-48a1-8eef-a6bb23941142","geometry":{"type":"Polygon","coordinates":[[[139.04517799081333,36.00382065025584],[139.04521133086067,36.00377193792329],[139.0452330185586,36.00378173331077],[139.04530418803833,36.00381389950996],[139.04526049269512,36.00387773068273],[139.0452303795244,36.00386412153396],[139.04524072377112,36.00384900264944],[139.04517799081333,36.00382065025584]]]},"properties":{"layer":"building","height_m":3.9}},{"type":"Feature","id":"bldg_ba6c9054-952c-4f20-bb93-99e5c583a4b1","geometry":{"type":"Polygon","coordinates":[[[139.04520249122285,36.00143676368228],[139.0451701311505,36.00140270734969],[139.04522446565954,36.001368634806596],[139.04525681474038,36.00140268203958],[139.04520249122285,36.00143676368228]]]},"properties":{"layer":"building","height_m":4.4}},{"type":"Feature","id":"bldg_a1d20698-1fed-4fea-90a9-99c12d41b33a","geometry":{"type":"Polygon","coordinates":[[[139.043753151622,36.000828428306185],[139.04374891852416,36.00094151322687],[139.04367617422875,36.000939682414135],[139.04368054170376,36.00082425500875],[139.04365215385997,36.00082352734597],[139.0436545817058,36.00075801903011],[139.04373974516878,36.00076020199571],[139.04373718312146,36.00082805280277],[139.043753151622,36.000828428306185]]]},"properties":{"layer":"building","height_m":6.8}},{"type":"Feature","id":"bldg_e489b7ae-b350-49fb-bebc-50b528c37445","geometry":{"type":"Polygon","coordinates":[[[139.04519601204018,36.00137449555786],[139.04516334467118,36.001340112737175],[139.04519070171688,36.001322951535464],[139.04522336909093,36.001357334348846],[139.04519601204018,36.00137449555786]]]},"properties":{"layer":"building","height_m":null}},{"type":"Feature","id":"bldg_eaf2cc64-4db8-4858-863f-2f9b830ff7e7","geometry":{"type":"Polygon","coordinates":[[[139.04971064562363,36.00669555299398],[139.04984638437753,36.00678882264371],[139.04978154123646,36.00685112930487],[139.04964580156295,36.00675794970616],[139.04971064562363,36.00669555299398]]]},"properties":{"layer":"building","height_m":5.4}},{"type":"Feature","id":"bldg_bc4e0298-4bc8-4d71-802b-20f974dd32ac","geometry":{"type":"Polygon","coordinates":[[[139.04622046616407,36.003692021774185],[139.04626012096676,36.0036306332846],[139.04634980874908,36.00366898610633],[139.04631004308035,36.003730373898044],[139.04622046616407,36.003692021774185]]]},"properties":{"layer":"building","height_m":5.6}},{"type":"Feature","id":"bldg_9a9fb917-bd35-4364-8d05-27a486b3fb1c","geometry":{"type":"Polygon","coordinates":[[[139.04741796809478,36.001391111371305],[139.0474713436282,36.00141110935745],[139.04745091173794,36.00144693725542],[139.04739753708017,36.0014268491362],[139.04741796809478,36.001391111371305]]]},"properties":{"layer":"building","height_m":3.6}},{"type":"Feature","id":"bldg_8e71ed1a-b1a0-4a47-94ab-bdec92505060","geometry":{"type":"Polygon","coordinates":[[[139.05000900730556,36.004085904156355],[139.04989761251474,36.00404389722391],[139.04994005591934,36.0039694569118],[139.05005145062947,36.00401146380432],[139.05000900730556,36.004085904156355]]]},"properties":{"layer":"building","height_m":9.8}},{"type":"Feature","id":"bldg_14098148-165a-462d-8c08-425578bf509f","geometry":{"type":"Polygon","coordinates":[[[139.04984700683605,36.003833384207404],[139.0498663992136,36.00377925279194],[139.04995470909736,36.00380010876457],[139.04993542769,36.00385424091922],[139.04984700683605,36.003833384207404]]]},"properties":{"layer":"building","height_m":7.0}},{"type":"Feature","id":"bldg_7b0076da-bc85-4647-874a-ec74d9179a57","geometry":{"type":"Polygon","coordinates":[[[139.04991361195033,36.005193858355845],[139.04983348403857,36.00514861262368],[139.04989493698548,36.00507677508296],[139.0499750648612,36.00512202077417],[139.04991361195033,36.005193858355845]]]},"properties":{"layer":"building","height_m":4.2}}]}