{"type":"FeatureCollection","properties":{"mesh_code":"54390035","source":"PLATEAU秩父市2025","layer":"building"},"features":[{"type":"Feature","id":"bldg_afeeda62-b3cd-45f0-8af6-4c417f9f2d48","geometry":{"type":"Polygon","coordinates":[[[139.0687618,36.0253824],[139.0687992,36.0253527],[139.0688721,36.0254132],[139.0688347,36.0254429],[139.0687618,36.0253824]]]},"properties":{"layer":"building","height_m":null}},{"type":"Feature","id":"bldg_04a7004f-23a8-480c-8e73-cb52fb0c6518","geometry":{"type":"Polygon","coordinates":[[[139.0688816,36.0255963],[139.0688939,36.0255723],[139.068954,36.0255926],[139.0689416,36.0256167],[139.0688816,36.0255963]]]},"properties":{"layer":"building","height_m":null}},{"type":"Feature","id":"bldg_38330033-d504-45af-8b33-e034a8f9b5c3","geometry":{"type":"Polygon","coordinates":[[[139.0690098,36.0256997],[139.0689645,36.0257329],[139.0688893,36.0256652],[139.0689345,36.0256321],[139.0690098,36.0256997]]]},"properties":{"layer":"building","height_m":4.8}},{"type":"Feature","id":"bldg_16a0bcff-0601-481c-a56d-9019f91df964","geometry":{"type":"Polygon","coordinates":[[[139.0692054,36.0256272],[139.0690988,36.0257004],[139.0689486,36.0255561],[139.0690554,36.0254829],[139.0692054,36.0256272]]]},"properties":{"layer":"building","height_m":8.6}},{"type":"Feature","id":"bldg_f37a7561-591b-4eb5-95d6-d61fd02cd3aa","geometry":{"type":"Polygon","coordinates":[[[139.0690243,36.0254232],[139.0689852,36.0253886],[139.0690679,36.025327],[139.0691015,36.0253567],[139.0690843,36.0253695],[139.0690898,36.0253744],[139.0690243,36.0254232]]]},"properties":{"layer":"building","height_m":3.1}},{"type":"Feature","id":"bldg_3e3362ea-b31e-4ed2-a322-6198a4056a09","geometry":{"type":"Polygon","coordinates":[[[139.0690833,36.0257507],[139.0690435,36.0257799],[139.0689887,36.0257308],[139.0690285,36.0257015],[139.0690833,36.0257507]]]},"properties":{"layer":"building","height_m":5.6}},{"type":"Feature","id":"bldg_de0b9171-6dba-4410-8f2d-9d480126a0ae","geometry":{"type":"Polygon","coordinates":[[[139.0691062,36.0254619],[139.069083,36.0254802],[139.0690272,36.0254333],[139.0690808,36.0253913],[139.0691256,36.0254289],[139.0691366,36.0254381],[139.0691062,36.0254619]]]},"properties":{"layer":"building","height_m":3.4}},{"type":"Feature","id":"bldg_f1dfc6f1-2b16-4f6b-82eb-03ab583a2670","geometry":{"type":"Polygon","coordinates":[[[139.0690765,36.0308108],[139.0690713,36.0308441],[139.0690129,36.0308382],[139.069018,36.0308049],[139.0690765,36.0308108]]]},"properties":{"layer":"building","height_m":3.0}},{"type":"Feature","id":"bldg_66d8df30-cc60-423d-811f-419e7a49fcf0","geometry":{"type":"Polygon","coordinates":[[[139.0691583,36.0258096],[139.0690938,36.0257489],[139.0692039,36.0256716],[139.0692518,36.0257166],[139.0692228,36.025737],[139.0692395,36.0257527],[139.0691583,36.0258096]]]},"properties":{"layer":"building","height_m":4.7}},{"type":"Feature","id":"bldg_1a3a3260-27ba-410a-9789-c00448b38b6d","geometry":{"type":"Polygon","coordinates":[[[139.0691366,36.0254381],[139.0691256,36.0254289],[139.0691627,36.0253984],[139.0692106,36.0254368],[139.0691435,36.0254919],[139.0691062,36.0254619],[139.0691366,36.0254381]]]},"properties":{"layer":"building","height_m":3.0}},{"type":"Feature","id":"bldg_2b0a00c6-ecf5-4972-a750-a1dfdb0136d5","geometry":{"type":"Polygon","coordinates":[[[139.0694337,36.025873],[139.0694705,36.0258462],[139.069499,36.0258721],[139.0693814,36.0259574],[139.0693619,36.0259397],[139.0693382,36.0259569],[139.0692889,36.0259121],[139.0692806,36.025918],[139.0691949,36.0258401],[139.0693076,36.0257583],[139.0694337,36.025873]]]},"properties":{"layer":"building","height_m":8.4}},{"type":"Feature","id":"bldg_6e017f61-ab6c-4ce0-82d1-17b60697595b","geometry":{"type":"Polygon","coordinates":[[[139.0692687,36.025705],[139.0692219,36.0256617],[139.0692813,36.0256194],[139.0693175,36.0256529],[139.069308,36.0256597],[139.0693185,36.0256695],[139.0692687,36.025705]]]},"properties":{"layer":"building","height_m":4.5}},{"type":"Feature","id":"bldg_51b29245-66ad-4e3a-9306-d38533c23ebb","geometry":{"type":"Polygon","coordinates":[[[139.0693124,36.0261183],[139.0693315,36.0261034],[139.0693582,36.026126],[139.069339,36.0261409],[139.0693124,36.0261183]]]},"properties":{"layer":"building","height_m":null}},{"type":"Feature","id":"bldg_fff34d57-9575-4903-ae33-babced0b7463","geometry":{"type":"Polygon","coordinates":[[[139.0697946,36.0256612],[139.0697004,36.025715],[139.069627,36.0256304],[139.0696567,36.0256134],[139.069651,36.0256068],[139.0697154,36.0255699],[139.0697946,36.0256612]]]},"properties":{"layer":"building","height_m":7.4}},{"type":"Feature","id":"bldg_0768980b-aa84-4f6a-906a-6c564e044d61","geometry":{"type":"Polygon","coordinates":[[[139.0697187,36.0281372],[139.0696692,36.0280985],[139.0697344,36.0280434],[139.0697839,36.028082],[139.0697187,36.0281372]]]},"properties":{"layer":"building","height_m":7.1}},{"type":"Feature","id":"bldg_b97e7824-8343-4976-9f0c-b538d9493ec5","geometry":{"type":"Polygon","coordinates":[[[139.0699197,36.0256608],[139.0699504,36.0257053],[139.0698783,36.0257522],[139.0697894,36.02581],[139.0697507,36.0257708],[139.0699197,36.0256608]]]},"properties":{"layer":"building","height_m":4.3}},{"type":"Feature","id":"bldg_e153b853-5529-4da3-af0c-8a64c7908e5f","geometry":{"type":"Polygon","coordinates":[[[139.0697877,36.0281722],[139.0697409,36.0281436],[139.06981,36.0280689],[139.0698386,36.0280864],[139.0698187,36.0281079],[139.0698369,36.028119],[139.0697877,36.0281722]]]},"properties":{"layer":"building","height_m":4.1}},{"type":"Feature","id":"bldg_d63ed70a-f3d7-48d6-9c94-99d3098c9e67","geometry":{"type":"Polygon","coordinates":[[[139.0697905,36.0258128],[139.069852,36.0257729],[139.0699074,36.025829],[139.0699594,36.0257952],[139.0700128,36.0258493],[139.0699973,36.0258594],[139.0700236,36.0258861],[139.0699257,36.0259499],[139.0697905,36.0258128]]]},"properties":{"layer":"building","height_m":4.5}},{"type":"Feature","id":"bldg_acb8fae7-ad2a-433b-87e2-804c3506a2d8","geometry":{"type":"Polygon","coordinates":[[[139.0698956,36.0259278],[139.0698528,36.0259556],[139.0698184,36.0259208],[139.0698612,36.025893],[139.0698956,36.0259278]]]},"properties":{"layer":"building","height_m":3.7}},{"type":"Feature","id":"bldg_d8b8c36d-2336-4d9b-9266-8ad0670cca15","geometry":{"type":"Polygon","coordinates":[[[139.0698337,36.0250557],[139.069874,36.0250248],[139.0699343,36.0250766],[139.0698941,36.0251075],[139.0698337,36.0250557]]]},"properties":{"layer":"building","height_m":3.3}},{"type":"Feature","id":"bldg_cec5373d-853f-42f3-baf9-05ac7fe14193","geometry":{"type":"Polygon","coordinates":[[[139.0700009,36.0282658],[139.0698061,36.0281926],[139.069856,36.0281052],[139.0700507,36.0281783],[139.0700009,36.0282658]]]},"properties":{"layer":"building","height_m":8.2}},{"type":"Feature","id":"bldg_58cf3283-5287-403a-8972-c3e4422c8151","geometry":{"type":"Polygon","coordinates":[[[139.0698129,36.0280406],[139.0698295,36.0280273],[139.0698599,36.0280523],[139.0698433,36.0280656],[139.0698129,36.0280406]]]},"properties":{"layer":"building","height_m":null}},{"type":"Feature","id":"bldg_2c2c5646-7f88-4e14-beca-ec4d8472b35f","geometry":{"type":"Polygon","coordinates":[[[139.0699504,36.0257053],[139.0699832,36.0257733],[139.069932,36.0258066],[139.0698783,36.0257522],[139.0699504,36.0257053]]]},"properties":{"layer":"building","height_m":3.2}},{"type":"Feature","id":"bldg_7913fe0c-b6da-4454-9aac-370cf7c0d652","geometry":{"type":"Polygon","coordinates":[[[139.0699029,36.0259737],[139.0698766,36.0259494],[139.0699036,36.0259301],[139.0699299,36.0259545],[139.0699029,36.0259737]]]},"properties":{"layer":"building","height_m":3.0}},{"type":"Feature","id":"bldg_9d3a1ea6-c7fe-44fc-aaa1-1a931dbb4b0f","geometry":{"type":"Polygon","coordinates":[[[139.0701437,36.0273592],[139.0698876,36.0271513],[139.0699343,36.0271133],[139.0700063,36.0271718],[139.070039,36.0271453],[139.0700534,36.0271571],[139.0700671,36.027146],[139.070253,36.0272971],[139.0701958,36.0273436],[139.0702945,36.0274238],[139.0702381,36.0274697],[139.0701229,36.0273761],[139.0701437,36.0273592]]]},"properties":{"layer":"building","height_m":9.1}},{"type":"Feature","id":"bldg_65b45d41-5302-4c91-adb4-98e4e95c58e6","geometry":{"type":"Polygon","coordinates":[[[139.0701374,36.0282],[139.0700859,36.0282648],[139.0700324,36.0282368],[139.0700838,36.0281719],[139.0701374,36.0282]]]},"properties":{"layer":"building","height_m":7.8}},{"type":"Feature","id":"bldg_6bf94af1-4428-45bc-be41-b0deaff4fbb9","geometry":{"type":"Polygon","coordinates":[[[139.0701918,36.0281483],[139.0702204,36.0281001],[139.0702893,36.028127],[139.0702608,36.0281753],[139.0701918,36.0281483]]]},"properties":{"layer":"building","height_m":6.5}},{"type":"Feature","id":"bldg_1ccfbc0b-9872-4304-ad4a-67422039743a","geometry":{"type":"Polygon","coordinates":[[[139.070415,36.0273328],[139.0703382,36.0273981],[139.0702603,36.0273377],[139.0703255,36.0272824],[139.0703417,36.0272949],[139.0703535,36.0272849],[139.070415,36.0273328]]]},"properties":{"layer":"building","height_m":6.8}},{"type":"Feature","id":"bldg_16b13f49-3012-4a46-a451-42c55e2328a5","geometry":{"type":"Polygon","coordinates":[[[139.0704235,36.0317354],[139.0703715,36.0317038],[139.0703824,36.0316921],[139.0704343,36.0317237],[139.0704235,36.0317354]]]},"properties":{"layer":"building","height_m":3.1}},{"type":"Feature","id":"bldg_c8905e32-1fcb-4c5a-8f1b-3c9d8ff74dfa","geometry":{"type":"Polygon","coordinates":[[[139.07067,36.0317009],[139.0707389,36.0316885],[139.070755,36.0317477],[139.0706862,36.0317601],[139.07067,36.0317009]]]},"properties":{"layer":"building","height_m":5.3}},{"type":"Feature","id":"bldg_592f863a-7726-4013-bc43-b759222e842f","geometry":{"type":"Polygon","coordinates":[[[139.0710248,36.0276967],[139.0710451,36.0276848],[139.0710622,36.0277038],[139.0710418,36.0277158],[139.0710248,36.0276967]]]},"properties":{"layer":"building","height_m":null}},{"type":"Feature","id":"bldg_9309bdac-31e2-49ed-beca-cffa04c6237c","geometry":{"type":"Polygon","coordinates":[[[139.0710266,36.0277966],[139.0711519,36.0277318],[139.0711998,36.0277929],[139.0710745,36.0278577],[139.0710266,36.0277966]]]},"properties":{"layer":"building","height_m":8.9}},{"type":"Feature","id":"bldg_f285e6bf-53cc-4709-a616-b69ee35d7ea2","geometry":{"type":"Polygon","coordinates":[[[139.0713726,36.0275587],[139.0712153,36.027648],[139.0711581,36.0275816],[139.0713154,36.0274923],[139.0713726,36.0275587]]]},"properties":{"layer":"building","height_m":6.7}},{"type":"Feature","id":"bldg_e165c775-533f-4851-8f2a-feeb1825ed9c","geometry":{"type":"Polygon","coordinates":[[[139.0712106,36.0283107],[139.0711859,36.0283203],[139.0711714,36.0282955],[139.0711962,36.028286],[139.0712106,36.0283107]]]},"properties":{"layer":"building","height_m":null}},{"type":"Feature","id":"bldg_5b315ee4-14fc-498f-92ee-0d24a548edf2","geometry":{"type":"Polygon","coordinates":[[[139.0712773,36.0281947],[139.07127,36.0281775],[139.0713322,36.0281601],[139.0713363,36.0281697],[139.0714163,36.0281473],[139.071461,36.0282528],[139.071372,36.0282777],[139.0713578,36.0282442],[139.0712647,36.0282702],[139.0712747,36.0282938],[139.0712191,36.0283094],[139.0711818,36.0282214],[139.0712773,36.0281947]]]},"properties":{"layer":"building","height_m":6.8}},{"type":"Feature","id":"bldg_9eac3579-e266-4870-ad89-a745d87e1cb7","geometry":{"type":"Polygon","coordinates":[[[139.0713897,36.0260506],[139.0713009,36.0259792],[139.071404,36.0258945],[139.0714359,36.0259201],[139.0714511,36.0259075],[139.0715081,36.0259534],[139.0713897,36.0260506]]]},"properties":{"layer":"building","height_m":5.2}},{"type":"Feature","id":"bldg_8b9733cc-b47f-45e1-98e2-7e43f72f9ec2","geometry":{"type":"Polygon","coordinates":[[[139.0713598,36.0274733],[139.0713228,36.0274259],[139.071375,36.0273991],[139.071412,36.0274465],[139.0713598,36.0274733]]]},"properties":{"layer":"building","height_m":6.1}},{"type":"Feature","id":"bldg_df514146-7152-4e49-a54d-b9660415cc72","geometry":{"type":"Polygon","coordinates":[[[139.0714605,36.0261372],[139.0713816,36.0260728],[139.0714435,36.0260227],[139.0714527,36.0260303],[139.0714981,36.0259935],[139.0715678,36.0260504],[139.0714605,36.0261372]]]},"properties":{"layer":"building","height_m":11.2}},{"type":"Feature","id":"bldg_5127926c-ba4b-43b4-945a-9acd5764616b","geometry":{"type":"Polygon","coordinates":[[[139.0714253,36.0283303],[139.0714862,36.0282992],[139.0715406,36.0283695],[139.0714797,36.0284006],[139.0714253,36.0283303]]]},"properties":{"layer":"building","height_m":6.5}},{"type":"Feature","id":"bldg_875e0512-7640-47bd-9def-f15a9b0d3069","geometry":{"type":"Polygon","coordinates":[[[139.0714925,36.0281123],[139.0714536,36.0280788],[139.0714967,36.0280457],[139.0715357,36.0280792],[139.0714925,36.0281123]]]},"properties":{"layer":"building","height_m":null}},{"type":"Feature","id":"bldg_65869b2e-9e3b-4567-b63c-6b0eda332224","geometry":{"type":"Polygon","coordinates":[[[139.0716069,36.026185],[139.0715511,36.0262387],[139.0714798,36.02619],[139.0715355,36.0261362],[139.0716069,36.026185]]]},"properties":{"layer":"building","height_m":4.4}},{"type":"Feature","id":"bldg_ee50417b-f177-4ec1-9998-e279b7c8e2f2","geometry":{"type":"Polygon","coordinates":[[[139.0716811,36.0266107],[139.071676,36.0266225],[139.0717079,36.0266314],[139.0716948,36.0266623],[139.0717041,36.0266649],[139.0716824,36.0267158],[139.0716778,36.0267145],[139.0716635,36.026748],[139.0714987,36.0267017],[139.0715038,36.0266896],[139.0714901,36.0266857],[139.0714964,36.0266708],[139.071477,36.0266653],[139.0714934,36.026627],[139.0715076,36.0266309],[139.0715339,36.0265693],[139.0716811,36.0266107]]]},"properties":{"layer":"building","height_m":8.6}},{"type":"Feature","id":"bldg_ac9356b4-32d7-444a-8c00-6e54a47cd398","geometry":{"type":"Polygon","coordinates":[[[139.0715241,36.0275529],[139.0714921,36.0274809],[139.0715459,36.0274651],[139.0715416,36.0274553],[139.071607,36.0274361],[139.0716408,36.027512],[139.0715823,36.0275291],[139.0715849,36.0275351],[139.0715241,36.0275529]]]},"properties":{"layer":"building","height_m":8.3}},{"type":"Feature","id":"bldg_733c5e62-5826-40c1-b600-2647b2fffff9","geometry":{"type":"Polygon","coordinates":[[[139.0716752,36.0260008],[139.0716117,36.0260552],[139.0715072,36.0259746],[139.0715708,36.0259203],[139.0716752,36.0260008]]]},"properties":{"layer":"building","height_m":8.0}},{"type":"Feature","id":"bldg_49b8cdc6-dc07-4237-abf0-c45d58d3b108","geometry":{"type":"Polygon","coordinates":[[[139.0715434,36.0284385],[139.071786,36.0283445],[139.0718159,36.0283956],[139.0717836,36.028408],[139.0718156,36.0284628],[139.071605,36.028544],[139.0715434,36.0284385]]]},"properties":{"layer":"building","height_m":8.5}},{"type":"Feature","id":"bldg_b8e5adb3-4743-488a-b513-5c47a1419b14","geometry":{"type":"Polygon","coordinates":[[[139.071654,36.0260356],[139.0716791,36.0260549],[139.0716504,36.0260999],[139.0716128,36.0260708],[139.071654,36.0260356]]]},"properties":{"layer":"building","height_m":4.1}},{"type":"Feature","id":"bldg_90bdf090-6655-4e86-8a32-dcd1c934d52a","geometry":{"type":"Polygon","coordinates":[[[139.0717276,36.0255211],[139.0718531,36.0256055],[139.0717907,36.0256668],[139.0717633,36.0256483],[139.0717517,36.0256597],[139.0717117,36.0256327],[139.0717217,36.025623],[139.0716636,36.0255839],[139.0717276,36.0255211]]]},"properties":{"layer":"building","height_m":4.9}},{"type":"Feature","id":"bldg_e8be5d05-4bc7-4b71-841f-88d91cfe688d","geometry":{"type":"Polygon","coordinates":[[[139.0717267,36.026197],[139.0716818,36.0261764],[139.0717117,36.0261334],[139.0717566,36.026154],[139.0717267,36.026197]]]},"properties":{"layer":"building","height_m":null}},{"type":"Feature","id":"bldg_c580fe79-b12e-4b26-bd61-d7e0134b7200","geometry":{"type":"Polygon","coordinates":[[[139.0717531,36.0263782],[139.0718175,36.0263142],[139.0719112,36.0263763],[139.0718795,36.0264079],[139.07189,36.0264149],[139.0718575,36.0264474],[139.0717531,36.0263782]]]},"properties":{"layer":"building","height_m":5.4}},{"type":"Feature","id":"bldg_a96f2ef3-226f-4cee-b163-f39ebe107b54","geometry":{"type":"Polygon","coordinates":[[[139.0717345,36.0288871],[139.0717736,36.0288688],[139.0718053,36.0289136],[139.0717661,36.0289319],[139.0717345,36.0288871]]]},"properties":{"layer":"building","height_m":null}},{"type":"Feature","id":"bldg_e03b6872-1df9-4353-a5f1-701694854ff2","geometry":{"type":"Polygon","coordinates":[[[139.0717275,36.0296863],[139.0719912,36.029525],[139.0720574,36.0295962],[139.0717951,36.0297566],[139.0717935,36.0297576],[139.0717275,36.0296863]]]},"properties":{"layer":"building","height_m":5.5}},{"type":"Feature","id":"bldg_01a5c779-33c3-46c9-80bf-d3ab0fbaf0f5","geometry":{"type":"Polygon","coordinates":[[[139.0718898,36.0272859],[139.0718045,36.0273412],[139.0717543,36.0272899],[139.0718396,36.0272347],[139.0718898,36.0272859]]]},"properties":{"layer":"building","height_m":7.8}},{"type":"Feature","id":"bldg_45889a28-d558-488b-a332-c9b03cdca223","geometry":{"type":"Polygon","coordinates":[[[139.0717486,36.0288116],[139.0717801,36.0288004],[139.0717971,36.0288319],[139.0717656,36.0288432],[139.0717486,36.0288116]]]},"properties":{"layer":"building","height_m":null}},{"type":"Feature","id":"bldg_5e2674c5-67e0-438a-9948-30016a9fd489","geometry":{"type":"Polygon","coordinates":[[[139.0717649,36.0286729],[139.0718497,36.0286376],[139.0719117,36.0287358],[139.071827,36.0287711],[139.0717649,36.0286729]]]},"properties":{"layer":"building","height_m":4.5}},{"type":"Feature","id":"bldg_9853da70-6b60-4c58-8b49-ef1212f11704","geometry":{"type":"Polygon","coordinates":[[[139.0719901,36.0272183],[139.0719041,36.0272816],[139.0717973,36.0271858],[139.0718834,36.0271225],[139.0719901,36.0272183]]]},"properties":{"layer":"building","height_m":8.8}},{"type":"Feature","id":"bldg_5a1eb1f6-b287-462f-8c7d-191b49333d3c","geometry":{"type":"Polygon","coordinates":[[[139.0718121,36.026072],[139.0718297,36.025999],[139.0718811,36.0260072],[139.0718881,36.0259782],[139.0719825,36.0259933],[139.0719576,36.0260962],[139.0719394,36.0260933],[139.0719336,36.0261174],[139.0718669,36.0261068],[139.071873,36.0260816],[139.0718121,36.026072]]]},"properties":{"layer":"building","height_m":8.7}},{"type":"Feature","id":"bldg_baba307e-5236-4c6a-a65a-754cd4323006","geometry":{"type":"Polygon","coordinates":[[[139.0718018,36.028994],[139.0718415,36.0289757],[139.071891,36.0290473],[139.0718513,36.0290654],[139.0718018,36.028994]]]},"properties":{"layer":"building","height_m":3.2}},{"type":"Feature","id":"bldg_ee109f0a-3de1-4da5-9408-02c84c52c642","geometry":{"type":"Polygon","coordinates":[[[139.0719029,36.0297379],[139.0718228,36.0297867],[139.0717951,36.0297566],[139.0720574,36.0295962],[139.0720888,36.0296287],[139.071901,36.0297361],[139.0719029,36.0297379]]]},"properties":{"layer":"building","height_m":5.9}},{"type":"Feature","id":"bldg_12ff0cac-eddc-4b0b-b3e0-869f61f606da","geometry":{"type":"Polygon","coordinates":[[[139.0718709,36.0262349],[139.0718338,36.0262128],[139.0718573,36.0261869],[139.0718943,36.026209],[139.0718709,36.0262349]]]},"properties":{"layer":"building","height_m":null}},{"type":"Feature","id":"bldg_b5764cd8-29c8-4c48-96ba-ee95795ed269","geometry":{"type":"Polygon","coordinates":[[[139.0719173,36.0287625],[139.0719391,36.028753],[139.0718939,36.0286965],[139.0719181,36.0286837],[139.0719107,36.0286744],[139.0719649,36.0286458],[139.0719724,36.0286553],[139.0719916,36.0286452],[139.0720141,36.0286734],[139.0720071,36.0286771],[139.0720675,36.0287525],[139.0719498,36.028814],[139.071877,36.0288443],[139.0718335,36.0287754],[139.0719063,36.0287451],[139.0719173,36.0287625]]]},"properties":{"layer":"building","height_m":7.1}},{"type":"Feature","id":"bldg_ab4a4a69-6bad-469c-8750-fee5bc00257c","geometry":{"type":"Polygon","coordinates":[[[139.0719141,36.0257599],[139.0719221,36.0257378],[139.0719462,36.0257436],[139.0719382,36.0257658],[139.0719141,36.0257599]]]},"properties":{"layer":"building","height_m":null}},{"type":"Feature","id":"bldg_a40bf2f9-cace-4730-a3ca-1d5ab3dbec93","geometry":{"type":"Polygon","coordinates":[[[139.0719284,36.0289634],[139.071906,36.0289739],[139.0718847,36.0289437],[139.0719071,36.0289333],[139.0719284,36.0289634]]]},"properties":{"layer":"building","height_m":3.2}},{"type":"Feature","id":"bldg_55434623-eee1-4042-86fc-3db477281a0c","geometry":{"type":"Polygon","coordinates":[[[139.0718989,36.0275961],[139.0719385,36.0275748],[139.0719777,36.0276226],[139.0719381,36.027644],[139.0718989,36.0275961]]]},"properties":{"layer":"building","height_m":null}},{"type":"Feature","id":"bldg_59381ae7-07cf-4bd5-82de-fe6966a33e71","geometry":{"type":"Polygon","coordinates":[[[139.0719581,36.0264837],[139.0719111,36.0264552],[139.0719539,36.0264086],[139.0720009,36.0264371],[139.0719581,36.0264837]]]},"properties":{"layer":"building","height_m":null}},{"type":"Feature","id":"bldg_b709b812-e7cf-46b8-8885-98ec505c651d","geometry":{"type":"Polygon","coordinates":[[[139.0720459,36.0285165],[139.0719515,36.0285566],[139.0718967,36.0284715],[139.0719912,36.0284315],[139.0720459,36.0285165]]]},"properties":{"layer":"building","height_m":6.0}},{"type":"Feature","id":"bldg_848ac7ab-3bd4-4023-8245-e7586022e4c7","geometry":{"type":"Polygon","coordinates":[[[139.0719304,36.0258916],[139.0719424,36.0258491],[139.0720016,36.0258602],[139.0719896,36.0259026],[139.0719304,36.0258916]]]},"properties":{"layer":"building","height_m":3.4}},{"type":"Feature","id":"bldg_9304edc8-723f-486f-92cb-5a085d540409","geometry":{"type":"Polygon","coordinates":[[[139.0719341,36.0259576],[139.071943,36.0259263],[139.0720013,36.0259372],[139.0719924,36.0259685],[139.0719341,36.0259576]]]},"properties":{"layer":"building","height_m":null}},{"type":"Feature","id":"bldg_db4a318a-c825-4727-9cd5-4dc74c9cd151","geometry":{"type":"Polygon","coordinates":[[[139.0721433,36.0297979],[139.0720276,36.0298636],[139.0719029,36.0297379],[139.071901,36.0297361],[139.0720888,36.0296287],[139.0721041,36.0296199],[139.0721299,36.0296432],[139.0721415,36.0296373],[139.0721448,36.0296401],[139.0721687,36.0296605],[139.0721521,36.0296704],[139.0721653,36.0296802],[139.0722118,36.0296542],[139.0724187,36.0296081],[139.0724163,36.029599],[139.0724534,36.0295894],[139.0724633,36.029622],[139.0724739,36.0296206],[139.0724916,36.0296779],[139.0724665,36.0296825],[139.0724723,36.0297038],[139.0722603,36.0297614],[139.0722565,36.0297527],[139.0721703,36.0298025],[139.0721562,36.0297905],[139.0721433,36.0297979]]]},"properties":{"layer":"building","height_m":9.8}},{"type":"Feature","id":"bldg_aa8f935b-2d58-4504-8d9a-727448dda6e5","geometry":{"type":"Polygon","coordinates":[[[139.071975,36.0289371],[139.0719284,36.0288765],[139.0720223,36.0288289],[139.0720688,36.0288896],[139.071975,36.0289371]]]},"properties":{"layer":"building","height_m":4.2}},{"type":"Feature","id":"bldg_b95d1c34-4eba-4f35-ac0c-41cff200ab25","geometry":{"type":"Polygon","coordinates":[[[139.0719381,36.0282737],[139.0719807,36.0282547],[139.072009,36.0282967],[139.0719664,36.0283157],[139.0719381,36.0282737]]]},"properties":{"layer":"building","height_m":null}},{"type":"Feature","id":"bldg_f5b6cde2-dc9f-41a0-a4c5-7e74db27fd14","geometry":{"type":"Polygon","coordinates":[[[139.0719622,36.029002],[139.0720072,36.0290628],[139.0719776,36.0290774],[139.0719324,36.0290166],[139.0719622,36.029002]]]},"properties":{"layer":"building","height_m":3.6}},{"type":"Feature","id":"bldg_37835fbe-6d14-44c2-b852-3949042e2232","geometry":{"type":"Polygon","coordinates":[[[139.0721152,36.0277228],[139.0720303,36.0277724],[139.0719832,36.0277194],[139.0720005,36.0277093],[139.071949,36.0276512],[139.0720166,36.0276116],[139.0721152,36.0277228]]]},"properties":{"layer":"building","height_m":5.7}},{"type":"Feature","id":"bldg_9685c076-9d55-41a8-9821-8bb9a8d5f668","geometry":{"type":"Polygon","coordinates":[[[139.0720467,36.0275887],[139.0719821,36.0275021],[139.0720479,36.0274698],[139.0721125,36.0275563],[139.0720467,36.0275887]]]},"properties":{"layer":"building","height_m":4.5}},{"type":"Feature","id":"bldg_f7f76947-2e96-4191-96a9-6180243b7cb7","geometry":{"type":"Polygon","coordinates":[[[139.0720999,36.0259362],[139.0720065,36.0259188],[139.0720274,36.0258447],[139.0721209,36.0258622],[139.0720999,36.0259362]]]},"properties":{"layer":"building","height_m":8.2}},{"type":"Feature","id":"bldg_ad44b1f0-485b-4107-a152-0e9277c14d16","geometry":{"type":"Polygon","coordinates":[[[139.0720066,36.0264001],[139.0720564,36.0263442],[139.0721183,36.0263806],[139.0721232,36.026375],[139.0721607,36.0263971],[139.0721058,36.0264586],[139.0720066,36.0264001]]]},"properties":{"layer":"building","height_m":8.1}},{"type":"Feature","id":"bldg_9fa10451-9304-482d-8fe1-d9b132bbc601","geometry":{"type":"Polygon","coordinates":[[[139.0720683,36.0290414],[139.071988,36.0289367],[139.0720754,36.0288925],[139.0721511,36.028991],[139.0721557,36.0289971],[139.072151,36.0289995],[139.0720683,36.0290414]]]},"properties":{"layer":"building","height_m":7.5}},{"type":"Feature","id":"bldg_c2e79b4f-e82c-438d-b96c-18e4b123a74b","geometry":{"type":"Polygon","coordinates":[[[139.0721557,36.0285067],[139.0721579,36.0285105],[139.0721557,36.0285114],[139.0720694,36.0285438],[139.0720034,36.02843],[139.072157,36.0283702],[139.0721832,36.0283601],[139.0722228,36.0284273],[139.0721562,36.0284532],[139.0721307,36.0284631],[139.0721557,36.0285067]]]},"properties":{"layer":"building","height_m":7.7}},{"type":"Feature","id":"bldg_5352bf2c-a212-43f5-bc02-3396fb8c3c4c","geometry":{"type":"Polygon","coordinates":[[[139.0720496,36.0259835],[139.0720719,36.025995],[139.0720498,36.0260232],[139.0720275,36.0260118],[139.0720496,36.0259835]]]},"properties":{"layer":"building","height_m":null}},{"type":"Feature","id":"bldg_2ccc4c48-61e1-45c9-9078-e31e8cc77744","geometry":{"type":"Polygon","coordinates":[[[139.0720094,36.0288122],[139.0720339,36.0287998],[139.0720933,36.0288772],[139.0720688,36.0288896],[139.0720223,36.0288289],[139.0720094,36.0288122]]]},"properties":{"layer":"building","height_m":3.8}},{"type":"Feature","id":"bldg_e28a452b-1c3f-4be5-8791-8dab7f5725c1","geometry":{"type":"Polygon","coordinates":[[[139.0720144,36.0291627],[139.0720852,36.0291196],[139.0721161,36.0291531],[139.0720535,36.029205],[139.0720144,36.0291627]]]},"properties":{"layer":"building","height_m":3.7}},{"type":"Feature","id":"bldg_af603bc3-8b5b-440e-961f-b792f71bcc54","geometry":{"type":"Polygon","coordinates":[[[139.0720644,36.0292056],[139.0721371,36.0291539],[139.0721614,36.0291759],[139.0721709,36.029169],[139.0721951,36.0291909],[139.0721893,36.0291951],[139.072243,36.0292438],[139.0721597,36.0293044],[139.0721194,36.0292678],[139.0721269,36.0292624],[139.0720644,36.0292056]]]},"properties":{"layer":"building","height_m":8.0}},{"type":"Feature","id":"bldg_6bedf483-c2c7-4128-acf6-aa7bdd647b17","geometry":{"type":"Polygon","coordinates":[[[139.072166,36.0274336],[139.0722061,36.0274174],[139.0722706,36.0275227],[139.0721648,36.0275655],[139.0721612,36.0275669],[139.0720968,36.0274616],[139.072166,36.0274336]]]},"properties":{"layer":"building","height_m":8.3}},{"type":"Feature","id":"bldg_e8f48abe-e0b0-40f4-9d47-7f075d65aab5","geometry":{"type":"Polygon","coordinates":[[[139.0721635,36.0276946],[139.0721751,36.0277122],[139.0721633,36.0277173],[139.0721376,36.0277284],[139.0721094,36.0276853],[139.0721468,36.0276692],[139.0721635,36.0276946]]]},"properties":{"layer":"building","height_m":3.6}},{"type":"Feature","id":"bldg_d923418d-46bf-4850-aed9-8e2fa8e332e8","geometry":{"type":"Polygon","coordinates":[[[139.0721576,36.0283118],[139.072204,36.0282937],[139.072222,36.0283241],[139.0721724,36.0283434],[139.0721575,36.0283184],[139.0721544,36.028313],[139.0721576,36.0283118]]]},"properties":{"layer":"building","height_m":3.5}},{"type":"Feature","id":"bldg_460dc704-f504-45c9-b264-370e637feca0","geometry":{"type":"Polygon","coordinates":[[[139.0722241,36.0276996],[139.0721764,36.0277064],[139.0721665,36.0276608],[139.0722141,36.0276539],[139.0722241,36.0276996]]]},"properties":{"layer":"building","height_m":3.9}},{"type":"Feature","id":"bldg_53ad6a08-7ce0-4e0e-923f-7524ffdff3b9","geometry":{"type":"Polygon","coordinates":[[[139.0722249,36.0283259],[139.0722595,36.0283835],[139.0722104,36.028403],[139.0721758,36.0283455],[139.0722249,36.0283259]]]},"properties":{"layer":"building","height_m":4.3}},{"type":"Feature","id":"bldg_2c7c16ee-9d52-4da6-ba23-81a7b5e63cd7","geometry":{"type":"Polygon","coordinates":[[[139.0723845,36.0299542],[139.0723427,36.0300279],[139.0723365,36.030039],[139.0721628,36.0299742],[139.0722108,36.0298893],[139.0723845,36.0299542]]]},"properties":{"layer":"building","height_m":7.1}},{"type":"Feature","id":"bldg_a24bcd2e-5340-49f8-9817-980104fa0757","geometry":{"type":"Polygon","coordinates":[[[139.0722049,36.0289134],[139.0721919,36.028893],[139.0722697,36.0288603],[139.0722827,36.0288807],[139.0722049,36.0289134]]]},"properties":{"layer":"building","height_m":null}},{"type":"Feature","id":"bldg_b44bae72-d6b2-4412-b24a-02055cda4bc9","geometry":{"type":"Polygon","coordinates":[[[139.0722316,36.0289607],[139.0722022,36.0289146],[139.0722049,36.0289134],[139.0722827,36.0288807],[139.0723121,36.0289268],[139.0722316,36.0289607]]]},"properties":{"layer":"building","height_m":3.1}},{"type":"Feature","id":"bldg_63b2d34a-0030-4856-9070-29a2777e72d8","geometry":{"type":"Polygon","coordinates":[[[139.0722737,36.0280726],[139.072328,36.0280504],[139.0723537,36.0280917],[139.0722994,36.028114],[139.0722737,36.0280726]]]},"properties":{"layer":"building","height_m":3.0}},{"type":"Feature","id":"bldg_5b9e4dde-f611-4df5-9edf-e6e6ad78bd5a","geometry":{"type":"Polygon","coordinates":[[[139.0723573,36.0297357],[139.0723663,36.0297575],[139.0722706,36.0297833],[139.0722617,36.0297614],[139.0723573,36.0297357]]]},"properties":{"layer":"building","height_m":4.4}},{"type":"Feature","id":"bldg_b83f0621-b892-4b45-9c84-9f44104a9612","geometry":{"type":"Polygon","coordinates":[[[139.0723744,36.029466],[139.0723459,36.0294397],[139.0723575,36.0294314],[139.0723146,36.0293918],[139.072309,36.0293958],[139.0722698,36.0293595],[139.0723527,36.0293004],[139.0723889,36.0293339],[139.0723831,36.029338],[139.0724164,36.0293688],[139.072411,36.0293727],[139.0724519,36.0294105],[139.0723744,36.029466]]]},"properties":{"layer":"building","height_m":5.5}},{"type":"Feature","id":"bldg_ba121278-27f1-49ce-be23-5b90bf5405d4","geometry":{"type":"Polygon","coordinates":[[[139.072358,36.0275155],[139.0725828,36.0275181],[139.0725757,36.0279313],[139.0723508,36.0279287],[139.072358,36.0275155]]]},"properties":{"layer":"building","height_m":6.0}},{"type":"Feature","id":"bldg_860d7e9d-73b0-4b6c-b4a3-f103acfcec17","geometry":{"type":"Polygon","coordinates":[[[139.0726406,36.0282591],[139.0727029,36.0283469],[139.0725238,36.0284309],[139.0725122,36.0284146],[139.0724509,36.0284433],[139.0723796,36.028343],[139.0723939,36.0283364],[139.072351,36.0282761],[139.0724062,36.0282503],[139.0724031,36.0282459],[139.0724282,36.0282341],[139.0724711,36.0282944],[139.072447,36.0283058],[139.0724707,36.028339],[139.0726406,36.0282591]]]},"properties":{"layer":"building","height_m":7.6}},{"type":"Feature","id":"bldg_66152dde-5f61-4334-91a8-594fad2a17a8","geometry":{"type":"Polygon","coordinates":[[[139.0723639,36.0298528],[139.0724245,36.0298774],[139.0724009,36.0299155],[139.0723405,36.0298909],[139.0723639,36.0298528]]]},"properties":{"layer":"building","height_m":3.0}},{"type":"Feature","id":"bldg_f637b564-b306-447a-bdd7-1c0d469da939","geometry":{"type":"Polygon","coordinates":[[[139.0723784,36.0300412],[139.0723427,36.0300279],[139.0723845,36.0299542],[139.072404,36.0299196],[139.0724233,36.0299269],[139.0724181,36.029936],[139.0724344,36.0299421],[139.0723784,36.0300412]]]},"properties":{"layer":"building","height_m":4.7}},{"type":"Feature","id":"bldg_f7546c94-b13e-4f70-9616-f79ca72603bf","geometry":{"type":"Polygon","coordinates":[[[139.0725781,36.0285147],[139.0725198,36.0285403],[139.0724674,36.0284617],[139.0725257,36.0284361],[139.0725781,36.0285147]]]},"properties":{"layer":"building","height_m":5.3}},{"type":"Feature","id":"bldg_08d8f3ac-af52-4b94-993a-1cac4bac9dc1","geometry":{"type":"Polygon","coordinates":[[[139.0725005,36.0294183],[139.0724701,36.0293831],[139.0725213,36.0293539],[139.0725517,36.0293892],[139.0725005,36.0294183]]]},"properties":{"layer":"building","height_m":3.4}},{"type":"Feature","id":"bldg_ff829fbf-405e-4700-9e60-9256ccdfbb1b","geometry":{"type":"Polygon","coordinates":[[[139.0725161,36.0292206],[139.0724843,36.0291761],[139.0725498,36.029145],[139.0725818,36.0291895],[139.0725161,36.0292206]]]},"properties":{"layer":"building","height_m":6.3}},{"type":"Feature","id":"bldg_15e2b8ca-2e4d-4904-9a83-26fa7b43e43a","geometry":{"type":"Polygon","coordinates":[[[139.0726936,36.0293771],[139.072532,36.0294705],[139.0724989,36.0294326],[139.0726603,36.0293392],[139.0726936,36.0293771]]]},"properties":{"layer":"building","height_m":3.8}},{"type":"Feature","id":"bldg_712180fa-48e8-49da-b63a-0b379316df7f","geometry":{"type":"Polygon","coordinates":[[[139.0725687,36.0291667],[139.0725238,36.0290938],[139.0726425,36.0290455],[139.072673,36.029095],[139.0726869,36.0290894],[139.072713,36.0291317],[139.0726501,36.0291573],[139.0726544,36.0291642],[139.0726085,36.0291829],[139.0725925,36.029157],[139.0725687,36.0291667]]]},"properties":{"layer":"building","height_m":8.1}},{"type":"Feature","id":"bldg_c750901b-a2dd-4b3a-b544-24efd96029b3","geometry":{"type":"Polygon","coordinates":[[[139.072531,36.0295492],[139.0725996,36.0295374],[139.0726201,36.0296155],[139.0725515,36.0296274],[139.072531,36.0295492]]]},"properties":{"layer":"building","height_m":7.9}},{"type":"Feature","id":"bldg_1029c336-079d-4dce-acd5-8d6de7d66620","geometry":{"type":"Polygon","coordinates":[[[139.0725978,36.0293455],[139.0725572,36.029287],[139.0726639,36.0292381],[139.0727045,36.0292967],[139.0725978,36.0293455]]]},"properties":{"layer":"building","height_m":9.6}},{"type":"Feature","id":"bldg_9b3dcc9f-feab-4fe5-a55a-bd9a55b8bb7b","geometry":{"type":"Polygon","coordinates":[[[139.0726132,36.0285396],[139.0725843,36.0284847],[139.072683,36.0284504],[139.0727004,36.0284835],[139.0727068,36.0284813],[139.0727183,36.0285031],[139.0726132,36.0285396]]]},"properties":{"layer":"building","height_m":3.3}},{"type":"Feature","id":"bldg_1088b13d-a3f6-4edd-b29c-de7480b47e03","geometry":{"type":"Polygon","coordinates":[[[139.072611,36.0295257],[139.0727642,36.0294908],[139.0727581,36.0294735],[139.0727682,36.0294712],[139.0727646,36.0294605],[139.0728171,36.0294485],[139.0728214,36.0294612],[139.0728313,36.0294589],[139.0728752,36.029586],[139.0726991,36.0296262],[139.0727043,36.0296409],[139.0726363,36.0296564],[139.0726191,36.0296072],[139.0726377,36.0296029],[139.072611,36.0295257]]]},"properties":{"layer":"building","height_m":10.2}},{"type":"Feature","id":"bldg_bc951b99-5234-46bf-a2ad-5061c1a90603","geometry":{"type":"Polygon","coordinates":[[[139.0728071,36.0298363],[139.0727727,36.0297842],[139.0728852,36.0297351],[139.0729197,36.0297873],[139.0728071,36.0298363]]]},"properties":{"layer":"building","height_m":5.1}},{"type":"Feature","id":"bldg_d406bdb1-cb63-4388-9eb3-6a4f20f0cedb","geometry":{"type":"Polygon","coordinates":[[[139.0728516,36.0279736],[139.0728794,36.027965],[139.0728902,36.0279878],[139.0728624,36.0279965],[139.0728516,36.0279736]]]},"properties":{"layer":"building","height_m":3.7}},{"type":"Feature","id":"bldg_088900e3-8e8c-4a6e-a831-54c718a27c6c","geometry":{"type":"Polygon","coordinates":[[[139.0730019,36.0283592],[139.0729869,36.028305],[139.0729679,36.0283085],[139.0729546,36.0282608],[139.073089,36.0282362],[139.0731026,36.0282855],[139.0730831,36.0282891],[139.0730976,36.0283417],[139.0730019,36.0283592]]]},"properties":{"layer":"building","height_m":4.9}},{"type":"Feature","id":"bldg_4b45b80b-5b13-4f5f-8f38-dffb080fb6e8","geometry":{"type":"Polygon","coordinates":[[[139.073329,36.0283033],[139.0731252,36.0283465],[139.0731045,36.0282816],[139.0731125,36.02828],[139.0731058,36.0282591],[139.0733016,36.0282176],[139.073329,36.0283033]]]},"properties":{"layer":"building","height_m":7.6}},{"type":"Feature","id":"bldg_5a6421d6-4c7c-47ff-b522-78fe79a5e338","geometry":{"type":"Polygon","coordinates":[[[139.0733301,36.0305241],[139.0731461,36.0304],[139.0732435,36.0303049],[139.0734275,36.030429],[139.0733301,36.0305241]]]},"properties":{"layer":"building","height_m":8.5}},{"type":"Feature","id":"bldg_57ea95d6-6fae-4fc9-9ed0-c8dd200e1067","geometry":{"type":"Polygon","coordinates":[[[139.0733273,36.0281008],[139.0733445,36.0281932],[139.0732813,36.028201],[139.0732779,36.0281832],[139.0732003,36.0281927],[139.0731865,36.028118],[139.0733273,36.0281008]]]},"properties":{"layer":"building","height_m":4.4}},{"type":"Feature","id":"bldg_745c054a-cfee-47ca-ace7-1f04677bc10f","geometry":{"type":"Polygon","coordinates":[[[139.0732194,36.0279124],[139.0731925,36.0278313],[139.0732379,36.0278214],[139.073239,36.0278248],[139.0732809,36.0278157],[139.0732943,36.027856],[139.0733244,36.0278495],[139.0733368,36.0278867],[139.0732194,36.0279124]]]},"properties":{"layer":"building","height_m":8.2}},{"type":"Feature","id":"bldg_9230fde9-e9d7-4b03-9131-523c29edae50","geometry":{"type":"Polygon","coordinates":[[[139.0732625,36.028426],[139.0732383,36.0283464],[139.0733085,36.0283323],[139.0733327,36.028412],[139.0732625,36.028426]]]},"properties":{"layer":"building","height_m":5.9}},{"type":"Feature","id":"bldg_fdb5dd20-6cd9-4062-a4f0-ee86c2ac20c0","geometry":{"type":"Polygon","coordinates":[[[139.0733215,36.0305353],[139.0732893,36.0305665],[139.0732445,36.030536],[139.0732766,36.0305049],[139.0733215,36.0305353]]]},"properties":{"layer":"building","height_m":5.0}},{"type":"Feature","id":"bldg_3d029aba-c5b8-404a-b989-580d66220c7d","geometry":{"type":"Polygon","coordinates":[[[139.0734496,36.0279772],[139.0734681,36.0280379],[139.0733138,36.0280691],[139.0733121,36.0280638],[139.0732937,36.0280674],[139.0732783,36.0280173],[139.0732958,36.0280138],[139.0732941,36.0280086],[139.0734496,36.0279772]]]},"properties":{"layer":"building","height_m":5.3}},{"type":"Feature","id":"bldg_65f16ff4-1e8f-4485-a69e-6729759ebe15","geometry":{"type":"Polygon","coordinates":[[[139.0733944,36.0293449],[139.0734033,36.0293619],[139.0733687,36.0293738],[139.0733584,36.0293542],[139.0733124,36.0293701],[139.0732759,36.0293006],[139.0733464,36.0292762],[139.0733533,36.0292893],[139.0733865,36.0292778],[139.0733944,36.0292928],[139.0734143,36.029286],[139.0734374,36.02933],[139.0733944,36.0293449]]]},"properties":{"layer":"building","height_m":7.5}},{"type":"Feature","id":"bldg_5baf16b4-9729-420f-aaa2-cf6bbc7fedc9","geometry":{"type":"Polygon","coordinates":[[[139.0734061,36.0294856],[139.0733137,36.0293935],[139.0733585,36.0293638],[139.0734509,36.0294559],[139.0734061,36.0294856]]]},"properties":{"layer":"building","height_m":7.2}},{"type":"Feature","id":"bldg_39f07fb8-5ee7-48d4-8638-32e4d9226dcd","geometry":{"type":"Polygon","coordinates":[[[139.0733585,36.0305161],[139.0734174,36.0305558],[139.0733632,36.0306088],[139.0733044,36.0305691],[139.0733585,36.0305161]]]},"properties":{"layer":"building","height_m":4.6}},{"type":"Feature","id":"bldg_1c92e99c-ecba-4be5-8806-88f4a6811dd0","geometry":{"type":"Polygon","coordinates":[[[139.0734531,36.0290526],[139.0734088,36.0290647],[139.0733889,36.0290169],[139.0734332,36.0290047],[139.0734531,36.0290526]]]},"properties":{"layer":"building","height_m":6.6}},{"type":"Feature","id":"bldg_0c26244d-d9d1-41f6-a3ef-2f6096b98b60","geometry":{"type":"Polygon","coordinates":[[[139.0735571,36.0303658],[139.0734955,36.0304013],[139.0733883,36.0302785],[139.0734499,36.030243],[139.0735571,36.0303658]]]},"properties":{"layer":"building","height_m":5.5}},{"type":"Feature","id":"bldg_6c8e8b74-75e2-4ba6-a490-01a3772b6a81","geometry":{"type":"Polygon","coordinates":[[[139.073443,36.0304159],[139.0733907,36.0303554],[139.0734307,36.0303325],[139.0734831,36.0303932],[139.073443,36.0304159]]]},"properties":{"layer":"building","height_m":3.5}},{"type":"Feature","id":"bldg_0d311ba7-0e51-4a3c-817c-39b4d13f6c46","geometry":{"type":"Polygon","coordinates":[[[139.0734607,36.0305066],[139.0734091,36.0304738],[139.0734531,36.0304281],[139.0735047,36.0304609],[139.0734607,36.0305066]]]},"properties":{"layer":"building","height_m":6.3}},{"type":"Feature","id":"bldg_11d1cd73-5d5d-4ede-8382-58280cc3b0d5","geometry":{"type":"Polygon","coordinates":[[[139.073463,36.0293519],[139.0734265,36.0292846],[139.0735545,36.0292388],[139.073591,36.0293061],[139.073463,36.0293519]]]},"properties":{"layer":"building","height_m":5.9}},{"type":"Feature","id":"bldg_2e9e4c4d-377f-44d6-825e-14628fbda8de","geometry":{"type":"Polygon","coordinates":[[[139.0734812,36.0291504],[139.0734539,36.0291003],[139.0734977,36.0290845],[139.0735252,36.0291347],[139.0734812,36.0291504]]]},"properties":{"layer":"building","height_m":3.1}},{"type":"Feature","id":"bldg_2a3eb7d2-3788-48e0-8d79-7f3ea5f38d65","geometry":{"type":"Polygon","coordinates":[[[139.0735977,36.0317904],[139.0734987,36.0317242],[139.0735422,36.0316814],[139.0736412,36.0317476],[139.0735977,36.0317904]]]},"properties":{"layer":"building","height_m":4.8}},{"type":"Feature","id":"bldg_4a333fad-d01d-47b4-8102-3e03fde631ce","geometry":{"type":"Polygon","coordinates":[[[139.0735131,36.0315781],[139.073589,36.031516],[139.0736431,36.0315597],[139.0735671,36.0316217],[139.0735131,36.0315781]]]},"properties":{"layer":"building","height_m":8.3}},{"type":"Feature","id":"bldg_3cbd24dd-fa19-4dc2-9375-66764a6978d0","geometry":{"type":"Polygon","coordinates":[[[139.0741778,36.0311965],[139.0740588,36.0312728],[139.0737473,36.0309519],[139.0737334,36.0309378],[139.0735597,36.0307269],[139.0736845,36.0306591],[139.0737726,36.030766],[139.0738572,36.0308661],[139.0741778,36.0311965]]]},"properties":{"layer":"building","height_m":4.9}},{"type":"Feature","id":"bldg_21dab222-49cb-4f03-aa1f-fa88cf749dfd","geometry":{"type":"Polygon","coordinates":[[[139.0736711,36.0291775],[139.073706,36.0292441],[139.0736452,36.0292652],[139.0736102,36.0291986],[139.0736711,36.0291775]]]},"properties":{"layer":"building","height_m":6.3}},{"type":"Feature","id":"bldg_28584aed-a009-4663-92eb-3872bf96e55e","geometry":{"type":"Polygon","coordinates":[[[139.0736815,36.0318571],[139.0736248,36.031818],[139.073684,36.0317615],[139.0737406,36.0318005],[139.0736815,36.0318571]]]},"properties":{"layer":"building","height_m":4.1}},{"type":"Feature","id":"bldg_bc422cfe-6293-4a42-a2ee-c3c8558c8295","geometry":{"type":"Polygon","coordinates":[[[139.0737836,36.0292473],[139.0738035,36.0292868],[139.0736694,36.0293315],[139.0736494,36.029292],[139.0737836,36.0292473]]]},"properties":{"layer":"building","height_m":6.6}},{"type":"Feature","id":"bldg_02712ce3-4ea4-423d-9199-14f74b57fde8","geometry":{"type":"Polygon","coordinates":[[[139.0736469,36.0310519],[139.0737286,36.0309948],[139.0740509,36.0312995],[139.0739692,36.0313565],[139.0736469,36.0310519]]]},"properties":{"layer":"building","height_m":5.1}},{"type":"Feature","id":"bldg_2de3de98-42c7-4fd2-889b-1b0e942b68c5","geometry":{"type":"Polygon","coordinates":[[[139.0736973,36.0305943],[139.0738844,36.0304885],[139.0743508,36.0310428],[139.0741698,36.0311459],[139.0736973,36.0305943]]]},"properties":{"layer":"building","height_m":3.2}},{"type":"Feature","id":"bldg_2a7ffff0-3b10-4deb-abd1-151b2953b034","geometry":{"type":"Polygon","coordinates":[[[139.0738047,36.0317278],[139.073738,36.0317916],[139.0737109,36.031773],[139.0737777,36.0317091],[139.0738047,36.0317278]]]},"properties":{"layer":"building","height_m":7.4}},{"type":"Feature","id":"bldg_a5794c8b-0703-4ff9-88d4-fdc437274f4c","geometry":{"type":"Polygon","coordinates":[[[139.0740257,36.0291158],[139.0740444,36.0290124],[139.0740525,36.0290133],[139.0740554,36.0289973],[139.0741635,36.0290102],[139.074142,36.0291296],[139.0740257,36.0291158]]]},"properties":{"layer":"building","height_m":6.0}},{"type":"Feature","id":"bldg_6d04cbbd-378f-4f5c-a75f-44a91b0e3ebd","geometry":{"type":"Polygon","coordinates":[[[139.0739996,36.0321403],[139.0740842,36.0321064],[139.0741147,36.0321566],[139.0741261,36.0321521],[139.0741517,36.0321944],[139.0740557,36.0322328],[139.0739996,36.0321403]]]},"properties":{"layer":"building","height_m":9.3}},{"type":"Feature","id":"bldg_8c655816-8587-4620-982b-d105a6a2d4ae","geometry":{"type":"Polygon","coordinates":[[[139.0741301,36.0292094],[139.0741089,36.0292348],[139.0740493,36.0292019],[139.0740706,36.0291765],[139.0741301,36.0292094]]]},"properties":{"layer":"building","height_m":5.3}},{"type":"Feature","id":"bldg_c578eb7a-0109-4f7a-825d-ea803fa18709","geometry":{"type":"Polygon","coordinates":[[[139.0741276,36.0305134],[139.0740568,36.0304448],[139.0740848,36.0304257],[139.0740773,36.0304184],[139.0742207,36.0303207],[139.0742991,36.0303965],[139.0741276,36.0305134]]]},"properties":{"layer":"building","height_m":4.0}},{"type":"Feature","id":"bldg_d096712f-8eee-4324-b6d2-b1b2a069ba70","geometry":{"type":"Polygon","coordinates":[[[139.0743352,36.0291724],[139.074309,36.0291984],[139.074269,36.0292379],[139.0742591,36.0292477],[139.0742048,36.0292114],[139.0741868,36.0292291],[139.0741119,36.0291791],[139.0741782,36.0291135],[139.0742539,36.029164],[139.0742815,36.0291367],[139.0743352,36.0291724]]]},"properties":{"layer":"building","height_m":6.3}},{"type":"Feature","id":"bldg_def658af-6692-43d6-bb2d-2af7d619f609","geometry":{"type":"Polygon","coordinates":[[[139.0741293,36.0288846],[139.0741154,36.02882],[139.0741835,36.0288103],[139.074178,36.0287847],[139.0742794,36.0287702],[139.0742816,36.0287803],[139.0742997,36.0287777],[139.0743109,36.0288294],[139.0742875,36.0288327],[139.0742936,36.0288611],[139.0741293,36.0288846]]]},"properties":{"layer":"building","height_m":7.4}},{"type":"Feature","id":"bldg_423e30d6-f4d7-44e7-9e85-b9159d48702e","geometry":{"type":"Polygon","coordinates":[[[139.0742844,36.0320689],[139.0742461,36.0320831],[139.0742203,36.0320369],[139.0742585,36.0320228],[139.0742844,36.0320689]]]},"properties":{"layer":"building","height_m":3.3}},{"type":"Feature","id":"bldg_19256aa6-cb66-446a-af5e-590408e4fdb7","geometry":{"type":"Polygon","coordinates":[[[139.0743082,36.0315608],[139.0742474,36.0314793],[139.0743056,36.0314507],[139.0743663,36.0315321],[139.0743082,36.0315608]]]},"properties":{"layer":"building","height_m":4.5}},{"type":"Feature","id":"bldg_a4abc51c-dcfa-484b-9c3a-598f1817fca2","geometry":{"type":"Polygon","coordinates":[[[139.074309,36.0291984],[139.0743332,36.0292145],[139.0742932,36.0292541],[139.074269,36.0292379],[139.074309,36.0291984]]]},"properties":{"layer":"building","height_m":4.0}},{"type":"Feature","id":"bldg_66e37021-1977-460e-95ad-9aee4032eb98","geometry":{"type":"Polygon","coordinates":[[[139.0743157,36.0328972],[139.0742377,36.0327793],[139.0743376,36.0327357],[139.0744156,36.0328536],[139.0743157,36.0328972]]]},"properties":{"layer":"building","height_m":7.2}},{"type":"Feature","id":"bldg_1af0e6b7-e854-4e31-be9f-c62016d338fb","geometry":{"type":"Polygon","coordinates":[[[139.0743876,36.0287685],[139.0743357,36.0287799],[139.0743157,36.0287203],[139.0743675,36.0287088],[139.0743876,36.0287685]]]},"properties":{"layer":"building","height_m":null}},{"type":"Feature","id":"bldg_21c5e626-e4f9-4d3f-980d-4b210ee334dd","geometry":{"type":"Polygon","coordinates":[[[139.0744827,36.0321015],[139.0743925,36.0321477],[139.0742972,36.0320251],[139.0743354,36.0320055],[139.0743245,36.0319914],[139.0743763,36.0319647],[139.0744827,36.0321015]]]},"properties":{"layer":"building","height_m":6.7}},{"type":"Feature","id":"bldg_8ba2eabd-fdf3-427d-a48f-7801e8fe1919","geometry":{"type":"Polygon","coordinates":[[[139.0743154,36.0314583],[139.074363,36.0314349],[139.0743632,36.0314353],[139.0744575,36.0315617],[139.0744526,36.0315642],[139.07441,36.0315851],[139.0743154,36.0314583]]]},"properties":{"layer":"building","height_m":3.6}},{"type":"Feature","id":"bldg_3f8beb56-e938-4b24-aff6-5b7070413394","geometry":{"type":"Polygon","coordinates":[[[139.0743779,36.0288369],[139.0743503,36.0287864],[139.0743895,36.0287722],[139.0744172,36.0288227],[139.0743779,36.0288369]]]},"properties":{"layer":"building","height_m":null}},{"type":"Feature","id":"bldg_f5d103a7-7092-4374-9c12-0249357f9d54","geometry":{"type":"Polygon","coordinates":[[[139.0743255,36.0315794],[139.0743531,36.031565],[139.0743665,36.031582],[139.0743807,36.0315746],[139.0744385,36.0316478],[139.0743967,36.0316696],[139.0743255,36.0315794]]]},"properties":{"layer":"building","height_m":3.9}},{"type":"Feature","id":"bldg_498d6ba9-0dfb-4805-b081-87399026fe1d","geometry":{"type":"Polygon","coordinates":[[[139.0743814,36.0292505],[139.074352,36.0292159],[139.0744115,36.0291826],[139.0744408,36.0292173],[139.0743814,36.0292505]]]},"properties":{"layer":"building","height_m":3.2}},{"type":"Feature","id":"bldg_d2fa7a22-583b-487c-8340-49d963449779","geometry":{"type":"Polygon","coordinates":[[[139.0743842,36.0315649],[139.0743653,36.0315742],[139.074345,36.031547],[139.0743639,36.0315377],[139.0743842,36.0315649]]]},"properties":{"layer":"building","height_m":3.5}},{"type":"Feature","id":"bldg_251a2ead-a332-4116-baca-df86b6ffd6a7","geometry":{"type":"Polygon","coordinates":[[[139.0744502,36.0329495],[139.0743935,36.0329826],[139.0743343,36.0329155],[139.074391,36.0328825],[139.0744502,36.0329495]]]},"properties":{"layer":"building","height_m":4.1}},{"type":"Feature","id":"bldg_be38ccef-c3bb-4277-9652-ff431965e47c","geometry":{"type":"Polygon","coordinates":[[[139.0743632,36.0314353],[139.0743853,36.0314244],[139.0744796,36.0315509],[139.0744575,36.0315617],[139.0743632,36.0314353]]]},"properties":{"layer":"building","height_m":3.0}},{"type":"Feature","id":"bldg_51404d57-6e8d-4aa2-a3be-c86e1a44d390","geometry":{"type":"Polygon","coordinates":[[[139.0747191,36.0308767],[139.074531,36.0310422],[139.0744887,36.0310413],[139.0743784,36.0309533],[139.0744118,36.0309237],[139.0743943,36.0309064],[139.0745684,36.0307569],[139.0746237,36.0308008],[139.0747191,36.0308767]]]},"properties":{"layer":"building","height_m":8.1}},{"type":"Feature","id":"bldg_c349c001-ca6b-49c4-b6c4-d08f1816fe58","geometry":{"type":"Polygon","coordinates":[[[139.0744526,36.0315642],[139.0744651,36.0315809],[139.0744224,36.0316018],[139.07441,36.0315851],[139.0744526,36.0315642]]]},"properties":{"layer":"building","height_m":3.6}},{"type":"Feature","id":"bldg_720065ec-550d-40ac-aa19-37c69456a05b","geometry":{"type":"Polygon","coordinates":[[[139.0744947,36.032099],[139.0745309,36.0321335],[139.0744717,36.0321744],[139.0744355,36.03214],[139.0744947,36.032099]]]},"properties":{"layer":"building","height_m":6.8}},{"type":"Feature","id":"bldg_a8a8bf81-8ee9-40f8-95be-33e94e421f13","geometry":{"type":"Polygon","coordinates":[[[139.0745047,36.0305333],[139.0744569,36.0304989],[139.0745201,36.030441],[139.0745679,36.0304754],[139.0745047,36.0305333]]]},"properties":{"layer":"building","height_m":7.6}},{"type":"Feature","id":"bldg_21845a64-cc41-4208-b339-b05c153839c2","geometry":{"type":"Polygon","coordinates":[[[139.0744828,36.0316831],[139.0745621,36.0316126],[139.0746933,36.03171],[139.0746141,36.0317805],[139.0744828,36.0316831]]]},"properties":{"layer":"building","height_m":5.7}},{"type":"Feature","id":"bldg_ec6613ab-7f58-42c7-911a-2061a23ed97a","geometry":{"type":"Polygon","coordinates":[[[139.0745185,36.0305831],[139.074499,36.0305668],[139.0745583,36.0305198],[139.0745779,36.0305362],[139.0745185,36.0305831]]]},"properties":{"layer":"building","height_m":3.2}},{"type":"Feature","id":"bldg_980b2330-429b-4ba6-b0fd-b4f49cd5f7ac","geometry":{"type":"Polygon","coordinates":[[[139.0745771,36.0304714],[139.0745226,36.0304321],[139.074528,36.0304273],[139.0745105,36.0304147],[139.0746244,36.0303104],[139.0746405,36.0303219],[139.0746547,36.0303089],[139.0746947,36.0303377],[139.0746819,36.0303495],[139.0746978,36.0303609],[139.0745771,36.0304714]]]},"properties":{"layer":"building","height_m":6.8}},{"type":"Feature","id":"bldg_06b4e16d-267f-436a-b285-5ffd10e17aaf","geometry":{"type":"Polygon","coordinates":[[[139.0745947,36.0300496],[139.0745271,36.0299954],[139.0745639,36.0299328],[139.0747342,36.0298369],[139.0748044,36.0297791],[139.0748513,36.0297696],[139.0749076,36.0297923],[139.0745947,36.0300496]]]},"properties":{"layer":"building","height_m":5.1}},{"type":"Feature","id":"bldg_72a16b2b-87b2-4a84-bbbf-a0a174454e81","geometry":{"type":"Polygon","coordinates":[[[139.0746007,36.0305292],[139.0745866,36.0305398],[139.0745617,36.0305179],[139.0745757,36.0305073],[139.0746007,36.0305292]]]},"properties":{"layer":"building","height_m":null}},{"type":"Feature","id":"bldg_daef095c-fac3-4c02-8735-a83de759805b","geometry":{"type":"Polygon","coordinates":[[[139.0746261,36.0305244],[139.0746111,36.0305357],[139.0745773,36.0305061],[139.0745923,36.0304948],[139.0746261,36.0305244]]]},"properties":{"layer":"building","height_m":null}},{"type":"Feature","id":"bldg_5336dbe9-7588-46fe-aaa4-8cec01e73307","geometry":{"type":"Polygon","coordinates":[[[139.07466,36.0305176],[139.0746413,36.0305317],[139.074597,36.0304929],[139.0746158,36.0304788],[139.07466,36.0305176]]]},"properties":{"layer":"building","height_m":null}},{"type":"Feature","id":"bldg_a46228a6-6f8d-4a3c-b645-dbb63d9c074d","geometry":{"type":"Polygon","coordinates":[[[139.0746963,36.0305086],[139.0746764,36.0305236],[139.0746207,36.0304748],[139.0746406,36.0304598],[139.0746963,36.0305086]]]},"properties":{"layer":"building","height_m":null}},{"type":"Feature","id":"bldg_657606aa-ba6f-4b6b-b78c-00e2b6c20ce7","geometry":{"type":"Polygon","coordinates":[[[139.0746534,36.0301288],[139.07463,36.0301197],[139.0746509,36.0300842],[139.0746743,36.0300932],[139.0746534,36.0301288]]]},"properties":{"layer":"building","height_m":null}},{"type":"Feature","id":"bldg_98101834-8394-41fa-9d16-5f2edcbea5c2","geometry":{"type":"Polygon","coordinates":[[[139.0746237,36.0308008],[139.0746533,36.0307763],[139.0746667,36.0307869],[139.0746933,36.0307649],[139.0747679,36.0308184],[139.0747641,36.0308213],[139.0747327,36.0308474],[139.0747438,36.0308562],[139.0747191,36.0308767],[139.0746237,36.0308008]]]},"properties":{"layer":"building","height_m":3.4}},{"type":"Feature","id":"bldg_02d0414f-6284-4536-96cd-9c362305fc26","geometry":{"type":"Polygon","coordinates":[[[139.0747497,36.0320128],[139.074806,36.0320785],[139.0748216,36.0320697],[139.0748741,36.0321307],[139.0747635,36.0321934],[139.0747205,36.0321432],[139.0746894,36.0321608],[139.0746236,36.0320842],[139.0747497,36.0320128]]]},"properties":{"layer":"building","height_m":7.5}},{"type":"Feature","id":"bldg_c523ae5b-1249-4d08-ba24-34e30a22b324","geometry":{"type":"Polygon","coordinates":[[[139.07462,36.0326851],[139.0747058,36.0326534],[139.0747486,36.0327297],[139.0746628,36.0327614],[139.07462,36.0326851]]]},"properties":{"layer":"building","height_m":3.7}},{"type":"Feature","id":"bldg_bf96c6ae-a49f-44a0-bf6c-6def817cf7e2","geometry":{"type":"Polygon","coordinates":[[[139.0747022,36.0305131],[139.0746455,36.0304635],[139.0746969,36.0304247],[139.0747536,36.0304744],[139.0747022,36.0305131]]]},"properties":{"layer":"building","height_m":3.0}},{"type":"Feature","id":"bldg_ff8a142e-8c34-4a76-8d18-181fce50f6bd","geometry":{"type":"Polygon","coordinates":[[[139.0746852,36.0300871],[139.0746634,36.030078],[139.0746873,36.0300403],[139.0747092,36.0300495],[139.0746852,36.0300871]]]},"properties":{"layer":"building","height_m":null}},{"type":"Feature","id":"bldg_77e4a64f-33f7-4a10-8044-ad9cb0e427d3","geometry":{"type":"Polygon","coordinates":[[[139.0748242,36.0307889],[139.0747816,36.0308282],[139.0747679,36.0308184],[139.0746933,36.0307649],[139.0746901,36.0307627],[139.0747327,36.0307235],[139.0748242,36.0307889]]]},"properties":{"layer":"building","height_m":3.6}},{"type":"Feature","id":"bldg_e9d92877-8011-4529-84a7-1d592cf47938","geometry":{"type":"Polygon","coordinates":[[[139.0747174,36.0322168],[139.0746838,36.0321733],[139.0747208,36.0321543],[139.0747546,36.0321979],[139.0747174,36.0322168]]]},"properties":{"layer":"building","height_m":3.0}},{"type":"Feature","id":"bldg_9ec59167-43f0-433d-a9f2-ad846f94e047","geometry":{"type":"Polygon","coordinates":[[[139.0747911,36.0295014],[139.0747136,36.0294466],[139.0747805,36.0293842],[139.0748321,36.0294206],[139.0748278,36.0294248],[139.074848,36.0294391],[139.0748161,36.0294689],[139.0748217,36.0294729],[139.0747911,36.0295014]]]},"properties":{"layer":"building","height_m":8.2}},{"type":"Feature","id":"bldg_c8d31256-4e5c-4e54-8a50-f6c54128f47c","geometry":{"type":"Polygon","coordinates":[[[139.0747822,36.0304284],[139.0747302,36.0303923],[139.0747752,36.0303494],[139.0748272,36.0303855],[139.0747822,36.0304284]]]},"properties":{"layer":"building","height_m":null}},{"type":"Feature","id":"bldg_95fe1d53-0d42-4ea7-bc92-64583c9bdf2c","geometry":{"type":"Polygon","coordinates":[[[139.0747686,36.0324672],[139.0747763,36.0324625],[139.0747443,36.0324278],[139.0748078,36.0323891],[139.0748203,36.0324026],[139.0748282,36.0323978],[139.074905,36.032481],[139.0748964,36.0324863],[139.07492,36.0325119],[139.0748593,36.0325488],[139.0748354,36.032523],[139.0748256,36.032529],[139.074823,36.0325262],[139.0747971,36.0324981],[139.0747686,36.0324672]]]},"properties":{"layer":"building","height_m":4.0}},{"type":"Feature","id":"bldg_f9ac416d-527f-4e5f-b9f8-b75a94382683","geometry":{"type":"Polygon","coordinates":[[[139.0748553,36.0294011],[139.0747991,36.0293631],[139.0748571,36.0293064],[139.0749134,36.0293446],[139.0748553,36.0294011]]]},"properties":{"layer":"building","height_m":4.3}},{"type":"Feature","id":"bldg_8033a228-07a4-4bdf-ac91-4d639755b402","geometry":{"type":"Polygon","coordinates":[[[139.074823,36.0325262],[139.0747987,36.0325409],[139.0747728,36.0325129],[139.0747971,36.0324981],[139.074823,36.0325262]]]},"properties":{"layer":"building","height_m":null}},{"type":"Feature","id":"bldg_f1578867-de72-4215-9dd8-a072df3365fe","geometry":{"type":"Polygon","coordinates":[[[139.0748617,36.02922],[139.0748116,36.0291865],[139.0748489,36.0291497],[139.074899,36.0291832],[139.0748617,36.02922]]]},"properties":{"layer":"building","height_m":3.1}},{"type":"Feature","id":"bldg_c86c4de9-6e72-4427-806b-d7b54832c9b8","geometry":{"type":"Polygon","coordinates":[[[139.0748625,36.0295432],[139.0748193,36.0295143],[139.0748463,36.0294878],[139.0748317,36.0294779],[139.0749337,36.0293778],[139.0749914,36.0294167],[139.0748625,36.0295432]]]},"properties":{"layer":"building","height_m":4.5}},{"type":"Feature","id":"bldg_b7f6e970-2a0d-413f-bb62-1146a0b0155b","geometry":{"type":"Polygon","coordinates":[[[139.0748586,36.0329652],[139.0748388,36.0329458],[139.0748497,36.0329384],[139.0748115,36.032901],[139.0748398,36.032882],[139.0748192,36.0328618],[139.0748426,36.0328461],[139.0748653,36.0328683],[139.0748723,36.0328636],[139.0749346,36.0329247],[139.0748962,36.0329506],[139.0748898,36.0329443],[139.0748586,36.0329652]]]},"properties":{"layer":"building","height_m":6.6}},{"type":"Feature","id":"bldg_b00d6ecc-634e-41ad-826b-4789e018bdde","geometry":{"type":"Polygon","coordinates":[[[139.0749104,36.0324343],[139.0749965,36.0323923],[139.0750495,36.032464],[139.0749634,36.032506],[139.0749531,36.032492],[139.074929,36.0324594],[139.0749104,36.0324343]]]},"properties":{"layer":"building","height_m":3.4}},{"type":"Feature","id":"bldg_07573e5c-870f-4966-966d-970c89720216","geometry":{"type":"Polygon","coordinates":[[[139.0750828,36.0326723],[139.0749924,36.0327275],[139.0749045,36.0326325],[139.0749233,36.032621],[139.0748966,36.0325922],[139.0749681,36.0325486],[139.0750828,36.0326723]]]},"properties":{"layer":"building","height_m":4.4}},{"type":"Feature","id":"bldg_3974ab7a-f558-4c0b-9587-54be6723d234","geometry":{"type":"Polygon","coordinates":[[[139.0749315,36.0320979],[139.0748924,36.032057],[139.0749442,36.0320243],[139.0749833,36.0320652],[139.0749315,36.0320979]]]},"properties":{"layer":"building","height_m":null}},{"type":"Feature","id":"bldg_cf86e0e3-8de9-43e3-85fe-86ad539b0be0","geometry":{"type":"Polygon","coordinates":[[[139.0703511,36.0272383],[139.070313,36.0272646],[139.0702838,36.0272365],[139.0703218,36.0272103],[139.0703511,36.0272383]]]},"properties":{"layer":"building","height_m":5.1}},{"type":"Feature","id":"bldg_1708c3ed-80d1-4334-82e0-0867cbe069ec","geometry":{"type":"Polygon","coordinates":[[[139.0749604,36.0331483],[139.0748113,36.0330023],[139.0748917,36.0329482],[139.0750408,36.0330943],[139.0749604,36.0331483]]]},"properties":{"layer":"building","height_m":6.9}},{"type":"Feature","id":"bldg_098e48bf-4a03-404a-b4b0-660c3d3eaae6","geometry":{"type":"Polygon","coordinates":[[[139.0738047,36.0317278],[139.0737777,36.0317091],[139.0737109,36.031773],[139.0735593,36.0316683],[139.0736585,36.0315735],[139.0737958,36.0316684],[139.0738507,36.0316328],[139.0739073,36.0316852],[139.0738235,36.0317483],[139.0738047,36.0317278]]]},"properties":{"layer":"building","height_m":9.6}},{"type":"Feature","id":"bldg_960f331b-8daf-448d-a23b-8d77990c4e48","geometry":{"type":"Polygon","coordinates":[[[139.074905,36.032481],[139.074929,36.0324594],[139.0749531,36.032492],[139.07492,36.0325119],[139.0748964,36.0324863],[139.074905,36.032481]]]},"properties":{"layer":"building","height_m":3.2}},{"type":"Feature","id":"bldg_f5131c4f-c95a-438e-bad1-02922ee6194b","geometry":{"type":"Polygon","coordinates":[[[139.0749721,36.0323734],[139.0749364,36.0323976],[139.0749124,36.0323741],[139.0749482,36.03235],[139.0749721,36.0323734]]]},"properties":{"layer":"building","height_m":3.4}}]}