{"type":"FeatureCollection","properties":{"mesh_code":"54390024","source":"PLATEAU秩父市2025","layer":"building"},"features":[{"type":"Feature","id":"bldg_82bccf85-7c1f-443b-96c8-69f17b7a670b","geometry":{"type":"Polygon","coordinates":[[[139.06199991972076,36.017291992939654],[139.06182802588725,36.01726249644643],[139.06183747740536,36.01722614489412],[139.06200937028572,36.017255731497],[139.06199991972076,36.017291992939654]]]},"properties":{"layer":"building","height_m":null}},{"type":"Feature","id":"bldg_9a9882c0-97c7-4410-b209-e01d5d9c2172","geometry":{"type":"Polygon","coordinates":[[[139.06163208161587,36.017332978924166],[139.06161197017684,36.017407846339985],[139.06158956042972,36.017400969455046],[139.0616298533881,36.017331666720246],[139.06163208161587,36.017332978924166]]]},"properties":{"layer":"building","height_m":5.6}},{"type":"Feature","id":"bldg_0cf3174b-4f6c-407b-adfe-95d8aa6e365e","geometry":{"type":"Polygon","coordinates":[[[139.0619116607315,36.0175600114287],[139.06162492802082,36.01750913623043],[139.06164081519407,36.01744993319302],[139.061602495884,36.01744310715817],[139.06161197017684,36.017407846339985],[139.06163208161587,36.017332978924166],[139.06178425286225,36.01735991531815],[139.0617612313315,36.01744539031572],[139.061934223465,36.01747606565501],[139.0619116607315,36.0175600114287]]]},"properties":{"layer":"building","height_m":8.0}},{"type":"Feature","id":"bldg_682cf97e-1c04-4ec4-848e-e9eff9211f2b","geometry":{"type":"Polygon","coordinates":[[[139.06209444948084,36.01733676437723],[139.06211714367558,36.017341777314726],[139.06210594453634,36.01737532363338],[139.06208313939806,36.01737030998027],[139.06209444948084,36.01733676437723]]]},"properties":{"layer":"building","height_m":3.5}},{"type":"Feature","id":"bldg_2d90933c-b8ed-4c79-a298-d20299ba40d9","geometry":{"type":"Polygon","coordinates":[[[139.0624650202424,36.01773283291243],[139.06243934727516,36.01778305032843],[139.0623701256071,36.017759622310656],[139.0623956867971,36.01770949432054],[139.0624650202424,36.01773283291243]]]},"properties":{"layer":"building","height_m":5.0}},{"type":"Feature","id":"bldg_7e1fd778-ec12-43f2-8235-1d276630e19f","geometry":{"type":"Polygon","coordinates":[[[139.062353327751,36.01773013207943],[139.06220025959553,36.01768128914802],[139.06222743453907,36.01762495262856],[139.06238061353878,36.01767379623775],[139.062353327751,36.01773013207943]]]},"properties":{"layer":"building","height_m":7.7}},{"type":"Feature","id":"bldg_557c4e11-8491-4a6b-a864-2fec7476918f","geometry":{"type":"Polygon","coordinates":[[[139.06202148937942,36.017253015423115],[139.06187354166929,36.017225295332715],[139.06188411480377,36.017187689177064],[139.0620321742605,36.017215319843295],[139.06202148937942,36.017253015423115]]]},"properties":{"layer":"building","height_m":null}},{"type":"Feature","id":"bldg_5eaae92f-80df-461c-848b-39c7cce8cdcd","geometry":{"type":"Polygon","coordinates":[[[139.06157585828768,36.01722810286519],[139.06154770571064,36.01720717386585],[139.0615927719874,36.017167157923105],[139.06162092456253,36.01718808691196],[139.06157585828768,36.01722810286519]]]},"properties":{"layer":"building","height_m":null}},{"type":"Feature","id":"bldg_a512dc72-7a8c-4b2d-84f4-93917c66231f","geometry":{"type":"Polygon","coordinates":[[[139.06204762551678,36.01716665910565],[139.0619805751632,36.01715955828441],[139.06198695556523,36.01711958178296],[139.06205400588564,36.01712668260027],[139.06204762551678,36.01716665910565]]]},"properties":{"layer":"building","height_m":null}},{"type":"Feature","id":"bldg_a30fcbc6-c369-4a96-94ca-64182ea71e01","geometry":{"type":"Polygon","coordinates":[[[139.06204077417922,36.01720942659878],[139.06192863668656,36.01719554644329],[139.06193518804506,36.017160798560845],[139.06204732548986,36.017174678709715],[139.06204077417922,36.01720942659878]]]},"properties":{"layer":"building","height_m":null}},{"type":"Feature","id":"bldg_a1e2112c-afae-4014-b31f-1b0b6da66a8a","geometry":{"type":"Polygon","coordinates":[[[139.0565186837581,36.02044823646667],[139.05656099999217,36.02046617594681],[139.05653593156006,36.0205051928676],[139.05649361531113,36.02048725337857],[139.0565186837581,36.02044823646667]]]},"properties":{"layer":"building","height_m":4.3}},{"type":"Feature","id":"bldg_b26a35f3-d1c8-4d27-aaa7-fd562d022923","geometry":{"type":"Polygon","coordinates":[[[139.05646046857223,36.02053884509732],[139.05615652226038,36.02040988327322],[139.05622006695015,36.020310972345754],[139.05652401299164,36.020439934007506],[139.0565186837581,36.02044823646667],[139.05649361531113,36.02048725337857],[139.05646046857223,36.02053884509732]]]},"properties":{"layer":"building","height_m":5.9}},{"type":"Feature","id":"bldg_1be79fec-2cb0-4e14-bf52-2483361ae0ba","geometry":{"type":"Polygon","coordinates":[[[139.0615290692317,36.01796475529596],[139.06154616343366,36.01794107109747],[139.06158459237227,36.01795943444235],[139.061567387242,36.017983117932445],[139.0615290692317,36.01796475529596]]]},"properties":{"layer":"building","height_m":4.4}},{"type":"Feature","id":"bldg_7185af70-f042-49c2-a543-136eccee5a51","geometry":{"type":"Polygon","coordinates":[[[139.0618722947283,36.01733046854089],[139.06185279283864,36.017396317947885],[139.0617856902341,36.01738317799853],[139.06180519129748,36.01731741872688],[139.0618722947283,36.01733046854089]]]},"properties":{"layer":"building","height_m":4.5}},{"type":"Feature","id":"bldg_a1cf34fc-ac89-4e6d-9b06-ac6a0e55eeef","geometry":{"type":"Polygon","coordinates":[[[139.06204794464327,36.017429929687324],[139.06206606627185,36.017380474956575],[139.0621021484585,36.0173891791784],[139.06208391503728,36.01743872332532],[139.06204794464327,36.017429929687324]]]},"properties":{"layer":"building","height_m":3.1}},{"type":"Feature","id":"bldg_6f717157-fd69-4ec6-9fee-673cf420dbba","geometry":{"type":"Polygon","coordinates":[[[139.0545121492453,36.019899096005716],[139.0544551549845,36.019865450047455],[139.05450898975744,36.01980526870236],[139.05456598399874,36.01983891463512],[139.0545121492453,36.019899096005716]]]},"properties":{"layer":"building","height_m":3.3}},{"type":"Feature","id":"bldg_d04ac951-8d1d-46c7-9512-fc0fe47d9396","geometry":{"type":"Polygon","coordinates":[[[139.05692611752414,36.02192904376094],[139.05694683381532,36.02196613097071],[139.05689115904025,36.02198659042695],[139.05687044277016,36.021949503207935],[139.05692611752414,36.02192904376094]]]},"properties":{"layer":"building","height_m":null}},{"type":"Feature","id":"bldg_3ea43bff-ed4b-4412-8a54-6ce5e50c1a93","geometry":{"type":"Polygon","coordinates":[[[139.05757226804292,36.02243948267853],[139.05748474163363,36.02234770541134],[139.05753888579804,36.022313626227316],[139.05755898313993,36.022334666278894],[139.05757204458158,36.02232645885984],[139.05763958550557,36.022397106623416],[139.05757226804292,36.02243948267853]]]},"properties":{"layer":"building","height_m":7.7}},{"type":"Feature","id":"bldg_9b518305-f573-4698-b1e5-7ee2be502bdd","geometry":{"type":"Polygon","coordinates":[[[139.05778068159185,36.02300026438597],[139.05765545495873,36.02288345782062],[139.0576880780244,36.022860415424105],[139.05763563556633,36.02281140629957],[139.05767373275998,36.02278452374756],[139.0578589889134,36.02295732838026],[139.05787407211997,36.022946610377964],[139.05793706992813,36.02300542163217],[139.05792918771007,36.0230059114433],[139.05793049308932,36.02301988995279],[139.05788012771458,36.02305327270713],[139.0578077186855,36.022981151528775],[139.05778068159185,36.02300026438597]]]},"properties":{"layer":"building","height_m":7.8}},{"type":"Feature","id":"bldg_3a8648cc-7a26-4bc7-ba6f-43a9d205d4f7","geometry":{"type":"Polygon","coordinates":[[[139.05778859163124,36.02254408011434],[139.05785385635735,36.02263192776768],[139.05776132404364,36.02267729540289],[139.0576960593847,36.02258944770068],[139.05778859163124,36.02254408011434]]]},"properties":{"layer":"building","height_m":4.7}},{"type":"Feature","id":"bldg_17a86ea5-c54c-4f5c-87d8-9161c4d1282a","geometry":{"type":"Polygon","coordinates":[[[139.057704873782,36.02276552758646],[139.0577242134056,36.022750691176086],[139.05774742788682,36.02277066980223],[139.05772808826254,36.02278550621627],[139.057704873782,36.02276552758646]]]},"properties":{"layer":"building","height_m":null}},{"type":"Feature","id":"bldg_1d298aad-8025-4eaa-ab67-11c4d9cfcdb3","geometry":{"type":"Polygon","coordinates":[[[139.06076836766258,36.01715680281421],[139.06078187743603,36.01714573179898],[139.06079746427295,36.0171582790996],[139.0607839544995,36.017169350116575],[139.06076836766258,36.01715680281421]]]},"properties":{"layer":"building","height_m":null}},{"type":"Feature","id":"bldg_f919a81c-7053-486c-a842-37bd72ef1543","geometry":{"type":"Polygon","coordinates":[[[139.06158197793548,36.01741401648993],[139.06150474082335,36.017384380543625],[139.06152093264666,36.01735651753856],[139.06151007884372,36.0173523467914],[139.06152814363398,36.01732126919981],[139.0615375164454,36.017324862598116],[139.0615418042846,36.01731747252732],[139.06155438233824,36.017322303300716],[139.06157205215467,36.017291908145275],[139.06160065676656,36.017302889741345],[139.06160246212343,36.01729978287496],[139.06164000849392,36.017314192847195],[139.0616298533881,36.017331666720246],[139.06158956042972,36.017400969455046],[139.06158197793548,36.01741401648993]]]},"properties":{"layer":"building","height_m":5.2}},{"type":"Feature","id":"bldg_7156f988-fb62-4e0d-9ba6-d1c2844e7223","geometry":{"type":"Polygon","coordinates":[[[139.06080584096824,36.01720595753004],[139.0607757681781,36.017181735264685],[139.06080682500502,36.017156284442876],[139.06083689779527,36.01718050670053],[139.06080584096824,36.01720595753004]]]},"properties":{"layer":"building","height_m":null}},{"type":"Feature","id":"bldg_95be0f5f-f001-4e73-aadb-549d0a4a3197","geometry":{"type":"Polygon","coordinates":[[[139.0608502863287,36.017240970746236],[139.06080922704186,36.01720798923118],[139.06084233015272,36.01718089319711],[139.06088327850526,36.01721387398644],[139.0608502863287,36.017240970746236]]]},"properties":{"layer":"building","height_m":null}},{"type":"Feature","id":"bldg_af70cfc3-902f-4e83-b8ad-1c9f150b127a","geometry":{"type":"Polygon","coordinates":[[[139.06085535343178,36.01724468067115],[139.06088553793342,36.01721994524709],[139.0609250773552,36.01725179032764],[139.0608872320056,36.017282812528855],[139.0608669780047,36.01726649480105],[139.06087463876452,36.01726021704736],[139.06085535343178,36.01724468067115]]]},"properties":{"layer":"building","height_m":null}},{"type":"Feature","id":"bldg_b9635a12-4b4b-4f14-9450-53cc60f81057","geometry":{"type":"Polygon","coordinates":[[[139.0609394606192,36.01697043530963],[139.0609002891914,36.01694864205221],[139.06093654392134,36.016905523222285],[139.06097571533823,36.01692731646789],[139.0609394606192,36.01697043530963]]]},"properties":{"layer":"building","height_m":4.3}},{"type":"Feature","id":"bldg_00ab9eeb-cee9-4812-b3c2-360404f0fdd2","geometry":{"type":"Polygon","coordinates":[[[139.06120330219085,36.0170703755165],[139.0609935169423,36.01694482612104],[139.06105777771683,36.01687394743596],[139.06121406836905,36.016967516841945],[139.061225843926,36.01695452386344],[139.06127933843672,36.01698650373568],[139.06120330219085,36.0170703755165]]]},"properties":{"layer":"building","height_m":7.0}},{"type":"Feature","id":"bldg_8e9a1930-427e-4666-9035-63523bc60188","geometry":{"type":"Polygon","coordinates":[[[139.06132352598658,36.01713099552843],[139.06126565215735,36.017161267027475],[139.0612142533668,36.017096403342954],[139.06127201623306,36.0170661311539],[139.06132352598658,36.01713099552843]]]},"properties":{"layer":"building","height_m":3.9}},{"type":"Feature","id":"bldg_4703bb18-5638-4e53-b6fb-a20f94dd3fb4","geometry":{"type":"Polygon","coordinates":[[[139.06139458309084,36.01797857183457],[139.0614314479073,36.0179969161476],[139.0613948809627,36.01805951010932],[139.06138066710747,36.01805403788282],[139.06137377335207,36.01806584554775],[139.0612095965327,36.01800255418184],[139.0612387509996,36.01795263885143],[139.06122686938656,36.017948055878556],[139.0612431502623,36.01792018447518],[139.06139458309084,36.01797857183457]]]},"properties":{"layer":"building","height_m":6.0}},{"type":"Feature","id":"bldg_e7093a16-c098-4cfd-a895-3022d126296e","geometry":{"type":"Polygon","coordinates":[[[139.0613175226799,36.01681946902445],[139.06140143490626,36.01675384502473],[139.06153105662233,36.016863231351266],[139.0614904420553,36.01689499301464],[139.06148759215156,36.016892586239],[139.06144429439263,36.01692645767614],[139.0613175226799,36.01681946902445]]]},"properties":{"layer":"building","height_m":8.6}},{"type":"Feature","id":"bldg_6aa4e835-b8aa-47ef-aee4-949a12b5bc25","geometry":{"type":"Polygon","coordinates":[[[139.06143251232413,36.01792758631648],[139.06148912892954,36.01795575568227],[139.06145183581117,36.01800522212251],[139.0613952190964,36.01797706175148],[139.06143251232413,36.01792758631648]]]},"properties":{"layer":"building","height_m":5.8}}]}