{"type":"FeatureCollection","properties":{"mesh_code":"54390014","source":"PLATEAU秩父市2025","layer":"building"},"features":[{"type":"Feature","id":"bldg_a10219fb-98dd-448e-ba46-8b2204f0c1ed","geometry":{"type":"Polygon","coordinates":[[[139.057371,36.0104426],[139.0572269,36.0104531],[139.0572123,36.0103215],[139.0572579,36.0103182],[139.0572434,36.0101866],[139.057342,36.0101794],[139.057371,36.0104426]]]},"properties":{"layer":"building","height_m":3.2}},{"type":"Feature","id":"bldg_eccfb697-5f09-4aca-985e-d3b06e9a0ada","geometry":{"type":"Polygon","coordinates":[[[139.0570228,36.0120897],[139.0570727,36.0120692],[139.0571144,36.0121359],[139.0570242,36.0121731],[139.0569946,36.0121256],[139.0570349,36.012109],[139.0570228,36.0120897]]]},"properties":{"layer":"building","height_m":6.3}},{"type":"Feature","id":"bldg_9a52c0ea-adf4-4cb7-852d-206c182a38c1","geometry":{"type":"Polygon","coordinates":[[[139.0570684,36.0119779],[139.0571723,36.01193],[139.057195,36.0119626],[139.057098,36.0120096],[139.0571204,36.0120404],[139.0570229,36.0120873],[139.0569881,36.0120395],[139.0569955,36.0120204],[139.057073,36.0119846],[139.0570684,36.0119779]]]},"properties":{"layer":"building","height_m":12.1}},{"type":"Feature","id":"bldg_2f5e3f06-55da-4825-a63a-9090e3ad3cd5","geometry":{"type":"Polygon","coordinates":[[[139.0569284,36.0126336],[139.0569752,36.0126014],[139.0570063,36.0126312],[139.0569596,36.0126634],[139.0569284,36.0126336]]]},"properties":{"layer":"building","height_m":null}},{"type":"Feature","id":"bldg_e0aa8f62-782f-4ea2-91d9-10a125cb06a6","geometry":{"type":"Polygon","coordinates":[[[139.0569033,36.0127349],[139.057084,36.0126109],[139.057173,36.0126966],[139.0570693,36.0127676],[139.0570471,36.0127463],[139.05697,36.0127991],[139.0569033,36.0127349]]]},"properties":{"layer":"building","height_m":4.9}},{"type":"Feature","id":"bldg_d6bcc39e-9a49-494e-82e9-ae162c2c5451","geometry":{"type":"Polygon","coordinates":[[[139.0568974,36.0122436],[139.0569469,36.0122173],[139.0569716,36.0122476],[139.056922,36.0122741],[139.0568974,36.0122436]]]},"properties":{"layer":"building","height_m":4.0}},{"type":"Feature","id":"bldg_1f63d88a-ea9d-4715-894d-52e0d4b8b861","geometry":{"type":"Polygon","coordinates":[[[139.0569116,36.0120624],[139.0568902,36.0120994],[139.0569725,36.0121952],[139.056883,36.012246],[139.0567785,36.0121243],[139.05679,36.0121025],[139.0567358,36.012079],[139.056774,36.0120208],[139.0568008,36.0120324],[139.05681,36.0120183],[139.0569116,36.0120624]]]},"properties":{"layer":"building","height_m":7.5}},{"type":"Feature","id":"bldg_1a054613-5107-4a09-a71d-5e065a9e4e0e","geometry":{"type":"Polygon","coordinates":[[[139.0568185,36.009808],[139.0568368,36.009878],[139.0567747,36.0099176],[139.0567494,36.0098199],[139.0568185,36.009808]]]},"properties":{"layer":"building","height_m":6.0}},{"type":"Feature","id":"bldg_bec506a5-ea6c-4a89-bb17-eebeb52b3950","geometry":{"type":"Polygon","coordinates":[[[139.0567422,36.0120543],[139.0567154,36.0120427],[139.0567457,36.0119966],[139.0567725,36.0120082],[139.0567422,36.0120543]]]},"properties":{"layer":"building","height_m":3.0}},{"type":"Feature","id":"bldg_2986b431-c7f5-46eb-b5e1-608d232b85f8","geometry":{"type":"Polygon","coordinates":[[[139.056595,36.0097353],[139.0565812,36.009685],[139.0566889,36.0096655],[139.0567027,36.0097158],[139.056595,36.0097353]]]},"properties":{"layer":"building","height_m":4.2}},{"type":"Feature","id":"bldg_936c2ec9-03dd-4fa2-a98f-04983a04bcbb","geometry":{"type":"Polygon","coordinates":[[[139.056603,36.0121564],[139.0566434,36.0121813],[139.0566315,36.012194],[139.0566907,36.0122305],[139.0566731,36.0122494],[139.0566882,36.0122587],[139.0566409,36.0123093],[139.0566127,36.0122919],[139.0566037,36.0123016],[139.0565309,36.0122567],[139.0565441,36.0122426],[139.0565251,36.0122309],[139.0565424,36.0122123],[139.0565369,36.0122089],[139.0565641,36.0121798],[139.0565749,36.0121864],[139.056603,36.0121564]]]},"properties":{"layer":"building","height_m":6.7}},{"type":"Feature","id":"bldg_3dc15cc9-71d7-4e98-a7b0-40831da2d9b4","geometry":{"type":"Polygon","coordinates":[[[139.0565469,36.0121712],[139.056509,36.0121292],[139.0565621,36.0120976],[139.0566,36.0121396],[139.0565469,36.0121712]]]},"properties":{"layer":"building","height_m":3.3}},{"type":"Feature","id":"bldg_26800318-170b-4c34-a106-74b9ef2d628d","geometry":{"type":"Polygon","coordinates":[[[139.0566684,36.0094531],[139.056574,36.0094802],[139.0564915,36.0092907],[139.056586,36.0092636],[139.0566684,36.0094531]]]},"properties":{"layer":"building","height_m":9.2}},{"type":"Feature","id":"bldg_9f5e2e49-09c1-416e-af08-75b88297d5e6","geometry":{"type":"Polygon","coordinates":[[[139.0564327,36.0093593],[139.0564058,36.00933],[139.0564576,36.0092987],[139.0564627,36.0093042],[139.0564731,36.0092979],[139.0564888,36.009315],[139.0564822,36.009319],[139.0564883,36.0093256],[139.0564327,36.0093593]]]},"properties":{"layer":"building","height_m":4.1}},{"type":"Feature","id":"bldg_0cb806a9-a7a2-4c85-aaec-76727880f0ae","geometry":{"type":"Polygon","coordinates":[[[139.0564625,36.0145848],[139.0564299,36.0146868],[139.0563533,36.0146706],[139.056386,36.0145686],[139.0564625,36.0145848]]]},"properties":{"layer":"building","height_m":6.0}},{"type":"Feature","id":"bldg_e9b86435-9574-4709-acb7-1b973f3b6e46","geometry":{"type":"Polygon","coordinates":[[[139.0564151,36.0108483],[139.0563822,36.0107984],[139.0564499,36.010769],[139.0564419,36.0107569],[139.0564803,36.0107401],[139.0564746,36.0107315],[139.0565352,36.0107051],[139.0565663,36.0107521],[139.0565552,36.0107569],[139.0565709,36.0107805],[139.0564151,36.0108483]]]},"properties":{"layer":"building","height_m":7.9}},{"type":"Feature","id":"bldg_23937018-e42e-463c-a43d-37c6a77351f7","geometry":{"type":"Polygon","coordinates":[[[139.0563493,36.0128527],[139.0564114,36.0127874],[139.0564739,36.0128266],[139.0564886,36.0128158],[139.0565631,36.0128626],[139.0565042,36.0129245],[139.0564692,36.0129025],[139.0564539,36.0129184],[139.0563493,36.0128527]]]},"properties":{"layer":"building","height_m":7.8}},{"type":"Feature","id":"bldg_12952642-3749-40fc-8fca-51d1ca5cda47","geometry":{"type":"Polygon","coordinates":[[[139.056366,36.0098742],[139.0567046,36.009816],[139.0567392,36.0099488],[139.0564006,36.0100071],[139.056366,36.0098742]]]},"properties":{"layer":"building","height_m":6.6}},{"type":"Feature","id":"bldg_333c8c4e-3c1d-450e-9973-91ce87f110bc","geometry":{"type":"Polygon","coordinates":[[[139.0564375,36.00952],[139.0564342,36.0095125],[139.0563739,36.0095299],[139.0563654,36.0095106],[139.0563326,36.00952],[139.0563277,36.0095087],[139.0563437,36.0095041],[139.0563376,36.0094903],[139.0565499,36.0094293],[139.0565725,36.0094812],[139.0564375,36.00952]]]},"properties":{"layer":"building","height_m":5.9}},{"type":"Feature","id":"bldg_250714f8-a0a1-44a1-ba65-193efcc67d55","geometry":{"type":"Polygon","coordinates":[[[139.0563706,36.0128069],[139.0563286,36.0128556],[139.0562487,36.0128102],[139.0562906,36.0127615],[139.0563706,36.0128069]]]},"properties":{"layer":"building","height_m":3.3}},{"type":"Feature","id":"bldg_9ac13665-1d41-43f3-b457-15f02e5181d2","geometry":{"type":"Polygon","coordinates":[[[139.0562288,36.0139575],[139.0562124,36.0139464],[139.0562331,36.0139261],[139.0562495,36.0139371],[139.0562288,36.0139575]]]},"properties":{"layer":"building","height_m":null}},{"type":"Feature","id":"bldg_500a4aae-c31b-4224-8e43-5bc050fc5f2f","geometry":{"type":"Polygon","coordinates":[[[139.0562,36.0142044],[139.0562213,36.0141546],[139.0562614,36.0141659],[139.0562403,36.0142156],[139.0562,36.0142044]]]},"properties":{"layer":"building","height_m":3.4}},{"type":"Feature","id":"bldg_6770c0d7-2901-4613-bc35-aaee77e5c5ce","geometry":{"type":"Polygon","coordinates":[[[139.0561927,36.0137798],[139.0562454,36.0137186],[139.0563402,36.0137724],[139.0562874,36.0138336],[139.0561927,36.0137798]]]},"properties":{"layer":"building","height_m":7.6}},{"type":"Feature","id":"bldg_61e2cf31-3b1c-4db8-a882-2212cdf273de","geometry":{"type":"Polygon","coordinates":[[[139.0561709,36.0138543],[139.0561959,36.0138205],[139.056251,36.0138474],[139.0562261,36.0138812],[139.0561709,36.0138543]]]},"properties":{"layer":"building","height_m":3.3}},{"type":"Feature","id":"bldg_8cfb4152-4cd1-4913-9099-8af704d5d88c","geometry":{"type":"Polygon","coordinates":[[[139.0561782,36.0126115],[139.0562322,36.0125143],[139.0563249,36.0125483],[139.0562708,36.0126455],[139.0561782,36.0126115]]]},"properties":{"layer":"building","height_m":4.7}},{"type":"Feature","id":"bldg_fe72aeeb-797a-44b4-8611-f3d3e361bab4","geometry":{"type":"Polygon","coordinates":[[[139.0562158,36.0114725],[139.0561738,36.0114298],[139.0562152,36.0114029],[139.0562573,36.0114455],[139.0562158,36.0114725]]]},"properties":{"layer":"building","height_m":3.3}},{"type":"Feature","id":"bldg_876a43a4-1563-4e5a-b424-c9154e19862c","geometry":{"type":"Polygon","coordinates":[[[139.0561982,36.0098139],[139.0562289,36.009803],[139.0562488,36.0098727],[139.0561967,36.0098854],[139.0561876,36.0098585],[139.0562188,36.0098447],[139.0561982,36.0098139]]]},"properties":{"layer":"building","height_m":4.1}},{"type":"Feature","id":"bldg_a5e295a9-d713-4646-ba07-cdd40e93afb0","geometry":{"type":"Polygon","coordinates":[[[139.056136,36.0136778],[139.0561734,36.0136339],[139.0562426,36.0136728],[139.0562052,36.0137167],[139.056136,36.0136778]]]},"properties":{"layer":"building","height_m":3.6}},{"type":"Feature","id":"bldg_b0449ac5-7200-4957-b0ef-6731aba44030","geometry":{"type":"Polygon","coordinates":[[[139.0561323,36.0123852],[139.0561809,36.0123431],[139.0562589,36.0124027],[139.0562103,36.0124447],[139.0561323,36.0123852]]]},"properties":{"layer":"building","height_m":7.9}},{"type":"Feature","id":"bldg_7edc4fdc-623a-4535-946c-61bcade87456","geometry":{"type":"Polygon","coordinates":[[[139.0561561,36.0139269],[139.0561056,36.0139023],[139.0561448,36.0138493],[139.0561953,36.0138739],[139.0561561,36.0139269]]]},"properties":{"layer":"building","height_m":3.0}},{"type":"Feature","id":"bldg_b03a7a33-f8c2-4ee8-87c3-8e52f44072d6","geometry":{"type":"Polygon","coordinates":[[[139.0562503,36.0126823],[139.0560999,36.0126271],[139.0561204,36.0125903],[139.0561782,36.0126115],[139.0562708,36.0126455],[139.0562503,36.0126823]]]},"properties":{"layer":"building","height_m":4.4}},{"type":"Feature","id":"bldg_f79f81c8-246f-4b02-a569-ddb24aa9aef7","geometry":{"type":"Polygon","coordinates":[[[139.0561151,36.010295],[139.0565008,36.010203],[139.0565497,36.010338],[139.0561639,36.0104302],[139.0561151,36.010295]]]},"properties":{"layer":"building","height_m":5.0}},{"type":"Feature","id":"bldg_e2ce3fc1-f4cc-4762-a2ae-697c105d400d","geometry":{"type":"Polygon","coordinates":[[[139.0561175,36.0097924],[139.0561687,36.0097698],[139.0561982,36.0098139],[139.0562188,36.0098447],[139.0561876,36.0098585],[139.0561676,36.0098673],[139.0561175,36.0097924]]]},"properties":{"layer":"building","height_m":3.7}},{"type":"Feature","id":"bldg_ef4b6396-1710-4f2f-9bf1-0c372688032c","geometry":{"type":"Polygon","coordinates":[[[139.0560544,36.0146245],[139.0560859,36.0145245],[139.0561751,36.014543],[139.0561762,36.0145393],[139.0562755,36.0145599],[139.056246,36.0146538],[139.0562068,36.0146457],[139.0562037,36.0146555],[139.0560544,36.0146245]]]},"properties":{"layer":"building","height_m":8.1}},{"type":"Feature","id":"bldg_979de17c-508d-4471-a27c-eb6707b726c2","geometry":{"type":"Polygon","coordinates":[[[139.0561245,36.012492],[139.0561151,36.0124848],[139.0560704,36.0124507],[139.0561391,36.0123913],[139.0561932,36.0124326],[139.0561245,36.012492]]]},"properties":{"layer":"building","height_m":7.5}},{"type":"Feature","id":"bldg_17ffc62e-60d0-4782-8bc8-efd06e300bee","geometry":{"type":"Polygon","coordinates":[[[139.0561272,36.0095665],[139.0560961,36.0094951],[139.0563063,36.0094347],[139.0563118,36.0094472],[139.0563485,36.0094367],[139.0563538,36.0094489],[139.0563182,36.0094591],[139.0563318,36.0094903],[139.0563381,36.0095047],[139.0561272,36.0095665]]]},"properties":{"layer":"building","height_m":7.7}},{"type":"Feature","id":"bldg_a452d9fc-29eb-4d69-8bcc-d170d4fc4018","geometry":{"type":"Polygon","coordinates":[[[139.0561,36.0113262],[139.056092,36.0113315],[139.0560709,36.0113106],[139.0560884,36.011299],[139.0560809,36.0112916],[139.0561436,36.0112501],[139.0561925,36.0112988],[139.0562022,36.0112924],[139.056239,36.0113291],[139.0562083,36.0113495],[139.0562148,36.011356],[139.0561638,36.0113898],[139.0561,36.0113262]]]},"properties":{"layer":"building","height_m":7.1}},{"type":"Feature","id":"bldg_eac4aae9-9fa5-4e4d-8796-6b8b0cbb4b27","geometry":{"type":"Polygon","coordinates":[[[139.0561151,36.0124848],[139.0560749,36.0125196],[139.0560254,36.0124818],[139.0560655,36.012447],[139.0560704,36.0124507],[139.0561151,36.0124848]]]},"properties":{"layer":"building","height_m":null}},{"type":"Feature","id":"bldg_406c4ea2-7398-4859-a7ef-fe6acf5a175c","geometry":{"type":"Polygon","coordinates":[[[139.0561792,36.0098984],[139.0562205,36.0099691],[139.0560915,36.0100189],[139.0560822,36.010003],[139.0560499,36.0100154],[139.0560178,36.0099606],[139.0561792,36.0098984]]]},"properties":{"layer":"building","height_m":4.8}},{"type":"Feature","id":"bldg_da081f62-cb8b-418c-af00-ab5f8806b786","geometry":{"type":"Polygon","coordinates":[[[139.0559569,36.0145372],[139.0559636,36.014518],[139.056073,36.0145435],[139.0560662,36.0145627],[139.0559569,36.0145372]]]},"properties":{"layer":"building","height_m":6.2}},{"type":"Feature","id":"bldg_5bb98e16-fb76-4521-93ee-82db7664af99","geometry":{"type":"Polygon","coordinates":[[[139.0560507,36.0139088],[139.056038,36.0139019],[139.056029,36.0139128],[139.0559952,36.0138943],[139.0560049,36.0138826],[139.0559977,36.0138786],[139.0560265,36.013844],[139.0559595,36.0138072],[139.0560077,36.0137492],[139.0560593,36.0137775],[139.0560673,36.0137678],[139.0561363,36.0138057],[139.0560507,36.0139088]]]},"properties":{"layer":"building","height_m":5.4}},{"type":"Feature","id":"bldg_3b237f1a-a61f-4b16-b298-04beb2d5aa9f","geometry":{"type":"Polygon","coordinates":[[[139.0560688,36.0102809],[139.0560219,36.0101524],[139.0559911,36.0101599],[139.0559757,36.0101176],[139.0560347,36.0101034],[139.0560419,36.0101228],[139.0564245,36.0100305],[139.0564798,36.0101817],[139.0560688,36.0102809]]]},"properties":{"layer":"building","height_m":4.9}},{"type":"Feature","id":"bldg_b815e561-9d7e-45f2-b45c-abccae7efada","geometry":{"type":"Polygon","coordinates":[[[139.0559312,36.014599],[139.0559533,36.0145364],[139.0559569,36.0145372],[139.0560662,36.0145627],[139.0560441,36.0146253],[139.0559312,36.014599]]]},"properties":{"layer":"building","height_m":7.5}},{"type":"Feature","id":"bldg_47ebdc6e-c0bc-4017-92a0-bbdc394ca9c4","geometry":{"type":"Polygon","coordinates":[[[139.0560287,36.0111879],[139.0559439,36.0111161],[139.0562083,36.0109097],[139.0562379,36.0109347],[139.0562172,36.0109508],[139.0562726,36.0109976],[139.0560287,36.0111879]]]},"properties":{"layer":"building","height_m":4.9}},{"type":"Feature","id":"bldg_a7c23c21-3f08-4ced-929b-65c6462a646a","geometry":{"type":"Polygon","coordinates":[[[139.055971,36.0109785],[139.0559259,36.0109309],[139.0559978,36.0108859],[139.0560429,36.0109336],[139.055971,36.0109785]]]},"properties":{"layer":"building","height_m":6.2}},{"type":"Feature","id":"bldg_b5f65fba-a2bd-4829-82d2-6208fbbfa4c2","geometry":{"type":"Polygon","coordinates":[[[139.0559934,36.0114643],[139.0560075,36.011456],[139.056034,36.0114855],[139.0560179,36.011495],[139.0560308,36.0115094],[139.0559678,36.0115468],[139.0559361,36.0115115],[139.0559166,36.0115231],[139.0558876,36.0114909],[139.0559045,36.0114808],[139.0558925,36.0114674],[139.0559601,36.0114273],[139.0559934,36.0114643]]]},"properties":{"layer":"building","height_m":7.8}},{"type":"Feature","id":"bldg_19ea8e1b-6c24-4bef-b7f7-969455d51eb3","geometry":{"type":"Polygon","coordinates":[[[139.0558739,36.0115845],[139.0559157,36.0115571],[139.0559832,36.0116253],[139.0559413,36.0116527],[139.0558739,36.0115845]]]},"properties":{"layer":"building","height_m":4.8}},{"type":"Feature","id":"bldg_75b0b242-f930-447f-a132-89dbed2190df","geometry":{"type":"Polygon","coordinates":[[[139.0559271,36.0140482],[139.0558375,36.0139967],[139.0558615,36.0139692],[139.0559511,36.0140207],[139.0559271,36.0140482]]]},"properties":{"layer":"building","height_m":3.0}},{"type":"Feature","id":"bldg_2f059e63-6137-4f94-97cc-7a1ebc6167cd","geometry":{"type":"Polygon","coordinates":[[[139.0559536,36.0108067],[139.0558957,36.0108369],[139.0558226,36.010744],[139.0558804,36.0107138],[139.0559536,36.0108067]]]},"properties":{"layer":"building","height_m":3.7}},{"type":"Feature","id":"bldg_4a5e41f4-b3ab-4ede-a4e6-ad7ae53cda66","geometry":{"type":"Polygon","coordinates":[[[139.0557964,36.0120943],[139.0558359,36.012071],[139.0558772,36.0121171],[139.0558377,36.0121404],[139.0557964,36.0120943]]]},"properties":{"layer":"building","height_m":3.3}},{"type":"Feature","id":"bldg_a4503b13-97e7-4073-902f-d408f7a8356e","geometry":{"type":"Polygon","coordinates":[[[139.0557671,36.0141132],[139.0558412,36.0140305],[139.0559052,36.0140685],[139.055831,36.0141512],[139.0557671,36.0141132]]]},"properties":{"layer":"building","height_m":7.3}},{"type":"Feature","id":"bldg_d0ca2774-d6e3-49ce-904a-035e6683517a","geometry":{"type":"Polygon","coordinates":[[[139.0557795,36.0112796],[139.0558568,36.0112308],[139.0559005,36.0112766],[139.0558233,36.0113253],[139.0557795,36.0112796]]]},"properties":{"layer":"building","height_m":3.9}},{"type":"Feature","id":"bldg_39f19b3b-9d21-417c-837d-51ca3e7158ed","geometry":{"type":"Polygon","coordinates":[[[139.0557647,36.0116557],[139.0558739,36.0115845],[139.0559413,36.0116527],[139.0558226,36.0117217],[139.0557647,36.0116557]]]},"properties":{"layer":"building","height_m":5.9}},{"type":"Feature","id":"bldg_c81f8f22-0ce7-4e0f-a4a5-e1f20ed06ef5","geometry":{"type":"Polygon","coordinates":[[[139.0558394,36.011905],[139.0557891,36.0118467],[139.0557651,36.0118188],[139.0557547,36.0118068],[139.0559281,36.0117081],[139.0559867,36.011776],[139.0558969,36.0118271],[139.055923,36.0118574],[139.0558394,36.011905]]]},"properties":{"layer":"building","height_m":8.4}},{"type":"Feature","id":"bldg_c158ba38-4e00-4f7f-be82-bb8e6d71919d","geometry":{"type":"Polygon","coordinates":[[[139.0557365,36.012705],[139.0558341,36.0125296],[139.0562622,36.0126867],[139.0562005,36.0127977],[139.0561465,36.0127779],[139.0561107,36.0128424],[139.0557365,36.012705]]]},"properties":{"layer":"building","height_m":8.3}},{"type":"Feature","id":"bldg_78d42e88-e6bd-4bb0-ad79-b2f61fcf8f86","geometry":{"type":"Polygon","coordinates":[[[139.0557891,36.0118467],[139.0557555,36.0118659],[139.0557314,36.0118379],[139.0557651,36.0118188],[139.0557891,36.0118467]]]},"properties":{"layer":"building","height_m":7.0}},{"type":"Feature","id":"bldg_901eee5b-16cc-4b8d-a58d-7363cac41d34","geometry":{"type":"Polygon","coordinates":[[[139.0557471,36.0100722],[139.0558426,36.0100534],[139.0558492,36.0100753],[139.0557536,36.0100941],[139.0557471,36.0100722]]]},"properties":{"layer":"building","height_m":null}},{"type":"Feature","id":"bldg_35be1ca0-7432-4960-bcaa-c3f29daabdfa","geometry":{"type":"Polygon","coordinates":[[[139.055792,36.0095884],[139.0557475,36.0095707],[139.0557633,36.0095446],[139.0558078,36.0095623],[139.055792,36.0095884]]]},"properties":{"layer":"building","height_m":null}},{"type":"Feature","id":"bldg_b7ede4bd-6621-43e4-83c1-2c1b0f40da2d","geometry":{"type":"Polygon","coordinates":[[[139.0558145,36.0099144],[139.055812,36.0099047],[139.0557718,36.0099116],[139.055768,36.0098968],[139.0557484,36.0099002],[139.0557391,36.0098646],[139.0557541,36.009862],[139.0557522,36.0098545],[139.0559405,36.009822],[139.0559583,36.0098896],[139.0558145,36.0099144]]]},"properties":{"layer":"building","height_m":8.6}},{"type":"Feature","id":"bldg_63e1de81-d4b9-4912-b1b9-377a00611ae1","geometry":{"type":"Polygon","coordinates":[[[139.0556838,36.0127792],[139.0556863,36.0127381],[139.0557393,36.0127402],[139.0557368,36.0127813],[139.0556838,36.0127792]]]},"properties":{"layer":"building","height_m":5.5}},{"type":"Feature","id":"bldg_574b25d3-95d1-47e2-bb1c-af08e550b8af","geometry":{"type":"Polygon","coordinates":[[[139.0556842,36.0108788],[139.055703,36.0108665],[139.055728,36.0108917],[139.0557092,36.010904],[139.0556842,36.0108788]]]},"properties":{"layer":"building","height_m":3.2}},{"type":"Feature","id":"bldg_a9a4229a-dd4c-4fee-911a-ade2513c20f2","geometry":{"type":"Polygon","coordinates":[[[139.0556733,36.0118614],[139.0557086,36.0118387],[139.0557462,36.0118772],[139.0557109,36.0118999],[139.0556733,36.0118614]]]},"properties":{"layer":"building","height_m":3.2}},{"type":"Feature","id":"bldg_c299ef94-ef88-4f47-9ec1-3a1d1380e348","geometry":{"type":"Polygon","coordinates":[[[139.0557084,36.0122203],[139.0556692,36.012176],[139.0557537,36.0121267],[139.0557929,36.012171],[139.0557084,36.0122203]]]},"properties":{"layer":"building","height_m":3.2}},{"type":"Feature","id":"bldg_32c6a313-09f0-42b2-8b56-eb302e7ba16b","geometry":{"type":"Polygon","coordinates":[[[139.0557145,36.0099394],[139.0557286,36.009961],[139.055695,36.0099755],[139.0556809,36.009954],[139.0557145,36.0099394]]]},"properties":{"layer":"building","height_m":6.1}},{"type":"Feature","id":"bldg_94c3f8cd-16f4-4542-b087-c04859fa0de5","geometry":{"type":"Polygon","coordinates":[[[139.0556844,36.0127344],[139.0556717,36.0127629],[139.0556447,36.0127548],[139.0556574,36.0127264],[139.0556844,36.0127344]]]},"properties":{"layer":"building","height_m":9.0}},{"type":"Feature","id":"bldg_a00cabaf-2faa-40ff-9fff-0398bd3e683b","geometry":{"type":"Polygon","coordinates":[[[139.055625,36.0142809],[139.0556691,36.0142366],[139.0556997,36.0142568],[139.0556555,36.014301],[139.055625,36.0142809]]]},"properties":{"layer":"building","height_m":null}},{"type":"Feature","id":"bldg_0f8dcc02-dede-48cb-bf04-1f8a17ece969","geometry":{"type":"Polygon","coordinates":[[[139.0556835,36.0139505],[139.0557252,36.0139759],[139.0556644,36.0140418],[139.0556226,36.0140164],[139.0556835,36.0139505]]]},"properties":{"layer":"building","height_m":5.5}},{"type":"Feature","id":"bldg_2b58169a-05d2-4ea5-975c-c8a033768bcb","geometry":{"type":"Polygon","coordinates":[[[139.0556956,36.0093971],[139.0556945,36.009392],[139.0556714,36.0093953],[139.0556552,36.0093217],[139.0557185,36.0093124],[139.0557166,36.0093035],[139.055857,36.0092762],[139.055867,36.0093216],[139.0558796,36.0093197],[139.0558887,36.0093612],[139.0558787,36.0093626],[139.0558804,36.0093702],[139.0556956,36.0093971]]]},"properties":{"layer":"building","height_m":6.5}},{"type":"Feature","id":"bldg_2716cf02-14e4-4401-b47b-818cf25eae65","geometry":{"type":"Polygon","coordinates":[[[139.0556391,36.0140387],[139.0557833,36.0141304],[139.0557085,36.014208],[139.0555643,36.0141164],[139.0556391,36.0140387]]]},"properties":{"layer":"building","height_m":6.9}},{"type":"Feature","id":"bldg_17cbed2e-1a50-42ac-83d0-d7ec047299fd","geometry":{"type":"Polygon","coordinates":[[[139.0557083,36.0111228],[139.0557274,36.0111436],[139.055595,36.0112242],[139.0555759,36.0112034],[139.0557083,36.0111228]]]},"properties":{"layer":"building","height_m":5.1}},{"type":"Feature","id":"bldg_e8b56d44-887c-4956-8862-d51d038e98ae","geometry":{"type":"Polygon","coordinates":[[[139.0556285,36.0107277],[139.0555766,36.0106683],[139.0557074,36.0105927],[139.0557594,36.0106522],[139.0556285,36.0107277]]]},"properties":{"layer":"building","height_m":5.5}},{"type":"Feature","id":"bldg_d1e135ae-c48a-49c2-ba9c-ea8bed6df21b","geometry":{"type":"Polygon","coordinates":[[[139.055627,36.0107281],[139.0556013,36.0107429],[139.0555699,36.010707],[139.0555956,36.0106922],[139.055627,36.0107281]]]},"properties":{"layer":"building","height_m":4.9}},{"type":"Feature","id":"bldg_419a01f8-6509-4a86-9bc0-eac595a0d79e","geometry":{"type":"Polygon","coordinates":[[[139.0556521,36.0093482],[139.0555981,36.0093578],[139.0555795,36.0092896],[139.0556335,36.0092798],[139.0556521,36.0093482]]]},"properties":{"layer":"building","height_m":4.1}},{"type":"Feature","id":"bldg_e6e13831-d533-49d6-b895-60c585c7b778","geometry":{"type":"Polygon","coordinates":[[[139.0556205,36.0139981],[139.0555262,36.0139445],[139.0556137,36.0138428],[139.0557081,36.0138964],[139.0556205,36.0139981]]]},"properties":{"layer":"building","height_m":8.2}},{"type":"Feature","id":"bldg_86c1c45c-7630-4d79-9ce1-753049fff6a7","geometry":{"type":"Polygon","coordinates":[[[139.0555584,36.0099192],[139.0556398,36.0098938],[139.0556578,36.009932],[139.0555764,36.0099573],[139.0555584,36.0099192]]]},"properties":{"layer":"building","height_m":5.2}},{"type":"Feature","id":"bldg_5f91ccc6-b208-4f55-8297-8f92ac7c84c9","geometry":{"type":"Polygon","coordinates":[[[139.0555299,36.0101487],[139.0556528,36.0101241],[139.055667,36.0101708],[139.0555441,36.0101954],[139.0555299,36.0101487]]]},"properties":{"layer":"building","height_m":3.5}},{"type":"Feature","id":"bldg_dc883574-63a4-4659-9583-4edd58e591e6","geometry":{"type":"Polygon","coordinates":[[[139.0555012,36.0100841],[139.0557249,36.0100384],[139.0557401,36.0100877],[139.0555165,36.0101333],[139.0555012,36.0100841]]]},"properties":{"layer":"building","height_m":3.6}},{"type":"Feature","id":"bldg_9c1e8879-05f9-4b3d-b4c0-e9bb8688be23","geometry":{"type":"Polygon","coordinates":[[[139.0555679,36.0099733],[139.0555345,36.0099817],[139.0555259,36.0099592],[139.0555151,36.009962],[139.0555003,36.0099236],[139.0555444,36.0099123],[139.0555679,36.0099733]]]},"properties":{"layer":"building","height_m":5.9}},{"type":"Feature","id":"bldg_e7c62c7e-ee6c-45c6-a341-2e1bfec87fe0","geometry":{"type":"Polygon","coordinates":[[[139.0556815,36.0117462],[139.0555594,36.0118246],[139.0554823,36.0117453],[139.0556044,36.0116669],[139.0556815,36.0117462]]]},"properties":{"layer":"building","height_m":7.8}},{"type":"Feature","id":"bldg_b4eb127a-8d66-482f-92ec-0ba454b38412","geometry":{"type":"Polygon","coordinates":[[[139.0555478,36.0139699],[139.0556107,36.0140051],[139.0555142,36.0141186],[139.0554514,36.0140834],[139.0555478,36.0139699]]]},"properties":{"layer":"building","height_m":7.9}},{"type":"Feature","id":"bldg_8fc38faa-aad7-46bc-bd3d-19c7c8fedd71","geometry":{"type":"Polygon","coordinates":[[[139.0554871,36.0100643],[139.0554694,36.0100122],[139.0556436,36.0099733],[139.0556613,36.0100255],[139.0554871,36.0100643]]]},"properties":{"layer":"building","height_m":3.4}},{"type":"Feature","id":"bldg_1c838a43-8b67-45bb-b8d4-68479289dad6","geometry":{"type":"Polygon","coordinates":[[[139.0554427,36.0119861],[139.0556112,36.0119096],[139.0556378,36.0119481],[139.0554693,36.0120246],[139.0554427,36.0119861]]]},"properties":{"layer":"building","height_m":4.0}},{"type":"Feature","id":"bldg_3bc98fff-6332-4aa8-9fc2-51b697d39884","geometry":{"type":"Polygon","coordinates":[[[139.0554053,36.0101167],[139.0554633,36.0100993],[139.0554817,36.0101401],[139.0554237,36.0101574],[139.0554053,36.0101167]]]},"properties":{"layer":"building","height_m":6.9}},{"type":"Feature","id":"bldg_e21cbff1-8613-4761-8c76-0958595422ba","geometry":{"type":"Polygon","coordinates":[[[139.0553824,36.0094415],[139.0555714,36.0093922],[139.0556071,36.0094825],[139.0554181,36.0095319],[139.0553824,36.0094415]]]},"properties":{"layer":"building","height_m":7.6}},{"type":"Feature","id":"bldg_6d89d959-169f-4560-bb7c-9f6f7bc26416","geometry":{"type":"Polygon","coordinates":[[[139.0554444,36.0100611],[139.0553858,36.0100903],[139.0553293,36.0100155],[139.0553879,36.0099863],[139.0554444,36.0100611]]]},"properties":{"layer":"building","height_m":6.6}},{"type":"Feature","id":"bldg_5e16a473-b4cd-402a-a9e5-6d2820afc6fc","geometry":{"type":"Polygon","coordinates":[[[139.0553417,36.0139958],[139.055281,36.0139568],[139.0553643,36.0138712],[139.0554249,36.0139101],[139.0553417,36.0139958]]]},"properties":{"layer":"building","height_m":3.9}},{"type":"Feature","id":"bldg_73ebb42c-8aba-4f8e-b44a-844dc15a3f4f","geometry":{"type":"Polygon","coordinates":[[[139.0553184,36.0095117],[139.055327,36.0095092],[139.0553244,36.0095033],[139.0553909,36.0094837],[139.0554332,36.0095785],[139.0553581,36.0096007],[139.0553184,36.0095117]]]},"properties":{"layer":"building","height_m":7.1}},{"type":"Feature","id":"bldg_d05a9898-d186-4b2e-8d55-91e5d7f1b85b","geometry":{"type":"Polygon","coordinates":[[[139.0555201,36.0108643],[139.0554671,36.0108961],[139.055425,36.0109214],[139.0553235,36.0108099],[139.0553301,36.010806],[139.0553011,36.0107742],[139.0553841,36.0107243],[139.0553896,36.0107209],[139.0555201,36.0108643]]]},"properties":{"layer":"building","height_m":9.1}},{"type":"Feature","id":"bldg_2e2c6040-648c-485f-af7e-15587bd21be1","geometry":{"type":"Polygon","coordinates":[[[139.0553966,36.0101061],[139.0553474,36.0101303],[139.05528,36.0100397],[139.0553293,36.0100155],[139.0553966,36.0101061]]]},"properties":{"layer":"building","height_m":4.8}},{"type":"Feature","id":"bldg_cc412609-de74-4b30-aadb-31844e27541c","geometry":{"type":"Polygon","coordinates":[[[139.0554671,36.0108961],[139.0554811,36.0109114],[139.055424,36.0109458],[139.0552582,36.010764],[139.0553629,36.010701],[139.0553841,36.0107243],[139.0553011,36.0107742],[139.0553301,36.010806],[139.0553235,36.0108099],[139.055425,36.0109214],[139.0554671,36.0108961]]]},"properties":{"layer":"building","height_m":3.4}},{"type":"Feature","id":"bldg_82a73de9-b915-41da-8d2b-fae610af93ba","geometry":{"type":"Polygon","coordinates":[[[139.0556495,36.0110073],[139.0557388,36.0111043],[139.0557083,36.0111228],[139.0555759,36.0112034],[139.055554,36.0112167],[139.0555776,36.0112467],[139.055388,36.0113785],[139.0552526,36.0112314],[139.0553181,36.0111955],[139.0553037,36.011178],[139.055283,36.0111893],[139.0552658,36.0111684],[139.0553836,36.011104],[139.0554111,36.0110763],[139.0556137,36.0109529],[139.0556586,36.0110017],[139.0556495,36.0110073]]]},"properties":{"layer":"building","height_m":8.8}},{"type":"Feature","id":"bldg_829b11b2-f2fd-4c21-a44c-eaf3db60381d","geometry":{"type":"Polygon","coordinates":[[[139.055222,36.0140837],[139.0553248,36.0139986],[139.0554673,36.0141123],[139.0553645,36.0141973],[139.055222,36.0140837]]]},"properties":{"layer":"building","height_m":8.2}},{"type":"Feature","id":"bldg_42ea0264-1488-4b6f-b1ed-a6ed005f9757","geometry":{"type":"Polygon","coordinates":[[[139.0554216,36.0123225],[139.0553395,36.012261],[139.0553281,36.012271],[139.0553804,36.0123102],[139.0553695,36.0123198],[139.0553795,36.0123273],[139.05532,36.0123796],[139.0552014,36.0122907],[139.0552353,36.0122608],[139.0552291,36.0122561],[139.0553245,36.0121721],[139.0553729,36.0122083],[139.0553786,36.0122033],[139.0554748,36.0122755],[139.0554216,36.0123225]]]},"properties":{"layer":"building","height_m":7.7}},{"type":"Feature","id":"bldg_544d1f61-ce0f-47fc-80c4-a08a7ca7dbf6","geometry":{"type":"Polygon","coordinates":[[[139.0551827,36.014046],[139.0552325,36.0139984],[139.0552752,36.0140278],[139.0552255,36.0140754],[139.0551827,36.014046]]]},"properties":{"layer":"building","height_m":3.3}},{"type":"Feature","id":"bldg_d8004c92-46ff-4f0b-b83c-a64ce4e73586","geometry":{"type":"Polygon","coordinates":[[[139.0552716,36.0141263],[139.0552408,36.014154],[139.0551782,36.014108],[139.055209,36.0140803],[139.0552716,36.0141263]]]},"properties":{"layer":"building","height_m":5.1}},{"type":"Feature","id":"bldg_d51f14ac-0f5b-46ad-91a3-9542f1866106","geometry":{"type":"Polygon","coordinates":[[[139.0552204,36.0139099],[139.0552624,36.013934],[139.0552204,36.0139821],[139.0551784,36.0139579],[139.0552204,36.0139099]]]},"properties":{"layer":"building","height_m":4.5}},{"type":"Feature","id":"bldg_6dd7f30c-6f97-46ac-a536-228f450ec069","geometry":{"type":"Polygon","coordinates":[[[139.0551796,36.0106692],[139.0552379,36.0106288],[139.0552876,36.0106761],[139.0552293,36.0107165],[139.0551796,36.0106692]]]},"properties":{"layer":"building","height_m":3.7}},{"type":"Feature","id":"bldg_da2b4153-d2e9-4a5d-8501-a4340da39f0a","geometry":{"type":"Polygon","coordinates":[[[139.0551825,36.0101871],[139.0552669,36.0101475],[139.0552812,36.0101677],[139.0551967,36.0102072],[139.0551825,36.0101871]]]},"properties":{"layer":"building","height_m":null}},{"type":"Feature","id":"bldg_3a412b76-699a-4391-957a-5b114789606e","geometry":{"type":"Polygon","coordinates":[[[139.0551817,36.0094691],[139.0552801,36.0094378],[139.055288,36.0094542],[139.0552993,36.0094506],[139.0553162,36.0094856],[139.0552065,36.0095206],[139.0551817,36.0094691]]]},"properties":{"layer":"building","height_m":6.3}},{"type":"Feature","id":"bldg_ca99ade6-e67c-4a94-85d1-f3ec681d4139","geometry":{"type":"Polygon","coordinates":[[[139.0552645,36.0123466],[139.0552179,36.0123922],[139.0551493,36.0123459],[139.0551959,36.0123004],[139.0552645,36.0123466]]]},"properties":{"layer":"building","height_m":6.4}},{"type":"Feature","id":"bldg_d0da6f6b-e7fb-4b6b-802d-122132eb985a","geometry":{"type":"Polygon","coordinates":[[[139.055224,36.0098416],[139.055264,36.0098994],[139.0552063,36.0099258],[139.0551662,36.0098679],[139.055224,36.0098416]]]},"properties":{"layer":"building","height_m":8.2}},{"type":"Feature","id":"bldg_382460d4-9de9-4715-8220-0149786bbb0c","geometry":{"type":"Polygon","coordinates":[[[139.055168,36.0094068],[139.0552833,36.0093687],[139.0553107,36.0094235],[139.0551954,36.0094616],[139.055168,36.0094068]]]},"properties":{"layer":"building","height_m":4.0}},{"type":"Feature","id":"bldg_627df66e-ee72-4167-83dc-07db80aacf36","geometry":{"type":"Polygon","coordinates":[[[139.0551399,36.0122876],[139.0551719,36.0123125],[139.0551442,36.012336],[139.0551123,36.0123112],[139.0551399,36.0122876]]]},"properties":{"layer":"building","height_m":4.7}},{"type":"Feature","id":"bldg_56698bd3-b9f5-4b78-b9d6-96c73d836aea","geometry":{"type":"Polygon","coordinates":[[[139.055104,36.0103986],[139.0551414,36.0103758],[139.0551625,36.0103984],[139.0551251,36.0104213],[139.055104,36.0103986]]]},"properties":{"layer":"building","height_m":3.3}},{"type":"Feature","id":"bldg_11f3479d-1bbd-48ed-86ae-60812b63eaff","geometry":{"type":"Polygon","coordinates":[[[139.0550803,36.0121798],[139.055125,36.0121462],[139.0551989,36.0122112],[139.0551786,36.0122264],[139.055181,36.0122285],[139.0551565,36.0122468],[139.0550803,36.0121798]]]},"properties":{"layer":"building","height_m":3.0}},{"type":"Feature","id":"bldg_b88b596d-96a1-42b2-aecb-9f3c2c9abda7","geometry":{"type":"Polygon","coordinates":[[[139.0550843,36.0122142],[139.0551261,36.0122459],[139.0550896,36.0122777],[139.0550478,36.012246],[139.0550843,36.0122142]]]},"properties":{"layer":"building","height_m":5.9}},{"type":"Feature","id":"bldg_87f54d3f-031b-43d6-899b-f57a51bcb3fe","geometry":{"type":"Polygon","coordinates":[[[139.0551872,36.0100326],[139.0552622,36.0101347],[139.0551633,36.0101827],[139.0551361,36.0101456],[139.0551116,36.0101575],[139.0550637,36.0100923],[139.0551872,36.0100326]]]},"properties":{"layer":"building","height_m":7.6}},{"type":"Feature","id":"bldg_3218342c-f1e2-4359-8317-ea71b208017d","geometry":{"type":"Polygon","coordinates":[[[139.0549712,36.0140165],[139.0550223,36.0139603],[139.0549875,36.0139393],[139.0550292,36.0138935],[139.0550637,36.0139142],[139.0550698,36.0139075],[139.0551026,36.0139271],[139.055095,36.0139355],[139.0551062,36.0139422],[139.0550949,36.0139547],[139.0551899,36.0140117],[139.0551651,36.0140389],[139.0551499,36.0140297],[139.0550946,36.0140906],[139.0549712,36.0140165]]]},"properties":{"layer":"building","height_m":7.0}},{"type":"Feature","id":"bldg_f25c0cbb-7c54-466e-87bc-62cd14f248e4","geometry":{"type":"Polygon","coordinates":[[[139.0551892,36.0105854],[139.0551627,36.0105589],[139.0550998,36.0106005],[139.0551389,36.0106395],[139.0551304,36.0106452],[139.0551385,36.0106533],[139.0550846,36.0106889],[139.055018,36.0106225],[139.0550239,36.0106187],[139.0549929,36.0105878],[139.0551204,36.0105034],[139.0551295,36.0105125],[139.05514,36.0105056],[139.055158,36.0105265],[139.0552142,36.0104887],[139.0552625,36.0105369],[139.0551892,36.0105854]]]},"properties":{"layer":"building","height_m":8.6}},{"type":"Feature","id":"bldg_ef20e0c6-9d86-4cd7-b12e-1954c2baf0e4","geometry":{"type":"Polygon","coordinates":[[[139.0550276,36.0114811],[139.0549805,36.0114319],[139.0550688,36.0113762],[139.0551159,36.0114254],[139.0550276,36.0114811]]]},"properties":{"layer":"building","height_m":3.8}},{"type":"Feature","id":"bldg_ddd3471a-a5cb-4551-ac5d-83ad9f5942fb","geometry":{"type":"Polygon","coordinates":[[[139.0550954,36.0104646],[139.0549952,36.0105359],[139.0549281,36.0104737],[139.0550284,36.0104023],[139.0550954,36.0104646]]]},"properties":{"layer":"building","height_m":6.0}},{"type":"Feature","id":"bldg_691059aa-f02d-4d1a-9385-3fb889f62dd6","geometry":{"type":"Polygon","coordinates":[[[139.0548884,36.0107002],[139.0549265,36.0106831],[139.0549431,36.0107079],[139.0549051,36.0107248],[139.0548884,36.0107002]]]},"properties":{"layer":"building","height_m":null}},{"type":"Feature","id":"bldg_133b38a8-c3c6-43cd-8321-b75993a889a7","geometry":{"type":"Polygon","coordinates":[[[139.0550193,36.0114894],[139.0549447,36.0115243],[139.0548762,36.0114276],[139.0549508,36.0113927],[139.0550193,36.0114894]]]},"properties":{"layer":"building","height_m":5.3}},{"type":"Feature","id":"bldg_20590e0a-a81a-4ed8-8f26-76d1a87ca451","geometry":{"type":"Polygon","coordinates":[[[139.0548969,36.0140114],[139.054849,36.0139842],[139.0548739,36.0139554],[139.0548587,36.0139467],[139.054896,36.0139034],[139.0549136,36.0139135],[139.0549508,36.0138702],[139.0549923,36.0138938],[139.0549773,36.0139112],[139.0549813,36.0139134],[139.0548969,36.0140114]]]},"properties":{"layer":"building","height_m":4.1}},{"type":"Feature","id":"bldg_589c5548-6000-4d1b-8cf6-80bdc98d9ca6","geometry":{"type":"Polygon","coordinates":[[[139.0548918,36.0140317],[139.0550511,36.0141133],[139.0550044,36.0141734],[139.0548452,36.0140919],[139.0548918,36.0140317]]]},"properties":{"layer":"building","height_m":8.9}},{"type":"Feature","id":"bldg_a6451fbb-0bcd-4f07-b09f-97784b88ea80","geometry":{"type":"Polygon","coordinates":[[[139.0549007,36.0104543],[139.0548492,36.0103973],[139.0549393,36.0103436],[139.0549907,36.0104006],[139.0549007,36.0104543]]]},"properties":{"layer":"building","height_m":8.0}},{"type":"Feature","id":"bldg_7f9593b4-caec-41bf-826e-346e9f937e1e","geometry":{"type":"Polygon","coordinates":[[[139.0549937,36.0103653],[139.0548457,36.0102364],[139.0549228,36.0101779],[139.054981,36.0102285],[139.0550064,36.0102093],[139.0550494,36.0102483],[139.0550385,36.0102567],[139.0550844,36.0102967],[139.0549937,36.0103653]]]},"properties":{"layer":"building","height_m":6.0}},{"type":"Feature","id":"bldg_751fdabe-1bcf-4fbe-94fb-03003eb08294","geometry":{"type":"Polygon","coordinates":[[[139.0549507,36.0119889],[139.0548584,36.0120534],[139.0547913,36.01199],[139.0548834,36.0119255],[139.0549507,36.0119889]]]},"properties":{"layer":"building","height_m":4.4}},{"type":"Feature","id":"bldg_58c13a59-5c18-4f94-914d-414c45c11a58","geometry":{"type":"Polygon","coordinates":[[[139.0549308,36.0103222],[139.0548443,36.0103887],[139.054797,36.0103478],[139.0548361,36.0103175],[139.0548231,36.0103042],[139.0548314,36.0102987],[139.0548259,36.0102939],[139.0548641,36.0102647],[139.0549308,36.0103222]]]},"properties":{"layer":"building","height_m":5.0}},{"type":"Feature","id":"bldg_f11b8d96-d956-47f9-885e-9739bd2ba44f","geometry":{"type":"Polygon","coordinates":[[[139.0531482,36.0109042],[139.0532665,36.0108816],[139.0532963,36.0109845],[139.0531781,36.0110071],[139.0531482,36.0109042]]]},"properties":{"layer":"building","height_m":6.0}},{"type":"Feature","id":"bldg_a8b90151-e2ba-4402-99c9-ec219e099d75","geometry":{"type":"Polygon","coordinates":[[[139.052994,36.0096509],[139.0528275,36.0095664],[139.0528843,36.0094923],[139.053012,36.0095571],[139.0530278,36.0095367],[139.0530665,36.0095564],[139.052994,36.0096509]]]},"properties":{"layer":"building","height_m":6.5}},{"type":"Feature","id":"bldg_2e9d35d4-8e54-4d31-a1c9-d3a9c6f92445","geometry":{"type":"Polygon","coordinates":[[[139.0528772,36.0099006],[139.0527834,36.0098232],[139.0528416,36.0097767],[139.0528946,36.0098205],[139.0529306,36.0097917],[139.0529713,36.0098253],[139.0528772,36.0099006]]]},"properties":{"layer":"building","height_m":9.2}},{"type":"Feature","id":"bldg_fc28dd5b-28e6-4fbe-aa8a-647992b54eee","geometry":{"type":"Polygon","coordinates":[[[139.053292,36.0125347],[139.0532495,36.0125085],[139.0532723,36.0124842],[139.0533147,36.0125104],[139.053292,36.0125347]]]},"properties":{"layer":"building","height_m":null}},{"type":"Feature","id":"bldg_b676c955-e35c-4b19-be34-626fac97004b","geometry":{"type":"Polygon","coordinates":[[[139.0527142,36.0113589],[139.0528113,36.0113238],[139.0528912,36.0114698],[139.052794,36.0115049],[139.0527142,36.0113589]]]},"properties":{"layer":"building","height_m":8.9}},{"type":"Feature","id":"bldg_14b9440c-cd45-4b9f-aa12-7b17352f0700","geometry":{"type":"Polygon","coordinates":[[[139.0531212,36.0109366],[139.0531391,36.010996],[139.0530759,36.0110085],[139.053058,36.0109491],[139.0531212,36.0109366]]]},"properties":{"layer":"building","height_m":4.1}},{"type":"Feature","id":"bldg_d2fe1708-9269-4147-a407-8cbc7b5d7b49","geometry":{"type":"Polygon","coordinates":[[[139.0529864,36.0096717],[139.0530613,36.0095858],[139.0531462,36.0096321],[139.053177,36.009662],[139.0531294,36.0096912],[139.0530678,36.0097169],[139.0529864,36.0096717]]]},"properties":{"layer":"building","height_m":6.7}},{"type":"Feature","id":"bldg_9bee39a0-2942-4608-a3fe-c3ce2d4b9f42","geometry":{"type":"Polygon","coordinates":[[[139.0547088,36.0105957],[139.0547265,36.0105751],[139.0547087,36.0105649],[139.0547393,36.0105294],[139.0548108,36.0105701],[139.0547625,36.0106262],[139.0547088,36.0105957]]]},"properties":{"layer":"building","height_m":4.6}},{"type":"Feature","id":"bldg_b807b653-e6b7-4ef7-8708-fc92ff5e6cf6","geometry":{"type":"Polygon","coordinates":[[[139.053105,36.0126286],[139.0531081,36.0126252],[139.0530784,36.0126071],[139.053124,36.0125578],[139.0531488,36.012573],[139.0531731,36.0125467],[139.0532148,36.0125721],[139.0532211,36.0125653],[139.0532558,36.0125865],[139.0532475,36.0125954],[139.0533123,36.012635],[139.0532413,36.0127118],[139.053105,36.0126286]]]},"properties":{"layer":"building","height_m":7.5}},{"type":"Feature","id":"bldg_4879fa93-1b9d-48dc-b019-3212e5a4e506","geometry":{"type":"Polygon","coordinates":[[[139.0536277,36.0099401],[139.0535287,36.0100154],[139.0535124,36.0100012],[139.0535217,36.0099942],[139.0534924,36.0099688],[139.0535304,36.0099399],[139.05352,36.0099308],[139.0535717,36.0098915],[139.0536277,36.0099401]]]},"properties":{"layer":"building","height_m":3.7}},{"type":"Feature","id":"bldg_68b6e247-9818-44a6-aaf6-ad6d97b70f61","geometry":{"type":"Polygon","coordinates":[[[139.0528394,36.0115802],[139.0528088,36.0115151],[139.0529768,36.011463],[139.0530075,36.011528],[139.0528394,36.0115802]]]},"properties":{"layer":"building","height_m":6.7}},{"type":"Feature","id":"bldg_8d63b526-6e59-4f36-b0cd-d045a39c1de3","geometry":{"type":"Polygon","coordinates":[[[139.0532475,36.0117432],[139.0532415,36.0117319],[139.0532104,36.0117428],[139.0531837,36.0116924],[139.053309,36.0116484],[139.0533419,36.0117101],[139.0532475,36.0117432]]]},"properties":{"layer":"building","height_m":6.0}},{"type":"Feature","id":"bldg_1b9ef352-2dbe-40f6-bc9c-6b333a2d25f6","geometry":{"type":"Polygon","coordinates":[[[139.0543032,36.0094395],[139.0542516,36.0094804],[139.0542024,36.0094394],[139.054254,36.0093985],[139.0543032,36.0094395]]]},"properties":{"layer":"building","height_m":4.6}},{"type":"Feature","id":"bldg_6dcc3d0c-2bb5-4341-a5fd-e1e3fc61c402","geometry":{"type":"Polygon","coordinates":[[[139.0532379,36.0108147],[139.0532478,36.0108481],[139.0531893,36.0108594],[139.0531795,36.0108261],[139.0532379,36.0108147]]]},"properties":{"layer":"building","height_m":7.7}},{"type":"Feature","id":"bldg_12f138e1-0ee8-42ad-8f42-5f84ea661ab6","geometry":{"type":"Polygon","coordinates":[[[139.0538208,36.0109488],[139.053873,36.0109503],[139.0538702,36.0110167],[139.053988,36.0110767],[139.0539578,36.0111158],[139.0538167,36.0110452],[139.0538208,36.0109488]]]},"properties":{"layer":"building","height_m":3.9}},{"type":"Feature","id":"bldg_3fbf389c-2175-4716-8f47-d909b1b55328","geometry":{"type":"Polygon","coordinates":[[[139.053546,36.0123551],[139.0534473,36.012391],[139.0534279,36.0123558],[139.0534356,36.0123529],[139.0534003,36.012289],[139.0534646,36.0122655],[139.053469,36.0122734],[139.0534956,36.0122637],[139.053546,36.0123551]]]},"properties":{"layer":"building","height_m":7.3}},{"type":"Feature","id":"bldg_7269735c-e4af-4816-acf1-53ca4721037e","geometry":{"type":"Polygon","coordinates":[[[139.053241,36.0108141],[139.0532379,36.0108147],[139.0531795,36.0108261],[139.0531245,36.0108368],[139.0530928,36.010729],[139.0530881,36.0107132],[139.0532047,36.0106906],[139.053241,36.0108141]]]},"properties":{"layer":"building","height_m":8.4}},{"type":"Feature","id":"bldg_43e44860-c526-4419-a1b0-9eeb379dcced","geometry":{"type":"Polygon","coordinates":[[[139.0548356,36.0120786],[139.0548741,36.0120544],[139.0548809,36.0120617],[139.0548975,36.0120501],[139.0550136,36.0121614],[139.0548875,36.0122483],[139.0548445,36.0122071],[139.0548189,36.0121907],[139.0546908,36.0120558],[139.054768,36.0120075],[139.0548356,36.0120786]]]},"properties":{"layer":"building","height_m":8.0}},{"type":"Feature","id":"bldg_5cea9de8-a75f-4fc5-9931-c5224d603f09","geometry":{"type":"Polygon","coordinates":[[[139.0547404,36.0139336],[139.0547836,36.0138816],[139.0548575,36.0139221],[139.0548143,36.0139741],[139.0547404,36.0139336]]]},"properties":{"layer":"building","height_m":3.5}},{"type":"Feature","id":"bldg_7820e30d-1062-4a9e-85d7-5745ad855e49","geometry":{"type":"Polygon","coordinates":[[[139.0533702,36.0112179],[139.053445,36.0111906],[139.0534603,36.0112184],[139.0534982,36.0112045],[139.0535275,36.0112576],[139.0534148,36.0112987],[139.0533702,36.0112179]]]},"properties":{"layer":"building","height_m":7.6}},{"type":"Feature","id":"bldg_f2232793-533d-485d-ad22-63ad98c21e89","geometry":{"type":"Polygon","coordinates":[[[139.0528353,36.0097767],[139.0527683,36.0098302],[139.0526943,36.0097691],[139.0527054,36.0097603],[139.0526933,36.0097503],[139.0527382,36.0097144],[139.0527497,36.0097238],[139.0527606,36.0097151],[139.0528353,36.0097767]]]},"properties":{"layer":"building","height_m":4.7}},{"type":"Feature","id":"bldg_cd3abdcd-9486-465f-b29c-f50b1d331d89","geometry":{"type":"Polygon","coordinates":[[[139.0584035,36.0132808],[139.0583323,36.0132168],[139.0584563,36.0131256],[139.0585276,36.0131896],[139.0584035,36.0132808]]]},"properties":{"layer":"building","height_m":9.8}},{"type":"Feature","id":"bldg_8ff721b1-3b55-403b-b576-59213e0e8212","geometry":{"type":"Polygon","coordinates":[[[139.0621874,36.014972],[139.0620525,36.0148909],[139.0621037,36.0148346],[139.0622386,36.0149157],[139.0621874,36.014972]]]},"properties":{"layer":"building","height_m":5.0}},{"type":"Feature","id":"bldg_1ba737bd-2612-4c9d-80ee-0491f9f645c6","geometry":{"type":"Polygon","coordinates":[[[139.0615262,36.015632],[139.0615476,36.0156299],[139.0615576,36.0156963],[139.0615363,36.0156984],[139.0615262,36.015632]]]},"properties":{"layer":"building","height_m":null}},{"type":"Feature","id":"bldg_1fca4d5f-a94a-44af-8152-2451a043e02b","geometry":{"type":"Polygon","coordinates":[[[139.0615129,36.0147952],[139.0615645,36.0147479],[139.0615582,36.0147434],[139.0616031,36.0147023],[139.0616095,36.0147069],[139.0616224,36.014695],[139.0616801,36.0147366],[139.061637,36.0147761],[139.0616477,36.0147839],[139.0616134,36.0148154],[139.0616037,36.0148084],[139.0615719,36.0148376],[139.0615129,36.0147952]]]},"properties":{"layer":"building","height_m":7.8}},{"type":"Feature","id":"bldg_9ccd7122-48db-42e0-b17b-d7669a016ea2","geometry":{"type":"Polygon","coordinates":[[[139.0615656,36.0147121],[139.0615095,36.0146745],[139.0615666,36.0146182],[139.0616227,36.0146558],[139.0615656,36.0147121]]]},"properties":{"layer":"building","height_m":3.6}},{"type":"Feature","id":"bldg_65b9fda8-fd1a-40be-8e19-1943630e8dc2","geometry":{"type":"Polygon","coordinates":[[[139.0615016,36.013949],[139.0615073,36.0139188],[139.0615486,36.013924],[139.0615429,36.0139542],[139.0615016,36.013949]]]},"properties":{"layer":"building","height_m":3.1}},{"type":"Feature","id":"bldg_9d754f04-a063-4084-b71f-2864e32723c3","geometry":{"type":"Polygon","coordinates":[[[139.0614402,36.0156385],[139.061439,36.0156307],[139.0615247,36.0156221],[139.0615259,36.0156299],[139.0614402,36.0156385]]]},"properties":{"layer":"building","height_m":null}},{"type":"Feature","id":"bldg_1194908d-e3cf-40ba-b1e9-6b37ef23cde2","geometry":{"type":"Polygon","coordinates":[[[139.0615259,36.0156299],[139.0615262,36.015632],[139.0615363,36.0156984],[139.0615387,36.0157142],[139.0614933,36.0157187],[139.0614924,36.0157125],[139.0614247,36.0157193],[139.0614231,36.0157087],[139.0614143,36.0157096],[139.061414,36.0157075],[139.0614057,36.015653],[139.0614109,36.0156525],[139.0614093,36.0156416],[139.0614402,36.0156385],[139.0615259,36.0156299]]]},"properties":{"layer":"building","height_m":4.3}},{"type":"Feature","id":"bldg_5a0ae060-64ba-41e6-81db-8fabde72cdcc","geometry":{"type":"Polygon","coordinates":[[[139.061414,36.0157075],[139.0613649,36.0157124],[139.061362,36.0156939],[139.0613783,36.0156923],[139.0613728,36.0156563],[139.0614057,36.015653],[139.061414,36.0157075]]]},"properties":{"layer":"building","height_m":3.3}},{"type":"Feature","id":"bldg_cb07c263-55e5-454c-ba72-c4be857d90d1","geometry":{"type":"Polygon","coordinates":[[[139.0614336,36.0140991],[139.0614567,36.0141378],[139.0613995,36.0141602],[139.0613765,36.0141215],[139.0614336,36.0140991]]]},"properties":{"layer":"building","height_m":7.9}},{"type":"Feature","id":"bldg_e1cfab5b-6b1e-40df-a70f-2c282eeff4cd","geometry":{"type":"Polygon","coordinates":[[[139.0613638,36.0140156],[139.0614062,36.01393],[139.0614987,36.0139603],[139.0614698,36.0140187],[139.0614572,36.0140145],[139.0614437,36.0140417],[139.0613638,36.0140156]]]},"properties":{"layer":"building","height_m":6.1}},{"type":"Feature","id":"bldg_bcacdae8-5935-482c-bb85-30af12f04b80","geometry":{"type":"Polygon","coordinates":[[[139.0613207,36.0157606],[139.0613128,36.0157253],[139.0614158,36.0157101],[139.0614176,36.0157214],[139.0614861,36.0157153],[139.0614875,36.0157227],[139.061502,36.0157213],[139.061505,36.0157361],[139.061423,36.0157422],[139.0613957,36.0157463],[139.0613979,36.0157564],[139.0613757,36.0157597],[139.0613741,36.0157528],[139.0613207,36.0157606]]]},"properties":{"layer":"building","height_m":3.2}},{"type":"Feature","id":"bldg_251919e4-efb0-4cc9-a75f-e96a6db5b1cb","geometry":{"type":"Polygon","coordinates":[[[139.0612962,36.0156841],[139.061327,36.0156789],[139.0613364,36.0157156],[139.0613056,36.0157207],[139.0612962,36.0156841]]]},"properties":{"layer":"building","height_m":null}},{"type":"Feature","id":"bldg_10483475-3e0c-4372-af88-3b8f7b8ea1ea","geometry":{"type":"Polygon","coordinates":[[[139.0613504,36.0140093],[139.061439,36.014085],[139.0613941,36.0141097],[139.061391,36.0141071],[139.0613284,36.0141554],[139.0612995,36.0141307],[139.0612861,36.0141411],[139.0612356,36.0140979],[139.0613504,36.0140093]]]},"properties":{"layer":"building","height_m":5.7}},{"type":"Feature","id":"bldg_94664ba1-a670-4e02-b4ec-5dda7cfa9257","geometry":{"type":"Polygon","coordinates":[[[139.0611252,36.0145794],[139.061114,36.0145629],[139.0611748,36.0145357],[139.061186,36.0145522],[139.0611252,36.0145794]]]},"properties":{"layer":"building","height_m":3.0}},{"type":"Feature","id":"bldg_9192b4a7-3d3a-4130-b0a0-c188c9889bed","geometry":{"type":"Polygon","coordinates":[[[139.0610985,36.0152307],[139.0611712,36.0152555],[139.0611473,36.0153015],[139.0610748,36.0152767],[139.0610985,36.0152307]]]},"properties":{"layer":"building","height_m":5.3}},{"type":"Feature","id":"bldg_90ffad64-aba8-4623-9585-16a3ce544e2d","geometry":{"type":"Polygon","coordinates":[[[139.0609804,36.0144005],[139.0615122,36.0141989],[139.0615882,36.0143314],[139.0610564,36.0145329],[139.0609804,36.0144005]]]},"properties":{"layer":"building","height_m":7.8}},{"type":"Feature","id":"bldg_1a44d19f-ded5-4b64-8aaa-97f236a431df","geometry":{"type":"Polygon","coordinates":[[[139.0609643,36.0157588],[139.0610272,36.01573],[139.061075,36.0157991],[139.0610121,36.0158279],[139.0609643,36.0157588]]]},"properties":{"layer":"building","height_m":6.7}},{"type":"Feature","id":"bldg_746009fa-30e0-4c3b-b3a1-e18807697833","geometry":{"type":"Polygon","coordinates":[[[139.0611262,36.0153176],[139.0611002,36.0153643],[139.0611072,36.0153686],[139.0610785,36.0153988],[139.0609222,36.0153423],[139.060968,36.0152597],[139.0611262,36.0153176]]]},"properties":{"layer":"building","height_m":5.5}},{"type":"Feature","id":"bldg_2346a0de-e48f-43a7-b9c5-a2b587329cbe","geometry":{"type":"Polygon","coordinates":[[[139.0609575,36.0159231],[139.0610036,36.0159893],[139.0609023,36.0160359],[139.0608561,36.0159697],[139.0609575,36.0159231]]]},"properties":{"layer":"building","height_m":4.4}},{"type":"Feature","id":"bldg_257f1daf-4e49-425b-84a2-3270ad909176","geometry":{"type":"Polygon","coordinates":[[[139.0608098,36.0152891],[139.0608483,36.0152357],[139.0608958,36.0152583],[139.060911,36.0152373],[139.0609536,36.0152576],[139.0608998,36.0153322],[139.0608098,36.0152891]]]},"properties":{"layer":"building","height_m":4.6}},{"type":"Feature","id":"bldg_4679822d-26c4-4fa5-b2ba-c53d3dafde0c","geometry":{"type":"Polygon","coordinates":[[[139.0608303,36.0159748],[139.0607756,36.0158964],[139.0607963,36.0158869],[139.0607909,36.0158791],[139.0608015,36.0158742],[139.0607826,36.0158472],[139.0608158,36.0158319],[139.0608332,36.0158569],[139.0609766,36.0157909],[139.0610382,36.0158791],[139.0608303,36.0159748]]]},"properties":{"layer":"building","height_m":9.3}},{"type":"Feature","id":"bldg_50538604-4425-4751-8af3-d972a557cb08","geometry":{"type":"Polygon","coordinates":[[[139.0608159,36.0159677],[139.0607734,36.0159872],[139.0607387,36.0159376],[139.0607813,36.015918],[139.0608159,36.0159677]]]},"properties":{"layer":"building","height_m":4.5}},{"type":"Feature","id":"bldg_7baa390b-1c89-4d49-82fc-f877be78f8da","geometry":{"type":"Polygon","coordinates":[[[139.0608011,36.0154245],[139.0607215,36.0153856],[139.0607884,36.0152953],[139.0608679,36.0153341],[139.0608011,36.0154245]]]},"properties":{"layer":"building","height_m":5.4}},{"type":"Feature","id":"bldg_03bc62e7-4e5b-4107-852d-739d6fbabe41","geometry":{"type":"Polygon","coordinates":[[[139.0607396,36.0158308],[139.0607304,36.0158432],[139.0607409,36.0158483],[139.0607231,36.0158725],[139.0607161,36.0158691],[139.0607115,36.0158753],[139.060623,36.0158323],[139.0606544,36.0157895],[139.0607396,36.0158308]]]},"properties":{"layer":"building","height_m":4.5}},{"type":"Feature","id":"bldg_1aa8bab5-38ba-4a32-8489-5673b25bf4ad","geometry":{"type":"Polygon","coordinates":[[[139.0608356,36.0156666],[139.0607952,36.015719],[139.0606184,36.0156292],[139.0606586,36.0155768],[139.0608356,36.0156666]]]},"properties":{"layer":"building","height_m":4.5}},{"type":"Feature","id":"bldg_5f6c45ed-d254-4b30-98a2-018ba1fabec1","geometry":{"type":"Polygon","coordinates":[[[139.0606001,36.0157577],[139.0606628,36.0156747],[139.060803,36.0157446],[139.0607403,36.0158276],[139.0606001,36.0157577]]]},"properties":{"layer":"building","height_m":3.5}},{"type":"Feature","id":"bldg_eab499a6-96ce-4ed7-8ac0-71bc9fdb9c0f","geometry":{"type":"Polygon","coordinates":[[[139.0606047,36.0157461],[139.060548,36.0157182],[139.0606075,36.0156382],[139.0606643,36.0156661],[139.0606047,36.0157461]]]},"properties":{"layer":"building","height_m":3.2}},{"type":"Feature","id":"bldg_cc533231-8293-42a7-900a-ce4383c4961e","geometry":{"type":"Polygon","coordinates":[[[139.0605924,36.0157648],[139.0605467,36.0157424],[139.0605591,36.0157257],[139.0606047,36.0157482],[139.0605924,36.0157648]]]},"properties":{"layer":"building","height_m":3.7}},{"type":"Feature","id":"bldg_e1488208-a70b-451b-a2b7-60a8a1832c5d","geometry":{"type":"Polygon","coordinates":[[[139.0604479,36.0164807],[139.0604515,36.016474],[139.0604105,36.0164594],[139.0604511,36.0163838],[139.0605787,36.0164291],[139.0605344,36.0165114],[139.0604479,36.0164807]]]},"properties":{"layer":"building","height_m":5.2}},{"type":"Feature","id":"bldg_e7669038-eff2-461f-8770-8e40ab6a490b","geometry":{"type":"Polygon","coordinates":[[[139.0602422,36.0164275],[139.0602565,36.0164007],[139.0602726,36.0164064],[139.0603202,36.0163171],[139.0603909,36.0163419],[139.0603396,36.0164383],[139.0603321,36.0164356],[139.0603216,36.0164554],[139.0602422,36.0164275]]]},"properties":{"layer":"building","height_m":3.6}},{"type":"Feature","id":"bldg_a1204be1-2f4c-4933-9b73-656040f5c28d","geometry":{"type":"Polygon","coordinates":[[[139.0602527,36.016573],[139.0602965,36.0165847],[139.0603017,36.0165718],[139.0603541,36.0165857],[139.060355,36.0165835],[139.0604079,36.0165976],[139.0604024,36.0166112],[139.0604235,36.0166168],[139.0603949,36.0166875],[139.0603261,36.0166692],[139.0603203,36.0166835],[139.0602398,36.016662],[139.060248,36.0166416],[139.0602273,36.016636],[139.0602527,36.016573]]]},"properties":{"layer":"building","height_m":7.3}},{"type":"Feature","id":"bldg_95294213-4be1-4995-9e7e-ffc16f9be7a3","geometry":{"type":"Polygon","coordinates":[[[139.060011,36.0165082],[139.0600198,36.0165002],[139.0600028,36.0164878],[139.0600601,36.016436],[139.0601843,36.0165267],[139.0601181,36.0165865],[139.060011,36.0165082]]]},"properties":{"layer":"building","height_m":5.3}},{"type":"Feature","id":"bldg_17b009a7-9ff2-41af-bded-fa15b783f73e","geometry":{"type":"Polygon","coordinates":[[[139.0599845,36.0152393],[139.0600178,36.0152136],[139.0600518,36.0152426],[139.0600185,36.0152683],[139.0599845,36.0152393]]]},"properties":{"layer":"building","height_m":4.0}},{"type":"Feature","id":"bldg_81c46a0f-e784-45d1-961f-1f67594a1317","geometry":{"type":"Polygon","coordinates":[[[139.0599939,36.0155068],[139.0599289,36.0154586],[139.0599338,36.0154542],[139.059981,36.0154122],[139.060046,36.0154604],[139.0599939,36.0155068]]]},"properties":{"layer":"building","height_m":7.8}},{"type":"Feature","id":"bldg_c37cd40f-7288-4fab-8289-a7f69e515205","geometry":{"type":"Polygon","coordinates":[[[139.0599916,36.0154056],[139.059981,36.0154122],[139.0599338,36.0154542],[139.059817,36.0153969],[139.059862,36.0153391],[139.0599916,36.0154056]]]},"properties":{"layer":"building","height_m":7.4}},{"type":"Feature","id":"bldg_fb998a3e-c188-439c-aff4-84e9cd9bd676","geometry":{"type":"Polygon","coordinates":[[[139.0598083,36.0153384],[139.0597252,36.0153679],[139.0596913,36.0153046],[139.0597743,36.0152752],[139.0598083,36.0153384]]]},"properties":{"layer":"building","height_m":6.5}},{"type":"Feature","id":"bldg_b8c8cf41-29bf-4865-8eb7-e021de1ae2c6","geometry":{"type":"Polygon","coordinates":[[[139.0596037,36.0159418],[139.0595726,36.0158609],[139.0595907,36.0158564],[139.0595886,36.0158508],[139.059635,36.015839],[139.0596682,36.0159256],[139.0596037,36.0159418]]]},"properties":{"layer":"building","height_m":3.6}},{"type":"Feature","id":"bldg_d794472e-3c28-4a7d-a53c-0c37d96e83d5","geometry":{"type":"Polygon","coordinates":[[[139.0595131,36.016258],[139.0595477,36.0162458],[139.0595617,36.0162831],[139.0595266,36.0162922],[139.0595131,36.016258]]]},"properties":{"layer":"building","height_m":3.3}},{"type":"Feature","id":"bldg_c5d435b7-a491-4b4b-bf1a-4cdf4c37413c","geometry":{"type":"Polygon","coordinates":[[[139.0595058,36.0165963],[139.0595842,36.0165431],[139.0596367,36.0165942],[139.0595959,36.016622],[139.0596086,36.0166343],[139.0595818,36.0166524],[139.0595689,36.01664],[139.0595431,36.0166575],[139.0595239,36.0166389],[139.0595391,36.0166286],[139.0595058,36.0165963]]]},"properties":{"layer":"building","height_m":8.5}},{"type":"Feature","id":"bldg_bc12f168-e21e-4de3-9354-a43c1b636c53","geometry":{"type":"Polygon","coordinates":[[[139.0594711,36.0163622],[139.059504,36.0163351],[139.0595423,36.0163658],[139.0595094,36.0163929],[139.0594711,36.0163622]]]},"properties":{"layer":"building","height_m":null}},{"type":"Feature","id":"bldg_18ccd9a0-838b-47e7-bc70-0f87063a7e05","geometry":{"type":"Polygon","coordinates":[[[139.0595385,36.0162021],[139.0595271,36.0162102],[139.0595481,36.0162413],[139.0595074,36.0162595],[139.0594862,36.0162279],[139.0594734,36.0162299],[139.0594114,36.0161272],[139.0594704,36.0161009],[139.0595385,36.0162021]]]},"properties":{"layer":"building","height_m":3.8}},{"type":"Feature","id":"bldg_7bcb098b-afd7-41a9-8c2e-779c607f4e83","geometry":{"type":"Polygon","coordinates":[[[139.0595147,36.0164064],[139.0594727,36.0164411],[139.0593894,36.0163745],[139.0594316,36.0163398],[139.0595147,36.0164064]]]},"properties":{"layer":"building","height_m":4.6}},{"type":"Feature","id":"bldg_ed34c2b2-327e-485d-adaa-fa4be6e1c4f6","geometry":{"type":"Polygon","coordinates":[[[139.059381,36.0161241],[139.0593677,36.016103],[139.0594067,36.0160868],[139.05942,36.016108],[139.059381,36.0161241]]]},"properties":{"layer":"building","height_m":null}},{"type":"Feature","id":"bldg_6b3ca2cc-0b94-4845-adb3-060fb6fbfa8c","geometry":{"type":"Polygon","coordinates":[[[139.059458,36.0166909],[139.0593354,36.0165999],[139.0593457,36.0165908],[139.0593792,36.0165611],[139.0594108,36.016533],[139.0595333,36.0166239],[139.059458,36.0166909]]]},"properties":{"layer":"building","height_m":5.6}},{"type":"Feature","id":"bldg_faca7b09-5285-49be-807d-02666017bab0","geometry":{"type":"Polygon","coordinates":[[[139.0592973,36.0158582],[139.059419,36.0158578],[139.0594196,36.0159541],[139.0593549,36.0159543],[139.0593551,36.0159935],[139.059298,36.0159937],[139.0592973,36.0158582]]]},"properties":{"layer":"building","height_m":7.6}},{"type":"Feature","id":"bldg_89d41d72-c2ae-4619-b0dd-25c793329ad9","geometry":{"type":"Polygon","coordinates":[[[139.0594337,36.0160007],[139.0594326,36.0160652],[139.0593577,36.0160644],[139.0593576,36.0160725],[139.0592941,36.0160718],[139.0592953,36.0159992],[139.0594337,36.0160007]]]},"properties":{"layer":"building","height_m":6.2}},{"type":"Feature","id":"bldg_54c39124-8047-4534-9a1b-ffee63f68e59","geometry":{"type":"Polygon","coordinates":[[[139.0593792,36.0165611],[139.0593457,36.0165908],[139.059277,36.0165397],[139.0593104,36.0165101],[139.0593792,36.0165611]]]},"properties":{"layer":"building","height_m":4.5}},{"type":"Feature","id":"bldg_356c8574-65aa-45b0-ace7-773570e5ae46","geometry":{"type":"Polygon","coordinates":[[[139.0592925,36.0164784],[139.059273,36.0164621],[139.0592942,36.0164454],[139.0593137,36.0164616],[139.0592925,36.0164784]]]},"properties":{"layer":"building","height_m":null}},{"type":"Feature","id":"bldg_3f2c681d-55e4-453c-9f66-32c3cdfad949","geometry":{"type":"Polygon","coordinates":[[[139.059251,36.0151933],[139.0592907,36.0152351],[139.0593098,36.0152232],[139.0593289,36.0152433],[139.0592827,36.0152723],[139.0592654,36.015254],[139.0592043,36.0152924],[139.0591627,36.0152486],[139.059251,36.0151933]]]},"properties":{"layer":"building","height_m":4.0}},{"type":"Feature","id":"bldg_ee419931-f6cb-4d8f-887f-9eede644dcbd","geometry":{"type":"Polygon","coordinates":[[[139.0591132,36.0153409],[139.0591317,36.0153234],[139.0591604,36.0153434],[139.0591791,36.0153257],[139.0592388,36.0153673],[139.0592016,36.0154026],[139.0591132,36.0153409]]]},"properties":{"layer":"building","height_m":null}},{"type":"Feature","id":"bldg_5b03015e-8ef0-4091-88ef-028abff7cd3d","geometry":{"type":"Polygon","coordinates":[[[139.0591268,36.0155683],[139.05907,36.0155441],[139.0590907,36.015512],[139.0591475,36.0155363],[139.0591268,36.0155683]]]},"properties":{"layer":"building","height_m":null}},{"type":"Feature","id":"bldg_b2501161-99a6-46bc-b7ed-bf79a53d592e","geometry":{"type":"Polygon","coordinates":[[[139.0590292,36.0148938],[139.05908,36.0148423],[139.0591165,36.014866],[139.0590657,36.0149175],[139.0590292,36.0148938]]]},"properties":{"layer":"building","height_m":3.0}},{"type":"Feature","id":"bldg_2661e6c3-f7df-4f1b-8766-7c80d927d6e2","geometry":{"type":"Polygon","coordinates":[[[139.0590064,36.0155214],[139.0590482,36.0154632],[139.0591006,36.015488],[139.0590587,36.0155462],[139.0590064,36.0155214]]]},"properties":{"layer":"building","height_m":4.9}},{"type":"Feature","id":"bldg_832ab316-e8b5-4454-aa94-56ed9af5f211","geometry":{"type":"Polygon","coordinates":[[[139.0589378,36.0146655],[139.0589703,36.014638],[139.059068,36.0147141],[139.0590355,36.0147416],[139.0589378,36.0146655]]]},"properties":{"layer":"building","height_m":null}},{"type":"Feature","id":"bldg_1d4e0f86-3c02-462c-80b1-cfc360c6e5d2","geometry":{"type":"Polygon","coordinates":[[[139.0589436,36.0147362],[139.0590135,36.0147518],[139.0589885,36.0148259],[139.0589186,36.0148104],[139.0589436,36.0147362]]]},"properties":{"layer":"building","height_m":6.7}},{"type":"Feature","id":"bldg_4e5cfe20-8d29-4797-ad84-6ad80448429d","geometry":{"type":"Polygon","coordinates":[[[139.0587811,36.0155238],[139.0588118,36.0154079],[139.0590247,36.0154453],[139.059002,36.0155307],[139.0588594,36.0155057],[139.0588513,36.0155362],[139.0587811,36.0155238]]]},"properties":{"layer":"building","height_m":7.1}},{"type":"Feature","id":"bldg_87a9aec0-35f2-461b-ac6d-9bb02d693e91","geometry":{"type":"Polygon","coordinates":[[[139.0588724,36.0148953],[139.0588533,36.0149389],[139.0587334,36.0149042],[139.0587503,36.0148655],[139.0588577,36.0148965],[139.0588598,36.0148916],[139.0588724,36.0148953]]]},"properties":{"layer":"building","height_m":5.7}},{"type":"Feature","id":"bldg_71acc826-6bbf-4080-ac10-015717fa7aa1","geometry":{"type":"Polygon","coordinates":[[[139.0589016,36.0147947],[139.0588971,36.0148051],[139.0589115,36.0148092],[139.0588883,36.0148623],[139.0589039,36.0148668],[139.0588893,36.0149002],[139.0588724,36.0148953],[139.0588598,36.0148916],[139.0588577,36.0148965],[139.0587503,36.0148655],[139.0587334,36.0149042],[139.0586575,36.0148823],[139.0586734,36.0148459],[139.0586702,36.0148449],[139.0587157,36.0147409],[139.0589016,36.0147947]]]},"properties":{"layer":"building","height_m":8.3}},{"type":"Feature","id":"bldg_9a29421a-f998-4f7a-9b57-19f85f4d89eb","geometry":{"type":"Polygon","coordinates":[[[139.0586468,36.0129888],[139.0586885,36.0129549],[139.0587245,36.0129841],[139.0586828,36.013018],[139.0586468,36.0129888]]]},"properties":{"layer":"building","height_m":4.1}},{"type":"Feature","id":"bldg_e622a03f-b6e7-4d26-a8c1-e6d9e2f9dd11","geometry":{"type":"Polygon","coordinates":[[[139.0586541,36.0107333],[139.0586799,36.0107187],[139.058701,36.0107433],[139.0586753,36.0107579],[139.0586541,36.0107333]]]},"properties":{"layer":"building","height_m":null}},{"type":"Feature","id":"bldg_fb1cda32-64e4-4d4b-aaae-3f2212be8293","geometry":{"type":"Polygon","coordinates":[[[139.0585765,36.0148191],[139.0584981,36.0147976],[139.0585399,36.014697],[139.0586183,36.0147185],[139.0585765,36.0148191]]]},"properties":{"layer":"building","height_m":4.5}},{"type":"Feature","id":"bldg_6308dfcf-646a-49ef-b1ca-ef3b049495dd","geometry":{"type":"Polygon","coordinates":[[[139.0585882,36.0109945],[139.0585335,36.0108994],[139.0585783,36.0108824],[139.0585715,36.0108705],[139.0586114,36.0108554],[139.0586208,36.0108718],[139.0586872,36.0108466],[139.0587393,36.0109372],[139.0585882,36.0109945]]]},"properties":{"layer":"building","height_m":4.9}},{"type":"Feature","id":"bldg_3fa8e4d3-87f6-4195-b54f-a59e3a905a9c","geometry":{"type":"Polygon","coordinates":[[[139.0584825,36.0130795],[139.0585675,36.013013],[139.0585794,36.013023],[139.0586134,36.0129964],[139.0586821,36.0130544],[139.0586253,36.0130989],[139.0586341,36.0131063],[139.058572,36.0131549],[139.0584825,36.0130795]]]},"properties":{"layer":"building","height_m":8.5}},{"type":"Feature","id":"bldg_b2d22116-cbd4-4bd3-b022-f70d39a18095","geometry":{"type":"Polygon","coordinates":[[[139.058556,36.0131472],[139.0585243,36.013172],[139.0584748,36.0131302],[139.0585065,36.0131055],[139.058556,36.0131472]]]},"properties":{"layer":"building","height_m":4.0}},{"type":"Feature","id":"bldg_d1f4abce-edcc-4854-b0a0-be833a028523","geometry":{"type":"Polygon","coordinates":[[[139.0584057,36.0150202],[139.0583664,36.0149979],[139.0583923,36.0149676],[139.0584316,36.0149899],[139.0584057,36.0150202]]]},"properties":{"layer":"building","height_m":4.4}},{"type":"Feature","id":"bldg_d848d618-b381-4d12-b2cf-9332e17adb24","geometry":{"type":"Polygon","coordinates":[[[139.0584315,36.0141202],[139.0582637,36.0139826],[139.0583384,36.0139225],[139.0584551,36.0140183],[139.0584382,36.0140319],[139.0584893,36.0140738],[139.0584315,36.0141202]]]},"properties":{"layer":"building","height_m":7.6}},{"type":"Feature","id":"bldg_5a8da835-150a-4095-bfa3-130762858a53","geometry":{"type":"Polygon","coordinates":[[[139.0587189,36.014508],[139.0584786,36.0146845],[139.0582168,36.0144492],[139.058457,36.0142727],[139.0587189,36.014508]]]},"properties":{"layer":"building","height_m":3.4}},{"type":"Feature","id":"bldg_c1fb8077-366d-4915-b527-e0bc5c23766d","geometry":{"type":"Polygon","coordinates":[[[139.0582721,36.0129056],[139.0581809,36.0129652],[139.0581223,36.0129062],[139.0582136,36.0128465],[139.0582721,36.0129056]]]},"properties":{"layer":"building","height_m":10.0}},{"type":"Feature","id":"bldg_6e878079-15e4-44e0-8b21-a1839e36d52d","geometry":{"type":"Polygon","coordinates":[[[139.0580871,36.0133465],[139.0580803,36.0133386],[139.0581185,36.0133168],[139.0581134,36.0133108],[139.0581851,36.0132699],[139.058197,36.0132837],[139.0580871,36.0133465]]]},"properties":{"layer":"building","height_m":3.4}},{"type":"Feature","id":"bldg_62f15e1e-31e6-4093-8234-6e76fd5f91e5","geometry":{"type":"Polygon","coordinates":[[[139.0582082,36.0132774],[139.0582684,36.013347],[139.0582213,36.0133739],[139.058207,36.0133574],[139.0581255,36.0134039],[139.0580796,36.0133507],[139.0580871,36.0133465],[139.058197,36.0132837],[139.0582082,36.0132774]]]},"properties":{"layer":"building","height_m":5.5}},{"type":"Feature","id":"bldg_01284a5c-f0b9-4ab4-818d-e8c494bac709","geometry":{"type":"Polygon","coordinates":[[[139.0582447,36.0089462],[139.0581588,36.0089654],[139.0581607,36.0089712],[139.0580982,36.0089851],[139.0580811,36.0089345],[139.0580933,36.0089318],[139.0580811,36.0088958],[139.0582173,36.0088655],[139.0582447,36.0089462]]]},"properties":{"layer":"building","height_m":8.1}},{"type":"Feature","id":"bldg_863245e4-1186-43e0-b63f-ea2dcb3a7cc6","geometry":{"type":"Polygon","coordinates":[[[139.058064,36.0089383],[139.0580518,36.0089024],[139.0580811,36.0088958],[139.0580933,36.0089318],[139.0580811,36.0089345],[139.058064,36.0089383]]]},"properties":{"layer":"building","height_m":3.6}},{"type":"Feature","id":"bldg_78e1e85a-81a7-4d3d-8d9e-05170d9905b8","geometry":{"type":"Polygon","coordinates":[[[139.0581175,36.009017],[139.0580731,36.009039],[139.0579841,36.0089206],[139.0580284,36.0088986],[139.0581175,36.009017]]]},"properties":{"layer":"building","height_m":5.3}},{"type":"Feature","id":"bldg_00b6beeb-cb7c-4a79-a83d-d21881e3ef62","geometry":{"type":"Polygon","coordinates":[[[139.0580055,36.013127],[139.0580566,36.0131841],[139.0579385,36.0132538],[139.0578875,36.0131967],[139.0580055,36.013127]]]},"properties":{"layer":"building","height_m":7.4}},{"type":"Feature","id":"bldg_174febc1-c78e-4415-b779-87defe5fc497","geometry":{"type":"Polygon","coordinates":[[[139.0576319,36.0127328],[139.0576804,36.0127006],[139.0578318,36.0128511],[139.0577833,36.0128832],[139.0576944,36.0127949],[139.0576464,36.0127472],[139.0576319,36.0127328]]]},"properties":{"layer":"building","height_m":3.9}},{"type":"Feature","id":"bldg_0b12a8c1-86db-4511-a328-4207e14d5d6f","geometry":{"type":"Polygon","coordinates":[[[139.0576211,36.0132626],[139.0576512,36.0132451],[139.057643,36.0132358],[139.0576822,36.013213],[139.0576931,36.0132254],[139.0577163,36.0132119],[139.0577915,36.0132972],[139.0576991,36.013351],[139.0576211,36.0132626]]]},"properties":{"layer":"building","height_m":10.0}},{"type":"Feature","id":"bldg_32fdf24b-50d7-48fe-88d6-e102dea17489","geometry":{"type":"Polygon","coordinates":[[[139.0576044,36.0133452],[139.0576509,36.0133176],[139.0576927,36.0133642],[139.0576462,36.0133918],[139.0576044,36.0133452]]]},"properties":{"layer":"building","height_m":4.2}},{"type":"Feature","id":"bldg_32516342-f6a8-40c2-92a8-52f0a17131bb","geometry":{"type":"Polygon","coordinates":[[[139.0576325,36.0128359],[139.0575845,36.0127883],[139.0576464,36.0127472],[139.0576944,36.0127949],[139.0576325,36.0128359]]]},"properties":{"layer":"building","height_m":7.8}},{"type":"Feature","id":"bldg_ec340c19-0eae-4bea-a91a-0761fbb19333","geometry":{"type":"Polygon","coordinates":[[[139.0576412,36.0132976],[139.0575931,36.0133246],[139.0575492,36.0132732],[139.0575972,36.0132461],[139.0576412,36.0132976]]]},"properties":{"layer":"building","height_m":4.1}},{"type":"Feature","id":"bldg_2bb31711-180d-4ed5-a3f7-9598995dd667","geometry":{"type":"Polygon","coordinates":[[[139.0577259,36.0130064],[139.0577167,36.012996],[139.057778,36.0129604],[139.0577875,36.0129712],[139.0578272,36.0129481],[139.057834,36.0129558],[139.0578985,36.0129182],[139.0579126,36.0129342],[139.0579199,36.01293],[139.0579758,36.0129934],[139.0579881,36.0129863],[139.0581201,36.0131361],[139.0580585,36.0131719],[139.0580069,36.0131134],[139.0580128,36.01311],[139.0579568,36.0130465],[139.0579343,36.0130596],[139.0579189,36.0130422],[139.057871,36.01307],[139.0578816,36.0130821],[139.0578454,36.0131031],[139.0578531,36.0131118],[139.057637,36.0132376],[139.0576452,36.0132469],[139.0576241,36.0132592],[139.057567,36.0131944],[139.0575887,36.0131817],[139.0575459,36.0131331],[139.0575331,36.0131186],[139.0577259,36.0130064]]]},"properties":{"layer":"building","height_m":9.9}},{"type":"Feature","id":"bldg_9aad97eb-780f-4ab8-a9b1-f479ad8459f4","geometry":{"type":"Polygon","coordinates":[[[139.057529,36.0132102],[139.0574923,36.0131686],[139.057545,36.0131379],[139.0575817,36.0131795],[139.057529,36.0132102]]]},"properties":{"layer":"building","height_m":4.9}},{"type":"Feature","id":"bldg_3cfe3570-4ee6-4451-b992-61f7d32ff803","geometry":{"type":"Polygon","coordinates":[[[139.0574252,36.0124344],[139.0574069,36.0124123],[139.0574153,36.0124029],[139.0574222,36.0124067],[139.0574775,36.0123598],[139.0575002,36.0123815],[139.0574252,36.0124344]]]},"properties":{"layer":"building","height_m":3.2}},{"type":"Feature","id":"bldg_77177f67-3e35-4a8f-a0e5-f4327c5ed7d4","geometry":{"type":"Polygon","coordinates":[[[139.0573976,36.0131363],[139.0573489,36.0130918],[139.0574053,36.0130511],[139.0574539,36.0130956],[139.0573976,36.0131363]]]},"properties":{"layer":"building","height_m":5.8}},{"type":"Feature","id":"bldg_1734e647-43b6-434e-9ad4-2474b29c9861","geometry":{"type":"Polygon","coordinates":[[[139.0573943,36.0104766],[139.0573666,36.0101791],[139.0575519,36.0101677],[139.0575747,36.010414],[139.0575308,36.0104167],[139.0575327,36.0104363],[139.0574874,36.0104391],[139.0574903,36.0104707],[139.0573943,36.0104766]]]},"properties":{"layer":"building","height_m":3.1}},{"type":"Feature","id":"bldg_c8f8b6c4-2d1f-44dd-b83f-f37f87aa2d34","geometry":{"type":"Polygon","coordinates":[[[139.0574521,36.012816],[139.0575188,36.0128895],[139.0574005,36.0129603],[139.0573337,36.0128869],[139.0574521,36.012816]]]},"properties":{"layer":"building","height_m":12.1}},{"type":"Feature","id":"bldg_763f5fb8-682a-4b97-b094-9545e503785d","geometry":{"type":"Polygon","coordinates":[[[139.0526235,36.0110682],[139.0526604,36.0110308],[139.0527054,36.0110602],[139.0527136,36.011052],[139.0527902,36.0111021],[139.0527452,36.0111476],[139.0526235,36.0110682]]]},"properties":{"layer":"building","height_m":3.1}},{"type":"Feature","id":"bldg_edd8b11f-ec6d-4701-bf72-730f0d04f00e","geometry":{"type":"Polygon","coordinates":[[[139.0526679,36.0094842],[139.0526363,36.0094695],[139.0526588,36.0094375],[139.0526904,36.0094522],[139.0526679,36.0094842]]]},"properties":{"layer":"building","height_m":7.3}},{"type":"Feature","id":"bldg_59dc36cb-3aa2-4095-964e-cc37aa87845c","geometry":{"type":"Polygon","coordinates":[[[139.0526262,36.0110636],[139.052594,36.0110426],[139.0526259,36.0110104],[139.0526581,36.0110314],[139.0526262,36.0110636]]]},"properties":{"layer":"building","height_m":null}},{"type":"Feature","id":"bldg_50a48c46-22cd-44f2-ae7b-363006fcd797","geometry":{"type":"Polygon","coordinates":[[[139.0536418,36.0128052],[139.0535364,36.0126782],[139.0536307,36.0126265],[139.0537362,36.0127534],[139.0536418,36.0128052]]]},"properties":{"layer":"building","height_m":5.5}},{"type":"Feature","id":"bldg_6d5346e7-80b6-4f86-bb84-7bb2abfa3955","geometry":{"type":"Polygon","coordinates":[[[139.0531838,36.0105949],[139.0532042,36.0106518],[139.0531251,36.0106705],[139.053109,36.0106257],[139.0531437,36.0106175],[139.0531394,36.0106054],[139.0531838,36.0105949]]]},"properties":{"layer":"building","height_m":3.0}},{"type":"Feature","id":"bldg_291f7da2-df9b-47e2-9071-84a8e147f53a","geometry":{"type":"Polygon","coordinates":[[[139.053626,36.0128939],[139.0536027,36.0128714],[139.053646,36.0128419],[139.0536693,36.0128644],[139.053626,36.0128939]]]},"properties":{"layer":"building","height_m":null}},{"type":"Feature","id":"bldg_5d16a01d-9d5a-4e8c-8078-6accf9552fff","geometry":{"type":"Polygon","coordinates":[[[139.0526143,36.0088012],[139.0526001,36.0087836],[139.0526281,36.0087686],[139.0526424,36.0087862],[139.0526143,36.0088012]]]},"properties":{"layer":"building","height_m":null}},{"type":"Feature","id":"bldg_2913a3fc-a48a-41fd-b29f-002d70d35ba7","geometry":{"type":"Polygon","coordinates":[[[139.0525037,36.011218],[139.0525442,36.0111996],[139.0525701,36.0112372],[139.0525296,36.0112556],[139.0525037,36.011218]]]},"properties":{"layer":"building","height_m":4.1}},{"type":"Feature","id":"bldg_f9079a63-5909-4205-8543-ced719d28f22","geometry":{"type":"Polygon","coordinates":[[[139.0525313,36.0085344],[139.052494,36.0084989],[139.0525346,36.0084709],[139.0525719,36.0085064],[139.0525313,36.0085344]]]},"properties":{"layer":"building","height_m":4.8}},{"type":"Feature","id":"bldg_05433698-5718-437d-ba3b-4db542c5789b","geometry":{"type":"Polygon","coordinates":[[[139.0530733,36.0115834],[139.0531791,36.0115412],[139.0532482,36.0116554],[139.0531423,36.0116977],[139.0530733,36.0115834]]]},"properties":{"layer":"building","height_m":7.5}},{"type":"Feature","id":"bldg_bd38ab41-e097-403f-9d6b-790ba9b9dd35","geometry":{"type":"Polygon","coordinates":[[[139.0530094,36.0125762],[139.053092,36.0126351],[139.0530347,36.012688],[139.0529523,36.0126291],[139.0530094,36.0125762]]]},"properties":{"layer":"building","height_m":8.1}},{"type":"Feature","id":"bldg_6a378e30-a25e-49d8-b9b7-bde4f64eb16f","geometry":{"type":"Polygon","coordinates":[[[139.0526156,36.0092562],[139.0525608,36.0093004],[139.0524307,36.0091938],[139.0524695,36.0091625],[139.0524925,36.0091814],[139.0525085,36.0091684],[139.0526156,36.0092562]]]},"properties":{"layer":"building","height_m":4.1}},{"type":"Feature","id":"bldg_ef40acc7-7283-4faf-9ead-aaa6357cc548","geometry":{"type":"Polygon","coordinates":[[[139.0543582,36.0134519],[139.0544988,36.0135142],[139.0544496,36.0135874],[139.054309,36.0135252],[139.0543582,36.0134519]]]},"properties":{"layer":"building","height_m":6.9}},{"type":"Feature","id":"bldg_ced574a8-3184-49e8-b82e-825d056b749e","geometry":{"type":"Polygon","coordinates":[[[139.0525405,36.0086603],[139.0526095,36.0087223],[139.0525496,36.0087662],[139.0523684,36.0086034],[139.0524408,36.0085503],[139.0525529,36.0086511],[139.0525405,36.0086603]]]},"properties":{"layer":"building","height_m":7.2}},{"type":"Feature","id":"bldg_8d6a757c-2456-4c82-b17a-c44de662cdfd","geometry":{"type":"Polygon","coordinates":[[[139.0545728,36.0113766],[139.0546527,36.0113192],[139.0547607,36.0114187],[139.0547679,36.0114135],[139.054794,36.0114377],[139.0547199,36.0114909],[139.054694,36.0114672],[139.0546707,36.011484],[139.0546386,36.0114543],[139.0546626,36.0114372],[139.0546324,36.0114069],[139.0546158,36.011416],[139.0545728,36.0113766]]]},"properties":{"layer":"building","height_m":7.4}},{"type":"Feature","id":"bldg_6fae6158-06e8-4b56-b885-f672850d75ab","geometry":{"type":"Polygon","coordinates":[[[139.0526467,36.0095143],[139.0526679,36.0094842],[139.0526904,36.0094522],[139.052721,36.0094088],[139.0528674,36.0094768],[139.0527931,36.0095823],[139.0526467,36.0095143]]]},"properties":{"layer":"building","height_m":9.7}},{"type":"Feature","id":"bldg_cba67dc7-2d58-4fcc-af42-682706da54d3","geometry":{"type":"Polygon","coordinates":[[[139.055052,36.0096175],[139.0549234,36.0096665],[139.0547898,36.0094348],[139.0549183,36.0093859],[139.055052,36.0096175]]]},"properties":{"layer":"building","height_m":3.1}},{"type":"Feature","id":"bldg_1c71081a-43b5-448c-aef5-20b08277b5a4","geometry":{"type":"Polygon","coordinates":[[[139.0530928,36.010729],[139.0530702,36.0107334],[139.0530625,36.0107072],[139.0532024,36.0106801],[139.0532055,36.0106904],[139.0532047,36.0106906],[139.0530881,36.0107132],[139.0530928,36.010729]]]},"properties":{"layer":"building","height_m":7.8}},{"type":"Feature","id":"bldg_f905abe7-4dbd-41b0-9efe-9b73c370afde","geometry":{"type":"Polygon","coordinates":[[[139.0522112,36.0085341],[139.0522637,36.008493],[139.0522812,36.0085077],[139.0522979,36.0084947],[139.0523341,36.0085252],[139.0523177,36.008538],[139.0523366,36.0085539],[139.0522837,36.0085953],[139.0522112,36.0085341]]]},"properties":{"layer":"building","height_m":3.9}},{"type":"Feature","id":"bldg_e7bd9d3d-e3c5-44f8-bce6-e85f83ea9f6f","geometry":{"type":"Polygon","coordinates":[[[139.0545893,36.0113481],[139.054527,36.0112799],[139.0545911,36.0112413],[139.0546533,36.0113095],[139.0545893,36.0113481]]]},"properties":{"layer":"building","height_m":7.0}},{"type":"Feature","id":"bldg_8590117e-288e-482f-95d0-f336e581e409","geometry":{"type":"Polygon","coordinates":[[[139.0521375,36.0088514],[139.0521632,36.0088312],[139.0522531,36.0089067],[139.0522274,36.0089269],[139.0521389,36.0088526],[139.0521375,36.0088514]]]},"properties":{"layer":"building","height_m":4.0}},{"type":"Feature","id":"bldg_692f5e54-43e8-44d6-b832-b67f1c81e40d","geometry":{"type":"Polygon","coordinates":[[[139.0520994,36.0083366],[139.0521245,36.0083192],[139.0521363,36.0083304],[139.0521609,36.0083133],[139.0522428,36.0083911],[139.0521931,36.0084256],[139.0520994,36.0083366]]]},"properties":{"layer":"building","height_m":4.4}},{"type":"Feature","id":"bldg_b07e1307-d1d2-4e25-9dca-e58435a72ddb","geometry":{"type":"Polygon","coordinates":[[[139.0521586,36.0086431],[139.0520997,36.0085954],[139.052123,36.0085764],[139.0520848,36.0085455],[139.0521494,36.0084928],[139.0521922,36.0085275],[139.0521874,36.0085314],[139.0522358,36.0085706],[139.0522066,36.0085944],[139.0522125,36.0085992],[139.0521586,36.0086431]]]},"properties":{"layer":"building","height_m":6.0}},{"type":"Feature","id":"bldg_8b56467a-0f3a-4aae-bee5-4798037ef041","geometry":{"type":"Polygon","coordinates":[[[139.0520962,36.0084343],[139.052062,36.0084656],[139.0520071,36.0084261],[139.0520412,36.0083947],[139.0520962,36.0084343]]]},"properties":{"layer":"building","height_m":3.4}},{"type":"Feature","id":"bldg_53a5395b-cff6-40f3-92d1-24c5db32939b","geometry":{"type":"Polygon","coordinates":[[[139.054179,36.0134345],[139.054231,36.0133647],[139.0543554,36.0134257],[139.0543034,36.0134956],[139.054179,36.0134345]]]},"properties":{"layer":"building","height_m":4.8}},{"type":"Feature","id":"bldg_b57c0e68-a9a3-4b3b-99c5-75c045777673","geometry":{"type":"Polygon","coordinates":[[[139.0529937,36.0107941],[139.0530549,36.0109058],[139.0530144,36.0109204],[139.0529534,36.0108086],[139.0529937,36.0107941]]]},"properties":{"layer":"building","height_m":4.1}},{"type":"Feature","id":"bldg_6fa06db0-4f63-4614-a321-a0faec6d4e08","geometry":{"type":"Polygon","coordinates":[[[139.0521145,36.0090158],[139.0519862,36.0088862],[139.0520748,36.0088165],[139.052128,36.0088612],[139.0521389,36.0088526],[139.0522274,36.0089269],[139.0521145,36.0090158]]]},"properties":{"layer":"building","height_m":7.4}},{"type":"Feature","id":"bldg_1a3c0c98-7fd8-4a26-9d81-15aa5673e46f","geometry":{"type":"Polygon","coordinates":[[[139.0519085,36.0084934],[139.051964,36.0084379],[139.0520068,36.0084662],[139.0519985,36.0084746],[139.0520791,36.0085278],[139.0520319,36.008575],[139.0519085,36.0084934]]]},"properties":{"layer":"building","height_m":5.3}},{"type":"Feature","id":"bldg_08df5c65-998c-487c-be74-950b8a1db4ed","geometry":{"type":"Polygon","coordinates":[[[139.0520391,36.0087764],[139.0519751,36.0088448],[139.0519136,36.0088069],[139.0519057,36.0088153],[139.0518495,36.0087806],[139.0518558,36.008774],[139.0518434,36.0087663],[139.0518762,36.0087313],[139.0518876,36.0087383],[139.0518919,36.0087337],[139.0518532,36.0087098],[139.0518846,36.0086762],[139.0519355,36.0087076],[139.0519326,36.0087107],[139.0520391,36.0087764]]]},"properties":{"layer":"building","height_m":7.6}},{"type":"Feature","id":"bldg_b516c1f9-e10f-4902-a25d-458810976f74","geometry":{"type":"Polygon","coordinates":[[[139.0517863,36.0087461],[139.0517421,36.0087213],[139.0517712,36.008687],[139.0518154,36.0087118],[139.0517863,36.0087461]]]},"properties":{"layer":"building","height_m":5.0}},{"type":"Feature","id":"bldg_dc4abef6-d7eb-4501-9b08-034319a5bae9","geometry":{"type":"Polygon","coordinates":[[[139.0517233,36.0086201],[139.0517823,36.0085523],[139.0519121,36.008627],[139.0518532,36.0086947],[139.0517233,36.0086201]]]},"properties":{"layer":"building","height_m":5.4}},{"type":"Feature","id":"bldg_e39c60e6-6f0b-4c62-9343-92e7154971e8","geometry":{"type":"Polygon","coordinates":[[[139.0516612,36.0086856],[139.0516902,36.0086503],[139.0517482,36.0086818],[139.0517191,36.0087171],[139.0516612,36.0086856]]]},"properties":{"layer":"building","height_m":4.5}},{"type":"Feature","id":"bldg_b20f59b6-2fac-4ed3-93dd-a50edd102768","geometry":{"type":"Polygon","coordinates":[[[139.0515765,36.0085605],[139.0516832,36.0086105],[139.0516537,36.0086521],[139.0515471,36.0086021],[139.0515765,36.0085605]]]},"properties":{"layer":"building","height_m":3.9}},{"type":"Feature","id":"bldg_1197688a-0135-484a-9478-f6b41e69136e","geometry":{"type":"Polygon","coordinates":[[[139.054813,36.011543],[139.0547939,36.0115223],[139.0547869,36.0115266],[139.0547514,36.0114882],[139.054839,36.0114348],[139.0548936,36.0114939],[139.054813,36.011543]]]},"properties":{"layer":"building","height_m":5.2}},{"type":"Feature","id":"bldg_7a0a8744-1146-41be-9ea7-9018a2127a45","geometry":{"type":"Polygon","coordinates":[[[139.0529602,36.0106888],[139.0529856,36.0107229],[139.0529568,36.0107371],[139.0529611,36.0107416],[139.0529141,36.0107792],[139.0528749,36.0107468],[139.0529234,36.0107069],[139.0529602,36.0106888]]]},"properties":{"layer":"building","height_m":3.3}},{"type":"Feature","id":"bldg_6310807f-3353-4be7-b86c-e52bdfbbb02b","geometry":{"type":"Polygon","coordinates":[[[139.054757,36.0105278],[139.0548048,36.0104651],[139.0548701,36.010498],[139.0548222,36.0105607],[139.054757,36.0105278]]]},"properties":{"layer":"building","height_m":7.1}},{"type":"Feature","id":"bldg_6620a3fc-525d-4bfd-992f-3a9d52664140","geometry":{"type":"Polygon","coordinates":[[[139.05284,36.0095793],[139.0529599,36.0096424],[139.0529297,36.0096803],[139.0528098,36.0096171],[139.05284,36.0095793]]]},"properties":{"layer":"building","height_m":3.8}},{"type":"Feature","id":"bldg_818c3f0f-8b31-4b6b-b43b-7033954ea1ba","geometry":{"type":"Polygon","coordinates":[[[139.0531137,36.0124467],[139.0530815,36.0123879],[139.0531689,36.0123562],[139.0532012,36.012415],[139.0531137,36.0124467]]]},"properties":{"layer":"building","height_m":3.5}},{"type":"Feature","id":"bldg_79b3ad07-0538-40f7-a140-04c7498740ff","geometry":{"type":"Polygon","coordinates":[[[139.0548425,36.0105407],[139.0550137,36.0106267],[139.0549661,36.0106894],[139.0549039,36.010658],[139.0548865,36.0106809],[139.0547775,36.0106262],[139.0548425,36.0105407]]]},"properties":{"layer":"building","height_m":10.0}},{"type":"Feature","id":"bldg_c0e47cf4-2c0e-4a73-8234-517e2aa7cb6b","geometry":{"type":"Polygon","coordinates":[[[139.0535271,36.0126883],[139.0535788,36.012744],[139.0535273,36.0127755],[139.0534757,36.0127198],[139.0535271,36.0126883]]]},"properties":{"layer":"building","height_m":4.3}},{"type":"Feature","id":"bldg_179bd850-8a8c-4be4-bbc5-61ae3cbf9baf","geometry":{"type":"Polygon","coordinates":[[[139.0533247,36.0130801],[139.0533559,36.013094],[139.0533405,36.0131168],[139.0533093,36.0131029],[139.0533247,36.0130801]]]},"properties":{"layer":"building","height_m":null}},{"type":"Feature","id":"bldg_00df1899-08ac-46bb-8824-f861cdbb1bbe","geometry":{"type":"Polygon","coordinates":[[[139.0574591,36.0123231],[139.0574505,36.0123307],[139.0574583,36.0123365],[139.057449,36.0123449],[139.0574677,36.0123587],[139.0574194,36.0124019],[139.0573199,36.0123284],[139.057333,36.0123167],[139.0573202,36.0123072],[139.0573734,36.0122597],[139.0574591,36.0123231]]]},"properties":{"layer":"building","height_m":7.6}}]}